{"1843325":{"to":"Prishtinë","ref":"R 7","from":"Vermicë","name":"Autostrada Dr. Ibrahim Rugova","type":"route","route":"road","name:en":"R 7 motorway","network":"XK:motorway","alt_name":"Autostrada Vermicë-Prishtinë;Autostrada Prishtinë - Prizren","wikidata":"Q2034433","wikipedia":"sq:Autostrada R7"},"2328747":{"to":"Chania","ref":"E 65","from":"Malmö","name":"European route E 65 (Serbia-Republic of Kosovo)","type":"route","route":"road","name:cs":"Evropská silnice E65 (Srbsko-Kosovo)","name:de":"Europastraße 65","name:en":"European route E 65 (Serbia-Republic of Kosovo)","name:nl":"Europese route E65 (Servië-Kosovo)","name:sk":"Európska cesta E 65 (Srbsko-Kosovo)","name:sq":"Rruga Evropiane E65","network":"e-road","wikidata":"Q911135","wikipedia":"en:European route E65","description":"E65 - Serbia and Kosovo"},"2385350":{"ref":"2","name":"M2","type":"route","route":"road","network":"XKX:national","distance":"160","name:aln":"N2"},"2401398":{"ref":"M-22.3","name":"M-22.3","type":"route","route":"road","distance":"65.2"},"2403564":{"ref":"25","name":"M-25","type":"route","route":"road","network":"XKX:national","distance":"418","name:aln":"N25"},"2403600":{"ref":"M-25.2","name":"M-25.2","type":"route","route":"road","distance":"79"},"3386746":{"ref":"42","name":"Државни пут IБ реда 42","type":"route","route":"road","name:al":"Rruga e shtetit IB 42","name:sr":"Државни пут IБ реда 42","network":"RS:national","distance":"79","wikidata":"Q20435947","wikipedia":"sr:Државни пут 42","name:sr-Latn":"Državni put IB reda 42"},"3400858":{"ref":"31","name":"Државни пут IБ реда 31","type":"route","route":"road","name:sr":"Државни пут IБ реда 31","network":"RS:national","wikidata":"Q12751220","wikipedia":"sr:Државни пут IБ реда 31","name:sr-Latn":"Državni put IB reda 31"},"3400894":{"ref":"32","name":"државни пут IБ реда 32","type":"route","route":"road","name:al":"rruga e shtetit IB 32","name:sr":"државни пут IБ реда 32","network":"RS:national","wikidata":"Q25459880","wikipedia":"sr:Државни пут IБ реда 32","name:sr-Latn":"državni put IB reda 32"},"6838617":{"to":"Han i Elezit","ref":"R 6","from":"Prishtinë","name":"Autostrada Arbën Xhaferi","type":"route","route":"road","network":"XK:motorway","alt_name":"Autostrada Prishtinë - Han i Elezit;Autostrada Prishtinë - Shkup","wikidata":"Q2169386","wikipedia":"sq:Autostrada R6"},"7419439":{"ref":"M-9.1","name":"M-9.1","type":"route","route":"road","network":"XKX:national","distance":"53"},"8077950":{"ref":"R-120","name":"R-120","type":"route","route":"road"},"8256768":{"ref":"R-113","name":"R-113","type":"route","route":"road","network":"XKX:regional"},"8256779":{"ref":"R-222","name":"R-222","type":"route","route":"road"},"8256819":{"ref":"R-114","name":"R-114","type":"route","route":"road"},"8256834":{"ref":"R-115","name":"R-115","type":"route","route":"road"},"8256836":{"ref":"R-210","name":"R-210","type":"route","route":"road"},"8256840":{"ref":"R-116","name":"R-116","type":"route","route":"road"},"8256842":{"ref":"R-118","name":"R-118","type":"route","route":"road"},"8273316":{"ref":"R-206","name":"R-206","type":"route","route":"road"},"8273377":{"ref":"R-122","name":"R-122","type":"route","route":"road"},"8273463":{"ref":"R-211","name":"R-211","type":"route","route":"road"},"8273472":{"ref":"R-212","name":"R-212","type":"route","route":"road"},"8273601":{"ref":"R-209","name":"R-209","type":"route","route":"road"},"8273836":{"ref":"R-208","name":"R-208","type":"route","route":"road"},"8274010":{"ref":"R-220","name":"R-220","type":"route","route":"road"},"8274043":{"ref":"R-123","name":"R-123","type":"route","route":"road"},"8274050":{"ref":"R-213","name":"R-213","type":"route","route":"road"},"8274338":{"ref":"R-106","name":"R-106","type":"route","route":"road"},"8274349":{"ref":"R-129","name":"R-129","type":"route","route":"road"},"8274458":{"ref":"R-125","name":"R-125","type":"route","route":"road"},"8274480":{"ref":"R-127","name":"R-127","type":"route","route":"road"},"8274509":{"ref":"R-102","name":"R-102","type":"route","route":"road"},"8274571":{"ref":"R-119","name":"R-119","type":"route","route":"road"},"8274612":{"ref":"R-217","name":"R-217","type":"route","route":"road"},"8274622":{"ref":"R-218","name":"R-218","type":"route","route":"road"},"8275528":{"ref":"R-101","name":"R-101","type":"route","route":"road"},"8276387":{"ref":"R-103","name":"R-103","type":"route","route":"road"},"8276945":{"ref":"RT-1","name":"RT-1","type":"route","route":"road"},"8276954":{"ref":"R-207","name":"R-207","type":"route","route":"road"},"8276968":{"ref":"R-110","name":"R-110","type":"route","route":"road"},"8280298":{"ref":"R-107","name":"R-107","type":"route","route":"road"},"8280319":{"ref":"R-121","name":"R-121","type":"route","route":"road"},"8280330":{"ref":"R-104","name":"R-104","type":"route","route":"road"},"8309182":{"ref":"R-111","name":"R-111","type":"route","route":"road"},"8309195":{"ref":"R-112","name":"R-112","type":"route","route":"road"},"8309196":{"ref":"R-219","name":"R-219","type":"route","route":"road"},"8309202":{"ref":"R-203","name":"R-203","type":"route","route":"road"},"8319309":{"ref":"R-109","name":"R-109","type":"route","route":"road"},"8319310":{"ref":"R-202","name":"R-202","type":"route","route":"road"},"8319326":{"ref":"R-216","name":"R-216","type":"route","route":"road"},"8319327":{"ref":"R-123a","name":"R-123a","type":"route","route":"road"},"8319333":{"ref":"R-124","name":"R-124","type":"route","route":"road"},"8319334":{"ref":"R-215","name":"R-215","type":"route","route":"road"},"8319335":{"ref":"R-214","name":"R-214","type":"route","route":"road"},"8319346":{"ref":"R-204","name":"R-204","type":"route","route":"road"},"8319355":{"ref":"R-128","name":"R-128","type":"route","route":"road"},"8322532":{"ref":"R-201","name":"R-201","type":"route","route":"road"},"8322542":{"ref":"R-108","name":"R-108","type":"route","route":"road"},"8322576":{"ref":"R-221","name":"R-221","type":"route","route":"road"},"11123964":{"ref":"D.30","name":"D.30 Anayolu","type":"route","route":"road","name:tr":"D.30 Anayolu"},"11123965":{"ref":"LF.53","name":"LF.53 Anayolu","type":"route","route":"road","name:tr":"Lf.53 Anayolu","network":"ir:national"},"11123966":{"ref":"LF.75","name":"LF.75 Anayolu","type":"route","route":"road","name:tr":"LF.75 Anayolu","network":"ir:national"},"11123968":{"ref":"GM.25","name":"GM.25 Anayolu","type":"route","route":"road","name:tr":"GM.25 Anayolu","network":"ir:national"},"11123969":{"ref":"D.55","name":"D.55 Anayolu","type":"route","route":"road","name:tr":"D.55 Anayolu"},"11123970":{"ref":"GM.98","name":"GM.98 Anayolu","type":"route","route":"road","name:tr":"GM.98 Anayolu"},"11123972":{"ref":"İK.08","name":"İK.08 Anayolu","type":"route","route":"road","name:tr":"İK.08 Anayolu","network":"ir:national"},"11123973":{"ref":"İK.24","name":"İK.24 Anayolu","type":"route","route":"road","name:tr":"İK.24 Anayolu"},"11123974":{"ref":"D.10","name":"D.10 Anayolu","type":"route","route":"road","name:tr":"D.10 Anayolu"},"11123975":{"ref":"D.45","name":"D.45 Anayolu","type":"route","route":"road","name:tr":"D.45 Anayolu","network":"ir:national"},"11123976":{"ref":"D.35","name":"D.35 Anayolu","type":"route","route":"road","name:tr":"D.35 Anayolu"},"11123977":{"ref":"GR.50","name":"GR.50 Anayolu","type":"route","route":"road","name:tr":"GR.50 Anayolu","network":"ir:national"},"11123978":{"ref":"D.25","name":"D.25 Anayolu","type":"route","route":"road","name:tr":"D.25 Anayolu","network":"ir:national"},"11123979":{"ref":"LF.50","name":"LF.50 Anayolu","type":"route","route":"road","name:tr":"LF.50 Anayolu","network":"ir:national"},"11123980":{"ref":"LF.20","name":"LF.20 Anayolu","type":"route","route":"road","name:tr":"LF.20 Anayolu"},"11123981":{"ref":"D.15","name":"D.15 Anayolu","type":"route","route":"road","name:tr":"D.15 Anayolu"},"11123982":{"ref":"D.05","name":"D.05 Anayolu","type":"route","route":"road","name:tr":"D.05 Anayolu"},"11123983":{"ref":"GR.79","name":"GR.79 Anayolu","type":"route","route":"road","name:tr":"GR.79 Anayolu"},"11123984":{"ref":"GZ.50","name":"GZ.50 Anayolu","type":"route","route":"road","name:tr":"GZ.50 Anayolu"},"11123985":{"ref":"GZ.54","name":"GZ.54 Anayolu","type":"route","route":"road","name:tr":"GZ.54 Anayolu"},"11123986":{"ref":"GZ.26","name":"GZ.26 Anayolu","type":"route","route":"road","name:tr":"GZ.26 Anayolu"},"11123987":{"ref":"LK.01","name":"LK.01 Anayolu","type":"route","route":"road","name:tr":"LK.01 Anayolu"},"11123988":{"ref":"LK.04","name":"LK.04 Anayolu","type":"route","route":"road","name:tr":"LK.04 Anayolu"},"11123989":{"ref":"LK.05","name":"LK.05 Anayolu","type":"route","route":"road","name:tr":"LK.05 Anayolu"},"11123990":{"ref":"LK.75","name":"LK.75 Anayolu","type":"route","route":"road","name:tr":"LK.75 Anayolu"},"11123991":{"ref":"LK.50","name":"LK.50 Anayolu","type":"route","route":"road","name:tr":"LK.50 Anayolu"},"11123992":{"ref":"LK.02","name":"LK.02 Anayolu","type":"route","route":"road","name:tr":"LK.02 Anayolu"},"11123993":{"ref":"LK.03","name":"LK.03 Anayolu","type":"route","route":"road","name:tr":"LK.03 Anayolu"},"11123994":{"ref":"LK.76","name":"LK.76 Anayolu","type":"route","route":"road","name:tr":"LK.76 Anayolu"},"11123995":{"ref":"LK.77","name":"LK.77 Anayolu","type":"route","route":"road","name:tr":"LK.77 Anayolu"},"11123996":{"ref":"LK.78","name":"LK.78 Anayolu","type":"route","route":"road","name:tr":"LK.78 Anayolu"},"11124757":{"ref":"LK.06","name":"LK.06 Anayolu","type":"route","route":"road","name:tr":"LK.06 Anayolu"},"11124758":{"ref":"LK.25","name":"LK.25 Anayolu","type":"route","route":"road","name:tr":"LK.25 Anayolu"},"11125065":{"ref":"GZ.31","name":"GZ.31 Anayolu","type":"route","route":"road","name:tr":"GZ.31 Anayolu"},"11125066":{"ref":"GZ.75","name":"GZ.75 Anayolu","type":"route","route":"road","name:tr":"GZ.75 Anayolu"},"11125067":{"ref":"GZ.51","name":"GZ.51 Anayolu","type":"route","route":"road","name:tr":"GZ.51 Anayolu"},"11125068":{"ref":"GZ.26","name":"GZ.26 Anayolu","type":"route","route":"road","name:tr":"GZ.26 Anayolu"},"11125069":{"ref":"GZ.52","name":"GZ.52 Anayolu","type":"route","route":"road","name:tr":"GZ.52 Anayolu"},"11125070":{"ref":"GZ.53","name":"GZ.53 Anayolu","type":"route","route":"road","name:tr":"GZ.53 Anayolu"},"11125071":{"ref":"GZ.76","name":"GZ.76 Anayolu","type":"route","route":"road","name:tr":"GZ.76 Anayolu"},"11125072":{"ref":"GZ.02","name":"GZ.02 Anayolu","type":"route","route":"road","name:tr":"GZ.02 Anayolu"},"11125073":{"ref":"GZ.04","name":"GZ.04 Anayolu","type":"route","route":"road","name:tr":"GZ.04 Anayolu"},"11125074":{"ref":"GZ.06","name":"GZ.06 Anayolu","type":"route","route":"road","name:tr":"GZ.06 Anayolu"},"11125075":{"ref":"GZ.06","name":"GZ.06 Anayolu","type":"route","route":"road","name:tr":"GZ.06 Anayolu"},"11125076":{"ref":"GZ.03","name":"GZ.03 Anayolu","type":"route","route":"road","name:tr":"GZ.03 Anayolu"},"11125077":{"ref":"GZ.30","name":"GZ.30 Anayolu","type":"route","route":"road","name:tr":"GZ.30 Anayolu"},"11125078":{"ref":"GZ.28","name":"GZ.28 Anayolu","type":"route","route":"road","name:tr":"GZ.28 Anayolu"},"11126124":{"ref":"GR.72","name":"GR.72 Anayolu","type":"route","route":"road","name:tr":"GR.72 Anayolu"},"11126125":{"ref":"GR.80","name":"GR.80 Anayolu","type":"route","route":"road","name:tr":"GR.80 Anayolu"},"11126126":{"ref":"GR.81","name":"GR.81 Anayolu","type":"route","route":"road","name:tr":"GR.81 Anayolu"},"11126127":{"ref":"GR.78","name":"GR.78 Anayolu","type":"route","route":"road","name:tr":"GR.78 Anayolu"},"11126128":{"ref":"GR.74","name":"GR.74 Anayolu","type":"route","route":"road","name:tr":"GR.74 Anayolu"},"11126129":{"ref":"GR.75","name":"GR.75 Anayolu","type":"route","route":"road","name:tr":"GR.75 Anayolu"},"11126130":{"ref":"GR.71","name":"GR.71 Anayolu","type":"route","route":"road","name:tr":"GR.71 Anayolu"},"11126131":{"ref":"GR.76","name":"GR.76 Anayolu","type":"route","route":"road","name:tr":"GR.76 Anayolu"},"11126132":{"ref":"GR.73","name":"GR.73 Anayolu","type":"route","route":"road","name:tr":"GR.73 Anayolu"},"11126133":{"ref":"GR.70","name":"GR.70 Anayolu","type":"route","route":"road","name:tr":"GR.70 Anayolu"},"11126134":{"ref":"GR.67","name":"GR.67 Anayolu","type":"route","route":"road","name:tr":"GR.67 Anayolu"},"11126135":{"ref":"GR.69","name":"GR.69 Anayolu","type":"route","route":"road","name:tr":"GR.69 Anayolu"},"11126136":{"ref":"GR.64","name":"GR.64 Anayolu","type":"route","route":"road","name:tr":"GR.64 Anayolu"},"11126137":{"ref":"GR.65","name":"GR.65 Anayolu","type":"route","route":"road","name:tr":"GR.65 Anayolu"},"11126138":{"ref":"LF.81","name":"LF.81 Anayolu","type":"route","route":"road","name:tr":"LF.81 Anayolu"},"11126139":{"ref":"LF.82","name":"LF.82 Anayolu","type":"route","route":"road","name:tr":"LF.82 Anayolu"},"11126140":{"ref":"GR.68","name":"GR.68 Anayolu","type":"route","route":"road","name:tr":"GR.68 Anayolu"},"11126141":{"ref":"GR.66","name":"GR.66 Anayolu","type":"route","route":"road","name:tr":"GR.66 Anayolu"},"11126142":{"ref":"GR.61","name":"GR.61 Anayolu","type":"route","route":"road","name:tr":"GR.61 Anayolu"},"11126143":{"ref":"GR.63","name":"GR.63 Anayolu","type":"route","route":"road","name:tr":"GR.63 Anayolu"},"11126144":{"ref":"GR.60","name":"GR.60 Anayolu","type":"route","route":"road","name:tr":"GR.60 Anayolu"},"11126145":{"ref":"GR.58","name":"GR.58 Anayolu","type":"route","route":"road","name:tr":"GR.58 Anayolu"},"11126146":{"ref":"GR.62","name":"GR.62 Anayolu","type":"route","route":"road","name:tr":"GR.62 Anayolu"},"11126147":{"ref":"GR.59","name":"GR.59 Anayolu","type":"route","route":"road","name:tr":"GR.59 Anayolu"},"11126149":{"ref":"GR.57","name":"GR.57 Anayolu","type":"route","route":"road","name:tr":"GR.57 Anayolu"},"11126150":{"ref":"GR.56","name":"GR.56 Anayolu","type":"route","route":"road","name:tr":"GR.56 Anayolu"},"11126151":{"ref":"GR.54","name":"GR.54 Anayolu","type":"route","route":"road","name:tr":"GR.54 Anayolu"},"11126152":{"ref":"GR.55","name":"GR.55 Anayolu","type":"route","route":"road","name:tr":"GR.55 Anayolu"},"11126153":{"ref":"D.20","name":"D.20 Anayolu","type":"route","route":"road","name:tr":"D.20 Anayolu"},"11126154":{"ref":"GR.53","name":"GR.53 Anayolu","type":"route","route":"road","name:tr":"GR.52 Anayolu"},"11126155":{"ref":"GR.27","name":"GR.27 Anayolu","type":"route","route":"road","name:tr":"GR.27 Anayolu"},"11126156":{"ref":"GR.25","name":"GR.25 Anayolu","type":"route","route":"road","name:tr":"GR.25 Anayolu"},"11126157":{"ref":"GR.33","name":"GR.33 Anayolu","type":"route","route":"road","name:tr":"GR.33 Anayolu"},"11126158":{"ref":"GR.34","name":"GR.34 Anayolu","type":"route","route":"road","name:tr":"GR.34 Anayolu"},"11126159":{"ref":"GR.35","name":"GR.35 Anayolu","type":"route","route":"road","name:tr":"GR.35 Anayolu"},"11126160":{"ref":"GR.36","name":"GR.36 Anayolu","type":"route","route":"road","name:tr":"GR.36 Anayolu"},"11126161":{"ref":"GR.37","name":"GR.37 Anayolu","type":"route","route":"road","name:tr":"GR.37 Anayolu"},"11126162":{"ref":"LF.12","name":"LF.12 Anayolu","type":"route","route":"road","name:tr":"LF.12 Anayolu"},"11126163":{"ref":"GR.29","name":"GR.29 Anayolu","type":"route","route":"road","name:tr":"GR.29 Anayolu"},"11126164":{"ref":"GR.30","name":"GR.30 Anayolu","type":"route","route":"road","name:tr":"GR.30 Anayolu"},"11126165":{"ref":"GR.31","name":"GR.31 Anayolu","type":"route","route":"road","name:tr":"GR.31 Anayolu"},"11126166":{"ref":"GR.32","name":"GR.32 Anayolu","type":"route","route":"road","name:tr":"GR.32 Anayolu"},"11127484":{"ref":"LF.40","name":"LF.40 Anayolu","type":"route","route":"road","name:tr":"LF.40 Anayolu"},"11127485":{"ref":"LF.29","name":"LF.29 Anayolu","type":"route","route":"road","name:tr":"LF.29 Anayolu"},"11127486":{"ref":"LF.27","name":"LF.27 Anayolu","type":"route","route":"road","name:tr":"LF.27 Anayolu"},"11127487":{"ref":"LF.26","name":"LF.26 Anayolu","type":"route","route":"road","name:tr":"LF.26 Anayolu"},"11127488":{"ref":"LF.77","name":"LF.77 Anayolu","type":"route","route":"road","name:tr":"LF.77 Anayolu","network":"ir:national"},"11127489":{"ref":"LF.51","name":"LF.51 Anayolu","type":"route","route":"road","name:tr":"LF.51 Anayolu"},"11127490":{"ref":"LF.52","name":"LF.52 Anayolu","type":"route","route":"road","name:tr":"LF.52 Anayolu"},"11127491":{"ref":"LF.83","name":"LF.83 Anayolu","type":"route","route":"road","name:tr":"LF.83 Anayolu"},"11127492":{"ref":"LF.80","name":"LF.80 Anayolu","type":"route","route":"road","name:tr":"LF.80 Anayolu"},"11127493":{"ref":"LF.79","name":"LF.79 Anayolu","type":"route","route":"road","name:tr":"LF.79 Anayolu"},"11127494":{"ref":"LF.78","name":"LF.78 Anayolu","type":"route","route":"road","name:tr":"LF.78 Anayolu","network":"ir:national"},"11127495":{"ref":"LF.84","name":"LF.84 Anayolu","type":"route","route":"road","name:tr":"LF.84 Anayolu"},"11127497":{"ref":"LF.02","name":"LF.02 Anayolu","type":"route","route":"road","name:tr":"LF.02 Anayolu"},"11127498":{"ref":"LF.05","name":"LF.05 Anayolu","type":"route","route":"road","name:tr":"LF.05 Anayolu"},"11127499":{"ref":"LF.06","name":"LF.06 Anayolu","type":"route","route":"road","name:tr":"LF.06 Anayolu"},"11127500":{"ref":"LF.03","name":"LF.03 Anayolu","type":"route","route":"road","name:tr":"LF.03 Anayolu"},"11127501":{"ref":"LF.04","name":"LF.04 Anayolu","type":"route","route":"road","name:tr":"LF.04 Anayolu"},"11127502":{"ref":"LF.08","name":"LF.08 Anayolu","type":"route","route":"road","name:tr":"LF.08 Anayolu"},"11127503":{"ref":"LF.13","name":"LF.13 Anayolu","type":"route","route":"road","name:tr":"LF.13 Anayolu"},"11127504":{"ref":"LF.10","name":"LF.10 Anayolu","type":"route","route":"road","name:tr":"LF.10 Anayolu"},"11127505":{"ref":"LF.11","name":"LF.11 Anayolu","type":"route","route":"road","name:tr":"LF.11 Anayolu"},"11127506":{"ref":"LF.14","name":"LF.14 Anayolu","type":"route","route":"road","name:tr":"LF.14 Anayolu"},"11127507":{"ref":"LF.09","name":"LF.09 Anayolu","type":"route","route":"road","name:tr":"LF.09 Anayolu"},"11127508":{"ref":"LF.16","name":"LF.16 Anayolu","type":"route","route":"road","name:tr":"LF.16 Anayolu"},"11127509":{"ref":"LF.17","name":"LF.17 Anayolu","type":"route","route":"road","name:tr":"LF.17 Anayolu"},"11127510":{"ref":"LF.19","name":"LF.19 Anayolu","type":"route","route":"road","name:tr":"LF.19 Anayolu"},"11127511":{"ref":"LF.28","name":"LF.28 Anayolu","type":"route","route":"road","name:tr":"LF.28 Anayolu"},"11127512":{"ref":"LF.31","name":"LF.31 Anayolu","type":"route","route":"road","name:tr":"LF.31 Anayolu"},"11127513":{"ref":"LF.38","name":"LF.38 Anayolu","type":"route","route":"road","name:tr":"LF.38 Anayolu"},"11127514":{"ref":"LF.32","name":"LF.32 Anayolu","type":"route","route":"road","name:tr":"LF.32 Anayolu"},"11127515":{"ref":"LF.39","name":"LF.39 Anayolu","type":"route","route":"road","name:tr":"LF.39 Anayolu"},"11127516":{"ref":"LF.33","name":"LF.33 Anayolu","type":"route","route":"road","name:tr":"LF.33 Anayolu"},"11127517":{"ref":"LF.35","name":"LF.35 Anayolu","type":"route","route":"road","name:tr":"LF.35 Anayolu"},"11127518":{"ref":"LF.34","name":"LF.34 Anayolu","type":"route","route":"road","name:tr":"LF.34 Anayolu"},"11127519":{"ref":"LF.36","name":"LF.36 Anayolu","type":"route","route":"road","name:tr":"LF.36 Anayolu"},"11127520":{"ref":"LF.37","name":"LF.37 Anayolu","type":"route","route":"road","name:tr":"LF.37 Anayolu"},"11127542":{"ref":"LF.01","name":"LF.01 Anayolu","type":"route","route":"road","name:tr":"LF.01 Anayolu"},"11130009":{"ref":"GM.99","name":"GM.99 Anayolu","type":"route","route":"road","name:tr":"GM.99 Anayolu"},"11130010":{"ref":"GM.95","name":"GM.95 Anayolu","type":"route","route":"road","name:tr":"GM.95 Anayolu"},"11130011":{"ref":"GM.97","name":"GM.97 Anayolu","type":"route","route":"road","name:tr":"GM.97 Anayolu"},"11130012":{"ref":"GM.96","name":"GM.96 Anayolu","type":"route","route":"road","name:tr":"GM.96 Anayolu"},"11130013":{"ref":"GM.94","name":"GM.94 Anayolu","type":"route","route":"road","name:tr":"GM.94 Anayolu"},"11130014":{"ref":"GM.93","name":"GM.93 Anayolu","type":"route","route":"road","name:tr":"GM.93 Anayolu"},"11130015":{"ref":"GM.92","name":"GM.92 Anayolu","type":"route","route":"road","name:tr":"GM.92 Anayolu"},"11130016":{"ref":"GM.85","name":"GM.85 Anayolu","type":"route","route":"road","name:tr":"GM.85 Anayolu"},"11130017":{"ref":"GM.91","name":"GM.91 Anayolu","type":"route","route":"road","name:tr":"GM.91 Anayolu"},"11130019":{"ref":"GM.86","name":"GM.86 Anayolu","type":"route","route":"road","name:tr":"GM.86 Anayolu"},"11130020":{"ref":"GM.84","name":"GM.84 Anayolu","type":"route","route":"road","name:tr":"GM.84 Anayolu"},"11130021":{"ref":"GM.83","name":"GM.83 Anayolu","type":"route","route":"road","name:tr":"GM.83 Anayolu"},"11130022":{"ref":"GM.87","name":"GM.87 Anayolu","type":"route","route":"road","name:tr":"GM.87 Anayolu"},"11130023":{"ref":"GM.82","name":"GM.82 Anayolu","type":"route","route":"road","name:tr":"GM.82 Anayolu"},"11130024":{"ref":"GM.52","name":"GM.52 Anayolu","type":"route","route":"road","name:tr":"GM.52 Anayolu"},"11130025":{"ref":"GM.56","name":"GM.56 Anayolu","type":"route","route":"road","name:tr":"GM.56 Anayolu"},"11130026":{"ref":"GM.54","name":"GM.54 Anayolu","type":"route","route":"road","name:tr":"GM.54 Anayolu"},"11130027":{"ref":"GM.53","name":"GM.53 Anayolu","type":"route","route":"road","name:tr":"GM.53 Anayolu"},"11130028":{"ref":"GM.51","name":"GM.51 Anayolu","type":"route","route":"road","name:tr":"GM.51 Anayolu"},"11130029":{"ref":"GM.88","name":"GM.88 Anayolu","type":"route","route":"road","name:tr":"GM.88 Anayolu"},"11130030":{"ref":"GM.98","name":"GM.98 Anayolu","type":"route","route":"road","name:tr":"GM.98 Anayolu"},"11130031":{"ref":"GM.81","name":"GM.81 Anayolu","type":"route","route":"road","name:tr":"GM.81 Anayolu"},"11130032":{"ref":"GM.80","name":"GM.80 Anayolu","type":"route","route":"road","name:tr":"GM.80 Anayolu"},"11130033":{"ref":"GM.78","name":"GM.78 Anayolu","type":"route","route":"road","name:tr":"GM.78 Anayolu"},"11130034":{"ref":"GM.79","name":"GM.79 Anayolu","type":"route","route":"road","name:tr":"GM.79 Anayolu"},"11130035":{"ref":"GM.75","name":"GM.75 Anayolu","type":"route","route":"road","name:tr":"GM.75 Anayolu"},"11133195":{"ref":"İK.50","name":"İK.50 Anayolu","type":"route","route":"road","name:tr":"İK.50 Anayolu"},"11133196":{"ref":"İK.51","name":"İK.51 Anayolu","type":"route","route":"road","name:tr":"İK.51 Anayolu"},"11133197":{"ref":"İK.25","name":"İK.25 Anayolu","type":"route","route":"road","name:tr":"İK.25 Anayolu"},"11133198":{"ref":"İK.26","name":"İK.26 Anayolu","type":"route","route":"road","name:tr":"İK.26 Anayolu"},"11133199":{"ref":"İK.01","name":"İK.01 Anayolu","type":"route","route":"road","name:tr":"İK.01 Anayolu"},"11133200":{"ref":"İK.80","name":"İK.80 Anayolu","type":"route","route":"road","name:tr":"İK.80 Anayolu"},"11133201":{"ref":"İK.79","name":"İK.79 Anayolu","type":"route","route":"road","name:tr":"İK.79 Anayolu"},"11133202":{"ref":"İK.78","name":"İK.78 Anayolu","type":"route","route":"road","name:tr":"İK.78 Anayolu"},"11133203":{"ref":"İK.77","name":"İK.77 Anayolu","type":"route","route":"road","name:tr":"İK.77 Anayolu"},"11133204":{"ref":"İK.02","name":"İK.02 Anayolu","type":"route","route":"road","name:tr":"İK.02 Anayolu"},"11133205":{"ref":"İK.76","name":"İK.76 Anayolu","type":"route","route":"road","name:tr":"İK.76 Anayolu"},"11133206":{"ref":"İK.75","name":"İK.75 Anayolu","type":"route","route":"road","name:tr":"İK.75 Anayolu"},"11133207":{"ref":"İK.11","name":"İK.11 Anayolu","type":"route","route":"road","name:tr":"İK.11 Anayolu"},"11133208":{"ref":"İK.25","name":"İK.25 Anayolu","type":"route","route":"road","name:tr":"İK.25 Anayolu"},"11133209":{"ref":"İK.03","name":"İK.03 Anayolu","type":"route","route":"road","name:tr":"İK.03 Anayolu"},"11133210":{"ref":"İK.06","name":"İK.06 Anayolu","type":"route","route":"road","name:tr":"İK.06 Anayolu"},"11133211":{"ref":"İK.05","name":"İK.05 Anayolu","type":"route","route":"road","name:tr":"İK.05 Anayolu"},"11133212":{"ref":"İK.04","name":"İK.04 Anayolu","type":"route","route":"road","name:tr":"İK.04 Anayolu"},"11133213":{"ref":"İK.09","name":"İK.09 Anayolu","type":"route","route":"road","name:tr":"İK.09 Anayolu"},"11133214":{"ref":"İK.07","name":"İK.07 Anayolu","type":"route","route":"road","name:tr":"İK.07 Anayolu"},"11133215":{"ref":"İK.12","name":"İK.12 Anayolu","type":"route","route":"road","name:tr":"İK.12 Anayolu"},"11133216":{"ref":"İK.15","name":"İK.15 Anayolu","type":"route","route":"road","name:tr":"İK.15 Anayolu"},"11133217":{"ref":"İK.13","name":"İK.13 Anayolu","type":"route","route":"road","name:tr":"İK.13 Anayolu"},"11133218":{"ref":"İK.14","name":"İK.14 Anayolu","type":"route","route":"road","name:tr":"İK.14 Anayolu"},"11133219":{"ref":"İK.19","name":"İK.19 Anayolu","type":"route","route":"road","name:tr":"İK.19 Anayolu"},"11133220":{"ref":"İK.20","name":"İK.20 Anayolu","type":"route","route":"road","name:tr":"İK.20 Anayolu"},"11133221":{"ref":"İK.21","name":"İK.21 Anayolu","type":"route","route":"road","name:tr":"İK.21 Anayolu"},"11133222":{"ref":"İK.22","name":"İK.22 Anayolu","type":"route","route":"road","name:tr":"İK.22 Anayolu"},"11133223":{"ref":"İK.18","name":"İK.18 Anayolu","type":"route","route":"road","name:tr":"İK.18 Anayolu"},"11133224":{"ref":"İK.17","name":"İK.17 Anayolu","type":"route","route":"road","name:tr":"İK.17 Anayolu"},"11133225":{"ref":"İK.23","name":"İK.23 Anayolu","type":"route","route":"road","name:tr":"İK.23 Anayolu"},"11747141":{"to":"Dheu i Bardhë","ref":"R 7.1","from":"Prishtinë","name":"Autostrada Agim Ramadani","type":"route","route":"road","network":"XK:motorway","alt_name":"Autostrada Prishtinë - Gjilan - Dheu i Bardhë","wikidata":"Q27131682","wikipedia":"sq:Autostrada R 7.1"},"13321919":{"ref":"1","name":"Road Number 1 / طريق رقم 1","type":"route","route":"road","name:ar":"طريق رقم 1","name:en":"Road Number 1","roundtrip":"no"},"13952950":{"ref":"GZ.02","name":"GZ.02 Anayolu","type":"route","route":"road","name:tr":"GZ.02 Anayolu"},"15095393":{"ref":"6","name":"Hargeisa-Ina Guuxaa Highway","type":"route","route":"road"}}