{"1650459":{"ref":"E 691","name":"European route E 691","type":"route","route":"road","name:en":"European route E 691","name:fr":"Route européenne E 691","name:nl":"Europese route E691","network":"e-road","wikidata":"Q1375961","wikipedia":"en:European route E691","description:fr":"E 691 Achtarak - Horasan"},"4243136":{"ref":"E 001","name":"European route E 001","note":"Tbilisi - Bagratashen - Vanadzor","type":"route","route":"road","name:en":"European route E 001","name:fr":"Route européenne E 001","name:nl":"Europese route E001","network":"e-road","wikidata":"Q2621085","e-road:class":"B-intermediate","description:fr":"E 001 Tbilissi - Vanadzor"},"7057664":{"ref":"Մ-8","name":"Մ-8","type":"route","route":"road","ref:en":"M-8","name:en":"Highway M-8","network":"am:national"},"7063661":{"ref":"Մ-3","name":"Մ-3","type":"route","route":"road","ref:en":"M-3","name:en":"Highway M-3","network":"am:national"},"7065396":{"ref":"Մ-9","name":"Մ-9","type":"route","route":"road","ref:en":"M-9","name:en":"Highway M-9","network":"am:national"},"7065693":{"ref":"Մ-4","name":"Մ-4","type":"route","route":"road","ref:en":"M-4","name:en":"Highway M-4","network":"am:national"},"7066149":{"ref":"Մ-6","name":"Մ-6","type":"route","route":"road","ref:en":"M-6","name:en":"Highway M-6","network":"am:national"},"7066178":{"ref":"Մ-7","name":"Մ-7","type":"route","route":"road","ref:en":"M-7","name:en":"Highway M-7","network":"am:national"},"7066202":{"ref":"Մ-10","name":"Մ-10","type":"route","route":"road","ref:en":"M-10","name:en":"Highway M-10","network":"am:national"},"7066242":{"ref":"Մ-11","name":"Մ-11","type":"route","route":"road","ref:en":"M-11","name:en":"Highway M-11","network":"am:national"},"7066261":{"ref":"Մ-14","name":"Մ-14","type":"route","route":"road","ref:en":"M-14","name:en":"Highway M-14","network":"am:national"},"7076300":{"ref":"Մ-13","name":"Մ-13","type":"route","route":"road","ref:en":"M-13","name:en":"Highway M-13","network":"am:national"},"7076466":{"ref":"Մ-16","name":"Մ-16","type":"route","route":"road","ref:en":"M-16","name:en":"Highway M-16","network":"am:national"},"10837771":{"ref":"Հ-9","name":"Հ-9","type":"route","route":"road","ref:en":"H-9","name:en":"Highway H-9","network":"am:national"},"10958611":{"ref":"Հ-17","name":"Հ-17","type":"route","route":"road","ref:en":"H-17","name:en":"Highway H-17","network":"am:national"},"11264971":{"ref":"Հ-44","name":"Հ-44","type":"route","route":"road","ref:en":"H-44","name:en":"Highway H-44"},"11264972":{"ref":"Հ-43","name":"Հ-43","type":"route","route":"road","ref:en":"H-43","name:en":"Highway H-43","network":"am:national"},"11607416":{"ref":"Հ-46","name":"Հ-46","type":"route","route":"road","ref:en":"H-46","name:en":"Highway H-46","network":"am:national"},"11685401":{"ref":"Հ-75","name":"Հ-75","type":"route","route":"road","ref:en":"H-75","source":"https://hti.am/edfiles/files/POXADRUMNER/voroshum.pdf","name:en":"Highway H-75","network":"am:national"},"11685402":{"ref":"Տ-7-73","name":"Տ-7-73","type":"route","route":"road","ref:en":"T-7-73","source":"https://hti.am/edfiles/files/POXADRUMNER/voroshum.pdf","name:en":"Highway T-7-73","network":"am:national"},"11700249":{"ref":"Մ-15","name":"M-15 Երևանի շրջանց ավտոմոբիլային ճանապարհ","type":"route","route":"road","ref:en":"M-15","name:en":"M-15 Yerevan Bypass Road","network":"am:national"},"11700423":{"ref":"Մ-17","name":"Մ-17","type":"route","route":"road","ref:en":"M-17","name:en":"Highway M-17","network":"am:national"},"11700721":{"ref":"Հ-1","name":"Հ-1","type":"route","route":"road","ref:en":"H-1","name:en":"Highway H-1","network":"am:national"},"11700722":{"ref":"Հ-2","name":"Հ-2","type":"route","route":"road","ref:en":"H-2","name:en":"Highway H-2","network":"am:national"},"11701235":{"ref":"Հ-3","name":"Հ-3","type":"route","route":"road","ref:en":"H-3","name:en":"Highway H-3","network":"am:national"},"11701236":{"ref":"Հ-4","name":"Հ-4","type":"route","route":"road","ref:en":"H-4","name:en":"Highway H-4","network":"am:national"},"11701237":{"ref":"Հ-5","name":"Հ-5","type":"route","route":"road","ref:en":"H-5","name:en":"Highway H-5","network":"am:national"},"11701238":{"ref":"Հ-6","name":"Հ-6","type":"route","route":"road","ref:en":"H-6","name:en":"Highway H-6","network":"am:national"},"11701239":{"ref":"Հ-7","name":"Հ-7","type":"route","route":"road","ref:en":"H-7","name:en":"Highway H-7","network":"am:national"},"11701240":{"ref":"Հ-8","name":"Հ-8","type":"route","route":"road","ref:en":"H-8","name:en":"Highway H-8","network":"am:national"},"11701241":{"ref":"Հ-10","name":"Հ-10","type":"route","route":"road","ref:en":"H-10","name:en":"Highway H-10","network":"am:national"},"11701405":{"ref":"Հ-11","name":"Հ-11","type":"route","route":"road","ref:en":"H-11","name:en":"Highway H-11","network":"am:national"},"11701406":{"ref":"Հ-12","name":"Հ-12","type":"route","route":"road","ref:en":"H-12","name:en":"Highway H-12","network":"am:national"},"11701407":{"ref":"Հ-13","name":"Հ-13","type":"route","route":"road","ref:en":"H-13","name:en":"Highway H-13","name:hy":"Հ-13","network":"am:national"},"11701408":{"ref":"Հ-14","name":"Հ-14","type":"route","route":"road","ref:en":"H-14","name:en":"Highway H-14","name:hy":"Հ-14","network":"am:national"},"11701409":{"ref":"Հ-15","name":"Հ-15","type":"route","route":"road","ref:en":"H-15","name:en":"Highway H-15","network":"am:national"},"11701410":{"ref":"Հ-16","name":"Հ-16","type":"route","route":"road","ref:en":"H-16","name:en":"Highway H-16","network":"am:national"},"11701411":{"ref":"Հ-18","name":"Հ-18","type":"route","route":"road","ref:en":"H-18","name:en":"Highway H-18","network":"am:national"},"11701412":{"ref":"Հ-19","name":"Հ-19","type":"route","route":"road","ref:en":"H-19","name:en":"Highway H-19","network":"am:national"},"11701413":{"ref":"Հ-20","name":"Հ-20","type":"route","route":"road","ref:en":"H-20","name:en":"Highway H-20","network":"am:national"},"11703491":{"ref":"Հ-21","name":"Հ-21","type":"route","route":"road","ref:en":"H-21","name:en":"Highway H-21","network":"am:national"},"11703492":{"ref":"Հ-22","name":"Հ-22","type":"route","route":"road","ref:en":"H-22","name:en":"Highway H-22"},"11703493":{"ref":"Հ-23","name":"Հ-23","type":"route","route":"road","ref:en":"H-23","name:en":"Highway H-23"},"11703494":{"ref":"Հ-24","name":"Հ-24","type":"route","route":"road","ref:en":"H-24","name:en":"Highway H-24"},"11703495":{"ref":"Հ-25","name":"Հ-25","type":"route","route":"road","ref:en":"H-25","name:en":"Highway H-25"},"11703496":{"ref":"Հ-26","name":"Հ-26","type":"route","route":"road","ref:en":"H-26","name:en":"Highway H-26"},"11703497":{"ref":"Հ-27","name":"Հ-27","type":"route","route":"road","ref:en":"H-27","name:en":"Highway H-27"},"11703498":{"ref":"Հ-28","name":"Հ-28","type":"route","route":"road","ref:en":"H-28","name:en":"Highway H-28","network":"am:national"},"11703499":{"ref":"Հ-29","name":"Հ-29","type":"route","route":"road","ref:en":"H-29","name:en":"Highway H-29","network":"am:national"},"11703500":{"ref":"Հ-30","name":"Հ-30","type":"route","route":"road","ref:en":"H-30","name:en":"Highway H-30","network":"am:national"},"11704590":{"ref":"Հ-31","name":"Հ-31","type":"route","route":"road","ref:en":"H-31","name:en":"Highway H-31","network":"am:national"},"11704591":{"ref":"Հ-32","name":"Հ-32","type":"route","route":"road","ref:en":"H-32","name:en":"Highway H-32","network":"am:national"},"11704592":{"ref":"Հ-33","name":"Հ-33","type":"route","route":"road","ref:en":"H-33","name:en":"Highway H-33","network":"am:national"},"11704593":{"ref":"Հ-35","name":"Հ-35","type":"route","route":"road","ref:en":"H-35","name:en":"Highway H-35"},"11704594":{"ref":"Հ-34","name":"Հ-34","type":"route","route":"road","ref:en":"H-34","name:en":"Highway H-34","network":"am:national"},"11704595":{"ref":"Հ-36","name":"Հ-36","type":"route","route":"road","ref:en":"H-36","name:en":"Highway H-36","network":"am:national"},"11704596":{"ref":"Հ-37","name":"Հ-37","type":"route","route":"road","ref:en":"H-37","name:en":"Highway H-37","network":"am:national"},"11704597":{"ref":"Հ-38","name":"Հ-38","type":"route","route":"road","ref:en":"H-38","name:en":"Highway H-38","network":"am:national"},"11704598":{"ref":"Հ-39","name":"Հ-39","type":"route","route":"road","ref:en":"H-39","name:en":"Highway H-39","network":"am:national"},"11704599":{"ref":"Հ-40","name":"Հ-40","type":"route","route":"road","ref:en":"H-40","name:en":"Highway H-40","network":"am:national"},"11714432":{"ref":"Հ-41","name":"Հ-41","type":"route","route":"road","ref:en":"H-41","name:en":"Highway H-41","network":"am:national"},"11714433":{"ref":"Հ-42","name":"Հ-42","type":"route","route":"road","ref:en":"H-42","name:en":"Highway H-42","network":"am:national"},"11714434":{"ref":"Հ-45","name":"Հ-45","type":"route","route":"road","ref:en":"H-45","name:en":"Highway H-45","network":"am:national"},"11714435":{"ref":"Հ-47","name":"Հ-47","type":"route","route":"road","ref:en":"H-47","name:en":"Highway H-47","network":"am:national"},"11714436":{"ref":"Հ-48","name":"Հ-48","type":"route","route":"road","ref:en":"H-48","name:en":"Highway H-48","network":"am:national"},"11716716":{"ref":"Հ-51","name":"Հ-51","type":"route","route":"road","ref:en":"H-51","name:en":"Highway H-51","network":"am:national"},"11716717":{"ref":"Հ-52","name":"Հ-52","type":"route","route":"road","ref:en":"H-52","name:en":"Highway H-52","network":"am:national"},"11716718":{"ref":"Հ-53","name":"Հ-53","type":"route","route":"road","ref:en":"H-53","name:en":"Highway H-53","network":"am:national"},"11716719":{"ref":"Հ-54","name":"Հ-54","type":"route","route":"road","ref:en":"H-54","name:en":"Highway H-54","network":"am:national"},"11716720":{"ref":"Հ-55","name":"Հ-55","type":"route","route":"road","ref:en":"H-55","name:en":"Highway H-55","network":"am:national"},"11716721":{"ref":"Հ-56","name":"Հ-56","type":"route","route":"road","ref:en":"H-56","name:en":"Highway H-56","network":"am:national"},"11716722":{"ref":"Հ-57","name":"Հ-57","type":"route","route":"road","ref:en":"H-57","name:en":"Highway H-57","network":"am:national"},"11716723":{"ref":"Հ-58","name":"Հ-58","type":"route","route":"road","ref:en":"H-58","name:en":"Highway H-58","network":"am:national"},"11716724":{"ref":"Հ-59","name":"Հ-59","type":"route","route":"road","ref:en":"H-59","name:en":"Highway H-59","network":"am:national"},"11716725":{"ref":"Հ-60","name":"Հ-60","type":"route","route":"road","ref:en":"H-60","name:en":"Highway H-60","network":"am:national"},"11719077":{"ref":"Հ-61","name":"Հ-61","type":"route","route":"road","ref:en":"H-61","name:en":"Highway H-61","network":"am:national"},"11719078":{"ref":"Հ-62","name":"Հ-62","type":"route","route":"road","ref:en":"H-62","name:en":"Highway H-62","network":"am:national"},"11719079":{"ref":"Հ-63","name":"Հ-63","type":"route","route":"road","ref:en":"H-63","name:en":"Highway H-63","network":"am:national"},"11719080":{"ref":"Հ-64","name":"Հ-64","type":"route","route":"road","ref:en":"H-64","name:en":"Highway H-64","network":"am:national"},"11719081":{"ref":"Հ-65","name":"Հ-65","type":"route","route":"road","ref:en":"H-65","name:en":"Highway H-65","network":"am:national"},"11719082":{"ref":"Հ-66","name":"Հ-66","type":"route","route":"road","ref:en":"H-66","name:en":"Highway H-66","network":"am:national"},"11719083":{"ref":"Հ-67","name":"Հ-67","type":"route","route":"road","ref:en":"H-67","name:en":"Highway H-67","network":"am:national"},"11719084":{"ref":"Հ-68","name":"Հ-68","type":"route","route":"road","ref:en":"H-68","name:en":"Highway H-68","network":"am:national"},"11719085":{"ref":"Հ-69","name":"Հ-69","type":"route","route":"road","ref:en":"H-69","name:en":"Highway H-69","network":"am:national"},"11719086":{"ref":"Հ-70","name":"Հ-70","type":"route","route":"road","ref:en":"H-70","name:en":"Highway H-70"},"11719186":{"ref":"Հ-71","name":"Հ-71","type":"route","route":"road","ref:en":"H-71","name:en":"Highway H-71","network":"am:national"},"11719187":{"ref":"Հ-72","name":"Հ-72","type":"route","route":"road","ref:en":"H-72","name:en":"Highway H-72","network":"am:national"},"11719189":{"ref":"Հ-73","name":"Հ-73","type":"route","route":"road","ref:en":"H-73","name:en":"Highway H-73","network":"am:national"},"11719190":{"ref":"Հ-74","name":"Հ-74","type":"route","route":"road","ref:en":"H-74","name:en":"Highway H-74","network":"am:national"},"11719191":{"ref":"Հ-76","name":"Հ-76","type":"route","route":"road","ref:en":"H-76","source":"https://hti.am/edfiles/files/POXADRUMNER/voroshum.pdf","name:en":"Highway H-76","network":"am:national"},"11719192":{"ref":"Հ-77","name":"Հ-77","type":"route","route":"road","ref:en":"H-77","source":"https://hti.am/edfiles/files/POXADRUMNER/voroshum.pdf","name:en":"Highway H-77","network":"am:national"},"11719193":{"ref":"Հ-78","name":"Հ-78","type":"route","route":"road","ref:en":"H-78","source":"https://hti.am/edfiles/files/POXADRUMNER/voroshum.pdf","name:en":"Highway H-78","network":"am:national"},"11719194":{"ref":"Հ-79","name":"Հ-79","type":"route","route":"road","ref:en":"H-79","source":"https://hti.am/edfiles/files/POXADRUMNER/voroshum.pdf","name:en":"Highway H-79","network":"am:national"},"11719195":{"ref":"Հ-80","name":"Հ-80","type":"route","route":"road","ref:en":"H-80","source":"https://hti.am/edfiles/files/POXADRUMNER/voroshum.pdf","name:en":"Highway H-80","network":"am:national"},"11719442":{"ref":"Հ-81","name":"Հ-81","type":"route","route":"road","ref:en":"H-81","source":"https://hti.am/edfiles/files/POXADRUMNER/voroshum.pdf","name:en":"Highway H-81","network":"am:national"},"11719444":{"ref":"Հ-83","name":"Հ-83","type":"route","route":"road","ref:en":"H-83","source":"https://hti.am/edfiles/files/POXADRUMNER/voroshum.pdf","name:en":"Highway H-83","network":"am:national"},"11719445":{"ref":"Հ-84","name":"Հ-84","type":"route","route":"road","ref:en":"H-84","source":"https://hti.am/edfiles/files/POXADRUMNER/voroshum.pdf","name:en":"Highway H-84","network":"am:national"},"11719446":{"ref":"Հ-85","name":"Հ-85","type":"route","route":"road","ref:en":"H-85","name:en":"Highway H-85","network":"am:national"},"11719447":{"ref":"Հ-86","name":"Հ-86","type":"route","route":"road","ref:en":"H-86","name:en":"Highway H-86","network":"am:national"},"11719448":{"ref":"Հ-87","name":"Հ-87","type":"route","route":"road","ref:en":"H-87","name:en":"Highway H-87","network":"am:national"},"11719449":{"ref":"Հ-88","name":"Հ-88","type":"route","route":"road","ref:en":"H-88","name:en":"Highway H-88","network":"am:national"},"11719450":{"ref":"Հ-89","name":"Հ-89","type":"route","route":"road","ref:en":"H-89","name:en":"Highway H-89","network":"am:national"},"11719451":{"ref":"Հ-90","name":"Հ-90","type":"route","route":"road","ref:en":"H-90","name:en":"Highway H-90","network":"am:national"},"11719587":{"ref":"Տ-1-1","name":"Տ-1-1","type":"route","route":"road","ref:en":"T-1-1","name:en":"Highway T-1-1","network":"am:national"},"11719588":{"ref":"Տ-1-2","name":"Տ-1-2","type":"route","route":"road","ref:en":"T-1-2","name:en":"Highway T-1-2","network":"am:national"},"11719589":{"ref":"Տ-1-3","name":"Տ-1-3","type":"route","route":"road","ref:en":"T-1-3","name:en":"Highway T-1-3","network":"am:national"},"11719590":{"ref":"Տ-1-4","name":"Տ-1-4","type":"route","route":"road","ref:en":"T-1-4","name:en":"Highway T-1-4","network":"am:national"},"11719591":{"ref":"Տ-1-5","name":"Տ-1-5","type":"route","route":"road","ref:en":"T-1-5","name:en":"Highway T-1-5","network":"am:national"},"11719592":{"ref":"Տ-1-6","name":"Տ-1-6","type":"route","route":"road","ref:en":"T-1-6","name:en":"Highway T-1-6","network":"am:national"},"11719593":{"ref":"Տ-1-7","name":"Տ-1-7","type":"route","route":"road","ref:en":"T-1-7","name:en":"Highway T-1-7","network":"am:national"},"11719594":{"ref":"Տ-1-8","name":"Տ-1-8","type":"route","route":"road","ref:en":"T-1-8","name:en":"Highway T-1-8","network":"am:national"},"11719596":{"ref":"Տ-1-10","name":"Տ-1-10","type":"route","route":"road","ref:en":"T-1-10","name:en":"Highway T-1-10","network":"am:national"},"11719658":{"ref":"Տ-1-11","name":"Տ-1-11","type":"route","route":"road","ref:en":"T-1-11","name:en":"Highway T-1-11","network":"am:national"},"11719659":{"ref":"Տ-1-12","name":"Տ-1-12","type":"route","route":"road","ref:en":"T-1-12","name:en":"Highway T-1-12","network":"am:national"},"11719660":{"ref":"Տ-1-13","name":"Տ-1-13","type":"route","route":"road","ref:en":"T-1-13","name:en":"Highway T-1-13","network":"am:national"},"11719661":{"ref":"Տ-1-14","name":"Տ-1-14","type":"route","route":"road","ref:en":"T-1-14","name:en":"Highway T-1-14","network":"am:national"},"11719662":{"ref":"Տ-1-15","name":"Տ-1-15","type":"route","route":"road","ref:en":"T-1-15","name:en":"Highway T-1-15","network":"am:national"},"11719663":{"ref":"Տ-1-16","name":"Տ-1-16","type":"route","route":"road","ref:en":"T-1-16","name:en":"Highway T-1-16","network":"am:national"},"11719664":{"ref":"Տ-1-17","name":"Տ-1-17","type":"route","route":"road","ref:en":"T-1-17","name:en":"Highway T-1-17","network":"am:national"},"11719665":{"ref":"Տ-1-18","name":"Տ-1-18","type":"route","route":"road","ref:en":"T-1-18","name:en":"Highway T-1-18","network":"am:national"},"11719666":{"ref":"Տ-1-19","name":"Տ-1-19","type":"route","route":"road","ref:en":"T-1-19","name:en":"Highway T-1-19","network":"am:national"},"11719667":{"ref":"Տ-1-20","name":"Տ-1-20","type":"route","route":"road","ref:en":"T-1-20","name:en":"Highway T-1-20","network":"am:national"},"11719979":{"ref":"Տ-1-21","name":"Տ-1-21","type":"route","route":"road","ref:en":"T-1-21","name:en":"Highway T-1-21","network":"am:national"},"11719980":{"ref":"Տ-1-22","name":"Տ-1-22","type":"route","route":"road","ref:en":"T-1-22","name:en":"Highway T-1-22","network":"am:national"},"11719981":{"ref":"Տ-1-23","name":"Տ-1-23","type":"route","route":"road","ref:en":"T-1-23","name:en":"Highway T-1-23","network":"am:national"},"11719982":{"ref":"Տ-1-24","name":"Տ-1-24","type":"route","route":"road","ref:en":"T-1-24","name:en":"Highway T-1-24","network":"am:national"},"11719983":{"ref":"Տ-1-25","name":"Տ-1-25","type":"route","route":"road","ref:en":"T-1-25","name:en":"Highway T-1-25","network":"am:national"},"11719984":{"ref":"Տ-1-26","name":"Տ-1-26","type":"route","route":"road","ref:en":"T-1-26","name:en":"Highway T-1-26","network":"am:national"},"11719985":{"ref":"Տ-1-27","name":"Տ-1-27","type":"route","route":"road","ref:en":"T-1-27","name:en":"Highway T-1-27","network":"am:national"},"11719986":{"ref":"Տ-1-28","name":"Տ-1-28","type":"route","route":"road","ref:en":"T-1-28","name:en":"Highway T-1-28","network":"am:national"},"11719987":{"ref":"Տ-1-30","name":"Տ-1-30","type":"route","route":"road","ref:en":"T-1-30","name:en":"Highway T-1-30","network":"am:national"},"11721243":{"ref":"Տ-1-31","name":"Տ-1-31","type":"route","route":"road","ref:en":"T-1-31","name:en":"Highway T-1-31","network":"am:national"},"11721244":{"ref":"Տ-1-32","name":"Տ-1-32","type":"route","route":"road","ref:en":"T-1-32","name:en":"Highway T-1-32","network":"am:national"},"11721245":{"ref":"Տ-1-33","name":"Տ-1-33","type":"route","route":"road","ref:en":"T-1-33","name:en":"Highway T-1-33","network":"am:national"},"11721246":{"ref":"Տ-1-34","name":"Տ-1-34","type":"route","route":"road","ref:en":"T-1-34","name:en":"Highway T-1-34","network":"am:national"},"11721247":{"ref":"Տ-1-35","name":"Տ-1-35","type":"route","route":"road","ref:en":"T-1-35","name:en":"Highway T-1-35","network":"am:national"},"11721248":{"ref":"Տ-1-36","name":"Տ-1-36","type":"route","route":"road","ref:en":"T-1-36","name:en":"Highway T-1-36","network":"am:national"},"11721249":{"ref":"Տ-1-37","name":"Տ-1-37","type":"route","route":"road","ref:en":"T-1-37","name:en":"Highway T-1-37","network":"am:national"},"11721250":{"ref":"Տ-1-38","name":"Տ-1-38","type":"route","route":"road","ref:en":"T-1-38","name:en":"Highway T-1-38","network":"am:national"},"11721251":{"ref":"Տ-1-39","name":"Տ-1-39","type":"route","route":"road","ref:en":"T-1-39","name:en":"Highway T-1-39","network":"am:national"},"11721252":{"ref":"Տ-1-40","name":"Տ-1-40","type":"route","route":"road","ref:en":"T-1-40","name:en":"Highway T-1-40","network":"am:national"},"11721478":{"ref":"Տ-1-41","name":"Տ-1-41","type":"route","route":"road","ref:en":"T-1-41","name:en":"Highway T-1-41","network":"am:national"},"11721479":{"ref":"Տ-1-42","name":"Տ-1-42","type":"route","route":"road","ref:en":"T-1-42","name:en":"Highway T-1-42","network":"am:national"},"11721480":{"ref":"Տ-1-43","name":"Տ-1-43","type":"route","route":"road","ref:en":"T-1-43","name:en":"Highway T-1-43","network":"am:national"},"11721481":{"ref":"Տ-1-44","name":"Տ-1-44","type":"route","route":"road","ref:en":"T-1-44","name:en":"Highway T-1-44","network":"am:national"},"11721482":{"ref":"Տ-1-45","name":"Տ-1-45","type":"route","route":"road","ref:en":"T-1-45","name:en":"Highway T-1-45","network":"am:national"},"11721483":{"ref":"Տ-1-46","name":"Տ-1-46","type":"route","route":"road","ref:en":"T-1-46","name:en":"Highway T-1-46","network":"am:national"},"11721484":{"ref":"Տ-1-47","name":"Տ-1-47","type":"route","route":"road","ref:en":"T-1-47","name:en":"Highway T-1-47","network":"am:national"},"11721485":{"ref":"Տ-1-48","name":"Տ-1-48","type":"route","route":"road","ref:en":"T-1-48","name:en":"Highway T-1-48","network":"am:national"},"11721486":{"ref":"Տ-1-49","name":"Տ-1-49","type":"route","route":"road","ref:en":"T-1-49","name:en":"Highway T-1-49"},"11721487":{"ref":"Տ-1-51","name":"Տ-1-51","type":"route","route":"road","ref:en":"T-1-51","name:en":"Highway T-1-51","network":"am:national"},"11721903":{"ref":"Տ-1-50","name":"Տ-1-50","type":"route","route":"road","ref:en":"T-1-50","name:en":"Highway T-1-50","network":"am:national"},"11721904":{"ref":"Տ-1-52","name":"Տ-1-52","type":"route","route":"road","ref:en":"T-1-52","name:en":"Highway T-1-52","network":"am:national"},"11721905":{"ref":"Տ-1-53","name":"Տ-1-53","type":"route","route":"road","ref:en":"T-1-53","name:en":"Highway T-1-53","network":"am:national"},"11721906":{"ref":"Տ-1-54","name":"Տ-1-54","type":"route","route":"road","ref:en":"T-1-54","name:en":"Highway T-1-54","network":"am:national"},"11721907":{"ref":"Տ-1-55","name":"Տ-1-55","type":"route","route":"road","ref:en":"T-1-55","name:en":"Highway T-1-55","network":"am:national"},"11721908":{"ref":"Տ-1-56","name":"Տ-1-56","type":"route","route":"road","ref:en":"T-1-56","name:en":"Highway T-1-56","network":"am:national"},"11721909":{"ref":"Տ-1-57","name":"Տ-1-57","type":"route","route":"road","ref:en":"T-1-57","name:en":"Highway T-1-57","network":"am:national"},"11721910":{"ref":"Տ-1-58","name":"Տ-1-58","type":"route","route":"road","ref:en":"T-1-58","name:en":"Highway T-1-58","network":"am:national"},"11721911":{"ref":"Տ-1-59","name":"Տ-1-59","type":"route","route":"road","ref:en":"T-1-59","name:en":"Highway T-1-59","network":"am:national"},"11721912":{"ref":"Տ-1-60","name":"Տ-1-60","type":"route","route":"road","ref:en":"T-1-60","name:en":"Highway T-1-60","network":"am:national"},"11722238":{"ref":"Տ-1-61","name":"Տ-1-61","type":"route","route":"road","ref:en":"T-1-61","name:en":"Highway T-1-61","network":"am:national"},"11722239":{"ref":"Տ-1-62","name":"Տ-1-62","type":"route","route":"road","ref:en":"T-1-62","name:en":"Highway T-1-62","network":"am:national"},"11722240":{"ref":"Տ-1-63","name":"Տ-1-63","type":"route","route":"road","ref:en":"T-1-63","name:en":"Highway T-1-63","network":"am:national"},"11722241":{"ref":"Տ-1-64","name":"Տ-1-64","type":"route","route":"road","ref:en":"T-1-64","name:en":"Highway T-1-64","network":"am:national"},"11722242":{"ref":"Տ-1-65","name":"Տ-1-65","type":"route","route":"road","ref:en":"T-1-65","name:en":"Highway T-1-65","network":"am:national"},"11722243":{"ref":"Տ-1-66","name":"Տ-1-66","type":"route","route":"road","ref:en":"T-1-66","name:en":"Highway T-1-66","network":"am:national"},"11722244":{"ref":"Տ-1-67","name":"Տ-1-67","type":"route","route":"road","ref:en":"T-1-67","name:en":"Highway T-1-67","network":"am:national"},"11722245":{"ref":"Տ-1-68","name":"Տ-1-68","type":"route","route":"road","ref:en":"T-1-68","name:en":"Highway T-1-68","network":"am:national"},"11722246":{"ref":"Տ-1-69","name":"Տ-1-69","type":"route","route":"road","ref:en":"T-1-69","name:en":"Highway T-1-69","network":"am:national"},"11722715":{"ref":"Տ-1-71","name":"Տ-1-71","type":"route","route":"road","ref:en":"T-1-71","name:en":"Highway T-1-71","network":"am:national"},"11722716":{"ref":"Տ-1-72","name":"Տ-1-72","type":"route","route":"road","ref:en":"T-1-72","name:en":"Highway T-1-72","network":"am:national"},"11722717":{"ref":"Տ-1-73","name":"Տ-1-73","type":"route","route":"road","ref:en":"T-1-73","name:en":"Highway T-1-73","network":"am:national"},"11722718":{"ref":"Տ-1-74","name":"Տ-1-74","type":"route","route":"road","ref:en":"T-1-74","name:en":"Highway T-1-74","network":"am:national"},"11722719":{"ref":"Տ-1-75","name":"Տ-1-75","type":"route","route":"road","ref:en":"T-1-75","name:en":"Highway T-1-75","network":"am:national"},"11722720":{"ref":"Տ-1-76","name":"Տ-1-76","type":"route","route":"road","ref:en":"T-1-76","name:en":"Highway T-1-76","network":"am:national"},"11722721":{"ref":"Տ-1-77","name":"Տ-1-77","type":"route","route":"road","ref:en":"T-1-77","name:en":"Highway T-1-77","network":"am:national"},"11722722":{"ref":"Տ-1-78","name":"Տ-1-78","type":"route","route":"road","ref:en":"T-1-78","name:en":"Highway T-1-78","network":"am:national"},"11722723":{"ref":"Տ-1-79","name":"Տ-1-79","type":"route","route":"road","ref:en":"T-1-79","name:en":"Highway T-1-79","network":"am:national"},"11722724":{"ref":"Տ-1-80","name":"Տ-1-80","type":"route","route":"road","ref:en":"T-1-80","name:en":"Highway T-1-80","network":"am:national"},"11722743":{"ref":"Տ-1-81","name":"Տ-1-81","type":"route","route":"road","ref:en":"T-1-81","name:en":"Highway T-1-81","network":"am:national"},"11722744":{"ref":"Տ-1-82","name":"Տ-1-82","type":"route","route":"road","ref:en":"T-1-82","name:en":"Highway T-1-82","network":"am:national"},"11722745":{"ref":"Տ-1-83","name":"Տ-1-83","type":"route","route":"road","ref:en":"T-1-83","name:en":"Highway T-1-83","network":"am:national"},"11722746":{"ref":"Տ-1-84","name":"Տ-1-84","type":"route","route":"road","ref:en":"T-1-84","name:en":"Highway T-1-84","network":"am:national"},"11723170":{"ref":"Տ-2-3","name":"Տ-2-3","type":"route","route":"road","ref:en":"T-2-3","name:en":"Highway T-2-3","network":"am:national"},"11723171":{"ref":"Տ-2-1","name":"Տ-2-1","type":"route","route":"road","ref:en":"T-2-1","name:en":"Highway T-2-1","network":"am:national"},"11723172":{"ref":"Տ-2-4","name":"Տ-2-4","type":"route","route":"road","ref:en":"T-2-4","name:en":"Highway T-2-4","name:hy":"Տ-2-4","network":"am:national"},"11723173":{"ref":"Տ-2-5","name":"Տ-2-5","type":"route","route":"road","ref:en":"T-2-5","name:en":"Highway T-2-5","network":"am:national"},"11723174":{"ref":"Տ-2-6","name":"Տ-2-6","type":"route","route":"road","ref:en":"T-2-6","name:en":"Highway T-2-6","network":"am:national"},"11723175":{"ref":"Տ-2-7","name":"Տ-2-7","type":"route","route":"road","ref:en":"T-2-7","name:en":"Highway T-2-7","network":"am:national"},"11723176":{"ref":"Տ-2-8","name":"Տ-2-8","type":"route","route":"road","ref:en":"T-2-8","name:en":"Highway T-2-8","network":"am:national"},"11723223":{"ref":"Տ-2-11","name":"Տ-2-11","type":"route","route":"road","ref:en":"T-2-11","name:en":"Highway T-2-11","network":"am:national"},"11723224":{"ref":"Տ-2-12","name":"Տ-2-12","type":"route","route":"road","ref:en":"T-2-12","name:en":"Highway T-2-12","network":"am:national"},"11723225":{"ref":"Տ-2-13","name":"Տ-2-13","type":"route","route":"road","ref:en":"T-2-13","name:en":"Highway T-2-13","name:hy":"Տ-2-13","network":"am:national"},"11723226":{"ref":"Տ-2-14","name":"Տ-2-14","type":"route","route":"road","ref:en":"T-2-14","name:en":"Highway T-2-14","network":"am:national"},"11723227":{"ref":"Տ-2-15","name":"Տ-2-15","type":"route","route":"road","ref:en":"T-2-15","name:en":"Highway T-2-15","network":"am:national"},"11723228":{"ref":"Տ-2-16","name":"Տ-2-16","type":"route","route":"road","ref:en":"T-2-16","name:en":"Highway T-2-16","network":"am:national"},"11723229":{"ref":"Տ-2-17","name":"Տ-2-17","type":"route","route":"road","ref:en":"T-2-17","name:en":"Highway T-2-17","network":"am:national"},"11723230":{"ref":"Տ-2-18","name":"Տ-2-18","type":"route","route":"road","ref:en":"T-2-18","name:en":"Highway T-2-18","network":"am:national"},"11723329":{"ref":"Տ-2-21","name":"Տ-2-21","type":"route","route":"road","ref:en":"T-2-21","name:en":"Highway T-2-21","network":"am:national"},"11723330":{"ref":"Տ-2-22","name":"Տ-2-22","type":"route","route":"road","ref:en":"T-2-22","name:en":"Highway T-2-22","network":"am:national"},"11723331":{"ref":"Տ-2-23","name":"Տ-2-23","type":"route","route":"road","ref:en":"T-2-23","name:en":"Highway T-2-23","network":"am:national"},"11723332":{"ref":"Տ-2-24","name":"Տ-2-24","type":"route","route":"road","ref:en":"T-2-24","name:en":"Highway T-2-24","network":"am:national"},"11723333":{"ref":"Տ-2-25","name":"Տ-2-25","type":"route","route":"road","ref:en":"T-2-25","name:en":"Highway T-2-25","network":"am:national"},"11723334":{"ref":"Տ-2-26","name":"Տ-2-26","type":"route","route":"road","ref:en":"T-2-26","name:en":"Highway T-2-26","network":"am:national"},"11723335":{"ref":"Տ-2-27","name":"Տ-2-27","type":"route","route":"road","ref:en":"T-2-27","name:en":"Highway T-2-27","network":"am:national"},"11723337":{"ref":"Տ-2-29","name":"Տ-2-29","type":"route","route":"road","ref:en":"T-2-29","name:en":"Highway T-2-29","network":"am:national"},"11723338":{"ref":"Տ-2-30","name":"Տ-2-30","type":"route","route":"road","ref:en":"T-2-30","name:en":"Highway T-2-30","network":"am:national"},"11723356":{"ref":"Տ-2-31","name":"Տ-2-31","type":"route","route":"road","ref:en":"T-2-31","name:en":"Highway T-2-31","network":"am:national"},"11723357":{"ref":"Տ-2-32","name":"Տ-2-32","type":"route","route":"road","ref:en":"T-2-32","name:en":"Highway T-2-32","network":"am:national"},"11723358":{"ref":"Տ-2-33","name":"Տ-2-33","type":"route","route":"road","ref:en":"T-2-33","name:en":"Highway T-2-33","network":"am:national"},"11723359":{"ref":"Տ-2-34","name":"Տ-2-34","type":"route","route":"road","ref:en":"T-2-34","name:en":"Highway T-2-34","network":"am:national"},"11723360":{"ref":"Տ-2-35","name":"Տ-2-35","type":"route","route":"road","ref:en":"T-2-35","name:en":"Highway T-2-35","network":"am:national"},"11723361":{"ref":"Տ-2-36","name":"Տ-2-36","type":"route","route":"road","ref:en":"T-2-36","name:en":"Highway T-2-36","network":"am:national"},"11723362":{"ref":"Տ-2-37","name":"Տ-2-37","type":"route","route":"road","ref:en":"T-2-37","name:en":"Highway T-2-37","network":"am:national"},"11723363":{"ref":"Տ-2-38","name":"Տ-2-38","type":"route","route":"road","ref:en":"T-2-38","name:en":"Highway T-2-38","network":"am:national"},"11723364":{"ref":"Տ-2-39","name":"Տ-2-39","type":"route","route":"road","ref:en":"T-2-39","name:en":"Highway T-2-39","network":"am:national"},"11723694":{"ref":"Տ-2-41","name":"Տ-2-41","type":"route","route":"road","ref:en":"T-2-41","name:en":"Highway T-2-41","network":"am:national"},"11723695":{"ref":"Տ-2-42","name":"Տ-2-42","type":"route","route":"road","ref:en":"T-2-42","name:en":"Highway T-2-42","network":"am:national"},"11723697":{"ref":"Տ-2-43","name":"Տ-2-43","type":"route","route":"road","ref:en":"T-2-43","name:en":"Highway T-2-43","network":"am:national"},"11723698":{"ref":"Տ-2-44","name":"Տ-2-44","type":"route","route":"road","ref:en":"T-2-44","name:en":"Highway T-2-44","network":"am:national"},"11723699":{"ref":"Տ-2-45","name":"Տ-2-45","type":"route","route":"road","ref:en":"T-2-45","name:en":"Highway T-2-45","network":"am:national"},"11723700":{"ref":"Տ-2-46","name":"Տ-2-46","type":"route","route":"road","ref:en":"T-2-46","name:en":"Highway T-2-46","network":"am:national"},"11723701":{"ref":"Տ-2-47","name":"Տ-2-47","type":"route","route":"road","ref:en":"T-2-47","name:en":"Highway T-2-47","network":"am:national"},"11723702":{"ref":"Տ-2-48","name":"Տ-2-48","type":"route","route":"road","ref:en":"T-2-48","name:en":"Highway T-2-48","network":"am:national"},"11723703":{"ref":"Տ-2-49","name":"Տ-2-49","type":"route","route":"road","ref:en":"T-2-49","name:en":"Highway T-2-49","network":"am:national"},"11723704":{"ref":"Տ-2-50","name":"Տ-2-50","type":"route","route":"road","ref:en":"T-2-50","name:en":"Highway T-2-50","network":"am:national"},"11725690":{"ref":"Տ-2-51","name":"Տ-2-51","type":"route","route":"road","ref:en":"T-2-51","name:en":"Highway T-2-51","network":"am:national"},"11725691":{"ref":"Տ-2-53","name":"Տ-2-53","type":"route","route":"road","ref:en":"T-2-53","name:en":"Highway T-2-53","network":"am:national"},"11725692":{"ref":"Տ-2-54","name":"Տ-2-54","type":"route","route":"road","ref:en":"T-2-54","name:en":"Highway T-2-54","network":"am:national"},"11725693":{"ref":"Տ-2-55","name":"Տ-2-55","type":"route","route":"road","ref:en":"T-2-55","name:en":"Highway T-2-55","network":"am:national"},"11725694":{"ref":"Տ-2-56","name":"Տ-2-56","type":"route","route":"road","ref:en":"T-2-56","name:en":"Highway T-2-56","network":"am:national"},"11725695":{"ref":"Տ-2-57","name":"Տ-2-57","type":"route","route":"road","ref:en":"T-57","name:en":"Highway T-2-57"},"11725696":{"ref":"Տ-2-58","name":"Տ-2-58","type":"route","route":"road","ref:en":"T-2-58","name:en":"Highway T-2-58","network":"am:national"},"11725697":{"ref":"Տ-2-59","name":"Տ-2-59","type":"route","route":"road","ref:en":"T-2-59","name:en":"Highway T-2-59","network":"am:national"},"11725698":{"ref":"Տ-2-60","name":"Տ-2-60","type":"route","route":"road","ref:en":"T-2-60","name:en":"Highway T-2-60","network":"am:national"},"11725860":{"ref":"Տ-2-61","name":"Տ-2-61","type":"route","route":"road","ref:en":"T-2-61","name:en":"Highway T-2-61","network":"am:national"},"11725861":{"ref":"Տ-2-62","name":"Տ-2-62","type":"route","route":"road","ref:en":"T-2-62","name:en":"Highway T-2-62","network":"am:national"},"11725862":{"ref":"Տ-2-63","name":"Տ-2-63","type":"route","route":"road","ref:en":"T-2-63","name:en":"Highway T-2-63","network":"am:national"},"11725863":{"ref":"Տ-2-64","name":"Տ-2-64","type":"route","route":"road","ref:en":"T-2-64","name:en":"Highway T-2-64","network":"am:national"},"11725865":{"ref":"Տ-2-66","name":"Տ-2-66","type":"route","route":"road","ref:en":"T-2-66","name:en":"Highway T-2-66","network":"am:national"},"11725866":{"ref":"Տ-2-68","name":"Տ-2-68","type":"route","route":"road","ref:en":"T-2-68","name:en":"Highway T-2-68","network":"am:national"},"11725867":{"ref":"Տ-2-69","name":"Տ-2-69","type":"route","route":"road","ref:en":"T-2-69","name:en":"Highway T-2-69","network":"am:national"},"11725868":{"ref":"Տ-2-70","name":"Տ-2-70","type":"route","route":"road","ref:en":"T-2-70","name:en":"Highway T-2-70","network":"am:national"},"11726432":{"ref":"Տ-3-1","name":"Տ-3-1","type":"route","route":"road","ref:en":"T-3-1","name:en":"Highway T-3-1","network":"am:national"},"11726433":{"ref":"Տ-3-2","name":"Տ-3-2","type":"route","route":"road","ref:en":"T-3-2","name:en":"Highway T-3-2","network":"am:national"},"11726434":{"ref":"Տ-3-4","name":"Տ-3-4","type":"route","route":"road","ref:en":"T-3-4","name:en":"Highway T-3-4","network":"am:national"},"11726435":{"ref":"Տ-3-6","name":"Տ-3-6","type":"route","route":"road","ref:en":"T-3-6","name:en":"Highway T-3-6","network":"am:national"},"11726436":{"ref":"Տ-3-7","name":"Տ-3-7","type":"route","route":"road","ref:en":"T-3-7","name:en":"Highway T-3-7","network":"am:national"},"11726437":{"ref":"Տ-3-8","name":"Տ-3-8","type":"route","route":"road","ref:en":"T-3-8","name:en":"Highway T-3-8","network":"am:national"},"11726438":{"ref":"Տ-3-9","name":"Տ-3-9","type":"route","route":"road","ref:en":"T-3-9","name:en":"Highway T-3-9","network":"am:national"},"11726439":{"ref":"Տ-3-10","name":"Տ-3-10","type":"route","route":"road","ref:en":"T-3-10","name:en":"Highway T-3-10","network":"am:national"},"11726584":{"ref":"Տ-3-11","name":"Տ-3-11","type":"route","route":"road","ref:en":"T-3-11","name:en":"Highway T-3-11","network":"am:national"},"11726585":{"ref":"Տ-3-12","name":"Տ-3-12","type":"route","route":"road","ref:en":"T-3-12","name:en":"Highway T-3-12","network":"am:national"},"11726586":{"ref":"Տ-3-13","name":"Տ-3-13","type":"route","route":"road","ref:en":"T-3-13","name:en":"Highway T-3-13","network":"am:national"},"11726587":{"ref":"Տ-3-14","name":"Տ-3-14","type":"route","route":"road","ref:en":"T-3-14","name:en":"Highway T-3-14","network":"am:national"},"11726588":{"ref":"Տ-3-15","name":"Տ-3-15","type":"route","route":"road","ref:en":"T-3-15","name:en":"Highway T-3-15","network":"am:national"},"11726589":{"ref":"Տ-3-16","name":"Տ-3-16","type":"route","route":"road","ref:en":"T-3-16","name:en":"Highway T-3-16","network":"am:national"},"11726590":{"ref":"Տ-3-17","name":"Տ-3-17","type":"route","route":"road","ref:en":"T-3-17","name:en":"Highway T-3-17","network":"am:national"},"11726591":{"ref":"Տ-3-18","name":"Տ-3-18","type":"route","route":"road","ref:en":"T-3-18","name:en":"Highway T-3-18","network":"am:national"},"11726592":{"ref":"Տ-3-19","name":"Տ-3-19","type":"route","route":"road","ref:en":"T-3-19","name:en":"Highway T-3-19","network":"am:national"},"11726824":{"ref":"Տ-3-22","name":"Տ-3-22","type":"route","route":"road","ref:en":"T-3-22","name:en":"Highway T-3-22","network":"am:national"},"11726825":{"ref":"Տ-3-24","name":"Տ-3-24","type":"route","route":"road","ref:en":"T-3-24","name:en":"Highway T-3-24","network":"am:national"},"11726826":{"ref":"Տ-3-23","name":"Տ-3-23","type":"route","route":"road","ref:en":"T-3-23","name:en":"Highway T-3-23","network":"am:national"},"11726827":{"ref":"Տ-3-25","name":"Տ-3-25","type":"route","route":"road","ref:en":"T-3-25","name:en":"Highway T-3-25","network":"am:national"},"11726828":{"ref":"Տ-3-26","name":"Տ-3-26","type":"route","route":"road","ref:en":"T-3-26","name:en":"Highway T-3-26"},"11726829":{"ref":"Տ-3-27","name":"Տ-3-27","type":"route","route":"road","ref:en":"T-3-27","name:en":"Highway T-3-27","network":"am:national"},"11726830":{"ref":"Տ-3-28","name":"Տ-3-28","type":"route","route":"road","ref:en":"T-3-28","name:en":"Highway T-3-28","network":"am:national"},"11726831":{"ref":"Տ-3-29","name":"Տ-3-29","type":"route","route":"road","ref:en":"T-3-29","name:en":"Highway T-3-29","network":"am:national"},"11726832":{"ref":"Տ-3-30","name":"Տ-3-30","type":"route","route":"road","ref:en":"T-3-30","name:en":"Highway T-3-30","network":"am:national"},"11727147":{"ref":"Տ-3-31","name":"Տ-3-31","type":"route","route":"road","ref:en":"T-3-31","name:en":"Highway T-3-31","network":"am:national"},"11727148":{"ref":"Տ-3-32","name":"Տ-3-32","type":"route","route":"road","ref:en":"T-3-32","name:en":"Highway T-3-32","network":"am:national"},"11727149":{"ref":"Տ-3-34","name":"Տ-3-34","type":"route","route":"road","ref:en":"T-3-34","name:en":"Highway T-3-34","network":"am:national"},"11727150":{"ref":"Տ-3-35","name":"Տ-3-35","type":"route","route":"road","ref:en":"T-3-35","name:en":"Highway T-3-35","network":"am:national"},"11727151":{"ref":"Տ-3-36","name":"Տ-3-36","type":"route","route":"road","ref:en":"T-3-36","name:en":"Highway T-3-36","network":"am:national"},"11727152":{"ref":"Տ-3-37","name":"Տ-3-37","type":"route","route":"road","ref:en":"T-3-37","name:en":"Highway T-3-37","network":"am:national"},"11727153":{"ref":"Տ-3-38","name":"Տ-3-38","type":"route","route":"road","ref:en":"T-3-38","name:en":"Highway T-3-38","network":"am:national"},"11727154":{"ref":"Տ-3-39","name":"Տ-3-39","type":"route","route":"road","ref:en":"T-3-39","name:en":"Highway T-3-39","network":"am:national"},"11727155":{"ref":"Տ-3-40","name":"Տ-3-40","type":"route","route":"road","ref:en":"T-3-40","name:en":"Highway T-3-40","network":"am:national"},"11727576":{"ref":"Տ-3-41","name":"Տ-3-41","type":"route","route":"road","ref:en":"T-3-41","name:en":"Highway T-3-41","network":"am:national"},"11727577":{"ref":"Տ-3-42","name":"Տ-3-42","type":"route","route":"road","ref:en":"T-3-42","name:en":"Highway T-3-42","network":"am:national"},"11727578":{"ref":"Տ-3-43","name":"Տ-3-43","type":"route","route":"road","ref:en":"T-3-43","name:en":"Highway T-3-43","network":"am:national"},"11727579":{"ref":"Տ-3-44","name":"Տ-3-44","type":"route","route":"road","ref:en":"T-3-44","name:en":"Highway T-3-44","network":"am:national"},"11727580":{"ref":"Տ-3-45","name":"Տ-3-45","type":"route","route":"road","ref:en":"T-3-45","name:en":"Highway T-3-45","network":"am:national"},"11727581":{"ref":"Տ-3-46","name":"Տ-3-46","type":"route","route":"road","ref:en":"T-3-46","name:en":"Highway T-3-46","network":"am:national"},"11727582":{"ref":"Տ-3-47","name":"Տ-3-47","type":"route","route":"road","ref:en":"T-3-47","name:en":"Highway T-3-47","network":"am:national"},"11727585":{"ref":"Տ-3-50","name":"Տ-3-50","type":"route","route":"road","ref:en":"T-3-50","name:en":"Highway T-3-50","network":"am:national"},"11727645":{"ref":"Տ-3-52","name":"Տ-3-52","type":"route","route":"road","ref:en":"T-3-52","name:en":"Highway T-3-52","network":"am:national"},"11727646":{"ref":"Տ-3-53","name":"Տ-3-53","type":"route","route":"road","ref:en":"T-3-53","name:en":"Highway T-3-53","network":"am:national"},"11727647":{"ref":"Տ-3-54","name":"Տ-3-54","type":"route","route":"road","ref:en":"T-3-54","name:en":"Highway T-3-54","network":"am:national"},"11727648":{"ref":"Տ-3-55","name":"Տ-3-55","type":"route","route":"road","ref:en":"T-3-55","name:en":"Highway T-3-55","network":"am:national"},"11727649":{"ref":"Տ-3-56","name":"Տ-3-56","type":"route","route":"road","ref:en":"T-3-56","name:en":"Highway T-3-56","network":"am:national"},"11727650":{"ref":"Տ-3-57","name":"Տ-3-57","type":"route","route":"road","ref:en":"T-3-57","name:en":"Highway T-3-57","network":"am:national"},"11727651":{"ref":"Տ-3-58","name":"Տ-3-58","type":"route","route":"road","ref:en":"T-3-58","name:en":"Highway T-3-58","network":"am:national"},"11727652":{"ref":"Տ-3-59","name":"Տ-3-59","type":"route","route":"road","ref:en":"T-3-59","name:en":"Highway T-3-59","network":"am:national"},"11727653":{"ref":"Տ-3-61","name":"Տ-3-61","type":"route","route":"road","ref:en":"T-3-61","name:en":"Highway T-3-61","network":"am:national"},"11727781":{"ref":"Տ-3-62","name":"Տ-3-62","type":"route","route":"road","ref:en":"T-3-62","name:en":"Highway T-3-62","network":"am:national"},"11727782":{"ref":"Տ-3-63","name":"Տ-3-63","type":"route","route":"road","ref:en":"T-3-63","name:en":"Highway T-3-63","network":"am:national"},"11727784":{"ref":"Տ-3-65","name":"Տ-3-65","type":"route","route":"road","ref:en":"T-3-65","name:en":"Highway T-3-65","network":"am:national"},"11727785":{"ref":"Տ-3-67","name":"Տ-3-67","type":"route","route":"road","ref:en":"T-3-67","name:en":"Highway T-3-67","network":"am:national"},"11727786":{"ref":"Տ-3-68","name":"Տ-3-68","type":"route","route":"road","ref:en":"T-3-68","name:en":"Highway T-3-68","network":"am:national"},"11727787":{"ref":"Տ-3-69","name":"Տ-3-69","type":"route","route":"road","ref:en":"T-3-69","name:en":"Highway T-3-69","network":"am:national"},"11727788":{"ref":"Տ-3-70","name":"Տ-3-70","type":"route","route":"road","ref:en":"T-3-70","name:en":"Highway T-3-70","network":"am:national"},"11727829":{"ref":"Տ-3-71","name":"Տ-3-71","type":"route","route":"road","ref:en":"T-3-71","name:en":"Highway T-3-71","network":"am:national"},"11727830":{"ref":"Տ-3-72","name":"Տ-3-72","type":"route","route":"road","ref:en":"T-3-72","name:en":"Highway T-3-72","network":"am:national"},"11727831":{"ref":"Տ-3-73","name":"Տ-3-73","type":"route","route":"road","ref:en":"T-3-73","name:en":"Highway T-3-73","network":"am:national"},"11727832":{"ref":"Տ-3-75","name":"Տ-3-75","type":"route","route":"road","ref:en":"T-3-75","name:en":"Highway T-3-75","network":"am:national"},"11727833":{"ref":"Տ-3-76","name":"Տ-3-76","type":"route","route":"road","ref:en":"T-3-76","name:en":"Highway T-3-76","network":"am:national"},"11730507":{"ref":"Տ-4-1","name":"Տ-4-1","type":"route","route":"road","ref:en":"T-4-1","name:en":"Highway T-4-1","network":"am:national"},"11730508":{"ref":"Տ-4-2","name":"Տ-4-2","type":"route","route":"road","ref:en":"T-4-2","name:en":"Highway T-4-2","network":"am:national"},"11730509":{"ref":"Տ-4-3","name":"Տ-4-3","type":"route","route":"road","ref:en":"T-4-3","name:en":"Highway T-4-3","network":"am:national"},"11730510":{"ref":"Տ-4-4","name":"Տ-4-4","type":"route","route":"road","ref:en":"T-4-4","name:en":"Highway T-4-4","network":"am:national"},"11730511":{"ref":"Տ-4-5","name":"Տ-4-5","type":"route","route":"road","ref:en":"T-4-5","name:en":"Highway T-4-5","network":"am:national"},"11730512":{"ref":"Տ-4-6","name":"Տ-4-6","type":"route","route":"road","ref:en":"T-4-6","name:en":"Highway T-4-6","network":"am:national"},"11730513":{"ref":"Տ-4-7","name":"Տ-4-7","type":"route","route":"road","ref:en":"T-4-7","name:en":"Highway T-4-7","network":"am:national"},"11730514":{"ref":"Տ-4-9","name":"Տ-4-9","type":"route","route":"road","ref:en":"T-4-9","name:en":"Highway T-4-9","network":"am:national"},"11730515":{"ref":"Տ-4-10","name":"Տ-4-10","type":"route","route":"road","ref:en":"T-4-10","name:en":"Highway T-4-10","network":"am:national"},"11730793":{"ref":"Տ-4-12","name":"Տ-4-12","type":"route","route":"road","ref:en":"T-4-12","name:en":"Highway T-4-12","network":"am:national"},"11730794":{"ref":"Տ-4-13","name":"Տ-4-13","type":"route","route":"road","ref:en":"T-4-13","name:en":"Highway T-4-13","network":"am:national"},"11730795":{"ref":"Տ-4-15","name":"Տ-4-15","type":"route","route":"road","ref:en":"T-4-15","name:en":"Highway T-4-15","network":"am:national"},"11730796":{"ref":"Տ-4-14","name":"Տ-4-14","type":"route","route":"road","ref:en":"T-4-14","name:en":"Highway T-4-14","network":"am:national"},"11730797":{"ref":"Տ-4-16","name":"Տ-4-16","type":"route","route":"road","ref:en":"T-4-16","name:en":"Highway T-4-16","network":"am:national"},"11730798":{"ref":"Տ-4-17","name":"Տ-4-17","type":"route","route":"road","ref:en":"T-4-17","name:en":"Highway T-4-17","network":"am:national"},"11730799":{"ref":"Տ-4-18","name":"Տ-4-18","type":"route","route":"road","ref:en":"T-4-18","name:en":"Highway T-4-18","network":"am:national"},"11730800":{"ref":"Տ-4-19","name":"Տ-4-19","type":"route","route":"road","ref:en":"T-4-19","name:en":"Highway T-4-19","network":"am:national"},"11730801":{"ref":"Տ-4-20","name":"Տ-4-20","type":"route","route":"road","ref:en":"T-4-20","name:en":"Highway T-4-20","network":"am:national"},"11730856":{"ref":"Տ-4-21","name":"Տ-4-21","type":"route","route":"road","ref:en":"T-4-21","name:en":"Highway T-4-21","network":"am:national"},"11730857":{"ref":"Տ-4-22","name":"Տ-4-22","type":"route","route":"road","ref:en":"T-4-22","name:en":"Highway T-4-22","network":"am:national"},"11730858":{"ref":"Տ-4-23","name":"Տ-4-23","type":"route","route":"road","ref:en":"T-4-23","name:en":"Highway T-4-23","network":"am:national"},"11730859":{"ref":"Տ-4-24","name":"Տ-4-24","type":"route","route":"road","ref:en":"T-4-24","name:en":"Highway T-4-24","network":"am:national"},"11730860":{"ref":"Տ-4-25","name":"Տ-4-25","type":"route","route":"road","ref:en":"T-4-25","name:en":"Highway T-4-25","network":"am:national"},"11730861":{"ref":"Տ-4-26","name":"Տ-4-26","type":"route","route":"road","ref:en":"T-4-26","name:en":"Highway T-4-26","network":"am:national"},"11730862":{"ref":"Տ-4-27","name":"Տ-4-27","type":"route","route":"road","ref:en":"T-4-27","name:en":"Highway T-4-27","network":"am:national"},"11730863":{"ref":"Տ-4-28","name":"Տ-4-28","type":"route","route":"road","ref:en":"T-4-28","name:en":"Highway T-4-28","network":"am:national"},"11730864":{"ref":"Տ-4-29","name":"Տ-4-29","type":"route","route":"road","ref:en":"T-4-29","name:en":"Highway T-4-29","network":"am:national"},"11730865":{"ref":"Տ-4-30","name":"Տ-4-30","type":"route","route":"road","ref:en":"T-4-30","name:en":"Highway T-4-30","network":"am:national"},"11730975":{"ref":"Տ-4-31","name":"Տ-4-31","type":"route","route":"road","ref:en":"T-4-31","name:en":"Highway T-4-31","network":"am:national"},"11730976":{"ref":"Տ-4-33","name":"Տ-4-33","type":"route","route":"road","ref:en":"T-4-33","name:en":"Highway T-4-33","network":"am:national"},"11730977":{"ref":"Տ-4-34","name":"Տ-4-34","type":"route","route":"road","ref:en":"T-4-34","name:en":"Highway T-4-34","network":"am:national"},"11730978":{"ref":"Տ-4-35","name":"Տ-4-35","type":"route","route":"road","ref:en":"T-4-35","name:en":"Highway T-4-35","network":"am:national"},"11730979":{"ref":"Տ-4-36","name":"Տ-4-36","type":"route","route":"road","ref:en":"T-4-36","name:en":"Highway T-4-36","network":"am:national"},"11730980":{"ref":"Տ-4-37","name":"Տ-4-37","type":"route","route":"road","ref:en":"T-4-37","name:en":"Highway T-4-37","network":"am:national"},"11730981":{"ref":"Տ-4-38","name":"Տ-4-38","type":"route","route":"road","ref:en":"T-4-38","name:en":"Highway T-4-38","network":"am:national"},"11730982":{"ref":"Տ-4-39","name":"Տ-4-39","type":"route","route":"road","ref:en":"T-4-39","name:en":"Highway T-4-39","network":"am:national"},"11730983":{"ref":"Տ-4-40","name":"Տ-4-40","type":"route","route":"road","ref:en":"T-4-40","name:en":"Highway T-4-40","network":"am:national"},"11731159":{"ref":"Տ-4-41","name":"Տ-4-41","type":"route","route":"road","ref:en":"T-4-41","name:en":"Highway T-4-41","network":"am:national"},"11731160":{"ref":"Տ-4-42","name":"Տ-4-42","type":"route","route":"road","ref:en":"T-4-42","name:en":"Highway T-4-42","network":"am:national"},"11731161":{"ref":"Տ-4-43","name":"Տ-4-43","type":"route","route":"road","ref:en":"T-4-43","name:en":"Highway T-4-43","network":"am:national"},"11731162":{"ref":"Տ-4-44","name":"Տ-4-44","type":"route","route":"road","ref:en":"T-4-44","name:en":"Highway T-4-44","network":"am:national"},"11731163":{"ref":"Տ-4-46","name":"Տ-4-46","type":"route","route":"road","ref:en":"T-4-46","name:en":"Highway T-4-46","network":"am:national"},"11731164":{"ref":"Տ-4-45","name":"Տ-4-45","type":"route","route":"road","ref:en":"T-4-45","name:en":"Highway T-4-45","network":"am:national"},"11731165":{"ref":"Տ-4-47","name":"Տ-4-47","type":"route","route":"road","ref:en":"T-4-47","name:en":"Highway T-4-47","network":"am:national"},"11731166":{"ref":"Տ-4-48","name":"Տ-4-48","type":"route","route":"road","ref:en":"T-4-48","name:en":"Highway T-4-48","network":"am:national"},"11731167":{"ref":"Տ-4-49","name":"Տ-4-49","type":"route","route":"road","ref:en":"T-4-49","name:en":"Highway T-4-49","network":"am:national"},"11731168":{"ref":"Տ-4-50","name":"Տ-4-50","type":"route","route":"road","ref:en":"T-4-50","name:en":"Highway T-4-50","network":"am:national"},"11731232":{"ref":"Տ-4-51","name":"Տ-4-51","type":"route","route":"road","ref:en":"T-4-51","name:en":"Highway T-4-51","network":"am:national"},"11731233":{"ref":"Տ-4-52","name":"Տ-4-52","type":"route","route":"road","ref:en":"T-4-52","name:en":"Highway T-4-52","network":"am:national"},"11731234":{"ref":"Տ-4-53","name":"Տ-4-53","type":"route","route":"road","ref:en":"T-4-53","name:en":"Highway T-4-53","network":"am:national"},"11731235":{"ref":"Տ-4-54","name":"Տ-4-54","type":"route","route":"road","ref:en":"T-4-54","name:en":"Highway T-4-54","network":"am:national"},"11731236":{"ref":"Տ-4-55","name":"Տ-4-55","type":"route","route":"road","ref:en":"T-4-55","name:en":"Highway T-4-55","network":"am:national"},"11731237":{"ref":"Տ-4-56","name":"Տ-4-56","type":"route","route":"road","ref:en":"T-4-56","name:en":"Highway T-4-56","network":"am:national"},"11731238":{"ref":"Տ-4-57","name":"Տ-4-57","type":"route","route":"road","ref:en":"T-4-57","name:en":"Highway T-4-57","network":"am:national"},"11731239":{"ref":"Տ-4-58","name":"Տ-4-58","type":"route","route":"road","ref:en":"T-4-58","name:en":"Highway T-4-58","network":"am:national"},"11731240":{"ref":"Տ-4-59","name":"Տ-4-59","type":"route","route":"road","ref:en":"T-4-59","name:en":"Highway T-4-59","network":"am:national"},"11731241":{"ref":"Տ-4-60","name":"Տ-4-60","type":"route","route":"road","ref:en":"T-4-60","name:en":"Highway T-4-60","network":"am:national"},"11731352":{"ref":"Տ-4-61","name":"Տ-4-61","type":"route","route":"road","ref:en":"T-4-61","name:en":"Highway T-4-61","network":"am:national"},"11731353":{"ref":"Տ-4-62","name":"Տ-4-62","type":"route","route":"road","ref:en":"T-4-62","name:en":"Highway T-4-62","network":"am:national"},"11731354":{"ref":"Տ-4-63","name":"Տ-4-63","type":"route","route":"road","ref:en":"T-4-63","name:en":"Highway T-4-63","network":"am:national"},"11731355":{"ref":"Տ-4-64","name":"Տ-4-64","type":"route","route":"road","ref:en":"T-4-64","name:en":"Highway T-4-64","network":"am:national"},"11731356":{"ref":"Տ-4-65","name":"Տ-4-65","type":"route","route":"road","ref:en":"T-4-65","name:en":"Highway T-4-65","network":"am:national"},"11731357":{"ref":"Տ-4-66","name":"Տ-4-66","type":"route","route":"road","ref:en":"T-4-66","name:en":"Highway T-4-66","network":"am:national"},"11731358":{"ref":"Տ-4-67","name":"Տ-4-67","type":"route","route":"road","ref:en":"T-4-67","name:en":"Highway T-4-67","network":"am:national"},"11731359":{"ref":"Տ-4-68","name":"Տ-4-68","type":"route","route":"road","ref:en":"T-4-68","name:en":"Highway T-4-68","network":"am:national"},"11731360":{"ref":"Տ-4-70","name":"Տ-4-70","type":"route","route":"road","ref:en":"T-4-70","name:en":"Highway T-4-70","network":"am:national"},"11731426":{"ref":"Տ-4-72","name":"Տ-4-72","type":"route","route":"road","ref:en":"T-4-72","name:en":"Highway T-4-72","network":"am:national"},"11731427":{"ref":"Տ-4-73","name":"Տ-4-73","type":"route","route":"road","ref:en":"T-4-73","name:en":"Highway T-4-73","network":"am:national"},"11731428":{"ref":"Տ-4-74","name":"Տ-4-74","type":"route","route":"road","ref:en":"T-4-74","name:en":"Highway T-4-74","network":"am:national"},"11731429":{"ref":"Տ-4-75","name":"Տ-4-75","type":"route","route":"road","ref:en":"T-4-75","name:en":"Highway T-4-75","network":"am:national"},"11731430":{"ref":"Տ-4-76","name":"Տ-4-76","type":"route","route":"road","ref:en":"T-4-76","name:en":"Highway T-4-76","network":"am:national"},"11731431":{"ref":"Տ-4-77","name":"Տ-4-77","type":"route","route":"road","ref:en":"T-4-77","name:en":"Highway T-4-77","network":"am:national"},"11731432":{"ref":"Տ-4-78","name":"Տ-4-78","type":"route","route":"road","ref:en":"T-4-78","name:en":"Highway T-4-78","network":"am:national"},"11731433":{"ref":"Տ-4-79","name":"Տ-4-79","type":"route","route":"road","ref:en":"T-4-79","name:en":"Highway T-4-79","network":"am:national"},"11731434":{"ref":"Տ-4-80","name":"Տ-4-80","type":"route","route":"road","ref:en":"T-4-80","name:en":"Highway T-4-80","network":"am:national"},"11731545":{"ref":"Տ-4-81","name":"Տ-4-81","type":"route","route":"road","ref:en":"T-4-81","name:en":"Highway T-4-81","network":"am:national"},"11731546":{"ref":"Տ-4-82","name":"Տ-4-82","type":"route","route":"road","ref:en":"T-4-82","name:en":"Highway T-4-82","network":"am:national"},"11731547":{"ref":"Տ-4-83","name":"Տ-4-83","type":"route","route":"road","ref:en":"T-4-83","name:en":"Highway T-4-83","network":"am:national"},"11731548":{"ref":"Տ-4-84","name":"Տ-4-84","type":"route","route":"road","ref:en":"T-4-84","name:en":"Highway T-4-84","network":"am:national"},"11731549":{"ref":"Տ-4-85","name":"Տ-4-85","type":"route","route":"road","ref:en":"T-4-85","name:en":"Highway T-4-85","network":"am:national"},"11731550":{"ref":"Տ-4-86","name":"Տ-4-86","type":"route","route":"road","ref:en":"T-4-86","name:en":"Highway T-4-86","network":"am:national"},"11731551":{"ref":"Տ-4-87","name":"Տ-4-87","type":"route","route":"road","ref:en":"T-4-87","name:en":"Highway T-4-87","network":"am:national"},"11731552":{"ref":"Տ-4-88","name":"Տ-4-88","type":"route","route":"road","ref:en":"T-4-88","name:en":"Highway T-4-88","network":"am:national"},"11731553":{"ref":"Տ-4-89","name":"Տ-4-89","type":"route","route":"road","ref:en":"T-4-89","name:en":"Highway T-4-89","network":"am:national"},"11731554":{"ref":"Տ-4-90","name":"Տ-4-90","type":"route","route":"road","ref:en":"T-4-90","name:en":"Highway T-4-90","network":"am:nation"},"11731636":{"ref":"Տ-4-91","name":"Տ-4-91","type":"route","route":"road","ref:en":"T-4-91","name:en":"Highway T-4-91","network":"am:national"},"11731637":{"ref":"Տ-4-92","name":"Տ-4-92","type":"route","route":"road","ref:en":"T-4-92","name:en":"Highway T-4-92","network":"am:national"},"11731638":{"ref":"Տ-4-93","name":"Տ-4-93","type":"route","route":"road","ref:en":"T-4-93","name:en":"Highway T-4-93","network":"am:national"},"11731639":{"ref":"Տ-4-94","name":"Տ-4-94","type":"route","route":"road","ref:en":"T-4-94","name:en":"Highway T-4-94","network":"am:national"},"11731640":{"ref":"Տ-4-95","name":"Տ-4-95","type":"route","route":"road","ref:en":"T-4-95","name:en":"Highway T-4-95","network":"am:national"},"11731641":{"ref":"Տ-4-96","name":"Տ-4-96","type":"route","route":"road","ref:en":"T-4-96","name:en":"Highway T-4-96","network":"am:national"},"11731642":{"ref":"Տ-4-97","name":"Տ-4-97","type":"route","route":"road","ref:en":"T-4-97","name:en":"Highway T-4-97","network":"am:national"},"11731643":{"ref":"Տ-4-98","name":"Տ-4-98","type":"route","route":"road","ref:en":"T-4-98","name:en":"Highway T-4-98","network":"am:national"},"11733913":{"ref":"Տ-5-1","name":"Տ-5-1","type":"route","route":"road","ref:en":"T-5-1","name:en":"Highway T-5-1","network":"am:national"},"11733914":{"ref":"Տ-5-2","name":"Տ-5-2","type":"route","route":"road","ref:en":"T-5-2","name:en":"Highway T-5-2","network":"am:national"},"11733915":{"ref":"Տ-5-3","name":"Տ-5-3","type":"route","route":"road","ref:en":"T-5-3","name:en":"Highway T-5-3","network":"am:national"},"11733916":{"ref":"Տ-5-4","name":"Տ-5-4","type":"route","route":"road","ref:en":"T-5-4","name:en":"Highway T-5-4","network":"am:national"},"11733917":{"ref":"Տ-5-6","name":"Տ-5-6","type":"route","route":"road","ref:en":"T-5-6","name:en":"Highway T-5-6","network":"am:national"},"11733918":{"ref":"Տ-5-7","name":"Տ-5-7","type":"route","route":"road","ref:en":"T-5-7","name:en":"Highway T-5-7","network":"am:national"},"11733919":{"ref":"Տ-5-8","name":"Տ-5-8","type":"route","route":"road","ref:en":"T-5-8","name:en":"Highway T-5-8","network":"am:national"},"11733920":{"ref":"Տ-5-9","name":"Տ-5-9","type":"route","route":"road","ref:en":"T-5-9","name:en":"Highway T-5-9","network":"am:national"},"11733921":{"ref":"Տ-5-10","name":"Տ-5-10","type":"route","route":"road","ref:en":"T-5-10","name:en":"Highway T-5-10","network":"am:national"},"11734463":{"ref":"Տ-5-11","name":"Տ-5-11","type":"route","route":"road","ref:en":"T-5-11","name:en":"Highway T-5-11","network":"am:national"},"11734464":{"ref":"Տ-5-13","name":"Տ-5-13","type":"route","route":"road","ref:en":"T-5-13","name:en":"Highway T-5-13","network":"am:national"},"11734465":{"ref":"Տ-5-14","name":"Տ-5-14","type":"route","route":"road","ref:en":"T-5-14","name:en":"Highway T-5-14","network":"am:national"},"11734466":{"ref":"Տ-5-15","name":"Տ-5-15","type":"route","route":"road","ref:en":"T-5-15","name:en":"Highway T-5-15","network":"am:national"},"11734467":{"ref":"Տ-5-18","name":"Տ-5-18","type":"route","route":"road","ref:en":"T-5-18","name:en":"Highway T-5-18","network":"am:national"},"11734468":{"ref":"Տ-5-19","name":"Տ-5-19","type":"route","route":"road","ref:en":"T-5-19","network":"am:national"},"11734469":{"ref":"Տ-5-20","name":"Տ-5-20","type":"route","route":"road","ref:en":"T-5-20","name:en":"Highway T-5-20","network":"am:national"},"11734892":{"ref":"Տ-5-21","name":"Տ-5-21","type":"route","route":"road","ref:en":"T-5-21","name:en":"Highway T-5-21","network":"am:national"},"11734893":{"ref":"Տ-5-22","name":"Տ-5-22","type":"route","route":"road","ref:en":"T-5-22","name:en":"Highway T-5-22","network":"am:national"},"11734894":{"ref":"Տ-5-23","name":"Տ-5-23","type":"route","route":"road","ref:en":"T-5-23","name:en":"Highway T-5-23","network":"am:national"},"11734895":{"ref":"Տ-5-24","name":"Տ-5-24","type":"route","route":"road","ref:en":"T-5-24","name:en":"Highway T-5-24","network":"am:national"},"11734896":{"ref":"Տ-5-26","name":"Տ-5-26","type":"route","route":"road","ref:en":"T-5-26","name:en":"Highway T-5-26","network":"am:national"},"11734897":{"ref":"Տ-5-27","name":"Տ-5-27","type":"route","route":"road","ref:en":"T-5-27","name:en":"Highway T-5-27","network":"am:national"},"11734898":{"ref":"Տ-5-30","name":"Տ-5-30","type":"route","route":"road","ref:en":"T-5-30","name:en":"Highway T-5-30","network":"am:national"},"11734961":{"ref":"Տ-5-31","name":"Տ-5-31","type":"route","route":"road","ref:en":"T-5-31","name:en":"Highway T-5-31","network":"am:national"},"11734962":{"ref":"Տ-5-32","name":"Տ-5-32","type":"route","route":"road","ref:en":"T-5-32","name:en":"Highway T-5-32","network":"am:national"},"11734963":{"ref":"Տ-5-33","name":"Տ-5-33","type":"route","route":"road","ref:en":"T-5-33","name:en":"Highway T-5-33","network":"am:national"},"11734964":{"ref":"Տ-5-34","name":"Տ-5-34","type":"route","route":"road","ref:en":"T-5-34","name:en":"Highway T-5-34","network":"am:national"},"11734965":{"ref":"Տ-5-35","name":"Տ-5-35","type":"route","route":"road","ref:en":"T-5-35","name:en":"Highway T-5-35","network":"am:national"},"11734966":{"ref":"Տ-5-36","name":"Տ-5-36","type":"route","route":"road","ref:en":"T-5-36","name:en":"Highway T-5-36","network":"am:national"},"11734967":{"ref":"Տ-5-37","name":"Տ-5-37","type":"route","route":"road","ref:en":"T-5-37","name:en":"Highway T-5-37","network":"am:national"},"11734968":{"ref":"Տ-5-38","name":"Տ-5-38","type":"route","route":"road","ref:en":"T-5-38","name:en":"Highway T-5-38","network":"am:national"},"11734969":{"ref":"Տ-5-39","name":"Տ-5-39","type":"route","route":"road","ref:en":"T-5-39","name:en":"Highway T-5-39","network":"am:national"},"11734970":{"ref":"Տ-5-40","name":"Տ-5-40","type":"route","route":"road","ref:en":"T-5-40","name:en":"Highway T-5-40","network":"am:national"},"11735016":{"ref":"Տ-5-41","name":"Տ-5-41","type":"route","route":"road","ref:en":"T-5-41","name:en":"Highway T-5-41","network":"am:national"},"11735017":{"ref":"Տ-5-42","name":"Տ-5-42","type":"route","route":"road","ref:en":"T-5-42","name:en":"Highway T-5-42","network":"am:national"},"11735018":{"ref":"Տ-5-43","name":"Տ-5-43","type":"route","route":"road","ref:en":"T-5-43","name:en":"Highway T-5-43","network":"am:national"},"11735019":{"ref":"Տ-5-44","name":"Տ-5-44","type":"route","route":"road","ref:en":"T-5-44","name:en":"Highway T-5-44","network":"am:national"},"11735020":{"ref":"Տ-5-45","name":"Տ-5-45","type":"route","route":"road","ref:en":"T-5-45","name:en":"Highway T-5-45","network":"am:national"},"11735021":{"ref":"Տ-5-46","name":"Տ-5-46","type":"route","route":"road","ref:en":"T-5-46","name:en":"Highway T-5-46"},"11735022":{"ref":"Տ-5-48","name":"Տ-5-48","type":"route","route":"road","ref:en":"T-5-48","name:en":"Highway T-5-48","network":"am:national"},"11735023":{"ref":"Տ-5-50","name":"Տ-5-50","type":"route","route":"road","ref:en":"T-5-50","name:en":"Highway T-5-50","network":"am:national"},"11735364":{"ref":"Տ-5-51","name":"Տ-5-51","type":"route","route":"road","ref:en":"T-5-51","name:en":"Highway T-5-51","network":"am:national"},"11735365":{"ref":"Տ-5-52","name":"Տ-5-52","type":"route","route":"road","ref:en":"T-5-52","name:en":"Highway T-5-52","network":"am:national"},"11735367":{"ref":"Տ-5-54","name":"Տ-5-54","type":"route","route":"road","ref:en":"T-5-54","name:en":"Highway T-5-54","network":"am:national"},"11735368":{"ref":"Տ-5-55","name":"Տ-5-55","type":"route","route":"road","ref:en":"T-5-55","name:en":"Highway T-5-55","network":"am:national"},"11735369":{"ref":"Տ-5-56","name":"Տ-5-56","type":"route","route":"road","ref:en":"T-5-56","name:en":"Highway T-5-56","network":"am:national"},"11735370":{"ref":"Տ-5-57","name":"Տ-5-57","type":"route","route":"road","ref:en":"T-5-57","name:en":"Highway T-5-57","network":"am:national"},"11735371":{"ref":"Տ-5-58","name":"Տ-5-58","type":"route","route":"road","ref:en":"T-5-58","name:en":"Highway T-5-58","network":"am:national"},"11735372":{"ref":"Տ-5-59","name":"Տ-5-59","type":"route","route":"road","ref:en":"T-5-59","name:en":"Highway T-5-59","network":"am:national"},"11735373":{"ref":"Տ-5-60","name":"Տ-5-60","type":"route","route":"road","ref:en":"T-5-60","name:en":"Highway T-5-60","network":"am:national"},"11735521":{"ref":"Տ-5-61","name":"Տ-5-61","type":"route","route":"road","ref:en":"T-5-61","name:en":"Highway T-5-61","network":"am:national"},"11735522":{"ref":"Տ-5-62","name":"Տ-5-62","type":"route","route":"road","ref:en":"T-5-62","name:en":"Highway T-5-62","network":"am:national"},"11735523":{"ref":"Տ-5-63","name":"Տ-5-63","type":"route","route":"road","ref:en":"T-5-63","name:en":"Highway T-5-63","network":"am:national"},"11735524":{"ref":"Տ-5-64","name":"Տ-5-64","type":"route","route":"road","ref:en":"T-5-64","name:en":"Highway T-5-64","network":"am:national"},"11735525":{"ref":"Տ-5-65","name":"Տ-5-65","type":"route","route":"road","ref:en":"T-5-65","name:en":"Highway T-5-65","network":"am:national"},"11735526":{"ref":"Տ-5-66","name":"Տ-5-66","type":"route","route":"road","ref:en":"T-5-66","name:en":"Highway T-5-66","network":"am:national"},"11735527":{"ref":"Տ-5-67","name":"Տ-5-67","type":"route","route":"road","ref:en":"T-5-67","name:en":"Highway T-5-67","network":"am:national"},"11735528":{"ref":"Տ-5-68","name":"Տ-5-68","type":"route","route":"road","ref:en":"T-5-68","name:en":"Highway T-5-68","network":"am:national"},"11735529":{"ref":"Տ-5-69","name":"Տ-5-69","type":"route","route":"road","ref:en":"T-5-69","name:en":"Highway T-5-69","network":"am:national"},"11735530":{"ref":"Տ-5-70","name":"Տ-5-70","type":"route","route":"road","ref:en":"T-5-70","name:en":"Highway T-5-70","network":"am:national"},"11735556":{"ref":"Տ-5-72","name":"Տ-5-72","type":"route","route":"road","ref:en":"T-5-72","name:en":"Highway T-5-72","network":"am:national"},"11735557":{"ref":"Տ-5-73","name":"Տ-5-73","type":"route","route":"road","ref:en":"T-5-73","name:en":"Highway T-5-73","network":"am:national"},"11735558":{"ref":"Տ-5-74","name":"Տ-5-74","type":"route","route":"road","ref:en":"T-5-74","name:en":"Highway T-5-74","network":"am:national"},"11735559":{"ref":"Տ-5-75","name":"Տ-5-75","type":"route","route":"road","ref:en":"T-5-75","name:en":"Highway T-5-75","network":"am:national"},"11735560":{"ref":"Տ-5-76","name":"Տ-5-76","type":"route","route":"road","ref:en":"T-5-76","name:en":"Highway T-5-76","network":"am:national"},"11735561":{"ref":"Տ-5-77","name":"Ավարտվել է Տ-5-77","route":"road","ref:en":"T-5-77","name:en":"Highway T-5-77","network":"am:national"},"11735562":{"ref":"Տ-5-78","name":"Տ-5-78","type":"route","route":"road","ref:en":"T-5-78","name:en":"Highway T-5-78","network":"am:national"},"11735563":{"ref":"Տ-5-79","name":"Տ-5-79","type":"route","route":"road","ref:en":"T-5-79","name:en":"Highway T-5-79","network":"am:national"},"11735564":{"ref":"Տ-5-80","name":"Տ-5-80","type":"route","route":"road","ref:en":"T-5-80","name:en":"Highway T-5-80","network":"am:national"},"11735669":{"ref":"Տ-5-81","name":"Տ-5-81","type":"route","route":"road","ref:en":"T-5-81","name:en":"Highway T-5-81","network":"am:national"},"11735670":{"ref":"Տ-5-82","name":"Տ-5-82","type":"route","route":"road","ref:en":"T-5-82","name:en":"Highway T-5-82","network":"am:national"},"11735671":{"ref":"Տ-5-83","name":"Տ-5-83","type":"route","route":"road","ref:en":"T-5-83","name:en":"Highway T-5-83","network":"am:national"},"11735672":{"ref":"Տ-5-84","name":"Տ-5-84","type":"route","route":"road","ref:en":"T-5-84","name:en":"Highway T-5-84","network":"am:national"},"11735673":{"ref":"Տ-5-85","name":"Տ-5-85","type":"route","route":"road","ref:en":"T-5-85","name:en":"Highway T-5-85","network":"am:national"},"11735674":{"ref":"Տ-5-86","name":"Տ-5-86","type":"route","route":"road","ref:en":"T-5-86","name:en":"Highway T-5-86","network":"am:national"},"11735675":{"ref":"Տ-5-87","name":"Տ-5-87","type":"route","route":"road","ref:en":"T-5-87","name:en":"Highway T-5-87","network":"am:national"},"11735676":{"ref":"Տ-5-89","name":"Տ-5-89","type":"route","route":"road","ref:en":"T-5-89","name:en":"Highway T-5-89","network":"am:national"},"11735683":{"ref":"Տ-5-91","name":"Տ-5-91","type":"route","route":"road","ref:en":"T-5-91","name:en":"Highway T-5-91","network":"am:national"},"11735684":{"ref":"Տ-5-92","name":"Տ-5-92","type":"route","route":"road","ref:en":"T-5-92","name:en":"Highway T-5-92","network":"am:national"},"11737584":{"ref":"Տ-6-2","name":"Տ-6-2","type":"route","route":"road","ref:en":"T-6-2","name:en":"Highway T-6-2","network":"am:national"},"11737585":{"ref":"Տ-6-3","name":"Տ-6-3","type":"route","route":"road","ref:en":"T-6-3","name:en":"Highway T-6-3","network":"am:national"},"11737586":{"ref":"Տ-6-5","name":"Տ-6-5","type":"route","route":"road","ref:en":"T-6-5","name:en":"Highway T-6-5","network":"am:national"},"11737587":{"ref":"Տ-6-6","name":"Տ-6-6","type":"route","route":"road","ref:en":"T-6-6","name:en":"Highway T-6-6","network":"am:national"},"11737589":{"ref":"Տ-6-8","name":"Տ-6-8","type":"route","route":"road","ref:en":"T-6-8","ref:ru":"Т-6-8","name:en":"Highway T-6-8","name:ru":"Трасса Т-6-8","network":"am:national"},"11737590":{"ref":"Տ-6-10","name":"Տ-6-10","type":"route","route":"road","ref:en":"T-6-10","name:en":"Highway T-6-10","network":"am:national"},"11738566":{"ref":"Տ-6-11","name":"Տ-6-11","type":"route","route":"road","ref:en":"T-6-11","name:en":"Highway T-6-11","network":"am:national"},"11738567":{"ref":"Տ-6-12","name":"Տ-6-12","type":"route","route":"road","ref:en":"T-6-12","name:en":"Highway T-6-12","network":"am:national"},"11738568":{"ref":"Տ-6-13","name":"Տ-6-13","type":"route","route":"road","ref:en":"T-6-13","name:en":"Highway T-6-13","network":"am:national"},"11738569":{"ref":"Տ-6-14","name":"Տ-6-14","type":"route","route":"road","ref:en":"T-6-14","name:en":"Highway T-6-14","network":"am:national"},"11738570":{"ref":"Տ-6-15","name":"Տ-6-15","type":"route","route":"road","ref:en":"T-6-15","name:en":"Highway T-6-15","network":"am:national"},"11738571":{"ref":"Տ-6-16","name":"Տ-6-16","type":"route","route":"road","ref:en":"T-6-16","name:en":"Highway T-6-16","network":"am:national"},"11738573":{"ref":"Տ-6-20","name":"Տ-6-20","type":"route","route":"road","ref:en":"T-6-20","name:en":"Highway T-6-20","network":"am:national"},"11738940":{"ref":"Տ-6-21","name":"Տ-6-21","type":"route","route":"road","ref:en":"T-6-21","name:en":"Highway T-6-21","network":"am:national"},"11738941":{"ref":"Տ-6-22","name":"Տ-6-22","type":"route","route":"road","ref:en":"T-6-22","name:en":"Highway T-6-22","network":"am:national"},"11738942":{"ref":"Տ-6-23","name":"Տ-6-23","type":"route","route":"road","ref:en":"T-6-23","name:en":"Highway T-6-23","network":"am:national"},"11738943":{"ref":"Տ-6-24","name":"Տ-6-24","type":"route","route":"road","ref:en":"T-6-24","name:en":"Highway T-6-24","network":"am:national"},"11738944":{"ref":"Տ-6-25","name":"Տ-6-25","type":"route","route":"road","ref:en":"T-6-25","name:en":"Highway T-6-25","network":"am:national"},"11738945":{"ref":"Տ-6-26","name":"Տ-6-26","type":"route","route":"road","ref:en":"T-6-26","name:en":"Highway T-6-26","network":"am:national"},"11738946":{"ref":"Տ-6-27","name":"Տ-6-27","type":"route","route":"road","ref:en":"T-6-27","name:en":"Highway T-6-27","network":"am:national"},"11738947":{"ref":"Տ-6-28","name":"Տ-6-28","type":"route","route":"road","ref:en":"T-6-28","name:en":"Highway T-6-28","network":"am:national"},"11738948":{"ref":"Տ-6-29","name":"Տ-6-29","type":"route","route":"road","ref:en":"T-6-29","name:en":"Highway T-6-29","network":"am:national"},"11738949":{"ref":"Տ-6-30","name":"Տ-6-30","type":"route","route":"road","ref:en":"T-6-30","name:en":"Highway T-6-30","network":"am:national"},"11739354":{"ref":"Տ-6-31","name":"Տ-6-31","type":"route","route":"road","ref:en":"T-6-31","name:en":"Highway T-6-31","network":"am:national"},"11739355":{"ref":"Տ-6-32","name":"Տ-6-32","type":"route","route":"road","ref:en":"T-6-32","name:en":"Highway T-6-32","network":"am:national"},"11739356":{"ref":"Տ-6-33","name":"Տ-6-33","type":"route","route":"road","ref:en":"T-6-33","name:en":"Highway T-6-33","network":"am:national"},"11739357":{"ref":"Տ-6-34","name":"Տ-6-34","type":"route","route":"road","ref:en":"T-6-34","name:en":"Highway T-6-34","network":"am:national"},"11739358":{"ref":"Տ-6-35","name":"Տ-6-35","type":"route","route":"road","ref:en":"T-6-35","name:en":"Highway T-6-35","network":"am:national"},"11739359":{"ref":"Տ-6-36","name":"Տ-6-36","type":"route","route":"road","ref:en":"T-6-36","name:en":"Highway T-6-36","network":"am:national"},"11739360":{"ref":"Տ-6-37","name":"Տ-6-37","type":"route","route":"road","ref:en":"T-6-37","name:en":"Highway T-6-37","network":"am:national"},"11739361":{"ref":"Տ-6-38","name":"Տ-6-38","type":"route","route":"road","ref:en":"T-6-38","name:en":"Highway T-6-38","network":"am:national"},"11739362":{"ref":"Տ-6-39","name":"Տ-6-39","type":"route","route":"road","ref:en":"T-6-39","name:en":"Highway T-6-39","network":"am:national"},"11739363":{"ref":"Տ-6-40","name":"Տ-6-40","type":"route","route":"road","ref:en":"T-6-40","ref:ru":"Т-6-40","name:en":"Highway T-6-40","name:ru":"Трасса Т-6-40","network":"am:national"},"11739390":{"ref":"Տ-6-41","name":"Տ-6-41","type":"route","route":"road","ref:en":"T-6-41","name:en":"Highway T-6-41","network":"am:national"},"11739391":{"ref":"Տ-6-42","name":"Տ-6-42","type":"route","route":"road","ref:en":"T-6-42","name:en":"Highway T-6-42","network":"am:national"},"11739392":{"ref":"Տ-6-43","name":"Տ-6-43","type":"route","route":"road","ref:en":"T-6-43","name:en":"Highway T-6-43","network":"am:national"},"11739393":{"ref":"Տ-6-44","name":"Տ-6-44","type":"route","route":"road","ref:en":"T-6-44","name:en":"Highway T-6-44","network":"am:national"},"11739394":{"ref":"Տ-6-46","name":"Տ-6-46","type":"route","route":"road","ref:en":"T-6-46","name:en":"Highway T-6-46","network":"am:national"},"11739395":{"ref":"Տ-6-47","name":"Տ-6-47","type":"route","route":"road","ref:en":"T-6-47","name:en":"Highway T-6-47","network":"am:national"},"11739396":{"ref":"Տ-6-48","name":"Տ-6-48","type":"route","route":"road","ref:en":"T-6-48","name:en":"Highway T-6-48","network":"am:national"},"11739397":{"ref":"Տ-1-85","name":"Տ-1-85","type":"route","route":"road","ref:en":"T-1-85","name:en":"Highway T-1-85","network":"am:national"},"11739398":{"ref":"Տ-6-50","name":"Տ-6-50","type":"route","route":"road","ref:en":"T-6-50","name:en":"Highway T-6-50","network":"am:national"},"11739402":{"ref":"Տ-6-52","name":"Տ-6-52","type":"route","route":"road","ref:en":"T-6-52","name:en":"Highway T-6-52","network":"am:national"},"11739403":{"ref":"Տ-6-51","name":"Տ-6-51","type":"route","route":"road","ref:en":"T-6-51","name:en":"Highway T-6-51","network":"am:national"},"11739404":{"ref":"Տ-6-54","name":"Տ-6-54","type":"route","route":"road","ref:en":"T-6-54","name:en":"Highway T-6-54","network":"am:national"},"11739405":{"ref":"Տ-6-55","name":"Տ-6-55","type":"route","route":"road","ref:en":"T-6-55","name:en":"Highway T-6-55","network":"am:national"},"11739904":{"ref":"Տ-7-1","name":"Տ-7-1","type":"route","route":"road","ref:en":"T-7-1","name:en":"Highway T-7-1","network":"am:national"},"11739905":{"ref":"Տ-7-2","name":"Տ-7-2","type":"route","route":"road","ref:en":"T-7-2","name:en":"Highway T-7-2","network":"am:national"},"11739906":{"ref":"Տ-7-3","name":"Տ-7-3","type":"route","route":"road","ref:en":"T-7-3","name:en":"Highway T-7-3","network":"am:national"},"11739907":{"ref":"Տ-7-6","name":"Տ-7-6","type":"route","route":"road","ref:en":"T-7-6","name:en":"Highway T-7-6","network":"am:national"},"11739908":{"ref":"Տ-7-7","name":"Տ-7-7","type":"route","route":"road","ref:en":"T-7-7","name:en":"Highway T-7-7","network":"am:national"},"11739909":{"ref":"Տ-7-8","name":"Տ-7-8","type":"route","route":"road","ref:en":"T-7-8","name:en":"Highway T-7-8","network":"am:national"},"11739910":{"ref":"Տ-7-9","name":"Տ-7-9","type":"route","route":"road","ref:en":"T-7-9","name:en":"Highway T-7-9","network":"am:national"},"11739911":{"ref":"Տ-7-10","name":"Տ-7-10","type":"route","route":"road","ref:en":"T-7-10","name:en":"Highway T-7-10","network":"am:national"},"11742284":{"ref":"Տ-7-11","name":"Տ-7-11","type":"route","route":"road","ref:en":"T-7-11","name:en":"Highway T-7-11","network":"am:national"},"11742285":{"ref":"Տ-7-12","name":"Տ-7-12","type":"route","route":"road","ref:en":"T-7-12","name:en":"Highway T-7-12","network":"am:national"},"11742286":{"ref":"Տ-7-13","name":"Տ-7-13","type":"route","route":"road","ref:en":"T-7-13","name:en":"Highway T-7-13","network":"am:national"},"11742287":{"ref":"Տ-7-14","name":"Տ-7-14","type":"route","route":"road","ref:en":"T-7-14","name:en":"Highway T-7-14","network":"am:national"},"11742288":{"ref":"Տ-7-15","name":"Տ-7-15","type":"route","route":"road","ref:en":"T-7-15","name:en":"Highway T-7-15","network":"am:national"},"11742289":{"ref":"Տ-7-16","name":"Տ-7-16","type":"route","route":"road","ref:en":"T-7-16","name:en":"Highway T-7-16","network":"am:national"},"11742290":{"ref":"Տ-7-17","name":"Տ-7-17","type":"route","route":"road","ref:en":"T-7-17","name:en":"Highway T-7-17","network":"am:national"},"11742291":{"ref":"Տ-7-18","name":"Տ-7-18","type":"route","route":"road","ref:en":"T-7-18","name:en":"Highway T-7-18","network":"am:national"},"11742292":{"ref":"Տ-7-19","name":"Տ-7-19","type":"route","route":"road","ref:en":"T-7-19","name:en":"Highway T-7-19","network":"am:national"},"11742293":{"ref":"Տ-7-20","name":"Տ-7-20","type":"route","route":"road","ref:en":"T-7-20","name:en":"Highway T-7-20","network":"am:national"},"11742300":{"ref":"Տ-7-21","name":"Տ-7-21","type":"route","route":"road","ref:en":"T-7-21","name:en":"Highway T-7-21","network":"am:national"},"11742301":{"ref":"Տ-7-22","name":"Տ-7-22","type":"route","route":"road","ref:en":"T-7-22","name:en":"Highway T-7-22","network":"am:national"},"11742302":{"ref":"Տ-7-23","name":"Տ-7-23","type":"route","route":"road","ref:en":"T-7-23","name:en":"Highway T-7-23","network":"am:national"},"11742303":{"ref":"Տ-7-24","name":"Տ-7-24","type":"route","route":"road","ref:en":"T-7-24","name:en":"Highway T-7-24","network":"am:national"},"11742304":{"ref":"Տ-7-25","name":"Տ-7-25","type":"route","route":"road","ref:en":"T-7-25","name:en":"Highway T-7-25","network":"am:national"},"11742305":{"ref":"Տ-7-26","name":"Տ-7-26","type":"route","route":"road","ref:en":"T-7-26","name:en":"Highway T-7-26","network":"am:national"},"11742306":{"ref":"Տ-7-27","name":"Տ-7-27","type":"route","route":"road","ref:en":"T-7-27","name:en":"Highway T-7-27","network":"am:national"},"11742307":{"ref":"Տ-7-28","name":"Տ-7-28","type":"route","route":"road","ref:en":"T-7-28","name:en":"Highway T-7-28","network":"am:national"},"11742308":{"ref":"Տ-7-29","name":"Տ-7-29","type":"route","route":"road","ref:en":"T-7-29","name:en":"Highway T-7-29","network":"am:national"},"11742309":{"ref":"Տ-7-30","name":"Տ-7-30","type":"route","route":"road","ref:en":"T-7-30","name:en":"Highway T-7-30","network":"am:national"},"11744633":{"ref":"Տ-7-31","name":"Տ-7-31","type":"route","route":"road","ref:en":"T-7-31","name:en":"Highway T-7-31","network":"am:national"},"11744634":{"ref":"Տ-7-32","name":"Տ-7-32","type":"route","route":"road","ref:en":"T-7-32","name:en":"Highway T-7-32","network":"am:national"},"11744635":{"ref":"Տ-7-33","name":"Տ-7-33","type":"route","route":"road","ref:en":"T-7-33","name:en":"Highway T-7-33","network":"am:national"},"11744636":{"ref":"Տ-7-34","name":"Տ-7-34","type":"route","route":"road","ref:en":"T-7-34","name:en":"Highway T-7-34","network":"am:national"},"11744637":{"ref":"Տ-7-35","name":"Տ-7-35","type":"route","route":"road","ref:en":"T-7-35","name:en":"Highway T-7-35","network":"am:national"},"11744638":{"ref":"Տ-7-36","name":"Տ-7-36","type":"route","route":"road","ref:en":"T-7-36","name:en":"Highway T-7-36","network":"am:national"},"11744639":{"ref":"Տ-7-37","name":"Տ-7-37","type":"route","route":"road","ref:en":"T-7-37","name:en":"Highway T-7-37","network":"am:national"},"11744640":{"ref":"Տ-7-38","name":"Տ-7-38","type":"route","route":"road","ref:en":"T-7-38","name:en":"Highway T-7-38","network":"am:national"},"11744641":{"ref":"Տ-7-39","name":"Տ-7-39","type":"route","route":"road","ref:en":"T-7-39","name:en":"Highway T-7-39","network":"am:national"},"11744642":{"ref":"Տ-7-40","name":"Տ-7-40","type":"route","route":"road","ref:en":"T-7-40","name:en":"Highway T-7-40","network":"am:national"},"11746009":{"ref":"Տ-7-41","name":"Տ-7-41","type":"route","route":"road","ref:en":"T-7-41","name:en":"Highway T-7-41","network":"am:national"},"11746010":{"ref":"Տ-7-42","name":"Տ-7-42","type":"route","route":"road","ref:en":"T-7-42","name:en":"Highway T-7-42","network":"am:national"},"11746011":{"ref":"Տ-7-43","name":"Տ-7-43","type":"route","route":"road","ref:en":"T-7-43","name:en":"Highway T-7-43","network":"am:national"},"11746012":{"ref":"Տ-7-44","name":"Տ-7-44","type":"route","route":"road","ref:en":"T-7-44","name:en":"Highway T-7-44","network":"am:national"},"11746013":{"ref":"Տ-7-45","name":"Տ-7-45","type":"route","route":"road","ref:en":"T-7-45","name:en":"Highway T-7-45","network":"am:national"},"11746014":{"ref":"Տ-7-46","name":"Տ-7-46","type":"route","route":"road","ref:en":"T-7-46","name:en":"Highway T-7-46","network":"am:national"},"11746015":{"ref":"Տ-7-47","name":"Տ-7-47","type":"route","route":"road","ref:en":"T-7-47","name:en":"Highway T-7-47","network":"am:national"},"11746016":{"ref":"Տ-7-48","name":"Տ-7-48","type":"route","route":"road","ref:en":"T-7-48","name:en":"Highway T-7-48","network":"am:national"},"11746017":{"ref":"Տ-7-49","name":"Տ-7-49","type":"route","route":"road","ref:en":"T-7-49","name:en":"Highway T-7-49","network":"am:national"},"11746018":{"ref":"Տ-7-50","name":"Տ-7-50","type":"route","route":"road","ref:en":"T-7-50","name:en":"Highway T-7-50","network":"am:national"},"11748986":{"ref":"Տ-7-51","name":"Տ-7-51","type":"route","route":"road","ref:en":"T-7-51","name:en":"Highway T-7-51","network":"am:national"},"11748987":{"ref":"Տ-7-52","name":"Տ-7-52","type":"route","route":"road","ref:en":"T-7-52","name:en":"Highway T-7-52","network":"am:national"},"11748988":{"ref":"Տ-7-53","name":"Տ-7-53","type":"route","route":"road","ref:en":"T-7-53","name:en":"Highway T-7-53","network":"am:national"},"11748989":{"ref":"Տ-7-54","name":"Տ-7-54","type":"route","route":"road","ref:en":"T-7-54","name:en":"Highway T-7-54","network":"am:national"},"11748990":{"ref":"Տ-7-56","name":"Տ-7-56","type":"route","route":"road","ref:en":"T-7-56","name:en":"Highway T-7-56","network":"am:national"},"11748991":{"ref":"Տ-7-57","name":"Տ-7-57","type":"route","route":"road","ref:en":"T-7-57","name:en":"Highway T-7-57","network":"am:national"},"11748992":{"ref":"Տ-7-55","name":"Տ-7-55","type":"route","route":"road","ref:en":"T-7-55","name:en":"Highway T-7-55","network":"am:national"},"11748993":{"ref":"Տ-7-58","name":"Տ-7-58","type":"route","route":"road","ref:en":"T-7-58","name:en":"Highway T-7-58","network":"am:national"},"11748994":{"ref":"Տ-7-59","name":"Տ-7-59","type":"route","route":"road","ref:en":"T-7-59","name:en":"Highway T-7-59","network":"am:national"},"11748995":{"ref":"Տ-7-60","name":"Տ-7-60","type":"route","route":"road","ref:en":"T-7-60","name:en":"Highway T-7-60","network":"am:national"},"11749675":{"ref":"Տ-7-61","name":"Տ-7-61","type":"route","route":"road","ref:en":"T-7-61","name:en":"Highway T-7-61","network":"am:national"},"11749676":{"ref":"Տ-7-62","name":"Տ-7-62","type":"route","route":"road","ref:en":"T-7-62","name:en":"Highway T-7-62","network":"am:national"},"11749677":{"ref":"Տ-7-63","name":"Տ-7-63","type":"route","route":"road","ref:en":"T-7-63","name:en":"Highway T-7-63","network":"am:national"},"11749678":{"ref":"Տ-7-64","name":"Տ-7-64","type":"route","route":"road","ref:en":"T-7-64","name:en":"Highway T-7-64","network":"am:national"},"11749679":{"ref":"Տ-7-65","name":"Տ-7-65","type":"route","route":"road","ref:en":"T-7-65","name:en":"Highway T-7-65","network":"am:national"},"11749680":{"ref":"Տ-7-66","name":"Տ-7-66","type":"route","route":"road","ref:en":"T-7-66","name:en":"Highway T-7-66","network":"am:national"},"11749681":{"ref":"Տ-7-67","name":"Տ-7-67","type":"route","route":"road","ref:en":"T-7-67","name:en":"Highway T-7-67","network":"am:national"},"11749682":{"ref":"Տ-7-68","name":"Տ-7-68","type":"route","route":"road","ref:en":"T-7-68","name:en":"Highway T-7-68","network":"am:national"},"11749683":{"ref":"Տ-7-69","name":"Տ-7-69","type":"route","route":"road","ref:en":"T-7-69","name:en":"Highway T-7-69","network":"am:national"},"11749684":{"ref":"Տ-7-70","name":"Տ-7-70","type":"route","route":"road","ref:en":"T-7-70","name:en":"Highway T-7-70","network":"am:national"},"11750997":{"ref":"Տ-7-71","name":"Տ-7-71","type":"route","route":"road","ref:en":"T-7-71","name:en":"Highway T-7-71","network":"am:national"},"11750998":{"ref":"Տ-7-72","name":"Տ-7-72","type":"route","route":"road","ref:en":"T-7-72","name:en":"Highway T-7-72","network":"am:national"},"11750999":{"ref":"Տ-7-74","name":"Տ-7-74","type":"route","route":"road","ref:en":"T-7-74","name:en":"Highway T-7-74","network":"am:national"},"11751000":{"ref":"Տ-7-75","name":"Տ-7-75","type":"route","route":"road","ref:en":"T-7-75","name:en":"Highway T-7-75","network":"am:national"},"11751001":{"ref":"Տ-7-76","name":"Տ-7-76","type":"route","route":"road","ref:en":"T-7-76","name:en":"Highway T-7-76","network":"am:national"},"11751002":{"ref":"Տ-7-77","name":"Տ-7-77","type":"route","route":"road","ref:en":"T-7-77","name:en":"Highway T-7-77","network":"am:national"},"11751003":{"ref":"Տ-7-78","name":"Տ-7-78","type":"route","route":"road","ref:en":"T-7-78","name:en":"Highway T-7-78","network":"am:national"},"11751004":{"ref":"Տ-7-79","name":"Տ-7-79","type":"route","route":"road","ref:en":"T-7-79","name:en":"Highway T-7-79","network":"am:national"},"11751005":{"ref":"Տ-7-80","name":"Տ-7-80","type":"route","route":"road","ref:en":"T-7-80","name:en":"Highway T-7-80","network":"am:national"},"11751879":{"ref":"Տ-7-81","name":"Տ-7-81","type":"route","route":"road","ref:en":"T-7-81","name:en":"Highway T-7-81","network":"am:national"},"11751880":{"ref":"Տ-7-82","name":"Տ-7-82","type":"route","route":"road","ref:en":"T-7-82","name:en":"Highway T-7-82","network":"am:national"},"11751881":{"ref":"Տ-7-84","name":"Տ-7-84","type":"route","route":"road","ref:en":"T-7-84","name:en":"Highway T-7-84","network":"am:national"},"11751882":{"ref":"Տ-7-85","name":"Տ-7-85","type":"route","route":"road","ref:en":"T-7-85","name:en":"Highway T-7-85","network":"am:national"},"11752638":{"ref":"Տ-8-1","name":"Տ-8-1","type":"route","route":"road","ref:en":"T-8-1","name:en":"Highway T-8-1","network":"am:national"},"11752639":{"ref":"Տ-8-2","name":"Տ-8-2","type":"route","route":"road","ref:en":"T-8-2","name:en":"Highway T-8-2","network":"am:national"},"11752640":{"ref":"Տ-8-3","name":"Տ-8-3","type":"route","route":"road","ref:en":"T-8-3","name:en":"Highway T-8-3","network":"am:national"},"11752641":{"ref":"Տ-8-5","name":"Տ-8-5","type":"route","route":"road","ref:en":"T-8-5","name:en":"Highway T-8-5","network":"am:national"},"11752642":{"ref":"Տ-8-8","name":"Տ-8-8","type":"route","route":"road","ref:en":"T-8-8","name:en":"Highway T-8-8","network":"am:national"},"11752643":{"ref":"Տ-8-10","name":"Տ-8-10","type":"route","route":"road","ref:en":"T-8-10","name:en":"Highway T-8-10","network":"am:national"},"11753036":{"ref":"Տ-8-13","name":"Տ-8-13","type":"route","route":"road","ref:en":"T-8-13","name:en":"Highway T-8-13","network":"am:national"},"11753037":{"ref":"Տ-8-14","name":"Տ-8-14","type":"route","route":"road","ref:en":"T-8-14","name:en":"Highway T-8-14","network":"am:national"},"11753038":{"ref":"Տ-8-15","name":"Տ-8-15","type":"route","route":"road","ref:en":"T-8-15","name:en":"Highway T-8-15","network":"am:national"},"11753039":{"ref":"Տ-8-16","name":"Տ-8-16","type":"route","route":"road","ref:en":"T-8-16","name:en":"Highway T-8-16","network":"am:national"},"11753040":{"ref":"Տ-8-17","name":"Տ-8-17","type":"route","route":"road","ref:en":"T-8-17","name:en":"Highway T-8-17","network":"am:national"},"11753041":{"ref":"Տ-8-18","name":"Տ-8-18","type":"route","route":"road","ref:en":"T-8-18","name:en":"Highway T-8-18","network":"am:national"},"11753042":{"ref":"Տ-8-19","name":"Տ-8-19","type":"route","route":"road","ref:en":"T-8-19","name:en":"Highway T-8-19","network":"am:national"},"11753043":{"ref":"Տ-8-20","name":"Տ-8-20","type":"route","route":"road","ref:en":"T-8-20","name:en":"Highway T-8-20","network":"am:national"},"11754965":{"ref":"Տ-8-21","name":"Տ-8-21","type":"route","route":"road","ref:en":"T-8-21","name:en":"Highway T-8-21","network":"am:national"},"11754966":{"ref":"Տ-8-22","name":"Տ-8-22","type":"route","route":"road","ref:en":"T-8-22","name:en":"Highway T-8-22","network":"am:national"},"11754968":{"ref":"Տ-8-24","name":"Տ-8-24","type":"route","route":"road","ref:en":"T-8-24","name:en":"Highway T-8-24","network":"am:national"},"11754969":{"ref":"Տ-8-25","name":"Տ-8-25","type":"route","route":"road","ref:en":"T-8-25","name:en":"Highway T-8-25","network":"am:national"},"11754970":{"ref":"Տ-8-26","name":"Տ-8-26","type":"route","route":"road","ref:en":"T-8-26","name:en":"Highway T-8-26","network":"am:national"},"11754971":{"ref":"Տ-8-27","name":"Տ-8-27","type":"route","route":"road","ref:en":"T-8-27","name:en":"Highway T-8-27","network":"am:national"},"11754972":{"ref":"Տ-8-28","name":"Տ-8-28","type":"route","route":"road","ref:en":"T-8-28","name:en":"Highway T-8-28","network":"am:national"},"11754973":{"ref":"Տ-8-29","name":"Տ-8-29","type":"route","route":"road","ref:en":"T-8-29","name:en":"Highway T-8-29","network":"am:national"},"11754974":{"ref":"Տ-8-30","name":"Տ-8-30","type":"route","route":"road","ref:en":"T-8-30","name:en":"Highway T-8-30","network":"am:national"},"11757069":{"ref":"Տ-8-31","name":"Տ-8-31","type":"route","route":"road","ref:en":"T-8-31","name:en":"Highway T-8-31","network":"am:national"},"11757070":{"ref":"Տ-8-32","name":"Տ-8-32","type":"route","route":"road","ref:en":"T-8-32","name:en":"Highway T-8-32","network":"am:national"},"11757071":{"ref":"Տ-8-33","name":"Տ-8-33","type":"route","route":"road","ref:en":"T-8-33","name:en":"Highway T-8-33","network":"am:national"},"11757072":{"ref":"Տ-8-34","name":"Տ-8-34","type":"route","route":"road","ref:en":"T-8-34","name:en":"Highway T-8-34","network":"am:national"},"11757073":{"ref":"Տ-8-35","name":"Տ-8-35","type":"route","route":"road","ref:en":"T-8-35","name:en":"Highway T-8-35","network":"am:national"},"11757074":{"ref":"Տ-8-36","name":"Տ-8-36","type":"route","route":"road","ref:en":"T-8-36","name:en":"Highway T-8-36","network":"am:national"},"11757075":{"ref":"Տ-8-37","name":"Տ-8-37","type":"route","route":"road","ref:en":"T-8-37","name:en":"Highway T-8-37","network":"am:national"},"11757076":{"ref":"Տ-8-38","name":"Տ-8-38","type":"route","route":"road","ref:en":"T-8-38","name:en":"Highway T-8-38","network":"am:national"},"11757077":{"ref":"Տ-8-39","name":"Տ-8-39","type":"route","route":"road","ref:en":"T-8-39","name:en":"Highway T-8-39","network":"am:national"},"11757078":{"ref":"Տ-8-40","name":"Տ-8-40","type":"route","route":"road","ref:en":"T-8-40","name:en":"Highway T-8-40","network":"am:national"},"11759725":{"ref":"Տ-8-41","name":"Տ-8-41","type":"route","route":"road","ref:en":"T-8-41","name:en":"Highway T-8-41","network":"am:national"},"11759726":{"ref":"Տ-8-42","name":"Տ-8-42","type":"route","route":"road","ref:en":"T-8-42","name:en":"Highway T-8-42","network":"am:national"},"11759727":{"ref":"Տ-8-43","name":"Տ-8-43","type":"route","route":"road","ref:en":"T-8-43","name:en":"Highway T-8-43","network":"am:national"},"11759728":{"ref":"Տ-8-44","name":"Տ-8-44","type":"route","route":"road","ref:en":"T-8-44","name:en":"Highway T-8-44","network":"am:national"},"11759729":{"ref":"Տ-8-45","name":"Տ-8-45","type":"route","route":"road","ref:en":"T-8-45","name:en":"Highway T-8-45","network":"am:national"},"11759730":{"ref":"Տ-8-46","name":"Տ-8-46","type":"route","route":"road","ref:en":"T-8-46","name:en":"Highway T-8-46","network":"am:national"},"11759731":{"ref":"Տ-8-47","name":"Տ-8-4","type":"route","route":"road","ref:en":"T-8-47","name:en":"Highway T-8-47","network":"am:national"},"11759732":{"ref":"Տ-8-48","name":"Տ-8-48","type":"route","route":"road","ref:en":"T-8-48","name:en":"Highway T-8-48","network":"am:national"},"11759733":{"ref":"Տ-8-49","name":"Տ-8-49","type":"route","route":"road","ref:en":"T-8-49","name:en":"Highway T-8-49","network":"am:national"},"11759734":{"ref":"Տ-8-50","name":"Տ-8-50","type":"route","route":"road","ref:en":"T-8-50","name:en":"Highway T-8-50","network":"am:national"},"11759735":{"ref":"Տ-8-51","name":"Տ-8-51","type":"route","route":"road","ref:en":"T-8-51","name:en":"Highway T-8-51","network":"am:national"},"11759736":{"ref":"Տ-8-52","name":"Տ-8-52","type":"route","route":"road","ref:en":"T-8-52","name:en":"Highway T-8-52","network":"am:national"},"11759737":{"ref":"Տ-8-53","name":"Տ-8-53","type":"route","route":"road","ref:en":"T-8-53","name:en":"Highway T-8-53","network":"am:national"},"11759738":{"ref":"Տ-8-54","name":"Տ-8-54","type":"route","route":"road","ref:en":"T-8-54","name:en":"Highway T-8-54","network":"am:national"},"11759739":{"ref":"Տ-8-55","name":"Տ-8-55","type":"route","route":"road","ref:en":"T-8-55","name:en":"Highway T-8-55"},"11759740":{"ref":"Տ-8-56","name":"Տ-8-56","type":"route","route":"road","ref:en":"T-8-56","name:en":"Highway T-8-56","network":"am:national"},"11759741":{"ref":"Տ-8-57","name":"Տ-8-57","type":"route","route":"road","ref:en":"T-8-57","name:en":"Highway T-8-57","network":"am:national"},"11759742":{"ref":"Տ-8-58","name":"Տ-8-58","type":"route","route":"road","ref:en":"T-8-58","name:en":"Highway T-8-58","network":"am:national"},"11759743":{"ref":"Տ-8-59","name":"Տ-8-59","type":"route","route":"road","ref:en":"T-8-59","name:en":"Highway T-8-59","network":"am:national"},"11759744":{"ref":"Տ-8-60","name":"Տ-8-60","type":"route","route":"road","ref:en":"T-8-60","name:en":"Highway T-8-60","network":"am:national"},"11761314":{"ref":"Տ-8-61","name":"Տ-8-61","type":"route","route":"road","ref:en":"T-8-61","name:en":"Highway T-8-61","network":"am:national"},"11761315":{"ref":"Տ-8-62","name":"Տ-8-62","type":"route","route":"road","ref:en":"T-8-62","name:en":"Highway T-8-62","network":"am:national"},"11761316":{"ref":"Տ-8-65","name":"Տ-8-65","type":"route","route":"road","ref:en":"T-8-65","name:en":"Highway T-8-65","network":"am:national"},"11761317":{"ref":"Տ-8-66","name":"Տ-8-66","type":"route","route":"road","ref:en":"T-8-66","name:en":"Highway T-8-66","network":"am:national"},"11761318":{"ref":"Տ-8-67","name":"Տ-8-67","type":"route","route":"road","ref:en":"T-8-67","name:en":"Highway T-8-67","network":"am:national"},"11761321":{"ref":"Տ-8-70","name":"Տ-8-70","type":"route","route":"road","ref:en":"T-8-70","name:en":"Highway T-8-70","network":"am:national"},"11762628":{"ref":"Տ-8-71","name":"Տ-8-71","type":"route","route":"road","ref:en":"T-8-71","name:en":"Highway T-8-71","network":"am:national"},"11762629":{"ref":"Տ-8-72","name":"Տ-8-72","type":"route","route":"road","ref:en":"T-8-72","name:en":"Highway T-8-72","network":"am:national"},"11762630":{"ref":"Տ-8-73","name":"Տ-8-73","type":"route","route":"road","ref:en":"T-8-73","name:en":"Highway T-8-73","network":"am:national"},"11762631":{"ref":"Տ-8-74","name":"Տ-8-74","type":"route","route":"road","ref:en":"T-8-74","name:en":"Highway T-8-74","network":"am:national"},"11762632":{"ref":"Տ-8-75","name":"Տ-8-75","type":"route","route":"road","ref:en":"T-8-75","name:en":"Highway T-8-75","network":"am:national"},"11762633":{"ref":"Տ-8-76","name":"Տ-8-76","type":"route","route":"road","ref:en":"T-8-76","name:en":"Highway T-8-76","network":"am:national"},"11762634":{"ref":"Տ-8-77","name":"Տ-8-77","type":"route","route":"road","ref:en":"T-8-77","name:en":"Highway T-8-77","network":"am:national"},"11762635":{"ref":"Տ-8-79","name":"Տ-8-79","type":"route","route":"road","ref:en":"T-8-79","name:en":"Highway T-8-79","network":"am:national"},"11762712":{"ref":"Տ-8-84","name":"Տ-8-84","type":"route","route":"road","ref:en":"T-8-84","name:en":"Highway T-8-84","network":"am:national"},"11762713":{"ref":"Տ-8-85","name":"Տ-8-85","type":"route","route":"road","ref:en":"T-8-85","name:en":"Highway T-8-85","network":"am:national"},"11762714":{"ref":"Տ-8-86","name":"Տ-8-86","type":"route","route":"road","ref:en":"T-8-86","name:en":"Highway T-8-86","network":"am:national"},"11762715":{"ref":"Տ-8-87","name":"Տ-8-87","type":"route","route":"road","ref:en":"T-8-87","name:en":"Highway T-8-87","network":"am:national"},"11762716":{"ref":"Տ-8-88","name":"Տ-8-88","type":"route","route":"road","ref:en":"T-8-88","name:en":"Highway T-8-88","network":"am:national"},"11762717":{"ref":"Տ-8-89","name":"Տ-8-89","type":"route","route":"road","ref:en":"T-8-89","name:en":"Highway T-8-89","network":"am:national"},"11762718":{"ref":"Տ-8-90","name":"Տ-8-90","type":"route","route":"road","ref:en":"T-8-90","name:en":"Highway T-8-90","network":"am:national"},"11763029":{"ref":"Տ-8-91","name":"Տ-8-91","type":"route","route":"road","ref:en":"T-8-91","name:en":"Highway T-8-91","network":"am:national"},"11763030":{"ref":"Տ-8-92","name":"Տ-8-92","type":"route","route":"road","ref:en":"T-8-92","name:en":"Highway T-8-92","network":"am:national"},"11763031":{"ref":"Տ-8-93","name":"Տ-8-93","type":"route","route":"road","ref:en":"T-8-93","name:en":"Highway T-8-93","network":"am:national"},"11763032":{"ref":"Տ-8-94","name":"Տ-8-94","type":"route","route":"road","ref:en":"T-8-94","name:en":"Highway T-8-94","network":"am:national"},"11763033":{"ref":"Տ-8-95","name":"Տ-8-95","type":"route","route":"road","ref:en":"T-8-95","name:en":"Highway T-8-95","network":"am:national"},"11763034":{"ref":"Տ-8-96","name":"Տ-8-96","type":"route","route":"road","ref:en":"T-8-96","name:en":"Highway T-8-96","network":"am:national"},"11763035":{"ref":"Տ-8-98","name":"Տ-8-98","type":"route","route":"road","ref:en":"T-8-98","name:en":"Highway T-8-98","network":"am:national"},"11763036":{"ref":"Տ-8-97","name":"Տ-8-97","type":"route","route":"road","ref:en":"T-8-97","name:en":"Highway T-8-97","network":"am:national"},"11763037":{"ref":"Տ-8-99","name":"Տ-8-99","type":"route","route":"road","ref:en":"T-8-99","name:en":"Highway T-8-99","network":"am:national"},"11763038":{"ref":"Տ-8-99","name":"Տ-8-99","type":"route","route":"road","ref:en":"T-8-99","name:en":"Highway T-8-99","network":"am:national"},"11763039":{"ref":"Տ-8-100","name":"Տ-8-100","type":"route","route":"road","ref:en":"T-8-100","name:en":"Highway T-8-100","network":"am:national"},"11763340":{"ref":"Տ-8-101","name":"Տ-8-101","type":"route","route":"road","ref:en":"T-8-101","name:en":"Highway T-8-101","network":"am:national"},"11763341":{"ref":"Տ-8-102","name":"Տ-8-102","type":"route","route":"road","ref:en":"T-8-102","name:en":"Highway T-8-102","network":"am:national"},"11763342":{"ref":"Տ-8-103","name":"Տ-8-103","type":"route","route":"road","ref:en":"T-8-103","name:en":"Highway T-8-103","network":"am:national"},"11763344":{"ref":"Տ-8-105","name":"Տ-8-105","type":"route","route":"road","ref:en":"T-8-105","name:en":"Highway T-8-105","network":"am:national"},"11763345":{"ref":"Տ-8-106","name":"Տ-8-106","type":"route","route":"road","ref:en":"T-8-106","name:en":"Highway T-8-106","network":"am:national"},"11763346":{"ref":"Տ-8-107","name":"Տ-8-107","type":"route","route":"road","ref:en":"T-8-107","name:en":"Highway T-8-107","network":"am:national"},"11763347":{"ref":"Տ-8-109","name":"Տ-8-109","type":"route","route":"road","ref:en":"T-8-109","name:en":"Highway T-8-109","network":"am:national"},"11763348":{"ref":"Տ-8-110","name":"Տ-8-110","type":"route","route":"road","ref:en":"T-8-110","name:en":"Highway T-8-110","network":"am:national"},"11766984":{"ref":"Տ-9-1","name":"Տ-9-1","type":"route","route":"road","ref:en":"T-9-1","name:en":"Highway T-9-1","network":"am:national"},"11766985":{"ref":"Տ-9-2","name":"Տ-9-2","type":"route","route":"road","ref:en":"T-9-2","name:en":"Highway T-9-2","network":"am:national"},"11766986":{"ref":"Տ-9-4","name":"Տ-9-4","type":"route","route":"road","ref:en":"T-9-4","name:en":"Highway T-9-4","network":"am:national"},"11766987":{"ref":"Տ-9-5","name":"Տ-9-5","type":"route","route":"road","ref:en":"T-9-5","name:en":"Highway T-9-5","network":"am:national"},"11766988":{"ref":"Տ-9-6","name":"Տ-9-6","type":"route","route":"road","ref:en":"T-9-6","name:en":"Highway T-9-6","network":"am:national"},"11766989":{"ref":"Տ-9-7","name":"Տ-9-7","type":"route","route":"road","ref:en":"T-9-7","name:en":"Highway T-9-7","network":"am:national"},"11766990":{"ref":"Տ-9-23","name":"Տ-9-23","type":"route","route":"road","ref:en":"T-9-23","name:en":"Highway T-9-23","network":"am:national"},"11766991":{"ref":"Տ-9-9","name":"Տ-9-9","type":"route","route":"road","ref:en":"T-9-9","name:en":"Highway T-9-9","network":"am:national"},"11766992":{"ref":"Տ-9-10","name":"Տ-9-10","type":"route","route":"road","ref:en":"T-9-10","name:en":"Highway T-9-10","network":"am:national"},"11767061":{"ref":"Տ-9-11","name":"Տ-9-11","type":"route","route":"road","ref:en":"T-9-11","name:en":"Highway T-9-11","network":"am:national"},"11767062":{"ref":"Տ-9-13","name":"Տ-9-13","type":"route","route":"road","ref:en":"T-9-13","name:en":"Highway T-9-13","network":"am:national"},"11767063":{"ref":"Տ-9-14","name":"Տ-9-14","type":"route","route":"road","ref:en":"T-9-14","name:en":"Highway T-9-14","network":"am:national"},"11767064":{"ref":"Տ-9-17","name":"Տ-9-17","type":"route","route":"road","ref:en":"T-9-17","name:en":"Highway T-9-17","network":"am:national"},"11767065":{"ref":"Տ-9-18","name":"Տ-9-18","type":"route","route":"road","ref:en":"T-9-18","name:en":"Highway T-9-18","network":"am:national"},"11767066":{"ref":"Տ-9-19","name":"Տ-9-19","type":"route","route":"road","ref:en":"T-9-19","name:en":"Highway T-9-19","network":"am:national"},"11767067":{"ref":"Տ-9-20","name":"Տ-9-20","type":"route","route":"road","ref:en":"T-9-20","name:en":"Highway T-9-20","network":"am:national"},"11769308":{"ref":"Տ-9-21","name":"Տ-9-21","type":"route","route":"road","ref:en":"T-9-21","name:en":"Highway T-9-21","network":"am:national"},"11769309":{"ref":"Տ-9-22","name":"Տ-9-22","type":"route","route":"road","ref:en":"T-9-22","name:en":"Highway T-9-22","network":"am:national"},"11769310":{"ref":"Տ-9-8","name":"Տ-9-8","type":"route","route":"road","ref:en":"T-9-8","name:en":"Highway T-9-8","network":"am:national"},"11769311":{"ref":"Տ-9-24","name":"Տ-9-24","type":"route","route":"road","ref:en":"T-9-24","name:en":"Highway T-9-24","network":"am:national"},"11769312":{"ref":"Տ-9-25","name":"Տ-9-25","type":"route","route":"road","ref:en":"T-9-25","name:en":"Highway T-9-25","network":"am:national"},"11769313":{"ref":"Տ-9-26","name":"Տ-9-26","type":"route","route":"road","ref:en":"T-9-26","name:en":"Highway T-9-26","network":"am:national"},"11769314":{"ref":"Տ-9-27","name":"Տ-9-27","type":"route","route":"road","ref:en":"T-9-27","name:en":"Highway T-9-27","network":"am:national"},"11769315":{"ref":"Տ-9-28","name":"Տ-9-28","type":"route","route":"road","ref:en":"T-9-28","name:en":"Highway T-9-28","network":"am:national"},"11769316":{"ref":"Տ-9-29","name":"Տ-9-29","type":"route","route":"road","ref:en":"T-9-29","name:en":"Highway T-9-29","network":"am:national"},"11769317":{"ref":"Տ-9-30","name":"Տ-9-30","type":"route","route":"road","ref:en":"T-9-30","name:en":"Highway T-9-30","network":"am:national"},"11770427":{"ref":"Տ-9-31","name":"Տ-9-31","type":"route","route":"road","ref:en":"T-9-31","name:en":"Highway T-9-31","network":"am:national"},"11770428":{"ref":"Տ-9-32","name":"Տ-9-32","type":"route","route":"road","ref:en":"T-9-32","name:en":"Highway T-9-32","network":"am:national"},"11770429":{"ref":"Տ-9-33","name":"Տ-9-33","type":"route","route":"road","ref:en":"T-9-33","name:en":"Highway T-9-33","network":"am:national"},"11770430":{"ref":"Տ-9-34","name":"Տ-9-34","type":"route","route":"road","ref:en":"T-9-34","name:en":"Highway T-9-34","network":"am:national"},"11770431":{"ref":"Տ-9-36","name":"Տ-9-36","type":"route","route":"road","ref:en":"T-9-36","name:en":"Highway T-9-36","network":"am:national"},"11770432":{"ref":"Տ-9-37","name":"Տ-9-37","type":"route","route":"road","ref:en":"T-9-37","name:en":"Highway T-9-37","network":"am:national"},"11770433":{"ref":"Տ-9-38","name":"Տ-9-38","type":"route","route":"road","ref:en":"T-9-38","name:en":"Highway T-9-38","network":"am:national"},"11770434":{"ref":"Տ-9-40","name":"Տ-9-40","type":"route","route":"road","ref:en":"T-9-40","name:en":"Highway T-9-40","network":"am:national"},"11770472":{"ref":"Տ-9-41","name":"Տ-9-41","type":"route","route":"road","ref:en":"T-9-41","name:en":"Highway T-9-41","network":"am:national"},"11770473":{"ref":"Տ-9-42","name":"Տ-9-42","type":"route","route":"road","ref:en":"T-9-42","name:en":"Highway T-9-42","network":"am:national"},"11770474":{"ref":"Տ-9-43","name":"Տ-9-43","type":"route","route":"road","ref:en":"T-9-43","name:en":"Highway T-9-43","network":"am:national"},"11770475":{"ref":"Տ-9-44","name":"Տ-9-44","type":"route","route":"road","ref:en":"T-9-44","name:en":"Highway T-9-44","network":"am:national"},"11770476":{"ref":"Տ-9-45","name":"Տ-9-45","type":"route","route":"road","ref:en":"T-9-45","name:en":"Highway T-9-45","network":"am:national"},"11770477":{"ref":"Տ-9-46","name":"Տ-9-46","type":"route","route":"road","ref:en":"T-9-46","name:en":"Highway T-9-46","network":"am:national"},"11773729":{"ref":"Տ-10-1","name":"Տ-10-1","type":"route","route":"road","ref:en":"T-10-1","name:en":"Highway T-10-1","network":"am:national"},"11773730":{"ref":"Տ-10-2","name":"Տ-10-2","type":"route","route":"road","ref:en":"T-10-2","name:en":"Highway T-10-2","network":"am:national"},"11773731":{"ref":"Տ-10-4","name":"Տ-10-4","type":"route","route":"road","ref:en":"T-10-4","name:en":"Highway T-10-4","network":"am:national"},"11773732":{"ref":"Տ-10-5","name":"Տ-10-5","type":"route","route":"road","ref:en":"T-10-5","name:en":"Highway T-10-5","network":"am:national"},"11773733":{"ref":"Տ-10-6","name":"Տ-10-6","type":"route","route":"road","ref:en":"T-10-6","name:en":"Highway T-10-6","network":"am:national"},"11773734":{"ref":"Տ-10-7","name":"Տ-10-7","type":"route","route":"road","ref:en":"T-10-7","name:en":"Highway T-10-7","network":"am:national"},"11773735":{"ref":"Տ-10-8","name":"Տ-10-8","type":"route","route":"road","ref:en":"T-10-8","name:en":"Highway T-10-8","network":"am:national"},"11773736":{"ref":"Տ-10-9","name":"Տ-10-9","type":"route","route":"road","ref:en":"T-10-9","name:en":"Highway T-10-9","network":"am:national"},"11773737":{"ref":"Տ-10-10","name":"Տ-10-10","type":"route","route":"road","ref:en":"T-10-10","name:en":"Highway T-10-10","network":"am:national"},"11774309":{"ref":"Տ-10-11","name":"Տ-10-11","type":"route","route":"road","ref:en":"T-10-11","name:en":"Highway T-10-11","network":"am:national"},"11774310":{"ref":"Տ-10-12","name":"Տ-10-12","type":"route","route":"road","ref:en":"T-10-12","name:en":"Highway T-10-12","network":"am:national"},"11774311":{"ref":"Տ-10-13","name":"Տ-10-13","type":"route","route":"road","ref:en":"T-10-13","name:en":"Highway T-10-13","network":"am:national"},"11774312":{"ref":"Տ-10-14","name":"Տ-10-14","type":"route","route":"road","ref:en":"T-10-14","name:en":"Highway T-10-14","network":"am:national"},"11774313":{"ref":"Տ-10-15","name":"Տ-10-15","type":"route","route":"road","ref:en":"T-10-15","name:en":"Highway T-10-15","network":"am:national"},"11774314":{"ref":"Տ-10-16","name":"Տ-10-16","type":"route","route":"road","ref:en":"T-10-16","name:en":"Highway T-10-16","network":"am:national"},"11774315":{"ref":"Տ-10-17","name":"Տ-10-17","type":"route","route":"road","ref:en":"T-10-17","name:en":"Highway T-10-17","network":"am:national"},"11774316":{"ref":"Տ-10-18","name":"Տ-10-18","type":"route","route":"road","ref:en":"T-10-18","name:en":"Highway T-10-18","network":"am:national"},"11774317":{"ref":"Տ-10-19","name":"Տ-10-19","type":"route","route":"road","ref:en":"T-10-19","name:en":"Highway T-10-19","network":"am:national"},"11774318":{"ref":"Տ-10-20","name":"Տ-10-20","type":"route","route":"road","ref:en":"T-10-20","name:en":"Highway T-10-20","network":"am:national"},"11776687":{"ref":"Տ-10-21","name":"Տ-10-21","type":"route","route":"road","ref:en":"T-10-21","name:en":"Highway T-10-21","network":"am:national"},"11776688":{"ref":"Տ-10-22","name":"Տ-10-22","type":"route","route":"road","ref:en":"T-10-22","name:en":"Highway T-10-22","network":"am:national"},"11776689":{"ref":"Տ-10-23","name":"Տ-10-23","type":"route","route":"road","ref:en":"T-10-23","name:en":"Highway T-10-23","network":"am:national"},"11776690":{"ref":"Տ-10-24","name":"Տ-10-24","type":"route","route":"road","ref:en":"T-10-2","name:en":"Highway T-10-24","network":"am:national"},"11776691":{"ref":"Տ-10-25","name":"Տ-10-25","type":"route","route":"road","ref:en":"T-10-25","name:en":"Highway T-10-25","network":"am:national"},"11776692":{"ref":"Տ-10-26","name":"Տ-10-26","type":"route","route":"road","ref:en":"T-10-26","name:en":"Highway T-10-26","network":"am:national"},"11776693":{"ref":"Տ-10-27","name":"Տ-10-27","type":"route","route":"road","ref:en":"T-10-27","name:en":"Highway T-10-27","network":"am:national"},"11776694":{"ref":"Տ-10-28","name":"Տ-10-28","type":"route","route":"road","ref:en":"T-10-28","name:en":"Highway T-10-28","network":"am:national"},"11776695":{"ref":"Տ-10-29","name":"Տ-10-29","type":"route","route":"road","ref:en":"T-10-29","name:en":"Highway T-10-29","network":"am:national"},"11776696":{"ref":"Տ-10-30","name":"Տ-10-30","type":"route","route":"road","ref:en":"T-10-30","name:en":"Highway T-10-30","network":"am:national"},"11778057":{"ref":"Տ-10-31","name":"Տ-10-31","type":"route","route":"road","ref:en":"T-10-31","name:en":"Highway T-10-31","network":"am:national"},"11778059":{"ref":"Տ-10-41","name":"Տ-10-41","type":"route","route":"road","ref:en":"T-10-41","name:en":"Highway T-10-41","network":"am:national"},"11778060":{"ref":"Տ-10-36","name":"Տ-10-36","type":"route","route":"road","ref:en":"T-10-36","name:en":"Highway T-10-36","network":"am:national"},"11778061":{"ref":"Տ-10-37","name":"Տ-10-37","type":"route","route":"road","ref:en":"T-10-37","name:en":"Highway T-10-37","network":"am:national"},"11778062":{"ref":"Տ-10-39","name":"Տ-10-39","type":"route","route":"road","ref:en":"T-10-39","name:en":"Highway T-10-39","network":"am:national"},"11779990":{"ref":"Տ-10-35","name":"Տ-10-35","type":"route","route":"road","ref:en":"T-10-35","name:en":"Highway T-10-35","network":"am:national"},"11779991":{"ref":"Տ-10-42","name":"Տ-10-42","type":"route","route":"road","ref:en":"T-10-42","name:en":"Highway T-10-42","network":"am:national"},"11779992":{"ref":"Տ-10-43","name":"Տ-10-43","type":"route","route":"road","ref:en":"T-10-43","name:en":"Highway T-10-43","network":"am:national"},"11779993":{"ref":"Տ-10-45","name":"Տ-10-45","type":"route","route":"road","ref:en":"T-10-45","name:en":"Highway T-10-45","network":"am:national"},"11779994":{"ref":"Տ-10-46","name":"Տ-10-46","type":"route","route":"road","ref:en":"T-10-46","name:en":"Highway T-10-46","network":"am:national"},"11779996":{"ref":"Տ-10-48","name":"Տ-10-48","type":"route","route":"road","ref:en":"T-10-48","name:en":"Highway T-10-48","network":"am:national"},"11779997":{"ref":"Տ-10-49","name":"Տ-10-49","type":"route","route":"road","ref:en":"T-10-49","name:en":"Highway T-10-49","network":"am:national"},"11779998":{"ref":"Տ-10-50","name":"Տ-10-50","type":"route","route":"road","ref:en":"T-10-50","name:en":"Highway T-10-50","network":"am:national"},"11780118":{"ref":"Տ-10-51","name":"Տ-10-51","type":"route","route":"road","ref:en":"T-10-51","name:en":"Highway T-10-51","network":"am:national"},"11780119":{"ref":"Տ-10-52","name":"Տ-10-52","type":"route","route":"road","ref:en":"T-10-52","name:en":"Highway T-10-52","network":"am:national"}}