{"5385541":{"ref":"1","name":"Jalan Tol Jakarta–Cikampek","type":"route","route":"road","name:en":"Jakarta–Cikampek Toll Road","name:id":"Jalan Tol Jakarta–Cikampek","wikipedia":"id:Jalan Tol Jakarta–Cikampek"},"5385808":{"ref":"4","name":"Jalan Tol Cikampek–Purwakarta–Padalarang","type":"route","route":"road","symbol":"https://upload.wikimedia.org/wikipedia/commons/0/06/Tol12-4.png","operator":"PT Jasa Marga","wikidata":"Q5121323","wikipedia":"id:Jalan Tol Cikampek–Purwakarta–Padalarang","short_name":"Jalan Tol Cipularang"},"5385809":{"ref":"4","name":"Jalan Tol Padalarang–Cileunyi","type":"route","route":"road","symbol":"https://upload.wikimedia.org/wikipedia/commons/0/06/Tol12-4.png","operator":"PT Jasa Marga","wikidata":"Q4261016","wikipedia":"id:Jalan Tol Padalarang–Cileunyi","short_name":"Jalan Tol Padaleunyi"},"8031354":{"ref":"1","name":"Jalan Tol Pejagan–Pemalang","type":"route","route":"road","network":"ID:tol","operator":"PT Pejagan-Pemalang Toll Road"},"8050632":{"ref":"1","name":"Jalan Tol Pemalang-Batang","type":"route","route":"road","name:en":"Pemalang-Batang Toll Road","name:id":"Jalan Tol Pemalang–Batang"},"8050633":{"ref":"1","name":"Jalan Tol Semarang–Batang (arah barat)","type":"route","route":"road","name:en":"Semarang–Batang Toll Road (westbound)","name:id":"Jalan Tol Semarang–Batang (arah barat)","network":"ID:tol","operator":"Jasamarga Semarang-Batang","wikipedia":"id:Jalan Tol Semarang–Batang"},"8050656":{"ref":"6","name":"Jalan Tol Semarang","type":"route","route":"road","network":"ID:toll"},"10556731":{"ref":"asdf","name":"alsdf","type":"route","route":"road","network":"saldf"},"11271782":{"ref":"1","from":"Makassar","name":"Trans Sulawesi","type":"route","route":"road","highway":"trunk","network":"Trans_Sulawesi"},"12430953":{"ref":"22","name":"Jalan Tol Jakarta–Merak","type":"route","route":"road","highway":"motorway","wikipedia":"id:Jalan Tol Jakarta–Merak"},"12430954":{"ref":"22","name":"Jalan Tol Jakarta–Merak","type":"route","route":"road","highway":"motorway","wikipedia":"id:Jalan Tol Jakarta–Merak"},"12430955":{"ref":"1","name":"Jalan Tol Jakarta–Cikampek","type":"route","route":"road","name:en":"Jakarta–Cikampek Toll Road","name:id":"Jalan Tol Jakarta–Cikampek","wikipedia":"id:Jalan Tol Jakarta–Cikampek"},"12430958":{"ref":"1","name":"Jalan Tol Palimanan–Kanci (arah barat)","type":"route","route":"road","name:en":"Palimanan-Kanci Toll Road (westbound)","name:id":"Jalan Tol Palimanan-Kanci (arah barat)","network":"ID:tol","operator":"Jasamarga Palikanci","wikipedia":"id:Jalan Tol Palimanan–Kanci"},"12430960":{"ref":"1","name":"Jalan Tol Kanci–Pejagan (arah timur)","type":"route","route":"road","name:en":"Kanci-Pejagan Toll Road (eastbound)","name:id":"Jalan Tol Kanci-Pejagan (arah timur)","network":"ID:tol","operator":"Semesta Marga Raya","wikipedia":"id:Jalan Tol Kanci–Pejagan"},"12430961":{"ref":"1","name":"Jalan Tol Kanci–Pejagan (arah barat)","type":"route","route":"road","name:en":"Kanci-Pejagan Toll Road (westbound)","name:id":"Jalan Tol Kanci-Pejagan (arah barat)","network":"ID:tol","operator":"Semesta Marga Raya","wikipedia":"id:Jalan Tol Kanci–Pejagan"},"12430962":{"ref":"1","name":"Jalan Tol Pejagan–Pemalang","type":"route","route":"road","operator":"PT Pejagan-Pemalang Toll Road","wikipedia":"id:Jalan Tol Pejagan–Pemalang"},"12430963":{"ref":"1","name":"Jalan Tol Pejagan–Pemalang (arah timur)","type":"route","route":"road","name:en":"Pejagan–Pemalang Toll Road (eastbound)","name:id":"Jalan Tol Pejagan–Pemalang (arah barat)","operator":"PT Pejagan-Pemalang Toll Road","wikipedia":"id:Jalan Tol Pejagan–Pemalang"},"12430965":{"ref":"1","name":"Jalan Tol Pemalang–Batang (arah timur)","type":"route","route":"road","name:en":"Pemalang-Batang Toll Road (eastbound)","name:id":"Jalan Tol Pemalang–Batang (arah timur)","network":"ID:tol","operator":"Waskita Toll Road","wikipedia":"id:Jalan Tol Pemalang–Batang"},"12430966":{"ref":"1","name":"Jalan Tol Semarang–Batang (arah timur)","type":"route","route":"road","name:en":"Semarang–Batang Toll Road (eastbound)","name:id":"Jalan Tol Semarang–Batang (arah timur)","network":"ID:tol","operator":"Jasamarga Semarang-Batang","wikipedia":"id:Jalan Tol Semarang–Batang"},"12430969":{"ref":"6","name":"Jalan Tol Semarang–Solo (arah utara)","type":"route","route":"road","name:en":"Semarang–Solo Toll Road (northbound)","name:id":"Jalan Tol Semarang–Solo (arah utara)","network":"ID:tol","operator":"Trans Marga Jateng","wikipedia":"id:Jalan Tol Semarang–Solo"},"12430970":{"ref":"6","name":"Jalan Tol Semarang–Solo (arah selatan)","type":"route","route":"road","name:en":"Semarang–Solo Toll Road (southbound)","name:id":"Jalan Tol Semarang–Solo (arah selatan)","network":"ID:tol","operator":"Trans Marga Jateng","wikipedia":"id:Jalan Tol Semarang–Solo"},"12430971":{"ref":"11","name":"Jalan Tol Solo–Ngawi (arah timur)","type":"route","route":"road","name:en":"Solo–Ngawi Toll Road (eastbound)","name:id":"Jalan Tol Solo–Ngawi (arah timur)","network":"ID:tol","operator":"Jasamarga Solo-Ngawi","wikipedia":"id:Jalan Tol Solo–Ngawi"},"12430972":{"ref":"11","name":"Jalan Tol Solo–Ngawi (arah barat)","type":"route","route":"road","name:en":"Solo–Ngawi Toll Road (westbound)","name:id":"Jalan Tol Solo–Ngawi (arah barat)","network":"ID:tol","operator":"Jasamarga Solo-Ngawi","wikipedia":"id:Jalan Tol Solo–Ngawi"},"12430973":{"ref":"11","name":"Jalan Tol Ngawi–Kertosono (arah timur)","type":"route","route":"road","name:en":"Ngawi-Kertosono Toll Road (eastbound)","name:id":"Jalan Tol Ngawi-Kertosono (arah timur)","network":"ID:tol","operator":"Jasamarga Ngawi-Kertosono","wikipedia":"id:Jalan Tol Ngawi–Kertosono"},"12430974":{"ref":"11","name":"Jalan Tol Ngawi-Kertosono (arah barat)","type":"route","route":"road","name:en":"Ngawi-Kertosono Toll Road (westbound)","name:id":"Jalan Tol Ngawi-Kertosono (arah barat)","network":"ID:tol","operator":"Jasamarga Ngawi-Kertosono","wikipedia":"id:Jalan Tol Ngawi–Kertosono"},"12430982":{"ref":"13","name":"Jalan Tol Gempol–Pasuruan","type":"route","route":"road","symbol":"https://upload.wikimedia.org/wikipedia/commons/7/7d/Tol16-13.png","int_ref":"AH2","operator":"PT Jasa Marga Gempol-Pasuruan","wikidata":"Q25465588","wikipedia":"id:Jalan Tol Gempol–Pasuruan","short_name":"Jalan Tol Gempas"},"12430983":{"ref":"13","name":"Jalan Tol Pasuruan–Probolinggo","type":"route","route":"road","symbol":"https://upload.wikimedia.org/wikipedia/commons/7/7d/Tol16-13.png","int_ref":"AH2","operator":"PT Trans Jawa Paspro Jalan Tol","wikidata":"Q57912928","wikipedia":"id:Jalan Tol Pasuruan–Probolinggo","short_name":"Jalan Tol Paspro"},"13122585":{"ref":"5.04.103","name":"Jalan Desa Aro - Desa Bukit Sari","type":"route","route":"road","source":"Keputusan Bupati Batang Hari nomor 303 tahun 2017","distance":"20"},"13367445":{"ref":"15.04.002","name":"Jalan Desa Kilangan – Desa Pompa Air","type":"route","route":"road","source":"SK Bupati Batang Hari No. 303 Tahun 2017","surface":"asphalt","distance":"12.350"},"13367446":{"ref":"15.04.016","name":"Jalan Desa Bungku – Simpang Jalan Mekar Jaya","type":"route","route":"road","source":"SK Bupati Batang Hari No. 303 Tahun 2017","distance":"2.190"},"13367447":{"ref":"15.04.006","name":"Jalan Simpang Kilangan – Desa Mekar Jaya","type":"route","route":"road","source":"SK Bupati Batang Hari No. 303 Tahun 2017","distance":"7.100"},"13367448":{"ref":"15.04.001","name":"Jalan Desa Pompa Air – Desa Bungku","type":"route","route":"road","source":"SK Bupati Batang Hari No. 303 Tahun 2017","distance":"20.450"},"13431142":{"ref":"8","name":"Jalan Tol No. 8 (utara)","type":"route","route":"road","network":"ID:toll"},"13470823":{"ref":"061","name":"Jalan Ujung Tanjung","type":"route","route":"road","distance":"10","official_name":"Jalan Desa Terusan - Ujung Tanjung"},"15035411":{"ref":"13","name":"Jalan Tol Probolinggo–Banyuwangi","type":"route","route":"road","symbol":"https://upload.wikimedia.org/wikipedia/commons/7/7d/Tol16-13.png","int_ref":"AH2","operator":"PT Jasamarga Probolinggo Banyuwangi","wikidata":"Q65214012","wikipedia":"id:Jalan Tol Probolinggo–Banyuwangi","short_name":"Jalan Tol Probowangi"},"15069870":{"ref":"4","name":"Jalan Tol Cileunyi–Sumedang–Dawuan","type":"route","route":"road","symbol":"https://upload.wikimedia.org/wikipedia/commons/0/06/Tol12-4.png","operator":"PT Citra Karya Jabar Tol","wikidata":"Q25455124","wikipedia":"id:Jalan Tol Cileunyi–Sumedang–Dawuan","short_name":"Jalan Tol Cisumdawu"},"15069871":{"ref":"4","name":"Jalan Tol Soreang–Pasirkoja","type":"route","route":"road","symbol":"https://upload.wikimedia.org/wikipedia/commons/0/06/Tol12-4.png","operator":"PT Citra Marga Lintas Jabar","wikidata":"Q19726683","wikipedia":"id:Jalan Tol Soreang–Pasirkoja","short_name":"Jalan Tol Soroja"}}