{"229600":{"ref":"AH12","url":"http://wiki.openstreetmap.org/wiki/Asia/Asian_Highway_Network","name":"Asian Highway AH12","note":"Southbound: from Nong Khai to Hin Kong","type":"route","route":"road","name:de":"Asien Fernstraße AH12","name:en":"Asian Highway AH12","name:ru":"Азиатский маршрут AH12","network":"AsianHighway","wikidata":"Q727626","wikipedia":"en:AH12","description":"Nong Khai - Udon Thani - Khon Kaen - Nakhon Ratchasima - Hin Kong"},"393920":{"ref":"N6","name":"Route 6","type":"route","route":"road","name:en":"Route 6","network":"LA-roads"},"453828":{"ref":"7","name":"Quốc lộ 7 (Lào)","type":"route","route":"road","name:en":"Route 7","network":"LA-roads"},"15656042":{"ref":"AH11","url":"http://wiki.openstreetmap.org/wiki/Asia/Asian_Highway_Network","name":"Asian Highway AH11","note":"Laotian part - from Dongkalor (Border of Cambodia) to Vientiane","type":"route","route":"road","int_ref":"AH11","name:de":"Asien Fernstraße AH11","name:en":"Asian Highway AH11","network":"AsianHighway","wikidata":"Q387997","wikipedia":"en:AH11","description":"Vientiane - Pakxan - Thakhek - Muang Khongxedon - Pakse - Dongkalor (Border of Cambodia)"},"15658976":{"ref":"AH12","url":"http://wiki.openstreetmap.org/wiki/Asia/Asian_Highway_Network","name":"Asian Highway AH12","note":"Laotian part, from Vientiane to Nateuy","type":"route","route":"road","name:de":"Asien Fernstraße AH12","name:en":"Asian Highway AH12","name:ru":"Азиатский маршрут AH12","network":"AsianHighway","wikidata":"Q727626","wikipedia":"en:AH12","description":"Thanaleng - Vientiane - Phone Hong - Phou Khoun - Louang Phrabang - Pakmong - Oudomxai - Na Teuy"},"15662130":{"ref":"AH11","url":"http://wiki.openstreetmap.org/wiki/Asia/Asian_Highway_Network","name":"Asian Highway AH11","note":"Laotian part. Direction from Vientiane to Dongkalor (Border of Cambodia)","type":"route","route":"road","int_ref":"AH11","name:de":"Asien Fernstraße AH11","name:en":"Asian Highway AH11","network":"AsianHighway","wikidata":"Q387997","wikipedia":"en:AH11","description":"Vientiane - Pakxan - Thakhek - Muang Khongxedon - Pakse - Dongkalor (Border of Cambodia)"},"15662367":{"ref":"AH11","url":"http://wiki.openstreetmap.org/wiki/Asia/Asian_Highway_Network","name":"Asian Highway AH11","note":"Cambodian part","type":"route","route":"road","int_ref":"AH11","name:de":"Asien Fernstraße AH11","name:en":"Asian Highway AH11","network":"AsianHighway","wikidata":"Q387997","wikipedia":"en:AH11","description":"from the Laotian border to Sihanoukville"},"15662942":{"ref":"AH12","url":"http://wiki.openstreetmap.org/wiki/Asia/Asian_Highway_Network","name":"Asian Highway AH12","note":"Laotian part - Southbound: From Na Teuy (connection to AH3) to Thailand border","type":"route","route":"road","name:de":"Asien Fernstraße AH12","name:en":"Asian Highway AH12","name:ru":"Азиатский маршрут AH12","network":"AsianHighway","wikidata":"Q727626","wikipedia":"en:AH12","description":"Na Teuy - Oudomxai - Pakmong - Louang Phrabang - Vientiane - Thanaleng"},"15683272":{"ref":"AH16","url":"http://wiki.openstreetmap.org/wiki/Asia/Asian_Highway_Network","name":"Asian Highway AH16","note":"Laotian part: from Savannakhet to Densavanh","type":"route","route":"road","int_ref":"AH16","name:de":"Asien Fernstraße AH16","name:en":"Asian Highway AH16","network":"AsianHighway","wikidata":"Q12973941","wikipedia":"en:AH16","description":"Densavanh (Border of Viet Nam) - Muang Phin - Seno - Border of Thailand (Savannakhet)"}}