{"4034":{"ref":"P55","name":"Rēzekne — Dagda","type":"route","route":"road","network":"lv:regional","distance":"58.0 km","wikidata":"Q13979190","wikipedia":"lv:Autoceļš P55"},"32973":{"ref":"E 262","name":"European route E 262","type":"route","route":"road","name:en":"European route E 262","name:fr":"Route européenne E 262","name:lt":"E 262 Kaunas - Ostrovas","name:nl":"Europese route E262","name:pl":"Trasa europejska E 262","name:ru":"Европейский маршрут E 262","network":"e-road","wikidata":"Q1995013","wikipedia":"en:European route E262","description:fr":"E 262 Kaunas - Ostrov"},"74682":{"ref":"P65","name":"Stropi — Krauja","type":"route","route":"road","network":"lv:regional","distance":"4.6 km","wikidata":"Q13979299","wikipedia":"lv:Autoceļš P65"},"125486":{"ref":"A6","name":"Rīga — Daugavpils — Krāslava — Baltkrievijas robeža (Pāternieki)","type":"route","route":"road","name:lt":"Ryga — Daugpilis — Kraslava — Baltarusijos siena","name:lv":"Rīga — Daugavpils — Krāslava — Baltkrievijas robeža (Pāternieki)","name:ru":"Рига — Даугавпилс — Краслава — белорусская граница (Патерниеки)","network":"lv:national","distance":"307.0 km","wikidata":"Q786297","wikipedia":"lv:Autoceļš A6 (Latvija)"},"164200":{"ref":"A1","name":"Rīga (Baltezers) — Igaunijas robeža (Ainaži)","type":"route","route":"road","name:lt":"Ryga (Baltezers) – Estijos siena (Ainaži)","name:lv":"Rīga (Baltezers) — Igaunijas robeža (Ainaži)","name:pl":"Ryga (Baltezers) — granica z Estonią (Ainaži)","name:ru":"Рига (Балтэзерс) — эстонская граница (Айнажи)","network":"lv:national","distance":"101.7 km","wikidata":"Q786230","wikipedia":"lv:Autoceļš A1 (Latvija)"},"164220":{"ref":"A4","name":"Rīgas apvedceļš (Baltezers — Saulkalne)","type":"route","route":"road","name:ru":"Рижская объездная автодорога (Балтэзерс — Саулкалне)","network":"lv:national","distance":"20.5 km","wikidata":"Q786288","wikipedia":"lv:Autoceļš A4 (Latvija)"},"164221":{"ref":"P133","name":"Lidostas «Rīga» pievedceļš","type":"route","route":"road","network":"lv:regional","distance":"2.4 km","wikidata":"Q13979036","wikipedia":"lv:Autoceļš P133"},"164335":{"ref":"P4","name":"Rīga — Ērgļi","type":"route","route":"road","name:ru":"Рига — Эргли","network":"lv:regional","distance":"99.0 km","wikidata":"Q2346905","wikipedia":"lv:Autoceļš P4"},"164336":{"ref":"A2","name":"Rīga — Sigulda — Igaunijas robeža (Veclaicene)","type":"route","route":"road","name:en":"Riga — Sigulda — border with Estonia (Veclaicene)","name:lv":"Rīga — Sigulda — Igaunijas robeža (Veclaicene)","name:pl":"Ryga — Zygwold — granica z Estonią (Veclaicene)","name:ru":"Рига — Сигулда — эстонская граница (Вецлайцене)","network":"lv:national","distance":"195.6 km","wikidata":"Q786275","wikipedia":"lv:Autoceļš A2 (Latvija)"},"164559":{"ref":"A5","name":"Rīgas apvedceļš (Salaspils — Babīte)","type":"route","route":"road","name:ru":"Рижская объездная автодорога (Саласпилс — Бабите)","network":"lv:national","distance":"40.9 km","wikidata":"Q786293","wikipedia":"lv:Autoceļš A5 (Latvija)"},"164956":{"ref":"A7","name":"Rīga — Bauska — Lietuvas robeža (Grenctāle)","type":"route","route":"road","name:lt":"Ryga — Bauskė — Lietuvos pasienis (Grentcalė)","name:lv":"Rīga — Bauska — Lietuvas robeža (Grenctāle)","name:pl":"Ryga — Bowsk — granica z Litwą (Grenctāle)","name:ru":"Рига — Бауска — литовская граница (Гренцтале)","network":"lv:national","distance":"85.6 km","wikidata":"Q786302","wikipedia":"lv:Autoceļš A7 (Latvija)"},"164964":{"ref":"A8","name":"Rīga — Jelgava — Lietuvas robeža (Meitene)","type":"route","route":"road","name:lt":"Ryga — Jelgava — Lietuvos pasienis (Meitenė)","name:lv":"Rīga — Jelgava — Lietuvas robeža (Meitene)","name:ru":"Рига — Елгава — литовская граница (Мейтене)","network":"lv:national","distance":"76.1 km","wikidata":"Q278036","wikipedia":"lv:Autoceļš A8 (Latvija)"},"165187":{"ref":"A9","name":"Rīga (Skulte) — Liepāja","type":"route","route":"road","name:ru":"Рига (Скулте) — Лиепая","network":"lv:national","distance":"199.3 km","wikidata":"Q786311","wikipedia":"lv:Autoceļš A9 (Latvija)"},"165189":{"ref":"A11","name":"Liepāja — Lietuvas robeža (Rucava)","type":"route","route":"road","name:lt":"Liepoja — Lietuvos siena (Rucava)","name:lv":"Liepāja — Lietuvas robeža (Rucava)","name:pl":"Lipawa — granica z Litwą (Rucava)","name:ru":"Лиепая — литовская граница (Руцава)","network":"lv:national","distance":"58.9 km","wikidata":"Q786245","wikipedia":"lv:Autoceļš A11 (Latvija)"},"165518":{"ref":"P61","name":"Krāslava — Dagda","type":"route","route":"road","name:lv":"Krāslava — Dagda","name:pl":"Krasław — Dagda","network":"lv:regional","distance":"34.3 km","wikidata":"Q2390330","wikipedia":"lv:Autoceļš P61"},"165519":{"ref":"P60","name":"Dagda — Aglona","type":"route","route":"road","network":"lv:regional","distance":"35.3 km","wikidata":"Q1823353","wikipedia":"lv:Autoceļš P60"},"165520":{"ref":"P57","name":"Malta — Sloboda","type":"route","route":"road","network":"lv:regional","distance":"36.3 km","wikidata":"Q2088296","wikipedia":"lv:Autoceļš P57"},"165521":{"ref":"P62","name":"Krāslava — Preiļi — Madona (Madonas apvedceļš)","type":"route","route":"road","network":"lv:regional","distance":"148.3 km","wikidata":"Q13979252","wikipedia":"lv:Autoceļš P62"},"165522":{"ref":"A13","name":"Krievijas robeža (Grebņeva) — Rēzekne — Daugavpils — Lietuvas robeža (Medumi)","type":"route","route":"road","name:lv":"Krievijas robeža (Grebņeva) — Rēzekne — Daugavpils — Lietuvas robeža (Medumi)","name:pl":"Granica z Rosją (Grebņeva) — Rzeżyca — Dyneburg — granica z Litwą (Medum)","name:ru":"Граница России (Гребнево)–Резекне– Даугавпилс– граница Литвы","network":"lv:national","distance":"163.4","wikidata":"Q786267","wikipedia":"lv:Autoceļš A13 (Latvija)"},"165524":{"ref":"A14","name":"Daugavpils apvedceļš (Kalkūni — Tilti)","type":"route","route":"road","name:en":"Daugavpils bypass (Kalkūni — Tilti)","name:lt":"Daugpilio aplinkkelis","name:lv":"Daugavpils apvedceļš (Kalkūni — Tilti)","name:pl":"obwodnica Dyneburga","name:ru":"Даугавпилская объездная автодорога (Калкуне — Тилти)","network":"lv:national","distance":"15.6 km","wikidata":"Q786264","wikipedia":"lv:Autoceļš A14 (Latvija)"},"165593":{"ref":"P67","name":"Daugavpils — Tilti","type":"route","route":"road","network":"lv:regional","distance":"10.9 km","wikidata":"Q14651889","wikipedia":"lv:Autoceļš P67"},"165594":{"ref":"P68","name":"Daugavpils — Skrudaliena — Baltkrievijas robeža (Silene)","type":"route","route":"road","name:lv":"Daugavpils — Skrudaliena — Baltkrievijas robeža (Silene)","name:pl":"Dyneburg — Skrudelino — granica z Białorusią (Borówka)","network":"lv:regional","distance":"29.7 km","wikidata":"Q13979345","wikipedia":"lv:Autoceļš P68"},"168510":{"ref":"A15","name":"Rēzeknes apvedceļš","type":"route","route":"road","name:ru":"Резекнеская объездная автодорога","network":"lv:national","distance":"7.1 km","wikidata":"Q786271","wikipedia":"lv:Autoceļš A15 (Latvija)"},"173111":{"ref":"A10","name":"Rīga — Ventspils","type":"route","route":"road","name:be":"Рыга — Віндава","name:de":"Riga — Windau","name:et":"Riia — Vindavi","name:lt":"Ryga — Ventspilis","name:lv":"Rīga — Ventspils","name:pl":"Ryga — Windawa","name:ru":"Рига — Вентспилс","network":"lv:national","distance":"190.1 km","wikidata":"Q786241","wikipedia":"lv:Autoceļš A10 (Latvija)"},"175185":{"ref":"P103","name":"Dobele — Bauska","type":"route","route":"road","network":"lv:regional","distance":"72.9 km","wikidata":"Q13978595","wikipedia":"lv:Autoceļš P103"},"175186":{"ref":"P87","name":"Bauska — Aizkraukle","type":"route","route":"road","network":"lv:regional","distance":"82.8 km","wikidata":"Q13979622","wikipedia":"lv:Autoceļš P87"},"175187":{"ref":"P88","name":"Bauska — Linde","type":"route","route":"road","network":"lv:regional","distance":"51. km","wikidata":"Q13979636","wikipedia":"lv:Autoceļš P88"},"175189":{"ref":"P94","name":"Jelgava — Staļģene — Code","type":"route","route":"road","network":"lv:regional","distance":"35.5 km","wikidata":"Q13979742","wikipedia":"lv:Autoceļš P94"},"175193":{"ref":"P93","name":"Jelgava — Iecava","type":"route","route":"road","network":"lv:regional","distance":"30.6 km","wikidata":"Q13979723","wikipedia":"lv:Autoceļš P93"},"175194":{"ref":"P89","name":"Ķekava — Skaistkalne","type":"route","route":"road","network":"lv:regional","distance":"55.8 km","wikidata":"Q13979650","wikipedia":"lv:Autoceļš P89"},"175225":{"ref":"P92","name":"Iecava — Stelpe","type":"route","route":"road","network":"lv:regional","wikidata":"Q13979708","wikipedia":"lv:Autoceļš P92"},"175374":{"ref":"P11","name":"Kocēni — Limbaži — Tūja","type":"route","route":"road","network":"lv:regional","distance":"60.9 km","wikidata":"Q2180190","wikipedia":"lv:Autoceļš P11"},"175402":{"ref":"V187","name":"Valmiera — Rauna","type":"route","route":"road","network":"lv:local","distance":"28.9 km"},"176433":{"ref":"P9","name":"Ragana — Limbaži","type":"route","route":"road","network":"lv:regional","distance":"40.5 km","wikidata":"Q2353338","wikipedia":"lv:Autoceļš P9"},"176434":{"ref":"P6","name":"Saulkrasti — Sēja — Ragana","type":"route","route":"road","network":"lv:regional","distance":"22.9 km","wikidata":"Q2063184","wikipedia":"lv:Autoceļš P6"},"177568":{"ref":"P10","name":"Inčukalns — Ropaži — Ikšķile","type":"route","route":"road","network":"lv:regional","distance":"41.2 km","wikidata":"Q2630458","wikipedia":"lv:Autoceļš P10"},"177573":{"ref":"P5","name":"Ulbroka — Ogre","type":"route","route":"road","name:ru":"Улброка — Огре","network":"lv:regional","distance":"26.2 km","wikidata":"Q2403884","wikipedia":"lv:Autoceļš P5"},"178494":{"ref":"P126","name":"Valdgale — Roja","type":"route","route":"road","network":"lv:regional","distance":"31.4 km","wikidata":"Q13978967","wikipedia":"lv:Autoceļš P126"},"183870":{"ref":"P90","name":"Rīgas HES — Pulkarne","type":"route","route":"road","network":"lv:regional","distance":"2.3 km","wikidata":"Q13979675","wikipedia":"lv:Autoceļš P90"},"183886":{"ref":"P91","name":"Mežvidi — Baldone","type":"route","route":"road","network":"lv:regional","distance":"3.2 km","wikidata":"Q13979692","wikipedia":"lv:Autoceļš P91"},"183894":{"ref":"P95","name":"Jelgava — Tērvete — Lietuvas robeža (Žagare)","type":"route","route":"road","network":"lv:regional","distance":"43.6 km","wikidata":"Q13979759","wikipedia":"lv:Autoceļš P95"},"183969":{"ref":"V1450","name":"Lancenieki — Džūkste — Lestene","type":"route","route":"road","network":"lv:local","distance":"14.6 km"},"186289":{"ref":"P1","name":"Rīga — Carnikava — Ādaži","type":"route","route":"road","network":"lv:regional","distance":"32.3 km","wikidata":"Q1950030","wikipedia":"lv:Autoceļš P1"},"186311":{"ref":"P3","name":"Garkalne — Alauksts","type":"route","route":"road","network":"lv:regional","distance":"92.7 km","wikidata":"Q3999042","wikipedia":"lv:Autoceļš P3"},"186928":{"ref":"P36","name":"Rēzekne — Gulbene","type":"route","route":"road","network":"lv:regional","distance":"87.2 km","wikidata":"Q4298552","wikipedia":"lv:Autoceļš P36"},"187028":{"ref":"P43","name":"Litene — Alūksne","type":"route","route":"road","network":"lv:regional","distance":"27.3 km","wikidata":"Q11167830","wikipedia":"lv:Autoceļš P43"},"192721":{"ref":"P108","name":"Ventspils — Kuldīga — Saldus","type":"route","route":"road","network":"lv:regional","distance":"106.1 km","wikidata":"Q13978670","wikipedia":"lv:Autoceļš P108"},"193190":{"ref":"P121","name":"Tukums — Kuldīga","type":"route","route":"road","network":"lv:regional","distance":"83.2 km","wikidata":"Q13978887","wikipedia":"lv:Autoceļš P121"},"193191":{"ref":"P104","name":"Tukums — Auce — Lietuvas robeža (Vītiņi)","type":"route","route":"road","network":"lv:regional","wikidata":"Q13978611","wikipedia":"lv:Autoceļš P104"},"193449":{"ref":"P131","name":"Tukums — Ķesterciems — Mērsrags — Kolka","type":"route","route":"road","network":"lv:regional","distance":"107.5 km","wikidata":"Q13979020","wikipedia":"lv:Autoceļš P131"},"194266":{"ref":"V1377","name":"Laidze — Kroņi — Ārlava","type":"route","route":"road","network":"lv:local","distance":"14.7 km"},"194547":{"ref":"P78","name":"Pļaviņas — Ērgļi","type":"route","route":"road","network":"lv:regional","distance":"32.2 km","wikidata":"Q13979486","wikipedia":"lv:Autoceļš P78"},"194548":{"ref":"P79","name":"Koknese — Ērgļi","type":"route","route":"road","network":"lv:regional","distance":"37.9 km","wikidata":"Q13979501","wikipedia":"lv:Autoceļš P79"},"194552":{"ref":"P27","name":"Smiltene — Gulbene","type":"route","route":"road","network":"lv:regional","distance":"64.5 km","wikidata":"Q2184303","wikipedia":"lv:Autoceļš P27"},"198371":{"ref":"P2","name":"Juglas papīrfabrikas ciemats — Upesciems","type":"route","route":"road","name:ru":"Посёлок бумажной фабрики «Югла» — Упесциемс","network":"lv:regional","distance":"2.7 km","wikidata":"Q2499633","wikipedia":"lv:Autoceļš P2"},"198372":{"ref":"V36","name":"Juglas papīrfabrikas ciemats — Ulbroka","type":"route","route":"road","network":"lv:local","distance":"2.2 km"},"198421":{"ref":"V1003","name":"Ozolaine — Skaistkalne — Straumes","type":"route","route":"road","network":"lv:local","distance":"29.2 km"},"198426":{"ref":"V1005","name":"Kundziņi — Bauska","type":"route","route":"road","network":"lv:local","distance":"1.3 km"},"198427":{"ref":"V1018","name":"Vecsaule — Rudzi — Code","type":"route","route":"road","network":"lv:local","distance":"12.9 km"},"198431":{"ref":"V1025","name":"Bauska — Gailīši — Lietuvas robeža","type":"route","route":"road","network":"lv:local","distance":"15.2 km"},"198434":{"ref":"V1028","name":"Bauska — Bērzi — Adžūni — Lietuvas robeža","type":"route","route":"road","network":"lv:local","distance":"14.6 km"},"198435":{"ref":"V1031","name":"Pilsrundāle — Adžūni","type":"route","route":"road","network":"lv:local","distance":"11.1 km"},"198436":{"ref":"V1034","name":"Bauska — Priedītes","type":"route","route":"road","network":"lv:local","distance":"6.6 km"},"198439":{"ref":"V1035","name":"Bauska — Mežotne — Bērzu skola","type":"route","route":"road","network":"lv:local","distance":"18. km"},"198440":{"ref":"V1038","name":"Mežotne — Viesturi — Jaunsvirlauka","type":"route","route":"road","network":"lv:local","distance":"17.4 km"},"199144":{"ref":"V10","name":"Babītes stacija — Vārnukrogs","type":"route","route":"road","network":"lv:local","distance":"5.9 km"},"224761":{"ref":"P7","name":"Ragana — Turaida","type":"route","route":"road","network":"lv:regional","distance":"9.8 km","wikidata":"Q2023316","wikipedia":"lv:Autoceļš P7"},"228588":{"ref":"P8","name":"Inciems — Sigulda — Ķegums","type":"route","route":"road","network":"lv:regional","distance":"74.4 km","wikidata":"Q2287699","wikipedia":"lv:Autoceļš P8"},"240806":{"ref":"V966","name":"Turkalne — Tīnūži","type":"route","route":"road","network":"lv:local","distance":"9.6 km"},"274443":{"ref":"P47","name":"Balvi — Kapūne","type":"route","route":"road","network":"lv:regional","distance":"24","wikidata":"Q4846832","wikipedia":"lv:Autoceļš P47"},"300677":{"ref":"V1101","name":"Dobele — Lestene — Tukums","type":"route","route":"road","network":"lv:local","distance":"40.2 km"},"300678":{"ref":"V1452","name":"Džūkste — Irlava — Jaunsāti","type":"route","route":"road","network":"lv:local","distance":"30.8 km"},"300692":{"ref":"V1443","name":"Tukums — Jaunmokas","type":"route","route":"road","network":"lv:local","distance":"7.8 km"},"300718":{"ref":"V1153","name":"Doktorāts — Viesāti — Irlava","type":"route","route":"road","network":"lv:local","distance":"20.9 km"},"300780":{"ref":"V1430","name":"Vāne — Saldus","type":"route","route":"road","network":"lv:local","distance":"32.4 km"},"300825":{"ref":"V1444","name":"Jaunmokas — Jaunsāti","type":"route","route":"road","network":"lv:local","distance":"5.6 km"},"300826":{"ref":"V1445","name":"Tukums — Kandava","type":"route","route":"road","network":"lv:local","distance":"23. km"},"309534":{"ref":"V1460","name":"Tāmas — Irlava","type":"route","route":"road","network":"lv:local","distance":"5.6 km"},"309599":{"ref":"P12","name":"Limbaži — Salacgrīva","type":"route","route":"road","network":"lv:regional","distance":"47.0 km","wikidata":"Q2387696","wikipedia":"lv:Autoceļš P12"},"309610":{"ref":"P13","name":"Limbaži — Aloja","type":"route","route":"road","network":"lv:regional","distance":"32.5 km","wikidata":"Q2368971","wikipedia":"lv:Autoceļš P13"},"309705":{"ref":"P124","name":"Ventspils — Kolka","type":"route","route":"road","network":"lv:regional","distance":"75. km","wikidata":"Q13978930","wikipedia":"lv:Autoceļš P124"},"309707":{"ref":"P122","name":"Ventspils — Piltene","type":"route","route":"road","network":"lv:regional","distance":"23.6 km","wikidata":"Q13978903","wikipedia":"lv:Autoceļš P122"},"309829":{"ref":"V1308","name":"Ventspils — Avotiņi","type":"route","route":"road","network":"lv:local","distance":"20.8 km"},"309830":{"ref":"P111","name":"Ventspils (Leči) — Grobiņa","type":"route","route":"road","network":"lv:regional","distance":"95.5 km","wikidata":"Q13978719","wikipedia":"lv:Autoceļš P111"},"309831":{"ref":"P110","name":"Liepāja — Tāši","type":"route","route":"road","network":"lv:regional","distance":"6.2 km","wikidata":"Q13978703","wikipedia":"lv:Autoceļš P110"},"309832":{"ref":"P119","name":"Kuldīga — Alsunga — Jūrkalne","type":"route","route":"road","network":"lv:regional","distance":"39.8 km","wikidata":"Q13978849","wikipedia":"lv:Autoceļš P119"},"309844":{"ref":"P118","name":"Kuldīgas apvedceļš","type":"route","route":"road","network":"lv:regional","distance":"9.4 km","wikidata":"Q13978833","wikipedia":"lv:Autoceļš P118"},"309848":{"ref":"V1311","name":"Ugāle — Blāzma — Ance","type":"route","route":"road","network":"lv:local","distance":"29.2 km"},"309854":{"ref":"P14","name":"Umurga — Cēsis — Līvi","type":"route","route":"road","network":"lv:regional","distance":"42.7 km","wikidata":"Q2499918","wikipedia":"lv:Autoceļš P14"},"309864":{"ref":"P16","name":"Valmiera — Matīši — Mazsalaca","type":"route","route":"road","network":"lv:regional","distance":"45.3 km","wikidata":"Q5613215","wikipedia":"lv:Autoceļš P16"},"310827":{"ref":"V1446","name":"Tukums — Milzkalne — Smārde — Slampe","type":"route","route":"road","network":"lv:local","distance":"27"},"310828":{"ref":"V1476","name":"Kalēji — Durbe","type":"route","route":"road","network":"lv:local","distance":"7.5 km"},"310829":{"ref":"V1475","name":"Ozolpils — Kalēji — Smārde","type":"route","route":"road","network":"lv:local","distance":"7.5 km"},"317943":{"ref":"P17","name":"Valmiera — Rūjiena — Igaunijas robeža (Unguriņi)","type":"route","route":"road","network":"lv:regional","distance":"55.9 km","wikidata":"Q1911421","wikipedia":"lv:Autoceļš P17"},"317945":{"ref":"P18","name":"Valmiera — Smiltene","type":"route","route":"road","source":"Ortofoto 1:10000, 2007.-2008. gads, © Latvijas Ģeotelpiskās informācijas aģentūra","network":"lv:regional","distance":"35.8 km","wikidata":"Q2196119","wikipedia":"lv:Autoceļš P18"},"317954":{"ref":"P20","name":"Valmiera — Cēsis — Drabeši","type":"route","route":"road","network":"lv:regional","distance":"39.7 km","wikidata":"Q3236742","wikipedia":"lv:Autoceļš P20"},"317969":{"ref":"P21","name":"Rūjiena — Mazsalaca","type":"route","route":"road","network":"lv:regional","distance":"21.4","wikidata":"Q2707024","wikipedia":"lv:Autoceļš P21"},"317971":{"ref":"P22","name":"Valka — Rūjiena","type":"route","route":"road","network":"lv:regional","distance":"51.2","wikidata":"Q2211301","wikipedia":"lv:Autoceļš P22"},"317984":{"ref":"P23","name":"Valka — Vireši","type":"route","route":"road","network":"lv:regional","distance":"48.1 km","wikidata":"Q2659468","wikipedia":"lv:Autoceļš P23"},"318033":{"ref":"P24","name":"Smiltene — Valka","type":"route","route":"road","name:lt":"Smiltenė — Valka","name:lv":"Smiltene — Valka","network":"lv:regional","distance":"44.3 km","wikidata":"Q2406384","wikipedia":"lv:Autoceļš P24"},"318036":{"ref":"P25","name":"Smiltene — Strenči","type":"route","route":"road","network":"lv:regional","distance":"29.5 km","wikidata":"Q2065420","wikipedia":"lv:Autoceļš P25"},"318039":{"ref":"P26","name":"Sedas pievedceļš","type":"route","route":"road","network":"lv:regional","distance":"2.8 km","wikidata":"Q3049182","wikipedia":"lv:Autoceļš P26"},"318129":{"ref":"P28","name":"Priekuļi — Rauna","type":"route","route":"road","network":"lv:regional","distance":"19.0 km","wikidata":"Q1886624","wikipedia":"lv:Autoceļš P28"},"318140":{"ref":"P29","name":"Rauna — (Vidzemes šoseja) — Drusti — Jaunpiebalga","type":"route","route":"road","network":"lv:regional","distance":"31.8 km","wikidata":"Q2787260","wikipedia":"lv:Autoceļš P29"},"318153":{"ref":"P30","name":"Cēsis — Vecpiebalga — Madona","type":"route","route":"road","network":"lv:regional","distance":"85.7 km","operator":"Latvijas Valsts ceļi","wikidata":"Q2459484","wikipedia":"lv:Autoceļš P30"},"318205":{"ref":"P31","name":"Ērgļi — Drabeši","type":"route","route":"road","network":"lv:regional","distance":"52.3 km","wikidata":"Q11119552","wikipedia":"lv:Autoceļš P31"},"318211":{"ref":"P32","name":"Augšlīgatne — Skrīveri","type":"route","route":"road","name:ru":"Аугшлигатне — Скривери","network":"lv:regional","distance":"74.7 km","wikidata":"Q1813262","wikipedia":"lv:Autoceļš P32","source:name":"http://likumi.lv/doc.php?id=198589"},"318219":{"ref":"P33","name":"Ērgļi — Jaunpiebalga — Saliņkrogs","type":"route","route":"road","network":"lv:regional","distance":"60.5 km","wikidata":"Q5265980","wikipedia":"lv:Autoceļš P33"},"318224":{"ref":"P34","name":"Sinole — Silakrogs","type":"route","route":"road","network":"lv:regional","distance":"41.6 km","wikidata":"Q2476027","wikipedia":"lv:Autoceļš P34"},"318231":{"ref":"P35","name":"Gulbene — Balvi — Viļaka — Krievijas robeža (Vientuļi)","type":"route","route":"road","network":"lv:regional","distance":"69.7 km","wikidata":"Q2628924","wikipedia":"lv:Autoceļš P35"},"318433":{"ref":"P37","name":"Pļaviņas (Gostiņi) — Madona — Gulbene","type":"route","route":"road","network":"lv:regional","distance":"91.4 km","wikidata":"Q1942320","wikipedia":"lv:Autoceļš P37"},"318435":{"ref":"P38","name":"Cesvaine — Velēna","type":"route","route":"road","network":"lv:regional","distance":"37.4 km","wikidata":"Q2653809","wikipedia":"lv:Autoceļš P38"},"318450":{"ref":"P39","name":"Alūksne — Ape","type":"route","route":"road","network":"lv:regional","distance":"28.1 km","wikidata":"Q603802","wikipedia":"lv:Autoceļš P39"},"318456":{"ref":"P40","name":"Alūksne — Zaiceva","type":"route","route":"road","network":"lv:regional","distance":"24.8 km","wikidata":"Q2780236","wikipedia":"lv:Autoceļš P40"},"318466":{"ref":"P41","name":"Alūksne — Liepna","type":"route","route":"road","network":"lv:regional","distance":"33.0 km","wikidata":"Q2241268","wikipedia":"lv:Autoceļš P41"},"318472":{"ref":"P42","name":"Viļaka — Zaiceva — Krievijas robeža (Pededze)","type":"route","route":"road","network":"lv:regional","distance":"47.4 km","wikidata":"Q1971212","wikipedia":"lv:Autoceļš P42"},"318483":{"ref":"P44","name":"Ilzene — Līzespasts","type":"route","route":"road","network":"lv:regional","distance":"21.8 km","operator":"Latvijas Valsts ceļi","wikidata":"Q2587688","wikipedia":"lv:Autoceļš P44"},"318484":{"ref":"P45","name":"Viļaka — Kārsava","type":"route","route":"road","network":"lv:regional","distance":"52.5 km","wikidata":"Q4353155","wikipedia":"lv:Autoceļš P45"},"318499":{"ref":"P46","name":"Dubļeva — Cērpene","type":"route","route":"road","network":"lv:regional","distance":"22.8 km","wikidata":"Q2380970","wikipedia":"lv:Autoceļš P46"},"318502":{"ref":"P48","name":"Kārsava — Tilža — Dubļukalns","type":"route","route":"road","network":"lv:regional","distance":"47.8 km","wikidata":"Q2699721","wikipedia":"lv:Autoceļš P48"},"318517":{"ref":"P49","name":"Kārsava — Ludza — Ezernieki","type":"route","route":"road","network":"lv:regional","distance":"75.7 km","wikidata":"Q1889677","wikipedia":"lv:Autoceļš P49"},"318528":{"ref":"P50","name":"Kārsava — Krievijas robeža (Aizgārša)","type":"route","route":"road","network":"lv:regional","distance":"15.2 km","wikidata":"Q2627268","wikipedia":"lv:Autoceļš P50"},"318540":{"ref":"P52","name":"Zilupe — Šķaune — Ezernieki","type":"route","route":"road","network":"lv:regional","distance":"59.3 km","wikidata":"Q13979180","wikipedia":"lv:Autoceļš P52"},"318546":{"ref":"P54","name":"Rēzekne — Greiškāni","type":"route","route":"road","network":"lv:regional","distance":"6.7 km","wikidata":"Q2689727","wikipedia":"lv:Autoceļš P54"},"318554":{"ref":"P56","name":"Malta — Kaunata","type":"route","route":"road","network":"lv:regional","distance":"27.3 km","wikidata":"Q2539261","wikipedia":"lv:Autoceļš P56"},"318599":{"ref":"P58","name":"Viļāni — Preiļi — Špoģi","type":"route","route":"road","network":"lv:regional","distance":"62.2 km","wikidata":"Q2792490","wikipedia":"lv:Autoceļš P58"},"318650":{"ref":"P59","name":"Viļāni — Ružina — Malta","type":"route","route":"road","network":"lv:regional","distance":"29.1 km","wikidata":"Q1945644","wikipedia":"lv:Autoceļš P59"},"318885":{"ref":"P63","name":"Līvāni — Preiļi","type":"route","route":"road","network":"lv:regional","distance":"35.5 km","wikidata":"Q13979267","wikipedia":"lv:Autoceļš P63"},"318891":{"ref":"P64","name":"Višķi — Nīcgale","type":"route","route":"road","network":"lv:regional","distance":"31.5 km","wikidata":"Q13979284","wikipedia":"lv:Autoceļš P64"},"318896":{"ref":"P66","name":"Daugavpils apvedceļš (Tabore — Laucese)","type":"route","route":"road","network":"lv:regional","distance":"10.1 km","wikidata":"Q13979312","wikipedia":"lv:Autoceļš P66"},"318901":{"ref":"P69","name":"Skrudaliena — Kaplava — Krāslava","type":"route","route":"road","name:pl":"Skrudelino — Kapława — Krasław","network":"lv:regional","distance":"34.3 km","wikidata":"Q13979362","wikipedia":"lv:Autoceļš P69"},"318982":{"ref":"P70","name":"Svente — Lietuvas robeža (Subate)","type":"route","route":"road","name:lt":"Šventė — Lietuvos pasienis (Subatė)","name:lv":"Svente — Lietuvas robeža (Subate)","name:pl":"Święcień — granica z Litwą (Subata)","network":"lv:regional","distance":"39. km","wikidata":"Q13979385","wikipedia":"lv:Autoceļš P70"},"318989":{"ref":"P72","name":"Ilūkste (Virsaiši) — Bebrene — Birži","type":"route","route":"road","network":"lv:regional","distance":"71.3 km","wikidata":"Q13979413","wikipedia":"lv:Autoceļš P72"},"318996":{"ref":"P73","name":"Vecumnieki — Nereta — Subate","type":"route","route":"road","network":"lv:regional","distance":"116.1 km","wikidata":"Q13979428","wikipedia":"lv:Autoceļš P73"},"319008":{"ref":"P75","name":"Jēkabpils — Lietuvas robeža (Nereta)","type":"route","route":"road","name:lv":"Jēkabpils — Lietuvas robeža (Nereta)","network":"lv:regional","distance":"60.5 km","wikidata":"Q12013255","wikipedia":"lv:Autoceļš P75"},"319030":{"ref":"P76","name":"Aizkraukle — Jēkabpils","type":"route","route":"road","network":"lv:regional","distance":"46","wikidata":"Q13979466","wikipedia":"lv:Autoceļš P76"},"319056":{"ref":"P80","name":"Tīnūži — Koknese","type":"route","route":"road","network":"lv:regional","distance":"52.1 km","wikidata":"Q13979525","wikipedia":"lv:Autoceļš P80"},"319073":{"ref":"P81","name":"Bērzaune — Vestiena — Ērgļi","type":"route","route":"road","network":"lv:regional","distance":"27. km","wikidata":"Q13979540","wikipedia":"lv:Autoceļš P81"},"319146":{"ref":"P82","name":"Jaunkalsnava — Lubāna","type":"route","route":"road","network":"lv:regional","distance":"56. km","wikidata":"Q13979557","wikipedia":"lv:Autoceļš P82"},"319365":{"ref":"P83","name":"Lubāna — Dzelzava","type":"route","route":"road","network":"lv:regional","distance":"24. km","wikidata":"Q13979573","wikipedia":"lv:Autoceļš P83"},"319366":{"ref":"P84","name":"Madona — Varakļāni","type":"route","route":"road","network":"lv:regional","distance":"49. km","wikidata":"Q4056210","wikipedia":"lv:Autoceļš P84"},"319369":{"ref":"P85","name":"Rīgas HES — Jaunjelgava","type":"route","route":"road","network":"lv:regional","distance":"56.9 km","wikidata":"Q13979596","wikipedia":"lv:Autoceļš P85"},"319373":{"ref":"P86","name":"Sērene — Kalnieši","type":"route","route":"road","network":"lv:regional","distance":"37.9 km","wikidata":"Q12013256","wikipedia":"lv:Autoceļš P86"},"319376":{"ref":"P96","name":"Pūri — Auce — Grīvaiši","type":"route","route":"road","network":"lv:regional","distance":"78.1 km","wikidata":"Q13979773","wikipedia":"lv:Autoceļš P96"},"319394":{"ref":"P97","name":"Jelgava — Dobele — Annenieki","type":"route","route":"road","network":"lv:regional","distance":"45.4 km","wikidata":"Q13979790","wikipedia":"lv:Autoceļš P97"},"319418":{"ref":"P99","name":"Jelgava — Kalnciems","type":"route","route":"road","network":"lv:regional","distance":"23.3 km","wikidata":"Q13979818","wikipedia":"lv:Autoceļš P99"},"319424":{"ref":"P100","name":"Jelgava — Dalbe","type":"route","route":"road","network":"lv:regional","distance":"10.4 km","wikidata":"Q13978547","wikipedia":"lv:Autoceļš P100","source:name":"http://likumi.lv/doc.php?id=198589"},"319429":{"ref":"P101","name":"Kalnciems — Kūdra","type":"route","route":"road","network":"lv:regional","distance":"11.6 km","wikidata":"Q13978564","wikipedia":"lv:Autoceļš P101"},"319435":{"ref":"P102","name":"Dobele — Jaunbērze","type":"route","route":"road","network":"lv:regional","distance":"13.7 km","wikidata":"Q13978582","wikipedia":"lv:Autoceļš P102"},"319442":{"ref":"P105","name":"Butnāri — Saldus — Ezere","type":"route","route":"road","network":"lv:regional","distance":"37.1 km","wikidata":"Q13978627","wikipedia":"lv:Autoceļš P105"},"319455":{"ref":"P106","name":"Ezere — Embūte — Grobiņa","type":"route","route":"road","network":"lv:regional","distance":"81.2 km","wikidata":"Q13978642","wikipedia":"lv:Autoceļš P106"},"319493":{"ref":"P107","name":"Skrunda — Ezere","type":"route","route":"road","network":"lv:regional","distance":"36.5 km","wikidata":"Q13978657","wikipedia":"lv:Autoceļš P107"},"319520":{"ref":"P112","name":"Kuldīga — Aizpute — Līči","type":"route","route":"road","network":"lv:regional","distance":"69.1 km","wikidata":"Q13978734","wikipedia":"lv:Autoceļš P112"},"319564":{"ref":"P113","name":"Grobiņa — Bārta — Rucava","type":"route","route":"road","network":"lv:regional","distance":"51.7 km","wikidata":"Q13978751","wikipedia":"lv:Autoceļš P113"},"319620":{"ref":"P115","name":"Aizpute — Kalvene","type":"route","route":"road","network":"lv:regional","distance":"17 km","wikidata":"Q13978785","wikipedia":"lv:Autoceļš P115"},"319672":{"ref":"P116","name":"Kuldīga — Skrunda — Embūte","type":"route","route":"road","network":"lv:regional","distance":"61.7 km","wikidata":"Q13978802","wikipedia":"lv:Autoceļš P116"},"319806":{"ref":"P117","name":"Skrunda — Aizpute","type":"route","route":"road","network":"lv:regional","distance":"26. km","wikidata":"Q13978818","wikipedia":"lv:Autoceļš P117"},"319819":{"ref":"P120","name":"Talsi — Stende — Kuldīga","type":"route","route":"road","network":"lv:regional","distance":"57.9 km","wikidata":"Q13978874","wikipedia":"lv:Autoceļš P120"},"319828":{"ref":"P123","name":"Zlēkas — Ugāle","type":"route","route":"road","network":"lv:regional","distance":"26.5 km","wikidata":"Q13978916","wikipedia":"lv:Autoceļš P123"},"319829":{"ref":"V1309","name":"Piltene — Zlēkas","type":"route","route":"road","network":"lv:local","distance":"15.4 km"},"319830":{"ref":"V1326","name":"Ugāle — Cirkale — Zlēkas","type":"route","route":"road","network":"lv:local","distance":"26.4 km"},"319850":{"ref":"V1321","name":"Ugāle — Modes — Māteri","type":"route","route":"road","network":"lv:local","distance":"10.7 km"},"319851":{"ref":"V1322","name":"Ugāles centra ceļš","type":"route","route":"road","network":"lv:local","distance":"1.0 km"},"319864":{"ref":"P127","name":"Talsi — Upesgrīva","type":"route","route":"road","network":"lv:regional","distance":"34.3 km","wikidata":"Q13978982","wikipedia":"lv:Autoceļš P127"},"320260":{"ref":"P128","name":"Sloka — Talsi","type":"route","route":"road","network":"lv:regional","distance":"73.9 km","wikidata":"Q13978989","wikipedia":"lv:Autoceļš P128"},"322051":{"ref":"V1449","name":"Valgums — Klapkalnciems","type":"route","route":"road","network":"lv:local","distance":"9.4 km"},"322930":{"ref":"V1448","name":"Milzkalne — Cērkste — Apšuciems","type":"route","route":"road","network":"lv:local","distance":"11.1 km"},"324048":{"ref":"P129","name":"Talsu apvedceļš","type":"route","route":"road","network":"lv:regional","distance":"6.7 km","wikidata":"Q13978996","wikipedia":"lv:Autoceļš P129"},"324051":{"ref":"P130","name":"Līgas — Kandava — Veģi","type":"route","route":"road","network":"lv:regional","distance":"28. km","wikidata":"Q13979012","wikipedia":"lv:Autoceļš P130"},"324067":{"ref":"P132","name":"Rīga — Jaunmārupe","type":"route","route":"road","network":"lv:regional","distance":"10.8 km","wikidata":"Q13979027","wikipedia":"lv:Autoceļš P132"},"324109":{"ref":"V1456","name":"Irlava — Mazbites","type":"route","route":"road","network":"lv:local","distance":"11.7 km"},"324111":{"ref":"V1455","name":"Ozolpils — Degole","type":"route","route":"road","network":"lv:local","distance":"10.4 km"},"324117":{"ref":"V1458","name":"Jaunpils — Viesāti","type":"route","route":"road","network":"lv:local","distance":"12.9 km"},"324170":{"ref":"V1429","name":"Jaunpils — Ošenieki","type":"route","route":"road","network":"lv:local","distance":"52.5 km"},"324272":{"ref":"V1457","name":"Annenieki — Jaunpils","type":"route","route":"road","network":"lv:local","distance":"8.0 km"},"324274":{"ref":"V1484","name":"Jaunpils — Mazbites","type":"route","route":"road","network":"lv:local","distance":"7.2 km"},"324289":{"ref":"V1442","name":"Tukums — Lazdas","type":"route","route":"road","network":"lv:local","distance":"13.5 km"},"326000":{"ref":"V1453","name":"Praviņas — Džūkste","type":"route","route":"road","network":"lv:local","distance":"12.3 km"},"326013":{"ref":"V1451","name":"Irbes — Džūkste","type":"route","route":"road","network":"lv:local","distance":"5.0 km"},"326490":{"ref":"V1298","name":"Gaiķi — Kabile","type":"route","route":"road","network":"lv:local","distance":"19.8 km"},"326507":{"ref":"V1402","name":"Stende — Sabile — Pūces","type":"route","route":"road","network":"lv:local","distance":"20.4 km"},"326508":{"ref":"V1401","name":"Stende — Lauciene — Mērsrags","type":"route","route":"road","network":"lv:local","distance":"49.4"},"326575":{"ref":"V1319","name":"Amele — Stikli","type":"route","route":"road","network":"lv:local","distance":"6.5 km"},"326577":{"ref":"V1310","name":"Piltene — Silakrogs","type":"route","route":"road","network":"lv:local","distance":"20.7 km"},"326597":{"ref":"P109","name":"Kandava — Saldus","type":"route","route":"road","network":"lv:regional","distance":"53.2 km","wikidata":"Q13978686","wikipedia":"lv:Autoceļš P109"},"326606":{"ref":"V1486","name":"Zante — Dziru dzirnavas","type":"route","route":"road","network":"lv:local","distance":"4.8 km"},"326607":{"ref":"V1459","name":"Aizupe — Alkšņi — Strutele — Auziņas","type":"route","route":"road","network":"lv:local","distance":"37.3 km"},"326612":{"ref":"V1487","name":"Varieba — Aizupes mežniecība","type":"route","route":"road","network":"lv:local","distance":"3.2 km"},"326622":{"ref":"V1261","name":"Renda — Matkule","type":"route","route":"road","network":"lv:local","distance":"23. km"},"326629":{"ref":"V317","name":"Asaru ezers — Melturi","type":"route","route":"road","network":"lv:local","distance":"9.4 km"},"326644":{"ref":"V192","name":"Vaidava — Rubene","type":"route","route":"road","network":"lv:local","distance":"5.8 km"},"326645":{"ref":"V190","name":"Brieži — Vaidava — Druļi — Baužu ezers","type":"route","route":"road","network":"lv:local","distance":"14.1 km"},"326684":{"ref":"V1437","name":"Bieļas — Kaive — Lamiņi — Zentene","type":"route","route":"road","network":"lv:local","distance":"17.4 km"},"326689":{"ref":"V1435","name":"Līgas — Zentene — Rideļi","type":"route","route":"road","network":"lv:local","distance":"21.8 km"},"326748":{"ref":"V1440","name":"Kaive — Brizule","type":"route","route":"road","network":"lv:local","distance":"4.8 km"},"326774":{"ref":"V1489","name":"Brizule — Rideļi","type":"route","route":"road","network":"lv:local","distance":"6.8 km"},"326775":{"ref":"V1410","name":"Valdemārpils — Pļavas — Sviķi","type":"route","route":"road","network":"lv:local","distance":"35.2 km"},"330715":{"ref":"V1441","name":"Rideļi — Engure","type":"route","route":"road","network":"lv:local","distance":"8.5 km"},"330759":{"ref":"V1431","name":"Kandavas stacija — Oksle — Dursupe","type":"route","route":"road","network":"lv:local","distance":"14.2 km"},"330772":{"ref":"V1439","name":"Pūre — Kaive","type":"route","route":"road","network":"lv:local","distance":"7.8 km"},"330840":{"ref":"V1454","name":"Pīčas — Praviņas — Kārtiņi","type":"route","route":"road","network":"lv:local","distance":"8.5 km"},"330947":{"ref":"V1407","name":"Talsi — Šķēde — Okte","type":"route","route":"road","network":"lv:local","distance":"17.5 km"},"336403":{"ref":"V1","name":"Valdlauči — Rāmava","type":"route","route":"road","network":"lv:local","distance":"2.1 km","operator":"Latvijas Valsts ceļi"},"336431":{"ref":"V1362","name":"Abavciems — Veģi","type":"route","route":"road","network":"lv:local","distance":"3.4 km"},"336446":{"ref":"V1396","name":"Sabile — Abavciems — Jaunzemji","type":"route","route":"road","network":"lv:local","distance":"10.8 km"},"336488":{"ref":"V1300","name":"Kabile — Sabile","type":"route","route":"road","network":"lv:local","distance":"15.9 km"},"336496":{"ref":"V1434","name":"Pievedceļš Kandavas stacijai","type":"route","route":"road","network":"lv:local","distance":"2.4 km"},"337207":{"ref":"V1432","name":"Cēre — Pilsarāji — Gobas","type":"route","route":"road","network":"lv:local","distance":"6.7 km"},"337211":{"ref":"V1364","name":"Balgale — Zentene","type":"route","route":"road","network":"lv:local","distance":"7.5 km"},"337215":{"ref":"V1436","name":"Brīvnieki — Dzirciems — Jēči","type":"route","route":"road","network":"lv:local","distance":"21.8 km"},"337225":{"ref":"V1482","name":"Pievedceļš Raudas pansionātam","type":"route","route":"road","network":"lv:local","distance":"2.5 km"},"337256":{"ref":"V1485","name":"Pievedceļš Ķīšu pansionātam","type":"route","route":"road","network":"lv:local","distance":"1.2 km"},"337266":{"ref":"V1462","name":"Zemīte — Jaunsāti","type":"route","route":"road","network":"lv:local","distance":"10. km"},"337439":{"ref":"V20","name":"Imanta — Babīte","type":"route","route":"road","network":"lv:local","distance":"2.3 km"},"337489":{"ref":"V7","name":"Baloži — Plakanciems — Iecava","type":"route","route":"road","network":"lv:local"},"337510":{"ref":"V777","name":"Ceļinieki — Pļavnieki","type":"route","route":"road","network":"lv:local","distance":"9.5 km"},"337560":{"ref":"V1433","name":"Kandava — Jaunpagasts — Mazsproģi","type":"route","route":"road","network":"lv:local","distance":"17.3 km"},"337561":{"ref":"V1409","name":"Tīrumi — Krūziņi","type":"route","route":"road","network":"lv:local","distance":"1.8 km"},"337566":{"ref":"V1411","name":"Valdemārpils — Pope","type":"route","route":"road","network":"lv:local","distance":"48.7 km"},"337595":{"ref":"V164","name":"Igaunijas robeža (Ramata) — Mazsalaca — Vilzēni — Dikļi","type":"route","route":"road","network":"lv:local","distance":"53. km"},"337611":{"ref":"V123","name":"Ārciems — Puikule — Urga — Braslava","type":"route","route":"road","network":"lv:local","distance":"22.6 km"},"337612":{"ref":"V112","name":"Puikule — Rencēni — Vēveri","type":"route","route":"road","network":"lv:local","distance":"61. km"},"337613":{"ref":"V166","name":"Valmiera — Dikļi — Augstroze","type":"route","route":"road","network":"lv:local","distance":"37.7 km"},"337630":{"ref":"V783","name":"Jēkabpils — Dignāja — Ilūkste","type":"route","route":"road","name:lt":"Jėkabpilis — Dignaja — Alūksta","name:lv":"Jēkabpils — Dignāja — Ilūkste","network":"lv:local","distance":"70.9 km"},"337631":{"ref":"V824","name":"Zasa — Vandāni","type":"route","route":"road","name:lt":"Zasas — Vandanai","name:lv":"Zasa — Vandāni","network":"lv:local","distance":"13.2 km"},"337814":{"ref":"V125","name":"Katvari — Ozoli","type":"route","route":"road","network":"lv:local","distance":"17.6 km"},"337860":{"ref":"V217","name":"Matīši — Budenbroka","type":"route","route":"road","network":"lv:local","distance":"12. km"},"337863":{"ref":"V165","name":"Matīši — Braslava","type":"route","route":"road","network":"lv:local","distance":"3.9 km"},"337906":{"ref":"V170","name":"Igaunijas robeža — Virķēni — Rūjiena","type":"route","route":"road","network":"lv:local","distance":"24.9 km"},"337907":{"ref":"V199","name":"Radziņtalcis — Kundziņi","type":"route","route":"road","network":"lv:local","distance":"4.1 km"},"338076":{"ref":"V587","name":"Staroščiki — Sprūževa","type":"route","route":"road","network":"lv:local","distance":"4.7 km"},"338077":{"ref":"V579","name":"Rēzekne — Stoļerova — Kaunata","type":"route","route":"road","network":"lv:local","distance":"34.7 km"},"338078":{"ref":"V563","name":"Greiškāni — Sprūževa","type":"route","route":"road","network":"lv:local","distance":"2.6 km"},"338079":{"ref":"V564","name":"Janapole — Rozuļmuiža","type":"route","route":"road","network":"lv:local","distance":"9.1 km"},"338080":{"ref":"V578","name":"Ratnieki — Baltiņi","type":"route","route":"road","network":"lv:local","distance":"8.2 km"},"338081":{"ref":"V551","name":"Bratova — Lūznava — Vertukšņa","type":"route","route":"road","network":"lv:local","distance":"17.4 km"},"338083":{"ref":"V581","name":"Ritiņi — Markovka — Zosna","type":"route","route":"road","network":"lv:local","distance":"18.6 km"},"338090":{"ref":"V795","name":"Mežāre — Vīpe — Stūrnieki","type":"route","route":"road","network":"lv:local","distance":"14.5 km"},"338091":{"ref":"V803","name":"Sala — Zilkalne","type":"route","route":"road","network":"lv:local","distance":"14.1 km"},"338110":{"ref":"V1019","name":"Jaunsaule — Ozolaine — Bērznieki","type":"route","route":"road","network":"lv:local","distance":"21.2 km"},"338111":{"ref":"V1016","name":"Ozolaine — Dupšas","type":"route","route":"road","network":"lv:local","distance":"9.8 km"},"338112":{"ref":"V1017","name":"Brukna — Baltiņi — Bārbele","type":"route","route":"road","network":"lv:local","distance":"12.2 km"},"338119":{"ref":"V1301","name":"Ģibuļi — Renda","type":"route","route":"road","network":"lv:local","distance":"18.3 km"},"338120":{"ref":"V1400","name":"Spailes — Kaleši","type":"route","route":"road","network":"lv:local","distance":"4.0 km"},"338189":{"ref":"V1461","name":"Grenči — Skārdi","type":"route","route":"road","network":"lv:local","distance":"10.7 km"},"338236":{"ref":"V9","name":"Iecava — Baldone — Daugmale","type":"route","route":"road","network":"lv:local"},"338282":{"ref":"V28","name":"Blukas — Emburga","type":"route","route":"road","network":"lv:local","distance":"24.1 km"},"338283":{"ref":"V1071","name":"Mežciems — Staļģene — Stūrīši","type":"route","route":"road","network":"lv:local","distance":"21.7 km"},"338286":{"ref":"V1002","name":"Dzirnieki — Pilsrundāle","type":"route","route":"road","network":"lv:local","distance":"22. km"},"338287":{"ref":"V1054","name":"Dimzas — Vircava — Vairogs","type":"route","route":"road","network":"lv:local","distance":"20.4 km"},"338298":{"ref":"V1085","name":"Vircava - Platone","type":"route","route":"road","name:lt":"Virčiuvis - Platuonė","name:lv":"Vircava - Platone","network":"lv:local","distance":"8.3 km"},"338377":{"ref":"V1033","name":"Pilsrundāle — Svitene — Klieņi","type":"route","route":"road","network":"lv:local","distance":"17.1 km"},"338378":{"ref":"V1032","name":"Lietuvas robeža — Svitene — Jāņukrogs","type":"route","route":"road","network":"lv:local","distance":"11.9 km"},"338379":{"ref":"V1030","name":"Saulaine — Virsīte — Svitene — Senči","type":"route","route":"road","network":"lv:local","distance":"25.3 km"},"338381":{"ref":"V1072","name":"Platones stacija — Sesava — Lietuvas robeža","type":"route","route":"road","name:lt":"Platuonės stotis — Sesava — Lietuvos pasienis","name:lv":"Platones stacija — Sesava — Lietuvas robeža","network":"lv:local","distance":"26.1 km"},"338446":{"ref":"V1111","name":"Vītiņi — Vētras — Krustiņi — Tērvete","type":"route","route":"road","network":"lv:local","distance":"28.6 km"},"338736":{"ref":"V60","name":"Mālpils — Zaube — Kliģene","type":"route","route":"road","network":"lv:local","distance":"23.2 km"},"338737":{"ref":"V127","name":"Dravnieki — Kaijas — Straupe — Līgatne","type":"route","route":"road","network":"lv:local","distance":"34.5 km"},"338738":{"ref":"V128","name":"Straupe — Lēdurga — Vidriži — Skulte","type":"route","route":"road","network":"lv:local","distance":"36.1 km"},"338739":{"ref":"V81","name":"Lēdurga — Inciems","type":"route","route":"road","network":"lv:local","distance":"11.4 km"},"338740":{"ref":"V150","name":"Dzirnieki — Vanagi","type":"route","route":"road","network":"lv:local","distance":"4.5 km"},"339037":{"ref":"V143","name":"Akmeņkalni — Lauvas — Ķekari","type":"route","route":"road","network":"lv:local","distance":"16.4 km"},"339049":{"ref":"V116","name":"Ungurpils — Pāle","type":"route","route":"road","network":"lv:local","distance":"16. km"},"339050":{"ref":"V117","name":"Ezerkrogs — Pavāri — Ungurpils","type":"route","route":"road","network":"lv:local","distance":"14. km"},"339194":{"ref":"V1331","name":"Tārgale — Zīles","type":"route","route":"road","network":"lv:local","distance":"0.9 km"},"339213":{"ref":"V1329","name":"Pope — Elkšķene — Tārgale","type":"route","route":"road","network":"lv:local","distance":"16.1 km"},"339214":{"ref":"V1314","name":"Popes centra ceļš","type":"route","route":"road","network":"lv:local","distance":"1.0 km"},"339249":{"ref":"V1313","name":"Virpe — Pope","type":"route","route":"road","network":"lv:local","distance":"16.1 km"},"339250":{"ref":"V1312","name":"Oliņi — Vēde","type":"route","route":"road","network":"lv:local","distance":"7.0 km"},"340477":{"ref":"V1463","name":"Zemīte — Kukšas","type":"route","route":"road","network":"lv:local","distance":"8.7 km"},"340478":{"ref":"V1464","name":"Dziļkalni — Pūre","type":"route","route":"road","network":"lv:local","distance":"6.9 km"},"341177":{"ref":"V1481","name":"Jaunmokas — Sloklejas","type":"route","route":"road","network":"lv:local","distance":"3.9 km"},"341735":{"ref":"V126","name":"Rotenbergi — Kaijas — Rucka","type":"route","route":"road","network":"lv:local","distance":"15.6 km"},"341974":{"ref":"V138","name":"Lāņi — Ķirbiži — Jelgavkrasti","type":"route","route":"road","network":"lv:local","distance":"32.4 km"},"341983":{"ref":"V141","name":"Radziņi — Viļķene — Ķirbiži","type":"route","route":"road","network":"lv:local","distance":"13.5 km"},"342050":{"ref":"V142","name":"Ķirbiži — Lauvas","type":"route","route":"road","network":"lv:local","distance":"8.8 km"},"342051":{"ref":"V151","name":"Upītes — Vitrupe","type":"route","route":"road","network":"lv:local","distance":"5.2 km"},"342135":{"ref":"V137","name":"Stūrīši — Jelgavkrasti — Lembuži","type":"route","route":"road","network":"lv:local","distance":"12.5 km"},"351286":{"ref":"V1106","name":"Augstkalne — Bēne","type":"route","route":"road","network":"lv:local","distance":"18.2 km"},"351287":{"ref":"V1056","name":"Svēte — Augstkalne","type":"route","route":"road","network":"lv:local","distance":"35.2 km"},"351288":{"ref":"V1078","name":"Veczāmeļi — Blankenfelde (Saulīte) — Augstkalne","type":"route","route":"road","network":"lv:local","distance":"22.8 km"},"351289":{"ref":"V1098","name":"Dobele — Krimūnas — Zaļenieki — Ūziņi","type":"route","route":"road","network":"lv:local","distance":"25.7 km"},"356091":{"ref":"V1128","name":"Dobele — Īle — Auce","type":"route","route":"road","network":"lv:local","distance":"31.8 km"},"356092":{"ref":"V1127","name":"Dobele — Bēne","type":"route","route":"road","network":"lv:local","distance":"24.7 km"},"356093":{"ref":"V1129","name":"Naudīte — Slagūne — Upenieki","type":"route","route":"road","network":"lv:local","distance":"16.6 km"},"356102":{"ref":"V1121","name":"Čiekuri — Īle","type":"route","route":"road","network":"lv:local","distance":"5.5 km"},"356103":{"ref":"V1139","name":"Stūrīši — Stirnas","type":"route","route":"road","network":"lv:local","distance":"7.1 km"},"356104":{"ref":"V1119","name":"Bēne — Lielauce","type":"route","route":"road","network":"lv:local","distance":"7.2 km"},"356109":{"ref":"V1118","name":"Auce — Lielauce","type":"route","route":"road","network":"lv:local","distance":"4.9 km"},"356161":{"ref":"V1123","name":"Jaunsesava — Penkules stacija","type":"route","route":"road","network":"lv:local","distance":"6.9 km"},"356165":{"ref":"V1140","name":"Jaunsesava — Ziedugravas","type":"route","route":"road","network":"lv:local","distance":"5.1 km"},"359007":{"ref":"V129","name":"Alkšņi — Lēdurga — Ausmas — Mārstagi","type":"route","route":"road","network":"lv:local","distance":"32.6 km"},"359023":{"ref":"V39","name":"Saulkrasti — Bīriņi","type":"route","route":"road","network":"lv:local","distance":"16.4 km"},"359043":{"ref":"P53","name":"Duči — Limbaži","type":"route","route":"road","network":"lv:regional","distance":"26.8 km","operator":"Latvijas Valsts ceļi"},"359055":{"ref":"V130","name":"Igate — Intes stacija — Ozoliņi","type":"route","route":"road","network":"lv:local","distance":"11.1 km"},"1001350":{"ref":"V1363","name":"Ārlava — Tiņģere — Plintiņi","type":"route","route":"road","network":"lv:local","distance":"17.1 km"},"1016259":{"ref":"V193","name":"Matīši — Bērzaine — Rubene","type":"route","route":"road","network":"lv:local","distance":"25.6 km"},"1629301":{"ref":"V330","name":"Dukuri — Rāmnieki","type":"route","route":"road","network":"lv:local","distance":"5.7 km"},"1648457":{"ref":"V1008","name":"Iecava — Emburga","type":"route","route":"road","network":"lv:local","distance":"12.8 km"},"1648458":{"ref":"V1009","name":"Ozolgaiļi — Zālītes stacija","type":"route","route":"road","network":"lv:local","distance":"4.9 km"},"1648462":{"ref":"V1011","name":"Pārslas — Misa — Šarlotes","type":"route","route":"road","network":"lv:local","distance":"12.9 km"},"1648463":{"ref":"V1012","name":"Zvirgzde — Misa — Dāviņi","type":"route","route":"road","network":"lv:local","distance":"20.1 km"},"1648464":{"ref":"V1015","name":"Nīzere — Dupšas","type":"route","route":"road","network":"lv:local","distance":"5.4 km"},"1648465":{"ref":"V1021","name":"Grenctāle — Tilti — Tunkūni","type":"route","route":"road","network":"lv:local","distance":"15.2 km"},"1648466":{"ref":"V1023","name":"Ķirši — Mežgaļu skola","type":"route","route":"road","network":"lv:local","distance":"4.3 km"},"1648467":{"ref":"V1024","name":"Jātnieki — Tunkūni","type":"route","route":"road","network":"lv:local","distance":"5.8 km"},"1648468":{"ref":"V1029","name":"Ziedoņi — Bērzi — Lībieši — Lietuvas robeža","type":"route","route":"road","network":"lv:local","distance":"18.9 km"},"1648469":{"ref":"V1037","name":"Lāči — Garoza — Dāliņi","type":"route","route":"road","network":"lv:local","distance":"6.5 km"},"1648471":{"ref":"V1045","name":"Zālīte — Akmenscūciņas","type":"route","route":"road","network":"lv:local","distance":"3.3 km"},"1648473":{"ref":"V1047","name":"Iecava — Lambārte","type":"route","route":"road","network":"lv:local","distance":"14.1 km"},"1648474":{"ref":"V1058","name":"Ērmiķi — Sidrabe — Tīsi","type":"route","route":"road","network":"lv:local","distance":"17.2 km"},"1648475":{"ref":"V1059","name":"Pūri — Bramberģe — Ginduļi","type":"route","route":"road","network":"lv:local","distance":"8.5 km"},"1648476":{"ref":"V1064","name":"Kalnciems — Līvbērze","type":"route","route":"road","network":"lv:local","distance":"15.5 km"},"1648477":{"ref":"V1065","name":"Tušķi — Kalnciems","type":"route","route":"road","network":"lv:local","distance":"17.3 km"},"1648478":{"ref":"V1066","name":"Dalbe — Lejasbēnūži","type":"route","route":"road","network":"lv:local","distance":"3.4 km"},"1648479":{"ref":"V1068","name":"Ozolnieki — Brankas — Brankstūri","type":"route","route":"road","network":"lv:local","distance":"7.0 km"},"1648480":{"ref":"V1073","name":"Eleja — Lielsesava","type":"route","route":"road","network":"lv:local","distance":"9.5 km"},"1648481":{"ref":"V1076","name":"Dorupe — Līvbērze","type":"route","route":"road","network":"lv:local","distance":"7.4 km"},"1648482":{"ref":"V1079","name":"Glūdas stacija — Zaļenieki","type":"route","route":"road","network":"lv:local","distance":"7.3 km"},"1648483":{"ref":"V1086","name":"Lielvircava — Oglaine — Zāģeri","type":"route","route":"road","network":"lv:local","distance":"6.0 km"},"1648485":{"ref":"V1104","name":"Lukstiņi — Dungas","type":"route","route":"road","network":"lv:local","distance":"4.4 km"},"1648486":{"ref":"V1105","name":"Krimūnu stacija — Šķibe","type":"route","route":"road","network":"lv:local","distance":"6.7 km"},"1648487":{"ref":"V1107","name":"Bukaiši — Lāči","type":"route","route":"road","network":"lv:local","distance":"9.9 km"},"1648488":{"ref":"V1112","name":"Tērvete — Penkule","type":"route","route":"road","network":"lv:local","distance":"12.2 km"},"1648489":{"ref":"V1113","name":"Bēne — Ukri","type":"route","route":"road","network":"lv:local","distance":"17.5 km"},"1648491":{"ref":"V1116","name":"Auce — Vadakste","type":"route","route":"road","network":"lv:local","distance":"13.9 km"},"1648492":{"ref":"V1117","name":"Auce — Ķevele","type":"route","route":"road","network":"lv:local","distance":"5.9 km"},"1648493":{"ref":"V1122","name":"Apguldes stacija — Bukaiši","type":"route","route":"road","network":"lv:local","distance":"15.7 km"},"1648494":{"ref":"V1124","name":"Naudīte — Apguldes mehanizatoru skola","type":"route","route":"road","network":"lv:local","distance":"6.1 km"},"1648496":{"ref":"V1126","name":"Dobele — Penkule","type":"route","route":"road","network":"lv:local","distance":"17.2 km"},"1648497":{"ref":"V1147","name":"Lutriņi — Kabile","type":"route","route":"road","network":"lv:local","distance":"24 km"},"1648498":{"ref":"V115","name":"Šķirstiņi — Āstere — Ludiņi","type":"route","route":"road","network":"lv:local","distance":"8.3 km"},"1648499":{"ref":"V1151","name":"Jaunauce — Kokmuiža","type":"route","route":"road","network":"lv:local","distance":"12.7 km"},"1648500":{"ref":"V1152","name":"Bērzi — Brocēnu stacija","type":"route","route":"road","network":"lv:local","distance":"6.5 km"},"1648501":{"ref":"V1156","name":"Brocēni — Imantas — Namiķi","type":"route","route":"road","network":"lv:local","distance":"8.0 km"},"1648502":{"ref":"V1158","name":"Saldus — Striķi","type":"route","route":"road","network":"lv:local","distance":"8.8 km"},"1648503":{"ref":"V1160","name":"Ezere — Vadakste","type":"route","route":"road","network":"lv:local","distance":"25.1 km"},"1648504":{"ref":"V1161","name":"Druvas — Lietuvas robeža","type":"route","route":"road","network":"lv:local","distance":"4.4 km"},"1648505":{"ref":"V1169","name":"Pampāļi — Lukas","type":"route","route":"road","network":"lv:local","distance":"9.3 km"},"1648506":{"ref":"V1186","name":"Labrags — Rīva — Sarkanvalks","type":"route","route":"road","network":"lv:local","distance":"17.4 km"},"1648507":{"ref":"V1188","name":"Liepāja — Šķēde — Ziemupe","type":"route","route":"road","network":"lv:local","distance":"25.8 km"},"1648508":{"ref":"V1190","name":"Vērgale — Ziemupe","type":"route","route":"road","network":"lv:local","distance":"6.1 km"},"1648509":{"ref":"V1192","name":"Apriķi — Cīrava — Medze","type":"route","route":"road","network":"lv:local","distance":"36.1"},"1648510":{"ref":"V1193","name":"Vēveri — Dunalka — Binderi","type":"route","route":"road","network":"lv:local","distance":"7.2 km"},"1648511":{"ref":"V1194","name":"Lankas — Cīrava — Turaidas","type":"route","route":"road","network":"lv:local","distance":"16.8 km"},"1648512":{"ref":"V1195","name":"Cīrava — Vecpils — Stroķi","type":"route","route":"road","network":"lv:local","distance":"22.5 km"},"1648514":{"ref":"V1199","name":"Aizpute — Saka","type":"route","route":"road","network":"lv:local","distance":"31.1 km"},"1648515":{"ref":"V12","name":"Jāņupe — Mežsētas — Zīles","type":"route","route":"road","network":"lv:local","distance":"8.4"},"1648516":{"ref":"V1201","name":"Aistere — Rāva — Avoti","type":"route","route":"road","network":"lv:local","distance":"10.6 km"},"1648517":{"ref":"V1202","name":"Durbe — Aistere","type":"route","route":"road","network":"lv:local","distance":"7.8"},"1648518":{"ref":"V1203","name":"Vecpils — Padone","type":"route","route":"road","network":"lv:local","distance":"4.4 km"},"1648519":{"ref":"V1204","name":"Durbe — Padone — Kugras","type":"route","route":"road","network":"lv:local","distance":"10.6 km"},"1648520":{"ref":"V1205","name":"Krote — Tadaiķi","type":"route","route":"road","network":"lv:local","distance":"8.9 km"},"1648521":{"ref":"V1206","name":"Durbe — Tadaiķi — Bunka — Priekule","type":"route","route":"road","network":"lv:local","distance":"22.7 km"},"1648522":{"ref":"V1207","name":"Tadaiķi — Māķi — Krisbergi","type":"route","route":"road","network":"lv:local","distance":"15. km"},"1648523":{"ref":"V1208","name":"Bunka — Paplaka — Mazkalēti","type":"route","route":"road","network":"lv:local","distance":"17. km"},"1648524":{"ref":"V1209","name":"Embūte — Vaiņode — Pavāri","type":"route","route":"road","network":"lv:local","distance":"14.7 km"},"1648525":{"ref":"V1210","name":"Priekule — Paplaka — Virga","type":"route","route":"road","network":"lv:local","distance":"14.3 km"},"1648526":{"ref":"V1211","name":"Priekule — Purmsāti — Kalēti","type":"route","route":"road","network":"lv:local","distance":"12.5 km"},"1648527":{"ref":"P135","name":"Priekule — Vaiņode","type":"route","route":"road","network":"lv:regional","distance":"19.9"},"1648528":{"ref":"V1214","name":"Aizvīķi — Gramzda","type":"route","route":"road","network":"lv:local","distance":"10.2"},"1648529":{"ref":"V1216","name":"Krogzemji — Purmsāti","type":"route","route":"road","network":"lv:local","distance":"7.0 km"},"1648530":{"ref":"V1217","name":"Ozoli — Kalēti","type":"route","route":"road","network":"lv:local","distance":"5.1 km"},"1648531":{"ref":"V1218","name":"Bārta — Kalēti — Gramzda","type":"route","route":"road","network":"lv:local","distance":"19.1 km"},"1648532":{"ref":"V1219","name":"Ječi — Bārta — Sedviņi","type":"route","route":"road","network":"lv:local","distance":"23.4 km"},"1648533":{"ref":"V1220","name":"Nīca — Ječi — Peši","type":"route","route":"road","network":"lv:local","distance":"18.5 km"},"1648534":{"ref":"V1221","name":"Rucava — Pape","type":"route","route":"road","network":"lv:local","distance":"11.2 km"},"1648535":{"ref":"V1222","name":"Nīca — Otaņķi — Grobiņa","type":"route","route":"road","network":"lv:local","distance":"25.9 km"},"1648536":{"ref":"V1225","name":"Gavieze — Gaviezes stacija","type":"route","route":"road","network":"lv:local","distance":"5.5 km"},"1648537":{"ref":"V1226","name":"Grobiņa — Tadaiķi","type":"route","route":"road","network":"lv:local","distance":"10.2 km"},"1648538":{"ref":"V1229","name":"Medze — Saraiķi","type":"route","route":"road","network":"lv:local","distance":"3.5 km"},"1648539":{"ref":"V1231","name":"Klampji — Jūrmalciems","type":"route","route":"road","network":"lv:local","distance":"7.7 km"},"1648540":{"ref":"V1250","name":"Ječi — Šuķene","type":"route","route":"road","network":"lv:local","distance":"7.3 km"},"1648541":{"ref":"V1264","name":"Adze — Gudenieki — Ēdole","type":"route","route":"road","network":"lv:local","distance":"19.7 km"},"1648542":{"ref":"V1265","name":"Basi — Apriķi","type":"route","route":"road","network":"lv:local","distance":"14.5 km"},"1648543":{"ref":"V1268","name":"Ēdole — Priedulāji","type":"route","route":"road","network":"lv:local","distance":"13.6 km"},"1648544":{"ref":"V1271","name":"Ēdole — Lēpices","type":"route","route":"road","network":"lv:local","distance":"5.9 km"},"1648545":{"ref":"V1277","name":"Lēnas — Alši","type":"route","route":"road","network":"lv:local","distance":"16.6 km"},"1648546":{"ref":"V1282","name":"Ēdole — Krauļi","type":"route","route":"road","network":"lv:local","distance":"6.7 km"},"1648547":{"ref":"V1284","name":"Renda — Āpas","type":"route","route":"road","network":"lv:local","distance":"14. km"},"1648548":{"ref":"V1288","name":"Ēdole — Liedikas","type":"route","route":"road","network":"lv:local","distance":"10.3 km"},"1648549":{"ref":"V1289","name":"Ķikuri — Alsunga","type":"route","route":"road","network":"lv:local","distance":"26.4 km"},"1648550":{"ref":"V1290","name":"Kuldīga — Basi","type":"route","route":"road","network":"lv:local","distance":"18.8 km"},"1648551":{"ref":"V1294","name":"Kurmāle — Ieras","type":"route","route":"road","network":"lv:local","distance":"16.3 km"},"1648552":{"ref":"V1296","name":"Snēpele — Kazdanga","type":"route","route":"road","network":"lv:local","distance":"19.9 km"},"1648553":{"ref":"V1297","name":"Kabile — Vārme","type":"route","route":"road","network":"lv:local","distance":"17"},"1648555":{"ref":"V131","name":"Bedrīši — Stienes stacija — Vidriži","type":"route","route":"road","network":"lv:local","distance":"12.8 km"},"1648556":{"ref":"V1323","name":"Sili — Ugāles dzirnavas — Smilši","type":"route","route":"road","network":"lv:local","distance":"8.2 km"},"1648557":{"ref":"V1324","name":"Usmas stacija — Usmas skola","type":"route","route":"road","network":"lv:local","distance":"5.2 km"},"1648558":{"ref":"V1325","name":"Usma — Amjūdze","type":"route","route":"road","network":"lv:local","distance":"14.4 km"},"1648559":{"ref":"V1330","name":"Kamārce — Gārzde — Zūru dzirnavas","type":"route","route":"road","network":"lv:local","distance":"9.9 km"},"1648560":{"ref":"V1332","name":"Pievedceļš Liepenei","type":"route","route":"road","network":"lv:local","distance":"1.7 km"},"1648561":{"ref":"V1333","name":"Pievedceļš Ovišiem","type":"route","route":"road","network":"lv:local","distance":"2.6 km"},"1648562":{"ref":"V1334","name":"Pievedceļš Lūžņai","type":"route","route":"road","network":"lv:local","distance":"3.9 km","operator":"Latvijas Valsts ceļi"},"1648564":{"ref":"V1337","name":"Eglāji — Muižnieki","type":"route","route":"road","network":"lv:local","distance":"9.2 km"},"1648565":{"ref":"V1343","name":"Dandzītes — Puzenieki","type":"route","route":"road","network":"lv:local","distance":"4.4 km"},"1648566":{"ref":"V1344","name":"Baloži — Puzenieki — Puzes stacija","type":"route","route":"road","network":"lv:local","distance":"8.8 km"},"1648567":{"ref":"V1345","name":"Ugāle — Zūru dzirnavas","type":"route","route":"road","network":"lv:local","distance":"18.9 km"},"1648568":{"ref":"V1351","name":"Ventava — Užava","type":"route","route":"road","network":"lv:local","distance":"8.3 km"},"1648569":{"ref":"V1353","name":"Kamārce — Elkšķene","type":"route","route":"road","network":"lv:local","distance":"3.0 km"},"1648570":{"ref":"V1365","name":"Cirstes — Ciemgaļi","type":"route","route":"road","network":"lv:local","distance":"7.5 km"},"1648571":{"ref":"V1367","name":"Dundaga — Ģipka","type":"route","route":"road","network":"lv:local","distance":"21.6 km"},"1648572":{"ref":"V1368","name":"Dundaga — Tinģere — Tiltiņi","type":"route","route":"road","network":"lv:local","distance":"23.7 km"},"1648573":{"ref":"V1371","name":"Ģibzde — Dundaga","type":"route","route":"road","network":"lv:local","distance":"12.3 km"},"1648574":{"ref":"V1372","name":"Jaunmuiža — Sīkrags","type":"route","route":"road","network":"lv:local","distance":"8.1 km"},"1648575":{"ref":"V1378","name":"Laidzes kultūras nams — Mežgravas","type":"route","route":"road","network":"lv:local","distance":"6.1 km"},"1648576":{"ref":"V1380","name":"Lībagi — Odre","type":"route","route":"road","network":"lv:local","distance":"6.7 km"},"1648577":{"ref":"V1381","name":"Mazirbe — Vīdale — Kaļķi","type":"route","route":"road","network":"lv:local","distance":"18.1 km"},"1648578":{"ref":"V1382","name":"Meļķi — Ostes — Neveja — Tierķi","type":"route","route":"road","network":"lv:local","distance":"18.8 km"},"1648579":{"ref":"V1384","name":"Spāres skola — Mordanga — Mazruņķi","type":"route","route":"road","network":"lv:local","distance":"14.6 km"},"1648580":{"ref":"V1388","name":"Pievedceļš Pitragam","type":"route","route":"road","network":"lv:local","distance":"1.3 km"},"1648581":{"ref":"V1389","name":"Pievedceļš Saunragam","type":"route","route":"road","network":"lv:local","distance":"1.6"},"1648582":{"ref":"V139","name":"Aloja — Stūri","type":"route","route":"road","network":"lv:local","distance":"3.0 km"},"1648583":{"ref":"V1391","name":"Pievedceļš Vaidei","type":"route","route":"road","network":"lv:local","distance":"1.1 km"},"1648584":{"ref":"V1397","name":"Sārcene — Lauciene — Sabiles stacija","type":"route","route":"road","network":"lv:local","distance":"25.3 km"},"1648585":{"ref":"V14","name":"Jaunmārupe — Skulte","type":"route","route":"road","network":"lv:local","distance":"7.1 km"},"1648586":{"ref":"V140","name":"Kalnāres — Viļķene — Šķirstiņi","type":"route","route":"road","network":"lv:local","distance":"15. km"},"1648587":{"ref":"V1403","name":"Sukturi — Ozolkrogs","type":"route","route":"road","network":"lv:local","distance":"2.0 km"},"1648588":{"ref":"V1405","name":"Talsi — Lībagi","type":"route","route":"road","network":"lv:local","distance":"7.8 km"},"1648589":{"ref":"V1413","name":"Valdgale — Šķēde","type":"route","route":"road","network":"lv:local","distance":"10.1 km"},"1648590":{"ref":"V1447","name":"Cēres apvedceļš","type":"route","route":"road","network":"lv:local","distance":"4.8 km"},"1648591":{"ref":"V146","name":"Pāle — Pociems","type":"route","route":"road","network":"lv:local","distance":"20.3 km"},"1648592":{"ref":"V15","name":"Rīgas robeža — Silnieki — Puķulejas","type":"route","route":"road","network":"lv:local","distance":"5.8 km"},"1648593":{"ref":"V152","name":"Pievedceļš Korģenei","type":"route","route":"road","network":"lv:local","distance":"2.3 km"},"1648594":{"ref":"V16","name":"K. Ulmaņa gatve — Silnieki","type":"route","route":"road","network":"lv:local","distance":"1.5 km"},"1648595":{"ref":"V163","name":"Mazsalaca — Staicele","type":"route","route":"road","network":"lv:local","distance":"25.4 km"},"1648596":{"ref":"V167","name":"Mazsalaca — Sēļi","type":"route","route":"road","network":"lv:local","distance":"10.8 km"},"1648597":{"ref":"V169","name":"Austrumi — Vecate — Rimeikas","type":"route","route":"road","network":"lv:local","distance":"11.2 km"},"1648598":{"ref":"V171","name":"Krogzemji — Sēļi — Rūjiena","type":"route","route":"road","network":"lv:local","distance":"25.8 km"},"1648599":{"ref":"V177","name":"Ķoņi — Lode — Arakste","type":"route","route":"road","network":"lv:local","distance":"10.2 km"},"1648600":{"ref":"V179","name":"Naukšēni — Apsītes","type":"route","route":"road","network":"lv:local","distance":"5.4 km"},"1648601":{"ref":"V182","name":"Cempi — Brenguļi — Trikāta — Vijciems","type":"route","route":"road","network":"lv:local","distance":"33.4 km"},"1648602":{"ref":"V183","name":"Rauna — Mārsnēni — Ķerves","type":"route","route":"road","network":"lv:local","distance":"20. km"},"1648603":{"ref":"V186","name":"Valmiera — Līdums","type":"route","route":"road","network":"lv:local","distance":"19.5 km"},"1648605":{"ref":"V188","name":"Dūķeri — Kocēni — Ķiene","type":"route","route":"road","network":"lv:local","distance":"23.7 km"},"1648606":{"ref":"V196","name":"Valmiera — Brenguļi — Bikseja","type":"route","route":"road","network":"lv:local","distance":"20.9 km"},"1648607":{"ref":"V207","name":"Eniņi — Silzemnieki","type":"route","route":"road","network":"lv:local","distance":"3.7 km"},"1648608":{"ref":"V208","name":"Sveipeles — Krogzemji — Dūres","type":"route","route":"road","network":"lv:local","distance":"3.7 km"},"1648609":{"ref":"V209","name":"Burtnieki — Zvārtes","type":"route","route":"road","network":"lv:local","distance":"2.8 km"},"1648610":{"ref":"V210","name":"Jēči — Lūķi — Buka","type":"route","route":"road","network":"lv:local","distance":"7.7 km"},"1648611":{"ref":"V229","name":"Vecbilska — Cirgaļi","type":"route","route":"road","network":"lv:local","distance":"20.5 km"},"1648612":{"ref":"V231","name":"Rencēni — Burtnieki — Daksti — Veckārķi","type":"route","route":"road","network":"lv:local","distance":"38.9 km"},"1648613":{"ref":"V232","name":"Daksti — Jērcēni — Rami","type":"route","route":"road","network":"lv:local","distance":"22. km"},"1648614":{"ref":"V233","name":"Slāži — Trikāta — Miega","type":"route","route":"road","network":"lv:local","distance":"17.2 km"},"1648615":{"ref":"V234","name":"Smiltene — Rauna","type":"route","route":"road","network":"lv:local","distance":"22.4 km"},"1648616":{"ref":"V235","name":"Lembis — Drusti — Vecpiebalga","type":"route","route":"road","network":"lv:local","distance":"46.7 km"},"1648617":{"ref":"V238","name":"Strenči — Jērcēni — Ēvele — Ķemere","type":"route","route":"road","network":"lv:local","distance":"19.1 km"},"1648618":{"ref":"V240","name":"Slāži — Vijciems — Mežmuiža","type":"route","route":"road","network":"lv:local","distance":"19.9 km"},"1648619":{"ref":"V241","name":"Vadži — Trikāta","type":"route","route":"road","network":"lv:local","distance":"8.8 km"},"1648620":{"ref":"V242","name":"Raudiņa — Višķi","type":"route","route":"road","network":"lv:local","distance":"10.1 km"},"1648621":{"ref":"V243","name":"Blome — Birzuļi — Palsmane","type":"route","route":"road","network":"lv:local","distance":"29.1 km"},"1648622":{"ref":"V244","name":"Smiltene — Mēri — Lobērģi","type":"route","route":"road","network":"lv:local","distance":"24.7 km"},"1648623":{"ref":"V247","name":"Mēri — Grundzāle — Vizla","type":"route","route":"road","network":"lv:local","distance":"17.8 km"},"1648624":{"ref":"V248","name":"Cirgaļi — Palsmane — Ūdrupe","type":"route","route":"road","network":"lv:local","distance":"34"},"1648625":{"ref":"V251","name":"Branti — Pieniņi — Launkalne","type":"route","route":"road","network":"lv:local","distance":"13.5 km"},"1648626":{"ref":"V252","name":"Smiltene — Rauziņa","type":"route","route":"road","network":"lv:local","distance":"10.1 km"},"1648627":{"ref":"V254","name":"Vidaga — Grošļi — Krustakmens","type":"route","route":"road","network":"lv:local","distance":"15.5 km"},"1648628":{"ref":"V26","name":"Rīgas HES — Dole","type":"route","route":"road","network":"lv:local","distance":"2.7 km"},"1648629":{"ref":"V261","name":"Lipši — Spicrāmis","type":"route","route":"road","network":"lv:local","distance":"12.8 km"},"1648630":{"ref":"V262","name":"Trikāta — Kaupi","type":"route","route":"road","network":"lv:local","distance":"5.6 km"},"1648631":{"ref":"V267","name":"Ķieģeļceplis — Lizdole","type":"route","route":"road","network":"lv:local","distance":"7.6 km"},"1648632":{"ref":"V268","name":"Ķeņģi — Variņi — Rudbārži","type":"route","route":"road","network":"lv:local","distance":"12.6 km"},"1648633":{"ref":"V27","name":"Misas tilts — Dzērumi","type":"route","route":"road","network":"lv:local","distance":"5.5 km"},"1648634":{"ref":"V280","name":"Unguri — Lielstraupe — Brasla","type":"route","route":"road","network":"lv:local","distance":"12.4 km"},"1648635":{"ref":"V282","name":"Līgatnes stacija — Vildoga","type":"route","route":"road","network":"lv:local","distance":"4.3 km"},"1648636":{"ref":"V283","name":"Mūrnieki — Līgatne — Augšlīgatne","type":"route","route":"road","network":"lv:local","distance":"22.4 km"},"1648637":{"ref":"V284","name":"Līgatne — Asaru ezers — Nītaure","type":"route","route":"road","network":"lv:local","distance":"26.2 km"},"1648638":{"ref":"V285","name":"Raiskums — Jātnieki — Līgatne","type":"route","route":"road","network":"lv:local","distance":"10.8 km"},"1648639":{"ref":"V286","name":"Kūdums — Daibe — Pīpeņi","type":"route","route":"road","network":"lv:local","distance":"13.4 km"},"1648640":{"ref":"V287","name":"Cēsis — Raiskums — Auciems","type":"route","route":"road","network":"lv:local","distance":"7.6 km"},"1648641":{"ref":"V288","name":"Auciems — Miglači — Ķiene","type":"route","route":"road","network":"lv:local","distance":"13.1 km"},"1648642":{"ref":"V291","name":"Cēsis — Kārļi — Ieriķi","type":"route","route":"road","network":"lv:local","distance":"13.2 km"},"1648643":{"ref":"V293","name":"Drabeši — Līvi","type":"route","route":"road","network":"lv:local","distance":"3.0 km"},"1648644":{"ref":"V294","name":"Cēsis — Rāmuļi — Bānūži","type":"route","route":"road","network":"lv:local","distance":"27.2 km"},"1648645":{"ref":"V296","name":"Lodes stacija — Jaunrauna — Veselava","type":"route","route":"road","network":"lv:local","distance":"14.1 km"},"1648646":{"ref":"V299","name":"Rauna — Taurene — Abrupe","type":"route","route":"road","network":"lv:local","distance":"40.6 km"},"1648647":{"ref":"V300","name":"Drusti — Dzērbene — Skujene","type":"route","route":"road","network":"lv:local","distance":"30.9 km"},"1648648":{"ref":"V301","name":"Jaunzemji — Rēveļi — Ranka","type":"route","route":"road","network":"lv:local","distance":"13.9 km"},"1648649":{"ref":"V302","name":"Jaunpiebalga — Pērle","type":"route","route":"road","network":"lv:local","distance":"15.1 km"},"1648650":{"ref":"V303","name":"Abrupe — Jēči — Gatarta","type":"route","route":"road","network":"lv:local","distance":"10.2 km"},"1648651":{"ref":"V304","name":"Drustu stacija — Zosēni","type":"route","route":"road","network":"lv:local","distance":"8.4 km"},"1648652":{"ref":"V305","name":"Vecpiebalga — Ineši","type":"route","route":"road","network":"lv:local","distance":"3.2 km","operator":"Latvijas Valsts ceļi","wikidata":"Q20573345","wikipedia":"lv:Autoceļš V305"},"1648653":{"ref":"V307","name":"Vecpiebalga — Skujene","type":"route","route":"road","network":"lv:local","distance":"20. km","operator":"Latvijas Valsts ceļi","wikipedia":"lv:Autoceļš V307"},"1648654":{"ref":"V308","name":"Ineši — Mūrnieki","type":"route","route":"road","network":"lv:local","distance":"5.8 km"},"1648655":{"ref":"V309","name":"Katrīna — Leimaņi — Kaive — Aprāni","type":"route","route":"road","network":"lv:local","distance":"26.1 km"},"1648656":{"ref":"V310","name":"Dzērbene — Zvirguļi","type":"route","route":"road","network":"lv:local","distance":"3.8 km"},"1648657":{"ref":"V311","name":"Bikši — Annas — Kliģene — Medņukalns","type":"route","route":"road","network":"lv:local","distance":"21.4 km"},"1648658":{"ref":"V314","name":"Zaube — Taurupe","type":"route","route":"road","network":"lv:local","distance":"14.2 km"},"1648659":{"ref":"V315","name":"Ieriķi — Ģikši","type":"route","route":"road","network":"lv:local","distance":"12.3 km"},"1648660":{"ref":"V318","name":"Eglaine — More","type":"route","route":"road","network":"lv:local","distance":"3.0 km"},"1648661":{"ref":"V319","name":"Peļņi — More","type":"route","route":"road","network":"lv:local","distance":"5.6 km"},"1648699":{"ref":"V325","name":"Dzērbene — Gaujaskrogs","type":"route","route":"road","network":"lv:local","distance":"8.9 km"},"1648701":{"ref":"V329","name":"Krustkalni — Zvārtas iezis","type":"route","route":"road","network":"lv:local","distance":"2.0 km"},"1648703":{"ref":"V334","name":"Kleķeri — Spanderi","type":"route","route":"road","network":"lv:local","distance":"5.0 km"},"1648704":{"ref":"V337","name":"Dūķi — Milakšas — Briņģi","type":"route","route":"road","network":"lv:local","distance":"9.6 km"},"1648705":{"ref":"V338","name":"Jaunpiebalga — Jēči","type":"route","route":"road","network":"lv:local","distance":"7.6 km"},"1648706":{"ref":"V342","name":"Kūlas — Meirāni — Smetes","type":"route","route":"road","network":"lv:local","distance":"5.6 km"},"1648707":{"ref":"V344","name":"Spuldzēni — Nāgeles","type":"route","route":"road","network":"lv:local","distance":"3.7 km"},"1648708":{"ref":"V345","name":"Lūķēni — Nāgeles","type":"route","route":"road","network":"lv:local","distance":"4.3 km"},"1648709":{"ref":"V355","name":"Rauna — Vidzemes šoseja","type":"route","route":"road","network":"lv:local","distance":"1.6 km"},"1648710":{"ref":"V368","name":"Zvārtava — Vireši","type":"route","route":"road","network":"lv:local","distance":"11.1"},"1648711":{"ref":"V371","name":"Vireši — Dūre — Lejasciems","type":"route","route":"road","network":"lv:local","distance":"27.7 km"},"1648712":{"ref":"V373","name":"Gaujiena — Verasskola","type":"route","route":"road","network":"lv:local","distance":"5.1 km"},"1648713":{"ref":"V376","name":"Ape — Ādams","type":"route","route":"road","network":"lv:local","distance":"10.5 km"},"1648714":{"ref":"V383","name":"Lucka — Alūksne","type":"route","route":"road","network":"lv:local","distance":"17. km"},"1648715":{"ref":"V384","name":"Ziemeri — Alsviķi","type":"route","route":"road","network":"lv:local","distance":"14.6 km"},"1648716":{"ref":"V385","name":"Kaktiņi — Sauleskalns","type":"route","route":"road","network":"lv:local","distance":"7.4 km"},"1648717":{"ref":"V386","name":"Alūksne — Ziemeri — Veclaicene","type":"route","route":"road","network":"lv:local","distance":"17.7 km"},"1648718":{"ref":"V387","name":"Tūja — Kantorkrogs","type":"route","route":"road","network":"lv:local","distance":"10.5 km"},"1648719":{"ref":"V388","name":"Alūksne — Kalniena — Gulbene","type":"route","route":"road","network":"lv:local","distance":"38"},"1648720":{"ref":"V389","name":"Lāzberģis — Šļukums","type":"route","route":"road","network":"lv:local","distance":"6.6 km"},"1648721":{"ref":"V390","name":"Kolberģis — Ponkuļi","type":"route","route":"road","network":"lv:local","distance":"18.8 km"},"1648722":{"ref":"V395","name":"Jaunanna — Anna","type":"route","route":"road","network":"lv:local","distance":"7.5 km"},"1648723":{"ref":"V396","name":"Vētraine — Maliena — Kalncempji — Sprīvuļi","type":"route","route":"road","network":"lv:local","distance":"37.4 km"},"1648724":{"ref":"V398","name":"Ķūderi — Jaunanna","type":"route","route":"road","network":"lv:local","distance":"11.3 km"},"1648725":{"ref":"V399","name":"Mālupe — Beja — Karitāni","type":"route","route":"road","network":"lv:local","distance":"13"},"1648726":{"ref":"V4","name":"Baldone — Tome","type":"route","route":"road","network":"lv:local","distance":"16.7 km"},"1648727":{"ref":"V410","name":"Gulbene — Zeltiņi","type":"route","route":"road","network":"lv:local","distance":"22.7 km"},"1648728":{"ref":"V411","name":"Velēna — Vireši","type":"route","route":"road","network":"lv:local","distance":"30.6 km"},"1648729":{"ref":"V412","name":"Ķeņģi — Jaunpiebalga","type":"route","route":"road","network":"lv:local","distance":"21.3 km"},"1648730":{"ref":"V413","name":"Sinole — Tirzas stacija","type":"route","route":"road","network":"lv:local","distance":"9.1 km"},"1648731":{"ref":"V414","name":"Sinole — Mālmuiža","type":"route","route":"road","network":"lv:local","distance":"7.7 km"},"1648732":{"ref":"V415","name":"Lejasciems — Māli","type":"route","route":"road","network":"lv:local","distance":"5.8 km"},"1648734":{"ref":"V418","name":"Ozolkalns — Galgauska","type":"route","route":"road","network":"lv:local","distance":"12.4 km"},"1648736":{"ref":"V420","name":"Stāmeriena — Pļavnieki — Zeltaleja","type":"route","route":"road","network":"lv:local","distance":"19.1 km"},"1648737":{"ref":"V424","name":"Gulbene — Jaungulbene","type":"route","route":"road","network":"lv:local","distance":"15.2 km"},"1648738":{"ref":"V427","name":"Anķupene — Daukste — Līgo","type":"route","route":"road","network":"lv:local","distance":"22.7 km"},"1648740":{"ref":"V430","name":"Tirza — Jaungulbene — Liede","type":"route","route":"road","network":"lv:local","distance":"29.4 km"},"1648741":{"ref":"V433","name":"Druviena — Lizums","type":"route","route":"road","network":"lv:local","distance":"10.4 km"},"1648742":{"ref":"V436","name":"Ranka — Tirza","type":"route","route":"road","network":"lv:local","distance":"13.4 km"},"1648743":{"ref":"V437","name":"Ranka — Druviena","type":"route","route":"road","network":"lv:local","distance":"15.2 km"},"1648744":{"ref":"V454","name":"Pērkoņi — Vīksna — Mālupe","type":"route","route":"road","network":"lv:local","distance":"25.1 km"},"1648745":{"ref":"V455","name":"Viļaka — Žīguri — Liepna","type":"route","route":"road","network":"lv:local","distance":"28.2 km"},"1648746":{"ref":"V456","name":"Vīksna — Gobusala","type":"route","route":"road","network":"lv:local","distance":"5.7 km"},"1648747":{"ref":"V457","name":"Viļaka — Borisova — Bubņi","type":"route","route":"road","network":"lv:local","distance":"16.9 km"},"1648749":{"ref":"V459","name":"Pleševa — Čilipīne — Kudreva","type":"route","route":"road","network":"lv:local","distance":"7.9 km"},"1648750":{"ref":"V46","name":"Ādaži — Garkalne","type":"route","route":"road","network":"lv:local","distance":"11.5 km"},"1648751":{"ref":"V460","name":"Tilža — Baltinava","type":"route","route":"road","network":"lv:local","distance":"19. km"},"1648752":{"ref":"V466","name":"Balvi — Teteri — Upatnieki","type":"route","route":"road","network":"lv:local","distance":"20.7 km"},"1648753":{"ref":"V468","name":"Briežciems — Baltinava","type":"route","route":"road","network":"lv:local","distance":"3.4 km"},"1648754":{"ref":"V47","name":"Baltezers — Ataru ezers","type":"route","route":"road","network":"lv:local","distance":"3.7 km"},"1648755":{"ref":"V472","name":"Vīksna — Kuprava","type":"route","route":"road","network":"lv:local","distance":"10.5 km"},"1648756":{"ref":"V473","name":"Žīguri — Silaciems — Katleši","type":"route","route":"road","network":"lv:local","distance":"12.8 km"},"1648757":{"ref":"V475","name":"Vecumi — Borisova","type":"route","route":"road","network":"lv:local","distance":"2.6 km"},"1648758":{"ref":"V476","name":"Viļaka — Lugi","type":"route","route":"road","network":"lv:local","distance":"4.5 km"},"1648759":{"ref":"V478","name":"Upītes — Demerova","type":"route","route":"road","network":"lv:local","distance":"7.6 km"},"1648760":{"ref":"V479","name":"Baltinava — Punduri","type":"route","route":"road","network":"lv:local","distance":"5.5 km"},"1648761":{"ref":"V48","name":"Baltezers — Jaunkūlas","type":"route","route":"road","network":"lv:local","distance":"0.8 km"},"1648762":{"ref":"V486","name":"Pievedceļš Tilžai","type":"route","route":"road","network":"lv:local","distance":"2.4 km"},"1648763":{"ref":"V488","name":"Rugāji — Ranguči","type":"route","route":"road","network":"lv:local","distance":"15"},"1648764":{"ref":"V489","name":"Tilža — Bērzpils","type":"route","route":"road","network":"lv:local","distance":"20.5 km"},"1648765":{"ref":"V49","name":"Garkalne — Ošlauki","type":"route","route":"road","network":"lv:local","distance":"3.4 km"},"1648766":{"ref":"V490","name":"Balvi — Kuprava","type":"route","route":"road","network":"lv:local","distance":"19.5 km"},"1648767":{"ref":"V491","name":"Viļaka — Vecumi","type":"route","route":"road","network":"lv:local","distance":"8.3 km"},"1648768":{"ref":"V5","name":"Piebalgas — Dzelzāmurs — Rātstraute","type":"route","route":"road","network":"lv:local","distance":"7.6 km"},"1648769":{"ref":"V50","name":"Baltezers — Āņi — Lapmeži","type":"route","route":"road","network":"lv:local","distance":"11.4 km"},"1648771":{"ref":"V522","name":"Vecsloboda — Rundēni — Zeiļeva","type":"route","route":"road","network":"lv:local","distance":"19.2 km"},"1648772":{"ref":"V524","name":"Ņukši — Rosica","type":"route","route":"road","network":"lv:local","distance":"10.5 km"},"1648773":{"ref":"V526","name":"Ludza — Auziņi — Stoļerova","type":"route","route":"road","network":"lv:local","distance":"16.3 km"},"1648774":{"ref":"V544","name":"Nirza-Lauderi","type":"route","route":"road","network":"lv:local","distance":"36.7 km"},"1648775":{"ref":"V545","name":"Vecslabada — Šķaune","type":"route","route":"road","network":"lv:local","distance":"13"},"1648776":{"ref":"V552","name":"Ciskādi — Dricēni","type":"route","route":"road","network":"lv:local","distance":"19.5 km"},"1648777":{"ref":"V553","name":"Tiskādi — Kruki — Riebiņi","type":"route","route":"road","network":"lv:local","distance":"19.2 km"},"1648778":{"ref":"V554","name":"Dekšāre — Varakļānu stacija","type":"route","route":"road","network":"lv:local","distance":"2.9 km"},"1648779":{"ref":"V556","name":"Dziļāri — Gaigalava — Darvaskalns","type":"route","route":"road","network":"lv:local","distance":"10.3 km"},"1648780":{"ref":"V560","name":"Gaigalava — Kvāpāni — Degumnieki","type":"route","route":"road","network":"lv:local","distance":"20.4 km"},"1648781":{"ref":"V561","name":"Gaigalava — Viļāni","type":"route","route":"road","network":"lv:local","distance":"23.7 km"},"1648782":{"ref":"V565","name":"Kantinieki — Kaulači","type":"route","route":"road","network":"lv:local","distance":"6.6 km"},"1648783":{"ref":"V566","name":"Kaunata — Rundēni","type":"route","route":"road","network":"lv:local","distance":"19.4 km"},"1648784":{"ref":"V568","name":"Lipušķi — Rukmaņi","type":"route","route":"road","network":"lv:local","distance":"4.1 km"},"1648785":{"ref":"V569","name":"Malta — Lazareva — Priežmale","type":"route","route":"road","network":"lv:local","distance":"25.2 km"},"1648786":{"ref":"V570","name":"Malta — Silajāņi","type":"route","route":"road","network":"lv:local","distance":"13.8 km"},"1648787":{"ref":"V572","name":"Murāni — Mortišķi — Denelišķi","type":"route","route":"road","network":"lv:local","distance":"9.6 km"},"1648788":{"ref":"V577","name":"Puša — Krāce — Silajāņi — Riebiņi","type":"route","route":"road","network":"lv:local","distance":"32.7 km"},"1648789":{"ref":"V58","name":"Sigulda — Allaži — Ausmas","type":"route","route":"road","network":"lv:local","distance":"14.7 km"},"1648790":{"ref":"V580","name":"Rēzekne — Ciskādi — Ružina","type":"route","route":"road","network":"lv:local","distance":"21.5 km"},"1648791":{"ref":"V582","name":"Silmala — Kruki","type":"route","route":"road","network":"lv:local","distance":"7.7 km"},"1648792":{"ref":"V584","name":"Silmala — Štikāni — Saveļi","type":"route","route":"road","network":"lv:local","distance":"9.9 km"},"1648793":{"ref":"V588","name":"Subinaite — Pērtnieki — Dūņukrogs","type":"route","route":"road","network":"lv:local","distance":"4.9 km"},"1648795":{"ref":"V592","name":"Varakļāni — Nagļi — Žogoti","type":"route","route":"road","network":"lv:local","distance":"20.4"},"1648796":{"ref":"V594","name":"Viļāni — Guriliški — Mortišķi","type":"route","route":"road","network":"lv:local","distance":"14.1 km"},"1648797":{"ref":"V595","name":"Viļāni — Maltas Trūpi — Lomi","type":"route","route":"road","network":"lv:local","distance":"14.2 km"},"1648798":{"ref":"V596","name":"Viļāni — Pilskalns — Nagļi","type":"route","route":"road","network":"lv:local","distance":"13.1 km"},"1648799":{"ref":"V597","name":"Priežmale — Puša","type":"route","route":"road","network":"lv:local","distance":"9.0 km"},"1648800":{"ref":"V598","name":"Zabolotje — Maltas Trūpi","type":"route","route":"road","network":"lv:local","distance":"5.9 km"},"1648801":{"ref":"V599","name":"Zosna — Puša","type":"route","route":"road","network":"lv:local","distance":"15.9 km"},"1648802":{"ref":"V6","name":"Ķekava — Plakanciems","type":"route","route":"road","network":"lv:local","distance":"11.9 km"},"1648803":{"ref":"V606","name":"Dagda — Asūne — Vorzova","type":"route","route":"road","network":"lv:local","distance":"24.2 km"},"1648804":{"ref":"V607","name":"Zamševiki — Timaņi — Zirgi","type":"route","route":"road","network":"lv:local","distance":"20.8 km"},"1648805":{"ref":"V608","name":"Ezernieki — Patmalnieki","type":"route","route":"road","network":"lv:local","distance":"6.8 km"},"1648806":{"ref":"V609","name":"Sloboda — Rudišķi — Zelenpole — Šļakoti","type":"route","route":"road","network":"lv:local","distance":"14.4 km"},"1648807":{"ref":"V610","name":"Mariampole — Jaunokra — Grāveri","type":"route","route":"road","network":"lv:local","distance":"22"},"1648808":{"ref":"V611","name":"Ogureckaja — Strodi — Auleja","type":"route","route":"road","network":"lv:local","distance":"14.1 km"},"1648809":{"ref":"V612","name":"Konstantinova — Ignatova — Andiņi","type":"route","route":"road","network":"lv:local","distance":"11.3 km"},"1648810":{"ref":"V613","name":"Vecokra — Ignatova","type":"route","route":"road","network":"lv:local","distance":"7.9 km"},"1648811":{"ref":"V614","name":"Kromāni — Auleja — Rogeļi","type":"route","route":"road","network":"lv:local","distance":"23.8 km"},"1648812":{"ref":"V615","name":"Andrupene — Kondraši","type":"route","route":"road","network":"lv:local","distance":"9.5 km"},"1648813":{"ref":"V616","name":"Dagda — Andzeļi — Ezernieki","type":"route","route":"road","network":"lv:local","distance":"18"},"1648814":{"ref":"V617","name":"Pievedceļš Ezernieku tūristu bāzei","type":"route","route":"road","network":"lv:local","distance":"1.0 km"},"1648815":{"ref":"V618","name":"Ezernieki — Svariņi — Šķaune","type":"route","route":"road","network":"lv:local","distance":"29.4 km"},"1648816":{"ref":"V619","name":"Dagda — Pauļukalns","type":"route","route":"road","network":"lv:local","distance":"19.2 km"},"1648817":{"ref":"V620","name":"Asūne — Panova","type":"route","route":"road","network":"lv:local","distance":"14.9 km"},"1648818":{"ref":"V621","name":"Asūne — L. Grizāni — Porečje","type":"route","route":"road","network":"lv:local","distance":"20.8 km"},"1648819":{"ref":"V623","name":"M. Asūne — Robežnieki","type":"route","route":"road","network":"lv:local","distance":"6.5 km"},"1648820":{"ref":"V626","name":"Robežnieki — Veceļi","type":"route","route":"road","network":"lv:local","distance":"15.1 km"},"1648821":{"ref":"V627","name":"Robežnieki — Murovanka — Slobodka","type":"route","route":"road","network":"lv:local","distance":"23.9 km"},"1648822":{"ref":"V628","name":"Piedruja — Indra — Robežnieki — Nauļāni — Asūne","type":"route","route":"road","network":"lv:local","distance":"32.3 km"},"1648824":{"ref":"V632","name":"Konstantinova — Skaista","type":"route","route":"road","network":"lv:local","distance":"13.7 km"},"1648825":{"ref":"V633","name":"Krāslava — Varnaviči — Robeždaugava","type":"route","route":"road","network":"lv:local","distance":"18.3 km"},"1648826":{"ref":"V635","name":"Borovka — Tartaki","type":"route","route":"road","network":"lv:local","distance":"4.3 km"},"1648827":{"ref":"V636","name":"Krāslava — Izvalta — Šķeltova — Aglona","type":"route","route":"road","network":"lv:local","distance":"31.5 km"},"1648828":{"ref":"V637","name":"Izvalta — Naujenes stacija — Krīvāni","type":"route","route":"road","network":"lv:local","distance":"24.5 km"},"1648829":{"ref":"V638","name":"Izvalta — Kombuļi","type":"route","route":"road","network":"lv:local","distance":"10.3 km"},"1648830":{"ref":"V640","name":"Dzalbi — Vanagi","type":"route","route":"road","network":"lv:local","distance":"3.8"},"1648831":{"ref":"V641","name":"Peipiņi — Prusaki — Grāveri","type":"route","route":"road","network":"lv:local","distance":"8.1 km"},"1648832":{"ref":"V642","name":"Kombuļi — Auleja","type":"route","route":"road","network":"lv:local","distance":"11.7 km"},"1648833":{"ref":"V643","name":"Veceļi — Baltiņi","type":"route","route":"road","network":"lv:local","distance":"10.4 km"},"1648834":{"ref":"V645","name":"Priežmale — Butkāni","type":"route","route":"road","network":"lv:local","distance":"7.6 km"},"1648835":{"ref":"V646","name":"Jaunokra — Zundi","type":"route","route":"road","network":"lv:local","distance":"8.7 km"},"1648836":{"ref":"V649","name":"Vaivodi — Egļeva","type":"route","route":"road","network":"lv:local","distance":"6.0 km"},"1648838":{"ref":"V654","name":"Romulišķi — Kazinči","type":"route","route":"road","network":"lv:local","distance":"3.1 km"},"1648839":{"ref":"V657","name":"Skaistas stacija — Šakiņi","type":"route","route":"road","network":"lv:local","distance":"4.7 km"},"1648840":{"ref":"V66","name":"Sidgunda — Ropaži","type":"route","route":"road","network":"lv:local","distance":"21.3 km"},"1648841":{"ref":"V660","name":"Izvalta — Borovka","type":"route","route":"road","network":"lv:local","distance":"5.8 km"},"1648842":{"ref":"V661","name":"Krāslavas stacija — Ļudvikova","type":"route","route":"road","network":"lv:local","distance":"9.0 km"},"1648843":{"ref":"V673","name":"Daugavpils — Elerne — Lielborne","type":"route","route":"road","network":"lv:local","distance":"30"},"1648844":{"ref":"V676","name":"Vasiļova — Višķi — Grāveri","type":"route","route":"road","network":"lv:local","distance":"29.7 km"},"1648845":{"ref":"V678","name":"Līksna — Kalupe — Upmala — Rožupe","type":"route","route":"road","network":"lv:local","distance":"48.6 km"},"1648846":{"ref":"V68","name":"Dāvidi — Zaķumuiža — Bajārkrogs","type":"route","route":"road","network":"lv:local","distance":"10.8 km"},"1648847":{"ref":"V682","name":"Špoģi — Arendole — Upmala — Sīļi","type":"route","route":"road","network":"lv:local","distance":"41.4 km"},"1648848":{"ref":"V686","name":"Naujenes skola — Maļinova","type":"route","route":"road","network":"lv:local","distance":"7.4 km"},"1648849":{"ref":"V711","name":"Ilūkste — Rubanišķi — Daugavpils","type":"route","route":"road","network":"lv:local","distance":"17.9 km"},"1648850":{"ref":"V723","name":"Spivanišķi — Demene — Lietuvas robeža","type":"route","route":"road","network":"lv:local","distance":"11.1 km"},"1648851":{"ref":"V73","name":"Sidgunda — Vite — Kniediņi","type":"route","route":"road","network":"lv:local","distance":"14.3 km"},"1648852":{"ref":"V735","name":"Stabulnieki — Sīļukalns — Varakļāni","type":"route","route":"road","network":"lv:local","distance":"28. km"},"1648853":{"ref":"V736","name":"Priekuļi — Jezufinova","type":"route","route":"road","network":"lv:local","distance":"5.1 km"},"1648854":{"ref":"V738","name":"Pieniņi — Smelteri","type":"route","route":"road","network":"lv:local","distance":"7.5 km"},"1648855":{"ref":"V739","name":"Galēni — Sīļukalns — Stirniene","type":"route","route":"road","network":"lv:local","distance":"13.3 km"},"1648856":{"ref":"V740","name":"Zeimuļi — Lomi — Riebiņi","type":"route","route":"road","network":"lv:local","distance":"17.1 km"},"1648857":{"ref":"V741","name":"Preiļu apvedceļš","type":"route","route":"road","network":"lv:local","distance":"2.9 km"},"1648858":{"ref":"V742","name":"Preiļi — Gailīši — Krāces stacija","type":"route","route":"road","network":"lv:local","distance":"20.5 km"},"1648859":{"ref":"V748","name":"Pelēči — Aizkalne — Korsikova","type":"route","route":"road","network":"lv:local","distance":"13.1 km"},"1648860":{"ref":"V75","name":"Ropaži — Griķukrogs","type":"route","route":"road","network":"lv:local","distance":"16.1 km"},"1648861":{"ref":"V751","name":"Upmala — Ančkini — Pieniņi — Kausa","type":"route","route":"road","network":"lv:local","distance":"29.1 km"},"1648862":{"ref":"V752","name":"Preiļi — Raunieši — Rožupe","type":"route","route":"road","network":"lv:local","distance":"24.1 km"},"1648863":{"ref":"V755","name":"Turki — Mežāre","type":"route","route":"road","network":"lv:local","distance":"10.4 km"},"1648864":{"ref":"V761","name":"Rožupe — Rudzēti — Varakļāni","type":"route","route":"road","network":"lv:local","distance":"37.8 km"},"1648866":{"ref":"V781","name":"Jaunāmuiža — Ratītes — Mežāre","type":"route","route":"road","network":"lv:local","distance":"27.4 km"},"1648867":{"ref":"V782","name":"Jēkabpils — Antūži — Medņi","type":"route","route":"road","network":"lv:local","distance":"23.6 km"},"1648868":{"ref":"V79","name":"Murjāņi — Sēja","type":"route","route":"road","network":"lv:local","distance":"9.5 km"},"1648869":{"ref":"V792","name":"Lone — Sauka","type":"route","route":"road","network":"lv:local","distance":"5.5 km"},"1648870":{"ref":"V793","name":"Lone — Zalves mežniecība","type":"route","route":"road","network":"lv:local","distance":"15.4 km"},"1648871":{"ref":"V8","name":"Jaunolaine — Plakanciems","type":"route","route":"road","network":"lv:local","distance":"7.1 km"},"1648872":{"ref":"V80","name":"Eikāži — Bīriņi","type":"route","route":"road","network":"lv:local","distance":"10.6 km"},"1648873":{"ref":"V820","name":"Viesīte — Deši — Sauka — Rite","type":"route","route":"road","network":"lv:local","distance":"21.7 km"},"1648874":{"ref":"V83","name":"Sigulda — Vildoga — Līgatne","type":"route","route":"road","network":"lv:local","distance":"13. km"},"1648875":{"ref":"V839","name":"Lautere — Jumurda","type":"route","route":"road","network":"lv:local","distance":"22.6 km"},"1648876":{"ref":"V840","name":"Liede — Cesvaine","type":"route","route":"road","network":"lv:local","distance":"30.2 km"},"1648878":{"ref":"V842","name":"Lubāna — Upatnieki","type":"route","route":"road","network":"lv:local","distance":"25.5 km"},"1648879":{"ref":"V843","name":"Barkava — Lubāna","type":"route","route":"road","network":"lv:local","distance":"26.8 km"},"1648880":{"ref":"V845","name":"Liede — Abrupe","type":"route","route":"road","network":"lv:local","distance":"14.5 km"},"1648881":{"ref":"V846","name":"Vestiena — Vējava — Ineši","type":"route","route":"road","network":"lv:local","distance":"19.7 km"},"1648882":{"ref":"V847","name":"Ozoli — Liezere — Tirza — Stāķi","type":"route","route":"road","network":"lv:local","distance":"56.6 km"},"1648883":{"ref":"V85","name":"Jūdaži — Nītaure","type":"route","route":"road","network":"lv:local","distance":"16.2 km"},"1648884":{"ref":"V851","name":"Gaiziņkalns — Lubeja — Gulbēre — Liezere","type":"route","route":"road","network":"lv:local","distance":"19. km"},"1648885":{"ref":"V853","name":"Viesiena — Līdere — Kārzdaba","type":"route","route":"road","network":"lv:local","distance":"18.8 km"},"1648886":{"ref":"V854","name":"Liezere — Silakurmji — Graši","type":"route","route":"road","network":"lv:local","distance":"17.2 km"},"1648887":{"ref":"V855","name":"Lode — Līdere","type":"route","route":"road","network":"lv:local","distance":"6.7 km"},"1648888":{"ref":"V856","name":"Bērzaune — Zelgauska — Kusa — Oļi — Cesvaine","type":"route","route":"road","network":"lv:local","distance":"29.6 km"},"1648889":{"ref":"V858","name":"Madona — Stiebriņi — Gravas — Bukas","type":"route","route":"road","network":"lv:local","distance":"19.2 km"},"1648890":{"ref":"V860","name":"Pievedceļš Cesvainei","type":"route","route":"road","network":"lv:local","distance":"2.3 km"},"1648891":{"ref":"V863","name":"Cesvaine — Aizkuja","type":"route","route":"road","network":"lv:local","distance":"5.3 km"},"1648892":{"ref":"V864","name":"Biksēre — Aizkuja — Dzelzava","type":"route","route":"road","network":"lv:local","distance":"11.6 km"},"1648893":{"ref":"V865","name":"Aizkuja — Meirāni","type":"route","route":"road","network":"lv:local","distance":"12.7 km"},"1648894":{"ref":"V868","name":"Meirāni — Degumnieki — Zvidziena","type":"route","route":"road","network":"lv:local","distance":"16.8 km"},"1648895":{"ref":"V869","name":"Tiltagals — Mežastrodi — Varakļāni","type":"route","route":"road","network":"lv:local","distance":"15.9 km"},"1648897":{"ref":"V871","name":"Mētriena — Ķimstnieki","type":"route","route":"road","network":"lv:local","distance":"6.7 km"},"1648898":{"ref":"V872","name":"Ļaudona — Mētriena","type":"route","route":"road","network":"lv:local","distance":"9.4 km"},"1648902":{"ref":"V873","name":"Ļaudona — Beļava","type":"route","route":"road","network":"lv:local","distance":"8.2 km"},"1648903":{"ref":"V876","name":"Ļaudona — Mārciena — Sauleskalns — Bērzaune","type":"route","route":"road","network":"lv:local","distance":"16.1 km"},"1648904":{"ref":"V879","name":"Jāņukalns — Jaunkalsnava","type":"route","route":"road","network":"lv:local","distance":"8.0 km"},"1648905":{"ref":"V881","name":"Bērzaune — Tomēni — Gaiziņkalns","type":"route","route":"road","network":"lv:local","distance":"11.6 km"},"1648906":{"ref":"V884","name":"Madona — Zalgauska — Viesiena — Vestiena","type":"route","route":"road","network":"lv:local","distance":"24.2 km"},"1648907":{"ref":"V885","name":"Vestiena — Indrāni — Liepkalne — Ogreslīči","type":"route","route":"road","network":"lv:local","distance":"32.2 km"},"1648909":{"ref":"V887","name":"Irši — Liepkalne","type":"route","route":"road","network":"lv:local","distance":"2.7 km"},"1648911":{"ref":"V898","name":"Jāņukalns — Veckalsnava","type":"route","route":"road","network":"lv:local","distance":"7.8 km"},"1648912":{"ref":"V902","name":"Ļaudona — Mūrnieki","type":"route","route":"road","network":"lv:local","distance":"9.4 km"},"1648913":{"ref":"V915","name":"Koknese — Odziena — Jāņukalns — Bērzaune","type":"route","route":"road","network":"lv:local","distance":"44.2 km"},"1648914":{"ref":"V916","name":"Jaunbebri — Odziena — Vietalva — Indrāni","type":"route","route":"road","network":"lv:local","distance":"24.5 km"},"1648915":{"ref":"V917","name":"Vietalva — Sausnēja — Sidrabiņi","type":"route","route":"road","network":"lv:local","distance":"12.5 km"},"1648918":{"ref":"V920","name":"Koknese — Vērene — Madliena — Suntaži","type":"route","route":"road","network":"lv:local","distance":"48.6 km"},"1648919":{"ref":"V921","name":"Vecbebri — Ozoli","type":"route","route":"road","network":"lv:local","distance":"5.9 km"},"1648920":{"ref":"V922","name":"Vecbebri — Irši","type":"route","route":"road","network":"lv:local","distance":"11.4 km"},"1648921":{"ref":"V924","name":"Pļaviņas — Krievciems","type":"route","route":"road","network":"lv:local","distance":"11.1 km"},"1648922":{"ref":"V926","name":"Sunākste — Zilkalne","type":"route","route":"road","network":"lv:local","distance":"7.0 km"},"1648923":{"ref":"V927","name":"Tenči — Daudzeva — Vīgante","type":"route","route":"road","network":"lv:local","distance":"34.5 km"},"1648924":{"ref":"V928","name":"Sece — Seces stacija","type":"route","route":"road","network":"lv:local","distance":"6.5 km"},"1648925":{"ref":"V932","name":"Nereta — Grīcgale — Ērberģe","type":"route","route":"road","network":"lv:local","distance":"37"},"1648926":{"ref":"V933","name":"Smeltēni — Strobuki","type":"route","route":"road","network":"lv:local","distance":"7.3 km"},"1648927":{"ref":"V935","name":"Taurkalne — Dobelnieki","type":"route","route":"road","network":"lv:local","distance":"15.3 km"},"1648928":{"ref":"V936","name":"Valle — Sietiņi — Kurmene","type":"route","route":"road","network":"lv:local","distance":"12.4 km"},"1648929":{"ref":"V937","name":"Mežmuiža — Krīči","type":"route","route":"road","network":"lv:local","distance":"5.4 km"},"1648930":{"ref":"V939","name":"Ratnicēni — Bormaņi","type":"route","route":"road","network":"lv:local","distance":"6.0 km"},"1648931":{"ref":"V944","name":"Pļaviņas — Jaunmuiža","type":"route","route":"road","network":"lv:local","distance":"11.7 km"},"1648932":{"ref":"V945","name":"Pļaviņas — Juči","type":"route","route":"road","network":"lv:local","distance":"1.4 km"},"1648933":{"ref":"V956","name":"Daudzeva — Viesīte — Apserde","type":"route","route":"road","network":"lv:local","distance":"51.4 km"},"1648934":{"ref":"V964","name":"Taurupe — Vecbebri","type":"route","route":"road","network":"lv:local","distance":"23.2 km"},"1648935":{"ref":"V965","name":"Kaparāmurs — Dobelnieki","type":"route","route":"road","network":"lv:local","distance":"4.9 km"},"1648936":{"ref":"V968","name":"Ogre — Jugla","type":"route","route":"road","network":"lv:local","distance":"16.8 km"},"1648937":{"ref":"V969","name":"Ogresgals — Lielvārde","type":"route","route":"road","network":"lv:local","distance":"11.4 km"},"1648938":{"ref":"V971","name":"Lielvārde — Rozītes","type":"route","route":"road","network":"lv:local","distance":"10.5 km"},"1648939":{"ref":"V972","name":"Madliena — Lēdmane","type":"route","route":"road","network":"lv:local","distance":"11.9 km"},"1648940":{"ref":"V973","name":"Cebēni — Lēdmane","type":"route","route":"road","network":"lv:local","distance":"6.1 km"},"1648941":{"ref":"V974","name":"Dzelmes — Veckrape","type":"route","route":"road","network":"lv:local","distance":"19.7 km"},"1648942":{"ref":"V977","name":"Madliena — Aderkaši","type":"route","route":"road","network":"lv:local","distance":"12.7 km"},"1648943":{"ref":"V979","name":"Enkurnieki — Birzgale","type":"route","route":"road","network":"lv:local","distance":"8.0 km"},"1648944":{"ref":"V991","name":"Mazozoli — Vecogre","type":"route","route":"road","network":"lv:local"},"1648945":{"ref":"V995","name":"Druva — Birzgale — Valle","type":"route","route":"road","network":"lv:local","distance":"19.7 km"},"1648946":{"ref":"V996","name":"Ogre — Viskāļi","type":"route","route":"road","network":"lv:local","distance":"48.8 km"},"1663914":{"ref":"V3","name":"Rāmava — Baloži","type":"route","route":"road","network":"lv:local","distance":"3.3 km","operator":"Latvijas Valsts ceļi"},"1663915":{"ref":"V316","name":"Nītaure — Ģikši","type":"route","route":"road","network":"lv:local","distance":"15.3 km"},"1663916":{"ref":"V323","name":"Liepa — Smiltene","type":"route","route":"road","network":"lv:local","distance":"33.5 km"},"1663917":{"ref":"V64","name":"Pievedceļš Gaitiņu karjeram","type":"route","route":"road","network":"lv:local","distance":"2.8 km"},"1663918":{"ref":"V82","name":"Inciems — Straupe","type":"route","route":"road","network":"lv:local","distance":"6.6 km"},"1663919":{"ref":"V84","name":"Inčukalns — Kalējbūņas","type":"route","route":"road","network":"lv:local","distance":"14.5 km"},"1663920":{"ref":"V93","name":"Indrāni — Inčukalns","type":"route","route":"road","network":"lv:local","distance":"2.3 km"},"1663921":{"ref":"V982","name":"Ciemupe — Ogresgals","type":"route","route":"road","network":"lv:local","distance":"4.1"},"1667799":{"ref":"V78","name":"Saulkrasti — Vidriži","type":"route","route":"road","network":"lv:local","distance":"13.8 km"},"1707959":{"ref":"V195","name":"Dauguļi — Rozula","type":"route","route":"road","network":"lv:local","distance":"16.7 km"},"1707960":{"ref":"V236","name":"Valka — Pedele — Ērģeme","type":"route","route":"road","network":"lv:local","distance":"13.4 km"},"1707961":{"ref":"V256","name":"Ērģeme — Igaunijas robeža","type":"route","route":"road","network":"lv:local","distance":"14.5 km"},"1709119":{"ref":"V1154","name":"Blīdene — Remte","type":"route","route":"road","network":"lv:local","distance":"13.7 km"},"1709120":{"ref":"V1163","name":"Silaiņi — Kursīši","type":"route","route":"road","network":"lv:local","distance":"11.9 km"},"1709121":{"ref":"V1175","name":"Jaunauce — Vadakste","type":"route","route":"road","network":"lv:local","distance":"9.8 km"},"1709122":{"ref":"V1180","name":"Saldus — Pampāļi","type":"route","route":"road","network":"lv:local","distance":"24.4 km"},"1709123":{"ref":"V1213","name":"Vaiņode — Aizvīķi","type":"route","route":"road","network":"lv:local","distance":"13.2"},"1709124":{"ref":"V1215","name":"Purmsāti — Gramzda","type":"route","route":"road","network":"lv:local","distance":"6.2 km"},"1709127":{"ref":"V1278","name":"Ciecere — Ikaiši — Vārme","type":"route","route":"road","network":"lv:local","distance":"33.8 km"},"1709128":{"ref":"V1394","name":"Rude — Ģipka","type":"route","route":"road","network":"lv:local","distance":"9.0 km"},"1709129":{"ref":"V1398","name":"Sārcene — Nogale — Kaltene","type":"route","route":"road","network":"lv:local","distance":"23.7 km"},"1709130":{"ref":"V1472","name":"Lapmežciems — Antiņciems","type":"route","route":"road","network":"lv:local","distance":"5.0 km"},"1709131":{"ref":"V1488","name":"Sēme — Kaive","type":"route","route":"road","network":"lv:local","distance":"4.3 km"},"1709132":{"ref":"V903","name":"Mūrnieki — Gaigalieši","type":"route","route":"road","network":"lv:local","distance":"23.1 km"},"1747823":{"ref":"V1474","name":"Plosti — Pūces","type":"route","route":"road","network":"lv:local","distance":"7.4 km"},"1750738":{"ref":"V180","name":"Naukšēni — Piksāri — Veckārķi","type":"route","route":"road","network":"lv:local","distance":"19.5 km"},"1750739":{"ref":"V173","name":"Virķēni — Meizakila","type":"route","route":"road","network":"lv:local","distance":"22.3 km"},"1764658":{"ref":"V34","name":"Līči — Upeslejas","type":"route","route":"road","network":"lv:local","distance":"3.0 km"},"1764661":{"ref":"V33","name":"Saurieši — Salaspils","type":"route","route":"road","network":"lv:local","distance":"6.6 km"},"1785415":{"ref":"V1230","name":"Durbe — Līguti","type":"route","route":"road","network":"lv:local","distance":"1.7 km"},"1785416":{"ref":"V1242","name":"Pievedceļš Durbes stacijai","type":"route","route":"road","network":"lv:local","distance":"1.3 km"},"1785417":{"ref":"V1245","name":"Pievedceļš Tadaiķu stacijai","type":"route","route":"road","network":"lv:local","distance":"0.8 km"},"1785418":{"ref":"V1262","name":"Pievedceļš Stirnas stacijai","type":"route","route":"road","network":"lv:local","distance":"4.1 km"},"1785419":{"ref":"V1263","name":"Adze — Alsunga","type":"route","route":"road","network":"lv:local","distance":"12.8 km"},"1785420":{"ref":"V1269","name":"Alsunga — Tērande — Ziras","type":"route","route":"road","network":"lv:local","distance":"28.1 km"},"1785421":{"ref":"V1279","name":"Vecais Suitu ceļš","type":"route","route":"road","network":"lv:local","distance":"22.3 km"},"1785422":{"ref":"V1285","name":"Reģi — Oliņi","type":"route","route":"road","network":"lv:local","distance":"2.6 km"},"1785423":{"ref":"V237","name":"Ērģeme — Turna — Daksti","type":"route","route":"road","network":"lv:local","distance":"12.5 km"},"1785424":{"ref":"V321","name":"Priekuļi — Jāņmuiža","type":"route","route":"road","network":"lv:local","distance":"3.7 km"},"1785425":{"ref":"V499","name":"Rogovka — Mežvidi — Pušmucova","type":"route","route":"road","network":"lv:local","distance":"27.9 km"},"1785426":{"ref":"V501","name":"Ludza — Stiglova — Kārsava","type":"route","route":"road","network":"lv:local","distance":"29.7 km"},"1785427":{"ref":"V506","name":"Malzūbi — Istalsna — Perekļi","type":"route","route":"road","network":"lv:local","distance":"26.6 km"},"1785428":{"ref":"V508","name":"Briģi — Krivanda — Cibla — Seļekova","type":"route","route":"road","network":"lv:local","distance":"38.4 km"},"1785429":{"ref":"V509","name":"Djatlovka — Aizpure — Apšukalns","type":"route","route":"road","network":"lv:local","distance":"10.7 km"},"1785430":{"ref":"V510","name":"Zilupe — Dilāni — Krivanda","type":"route","route":"road","network":"lv:local","distance":"23.1 km"},"1785431":{"ref":"V511","name":"Mežavepri — Tridņa","type":"route","route":"road","network":"lv:local","distance":"9.9 km"},"1785432":{"ref":"V513","name":"Ploski — Sovāni","type":"route","route":"road","network":"lv:local","distance":"4.0 km"},"1785433":{"ref":"V517","name":"Pakalni — Lauderi — Ploski","type":"route","route":"road","network":"lv:local","distance":"27.5 km"},"1785434":{"ref":"V519","name":"Krievijas robeža — Opoļi — Briģi","type":"route","route":"road","network":"lv:local","distance":"7.8 km"},"1785435":{"ref":"V535","name":"Kušneri — Plaudīši","type":"route","route":"road","network":"lv:local","distance":"9.2 km"},"1785437":{"ref":"V537","name":"Jaunslobodka — Reiki","type":"route","route":"road","network":"lv:local","distance":"4.9 km"},"1785438":{"ref":"V539","name":"Surbeļi — Šķirpāni","type":"route","route":"road","network":"lv:local","distance":"4.5 km"},"1785439":{"ref":"V543","name":"Nirza — Pikova — Tridņa","type":"route","route":"road","network":"lv:local","distance":"22.7 km"},"1785440":{"ref":"V600","name":"Zvirgzdene — Bērzgale — Briņģi","type":"route","route":"road","network":"lv:local","distance":"20. km"},"1788711":{"ref":"V434","name":"Pērle — Kraukļi","type":"route","route":"road","network":"lv:local","distance":"12.5 km"},"1788712":{"ref":"V859","name":"Sakums — Graši — Kraukļi","type":"route","route":"road","network":"lv:local","distance":"3.4 km"},"1797241":{"ref":"V1099","name":"Jostas stacija — Dekšekuļi","type":"route","route":"road","network":"lv:local","distance":"1.8 km"},"1797242":{"ref":"V1100","name":"Biksti — Lielluži","type":"route","route":"road","network":"lv:local","distance":"3.7 km"},"1797243":{"ref":"V1131","name":"Biksti — Apšenieki","type":"route","route":"road","network":"lv:local","distance":"5.5 km"},"1797245":{"ref":"V1412","name":"Valdemārpils — Pūņas","type":"route","route":"road","network":"lv:local","distance":"8.5 km"},"1797246":{"ref":"V1414","name":"Vandzenes skola — Nogale — Lubezere","type":"route","route":"road","network":"lv:local","distance":"19.3 km"},"1797247":{"ref":"V1415","name":"Vēži — Garlene","type":"route","route":"road","network":"lv:local","distance":"2.0 km"},"1797248":{"ref":"V1428","name":"Jurģi — Jostas stacija — Upenieki","type":"route","route":"road","network":"lv:local","distance":"12.4 km"},"1797249":{"ref":"V1478","name":"Aizstrauši — Starpiņas","type":"route","route":"road","network":"lv:local","distance":"4.2 km"},"1797250":{"ref":"V1479","name":"Kraujas — Godiņi","type":"route","route":"road","network":"lv:local","distance":"2.0 km"},"1797251":{"ref":"V1480","name":"Viljeta — Pūres stacija — Kļaviņi","type":"route","route":"road","network":"lv:local","distance":"5.7 km"},"1797253":{"ref":"V89","name":"Inciems — Gauja","type":"route","route":"road","network":"lv:local","distance":"6.3 km"},"1797254":{"ref":"V894","name":"Pievedceļš Sāvienai","type":"route","route":"road","network":"lv:local","distance":"2.2 km"},"1797255":{"ref":"V90","name":"Krimuldas sanatorija — Graši","type":"route","route":"road","network":"lv:local","distance":"5.4 km"},"1842571":{"ref":"V30","name":"Baltezers — Ādaži","type":"route","route":"road","network":"lv:local","distance":"4.2 km"},"1842577":{"ref":"V31","name":"Pievedceļš Muceniekiem","type":"route","route":"road","network":"lv:local"},"1842605":{"ref":"V54","name":"Pievedceļš Langstiņiem","type":"route","route":"road","network":"lv:local","distance":"1.2 km"},"1842606":{"ref":"V70","name":"Pievedceļš Mazajiem Kangariem","type":"route","route":"road","network":"lv:local","distance":"3.9 km"},"1842608":{"ref":"V74","name":"Ropaži — Raunas","type":"route","route":"road","network":"lv:local","distance":"5.7 km"},"1842611":{"ref":"V76","name":"Pievedceļš Kangaru stacijai","type":"route","route":"road","network":"lv:local","distance":"0.3 km"},"1860268":{"ref":"V1317","name":"Pāpe — Virpe","type":"route","route":"road","network":"lv:local","distance":"13.7 km"},"1860269":{"ref":"V1318","name":"Virpe — Pāce","type":"route","route":"road","network":"lv:local","distance":"20.2 km"},"1860270":{"ref":"V1338","name":"Rinda — Prieži — Kalni","type":"route","route":"road","network":"lv:local","distance":"6.3 km"},"1860271":{"ref":"V1339","name":"Ance — Trumpi","type":"route","route":"road","network":"lv:local","distance":"2.8 km"},"1860272":{"ref":"V1340","name":"Virpe — Jorniņi","type":"route","route":"road","network":"lv:local","distance":"4.8 km"},"1860273":{"ref":"V1341","name":"Mieži — Bruši","type":"route","route":"road","network":"lv:local","distance":"7.3 km"},"1860274":{"ref":"V1342","name":"Lonaste — Kārļamuiža","type":"route","route":"road","network":"lv:local","distance":"4.2 km"},"1860275":{"ref":"V1385","name":"Pastende — Iliņi — Spāre","type":"route","route":"road","network":"lv:local","distance":"21.6 km"},"1860276":{"ref":"V1404","name":"Talsi — Gravas — Ģibuļi","type":"route","route":"road","network":"lv:local","distance":"18. km"},"1860277":{"ref":"V1406","name":"Talsi — Remeši","type":"route","route":"road","network":"lv:local","distance":"6.5 km"},"1860278":{"ref":"V194","name":"Dikļi — Mazbrenguļi","type":"route","route":"road","network":"lv:local","distance":"9.6 km"},"1860279":{"ref":"V202","name":"Naukšēni — Doles","type":"route","route":"road","network":"lv:local","distance":"7.1 km"},"1860280":{"ref":"V230","name":"Omuļi — Kurģi","type":"route","route":"road","network":"lv:local","distance":"3.8 km"},"1860282":{"ref":"V394","name":"Pededze — Kalnapededze","type":"route","route":"road","network":"lv:local","distance":"6.8 km"},"1938620":{"ref":"V1027","name":"Lībieši — Krievgaļi — Rožkalni","type":"route","route":"road","network":"lv:local","distance":"8.6 km"},"1938621":{"ref":"V120","name":"Aloja — Vīķi","type":"route","route":"road","network":"lv:local","distance":"12.1 km"},"1938622":{"ref":"V1223","name":"Bārta — Krūte","type":"route","route":"road","network":"lv:local","distance":"8.7 km"},"1938624":{"ref":"V1347","name":"Rāpati — Krievciems","type":"route","route":"road","network":"lv:local","distance":"11"},"1938625":{"ref":"V1350","name":"Ziras — Vēkas","type":"route","route":"road","network":"lv:local","distance":"9.2 km"},"1938626":{"ref":"V145","name":"Vecsalaca — Mērnieki","type":"route","route":"road","network":"lv:local","distance":"15.3 km"},"1938627":{"ref":"V462","name":"Kāpessils — Krišjāņi","type":"route","route":"road","network":"lv:local","distance":"7.8 km"},"1938628":{"ref":"V493","name":"Ruskulova — Bērzpils","type":"route","route":"road","network":"lv:local","distance":"31.2 km"},"1938629":{"ref":"V61","name":"Mālpils — Vite","type":"route","route":"road","network":"lv:local","distance":"5.8 km"},"1938630":{"ref":"V63","name":"Vite — Viršukalns","type":"route","route":"road","network":"lv:local","distance":"11.1 km"},"1938631":{"ref":"V92","name":"Sunīši — Viesturi","type":"route","route":"road","network":"lv:local","distance":"4.0 km"},"2012510":{"ref":"V59","name":"Mālpils — Peļņi","type":"route","route":"road","network":"lv:local","distance":"8.4 km"},"2019815":{"ref":"V1007","name":"Pārbrauktuve — Birzgale","type":"route","route":"road","network":"lv:local","distance":"12.5 km"},"2019816":{"ref":"V118","name":"Staicele — Puršēni — Rozēni","type":"route","route":"road","network":"lv:local","distance":"10.4 km"},"2019818":{"ref":"V119","name":"Staicele — Lejasmūnas — Rozēni","type":"route","route":"road","network":"lv:local","distance":"15.1 km"},"2019819":{"ref":"V1266","name":"Ķikuri — Rude","type":"route","route":"road","network":"lv:local","distance":"6.7 km"},"2019820":{"ref":"V1272","name":"Laidi — Atmatas","type":"route","route":"road","network":"lv:local","distance":"6.0 km"},"2019821":{"ref":"V1275","name":"Rudbārži — Kalvene","type":"route","route":"road","network":"lv:local","distance":"10.8 km"},"2019823":{"ref":"V1293","name":"Kuldīga — Pelči — Kaltiķi","type":"route","route":"road","network":"lv:local","distance":"10 km"},"2019824":{"ref":"V1393","name":"Purmaļi — Oksle — Cēre","type":"route","route":"road","network":"lv:local","distance":"11.3 km"},"2019825":{"ref":"V18","name":"Pievedceļš Olainei","type":"route","route":"road","network":"lv:local","distance":"0.4 km"},"2019826":{"ref":"V32","name":"Dreiliņi — Acones stacija","type":"route","route":"road","network":"lv:local","distance":"3.9 km"},"2019827":{"ref":"V35","name":"Šķirotava — Saurieši","type":"route","route":"road","network":"lv:local","distance":"8.8"},"2019828":{"ref":"V45","name":"Pievedceļš Gaujas tiltam","type":"route","route":"road","network":"lv:local","distance":"1.3 km"},"2019829":{"ref":"V52","name":"Pievedceļš Cekules stacijai","type":"route","route":"road","network":"lv:local","distance":"0.3 km"},"2019830":{"ref":"V65","name":"Pādes — Tūžas","type":"route","route":"road","network":"lv:local","distance":"1.6 km"},"2019831":{"ref":"V680","name":"Krauja — gaļas kombināts","type":"route","route":"road","network":"lv:local","distance":"3.5 km"},"2019832":{"ref":"V71","name":"Bukas — Mālpils","type":"route","route":"road","network":"lv:local","distance":"4.1 km"},"2019833":{"ref":"V753","name":"Līvāni — Steķi","type":"route","route":"road","network":"lv:local","distance":"23.4 km"},"2019834":{"ref":"V754","name":"Līvāni — Gavartiene — Steķi","type":"route","route":"road","network":"lv:local","distance":"17. km"},"2019835":{"ref":"V757","name":"Grīva — Stari","type":"route","route":"road","network":"lv:local","distance":"12.5 km"},"2019836":{"ref":"V759","name":"Rožupe — Švirksti","type":"route","route":"road","network":"lv:local","distance":"2.9 km"},"2019837":{"ref":"V760","name":"Mālkalni — Rudzētu palīgskola","type":"route","route":"road","network":"lv:local","distance":"2.6 km"},"2019838":{"ref":"V94","name":"Sēnīte — Kārļzemnieki","type":"route","route":"road","network":"lv:local","distance":"1.7 km"},"2019839":{"ref":"V95","name":"Griķukrogs — Meļķerti","type":"route","route":"road","network":"lv:local","distance":"5.4 km"},"2019840":{"ref":"V96","name":"Pievedceļš Lorupes gravai","type":"route","route":"road","network":"lv:local","distance":"2.0 km"},"2019841":{"ref":"V99","name":"Pievedceļš Vangažu stacijai","type":"route","route":"road","network":"lv:local","distance":"1.1 km"},"2114905":{"ref":"V393","name":"Kauļi — Papardes stacija","type":"route","route":"road","network":"lv:local","distance":"3.4 km"},"2168457":{"ref":"V2","name":"Pievedceļi autoceļam Valdlauči — Rāmava A, B","type":"route","route":"road","network":"lv:local","distance":"6.5 km","operator":"Latvijas Valsts ceļi"},"2388343":{"ref":"V507","name":"Seļekova — Degļeva — Goliševa","type":"route","route":"road","network":"lv:local","distance":"28. km"},"2388351":{"ref":"V514","name":"Duboviki — Lauderi","type":"route","route":"road","network":"lv:local","distance":"11.6 km"},"2388368":{"ref":"V515","name":"Joņičķi — Pasiene","type":"route","route":"road","network":"lv:local","distance":"14.8 km"},"2388372":{"ref":"V516","name":"Sprikutova — Raipole — Nirza","type":"route","route":"road","network":"lv:local","distance":"11.6 km"},"2388379":{"ref":"V505","name":"Mērdzene — Goliševa","type":"route","route":"road","network":"lv:local","distance":"12.6 km"},"2388415":{"ref":"V504","name":"Bozova — Kaskāni","type":"route","route":"road","network":"lv:local","distance":"2.5 km"},"2388438":{"ref":"V533","name":"Mērdzene — Stiglova","type":"route","route":"road","network":"lv:local","distance":"5.5 km"},"2388456":{"ref":"V500","name":"Rogovka — Dekteri — Zobļeva","type":"route","route":"road","network":"lv:local","distance":"10.6 km"},"2388643":{"ref":"V549","name":"Bērzgale — Rogovka","type":"route","route":"road","network":"lv:local","distance":"11.9 km"},"2388656":{"ref":"V550","name":"Bērzgale — Sarkaņi — Greiškāni","type":"route","route":"road","network":"lv:local","distance":"18.6 km"},"2388663":{"ref":"V555","name":"Dziļāri — Vecstružāni — Rogovka","type":"route","route":"road","network":"lv:local","distance":"21.4 km"},"2388717":{"ref":"V593","name":"Vērēmi — Rogovka","type":"route","route":"road","network":"lv:local","distance":"14.4 km"},"2388719":{"ref":"V562","name":"Greivuļi — Ilzeskalns","type":"route","route":"road","network":"lv:local","distance":"16.8 km"},"2388755":{"ref":"V567","name":"Krieviņi — Lendži","type":"route","route":"road","network":"lv:local","distance":"12.2 km"},"2388785":{"ref":"V558","name":"Dricēni — Pilcene","type":"route","route":"road","network":"lv:local","distance":"4.9 km"},"2388786":{"ref":"V557","name":"Dricāni — Nautrēni","type":"route","route":"road","network":"lv:local","distance":"15.4 km"},"2388789":{"ref":"V589","name":"Škuškova — Dricēni","type":"route","route":"road","network":"lv:local","distance":"10.2 km"},"2388852":{"ref":"V749","name":"Aglonas stacija — Aizkalne — Babri","type":"route","route":"road","network":"lv:local","distance":"13. km"},"2388889":{"ref":"V789","name":"Krievciems — Varieši — Kūkas — Andrāni","type":"route","route":"road","network":"lv:local","distance":"24. km"},"2388890":{"ref":"V825","name":"Zīlāni — Galvānkalns","type":"route","route":"road","network":"lv:local","distance":"14. km"},"2390666":{"ref":"V523","name":"Raipole — Rundēni","type":"route","route":"road","network":"lv:local","distance":"11.5 km"},"2409261":{"ref":"V1200","name":"Tebra — Kazdanga — Cildi","type":"route","route":"road","network":"lv:local","distance":"24.5 km"},"2409262":{"ref":"V583","name":"Silmala — Prezma — Pušbori","type":"route","route":"road","network":"lv:local","distance":"7.6 km"},"2409263":{"ref":"V744","name":"Kastīre — Kategrade — Kameņeca — Kapiņi","type":"route","route":"road","network":"lv:local","distance":"24.2 km"},"2409264":{"ref":"V822","name":"Vilkupe — Bebrene","type":"route","route":"road","network":"lv:local","distance":"21.5 km"},"2409265":{"ref":"V918","name":"Zemkopības institūts — Skrīveri","type":"route","route":"road","network":"lv:local","distance":"1.6 km"},"2409266":{"ref":"V919","name":"Pievedceļš Skrīveru stacijai","type":"route","route":"road","network":"lv:local","distance":"0.3 km"},"2444330":{"ref":"V708","name":"Subate — Kaldabruņa — Rītenišķi","type":"route","route":"road","network":"lv:local","distance":"20.9 km"},"2444331":{"ref":"V801","name":"Rubeņi — Dunava","type":"route","route":"road","network":"lv:local","distance":"17.5 km"},"2444335":{"ref":"V800","name":"Rubeņi — Ancene — Subate","type":"route","route":"road","network":"lv:local","distance":"11. km"},"2444347":{"ref":"V1162","name":"Saldus — Kūdras","type":"route","route":"road","network":"lv:local","distance":"19.3 km"},"2444348":{"ref":"V1178","name":"Ēvarži — Dubaskrogs","type":"route","route":"road","network":"lv:local","distance":"6.2 km"},"2444349":{"ref":"V13","name":"Tīraine — Jaunolaine","type":"route","route":"road","network":"lv:local","distance":"11. km"},"2444351":{"ref":"V57","name":"Salaspils — Domeri","type":"route","route":"road","network":"lv:local","distance":"5.3 km"},"2444372":{"ref":"V762","name":"Aglona — Višķi","type":"route","route":"road","network":"lv:local","distance":"17.6 km"},"2444388":{"ref":"V674","name":"Daugavpils — Zemgales stacija","type":"route","route":"road","network":"lv:local","distance":"19.3 km"},"2444394":{"ref":"V401","name":"Liepna — Beja","type":"route","route":"road","network":"lv:local","distance":"17.6 km"},"2527686":{"ref":"E 22","name":"Eiropas autoceļš E22 (Latvija)","type":"route","route":"road","name:be":"Еўрапейскі маршрут E22","name:en":"European route E22 (Latvia)","name:et":"Euroopa tee E22","name:fr":"Route Européenne E22 (Lettonie)","name:lt":"Europos kelias E22 (Latvija)","name:lv":"Eiropas autoceļš E22 (Latvija)","name:nl":"Europese route E22 (Letland)","name:pl":"Trasa Europejska E22 (Łotwa)","name:ru":"Европейский маршрут E22 (Латвия)","network":"e-road","section":"Latvia","wikidata":"Q322164","wikipedia":"en:European route E22"},"2535296":{"ref":"V1166","name":"Kareļi — Franči","type":"route","route":"road","network":"lv:local","distance":"3.6 km"},"2535297":{"ref":"V464","name":"Pokrata — Lazdukalns","type":"route","route":"road","network":"lv:local","distance":"8.4 km"},"2869662":{"ref":"25108","name":"Tsooru — Krabi","type":"route","route":"road","network":"ee:regional","distance":"23.131 km"},"2873057":{"ref":"P134","name":"Pievedceļš Liepājas lidostai","type":"route","route":"road","network":"lv:regional","distance":"2.4 km","wikidata":"Q7799157","wikipedia":"lv:Autoceļš P134"},"2901968":{"ref":"190","name":"Biržai — Germaniškis","type":"route","route":"road","name:lt":"Biržai — Germaniškis","name:lv":"Birži — Ģermanišķi","name:pl":"Birże — Hermaniszki","network":"lt:national","distance":"21.680 km","wikidata":"Q12659089","wikipedia":"lt:KK190"},"2902015":{"ref":"169","name":"Skuodas — Plungė","type":"route","route":"road","network":"lt:national","distance":"47.850 km","wikidata":"Q12659075","wikipedia":"lt:KK169"},"2902324":{"ref":"1614","name":"Stungiai — Bandoriai — Daunoriškė","type":"route","route":"road","network":"lt:regional","distance":"17.870 km"},"3202338":{"ref":"V1233","name":"Cīrava — Vidusmuiža","type":"route","route":"road","network":"lv:local","distance":"1.3 km"},"3204198":{"ref":"5344","name":"Turmantas — Turmanto g. st.","type":"route","route":"road","network":"lt:regional","distance":"0.900 km"},"3204534":{"ref":"5314","name":"Rutiniškis — Smalvos — Turmantas","type":"route","route":"road","network":"lt:regional","distance":"10.550 km"},"3257266":{"ref":"V38","name":"Saulkrasti — Gāršmalas","type":"route","route":"road","network":"lv:local","distance":"1.8"},"3257272":{"ref":"V88","name":"Jaunzemnieki — Rītiņas","type":"route","route":"road","network":"lv:local","distance":"6.7 km"},"3257273":{"ref":"V101","name":"Lilaste — Saulkrasti — Duči","type":"route","route":"road","network":"lv:local","distance":"18.7 km"},"3257274":{"ref":"V56","name":"Pievedceļš Salaspils memoriālam","type":"route","route":"road","network":"lv:local","distance":"1.7 km"},"3257275":{"ref":"V55","name":"Pievedceļš Zvejniekciema stacijai","type":"route","route":"road","network":"lv:local","distance":"2.0 km"},"3257332":{"ref":"V1392","name":"Priedītes — Bāliņi","type":"route","route":"road","network":"lv:local","distance":"2.5 km"},"3257333":{"ref":"V1399","name":"Smildziņi — Sabiles stacija — Sknābe","type":"route","route":"road","network":"lv:local","distance":"12. km"},"3257348":{"ref":"V1075","name":"Jēkabnieki — Lejiņas","type":"route","route":"road","network":"lv:local","distance":"4.5 km"},"3257349":{"ref":"V1168","name":"Nīgrande — Atvases — Vaiņode","type":"route","route":"road","network":"lv:local","distance":"15.5 km"},"3257350":{"ref":"V967","name":"Ogre — Rembate","type":"route","route":"road","network":"lv:local","distance":"17.3"},"3257352":{"ref":"V1176","name":"Ruba — Reņģes stacija","type":"route","route":"road","network":"lv:local","distance":"0.5 km"},"3257360":{"ref":"V693","name":"Demene — Caunes — Medumi","type":"route","route":"road","network":"lv:local","distance":"17.1 km"},"3257361":{"ref":"V691","name":"Demene — Kumbuļi","type":"route","route":"road","network":"lv:local","distance":"8.8 km"},"3257362":{"ref":"V696","name":"Gorbunovka — Kaspari — Medumi","type":"route","route":"road","network":"lv:local","distance":"18"},"3257363":{"ref":"V702","name":"Ilūkste — Ilze — Vitkušķi","type":"route","route":"road","network":"lv:local","distance":"24.6 km"},"3257364":{"ref":"V692","name":"Laucesa — Jāņuciems — Briģene","type":"route","route":"road","network":"lv:local","distance":"12.1 km"},"3257365":{"ref":"V688","name":"Lipinišķi — Maskovskaja","type":"route","route":"road","network":"lv:local","distance":"14.6 km"},"3257366":{"ref":"V687","name":"Naujenes stacija — Biķernieki — Bramanišķi","type":"route","route":"road","network":"lv:local","distance":"14.8 km"},"3257368":{"ref":"V690","name":"Skrudaliena — Kumbuļi — Silene","type":"route","route":"road","name:lv":"Skrudaliena — Kumbuļi — Silene","name:pl":"Skrudelino — Kumbuļi — Borówka","network":"lv:local","distance":"18.7 km"},"3257372":{"ref":"V880","name":"Bērzaune — Viesūnēni — Zīdiņi","type":"route","route":"road","network":"lv:local","distance":"13.5 km"},"3919523":{"ref":"V934","name":"Spriciņi-Lujāņi","type":"route","route":"road","network":"lv:local"},"3919530":{"ref":"V976","name":"Ķeipene-Caunes","type":"route","route":"road","network":"lv:local"},"3919537":{"ref":"V993","name":"Dzērves-Vērene","type":"route","route":"road","network":"lv:local"},"3928122":{"ref":"P125","name":"Talsi–Dundaga–Mazirbe","type":"route","route":"road","network":"lv:regional"},"4648877":{"ref":"P19","name":"Ape (Vidzemes šoseja) — Igaunijas robeža","type":"route","route":"road","network":"lv:regional","distance":"4.9","operator":"Latvijas Valsts ceļi","wikidata":"Q2193472","wikipedia":"lv:Autoceļš P19"},"4683942":{"ref":"V306","name":"Vecpiebalga — Skola","type":"route","route":"road","network":"lv:local","distance":"0.5 km","operator":"Latvijas Valsts ceļi","wikipedia":"lv:Autoceļš V306"},"4749370":{"ref":"P51","name":"Ventspils pievedceļš","type":"route","route":"road","network":"lv:regional","distance":"2.5 km","operator":"Latvijas Valsts ceļi","wikidata":"Q13979174","wikipedia":"lv:Autoceļš P51"},"7185892":{"ref":"V997","name":"Plātere — Lakstene","type":"route","route":"road","network":"lv:local","distance":"5.6"},"7186000":{"ref":"V98","name":"Pievedceļš Rozes dārzkopības sabiedrībai «Vēsma»","type":"route","route":"road","network":"lv:local","distance":"0.9"},"7633380":{"ref":"V67","name":"Pietāni–Purmaļi","type":"route","route":"road","network":"lv:local"},"7633381":{"ref":"V62","name":"Glāznieki–Vatrāne","type":"route","route":"road","network":"lv:local"},"7633382":{"ref":"V25","name":"Krogzemji–Vāveres","type":"route","route":"road","network":"lv:local"},"7633385":{"ref":"V24","name":"Pievedceļš Mārupes zvēru fermai","type":"route","route":"road","network":"lv:local"},"7633386":{"ref":"P98","name":"Jelgava (Tušķi)–Tukums","type":"route","route":"road","network":"lv:regional"},"7836322":{"ref":"V1316","name":"Topciems – Spiņņi","type":"route","route":"road","network":"lv:local"},"7836323":{"ref":"V1315","name":"Pope – Rēdnieki","type":"route","route":"road","network":"lv:local"},"7836324":{"ref":"V1355","name":"Pievedceļš Popes estrādei","type":"route","route":"road","network":"lv:local"},"7836325":{"ref":"V1354","name":"Pope — Zetiņkalni","type":"route","route":"road","network":"lv:local"},"7836333":{"ref":"V1036","name":"Bauska–Katrīnas","type":"route","route":"road","network":"lv:local"},"7836334":{"ref":"V1013","name":"Šarlotes–Vecumnieku stacija","type":"route","route":"road","network":"lv:local"},"7836335":{"ref":"V1004","name":"Pievedceļš Iecavas stacijai","type":"route","route":"road","network":"lv:local"},"7838214":{"ref":"V114","name":"Limbaži — Priedes","type":"route","route":"road","network":"lv:local","distance":"5 km"},"8540763":{"ref":"V981","name":"Pievedceļš Tomes zivju audzētavai","type":"route","route":"road","network":"lv:local"},"8623450":{"ref":"V949","name":"Pievedceļš Seces skolai","type":"route","route":"road","network":"lv:local"},"8623451":{"ref":"V950","name":"Parģīzes - Talsiņi","type":"route","route":"road","network":"lv:local"},"8623452":{"ref":"V958","name":"Aizkraukles stacija - Aizkraukle","type":"route","route":"road","network":"lv:local"},"8623453":{"ref":"V954","name":"Aizkraukle - Aizpuri","type":"route","route":"road","network":"lv:local"},"8623454":{"ref":"V987","name":"Pievedceļš Jumpravas stacijai","type":"route","route":"road","network":"lv:local"},"8623455":{"ref":"V985","name":"Kaibala - Annas","type":"route","route":"road","network":"lv:local"},"8623456":{"ref":"V986","name":"Pievedceļš Kaibalas stacijai","type":"route","route":"road","network":"lv:local"},"9911749":{"ref":"V1299","name":"Pievedceļš Graudupiem","type":"route","route":"road","network":"lv:regional","official_name":"Valsts vietējais autoceļš V1299 Pievedceļš Graudupiem"},"10364234":{"ref":"V377","name":"Māriņkalns - Alsviķi","type":"route","route":"road","network":"lv:local"},"10991791":{"ref":"B3.-15","name":"Jāņkalni — Mauriņi","type":"route","route":"road","network":"lv:local","distance":"1.36 km"},"10991792":{"ref":"B3.-03","name":"Drieliņi — Viļņi","type":"route","route":"road","network":"lv:local","distance":"1.41 km"},"10991793":{"ref":"B3.-02","name":"Kalnāres — Pārslas","type":"route","route":"road","network":"lv:local","distance":"2.52 km"},"10991794":{"ref":"A3.-02","name":"Plēšas — Pāle","type":"route","route":"road","network":"lv:local","distance":"2.92 km"},"11060202":{"ref":"A1-03","name":"Spriči — Tiegaži","type":"route","route":"road","network":"lv:local","distance":"3.93 km"},"11060525":{"ref":"V147","name":"Liepiņas — Pociema stacija","type":"route","route":"road","network":"lv:local"},"12550983":{"ref":"V521","name":"Ņukši–Andži","type":"route","route":"road","network":"lv:local"},"12550984":{"ref":"V512","name":"Kovaļki-Andži","type":"route","route":"road","network":"lv:local"},"12769960":{"ref":"V312","name":"Kliģene - Vecogre","type":"route","route":"road","network":"lv:local"},"12769962":{"ref":"V313","name":"Bikši - Annas - Kliģene - Medņukalns","type":"route","route":"road","network":"lv:local"},"13100502":{"ref":"V1373","name":"Jādekši–Dzedri","type":"route","route":"road","network":"lv:local","distance":"3.8"},"13226653":{"ref":"V747","name":"Pelēči–Ārdava","type":"route","route":"road","network":"lv:local","distance":"8"},"13237893":{"ref":"V756","name":"Smelteri–Viktorovka","type":"route","route":"road","network":"lv:local","distance":"6.8"},"13237894":{"ref":"V737","name":"Kokorieši–Jezufinova–Polkorona","type":"route","route":"road","network":"lv:local","distance":"18.3"},"13238806":{"ref":"V573","name":"Nagļi–Īdeņi","type":"route","route":"road","network":"lv:local","distance":"10.7"},"13248683":{"ref":"V372","name":"Gaujiena–Lejaskrogs","type":"route","route":"road","network":"lv:local","distance":"8.1"},"13943695":{"ref":"V1291","name":"Deksne - Ventspils ceļš","type":"route","route":"road","network":"lv:local"},"14408241":{"ref":"Н16103","name":"Лапіна – Маранішкі","type":"route","route":"road","name:be":"Лапіна – Маранішкі","name:ru":"Лапино – Маранишки","name:uk":"Лапіно – Маранішки","network":"by:regional","source:ref":"9/100547","official_ref":"Н-16103"},"14511373":{"ref":"V951","name":"Kundrati — Jaunzemi","type":"route","route":"road","network":"lv:local","distance":"1.1"},"14547789":{"ref":"V380","name":"Karva-Jaunlaicene","type":"route","route":"road","distance":"6.5"},"14706481":{"ref":"V332","name":"Ķērpji–Jullas","type":"route","route":"road","network":"lv:local"}}