{"14635933":{"ref":"5","name":"NIC-5","type":"route","route":"road","operator":"MTI"},"14653959":{"ref":"29","name":"NIC-29","type":"route","route":"road","network":"NIC-29","operator":"MTI","wikidata":"Q114401525","description":"NIC-29 is a paved highway and connects Ocotal to Jalapa and close to Trojes (Honduras)"},"14764195":{"ref":"38","name":"NIC-38","type":"route","route":"road","network":"MTI","website":"https://biblioteca.mti.gob.ni/","operator":"Ministry of Transportation and Infrastructure (MTI) of Nicaragua"},"14874298":{"ref":"NN-4","name":"NN-4","type":"route","lanes":"2","route":"road","highway":"tertiary","smoothness":"good"},"14877388":{"ref":"NN-24","name":"NN-24","type":"route","lanes":"2","route":"road","source":"Bing","highway":"secondary","network":"MTI","surface":"sett","maxspeed":"65","operator":"MTI"},"14879112":{"ref":"NIC-13B","name":"NIC-13B","type":"route","route":"road","network":"MTI","website":"https://www.el19digital.com/articulos/ver/titulo:117702-nueva-carretera-vincula-bocana-de-paiwas-a-red-vial-troncal","operator":"MTI"},"14950728":{"ref":"NIC-25A","name":"NIC-25A","type":"route","route":"road","network":"MTI","operator":"MTI"},"14950729":{"ref":"NN-117","name":"NN-117","type":"route","lanes":"2","route":"road","highway":"primary","network":"MTI","operator":"MTI","smoothness":"intermediate","source:imagery":"Bing and Maxar satellite imagery as of 2022"},"14950768":{"ref":"NIC-67","name":"NIC-67","type":"route","route":"road","network":"MTI","operator":"MTI"},"14950828":{"ref":"NIC-65","name":"NIC-65","type":"route","route":"road","network":"MTI","operator":"MTI"},"14955181":{"ref":"NIC-25B","name":"NIC-25B","type":"route","route":"road","network":"MTI","distance":"16.36","operator":"MTI"},"14955182":{"ref":"NN-118","name":"NN-118","type":"route","route":"road","network":"MTI","operator":"MTI"},"14997596":{"ref":"NIC-53","name":"NIC-53","type":"route","route":"road","network":"MTI","operator":"MTI"},"15047321":{"ref":"NIC-33","name":"NIC-33","type":"route","route":"road","network":"MTI","operator":"MTI","description":"NIC-33 from San Ramon to Cotintillo"},"15077640":{"ref":"NIC-9","name":"NIC-9","type":"route","route":"road","highway":"secondary","website":"https://biblioteca.mti.gob.ni/","operator":"MTI"},"15467721":{"ref":"272","name":"NN-272","type":"route","route":"road","source":"MTI Red Vial Nicaragua 2019","network":"MTI-Chinandega","distance":"25.43km","operator":"MTI"},"15507576":{"ref":"49A1","name":"NIC-49A1","type":"route","route":"road","network":"MTI","operator":"MTI"},"15597361":{"ref":"265","name":"NN-265","type":"route","route":"road","network":"MTI","surface":"paved","distance":"14.65","operator":"MTI"},"15736247":{"ref":"37B","name":"NIC-37B","type":"route","route":"road","highway":"tertiary","operator":"MTI","source:imagery":"Bing & Maxar Sat Imagery as of 2023"},"15753418":{"ref":"32","name":"NIC-32","type":"route","route":"road","network":"MTI","operator":"MTI"},"15792088":{"ref":"19","name":"NIC-19","type":"route","route":"road","highway":"secondary","network":"MTI","distance":"30.51","operator":"MTI"},"15792102":{"ref":"21","name":"NIC-21","type":"route","route":"road","network":"MTI","distance":"203","operator":"MTI"}}