{"144768":{"to":"G.P. Bajakovo (granica Rep. Srbije)","ref":"A3","from":"G.P. Bregana (granica Rep. Slovenije)","name":"Autocesta A3","type":"route","route":"road","network":"Autoceste","distance":"306","operator":"HAC","reg_name":"Posavska autocesta","wikidata":"Q429577","wikipedia":"hr:Autocesta A3","description":"G.P. Bregana (granica Rep. Slovenije) – Zagreb – Sl. Brod – G.P. Bajakovo (granica Rep. Srbije)"},"407342":{"ref":"D46","name":"Državna cesta D46","type":"route","route":"road","network":"Državne ceste"},"1086284":{"ref":"E 771","name":"European route E 771","type":"route","route":"road","name:en":"European route E 771","name:fr":"Route européenne E 771","name:nl":"Europese route E771","network":"e-road","wikidata":"Q2621685","wikipedia":"en:European route E771","e-road:class":"B","description:fr":"E 771 Drobeta-Turnu Severin - Niš"},"1482630":{"ref":"4233","name":"Županijska cesta 4233","type":"route","route":"road","network":"Županijske ceste"},"1485359":{"ref":"46039","name":"Lokalna cesta 46039","type":"route","route":"road","network":"Lokalne ceste"},"1485363":{"ref":"46060","name":"Lokalna cesta 46060","type":"route","route":"road","network":"Lokalne ceste"},"1999546":{"ref":"E 80","name":"European route E80","type":"route","route":"road","name:bg":"Европейски път E80, Сърбия","name:de":"Europastraße 80","name:en":"European route E80","name:es":"Ruta europea 80","name:fr":"Route européenne 80, Serbie et Kosovo","name:mk":"Е 80 (Србија)","name:sr":"Европски пут E80","network":"e-road","wikidata":"Q877647","wikipedia":"en:European route E80","description":"E80 - Serbia and Kosovo","name:sr-Latn":"Evropski put E80"},"2093778":{"ref":"E 75","name":"European route E 75 (Serbia)","type":"route","route":"road","name:bg":"Европейски път E75","name:de":"Europastraße 75","name:el":"Ευρωπαϊκή Οδός 75","name:en":"European route E 75 (Serbia)","name:fr":"Route européenne 75","name:mk":"Европски пат Е75","name:nl":"Europese route E75 (Servië)","name:pl":"Trasa europejska 75","name:ru":"Европейский маршрут E 75","name:sk":"Európska cesta E 75 (Srbsko)","name:sr":"Европски пут E75","network":"e-road","wikidata":"Q5322442","wikipedia":"en:A1 motorway (Serbia)","description":"E75 - Serbia","name:sr-Latn":"Evropski put E75"},"2171584":{"ref":"A1","name":"Обилазница око Београда","type":"route","route":"road","int_ref":"E 75","name:en":"Belgrade Bypass","name:sr":"Обилазница око Београда","operator":"Putevi Srbije","wikidata":"Q815562","wikipedia":"sr:Obilaznica Beograd","name:sr-Latn":"Obilaznica oko Beograda"},"2195415":{"ref":"E 70","name":"European route E 70 (Serbia)","type":"route","route":"road","name:en":"European route E 70 (Serbia)","name:nl":"Europese route E70 (Servië)","name:sk":"Európska cesta E 70 (Srbsko)","network":"e-road","wikidata":"Q741488","wikipedia":"en:European route E70","description":"E70 - Serbia"},"2195417":{"ref":"E 70","name":"European route E 70 (Romania west)","type":"route","route":"road","name:en":"European route E 70 (Romania west)","name:nl":"Europese route E70 (Roemenië west)","name:sk":"Európska cesta E 70 (Rumunsko západ)","network":"e-road","wikidata":"Q741488","wikipedia":"en:European route E70","description":"E70 - West Romania"},"2195430":{"ref":"E 70","name":"European route E 70 (Croatia)","type":"route","route":"road","name:en":"European route E 70 (Croatia)","name:hr":"Europski pravac E70","name:nl":"Europese route E70 (Kroatië)","name:sk":"Európska cesta E 70 (Chorvátsko)","network":"e-road","description":"E70 - Croatia"},"2325322":{"ref":"A4","name":"државни пут IА реда А4","type":"route","route":"road","name:sr":"државни пут IА реда А4","network":"RS:national","distance":"108.6","wikidata":"Q788421","wikipedia":"sr:Ауто-пут А4","name:sr-Latn":"državni put IA reda A4"},"2329192":{"to":"Bijelo Polje","ref":"E 763","from":"Beograd","name":"European route E763","type":"route","route":"road","name:en":"European route E763","name:fr":"Route européenne E 763","name:nl":"Europese route E763","name:sr":"Европски пут E763","network":"e-road","wikidata":"Q2425390","wikipedia":"en:European route E763","description":"E 763 Belgrade - Bijelo Polje","e-road:class":"B","name:sr-Latn":"Evropski put E763","description:fr":"E 763 Belgrade - Bijelo Polje","description:sr":"Београд - Бијело Поље"},"2361534":{"ref":"A3","name":"Државни пут IА реда А3","type":"route","route":"road","name:sr":"Државни пут IА реда А3","network":"RS:national","distance":"112","operator":"ЈП „Путеви Србије“","wikidata":"Q788420","wikipedia":"sr:Државни пут IА реда А3","name:sr-Latn":"Državni put IA reda A3"},"2415105":{"ref":"E 761","name":"E 761 (Serbia)","type":"route","route":"road","name:nl":"Europese route E761 (Servië)","network":"e-road"},"3376242":{"ref":"19","name":"државни пут IБ реда 19","type":"route","route":"road","name:sr":"државни пут IБ реда 19","network":"RS:national","name:sr-Latn":"državni put IB reda 19"},"3376269":{"ref":"13","name":"државни пут IБ реда 13","type":"route","route":"road","name:sr":"државни пут IБ реда 13","network":"RS:national","name:sr-Latn":"državni put IB reda 13"},"3376664":{"ref":"20","name":"државни пут IБ реда 20","type":"route","route":"road","name:sr":"државни пут IБ реда 20","network":"RS:national","name:sr-Latn":"državni put IB reda 20"},"3382366":{"ref":"11","name":"државни пут IБ реда 11","type":"route","route":"road","name:sr":"државни пут IБ реда 11","network":"RS:national","reg_name":"Y крак","wikidata":"Q25459819","wikipedia":"sr:Државни пут 11","name:sr-Latn":"državni put IB reda 11"},"3383895":{"ref":"40","name":"државни пут IБ реда 40","type":"route","route":"road","name:sr":"државни пут IБ реда 40","network":"RS:national","distance":"52.7","wikidata":"Q16084220","wikipedia":"sr:Државни пут 40","name:sr-Latn":"državni put IB reda 40"},"3384297":{"ref":"30","name":"државни пут IБ реда 30","type":"route","route":"road","name:sr":"државни пут IБ реда 30","network":"RS:national","wikidata":"Q25459879","wikipedia":"sr:Државни пут IБ реда 30","name:sr-Latn":"državni put IB reda 30"},"3388433":{"ref":"41","name":"државни пут IБ реда 41","type":"route","route":"road","name:al":"rruga e shtetit IB 41","name:mk":"Државен пат 41","name:sr":"државни пут IБ реда 41","network":"RS:national","distance":"82","wikidata":"Q16085121","wikipedia":"sr:Државни пут IБ реда 41","name:sr-Latn":"državni put IB reda 41"},"3390115":{"ref":"24","name":"државни пут IБ реда 24","type":"route","route":"road","name:sr":"државни пут IБ реда 24","network":"RS:national","wikidata":"Q25459878","wikipedia":"sr:Државни пут IБ реда 23","name:sr-Latn":"državni put IB reda 24"},"3390140":{"ref":"25","name":"државни пут IБ реда 25","type":"route","route":"road","bicycle":"no","name:sr":"државни пут IБ реда 25","network":"RS:national","distance":"114","wikidata":"Q25456869","wikipedia":"sr:Државни пут IБ реда 25","name:sr-Latn":"državni put IB reda 25"},"3390236":{"ref":"23","name":"државни пут IБ реда 23","type":"route","route":"road","name:sr":"државни пут IБ реда 23","network":"RS:national","wikidata":"Q25459878","wikipedia":"sr:Државни пут IБ реда 23","name:sr-Latn":"državni put IB reda 23"},"3390567":{"ref":"22","name":"државни пут IБ реда 22","type":"route","route":"road","name:sr":"државни пут IБ реда 22","network":"RS:national","wikidata":"Q3112928","wikipedia":"sr:Државни пут 22","name:sr-Latn":"državni put IB reda 22"},"3391574":{"ref":"26","name":"државни пут IБ реда 26","type":"route","route":"road","name:sr":"државни пут IБ реда 26","network":"RS:national","name:sr-Latn":"državni put IB reda 26"},"3391630":{"ref":"27","name":"државни пут IБ реда 27","type":"route","route":"road","name:sr":"државни пут IБ реда 27","network":"RS:national","name:sr-Latn":"državni put IB reda 27"},"3393997":{"ref":"100","name":"државни пут IIА реда 100","type":"route","route":"road","name:sr":"државни пут IIА реда 100","network":"RS:regional","wikidata":"Q26742859","wikipedia":"en:State Road 100 (Serbia)","name:sr-Latn":"državni put IIA reda 100"},"3399061":{"ref":"15","name":"државни пут IБ реда 15","type":"route","route":"road","name:sr":"државни пут IБ реда 15","network":"RS:national","wikidata":"Q25459825","wikipedia":"sr:Државни пут IБ реда 15","name:sr-Latn":"državni put IB reda 15"},"3400832":{"ref":"16","name":"државни пут IБ реда 16","type":"route","route":"road","name:sr":"државни пут IБ реда 16","network":"RS:national","name:sr-Latn":"državni put IB reda 16"},"3401532":{"ref":"33","name":"државни пут IБ реда 33","type":"route","route":"road","name:sr":"државни пут IБ реда 33","network":"RS:national","wikidata":"Q25459890","wikipedia":"sr:Државни пут 33","name:sr-Latn":"državni put IB reda 33"},"3401569":{"ref":"34","name":"државни пут IБ реда 34","type":"route","route":"road","name:sr":"државни пут IБ реда 34","network":"RS:national","old_ref":"M25.1","distance":"160.1","wikidata":"Q16084445","wikipedia":"sr:Државни пут IБ реда 34","name:sr-Latn":"državni put IB reda 34"},"3410345":{"ref":"12","name":"државни пут IБ реда 12","type":"route","route":"road","name:sr":"државни пут IБ реда 12","network":"RS:national","wikidata":"Q12751227","wikipedia":"sr:Државни пут 12","name:sr-Latn":"državni put IB reda 12"},"3410406":{"ref":"17","name":"државни пут IБ реда 17","type":"route","route":"road","name:sr":"државни пут IБ реда 17","network":"RS:national","wikidata":"Q25459828","wikipedia":"sr:Државни пут IБ реда 17","name:sr-Latn":"državni put IB reda 17"},"3410407":{"ref":"18","name":"државни пут IБ реда 18","type":"route","route":"road","name:sr":"државни пут IБ реда 18","network":"RS:national","distance":"147","wikidata":"Q12751222","wikipedia":"sr:Државни пут 18","name:sr-Latn":"državni put IB reda 18"},"3410421":{"ref":"14","name":"државни пут IБ реда 14","type":"route","route":"road","name:sr":"државни пут IБ реда 14","network":"RS:national","wikidata":"Q25459823","wikipedia":"sr:Државни пут IБ реда 14","name:sr-Latn":"državni put IB reda 14"},"3411480":{"ref":"37","name":"државни пут IБ реда 37","type":"route","route":"road","name:sr":"државни пут IБ реда 37","network":"RS:national","wikidata":"Q25459899","wikipedia":"sr:Државни пут IБ реда 37","name:sr-Latn":"državni put IB reda 37"},"3411509":{"ref":"38","name":"државни пут IБ реда 38","type":"route","route":"road","name:sr":"државни пут IБ реда 38","network":"RS:national","wikidata":"Q25459892","wikipedia":"sr:Државни пут IБ реда 38","name:sr-Latn":"državni put IB reda 38"},"3411986":{"ref":"36","name":"државни пут IБ реда 36","type":"route","route":"road","name:sr":"државни пут IБ реда 36","network":"RS:national","wikidata":"Q25459891","wikipedia":"sr:Државни пут 36","name:sr-Latn":"državni put IB reda 36"},"3412013":{"ref":"35","name":"државни пут IБ реда 35","type":"route","route":"road","name:al":"rruga e shtetit IB 35","name:sr":"државни пут IБ реда 35","network":"RS:national","distance":"418","name:sr-Latn":"državni put IB reda 35"},"3412023":{"ref":"39","name":"државни пут IБ реда 39","type":"route","route":"road","name:sr":"државни пут IБ реда 39","network":"RS:national","wikidata":"Q12751225","wikipedia":"sr:Државни пут IБ реда 39","name:sr-Latn":"državni put IB reda 39"},"3533690":{"ref":"110","name":"државни пут IIА реда 110","type":"route","route":"road","name:sr":"државни пут IIА реда 110","network":"RS:regional","wikidata":"Q26778680","wikipedia":"en:State Road 110 (Serbia)","name:sr-Latn":"državni put IIA reda 110"},"3534839":{"ref":"233","name":"државни пут IIА реда 233","type":"route","route":"road","name:sr":"државни пут IIА реда 233","name:sr-Latn":"državni put IIA reda 233"},"3534951":{"ref":"234","name":"државни пут IIА реда 234","type":"route","route":"road","name:sr":"државни пут IIА реда 234","name:sr-Latn":"državni put IIA reda 234"},"3534974":{"ref":"442","name":"државни пут IIБ реда 442","type":"route","route":"road","name:sr":"државни пут IIБ реда 442","name:sr-Latn":"državni put IIB reda 442"},"3846520":{"ref":"21","name":"државни пут IБ реда 21","type":"route","route":"road","name:sr":"државни пут IБ реда 21","network":"RS:national","wikidata":"Q22704301","wikipedia":"sr:Државни пут IБ реда 21","name:sr-Latn":"državni put IB reda 21"},"4661859":{"to":"G.P. Bajakovo (granica Rep. Srbije)","ref":"A3","from":"G.P. Bregana (granica Rep. Slovenije","name":"Autocesta A3 [negativ]","type":"route","route":"road","network":"Autoceste","distance":"306","operator":"HAC","reg_name":"Posavska autocesta","wikidata":"Q429577","wikipedia":"hr:Autocesta A3","description":"G.P. Bregana (granica Rep. Slovenije) – Zagreb – Sl. Brod – G.P. Bajakovo (granica Rep. Srbije)"},"4661860":{"to":"G.P. Bajakovo (granica Rep. Srbije)","ref":"A3","from":"G.P. Bregana (granica Rep. Slovenije)","name":"Autocesta A3 [positiv]","type":"route","route":"road","network":"Autoceste","distance":"306","operator":"HAC","reg_name":"Posavska autocesta","wikidata":"Q429577","wikipedia":"hr:Autocesta A3","description":"G.P. Bregana (granica Rep. Slovenije) – Zagreb – Sl. Brod – G.P. Bajakovo (granica Rep. Srbije)"},"6697754":{"ref":"A2","name":"Државни пут IА реда А2","type":"route","route":"road","name:sr":"Државни пут IА реда А2","network":"RS:national","distance":"258","operator":"ЈП „Путеви Србије“","wikidata":"Q15784782","wikipedia":"sr:Државни пут IА реда А2","name:sr-Latn":"Državni put IA reda A2"},"7212038":{"ref":"28","name":"државни пут IБ реда 28","type":"route","route":"road","name:sr":"државни пут IБ реда 28","network":"RS:national","distance":"172.5","wikidata":"Q12751214","wikipedia":"sr:Државни пут IБ реда 28","name:sr-Latn":"državni put IB reda 28"},"7212990":{"ref":"29","name":"државни пут IБ реда 29","type":"route","route":"road","name:sr":"државни пут IБ реда 29","network":"RS:national","wikidata":"Q12751224","wikipedia":"sr:Државни пут IБ реда 29","name:sr-Latn":"državni put IB reda 29"},"7220618":{"ref":"46","name":"државни пут IБ реда 46","type":"route","route":"road","name:sr":"државни пут IБ реда 46","network":"RS:national","name:sr-Latn":"državni put IB reda 46"},"7220620":{"ref":"47","name":"државни пут IБ реда 47","type":"route","route":"road","name:sr":"државни пут IБ реда 47","network":"RS:national","name:sr-Latn":"državni put IB reda 47"},"7425160":{"ref":"101","name":"државни пут IIА реда 101","type":"route","route":"road","name:sr":"државни пут IIА реда 101","network":"RS:regional","wikidata":"Q26742854","wikipedia":"en:State Road 101 (Serbia)","name:sr-Latn":"državni put IIA reda 101"},"7425189":{"ref":"102","name":"државни пут IIА реда 102","type":"route","route":"road","name:sr":"државни пут IIA реда 102","network":"RS:regional","wikidata":"Q26742849","wikipedia":"en:State Road 102 (Serbia)","name:sr-Latn":"državni put IIA reda 102"},"7425219":{"ref":"103","name":"државни пут IIА реда 103","type":"route","route":"road","name:sr":"државни пут IIА реда 103","network":"RS:regional","wikidata":"Q26742837","wikipedia":"en:State Road 103 (Serbia)","name:sr-Latn":"državni put IIA reda 103"},"7426145":{"ref":"104","name":"државни пут IIА реда 104","type":"route","route":"road","name:sr":"државни пут IIА реда 104","network":"RS:regional","wikidata":"Q26742228","wikipedia":"en:State Road 104 (Serbia)","name:sr-Latn":"državni put IIA reda 104"},"7426190":{"ref":"105","name":"државни пут IIА реда 105","type":"route","route":"road","name:sr":"државни пут IIА реда 105","network":"RS:regional","wikidata":"Q26742222","wikipedia":"en:State Road 105 (Serbia)","name:sr-Latn":"državni put IIA reda 105"},"7471940":{"ref":"106","name":"државни пут IIА реда 106","type":"route","route":"road","name:sr":"државни пут IIA реда 106","network":"RS:regional","wikidata":"Q26742208","wikipedia":"en:State Road 106 (Serbia)","name:sr-Latn":"državni put IIA reda 106"},"7471963":{"ref":"107","name":"државни пут IIА реда 107","type":"route","route":"road","name:sr":"државни пут IIА реда 107","network":"RS:regional","wikidata":"Q26742176","wikipedia":"en:State Road 107 (Serbia)","name:sr-Latn":"državni put IIA reda 107"},"7473011":{"ref":"108","name":"државни пут IIА реда 108","type":"route","route":"road","name:sr":"државни пут IIА реда 108","network":"RS:regional","wikidata":"Q26742832","wikipedia":"en:State Road 108 (Serbia)","name:sr-Latn":"državni put IIA reda 108"},"7473019":{"ref":"109","name":"државни пут IIА реда 109","type":"route","route":"road","name:sr":"државни пут IIА реда 109","network":"RS:regional","wikidata":"Q26742865","wikipedia":"en:State Road 109 (Serbia)","name:sr-Latn":"državni put IIA reda 109"},"7484168":{"ref":"111","name":"државни пут IIА реда 111","type":"route","route":"road","name:sr":"државни пут IIА реда 111","network":"RS:regional","wikidata":"Q26778693","wikipedia":"en:State Road 111 (Serbia)","name:sr-Latn":"državni put IIA reda 111"},"7484906":{"ref":"112","name":"државни пут IIА реда 112","type":"route","route":"road","name:sr":"државни пут IIА реда 112","network":"RS:regional","wikidata":"Q26778705","wikipedia":"en:State Road 112 (Serbia)","name:sr-Latn":"državni put IIA reda 112"},"7487017":{"ref":"113","name":"државни пут IIА реда 113","type":"route","route":"road","name:sr":"државни пут IIА реда 113","network":"RS:regional","wikidata":"Q28452671","wikipedia":"en:State Road 113 (Serbia)","name:sr-Latn":"državni put IIA reda 113"},"7487098":{"ref":"114","name":"државни пут IIА реда 114","type":"route","route":"road","name:sr":"државни пут IIA реда 114","network":"RS:regional","wikidata":"Q28452676","wikipedia":"en:State Road 114 (Serbia)","name:sr-Latn":"državni put IIA reda 114"},"7490016":{"ref":"115","name":"државни пут IIА реда 115","type":"route","route":"road","name:sr":"државни пут IIА реда 115","network":"RS:regional","wikidata":"Q28225019","wikipedia":"en:State Road 115 (Serbia)","name:sr-Latn":"državni put IIA reda 115"},"7490019":{"ref":"116","name":"државни пут IIА реда 116","type":"route","route":"road","name:sr":"државни пут IIА реда 116","network":"RS:regional","wikidata":"Q30602176","wikipedia":"en:State Road 116 (Serbia)","name:sr-Latn":"državni put IIA reda 116"},"7490093":{"ref":"117","name":"државни пут IIА реда 117","type":"route","route":"road","name:sr":"државни пут IIА реда 117","network":"RS:regional","wikidata":"Q30602205","wikipedia":"en:State Road 117 (Serbia)","name:sr-Latn":"državni put IIA reda 117"},"7491180":{"ref":"118","name":"државни пут IIА реда 118","type":"route","route":"road","name:sr":"државни пут IIА реда 118","network":"RS:regional","wikidata":"Q30668143","wikipedia":"en:State Road 118 (Serbia)","name:sr-Latn":"državni put IIA reda 118"},"7491198":{"ref":"119","name":"државни пут IIА реда 119","type":"route","route":"road","network":"RS:regional"},"7491349":{"ref":"120","name":"државни пут IIА реда 120","type":"route","route":"road","name:sr":"државни пут IIА реда 120","network":"RS:regional","wikidata":"Q30668145","wikipedia":"en:State Road 120 (Serbia)","name:sr-Latn":"državni put IIA reda 120"},"7493388":{"ref":"122","name":"државни пут IIА реда 122","type":"route","route":"road","name:sr":"државни пут IIА реда 122","network":"RS:regional","wikidata":"Q39075171","wikipedia":"en:State Road 122 (Serbia)","name:sr-Latn":"državni put IIA reda 122"},"7496850":{"ref":"123","name":"државни пут IIА реда 123","type":"route","route":"road","name:sr":"државни пут IIА реда 123","network":"RS:regional","wikidata":"Q39075822","wikipedia":"en:State Road 123 (Serbia)","name:sr-Latn":"državni put IIA reda 123"},"7496855":{"ref":"124","name":"државни пут IIА реда 124","type":"route","route":"road","name:sr":"државни пут IIА реда 124","network":"RS:regional","wikidata":"Q39075830","wikipedia":"en:State Road 124 (Serbia)","name:sr-Latn":"državni put IIA reda 124"},"7496859":{"ref":"125","name":"државни пут IIА реда 125","type":"route","route":"road","name:sr":"државни пут IIА реда 125","network":"RS:regional","wikidata":"Q12751219","wikipedia":"en:State Road 125 (Serbia)","name:sr-Latn":"državni put IIA reda 125"},"7496863":{"ref":"126","name":"државни пут IIА реда 126","type":"route","route":"road","name:sr":"државни пут IIА реда 126","network":"RS:regional","wikidata":"Q41905824","wikipedia":"en:State Road 126 (Serbia)","name:sr-Latn":"državni put IIA reda 126"},"7496864":{"ref":"127","name":"државни пут IIА реда 127","type":"route","route":"road","name:sr":"државни пут IIА реда 127","network":"RS:regional","name:sr-Latn":"državni put IIA reda 127"},"7496866":{"ref":"128","name":"државни пут IIА реда 128","type":"route","route":"road","name:sr":"државни пут IIА реда 128","network":"RS:regional","name:sr-Latn":"državni put IIA reda 128"},"7496868":{"ref":"129","name":"државни пут IIА реда 129","type":"route","route":"road","name:sr":"државни пут IIА реда 129","network":"RS:regional","name:sr-Latn":"državni put IIA reda 129"},"7496919":{"ref":"130","name":"државни пут IIА реда 130","type":"route","route":"road","name:sr":"државни пут IIА реда 130","network":"RS:regional","name:sr-Latn":"državni put IIA reda 130"},"7500521":{"ref":"131","name":"државни пут IIА реда 131","type":"route","route":"road","name:sr":"државни пут IIА реда 131","network":"RS:regional","name:sr-Latn":"državni put IIA reda 131"},"7501504":{"ref":"132","name":"државни пут IIА реда 132","type":"route","route":"road","name:sr":"државни пут IIА реда 132","network":"RS:regional","old_ref":"R125","name:sr-Latn":"državni put IIA reda 132"},"7501517":{"ref":"133","name":"државни пут IIА реда 133","type":"route","route":"road","name:sr":"државни пут IIА реда 133","network":"RS:regional","name:sr-Latn":"državni put IIA reda 133"},"7501598":{"ref":"134","name":"државни пут IIА реда 134","type":"route","route":"road","name:sr":"државни пут IIА реда 134","network":"RS:regional","name:sr-Latn":"državni put IIA reda 134"},"7501630":{"ref":"135","name":"државни пут IIА реда 135","type":"route","route":"road","name:sr":"државни пут IIА реда 135","network":"RS:regional","name:sr-Latn":"državni put IIA reda 135"},"7502125":{"ref":"136","name":"државни пут IIА реда 136","type":"route","route":"road","name:sr":"државни пут IIА реда 136","network":"RS:regional","name:sr-Latn":"državni put IIA reda 136"},"7502220":{"ref":"137","name":"државни пут IIА реда 137","type":"route","route":"road","name:sr":"државни пут IIА реда 137","network":"RS:regional","name:sr-Latn":"državni put IIA reda 137"},"7502502":{"ref":"138","name":"државни пут IIА реда 138","type":"route","route":"road","name:sr":"државни пут IIА реда 138","network":"RS:regional","name:sr-Latn":"državni put IIA reda 138"},"7502512":{"ref":"139","name":"државни пут IIА реда 139","type":"route","route":"road","name:sr":"државни пут IIА реда 138","network":"RS:regional","name:sr-Latn":"državni put IIA reda 138"},"7502520":{"ref":"140","name":"државни пут IIА реда 140","type":"route","route":"road","name:sr":"државни пут IIА реда 140","network":"RS:regional","name:sr-Latn":"državni put IIA reda 140"},"7502597":{"ref":"141","name":"државни пут IIА реда 141","type":"route","route":"road","name:sr":"државни пут IIА реда 141","network":"RS:regional","name:sr-Latn":"državni put IIA reda 141"},"7502607":{"ref":"142","name":"државни пут IIА реда 142","type":"route","route":"road","name:sr":"државни пут IIА реда 142","network":"RS:regional","name:sr-Latn":"državni put IIA reda 142"},"7502631":{"ref":"143","name":"државни пут IIА реда 143","type":"route","route":"road","name:sr":"државни пут IIА реда 143","network":"RS:regional","name:sr-Latn":"državni put IIA reda 143"},"7505466":{"ref":"144","name":"државни пут IIА реда 144","type":"route","route":"road","name:sr":"државни пут IIА реда 144","network":"RS:regional","name:sr-Latn":"državni put IIA reda 144"},"7505472":{"ref":"145","name":"државни пут IIА реда 145","type":"route","route":"road","name:sr":"државни пут IIА реда 145","network":"RS:regional","name:sr-Latn":"državni put IIA reda 145"},"7505487":{"ref":"146","name":"државни пут IIА реда 146","type":"route","route":"road","name:sr":"државни пут IIА реда 146","network":"RS:regional","name:sr-Latn":"državni put IIA reda 146"},"7520374":{"ref":"147","name":"државни пут IIА реда 147","type":"route","route":"road","name:sr":"државни пут IIА реда 147","network":"RS:regional","name:sr-Latn":"državni put IIA reda 147"},"7528777":{"ref":"148","name":"државни пут IIА реда 148","type":"route","route":"road","name:sr":"државни пут IIА реда 148","network":"RS:regional","name:sr-Latn":"državni put IIA reda 148"},"7528873":{"ref":"149","name":"државни пут IIА реда 149","type":"route","route":"road","name:sr":"државни пут IIА реда 149","network":"RS:regional","name:sr-Latn":"državni put IIA reda 149"},"7528888":{"ref":"150","name":"државни пут IIА реда 150","type":"route","route":"road","name:sr":"државни пут IIА реда 150","network":"RS:regional","name:sr-Latn":"državni put IIA reda 150"},"7531126":{"ref":"151","name":"државни пут IIА реда 151","type":"route","route":"road","name:sr":"државни пут IIА реда 151","network":"RS:regional","name:sr-Latn":"državni put IIA reda 151"},"7531133":{"ref":"152","name":"државни пут IIА реда 152","type":"route","route":"road","name:sr":"државни пут IIА реда 152","network":"RS:regional","name:sr-Latn":"državni put IIA reda 152"},"8274434":{"ref":"R-126","name":"R-126","type":"route","route":"road"},"9335011":{"ref":"DC28","name":"DN56A-Bistrița","type":"route","route":"road","colour":"#ffff00","network":"RO:DC"},"9340765":{"ref":"DC105","name":"Dănceu-Izvoarele","type":"route","route":"road","colour":"#ffff00","network":"RO:DC"},"11217541":{"to":"Лесковац (39)","ref":"158","from":"Мала Крсна (33)","name":"државни пут IIА реда 158","type":"route","route":"road","name:sr":"државни пут IIА реда 158","network":"RS:regional","name:sr-Latn":"državni put IIA reda 158"},"11588484":{"to":"Раља (A1)","ref":"153","from":"Лештане (154)","name":"државни пут IIА реда 153","type":"route","route":"road","name:sr":"државни пут IIА реда 153","network":"RS:regional","name:sr-Latn":"državni put IIA reda 153"},"11949961":{"to":"Државни пут А1","ref":"154","from":"Лештане","name":"Државни пут IIA реда 154","type":"route","route":"road","name:sr":"Државни пут IIA реда 154","network":"RS:IIA","name:sr-Latn":"Državni put IIA reda 154"},"11952705":{"to":"Младеновац","ref":"155","from":"Петријево","name":"Државни пут IIA реда 155","type":"route","route":"road","name:sr":"Државни пут IIA реда 155","network":"RS:IIA","name:sr-Latn":"Državni put IIA reda 155"},"11989834":{"to":"државни пут 102","ref":"300","from":"Суботица","name":"Државни пут IIБ реда 300","type":"route","route":"road","name:sr":"Државни пут IIБ реда 300","network":"RS:IIB","name:sr-Latn":"Državni put IIB reda 300"},"11992524":{"to":"Велебит","ref":"301","from":"Војвода Зимонић","name":"Државни пут IIБ реда 301","type":"route","route":"road","name:sr":"Државни пут IIБ реда 301","network":"RS:IIB","name:sr-Latn":"Državni put IIB reda 301"},"11992534":{"to":"Рабе","ref":"302","from":"Банатско Аранђелово","name":"Државни пут IIБ реда 302","type":"route","route":"road","name:sr":"Државни пут IIБ реда 302","network":"RS:IIB","name:sr-Latn":"Državni put IIB reda 302"},"11992612":{"to":"Торњош","ref":"303","from":"Стари Жедник","name":"Државни пут IIБ реда 303","type":"route","route":"road","name:sr":"Државни пут IIБ реда 303","network":"RS:IIB","name:sr-Latn":"Državni put IIB reda 303"},"11992666":{"to":"Риђица","ref":"304","from":"Кљајићево","name":"Државни пут IIБ реда 304","type":"route","route":"road","name:sr":"Државни пут IIБ реда 304","network":"RS:IIB","name:sr-Latn":"Državni put IIB reda 304"},"11996990":{"to":"Челарево","ref":"306","from":"Гајдобра","name":"Државни пут IIБ реда 306","type":"route","route":"road","name:sr":"Државни пут IIБ реда 306","network":"RS:IIB","name:sr-Latn":"Državni put IIB reda 306"},"11999369":{"to":"Нова Црња","ref":"307","from":"Башаид","name":"Државни пут IIБ реда 307","note":"put nije izgradjen u potpunosti","type":"route","route":"road","name:sr":"Државни пут IIБ реда 307","network":"RS:IIB","name:sr-Latn":"Državni put IIB reda 307"},"11999387":{"to":"Неузина","ref":"308","from":"Торак","name":"Државни пут IIБ реда 308","note":"put nije izgradjen u potpunosti","type":"route","route":"road","name:sr":"Државни пут IIБ реда 308","network":"RS:IIB","name:sr-Latn":"Državni put IIB reda 308"},"12034619":{"to":"Савино Село","ref":"305","from":"Врбас","name":"Државни пут IIБ реда 305","type":"route","route":"road","name:sr":"Државни пут IIБ реда 305","network":"RS:IIB","name:sr-Latn":"Državni put IIB reda 305"},"12034660":{"to":"Селеуш","ref":"311","from":"Падина","name":"Државни пут IIБ реда 311","type":"route","route":"road","name:sr":"Државни пут IIБ реда 311","network":"RS:IIB","name:sr-Latn":"Državni put IIB reda 311"},"12038385":{"to":"Дунав","ref":"312","from":"Врачев Гај","name":"Државни пут IIБ реда 312","type":"route","route":"road","name:sr":"Државни пут IIБ реда 312","network":"RS:IIB","name:sr-Latn":"Državni put IIB reda 312"},"12038412":{"to":"државни пут 100","ref":"313","from":"Раковац","name":"Државни пут IIБ реда 313","type":"route","route":"road","name:sr":"Државни пут IIБ реда 313","network":"RS:IIB","name:sr-Latn":"Državni put IIB reda 313"},"12038418":{"to":"државни пут 120","ref":"314","from":"Ердевик","name":"Државни пут IIБ реда 314","type":"route","route":"road","name:sr":"Државни пут IIБ реда 314","network":"RS:IIB","name:sr-Latn":"Državni put IIB reda 314"},"12038422":{"to":"државни пут 19","ref":"315","from":"Кукујевци","name":"Државни пут IIБ реда 315","type":"route","route":"road","name:sr":"Државни пут IIБ реда 315","network":"RS:IIB","name:sr-Latn":"Državni put IIB reda 315"},"12038423":{"to":"Јарак","ref":"316","from":"Сремска Митровица","name":"Државни пут IIБ реда 316","type":"route","route":"road","name:sr":"Државни пут IIБ реда 316","network":"RS:IIB","name:sr-Latn":"Državni put IIB reda 316"},"12038426":{"to":"Купиново","ref":"317","from":"Пећинци","name":"Државни пут IIБ реда 317","type":"route","route":"road","name:sr":"Државни пут IIБ реда 317","network":"RS:IIB","name:sr-Latn":"Državni put IIB reda 317"},"12038433":{"to":"државни пут А3","ref":"318","from":"Прхово","name":"Државни пут IIБ реда 318","type":"route","route":"road","name:sr":"Државни пут IIБ реда 318","network":"RS:IIB","name:sr-Latn":"Državni put IIB reda 318"},"12038443":{"to":"Црна Бара","ref":"320","from":"Богатић","name":"Државни пут IIБ реда 320","type":"route","route":"road","name:sr":"Државни пут IIБ реда 320","network":"RS:IIB","name:sr-Latn":"Državni put IIB reda 320"},"12038444":{"to":"Бадовинци","ref":"321","from":"Глоговац","name":"Државни пут IIБ реда 321","type":"route","route":"road","name:sr":"Државни пут IIБ реда 321","network":"RS:IIB","name:sr-Latn":"Državni put IIB reda 321"},"12038455":{"to":"Шабац (веза са државним путем 124)","ref":"322","from":"Глушци","name":"Државни пут IIБ реда 322","type":"route","route":"road","name:sr":"Државни пут IIБ реда 322","network":"RS:IIB","name:sr-Latn":"Državni put IIB reda 322"},"12038458":{"to":"државни пут 21","ref":"323","from":"Прњавор","name":"Државни пут IIБ реда 323","type":"route","route":"road","name:sr":"Државни пут IIБ реда 323","network":"RS:IIB","name:sr-Latn":"Državni put IIB reda 323"},"12038463":{"to":"Градојевић","ref":"324","from":"Шабац (веза са државним путем 26)","name":"Државни пут IIБ реда 324","type":"route","route":"road","name:sr":"Државни пут IIБ реда 324","network":"RS:IIB","name:sr-Latn":"Državni put IIB reda 324"},"12038850":{"to":"Сурчин (веза са државним путем А1)","ref":"319","from":"државни пут А1","name":"Државни пут IIБ реда 319","type":"route","route":"road","name:sr":"Државни пут IIБ реда 319","network":"RS:IIB","name:sr-Latn":"Državni put IIB reda 319"},"12038890":{"to":"државни пут 26","ref":"325","from":"Прово","name":"Државни пут IIБ реда 325","type":"route","route":"road","name:sr":"Државни пут IIБ реда 325","network":"RS:IIB","name:sr-Latn":"Državni put IIB reda 325"},"12038899":{"to":"Драгиње","ref":"326","from":"Владимирци","name":"Државни пут IIБ реда 326","type":"route","route":"road","name:sr":"Државни пут IIБ реда 326","network":"RS:IIB","name:sr-Latn":"Državni put IIB reda 326"},"12038976":{"to":"Ваљевска Каменица","ref":"327","from":"Дружетић (веза са државним путем 21)","name":"Државни пут IIБ реда 327","note":"put nije mapiran u potpunosti","type":"route","route":"road","name:sr":"Државни пут IIБ реда 327","network":"RS:IIB","name:sr-Latn":"Državni put IIB reda 327"},"12039001":{"to":"Ваљево","ref":"328","from":"државни пут 21","name":"Државни пут IIБ реда 328","note":"put nije mapiran u potpunosti","type":"route","route":"road","name:sr":"Државни пут IIБ реда 328","network":"RS:IIB","name:sr-Latn":"Državni put IIB reda 328"},"12039036":{"to":"државни пут 142","ref":"329","from":"државни пут 27","name":"Државни пут IIБ реда 329","type":"route","route":"road","name:sr":"Државни пут IIБ реда 329","network":"RS:IIB","name:sr-Latn":"Državni put IIB reda 329"},"12039053":{"to":"државни пут 137","ref":"330","from":"Лозница","name":"Државни пут IIБ реда 330","note":"put nije izgradjen u potpunosti","type":"route","route":"road","name:sr":"Државни пут IIБ реда 330","network":"RS:IIB","name:sr-Latn":"Državni put IIB reda 330"},"12041876":{"to":"Зајача","ref":"331","from":"Бања Ковиљача","name":"Државни пут IIБ реда 331","note":"put nije izgradjen u potpunosti","type":"route","route":"road","name:sr":"Државни пут IIБ реда 331","network":"RS:IIB","name:sr-Latn":"Državni put IIB reda 331"},"12041962":{"to":"Тршић","ref":"332","from":"државни пут 27","name":"Државни пут IIБ реда 332","type":"route","route":"road","name:sr":"Државни пут IIБ реда 332","network":"RS:IIB","name:sr-Latn":"Državni put IIB reda 332"},"12041964":{"to":"Манастир Троноша","ref":"333","from":"Коренита","name":"Државни пут IIБ реда 333","type":"route","route":"road","name:sr":"Државни пут IIБ реда 333","network":"RS:IIB","name:sr-Latn":"Državni put IIB reda 333"},"12041994":{"to":"Бела Црква","ref":"334","from":"Мојковић","name":"Државни пут IIБ реда 334","type":"route","route":"road","name:sr":"Државни пут IIБ реда 334","network":"RS:IIB","name:sr-Latn":"Državni put IIB reda 334"},"12041998":{"to":"државни пут 141","ref":"335","from":"Крупањ","name":"Државни пут IIБ реда 335","type":"route","route":"road","name:sr":"Државни пут IIБ реда 335","network":"RS:IIB","name:sr-Latn":"Državni put IIB reda 335"},"12042013":{"to":"Пецка","ref":"337","from":"Осечина","name":"Државни пут IIБ реда 337","type":"route","route":"road","name:sr":"Државни пут IIБ реда 337","network":"RS:IIB","name:sr-Latn":"Državni put IIB reda 337"},"12042018":{"to":"Варда","ref":"338","from":"Ваљево","name":"Државни пут IIБ реда 338","note":"postoji razlika u odnosu na zvaničnu geometriju","type":"route","route":"road","name:sr":"Државни пут IIБ реда 338","network":"RS:IIB","name:sr-Latn":"Državni put IIB reda 338"},"12042123":{"to":"Ужице","ref":"339","from":"Јакаљ","name":"Државни пут IIБ реда 339","type":"route","route":"road","name:sr":"Државни пут IIБ реда 339","network":"RS:IIB","name:sr-Latn":"Državni put IIB reda 339"},"12042149":{"to":"Слатина","ref":"340","from":"Велико Поље","name":"Државни пут IIБ реда 340","type":"route","route":"road","name:sr":"Државни пут IIБ реда 340","network":"RS:IIB","name:sr-Latn":"Državni put IIB reda 340"},"12042176":{"to":"државни пут 21","ref":"341","from":"Уб","name":"Државни пут IIБ реда 341","type":"route","route":"road","name:sr":"Државни пут IIБ реда 341","network":"RS:IIB","name:sr-Latn":"Državni put IIB reda 341"},"12043603":{"to":"Попучке","ref":"342","from":"Уб","name":"Државни пут IIБ реда 342","type":"route","route":"road","name:sr":"Државни пут IIБ реда 342","network":"RS:IIB","name:sr-Latn":"Državni put IIB reda 342"},"12043612":{"to":"Мељак","ref":"343","from":"Умка","name":"Државни пут IIБ реда 343","type":"route","route":"road","name:sr":"Државни пут IIБ реда 343","network":"RS:IIB","name:sr-Latn":"Državni put IIB reda 343"},"12043625":{"to":"Раља","ref":"344","from":"Дражевац","name":"Државни пут IIБ реда 344","note":"put nije mapiran u potpunosti, put nije izgradjen u potpunosti","type":"route","route":"road","name:sr":"Државни пут IIБ реда 344","network":"RS:IIB","name:sr-Latn":"Državni put IIB reda 344"},"12075635":{"to":"државни пут 149","ref":"346","from":"државни пут 22","name":"Државни пут IIБ реда 346","type":"route","route":"road","name:sr":"Државни пут IIБ реда 346","network":"RS:IIB","name:sr-Latn":"Državni put IIB reda 346"},"12075646":{"to":"Бећарево Брдо","ref":"347","from":"државни пут 149","name":"Државни пут IIБ реда 347","type":"route","route":"road","name:sr":"Државни пут IIБ реда 347","network":"RS:IIB","name:sr-Latn":"Državni put IIB reda 347"},"12075653":{"to":"Раља","ref":"349","from":"Дучина","name":"Државни пут IIБ реда 349","type":"route","route":"road","name:sr":"Државни пут IIБ реда 349","network":"RS:IIB","name:sr-Latn":"Državni put IIB reda 349"},"12075656":{"to":"Умчари","ref":"350","from":"Раља","name":"Државни пут IIБ реда 350","type":"route","route":"road","name:sr":"Државни пут IIБ реда 350","network":"RS:IIB","name:sr-Latn":"Državni put IIB reda 250"},"12078104":{"to":"државни пут А1","ref":"351","from":"Брестовик","name":"Државни пут IIБ реда 351","type":"route","route":"road","name:sr":"Државни пут IIБ реда 351","network":"RS:IIB","name:sr-Latn":"Državni put IIB reda 351"},"12078165":{"to":"Смедеревска Паланка","ref":"352","from":"државни пут 153","name":"Државни пут IIБ реда 352","note":"put nije mapiran u potpunosti","type":"route","route":"road","name:sr":"Државни пут IIБ реда 352","network":"RS:IIB","name:sr-Latn":"Državni put IIB reda 352"},"12080390":{"to":"Селевац","ref":"353","from":"Младеновац","name":"Државни пут IIБ реда 353","type":"route","route":"road","name:sr":"Државни пут IIБ реда 353","network":"RS:IIB","name:sr-Latn":"Državni put IIB reda 353"},"12080402":{"to":"Љубић","ref":"355","from":"Гојна Гора","name":"Државни пут IIБ реда 355","type":"route","route":"road","name:sr":"Државни пут IIБ реда 355","network":"RS:IIB","name:sr-Latn":"Državni put IIB reda 355"},"12080447":{"to":"Трбушани","ref":"356","from":"Брежђе","name":"Државни пут IIБ реда 356","type":"route","route":"road","name:sr":"Државни пут IIБ реда 356","network":"RS:IIB","name:sr-Latn":"Državni put IIB reda 356"},"12086546":{"to":"Бершићи","ref":"357","from":"државни пут 22","name":"Државни пут IIБ реда 357","type":"route","route":"road","name:sr":"Државни пут IIБ реда 357","network":"RS:IIB","name:sr-Latn":"Državni put IIB reda 357"},"12086550":{"to":"Срасла Буква","ref":"358","from":"Кадина Лука","name":"Државни пут IIБ реда 358","type":"route","route":"road","name:sr":"Државни пут IIБ реда 358","network":"RS:IIB","name:sr-Latn":"Državni put IIB reda 358"},"12086551":{"to":"Горњи Бањани","ref":"359","from":"Бершићи","name":"Државни пут IIБ реда 359","type":"route","route":"road","name:sr":"Државни пут IIБ реда 359","network":"RS:IIB","name:sr-Latn":"Državni put IIB reda 359"},"12086556":{"to":"државни пут 177","ref":"360","from":"државни пут 22","name":"Државни пут IIБ реда 360","type":"route","route":"road","name:sr":"Државни пут IIБ реда 360","network":"RS:IIB","name:sr-Latn":"Državni put IIB reda 360"},"12089187":{"to":"Љутовница","ref":"361","from":"Лајковац","name":"Државни пут IIБ реда 361","type":"route","route":"road","name:sr":"Државни пут IIБ реда 361","network":"RS:IIB","name:sr-Latn":"Državni put IIB reda 361"},"12089195":{"to":"државни пут 22","ref":"362","from":"Маљевић","name":"Државни пут IIБ реда 362","type":"route","route":"road","name:sr":"Државни пут IIБ реда 362","network":"RS:IIB","name:sr-Latn":"Državni put IIB reda 362"},"12089246":{"to":"Рудник","ref":"364","from":"Лазаревац","name":"Државни пут IIБ реда 364","type":"route","route":"road","name:sr":"Државни пут IIБ реда 364","network":"RS:IIB","name:sr-Latn":"Državni put IIB reda 364"},"12089247":{"to":"Белановица","ref":"365","from":"Сибница","name":"Државни пут IIБ реда 365","type":"route","route":"road","name:sr":"Државни пут IIБ реда 365","network":"RS:IIB","name:sr-Latn":"Državni put IIB reda 365"},"12092702":{"to":"Букуља","ref":"366","from":"Аранђеловац","name":"Државни пут IIБ реда 366","type":"route","route":"road","name:sr":"Државни пут IIБ реда 366","network":"RS:IIB","name:sr-Latn":"Državni put IIB reda 366"},"12092714":{"to":"Влакча","ref":"367","from":"Аранђеловац","name":"Државни пут IIБ реда 367","type":"route","route":"road","name:sr":"Државни пут IIБ реда 367","network":"RS:IIB","name:sr-Latn":"Državni put IIB reda 367"},"12092718":{"to":"Топола","ref":"368","from":"Аранђеловац","name":"Државни пут IIБ реда 368","type":"route","route":"road","name:sr":"Државни пут IIБ реда 368","network":"RS:IIB","name:sr-Latn":"Državni put IIB reda 368"},"12095020":{"to":"Рача","ref":"369","from":"државни пут 25","name":"Државни пут IIБ реда 369","type":"route","route":"road","name:sr":"Државни пут IIБ реда 369","network":"RS:IIB","name:sr-Latn":"Državni put IIB reda 369"},"12095024":{"to":"Адровац","ref":"370","from":"државни пут 147","name":"Државни пут IIБ реда 370","type":"route","route":"road","name:sr":"Државни пут IIБ реда 370","network":"RS:IIB","name:sr-Latn":"Državni put IIB reda 370"},"12095028":{"to":"Дубравица","ref":"371","from":"Пожаревац (веза са државним путем 34)","name":"Државни пут IIБ реда 371","type":"route","route":"road","name:sr":"Државни пут IIБ реда 371","network":"RS:IIB","name:sr-Latn":"Državni put IIB reda 371"},"12095035":{"to":"Братинац","ref":"372","from":"Рам","name":"Државни пут IIБ реда 372","type":"route","route":"road","name:sr":"Државни пут IIБ реда 372","network":"RS:IIB","name:sr-Latn":"Državni put IIB reda 372"},"12095037":{"to":"Тополовник","ref":"373","from":"Рам","name":"Државни пут IIБ реда 373","type":"route","route":"road","name:sr":"Државни пут IIБ реда 373","network":"RS:IIB","name:sr-Latn":"Državni put IIB reda 373"},"12095040":{"to":"Зеленик","ref":"374","from":"Браничево","name":"Државни пут IIБ реда 374","type":"route","route":"road","name:sr":"Државни пут IIБ реда 374","network":"RS:IIB","name:sr-Latn":"Državni put IIB reda 374"},"12095045":{"to":"Миљевић","ref":"375","from":"Берање","name":"Државни пут IIБ реда 375","type":"route","route":"road","name:sr":"Државни пут IIБ реда 375","network":"RS:IIB","name:sr-Latn":"Državni put IIB reda 375"},"12098629":{"to":"Tурија","ref":"376","from":"Малешево","name":"Државни пут IIБ реда 376","type":"route","route":"road","name:sr":"Државни пут IIБ реда 376","network":"RS:IIB","name:sr-Latn":"Državni put IIB reda 376"},"12098765":{"to":"Осипаоница","ref":"377","from":"Пожаревац (веза са државним путем 33)","name":"Државни пут IIБ реда 377","type":"route","route":"road","name:sr":"Државни пут IIБ реда 377","network":"RS:IIB","name:sr-Latn":"Državni put IIB reda 377"},"12098774":{"to":"државни пут 161","ref":"379","from":"Александровац","name":"Државни пут IIБ реда 379","type":"route","route":"road","name:sr":"Државни пут IIБ реда 379","network":"RS:IIB","name:sr-Latn":"Državni put IIB reda 379"},"12098783":{"to":"државни пут 147","ref":"378","from":"Пожаревац (веза са државним путем 33)","name":"Државни пут IIБ реда 378","type":"route","route":"road","name:sr":"Државни пут IIБ реда 378","network":"RS:IIB","name:sr-Latn":"Državni put IIB reda 378"},"12098785":{"to":"Кнић","ref":"380","from":"Баре","name":"Државни пут IIБ реда 380","type":"route","route":"road","name:sr":"Државни пут IIБ реда 380","network":"RS:IIB","name:sr-Latn":"Državni put IIB reda 380"},"12099070":{"to":"Лоћика","ref":"381","from":"државни пут 183","name":"Државни пут IIБ реда 381","type":"route","route":"road","name:sr":"Државни пут IIБ реда 381","network":"RS:IIB","name:sr-Latn":"Državni put IIB reda 381"},"12099076":{"to":"Манастир Каленић","ref":"382","from":"Доњи Крчин","name":"Државни пут IIБ реда 382","type":"route","route":"road","name:sr":"Државни пут IIБ реда 382","network":"RS:IIB","name:sr-Latn":"Državni put IIB reda 382"},"12099143":{"to":"Ћуприја","ref":"383","from":"Свилајнац","name":"Државни пут IIБ реда 383","type":"route","route":"road","name:sr":"Државни пут IIБ реда 383","network":"RS:IIB","name:sr-Latn":"Državni put IIB reda 383"},"12099145":{"to":"Манастир Манасија","ref":"384","from":"Деспотовац","name":"Државни пут IIБ реда 384","type":"route","route":"road","name:sr":"Државни пут IIБ реда 384","network":"RS:IIB","name:sr-Latn":"Državni put IIB reda 384"},"12099147":{"to":"Ресавска пећина","ref":"385","from":"Водна","name":"Државни пут IIБ реда 385","type":"route","route":"road","name:sr":"Државни пут IIБ реда 385","network":"RS:IIB","name:sr-Latn":"Državni put IIB reda 385"},"12099167":{"to":"Манастир Раваница","ref":"386","from":"државни пут 160","name":"Државни пут IIБ реда 386","type":"route","route":"road","name:sr":"Државни пут IIБ реда 386","network":"RS:IIB","name:sr-Latn":"Državni put IIB reda 386"},"12099178":{"to":"Поповац","ref":"387","from":"Давидовац","name":"Државни пут IIБ реда 387","type":"route","route":"road","name:sr":"Државни пут IIБ реда 387","network":"RS:IIB","name:sr-Latn":"Državni put IIB reda 387"},"12099197":{"to":"државни пут 160","ref":"388","from":"државни пут 36","name":"Државни пут IIБ реда 388","type":"route","route":"road","name:sr":"Државни пут IIБ реда 388","network":"RS:IIB","name:sr-Latn":"Državni put IIB reda 388"},"12099220":{"to":"Борско Језеро","ref":"389","from":"Стража","name":"Државни пут IIБ реда 389","type":"route","route":"road","name:sr":"Државни пут IIБ реда 389","network":"RS:IIB","name:sr-Latn":"Državni put IIB reda 389"},"12099221":{"to":"Бољевац","ref":"391","from":"Брестовачка Бања","name":"Државни пут IIБ реда 391","type":"route","route":"road","name:sr":"Државни пут IIБ реда 391","network":"RS:IIB","name:sr-Latn":"Državni put IIB reda 391"},"12099224":{"to":"Злотска пећина","ref":"392","from":"Злот","name":"Државни пут IIБ реда 392","type":"route","route":"road","name:sr":"Државни пут IIБ реда 392","network":"RS:IIB","name:sr-Latn":"Državni put IIB reda 392"},"12103632":{"to":"државни пут 166","ref":"393","from":"Јасиково","name":"Државни пут IIБ реда 393","type":"route","route":"road","name:sr":"Државни пут IIБ реда 393","network":"RS:IIB","name:sr-Latn":"Državni put IIB reda 393"},"12103639":{"to":"државни пут 36","ref":"394","from":"Брестовац","name":"Државни пут IIБ реда 394","type":"route","route":"road","name:sr":"Државни пут IIБ реда 394","network":"RS:IIB","name:sr-Latn":"Državni put IIB reda 394"},"12103646":{"to":"Бољевац","ref":"395","from":"Зајечар","name":"Државни пут IIБ реда 395","type":"route","route":"road","name:sr":"Државни пут IIБ реда 395","network":"RS:IIB","name:sr-Latn":"Državni put IIB reda 395"},"12103653":{"to":"Брза Паланка","ref":"396","from":"Поречки мост","name":"Државни пут IIБ реда 396","type":"route","route":"road","name:sr":"Државни пут IIБ реда 396","network":"RS:IIB","name:sr-Latn":"Državni put IIB reda 396"},"12103682":{"to":"Штубик","ref":"397","from":"Слатина","name":"Државни пут IIБ реда 397","type":"route","route":"road","name:sr":"Државни пут IIБ реда 397","network":"RS:IIB","name:sr-Latn":"Državni put IIB reda 397"},"12103697":{"to":"Неготин","ref":"398","from":"Лука","name":"Државни пут IIБ реда 398","type":"route","route":"road","name:sr":"Државни пут IIБ реда 398","network":"RS:IIB","name:sr-Latn":"Državni put IIB reda 398"},"12103706":{"to":"Салаш","ref":"399","from":"Плавна","name":"Државни пут IIБ реда 399","type":"route","route":"road","name:sr":"Државни пут IIБ реда 399","network":"RS:IIB","name:sr-Latn":"Državni put IIB reda 399"},"12103720":{"to":"државни пут 168","ref":"400","from":"Неготин","name":"Државни пут IIБ реда 400","type":"route","route":"road","name:sr":"Државни пут IIБ реда 400","network":"RS:IIB","name:sr-Latn":"Državni put IIB reda 400"},"12103733":{"to":"Манастир Рача","ref":"402","from":"државни пут 170","name":"Државни пут IIБ реда 402","type":"route","route":"road","name:sr":"Државни пут IIБ реда 402","network":"RS:IIB","name:sr-Latn":"Državni put IIB reda 402"},"12103738":{"to":"Заовине","ref":"403","from":"Калуђерске Баре","name":"Државни пут IIБ реда 403","type":"route","route":"road","name:sr":"Државни пут IIБ реда 403","network":"RS:IIB","name:sr-Latn":"Državni put IIB reda 403"},"12103768":{"to":"Семегњево (железничка станица)","ref":"404","from":"државни пут 23","name":"Државни пут IIБ реда 404","type":"route","route":"road","name:sr":"Државни пут IIБ реда 404","network":"RS:IIB","name:sr-Latn":"Državni put IIB reda 404"},"12103781":{"to":"Рибница","ref":"405","from":"Рзав","name":"Државни пут IIБ реда 405","type":"route","route":"road","name:sr":"Државни пут IIБ реда 405","network":"RS:IIB","name:sr-Latn":"Državni put IIB reda 405"},"12103797":{"to":"државни пут 195","ref":"406","from":"државни пут 195","name":"Државни пут IIБ реда 406","note":"put nije mapiran u potpunosti","type":"route","route":"road","name:sr":"Државни пут IIБ реда 406","network":"RS:IIB","name:sr-Latn":"Državni put IIB reda 406"},"12103879":{"to":"државна граница са Црном Гором","ref":"407","from":"Мијоска","name":"Државни пут IIБ реда 407","note":"put nije mapiran u potpunosti","type":"route","route":"road","name:sr":"Државни пут IIБ реда 407","network":"RS:IIB","name:sr-Latn":"Državni put IIB reda 407"},"12103891":{"to":"Лучани","ref":"408","from":"државни пут 23","name":"Државни пут IIБ реда 408","type":"route","route":"road","name:sr":"Државни пут IIБ реда 408","network":"RS:IIB","name:sr-Latn":"Državni put IIB reda 408"},"12115928":{"to":"Глеђица","ref":"409","from":"државни пут 197","name":"Државни пут IIБ реда 409","type":"route","route":"road","name:sr":"Државни пут IIБ реда 409","network":"RS:IIB","name:sr-Latn":"Državni put IIB reda 409"},"12115930":{"to":"државни пут 22","ref":"410","from":"Краљево","name":"Државни пут IIБ реда 410","type":"route","route":"road","name:sr":"Државни пут IIБ реда 410","network":"RS:IIB","name:sr-Latn":"Državni put IIB reda 410"},"12115956":{"to":"Гоч","ref":"411","from":"Угљарево","name":"Државни пут IIБ реда 411","type":"route","route":"road","name:sr":"Државни пут IIБ реда 411","network":"RS:IIB","name:sr-Latn":"Državni put IIB reda 411"},"12115963":{"to":"Рудно","ref":"412","from":"Брвеник","name":"Државни пут IIБ реда 412","type":"route","route":"road","name:sr":"Државни пут IIБ реда 412","network":"RS:IIB","name:sr-Latn":"Državni put IIB reda 412"},"12115965":{"to":"административна линија АП Косово и Метохија","ref":"413","from":"државни пут 22","name":"Државни пут IIБ реда 413","note":"put nije izgradjen u potpunosti","type":"route","route":"road","name:sr":"Државни пут IIБ реда 413","network":"RS:IIB","name:sr-Latn":"Državni put IIB reda 413"},"12115971":{"to":"Лепосавић","ref":"414","from":"Мерћез","name":"Државни пут IIБ реда 414","note":"put nije izgradjen u potpunosti","type":"route","route":"road","name:sr":"Државни пут IIБ реда 414","network":"RS:IIB","name:sr-Latn":"Državni put IIB reda 414"},"12115977":{"to":"Прокупље","ref":"415","from":"Крушевац","name":"Државни пут IIБ реда 415","note":"put nije izgradjen u potpunosti","type":"route","route":"road","name:sr":"Државни пут IIБ реда 415","network":"RS:IIB","name:sr-Latn":"Državni put IIB reda 415"},"12167021":{"to":"Рибарска Бања","ref":"416","from":"Рибаре","name":"Државни пут IIБ реда 416","type":"route","route":"road","name:sr":"Државни пут IIБ реда 416","network":"RS:IIB","name:sr-Latn":"Državni put IIB reda 416"},"12167024":{"to":"државни пут 216","ref":"417","from":"Мерошина","name":"Државни пут IIБ реда 417","type":"route","route":"road","name:sr":"Државни пут IIБ реда 417","network":"RS:IIB","name:sr-Latn":"Državni put IIB reda 417"},"12167056":{"to":"Малошиште (веза са државним путем 158)","ref":"418","from":"Прокупље","name":"Државни пут IIБ реда 418","type":"route","route":"road","name:sr":"Државни пут IIБ реда 418","network":"RS:IIB","name:sr-Latn":"Državni put IIB reda 418"},"12167058":{"to":"Злата","ref":"419","from":"Житорађа","name":"Државни пут IIБ реда 419","type":"route","route":"road","name:sr":"Државни пут IIБ реда 419","network":"RS:IIB","name:sr-Latn":"Državni put IIB reda 419"},"12167071":{"to":"државни пут 217","ref":"420","from":"Нови Брачин","name":"Државни пут IIБ реда 420","note":"put nije izgradjen u potpunosti","type":"route","route":"road","name:sr":"Државни пут IIБ реда 420","network":"RS:IIB","name:sr-Latn":"Državni put IIB reda 420"},"12167079":{"to":"Ртањ","ref":"421","from":"државни пут 36","name":"Државни пут IIБ реда 421","type":"route","route":"road","name:sr":"Државни пут IIБ реда 421","network":"RS:IIB","name:sr-Latn":"Državni put IIB reda 421"},"12223848":{"to":"Прељина","ref":"A5","from":"Појате","name":"Државни пут IА реда А5","type":"route","route":"road","name:sr":"Државни пут IА реда А5","network":"RS:IA","distance":"109","wikidata":"Q788414","wikipedia":"sr:Државни пут IА реда А5","name:sr-Latn":"Državni put IA reda A5"},"12272110":{"to":"државни пут 35","ref":"422","from":"државни пут 219","name":"Државни пут IIБ реда 422","type":"route","route":"road","name:sr":"Државни пут IIБ реда 422","network":"RS:IIB","name:sr-Latn":"Državni put IIB reda 422"},"12272158":{"to":"Вратарница","ref":"423","from":"државни пут 219","name":"Државни пут IIБ реда 423","note":"put nije izgradjen u potpunosti","type":"route","route":"road","name:sr":"Државни пут IIБ реда 423","network":"RS:IIB","name:sr-Latn":"Državni put IIB reda 423"},"12272263":{"to":"Врело","ref":"424","from":"државни пут 158","name":"Државни пут IIБ реда 424","note":"put nije mapiran u potpunosti","type":"route","route":"road","name:sr":"Државни пут IIБ реда 424","network":"RS:IIB","name:sr-Latn":"Državni put IIB reda 424"},"12272299":{"to":"државни пут 222","ref":"425","from":"Књажевац","name":"Државни пут IIБ реда 425","type":"route","route":"road","name:sr":"Државни пут IIБ реда 425","network":"RS:IIB","name:sr-Latn":"Državni put IIB reda 425"},"12272311":{"to":"Малча","ref":"426","from":"државни пут А4","name":"Државни пут IIБ реда 426","type":"route","route":"road","name:sr":"Државни пут IIБ реда 426","network":"RS:IIB","name:sr-Latn":"Državni put IIB reda 426"},"12272318":{"to":"Црвена Река","ref":"427","from":"Нишка Бања","name":"Државни пут IIБ реда 427","type":"route","route":"road","name:sr":"Државни пут IIБ реда 427","network":"RS:IIB","name:sr-Latn":"Državni put IIB reda 427"},"12272336":{"to":"државни пут 39","ref":"428","from":"Бела Паланка","name":"Државни пут IIБ реда 428","type":"route","route":"road","name:sr":"Државни пут IIБ реда 428","network":"RS:IIB","name:sr-Latn":"Državni put IIB reda 428"},"12272367":{"to":"Трнски Одоровци","ref":"429","from":"Димитровград","name":"Државни пут IIБ реда 429","type":"route","route":"road","name:sr":"Државни пут IIБ реда 429","network":"RS:IIB","name:sr-Latn":"Državni put IIB reda 429"},"12272373":{"to":"Слишане","ref":"430","from":"Бојник","name":"Државни пут IIБ реда 430","type":"route","route":"road","name:sr":"Државни пут IIБ реда 430","network":"RS:IIB","name:sr-Latn":"Državni put IIB reda 430"},"12272387":{"to":"Радан","ref":"431","from":"Мијајлица","name":"Државни пут IIБ реда 431","type":"route","route":"road","name:sr":"Државни пут IIБ реда 431","network":"RS:IIB","name:sr-Latn":"Državni put IIB reda 431"},"12272405":{"to":"Лебане","ref":"432","from":"Царичин Град","name":"Државни пут IIБ реда 432","type":"route","route":"road","name:sr":"Државни пут IIБ реда 432","network":"RS:IIB","name:sr-Latn":"Državni put IIB reda 432"},"12272407":{"to":"Сијаринска Бања","ref":"433","from":"државни пут 39","name":"Државни пут IIБ реда 433","type":"route","route":"road","name:sr":"Државни пут IIБ реда 433","network":"RS:IIB","name:sr-Latn":"Državni put IIB reda 433"},"12272414":{"to":"државни пут 435","ref":"434","from":"Лебане","name":"Државни пут IIБ реда 434","type":"route","route":"road","name:sr":"Државни пут IIБ реда 434","network":"RS:IIB","name:sr-Latn":"Državni put IIB reda 434"},"12272415":{"to":"државни пут 41","ref":"435","from":"Власе","name":"Државни пут IIБ реда 435","note":"put nije izgradjen u potpunosti","type":"route","route":"road","name:sr":"Државни пут IIБ реда 435","network":"RS:IIB","name:sr-Latn":"Državni put IIB reda 435"},"12297572":{"to":"Владичин Хан","ref":"436","from":"Стројковце","name":"Државни пут IIБ реда 436","type":"route","route":"road","name:sr":"Државни пут IIБ реда 436","network":"RS:IIB","name:sr-Latn":"Državni put IIB reda 436"},"12297609":{"to":"Горње Драговље","ref":"437","from":"Лесковац","name":"Државни пут IIБ реда 437","type":"route","route":"road","name:sr":"Државни пут IIБ реда 437","network":"RS:IIB","name:sr-Latn":"Državni put IIB reda 437"},"12297615":{"to":"државни пут А1","ref":"438","from":"Власотинце","name":"Државни пут IIБ реда 438","type":"route","route":"road","name:sr":"Државни пут IIБ реда 438","network":"RS:IIB","name:sr-Latn":"Državni put IIB reda 438"},"12297621":{"to":"Стрезимировци","ref":"439","from":"Састав Река","name":"Државни пут IIБ реда 439","type":"route","route":"road","name:sr":"Државни пут IIБ реда 439","network":"RS:IIB","name:sr-Latn":"Državni put IIB reda 439"},"12297626":{"to":"Мачкатица","ref":"440","from":"Житорађе","name":"Државни пут IIБ реда 440","type":"route","route":"road","name:sr":"Државни пут IIБ реда 440","network":"RS:IIB","name:sr-Latn":"Državni put IIB reda 440"},"12297633":{"to":"Сурдулица","ref":"441","from":"Владичин Хан","name":"Државни пут IIБ реда 441","type":"route","route":"road","name:sr":"Државни пут IIБ реда 441","network":"RS:IIB","name:sr-Latn":"Državni put IIB reda 441"},"12297636":{"to":"државна граница са БЈР Македонијом","ref":"444","from":"Рибарци","name":"Државни пут IIБ реда 444","type":"route","route":"road","name:sr":"Државни пут IIБ реда 444","network":"RS:IIB","name:sr-Latn":"Državni put IIB reda 444"},"12297780":{"to":"Брезница","ref":"445","from":"Бујановац","name":"Државни пут IIБ реда 445","type":"route","route":"road","name:sr":"Државни пут IIБ реда 445","network":"RS:IIB","name:sr-Latn":"Državni put IIB reda 445"},"12297786":{"to":"Божевац","ref":"471","from":"Мало Црниће","name":"Државни пут IIБ реда 471","type":"route","route":"road","name:sr":"Државни пут IIБ реда 471","network":"RS:IIB","name:sr-Latn":"Državni put IIB reda 471"},"12297802":{"to":"Власе","ref":"473","from":"Лепеница","name":"Државни пут IIБ реда 473","type":"route","route":"road","name:sr":"Државни пут IIБ реда 473","network":"RS:IIB","name:sr-Latn":"Državni put IIB reda 473"},"12297829":{"to":"Костолац","ref":"159","from":"Пожаревац","name":"Државни пут IIА реда 159","type":"route","route":"road","name:sr":"Државни пут IIА реда 159","network":"RS:IIA","name:sr-Latn":"Državni put IIA reda 159"},"12297836":{"to":"Наталинци","ref":"156","from":"Раља","name":"Државни пут IIА реда 156","type":"route","route":"road","name:sr":"Државни пут IIА реда 156","network":"RS:IIA","name:sr-Latn":"Državni put IIA reda 156"},"12297855":{"to":"Церовац","ref":"157","from":"Рача","name":"Државни пут IIА реда 157","type":"route","route":"road","name:sr":"Државни пут IIА реда 157","network":"RS:IIA","name:sr-Latn":"Državni put IIA reda 157"},"12297905":{"to":"Ћуприја","ref":"160","from":"Пожаревац","name":"Државни пут IIА реда 160","type":"route","route":"road","name:sr":"Државни пут IIА реда 160","network":"RS:IIA","name:sr-Latn":"Državni put IIA reda 160"},"12298058":{"to":"Брестовац","ref":"161","from":"Братинац","name":"Државни пут IIА реда 161","type":"route","route":"road","name:sr":"Државни пут IIА реда 161","network":"RS:IIA","name:sr-Latn":"Državni put IIA reda 161"},"12301857":{"to":"Свилајнац","ref":"162","from":"Велико Градиште","name":"Државни пут IIА реда 162","type":"route","route":"road","name:sr":"Државни пут IIА реда 162","network":"RS:IIA","name:sr-Latn":"Državni put IIA reda 162"},"12301867":{"to":"Љешница","ref":"163","from":"Голубац","name":"Државни пут IIА реда 163","type":"route","route":"road","name:sr":"Државни пут IIА реда 163","network":"RS:IIA","name:sr-Latn":"Državni put IIA reda 163"},"12301870":{"to":"Жагубица","ref":"164","from":"Доњи Милановац","name":"Државни пут IIА реда 164","type":"route","route":"road","name:sr":"Државни пут IIА реда 164","network":"RS:IIA","name:sr-Latn":"Državni put IIA reda 164"},"12304708":{"to":"Звездан","ref":"165","from":"Поречки мост","name":"Државни пут IIА реда 165","type":"route","route":"road","name:sr":"Државни пут IIА реда 165","network":"RS:IIA","name:sr-Latn":"Državni put IIA reda 165"},"12304755":{"to":"Заграђе","ref":"166","from":"Бор","name":"Државни пут IIА реда 166","type":"route","route":"road","name:sr":"Државни пут IIА реда 166","network":"RS:IIA","name:sr-Latn":"Državni put IIA reda 166"},"12304778":{"to":"Милутиновац","ref":"167","from":"Кладово","name":"Државни пут IIА реда 167","type":"route","route":"road","name:sr":"Државни пут IIА реда 167","network":"RS:IIA","name:sr-Latn":"Državni put IIA reda 167"},"12304796":{"to":"гранични прелаз Кусјак","ref":"168","from":"државни пут 35","name":"Државни пут IIА реда 168","type":"route","route":"road","name:sr":"Државни пут IIА реда 168","network":"RS:IIA","name:sr-Latn":"Državni put IIA reda 168"},"12304816":{"to":"Бучје","ref":"169","from":"државни пут 33","name":"Државни пут IIА реда 169","type":"route","route":"road","name:sr":"Државни пут IIА реда 169","network":"RS:IIA","name:sr-Latn":"Državni put IIA reda 169"},"12304824":{"to":"Кремна","ref":"170","from":"Ваљево","name":"Државни пут IIА реда 170","type":"route","route":"road","name:sr":"Државни пут IIА реда 170","network":"RS:IIA","name:sr-Latn":"Državni put IIA reda 170"},"13763875":{"ref":"A1","name":"државни пут IА реда А1","type":"route","route":"road","name:sr":"државни пут IА реда А1","network":"RS:national","wikidata":"Q5322442","name:sr-Latn":"državni put IA reda A1"},"14385265":{"to":"Рума","ref":"21","via":"Ириг","from":"Каћ","name":"Фрушкогорски коридор","type":"route","route":"road","name:en":"Fruška gora corridor","name:sr":"Фрушкогорски коридор","name:sr-Latn":"Fruškogorski koridor"},"14675469":{"ref":"УМП","name":"Унутрашњи магистрални полупрстен","type":"route","route":"road","name:sr":"Унутрашњи магистрални полупрстен","wikidata":"Q20438021","wikipedia":"sr:Унутрашњи магистрални полупрстен","name:sr-Latn":"Unutrašnji magistralni poluprsten"},"14675498":{"ref":"СМТ","name":"Спољна магистрална тангента","type":"route","route":"road","name:sr":"Спољна магистрална тангента","wikidata":"Q12759453","wikipedia":"sr:Спољна магистрална тангента","name:sr-Latn":"Spoljna magistralna tangenta"},"14741730":{"to":"Костојевићи","ref":"174","from":"Ужице","name":"Државни пут IIА реда 174","type":"route","route":"road","name:sr":"Државни пут IIА реда 174","network":"RS:IIA","name:sr-Latn":"Državni put IIA reda 174"},"14759155":{"to":"Доњи Стајевац","ref":"227","from":"Лесковац","name":"Државни пут IIА реда 227","type":"route","route":"road","name:sr":"Државни пут IIА реда 227","network":"RS:IIA","name:sr-Latn":"Državni put IIA reda 227"},"15415506":{"to":"Крагујевац","ref":"177","from":"веза са државним путем 21","name":"Државни пут IIА реда 177","type":"route","route":"road","name:sr":"Државни пут IIА реда 177","network":"RS:regional","name:sr-Latn":"Državni put IIA reda 177"}}