{"9190878":{"ref":"EV8","name":"EuroVelo 8 - Mediterranean Route - part Greece","type":"route","route":"bicycle","colour":"#003399","icn_ref":"8","name:cs":"EuroVelo 8 - Středomořská trasa - sekce Řecko","name:de":"EuroVelo 8 - Mittelmeer-Route - teil Griechenland","name:en":"EuroVelo 8 - Mediterranean Route - part Greece","name:es":"EuroVelo 8 - Ruta Mediterránea - parte Grecia","name:fr":"EuroVelo 8 - La Méditerranée à vélo - Partie Grèce","name:hr":"EuroVelo 8 - Mediteranska staza - dio Grčka","name:hu":"EuroVelo 8 - Mediterrán útvonal - rész Görögország","name:it":"EuroVelo 8 - Percorso Mediterraneo - parte Grecia","name:nl":"EuroVelo 8 - Middellandse Zeeroute - deel Griekenland","name:pl":"EuroVelo 8 - Szlak Śródziemnomorski - część Grecja","name:sk":"EuroVelo 8 - Stredomorská trasa - sekcia Grécko","name:tr":"EuroVelo 8 - Akdeniz Rotası - kısım Yunanistan","network":"icn","website":"http://www.eurovelo.com/ev8/greece","operator":"Europen Cyclists' Federation","wikipedia":"en:EV8 The Mediterranean Route","osmc:symbol":":blue:yellow_circle:8:white","cycle_network":"EuroVelo"},"10661949":{"ref":"EV8","name":"EuroVelo 8 - Mediterranean Route - part Albania","type":"route","route":"bicycle","colour":"#003399","icn_ref":"8","name:en":"EuroVelo 8 - Mediterranean Route - part Albania","name:fr":"EuroVelo 8 - La route de la Méditerranée - tronçon Albanie","name:nl":"EuroVelo 8 - Middellandse Zeeroute - deel Albanië","network":"icn","website":"http://www.eurovelo.com/ev8/albania","operator":"Europen Cyclists' Federation","wikipedia":"en:EV8 The Mediterranean Route","osmc:symbol":":blue:yellow_circle:8:white","cycle_network":"EuroVelo"}}