{"2343436":{"ref":"EV6","name":"Дунавски велосипеден маршрут","note":"EV6 in Bulgaria","type":"route","route":"bicycle","name:de":"Donauradweg BG","name:en":"Danube Bike Trail - part Bulgaria","name:hu":"Duna menti kerékpárút – Bulgáriai","name:sr":"Дунавски бициклистички пут","network":"ncn"},"2764756":{"ref":"EV6","name":"EuroVelo 6 - Atlantic-Black Sea - part Bulgaria","type":"route","lanes":"1","route":"bicycle","colour":"#003399","icn_ref":"EV6","name:cs":"EuroVelo 6 - Atlantik-Černé moře - sekce Bulharsko","name:de":"EuroVelo 6 - Atlantik-Schwarzes Meer - Teil Bulgarien","name:en":"EuroVelo 6 - Atlantic-Black Sea - part Bulgaria","name:fr":"EuroVelo 6 - Atlantique-Mer Noire - tronçon Bulgarie","name:hr":"EuroVelo 6 - Atlantik-Crno More - dio Bugarska","name:hu":"EuroVelo 6 – Bulgáriai szakasz","name:nl":"EuroVelo 6 - Atlantisch-Zwarte Zee - deel Bulgarije","name:pl":"EuroVelo 6 - Atlantyk-Morze Czarne - część Bułgaria","network":"icn","surface":"asphalt","alt_name":"Atlantic-Black Sea - part Bulgaria","osmc:symbol":":blue:yellow_circle:6:white"},"2778994":{"to":"BG/GR border (Slaveevo)","ref":"EV13","from":"MK/BG border (Zlatarevo)","name":"EuroVelo 13 - Iron Curtain Trail - part Bulgaria South","type":"route","route":"bicycle","colour":"#003399","icn_ref":"13","name:bg":"ЕвроВело 13 - Пътя на желязната завеса Юг","name:cs":"EuroVelo 13 - Stezka železné opony - sekce Bulharsko 2","name:de":"EuroVelo 13 - Iron Curtain Trail - Bulgarischer Abschnitt Süd","name:en":"EuroVelo 13 - Iron Curtain Trail - part Bulgaria South","name:fr":"EuroVelo 13 - La route du rideau de fer - part Bulgarie Sud","name:hr":"EuroVelo 13 - Ruta Željezne Zavjese - dio Bugarska 2","name:nl":"EuroVelo 13 - IJzerengordijnpad - deel Bulgarije Zuid","name:pl":"EuroVelo 13 - Szlak Żelaznej Kurtyny - część Bułgaria 2","name:sk":"EuroVelo 13 - Cesta Železnej opony - sekcia Bulharsko 2","name:sl":"EuroVelo 13 - Varnostna zavesa pot - oddelek Bolgarija 2","name:tr":"EuroVelo 13 - Demir Perde Yolu - kısım Bulgaristan 2","network":"icn","website":"http://www.eurovelo13.com/countries/bulgaria","cycle_network":"EuroVelo"},"2779415":{"to":"Novo Selo","ref":"EV13","from":"Delchevo","name":"EuroVelo 13 - Iron Curtain Trail - part North Macedonia","type":"route","route":"bicycle","colour":"#003399","icn_ref":"13","name:cs":"EuroVelo 13 - Stezka železné opony - sekce Severní Makedonie","name:de":"EuroVelo 13 - Eiserner-Vorhang-Route - Abschnitt Nordmazedonien","name:en":"EuroVelo 13 - Iron Curtain Trail - part North Macedonia","name:fr":"EuroVelo 13 - La route du rideau de fer - part Macédoine du Nord","name:hr":"EuroVelo 13 - Ruta Željezne Zavjese - dio Sjeverna Makedonija","name:nl":"EuroVelo 13 - IJzerengordijnpad - deel Noord-Macedonië","name:pl":"EuroVelo 13 - Szlak Żelaznej Kurtyny - część Macedonia Północna","name:sk":"EuroVelo 13 - Cesta Železnej opony - sekcia Severné Macedónsko","name:sl":"EuroVelo 13 - Varnostna zavesa pot - oddelek Severna Makedonija","name:tr":"EuroVelo 13 - Demir Perde Yolu - kısım Kuzey Makedonya","network":"icn","website":"https://en.eurovelo.com/ev13/republic-of-macedonia","cycle_network":"EuroVelo"},"7500326":{"ref":"17","name":"Велоалея 17 \\\"Бул. Никола Вапцаров\\\"","type":"route","route":"bicycle","network":"lcn","distance":"3.520 km"},"7500327":{"ref":"18","name":"Велоалея 18","type":"route","route":"bicycle","network":"lcn","distance":"2.365"},"7500328":{"ref":"3","name":"Велоалея 3 \\\"Бул. Копривщица - Изток и Бул. Христо Ботев\\\"","type":"route","route":"bicycle","network":"lcn","distance":"1.766 km"},"8824092":{"to":"Бургас","ref":"BP5","from":"София","name":"Веломаршрут - Подбалканският път","type":"route","route":"bicycle","network":"ncn","website":"http://velotouring-bg.org/routes_multi/pat-6-podbalkanskiat-pat/","name:alt":"С колело на море","operator":"Велоразходка","cycle_network":"BG:ВелоТоуринг БГ"},"9139391":{"ref":"BP2","name":"По река Искър","type":"route","route":"bicycle","network":"ncn","website":"http://velotouring-bg.org/routes_multi/bp2-iskar/"},"9148510":{"ref":"BP4","name":"Път 37","type":"route","route":"bicycle","network":"ncn","website":"http://velotouring-bg.org/routes_multi/%d0%bf%d1%8a%d1%82-37-2/","operator":"ВелоТоуринг БГ","cycle_network":"BG:ВелоТоуринг БГ"},"9149156":{"ref":"BP4","name":"Малък Искър","type":"route","route":"bicycle","network":"ncn","website":"http://velotouring-bg.org/routes_multi/%d0%bf%d1%8a%d1%82-37-2/","operator":"Велотуринг БГ","cycle_network":"BG:ВелоТоуринг БГ"},"9149529":{"to":"Варна","ref":"BP3","from":"Видин","name":"ПредБалкан","type":"route","route":"bicycle","length":"990","name:en":"ForeBalkan","network":"ncn","website":"http://velotouring-bg.org/routes_multi/bp3-forebalkan/","operator":"ВелоТуринг БГ","cycle_network":"BG:ВелоТоуринг БГ"},"9333326":{"ref":"EV13","name":"EuroVelo 13 - Tran - Vlasina - Bosilegrad -","type":"route","route":"bicycle","name:bg":"ЕвроВело 13 - Пътя на желязната завеса","name:en":"EuroVelo 13 - alternative Tran - Bosilegrad","network":"rcn","alternate":"variant"},"9610853":{"ref":"19","name":"Велоалея 19 \\\"Бул. Копривщица - Запад и Бул. Коматевско Шосе\\\"","type":"route","route":"bicycle","network":"lcn","distance":"3.420 km"},"9767972":{"ref":"BP19","url":"http://velotouring-bg.org/routes_multi/kraishte/","name":"Краищенско","type":"route","route":"bicycle","network":"rcn","cycle_network":"BG:ВелоТоуринг БГ"},"9769744":{"ref":"TC","url":"http://www.tourstrandja.bg/","name":"Тур Странджа","type":"route","route":"bicycle","bicycle":"mtb","network":"rcn","route_1":"hiking","mtb:type":"crosscountry","network_1":"rwn","osmc:symbol":"white:white:A:yellow"},"9790238":{"ref":"BP10","name":"Крайбрежен маршрут","type":"route","route":"bicycle","name:en":"Coastal route","network":"ncn","cycle_network":"BG:ВелоТоуринг БГ"},"10291334":{"to":"Rezovo","ref":"EV13","from":"TR/BG border (Malko Tarnovo)","name":"EuroVelo 13 - Iron Curtain Trail - part Bulgaria Strandzha","type":"route","route":"bicycle","colour":"#003399","icn_ref":"13","name:bg":"ЕвроВело 13 - Пътя на желязната завеса Странджа","name:cs":"EuroVelo 13 - Stezka železné opony - sekce Bulharsko 3","name:de":"EuroVelo 13 - Iron Curtain Trail - Bulgarischer Abschnitt Strandscha","name:en":"EuroVelo 13 - Iron Curtain Trail - part Bulgaria Strandzha","name:fr":"EuroVelo 13 - La route du rideau de fer - part Bulgarie Strandja","name:hr":"EuroVelo 13 - Ruta Željezne Zavjese - dio Bugarska 3","name:nl":"EuroVelo 13 - IJzerengordijnpad - deel Bulgarije Strandzja","name:pl":"EuroVelo 13 - Szlak Żelaznej Kurtyny - część Bułgaria 3","name:sk":"EuroVelo 13 - Cesta Železnej opony - sekcia Bulharsko 3","name:sl":"EuroVelo 13 - Varnostna zavesa pot - oddelek Bolgarija 3","name:tr":"EuroVelo 13 - Demir Perde Yolu - kısım Bulgaristan 3","network":"icn","cycle_network":"EuroVelo"},"10294229":{"to":"BG/MK border (Stanke Lisichkovo)","ref":"EV13","from":"SRB/BG border (Kalotina)","name":"EuroVelo 13 - Iron Curtain Trail - part Bulgaria West","type":"route","route":"bicycle","colour":"#003399","icn_ref":"13","name:bg":"ЕвроВело 13 - Пътя на желязната завеса Запад","name:cs":"EuroVelo 13 - Stezka železné opony - sekce Bulharsko 1","name:de":"EuroVelo 13 - Iron Curtain Trail - Bulgarischer Abschnitt West","name:en":"EuroVelo 13 - Iron Curtain Trail - part Bulgaria West","name:fr":"EuroVelo 13 - La route du rideau de fer - part Bulgarie Occidentale","name:hr":"EuroVelo 13 - Ruta Željezne Zavjese - dio Bugarska 1","name:nl":"EuroVelo 13 - IJzerengordijnpad - deel Bulgarije West","name:pl":"EuroVelo 13 - Szlak Żelaznej Kurtyny - część Bułgaria 1","name:sk":"EuroVelo 13 - Cesta Železnej opony - sekcia Bulharsko 1","name:sl":"EuroVelo 13 - Varnostna zavesa pot - oddelek Bolgarija 1","name:tr":"EuroVelo 13 - Demir Perde Yolu - kısım Bulgaristan 1","network":"icn","cycle_network":"EuroVelo"},"10337647":{"ref":"EV6-B","name":"Видин-Белоградчик-Лом","note":"EuroVelo 6 Alternative","type":"route","route":"bicycle","name:en":"Vidin-Belogradchik-Lom","network":"rcn","alternate":"variant"},"10340020":{"to":"Сливница","from":"Божурище","name":"Божурище – Брезник – Сливница","type":"route","route":"bicycle","network":"lcn","cycle_network":"BG:ВелоТоуринг_БГ"},"10340262":{"to":"Кътина","from":"кв. Илиенци","name":"Кътински пирамиди","type":"route","route":"bicycle","network":"lcn","roundtrip":"yes","cycle_network":"BG:ВелоТоуринг_БГ"},"10341748":{"to":"Балша","from":"МС Ломско шосе","name":"Балша","type":"route","route":"bicycle","network":"lcn","cycle_network":"BG:ВелоТуринг_БГ"},"10343221":{"to":"Безден","from":"Божурище","name":"Божурище - Безден - Костинброд","type":"route","route":"bicycle","network":"lcn","roundtrip":"yes","cycle_network":"BG:ВелоТуринг_БГ"},"10346443":{"ref":"BE","name":"ВелоЕрул","type":"route","route":"bicycle","source":"http://velotouring-bg.org/routes/tran/","network":"lcn","website":"www.zatran.org","operator":"Трънско туристическо дружество","roundtrip":"yes"},"10346615":{"to":"Мирково","from":"Гара Елин Пелин","name":"Елин Пелин - Мирково","type":"route","route":"bicycle","source":"http://velotouring-bg.org/routes/elin-pelin-mirkovo/","network":"lcn","cycle_network":"BG:ВелоТуринг_БГ"},"10347155":{"ref":"EV13","name":"EuroVelo 13 Svilengrad - Lesovo - Edirne","type":"route","route":"bicycle","name:bg":"ЕвроВело 13 - Пътя на желязната завеса","name:en":"EuroVelo 13 alternative Svilengrad - Edirne","network":"rcn","alternate":"variant"},"12923636":{"ref":"1","name":"Велоалея 1 \\\"Марица - Юг\\\"","type":"route","route":"bicycle","network":"lcn","distance":"5.560 km"},"12923662":{"ref":"6","name":"Велоалея 6 \\\"Бул. България\\\"","type":"route","route":"bicycle","network":"lcn","distance":"5.004 km"},"12923671":{"ref":"4","name":"Велоалея 4 \\\"Бул. Княгина Мария Луиза - район Централен\\\"","type":"route","route":"bicycle","network":"lcn","distance":"1 km"},"12923676":{"ref":"9","name":"Велоалея 9 \\\"Бул. Княгиня Мария Луиза - район Източен\\\"","type":"route","route":"bicycle","network":"lcn","distance":"1.220 km"},"12924042":{"name":"Велоалея 5 \\\"Бул. Източен\\\"","type":"route","route":"bicycle","network":"lcn"},"12924050":{"ref":"20","name":"Велоалея 20 \\\"Гребен канал\\\"","type":"route","route":"bicycle","network":"lcn","distance":"5.132 km"},"12924056":{"ref":"8","name":"Велоалея 8 \\\"Бул. Васил Априлов\\\"","type":"route","route":"bicycle","network":"lcn","distance":"1.692 km"},"12924072":{"ref":"12","name":"Велоалея 12 \\\"Бул. Санкт Петербург\\\"","type":"route","route":"bicycle","network":"lcn","distance":"1.981 km"},"12924076":{"ref":"14","name":"Велоалея 14 \\\"Бул. Менделеев - бул. Асеновградско шосе\\\"","type":"route","route":"bicycle","network":"lcn","distance":"1.592 km"},"12924079":{"ref":"11","name":"Велоалея 11 \\\"Бул. Освобождение\\\"","type":"route","route":"bicycle","network":"lcn","distance":"3.825 km"},"12924092":{"ref":"13","name":"Велоалея 13 \\\"Бул. Цар Симеон\\\"","type":"route","route":"bicycle","network":"lcn","distance":"3.567 km"},"12924094":{"ref":"16","name":"Велоалея 16 \\\"Бул. Княз Борис\\\"","type":"route","route":"bicycle","network":"lcn","distance":"1.020 km"},"12924099":{"ref":"15","name":"Велоалея 15 \\\"Бул. Шипка\\\"","type":"route","route":"bicycle","network":"lcn","distance":"0.780 km"},"12924174":{"ref":"7","name":"Велоалея 7 \\\"Адата\\\"","type":"route","route":"bicycle","network":"lcn","distance":"0.820 km"},"12954348":{"ref":"10","name":"Велоалея 10 \\\"Бул. Цариградско шосе\\\"","type":"route","route":"bicycle","network":"lcn","distance":"1.290 km"},"13129055":{"ref":"2","name":"Велоалея 2 \\\"Бул. 6-ти септември\\\"","type":"route","route":"bicycle","network":"lcn","distance":"1.23 km"},"15314891":{"to":"Велинград","ref":"220","from":"Св. Петка","name":"Св. Петка - вр. Острец - Велинград","type":"route","route":"bicycle","network":"lcn"}}