{"1664226":{"lit":"yes","name":"Мінская роварная дарожка","type":"route","route":"bicycle","name:be":"Мінская роварная дарожка","name:en":"Minsk Cycle Route","name:ru":"Минская велосипедная дорожка","name:uk":"Мінська велосипедна доріжка","network":"lcn","distance":"27 km"},"1926401":{"ref":"403","name":"Маршрут № 403 \\\"Шляхам магната Валовіча\\\"","type":"route","route":"bicycle","name:be":"Маршрут № 403 \\\"Шляхам магната Валовіча\\\"","name:ru":"Маршрут № 403 \\\"Шляхам магната Валовіча\\\"","name:uk":"Маршрут № 403 \\\"Шляхам магната Валовича\\\"","network":"lcn","distance":"39 km","int_name":"Maršrut № 403 \\\"Šliacham mahnata Valoviča\\\"","roundtrip":"yes"},"1926420":{"ref":"404","name":"Маршрут № 404 \\\"Лінія Молатава\\\"","type":"route","route":"bicycle","name:be":"Маршрут № 404 \\\"Лінія Молатава\\\"","name:ru":"Маршрут № 404 \\\"Линия Молотова\\\"","name:uk":"Маршрут № 404 \\\"Лінія Молотова\\\"","network":"lcn","int_name":"Maršrut № 404 \\\"Linija Molatava\\\"","roundtrip":"yes"},"1926425":{"ref":"401","name":"Маршрут № 401 \\\"Аўгустоўскі шлях\\\"","type":"route","route":"bicycle","name:be":"Маршрут № 401 \\\"Аўгустоўскі шлях\\\"","name:ru":"Маршрут № 401 \\\"Августовский шлях\\\"","name:uk":"Маршрут № 401 \\\"Августівський шлях\\\"","network":"lcn","int_name":"Maršrut № 401 \\\"Aŭhustoŭski šliach\\\""},"1926439":{"ref":"402","name":"Маршрут №402: Лісіная гара","type":"route","route":"bicycle","name:be":"Маршрут №402: Лісіная гара","name:ru":"Маршрут №402: Лисья гора","name:uk":"Маршрут №402: Лиса гора","network":"lcn","distance":"73 km","roundtrip":"yes"},"2261116":{"name":"Другая веласіпедная дарожка","type":"route","route":"bicycle","name:be":"Другая веласіпедная дарожка","name:ru":"Вторая велосипедная дорожка","name:uk":"Друга велосипедна доріжка","network":"lcn"},"3835569":{"ref":"ВГ","name":"Па валожынскіх гасцінцах","type":"route","route":"bicycle","name:be":"Па валожынскіх гасцінцах","name:ru":"Па валожынскіх гасцінцах","name:uk":"Па воложинських гасцінцах","network":"rcn"},"4103539":{"ref":"418","name":"Маршрут № 418 \\\"Сцежка здароўʼя\\\"","type":"route","route":"bicycle","name:be":"Маршрут № 418 \\\"Сцежка здароўʼя\\\"","name:ru":"Маршрут № 418 \\\"Тропа здоровья\\\"","name:uk":"Маршрут № 418 \\\"Стежка здоров'я\\\"","network":"lcn","distance":"6.15 km","int_name":"Maršrut № 418 \\\"Sciežka zdaroŭja\\\"","roundtrip":"yes","description":"Ул. Фестивальная — земляной форт — \\\"Кронор Парк отель\\\" — по правому берегу р. Неман до водозабора — поворот влево перед крытым ледовым катком к ул. Фестивальная"},"4103540":{"ref":"419","name":"Маршрут №419: Раённы горад","type":"route","route":"bicycle","name:be":"Маршрут №419: Раённы горад","name:en":"Route 419: District City","name:lt":"Maršrutas 419: Rajgardas","name:ru":"Маршрут №419: Райгород","name:uk":"Маршрут №419: Райгород","network":"icn","distance":"67 km","description:ru":"Ул. Фестивальная — спуск к реку Неман — турбаза \\\"Меловые горы\\\" — санаторий \\\"Жемчужина\\\" — форт № 13 — ул. Грандичская — д. Гожа — д. Польница — д. Шабаны — д. Дуброва — д. Привалки — погранпереход Привалка–Райгород — д. Швендубре — г. Друскининкай"},"4103541":{"ref":"412","name":"Маршрут № 412 \\\"Крэйдавыя горы\\\"","type":"route","route":"bicycle","name:be":"Маршрут № 412 \\\"Крэйдавыя горы\\\"","name:en":"Route 412 \\\"Chalk Mountain\\\"","name:ru":"Маршрут № 412 \\\"Меловые горы\\\"","name:uk":"Маршрут № 412 \\\"Крейдяні гори\\\"","network":"lcn","distance":"31 km","int_name":"Maršrut № 412 \\\"Krejdavyja hory\\\"","roundtrip":"yes","description":"Ул. Фестивальная (начало \\\"Тропы здоровья\\\") — спуск к реку Неман — по правому берегу р. Неман до санатория \\\"Жемчужина\\\" — форт № 13 Гродненской крепости — озеро Синька — озеро Зелёнка — овраги \\\"Меловые горы\\\" — ул. Фестивальная"},"4486243":{"name":"Веласіпедная дарожка","type":"route","route":"bicycle","name:be":"Веласіпедная дарожка","name:ru":"Велосипедная дорожка","name:uk":"Велосипедна доріжка","network":"lcn"},"6443163":{"ref":"507","name":"Маскалеўская вандроўка","type":"route","route":"bicycle","name:be":"Маскалеўская вандроўка","network":"lcn","roundtrip":"yes"},"7315153":{"name":"Дакудава","type":"route","route":"bicycle","name:be":"Дакудава","name:ru":"Докудово","name:uk":"Докудово","network":"lwn","distance":"2.9","roundtrip":"no"},"7315639":{"name":"Звярыны пераход","type":"route","route":"bicycle","name:be":"Звярыны пераход","name:ru":"Звериный переход","name:uk":"Звірячий перехід","network":"lwn","distance":"16","roundtrip":"yes"},"7318618":{"name":"Вялікае падарожжа","type":"route","route":"bicycle","name:be":"Вялікае падарожжа","name:ru":"Большое путешествие","name:uk":"Велика подорож","network":"lwn","distance":"27","roundtrip":"yes"},"7320875":{"name":"Лясныя таямніцы","type":"route","route":"bicycle","name:be":"Лясныя таямніцы","name:ru":"Лесные тайны","name:uk":"Лісові таємниці","network":"lwn","distance":"19","roundtrip":"yes"},"7320876":{"name":"Царская паляна","type":"route","route":"bicycle","name:be":"Царская паляна","name:ru":"Царская поляна","name:uk":"Царська галявина","network":"lwn","distance":"10","roundtrip":"yes"},"8378355":{"name":"Траса 62","type":"route","route":"bicycle","name:be":"Траса 62","name:ru":"Трасса 62","name:uk":"Траса 62"},"9344706":{"name":"Веладарожка на Пціч","type":"route","route":"bicycle","name:be":"Веладарожка на Пціч","name:ru":"Велодорожка на Птичь","name:uk":"Велодоріжка на Птич","network":"lcn"},"9344709":{"name":"веладарожка на Цнянцы","type":"route","route":"bicycle","name:be":"веладарожка на Цнянцы","name:ru":"велодорожка на Цнянке","name:uk":"Велодоріжка на Цнянці","network":"lcn"},"9349343":{"name":"Ад сцен замка да прыступак Алімпіі","time":"0.5","type":"route","route":"bicycle","name:be":"Ад сцен замка да прыступак Алімпіі","name:ru":"От стен замка к ступеням Олимпии","name:uk":"Від стін замку до сходів Олімпії","network":"lcn","tourism":"viewpoint","distance":"5.74"},"9350867":{"name":"Уздоўж воднай роўнядзі Лідзейкі","type":"route","route":"bicycle","name:be":"Уздоўж воднай роўнядзі Лідзейкі","name:ru":"Вдоль водной глади Лидейки","name:uk":"Вздовж водної гладі Лідійки","network":"lcn","distance":"2.6","int_name":"Uzdoŭž vodnaj roŭniadzi Lidziejki"},"9350868":{"name":"Шкляная Вясёлка","time":"0:20","type":"route","route":"bicycle","name:be":"Шкляная Вясёлка","name:ru":"Стеклянная радуга","name:uk":"Скляна веселка","network":"lcn","distance":"2"},"9372651":{"name":"Лідская пятля","type":"route","route":"bicycle","name:be":"Лідская пятля","name:pl":"pętla Lidzka","name:ru":"Лидская петля","name:uk":"Лідська петля","network":"lcn","int_name":"Lidskaja piatla"},"9643579":{"ref":"103","name":"Веласіпедны","time":"0.666","type":"route","route":"bicycle","name:be":"Веласіпедны","name:ru":"Велосипедный","name:uk":"Велосипедний","network":"lcn","tourism":"viewpoint","distance":"6"},"11154456":{"ref":"601","name":"Быхаўская кругасветка","type":"route","route":"bicycle","name:be":"Быхаўская кругасветка","name:ru":"Быховская кругосветка","name:uk":"Бихівська кругосвітка","network":"lcn","distance":"95 km"},"11970342":{"name":"веладарожка на Вячу","type":"route","route":"bicycle","name:be":"веладарожка на Вячу","name:ru":"велодорожка на Вячу","name:uk":"Велодоріжка на В'ячу","network":"lcn"},"13366053":{"to":"Sokólka","ref":"434","via":"плошча Антонія Тызенгаўза;возера Юбілейнае;сядзіба Тызенгаўза;вёска Каробчыцы;пагранпераход \\\"Брузгі\\\";Кузніца;Багонікі","from":"Hrodna","name":"Шляхам Тызангаўза - Szlakiem Tyzenhauza","type":"route","fixme":"confirm exact route, continue PL side","route":"bicycle","name:be":"Шляхам Тызангаўза","name:en":"Tyzengauz Trail","name:pl":"Szlakiem Tyzenhauza","name:ru":"Шляхом Тызенгауза","name:uk":"Шляхом Тизенгауза","network":"icn","distance":"59"},"15572904":{"to":"Валун \\\"Расколаты камень\\\"","from":"Слонім","name":"Слонім - валун \\\"Расколаты камень\\\"","type":"route","route":"bicycle","name:be":"Слонім - валун \\\"Расколаты камень\\\"","name:ru":"Слоним - валун \\\"Расколотый камень\\\"","name:uk":"Слонім - валун \\\"Розколотий камінь\\\"","network":"lcn","distance":"10","roundtrip":"yes"},"15857753":{"ref":"BGM40","name":"Big Green Maze 40 RoVAr-Asipovichi","type":"route","route":"bicycle","name:be":"Вялікі Зялёны Лабірынт РоВАр-Асіповічы","name:ru":"Большой Зеленый Лабиринт Вело-Осиповичи","name:uk":"Великий Зелений Лабіринт Вело-Осиповичі","network":"lcn","distance":"40.4 km","description":"Цепочка лесных дорог и тропинок предназначена для прогулочных поездок или тренировочных заездов на горном велосипеде\\\\найнере\\\\ФЭТе. Набор высоты небольшой, но зато есть песок (~10%). Разметки нет. Завалы, которые нельзя было объехать, убрал."},"15862451":{"ref":"BGM40","name":"Big Green Maze 40 RoVAr-Minsk","type":"route","route":"bicycle","name:be":"Вялікі Зялёны лабірынт РоВАр-Мінск","name:ru":"Большой Зеленый Лабиринт вело-Минск","name:uk":"Великий Зелений Лабіринт вело-Мінськ","network":"lcn","distance":"40,4 km","description":"Цепочка лесных дорог и тропинок предназначена для прогулочных поездок или тренировочных заездов на горном велосипеде\\\\найнере\\\\ФЭТе. Набор высоты примерно 700 метров. Разметки нет. За трассой слежу (завалы убираю)."}}