{"8499":{"to":"Winterthur","ref":"45","from":"Stein am Rhein","name":"Wyland-Downtown - Etappe 1","type":"route","fixme":"welche Streckenführung bei Kaltenbach ist Korrekt: Die gezeichnete (März 19), die mit Schweiz-mobil übereinstimmt oder die, die auf thurgis zu finden ist. Bitte als Note vermerken.","route":"bicycle","network":"rcn","website":"https://www.schweizmobil.ch/de/veloland/etappe45.01","distance":"30","operator":"Veloland Schweiz","description":"Etappe 1"},"9442":{"to":"Burgdorf (Kirchberg)","ref":"34","url":"https://www.schweizmobil.ch/de/veloland/etappe34.02","from":"Laupen","name":"Alter Bernerweg - Etappe 2","type":"route","route":"bicycle","name:de":"Alter Bernerweg - Etappe 2","name:fr":"Route de l'ancien régime Bernois","network":"rcn","distance":"44","operator":"Schweizmobil","description":"Etappe 2: Laupen-Burgdorf (Kirchberg)"},"11620":{"to":"Uznach","ref":"76","from":"Einsiedeln (Willerzell)","name":"Ibergeregg–Sattelegg-Linth - Etappe 2","type":"route","route":"bicycle","network":"rcn","website":"https://www.schweizmobil.ch/de/veloland/etappe76.02","distance":"28","operator":"Veloland Schweiz"},"15749":{"to":"Lausanne","ref":"5","url":"https://www.schweizmobil.ch/fr/veloland/etappe5.07","from":"Yverdon","name":"Route Mittelland - Ėtape 7","type":"route","route":"bicycle","bicycle":"designated","name:de":"Mittelland-Route - Etappe 7","name:en":"Mittelland Route - Stage 7","name:fr":"Route Mittelland - Ėtape 7","name:it":"Percorso dell'Altopiano - Tappa 7","network":"ncn","distance":"53","operator":"Veloland Schweiz"},"19664":{"to":"Buchs","ref":"9","from":"Niederurnen","name":"Seen-Route - Etappe 9","type":"route","route":"bicycle","name:de":"Seen-Route - Etappe 9","name:en":"Lakes Route - Stage 9","name:fr":"Route des lacs - Étape 9","name:it":"Percorso dei laghi - Tappa 9","network":"ncn","website":"https://www.schweizmobil.ch/de/veloland/etappe9.09","distance":"56","operator":"Veloland Schweiz"},"20641":{"to":"Brugg","ref":"77","from":"Rotkreuz","name":"Rigi-Reuss-Klettgau","type":"route","route":"bicycle","network":"rcn","website":"https://www.schweizmobil.ch/de/veloland/etappe77.02","distance":"51","operator":"Veloland Schweiz","description":"Rigi-Reuss-Klettgau - Etappe 2 (Rotkreuz–Brugg)"},"23807":{"to":"Zürich","ref":"84","from":"Muri","name":"Mittelländer Hügelroute - Etappe 4","type":"route","route":"bicycle","network":"rcn","website":"https://www.schweizmobil.ch/de/veloland/etappe84.04","distance":"39","operator":"Veloland Schweiz"},"28059":{"to":"Zürich","ref":"66","url":"https://www.schweizmobil.ch/de/veloland/etappe66.01","from":"Rapperswil","name":"Goldküste-Limmat - Etappe 1","type":"route","route":"bicycle","network":"rcn","distance":"34","operator":"Veloland Schweiz"},"28060":{"to":"Baden","ref":"66","url":"https://www.schweizmobil.ch/de/veloland/etappe66.02","from":"Zürich","name":"Goldküste-Limmat - Etappe 2","type":"route","route":"bicycle","network":"rcn","distance":"28","operator":"Veloland Schweiz"},"28062":{"to":"Genève","ref":"1","url":"https://www.schweizmobil.ch/fr/suisse-a-velo/itineraires/etappe-0933.html","from":"Morges","name":"Route du Rhône - Étape 7","type":"route","route":"bicycle","name:de":"Rhone-Route - Etappe 7","name:en":"Rhone Route - Stage 7","name:fr":"Route du Rhône - Étape 7","name:nl":"Rhôneroute - Etappe 7","network":"ncn","distance":"58","operator":"Veloland Schweiz"},"28063":{"to":"Morges","ref":"1","from":"Montreux","name":"Route du Rhône - Étape 6","type":"route","route":"bicycle","name:de":"Rhone-Route - Etappe 6","name:en":"Rhone Route - Stage 6","name:fr":"Route du Rhône - Étape 6","name:nl":"Rhôneroute - Etappe 6","network":"ncn","operator":"Veloland Schweiz","description":"Étape 6 (Montreux–Morges)"},"28064":{"to":"Montreux","ref":"1","url":"https://www.schweizmobil.ch/fr/suisse-a-velo/itineraires/etappe-0931.html","from":"Martigny","name":"Route du Rhône","type":"route","route":"bicycle","name:de":"Rhone-Route - Etappe 5","name:en":"Rhone Route - Stage 5","name:fr":"Route du Rhône - Étape 5","name:nl":"Rhôneroute - Etappe 5","network":"ncn","distance":"47","operator":"Veloland Schweiz"},"28067":{"to":"Basel","ref":"2;EV15","from":"Rheinfelden","name":"Rhein-Route - Etappe 9.1","type":"route","route":"bicycle","name:de":"Rhein-Route - Etappe 9.1","name:en":"Rhine Route - Stage 9.1","name:fr":"Route du Rhin - Étape 9.1","name:it":"Percorso del Reno - Tappa 9.1","name:nl":"Rijnroute - Etappe 9.1","network":"ncn","website":"https://www.schweizmobil.ch/de/veloland/routen/route/etappe-0930.html","distance":"22","operator":"Veloland Schweiz"},"28068":{"to":"Schaffhausen","ref":"2;EV15","from":"Kreuzlingen","name":"Rhein-Route - Etappe 6","type":"route","route":"bicycle","name:de":"Rhein-Route - Etappe 6","name:en":"Rhine Route - Stage 6","name:fr":"Route du Rhin - Étape 6","name:it":"Percorso del Reno - Tappa 6","name:nl":"Rijnroute - Etappe 6","network":"ncn","website":"https://www.schweizmobil.ch/de/veloland/routen/route/etappe-0923.html","distance":"48","operator":"SchweizMobil","description":"Etappe 6 (Kreuzlingen–Schaffhausen)"},"28071":{"to":"Aarau","ref":"3","url":"https://www.schweizmobil.ch/de/veloland/etappe3.01","from":"Basel","name":"Nord-Süd-Route","type":"route","route":"bicycle","name:de":"Nord-Süd-Route","name:en":"North-South Route","name:fr":"Route Nord-Sud","name:it":"Percorso Nord-Sud","name:nl":"Noord-Zuidroute","network":"ncn","distance":"56","operator":"SchweizMobil","description":"Etappe 1 (Basel–Aarau)"},"28072":{"to":"Luzern","ref":"3","url":"https://www.schweizmobil.ch/de/veloland/etappe3.02","from":"Aarau","name":"Nord-Süd-Route - Etappe 2","note":"Etappe 2","type":"route","route":"bicycle","name:de":"Nord-Süd-Route - Etappe 2","name:en":"North-South Route - Stage 2","name:fr":"Route Nord-Sud - Étape 2","name:it":"Percorso Nord-Sud - Tappa 2","name:nl":"Noord-Zuidroute - Etappe 2","network":"ncn","distance":"57","operator":"Veloland Schweiz","description":"Etappe 2 (Aarau–Luzern)"},"28201":{"to":"Aarau","ref":"5","url":"https://www.schweizmobil.ch/de/veloland/etappe5.03","from":"Kloten","name":"Mittelland-Route - Etappe 3","type":"route","route":"bicycle","name:de":"Mittelland-Route - Etappe 3","name:en":"Mittelland Route - Stage 3","name:fr":"Route Mittelland - Étape 3","name:it":"Percorso dell'Altopiano - Tappa 3","network":"ncn","distance":"64","operator":"Veloland Schweiz"},"28202":{"to":"Kloten","ref":"5","from":"Wil (SG)","name":"Mittelland-Route - Etappe 2","type":"route","route":"bicycle","name:de":"Mittelland-Route - Etappe 2","name:en":"Mittelland Route - Stage 2","name:fr":"Route Mittelland - Étape 2","name:it":"Percorso dell'Altopiano - Tappa 2","network":"ncn","website":"https://www.schweizmobil.ch/de/veloland/etappe5.02","distance":"50","operator":"Veloland Schweiz","description":"Etappe 2"},"28203":{"to":"Bern","ref":"8","url":"https://www.schweizmobil.ch/de/veloland/etappe8.03","from":"Spiez","name":"Aare-Route Etappe 3","type":"route","image":"https://images0.schweizmobil.ch/image-big/VL_008_03_VL_8-03-011_g.jpg","route":"bicycle","name:de":"Aare-Route - Etappe 3","name:en":"Aare Route - Stage 3","name:fr":"Route de l'Aar - Étape 3","name:it":"Percorso dell'Aare - Tappa 3","network":"ncn","distance":"50","operator":"Veloland Schweiz","wikidata":"Q301127","description":"Etappe 3: Spiez–Bern"},"28516":{"to":"Bulle","ref":"9","url":"https://www.schweizmobil.ch/fr/veloland/etappe9.01","from":"Montreux","name":"Route des lacs - Étape 1","type":"route","route":"bicycle","name:de":"Seen-Route - Etappe 1","name:en":"Lakes Route - Stage 1","name:fr":"Route des lacs - Étape 1","name:it":"Percorso dei laghi - Tappa 1","network":"ncn","distance":"42","operator":"Veloland Schweiz"},"28517":{"to":"Spiez","ref":"9","from":"Gstaad","name":"Seen-Route - Etappe 3","type":"route","route":"bicycle","name:de":"Seen-Route - Etappe 3","name:en":"Lakes Route - Stage 3","name:fr":"Route des lacs - Étape 3","name:it":"Percorso dei laghi - Tappa 3","network":"ncn","website":"https://www.schweizmobil.ch/de/veloland/etappe9.03","distance":"53","operator":"Veloland Schweiz"},"28518":{"to":"Meiringen","ref":"9","from":"Spiez","name":"Seen-Route - Etappe 4","type":"route","route":"bicycle","name:de":"Seen-Route - Etappe 4","name:en":"Lakes Route - Stage 4","name:fr":"Route des lacs - Étape 4","name:it":"Percorso dei laghi - Tappa 4","network":"ncn","website":"https://www.schweizmobil.ch/de/veloland/etappe9.04","distance":"48","operator":"Veloland Schweiz"},"28524":{"to":"Wolhusen (Werthenstein)","ref":"73","url":"https://www.schweizmobil.ch/de/veloland/etappe73.01","from":"Olten (Aarburg)","name":"Wiggertal–Glaubenberg - Etappe 1","type":"route","route":"bicycle","network":"rcn","distance":"45","operator":"Veloland Schweiz","description":"rcn 73 - Etappe 1 (Olten (Aarburg)–Wolhusen (Werthenstein))"},"28528":{"to":"Delemont","ref":"23","url":"https://www.schweizmobil.ch/fr/veloland/etappe23.01","from":"Basel","name":"Basel–Franches-Montagnes - Étape 1","type":"route","route":"bicycle","network":"rcn","distance":"43","operator":"Veloland Schweiz","description":"Etappe 1"},"28538":{"to":"Meilen","ref":"41","url":"https://www.schweizmobil.ch/de/veloland/etappe41.02","from":"Fischingen","name":"Pilger-Route - Etappe 2","type":"route","route":"bicycle","network":"rcn","distance":"47","operator":"Veloland Schweiz","pilgrimage":"yes"},"28539":{"to":"Fischingen","ref":"41","url":"https://www.schweizmobil.ch/de/veloland/etappe41.01","from":"Kreuzlingen","name":"Pilger-Route - Etappe 1","type":"route","route":"bicycle","network":"rcn","distance":"43","operator":"SchweizMobil","pilgrimage":"yes","description":"Etappe 1 (Kreuzlingen–Fischingen)"},"28544":{"to":"Schaffhausen","ref":"77","from":"Bad Zurzach","name":"Rigi-Reuss-Klettgau - Etappe 4","type":"route","route":"bicycle","ascent":"380","descent":"340","network":"rcn","website":"https://www.schweizmobil.ch/de/veloland/etappe77.04","distance":"40","operator":"Veloland Schweiz"},"28973":{"to":"Bischofszell","ref":"95","from":"Andelfingen (Ellikon a.R.)","name":"Thur-Route","type":"route","route":"bicycle","ascent":"560","descent":"420","network":"rcn","distance":"62","operator":"Veloland Schweiz","description":"Etappe 1"},"28974":{"to":"Nesslau","ref":"95","from":"Bischofszell","name":"Thur-Route - Etappe 2 (Bischofszell–Nesslau)","type":"route","route":"bicycle","descent":"Etappe 2 (Bischofszell – Nesslau)","network":"rcn","website":"https://www.schweizmobil.ch/de/veloland/routen/route/etappe-01458.html","distance":"53","operator":"Veloland Schweiz"},"28975":{"to":"Buchs SG","ref":"95","from":"Nesslau","name":"Thur-Route - Etappe 3 (Nesslau–Buchs SG)","type":"route","route":"bicycle","network":"rcn","website":"https://www.schweizmobil.ch/de/veloland/routen/route/etappe-01457.html","operator":"Veloland Schweiz"},"28993":{"to":"Bülach","ref":"60","from":"Koblenz","name":"Studenland–Töss-Römer-Route - Etappe 1","note":"Etappe 1","type":"route","route":"bicycle","network":"rcn","website":"https://www.schweizmobil.ch/de/veloland/etappe60.01","distance":"36","operator":"Veloland Schweiz"},"28994":{"to":"Steckborn","ref":"60","from":"Bülach","name":"Studenland–Töss-Römer-Route - Etappe 2","type":"route","route":"bicycle","ascent":"780","descent":"800","network":"rcn","website":"https://www.schweizmobil.ch/de/veloland/etappe60.02","distance":"54","operator":"Veloland Schweiz","description":"Etappe 2"},"29127":{"to":"Zürich","ref":"94","url":"https://www.schweizmobil.ch/de/veloland/etappe94.05","from":"Hochdorf (Urswil)","name":"L'Areuse–Emme–Sihl - Etappe 5","type":"route","route":"bicycle","name:de":"L'Areuse–Emme–Sihl - Etappe 5","name:fr":"L'Areuse-Emme-Sihl - Étape 5","network":"rcn","distance":"56","operator":"Veloland Schweiz","description":"Etappe 5: Hochdorf (Urswil)–Zürich"},"29131":{"to":"Lenzburg","ref":"56","url":"https://www.schweizmobil.ch/de/veloland/etappe56.01","from":"Luzern","name":"Seetal-Bötzberg - Etappe 1","type":"route","route":"bicycle","network":"rcn","distance":"50","operator":"Veloland Schweiz"},"29137":{"to":"Sursee","ref":"84","from":"Langental","name":"Mittelländer Hügelroute - Etappe 2","type":"route","route":"bicycle","network":"rcn","website":"https://www.schweizmobil.ch/de/veloland/etappe84.02","distance":"39","operator":"Veloland Schweiz","description":"Mittelländer Hügelroute - Etappe 2"},"29138":{"to":"Muri AG","ref":"84","from":"Sursee","name":"Mittelländer Hügelroute - Etappe 3","type":"route","route":"bicycle","network":"rcn","website":"https://www.schweizmobil.ch/de/veloland/etappe84.03","distance":"33","operator":"Veloland Schweiz"},"29167":{"to":"Baden","ref":"34","from":"Zofingen (Oftringen)","name":"Alter Bernerweg - Etappe 4","type":"route","route":"bicycle","name:de":"Alter Bernerweg - Etappe 4","name:fr":"Route de l'ancien régime Bernois - Étape 4","network":"rcn","distance":"44","operator":"Veloland Schweiz"},"29168":{"to":"Schwyz","ref":"51","from":"Zug","name":"Säuliamt-Schwyz - Etappe 2","type":"route","route":"bicycle","network":"rcn","website":"https://www.schweizmobil.ch/de/veloland/etappe51.01","distance":"28","operator":"Veloland Schweiz"},"29169":{"to":"Zug","ref":"51","from":"Dietikon","name":"Säuliamt-Schwyz - Etappe 1","type":"route","route":"bicycle","network":"rcn","website":"https://www.schweizmobil.ch/de/veloland/etappe51.01","distance":"40","operator":"Veloland Schweiz"},"29170":{"to":"Les Diablerets","ref":"59","url":"https://www.schweizmobil.ch/fr/veloland/etappe59.01","from":"Bex","name":"Alpes vaudoises-Pays de Fribourg - Étape 1","type":"route","route":"bicycle","name:de":"Saanenland-Freiburgerland - Etappe 1","name:fr":"Alpes vaudoises-Pays de Fribourg - Étape 1","network":"rcn","rcn_ref":"59","distance":"34","operator":"Veloland Schweiz"},"29171":{"to":"Jaun","ref":"59","url":"https://www.schweizmobil.ch/fr/veloland/etappe59.02","from":"Les Diablerets","name":"Alpes vaudoises-Pays de Fribourg - Étape 2","note":"Etappe 2 (Les Diablerets–Jaun)","type":"route","route":"bicycle","name:de":"Saanenland–Freiburgerland - Etappe 2","name:fr":"Alpes vaudoises-Pays de Fribourg - Étape 2","network":"rcn","distance":"48","operator":"Veloland Schweiz"},"29172":{"to":"Pfäffikon SZ","ref":"32","url":"https://www.schweizmobil.ch/de/veloland/etappe32.02","from":"Zürich","name":"Rhein-Hirzel-Linth - Etappe 2","type":"route","route":"bicycle","network":"rcn","distance":"39","operator":"Veloland Schweiz"},"29173":{"to":"Ziegelbrücke","ref":"32","url":"https://www.schweizmobil.ch/de/veloland/etappe32.03","from":"Pfäffikon SZ","name":"Rhein-Hirzel-Linth - Etappe 3","type":"route","route":"bicycle","network":"rcn","distance":"30","operator":"Veloland Schweiz"},"29204":{"to":"Einsiedeln","ref":"9","from":"Zug","name":"Seen-Route - Etappe 7","type":"route","route":"bicycle","name:de":"Seen-Route - Etappe 7","name:en":"Lakes Route - Stage 7","name:fr":"Route des lacs - Étape 7","name:it":"Percorso dei laghi - Tappa 7","network":"ncn","website":"https://www.schweizmobil.ch/de/veloland/etappe9.07","distance":"46","operator":"Veloland Schweiz"},"29205":{"to":"Niederurnen","ref":"9","from":"Einsiedeln","name":"Seen-Route","type":"route","route":"bicycle","network":"ncn","distance":"52","operator":"Veloland Schweiz"},"29206":{"to":"Bad Zurzach","ref":"77","from":"Brugg","name":"Rigi-Reuss-Klettgau - Etappe 3","type":"route","route":"bicycle","network":"rcn","website":"https://www.schweizmobil.ch/de/veloland/etappe77.03","distance":"20","operator":"Veloland Schweiz"},"29812":{"to":"Zernez","ref":"6","url":"https://www.schweizmobil.ch/de/veloland/etappe6.03","from":"Bergün","name":"Graubünden-Route - Etappe 3","type":"route","route":"bicycle","name:de":"Graubünden-Route - Etappe 3","name:en":"Graubünden Route - Stage 3","name:fr":"Route des Grisons - Étape 3","name:it":"Percorso dei Grigioni - Tappa 3","network":"ncn","distance":"45","operator":"Veloland Schweiz"},"29867":{"to":"Fribourg","ref":"59","url":"https://www.schweizmobil.ch/fr/veloland/etappe59.03","from":"Jaun","name":"Alpes vaudoises-Pays de Fribourg","type":"route","route":"bicycle","name:de":"Saanenland-Freiburgerland","name:fr":"Alpes vaudoises-Pays de Fribourg","network":"rcn","distance":"52","operator":"Veloland Schweiz"},"30431":{"to":"Bad Zurzach","ref":"2;EV15","url":"https://www.schweizmobil.ch/de/veloland/routen/route/etappe-0924.html","from":"Schaffhausen","name":"Rhein-Route - Etappe 7","type":"route","route":"bicycle","name:de":"Rhein-Route - Etappe 7","name:en":"Rhine Route - Stage 7","name:fr":"Route du Rhin - Étape 7","name:it":"Percorso del Reno - Tappa 7","name:nl":"Rijnroute - Etappe 7","network":"ncn","distance":"53","operator":"Veloland Schweiz"},"34298":{"to":"Biel/Bienne","ref":"64","from":"Thun","name":"Lötschberg–Jura","type":"route","fixme":"Die gezeichnete Streckenführung weicht zu Beginn bei Thun und in Ruhigen von der Route auf Schweizmobil.ch ab. Aktuelle Streckenführung sollte vor Ort überprüft werden","route":"bicycle","name:de":"Lötschberg–Jura","name:fr":"Lötschberg–Jura","network":"rcn","distance":"70","operator":"Veloland Schweiz","description":"Etappe 2: Thun - Biel/Bienne"},"36048":{"to":"Koblenz","ref":"8","url":"https://www.schweizmobil.ch/de/veloland/etappe8.07","from":"Aarau","name":"Aare-Route - Etappe 7","type":"route","route":"bicycle","name:de":"Aare-Route - Etappe 7","name:en":"Aare Route - Stage 7","name:fr":"Route de l'Aar - Étape 7","name:it":"Percorso dell'Aare - Tappa 7","network":"ncn","distance":"43","operator":"Veloland Schweiz"},"37031":{"to":"Flüelen","ref":"4","url":"https://www.schweizmobil.ch/de/veloland/etappe4.03","from":"Glarus","name":"Alpenpanorama-Route - Etappe 3","type":"route","route":"bicycle","name:de":"Alpenpanorama-Route - Etappe 3","name:en":"Alpine Panorama Route - Stage 3","name:fr":"Route panorama alpine - Étape 3","name:it":"Percorso panoramico delle Alpi - Tappa 3","network":"ncn","distance":"68","operator":"Veloland Schweiz"},"37038":{"to":"Biel (Nidau)","ref":"8","from":"Bern","name":"Aare-Route","note":"Etappe 4: Bern–Biel (Nidau)","type":"route","route":"bicycle","name:de":"Aare-Route","name:en":"Aare Route","name:fr":"Route de l'Aar","name:it":"Percorso dell'Aare","network":"ncn","distance":"47","operator":"Veloland Schweiz","wikidata":"Q301127"},"37039":{"to":"Bern","ref":"94","url":"https://www.schweizmobil.ch/fr/veloland/etappe94.02","from":"Neuchâtel","name":"L'Areuse–Emme–Sihl - Etappe 2","type":"route","route":"bicycle","name:de":"L'Areuse–Emme–Sihl - Etappe 2","name:fr":"L'Areuse-Emme-Sihl - Étape 2","network":"rcn","distance":"52","operator":"Veloland Schweiz","description":"Etappe 2: Neuchâtel – Bern"},"37422":{"to":"Laupen","ref":"34","url":"https://www.schweizmobil.ch/fr/veloland/etappe34.01","from":"Estavayer-le-Lac","name":"Route de l'ancien régime Bernois","type":"route","route":"bicycle","name:de":"Alter Bernerweg","name:fr":"Route de l'ancien régime Bernois","network":"rcn","distance":"46","operator":"Veloland Schweiz","description":"Etappe 1 (Estavayer-le-Lac-Laupen)"},"39099":{"to":"Zürich","ref":"32","url":"https://www.schweizmobil.ch/de/veloland/etappe32.01","from":"Kaiserstuhl","name":"Rhein-Hirzel-Linth - Etappe 1","type":"route","route":"bicycle","network":"rcn","distance":"29","operator":"Veloland Schweiz"},"39130":{"to":"Payerne","ref":"44","from":"Lausanne","name":"Le Jorat–Trois Lacs–Emme","type":"route","route":"bicycle","network":"rcn","distance":"56","operator":"SchweizMobil","description":"Étape 1: Lausanne–Payerne"},"48138":{"to":"Zofingen (Oftringen)","ref":"34","url":"https://www.schweizmobil.ch/de/veloland/etappe34.03","from":"Burgdorf (Kirchberg)","name":"Alter Bernerweg","note":"no name on signs","type":"route","route":"bicycle","name:de":"Alter Bernerweg","name:fr":"Route de l'ancien régime Bernois","network":"rcn","distance":"43","operator":"Veloland Schweiz","description":"Etappe 3 (Burgdorf (Kirchberg)-Zofingen (Oftringen))"},"48504":{"to":"Erlach","ref":"59","from":"Fribourg","name":"Saanenland-Freiburgerland","type":"route","route":"bicycle","name:de":"Saanenland-Freiburgerland","name:fr":"Alpes vaudoises-Pays de Fribourg","network":"rcn","website":"https://www.schweizmobil.ch/de/veloland/etappe59.04","distance":"47","operator":"Veloland Schweiz"},"53325":{"to":"Schwarzenburg","ref":"37","url":"http://www.veloland.ch/de/regionale-routen/route-037.html","from":"Bern","name":"Bern-Süd-Route","type":"route","route":"bicycle","network":"rcn","distance":"70","operator":"Veloland Schweiz","description":"Bern-Schwarzenburg"},"58286":{"to":"Yverdons-les-Bains","ref":"22","url":"https://www.schweizmobil.ch/fr/veloland/etappe22.01","from":"Lausanne","name":"Nord Vaudois - Jura - Étape 1","type":"route","route":"bicycle","network":"rcn","distance":"37","operator":"Veloland Schweiz"},"102223":{"ref":"BSR","name":"Bodenseeradweg Abschnitt Stein am Rhein–Kreuzlingen","type":"route","route":"bicycle","network":"rcn"},"102618":{"to":"Ins","ref":"5","from":"Solothurn","name":"Mittelland-Route - Etappe 5","note":"Etappe 5 (Solothurn-Ins)","type":"route","route":"bicycle","name:de":"Mittelland-Route - Etappe 5","name:en":"Mittelland Route - Stage 5","name:fr":"Route Mittelland - Étape 5","name:it":"Percorso dell'Altopiano - Tappa 5","network":"ncn","website":"https://www.schweizmobil.ch/de/veloland/etappe5.05","distance":"62","operator":"Veloland Schweiz"},"102638":{"to":"Buchs (SG)","ref":"2;EV15","from":"Chur","name":"Rhein-Route - Etappe 3","type":"route","route":"bicycle","name:de":"Rhein-Route - Etappe 3","name:en":"Rhine Route - Stage 3","name:fr":"Route du Rhin - Étape 3","name:it":"Percorso del Reno - Tappa 3","name:nl":"Rijnroute - Etappe 3","network":"ncn","website":"https://www.schweizmobil.ch/de/veloland/routen/route/etappe-01268.html","distance":"49","operator":"SchweizMobil","description":"Etappe 3 (Chur-Buchs (SG))"},"103185":{"to":"Bière","ref":"50","url":"https://www.schweizmobil.ch/fr/veloland/etappe50.04","from":"Yverdon-les-Bains","name":"Route du pied du Jura - Étape 4","type":"route","route":"bicycle","name:de":"Jurasüdfuss-Route - Etappe 4","name:fr":"Route du pied du Jura - Étape 4","network":"rcn","operator":"Veloland Schweiz"},"107229":{"to":"Yverdon-les-Bains","ref":"50","from":"Neuchâtel","name":"Route du pied du Jura","type":"route","route":"bicycle","name:de":"Jurasüdfuss-Route","name:fr":"Route du pied du Jura","network":"rcn","distance":"42","operator":"Veloland Schweiz","description":"Étape 3"},"107232":{"to":"Yverdon","ref":"5","from":"Ins","name":"Route Mittelland - Étape 6","type":"route","route":"bicycle","name:de":"Mittelland-Route - Etappe 6","name:en":"Mittelland Route - Stage 6","name:fr":"Route Mittelland - Étape 6","name:it":"Percorso dell'Altopiano - Tappa 6","network":"ncn","website":"https://www.schweizmobil.ch/fr/veloland/etappe5.06","distance":"51","operator":"Veloland Schweiz","description":"Etappe 6 (Ins - Yverdon)"},"109680":{"to":"Bulle","ref":"87","url":"https://www.schweizmobil.ch/fr/veloland/route87","from":"Payerne","name":"La Broye–La Gruyère","type":"route","route":"bicycle","ascent":"900","descent":"600","network":"rcn","distance":"48","operator":"Veloland Schweiz"},"111990":{"to":"Sargans","ref":"21","url":"https://www.schweizmobil.ch/de/veloland/routen/regionale-routen/route-021.html","from":"Klosters","name":"Prättigauer Route","type":"route","route":"bicycle","network":"rcn","distance":"48","operator":"SchweizMobil"},"112208":{"to":"Flüelen","ref":"3","url":"https://www.schweizmobil.ch/de/veloland/etappe3.03","from":"Luzern","name":"Nord-Süd-Route - Etappe 3","note":"Etappe 3","type":"route","route":"bicycle","name:de":"Nord-Süd-Route - Etappe 3","name:en":"North-South Route - Stage 3","name:fr":"Route Nord-Sud - Étape 3","name:it":"Percorso Nord-Sud - Tappa 3","name:nl":"Noord-Zuidroute - Etappe 3","network":"ncn","alt_name":"ncn 3 - Etappe 3 (Luzern-Flüelen)","distance":"50","operator":"Veloland Schweiz","description":"EV 5 CH - Etappe 3 (Luzern-Flüelen)"},"117051":{"to":"Kreuzlingen","ref":"2;EV15","from":"St. Margrethen","name":"Rhein-Route - Etappe 5","type":"route","route":"bicycle","name:de":"Rhein-Route - Etappe 5","name:en":"Rhine Route - Stage 5","name:fr":"Route du Rhin - Étape 5","name:it":"Percorso del Reno - Tappa 5","name:nl":"Rijnroute - Etappe 5","network":"ncn","website":"https://www.schweizmobil.ch/de/veloland/routen/route/etappe-0926.html","distance":"64","operator":"Veloland Schweiz","description":"Etappe 5 (St. Margrethen-Kreuzlingen)"},"123906":{"to":"Sarnen","ref":"9","from":"Meiringen","name":"Seen-Route - Etappe 5","type":"route","route":"bicycle","name:de":"Seen-Route - Etappe 5","name:en":"Lakes Route - Stage 5","name:fr":"Route des lacs - Étape 5","name:it":"Percorso dei laghi - Tappa 5","network":"ncn","website":"https://www.schweizmobil.ch/de/veloland/etappe9.05","distance":"32","operator":"Veloland Schweiz"},"123907":{"to":"Sörenberg","ref":"4","url":"https://www.schweizmobil.ch/de/veloland/etappe4.04","from":"Flüelen","name":"Alpenpanorama-Route - Etappe 4","type":"route","route":"bicycle","name:de":"Alpenpanorama-Route - Etappe 4","name:en":"Alpine Panorama Route - Stage 4","name:fr":"Route panorama alpine - Étape 4","name:it":"Percorso panoramico delle Alpi - Tappa 4","network":"ncn","distance":"77","operator":"Veloland Schweiz"},"125490":{"to":"Andermatt","ref":"3","url":"https://www.schweizmobil.ch/de/veloland/etappe3.04","from":"Flüelen","name":"Nord-Süd-Route - Etappe 4","note":"Etappe 4","type":"route","fixme":"Routenverlauf in der Schöllenenschlucht prüfen","route":"bicycle","name:de":"Nord-Süd-Route - Etappe 4","name:en":"North-South Route - Stage 4","name:fr":"Route Nord-Sud - Étape 4","name:it":"Percorso Nord-Sud - Tappa 4","name:nl":"Noord-Zuidroute - Etappe 4","network":"ncn","operator":"Veloland Schweiz","description":"Etappe 4 (Flüelen-Andermatt)"},"129457":{"to":"Langenthal","ref":"84","from":"Thun (Heimberg)","name":"Mittelländer Hügelroute - Etappe 1","type":"route","route":"bicycle","network":"rcn","website":"https://www.schweizmobil.ch/de/veloland/etappe84.01","distance":"65","operator":"Veloland Schweiz"},"142281":{"to":"Glarus","ref":"4","url":"https://www.schweizmobil.ch/de/veloland/etappe4.02","from":"Appenzell","name":"Alpenpanorama-Route - Etappe 2","type":"route","route":"bicycle","name:de":"Alpenpanorama-Route - Etappe 2","name:en":"Alpine Panorama Route - Stage 2","name:fr":"Route panorama alpine - Étape 2","name:it":"Percorso panoramico delle Alpi - Tappa 2","network":"ncn","distance":"73","operator":"Veloland Schweiz"},"142350":{"to":"Brig","ref":"1","from":"Oberwald","name":"Rhone-Route","type":"route","route":"bicycle","name:de":"Rhone-Route","name:en":"Rhone Route","name:fr":"Route du Rhône","name:nl":"Rhôneroute","network":"ncn","distance":"50","operator":"SchweizMobil"},"142683":{"to":"La Chaux-de-Fonds","ref":"22","url":"https://www.schweizmobil.ch/fr/veloland/etappe22.03","from":"Neuchâtel (Corcelles)","name":"Nord Vaudois-Jura - Étape 3","note":"Etappe 3 (Neuchâtel (Corcelles) - La Chaux-de-Fonds)","type":"route","route":"bicycle","network":"rcn","distance":"30","operator":"Veloland Schweiz","addr:city":"La Chaux-de-Fonds"},"142690":{"to":"Tramelan","ref":"23","url":"https://www.schweizmobil.ch/fr/veloland/etappe23.02","from":"Delémont","name":"Basel–Franches-Montagnes - Étape 2","type":"route","route":"bicycle","network":"rcn","distance":"36","operator":"Veloland Schweiz"},"142782":{"to":"Aigle","ref":"4","url":"https://www.schweizmobil.ch/fr/veloland/etappe4.08","from":"Montbovon","name":"Route panorama alpine - Étape 8","type":"route","route":"bicycle","name:de":"Alpenpanorama-Route - Etappe 8","name:en":"Alpine Panorama Route - Stage 8","name:fr":"Route panorama alpine - Étape 8","name:it":"Percorso panoramico delle Alpi - Tappa 8","network":"ncn","distance":"52","operator":"Veloland Schweiz"},"143748":{"to":"Fribourg","ref":"4","url":"https://www.schweizmobil.ch/de/veloland/etappe4.06","from":"Thun","name":"Alpenpanorama-Route","type":"route","route":"bicycle","name:de":"Alpenpanorama-Route","name:en":"Alpine Panorama Route","name:fr":"Route panorama alpine","name:it":"Percorso panoramico delle Alpi","network":"ncn","distance":"55","operator":"Veloland Schweiz"},"143749":{"to":"Martina","ref":"6","url":"https://www.schweizmobil.ch/de/veloland/etappe6.04","from":"Zernez","name":"Graubünden-Route - Etappe 4","type":"route","route":"bicycle","name:de":"Graubünden-Route - Etappe 4","name:en":"Graubünden Route - Stage 4","name:fr":"Route des Grisons - Étape 4","name:it":"Percorso dei Grigioni - Tappa 4","network":"ncn","distance":"52","operator":"Veloland Schweiz"},"143750":{"to":"Nyon","ref":"7","url":"https://www.schweizmobil.ch/fr/veloland/etappe7.06","from":"Vallorbe","name":"Route du Jura - Étape 6","type":"route","route":"bicycle","name:de":"Jura-Route - Etappe 6","name:en":"Jura Route - Stage 6","name:fr":"Route du Jura - Étape 6","name:it":"percorso del Giura - Tappa 6","network":"ncn","distance":"61","operator":"SchweizMobil","description":"Étape 6"},"144420":{"to":"Bellinzona","ref":"3","url":"https://www.schweizmobil.ch/it/veloland/etappe3.06","from":"Airolo","name":"Percorso Nord-Sud - Tappa 6","note":"Etappe 6","type":"route","route":"bicycle","name:de":"Nord-Süd-Route - Etappe 6","name:en":"North-South Route - Stage 6","name:fr":"Route Nord-Sud - Étape 6","name:it":"Percorso Nord-Sud - Tappa 6","name:nl":"Noord-Zuidroute - Etappe 6","network":"ncn","distance":"63","operator":"Veloland Schweiz","description":"Etappe 6 (Airolo-Bellinzona)"},"144750":{"to":"Pfäffikon ZH","ref":"86","url":"https://www.schweizmobil.ch/de/veloland/etappe86.01","from":"Schaffhausen","name":"Rheinfall - Zürcher Oberland - Etappe 1","type":"route","route":"bicycle","network":"rcn","distance":"53","operator":"Veloland Schweiz","description":"Etappe 1"},"144751":{"to":"Wattwil (Ricken)","ref":"86","from":"Pfäffikon ZH","name":"Rheinfall - Zürcher Oberland - Etappe 2","note":"Etappe 2 (Pfäffikon ZH-Wattwil (Ricken))","type":"route","route":"bicycle","network":"rcn","website":"https://www.schweizmobil.ch/de/veloland/etappe86.02","distance":"43","operator":"Veloland Schweiz"},"144752":{"to":"Glarus","ref":"83","url":"https://www.schweizmobil.ch/de/veloland/etappe83.01","from":"Schwyz","name":"Suworow-Route - Etappe 1","type":"route","route":"bicycle","network":"rcn","distance":"48","operator":"Veloland Schweiz"},"144755":{"to":"Einsiedeln (Willerzell)","ref":"76","from":"Schwyz","name":"Ibergeregg-Sattelegg-Linth - Etappe 1","type":"route","route":"bicycle","network":"rcn","website":"https://www.schweizmobil.ch/de/veloland/etappe76.01","distance":"32","operator":"Veloland Schweiz"},"147983":{"name":"La via del lago","type":"route","route":"bicycle","network":"lcn"},"148022":{"to":"Zürich","ref":"45","url":"https://www.schweizmobil.ch/de/veloland/etappe45.02","from":"Winterthur","name":"Wyland-Downtown - Etappe 2","note":"imported from rcn_ref=45","type":"route","route":"bicycle","network":"rcn","distance":"28","operator":"Veloland Schweiz"},"149020":{"to":"Burgdorf (Kilchberg)","ref":"44","url":"https://www.schweizmobil.ch/de/veloland/etappe44.03","from":"Aarberg","name":"Le Jorat–Trois Lacs–Emme","note":"Die Routenführung vor der Emme-Brücke bei Solothurn ist bei Schweizmobil.ch inkorrekt gezeichnet.","type":"route","route":"bicycle","name:de":"Le Jorat–Trois Lacs–Emme","name:fr":"Le Jorat–Trois Lacs–Emme","network":"rcn","distance":"52","operator":"Veloland Schweiz","description":"Etappe 3: Aarberg–Burgdorf (Kirchberg)"},"149184":{"to":"Oberwald","ref":"1","url":"https://www.schweizmobil.ch/de/veloland/etappe2.01","from":"Andermatt","name":"Rhone-Route - Etappe 1","type":"route","route":"bicycle","name:de":"Rhone-Route - Etappe 1","name:en":"Rhone Route - Stage 1","name:fr":"Route du Rhône - Étape 1","name:it":"Percorso del Rodano - Tappa 1","name:nl":"Rhôneroute - Etappe 1","network":"ncn","distance":"38","operator":"Veloland Schweiz"},"149202":{"to":"Disentis","ref":"2;EV15","from":"Andermatt","name":"Rhein-Route - Etappe 1","type":"route","route":"bicycle","name:de":"Rhein-Route - Etappe 1","name:en":"Rhine Route - Stage 1","name:fr":"Route du Rhin - Étape 1","name:it":"Percorso del Reno - Tappa 1","name:nl":"Rijnroute - Etappe 1","network":"ncn","website":"https://www.schweizmobil.ch/de/veloland/etappe1.01","distance":"32","operator":"Veloland Schweiz"},"149204":{"to":"St. Margrethen","ref":"2;EV15","from":"Buchs (SG)","name":"Rhein-Route - Etappe 4","type":"route","route":"bicycle","name:de":"Rhein-Route - Etappe 4","name:en":"Rhine Route - Stage 4","name:fr":"Route du Rhin - Étape 4","name:it":"Percorso del Reno - Tappa 4","name:nl":"Rijnroute - Etappe 4","network":"ncn","website":"https://www.schweizmobil.ch/de/veloland/routen/route/etappe-0925.html","distance":"42","operator":"SchweizMobil","description":"Etappe 4 (Buchs (SG)-St. Margrethen)"},"149220":{"to":"Rheinfelden","ref":"2;EV15","from":"Bad Zurzach","name":"Rhein-Route - Etappe 8","type":"route","route":"bicycle","name:de":"Rhein-Route - Etappe 8","name:en":"Rhine Route - Stage 8","name:fr":"Route du Rhin - Étape 8","name:it":"Percorso del Reno - Tappa 8","name:nl":"Rijnroute - Etappe 8","network":"ncn","website":"https://www.schweizmobil.ch/de/veloland/routen/route/etappe-01292.html","distance":"54","operator":"Veloland Schweiz"},"149334":{"to":"Burgdorf","ref":"24","url":"https://www.schweizmobil.ch/de/veloland/etappe24.01","from":"Biel/Bienne","name":"Emmental–Entlebuch - Etappe 1","note":"Etappe 1","type":"route","route":"bicycle","network":"rcn","distance":"41","operator":"Veloland Schweiz"},"149371":{"to":"Neuchâtel","ref":"50","url":"https://www.schweizmobil.ch/de/veloland/etappe50.02","from":"Grenchen","name":"Jurasüdfuss-Route","note":"Jurasüdfuss-Route - Etappe 2 (Grenchen - Neuchâtel)","type":"route","route":"bicycle","name:de":"Jurasüdfuss-Route","name:fr":"Route du pied du Jura","network":"rcn","distance":"53","operator":"Veloland Schweiz"},"149372":{"to":"Genève","ref":"50","url":"https://www.schweizmobil.ch/fr/veloland/etappe50.05","from":"Bière","name":"Route du Pied du Jura - Étape 5","type":"route","route":"bicycle","name:de":"Jurasüdfuss-Route - Etappe 5","name:fr":"Route du Pied du Jura - Étape 5","network":"rcn","distance":"60","operator":"Veloland Schweiz"},"149379":{"to":"Rapperswil","ref":"53","from":"Turbenthal","name":"Töss-Jona-Route - Etappe 2","type":"route","route":"bicycle","network":"rcn","website":"https://www.schweizmobil.ch/de/veloland/etappe53.02","distance":"39","operator":"Veloland Schweiz","description":"Etappe 2 (Turbenthal-Rapperswil)"},"149380":{"to":"Turbenthal","ref":"53","from":"Eglisau (Tössegg)","name":"Töss-Jona-Route - Etappe 1","type":"route","route":"bicycle","network":"rcn","website":"https://www.schweizmobil.ch/de/veloland/etappe53.01","distance":"38","operator":"Veloland Schweiz","description":"Etappe 1"},"149387":{"to":"Romont FR","ref":"62","from":"Plaffeien","name":"Sense–Glâne–Veveyse","type":"route","route":"bicycle","network":"rcn","distance":"40","operator":"Veloland Schweiz","description":"Étape 3: Plaffeien–Romont (FR)"},"149392":{"to":"Kerzers (Golaten)","ref":"74","url":"https://www.schweizmobil.ch/de/veloland/etappe74.02","from":"Bern","name":"Gürbe–Sense - Etappe 2","type":"route","route":"bicycle","network":"rcn","distance":"34","operator":"Veloland Schweiz","description":"Etappe 2: Bern–Kerzers (Golaten)"},"149410":{"to":"Airolo","ref":"3","url":"https://www.schweizmobil.ch/de/veloland/etappe3.05","from":"Andermatt","name":"Nord-Süd-Route - Etappe 5","note":"Etappe 5","type":"route","route":"bicycle","name:de":"Nord-Süd-Route - Etappe 5","name:en":"North-South Route - Stage 5","name:fr":"Route Nord-Sud - Étape 5","name:it":"Percorso Nord-Sud - Tappa 5","name:nl":"Noord-Zuidroute - Etappe 5","network":"ncn","distance":"26","operator":"Veloland Schweiz","description":"Etappe 5 (Andermatt-Airolo)"},"149412":{"to":"Agno","ref":"3","from":"Bellinzona","name":"Percorso Nord-Sud - Tappa 7","note":"Etappe 7","type":"route","route":"bicycle","name:de":"Nord-Süd-Route - Etappe 7","name:en":"North-South Route - Stage 7","name:fr":"Route Nord-Sud - Étape 7","name:it":"Percorso Nord-Sud - Tappa 7","name:nl":"Noord-Zuidroute - Etappe 7","network":"ncn","website":"https://www.schweizmobil.ch/it/veloland/etappe3.07","distance":"37","operator":"Veloland Schweiz","roundtrip":"no","description":"Etappe 7 (Bellinzona-Agno)"},"149413":{"to":"Chiasso","ref":"3","url":"https://www.schweizmobil.ch/it/veloland/etappe3.08","from":"Agno","name":"Percorso Nord-Sud - Tappa 8","note":"Etappe 8 (Agno-Chiasso)","type":"route","route":"bicycle","name:de":"Nord-Süd-Route - Etappe 8","name:en":"North-South Route - Stage 8","name:fr":"Route Nord-Sud - Étape 8","name:it":"Percorso Nord-Sud - Tappa 8","name:nl":"Noord-Zuidroute - Etappe 8","network":"ncn","distance":"37","operator":"Veloland Schweiz","description":"EV 5 CH - Etappe 8 (Agno-Chiasso)"},"149427":{"to":"Appenzell","ref":"4","url":"https://www.schweizmobil.ch/de/veloland/etappe4.01","from":"St. Margrethen","name":"Alpenpanorama-Route - Etappe 1","type":"route","route":"bicycle","name:de":"Alpenpanorama-Route - Etappe 1","name:en":"Alpine Panorama Route - Stage 1","name:fr":"Route panorama alpine - Étape 1","name:it":"Percorso panoramico delle Alpi - Tappa 1","network":"ncn","distance":"46","operator":"Veloland Schweiz"},"150000":{"to":"Rapperswil","ref":"29","url":"https://www.schweizmobil.ch/de/veloland/etappe29.02","from":"Zürich (Schwamendingen)","name":"Glatt-Route - Etappe 2","type":"route","route":"bicycle","network":"rcn","distance":"34","operator":"Veloland Schweiz","description":"rcn 29 - Etappe 2 (Zürich (Schwamendingen)-Rapperswil)"},"150001":{"to":"Zürich (Schwamendingen)","ref":"29","url":"https://www.schweizmobil.ch/de/veloland/etappe29.01","from":"Glattfelden (Rheinsfelden)","name":"Glatt-Route - Etappe 1","note":"Etappe 1 (Glattfelden (Rheinsfelden)-Zürich (Schwamendingen))","type":"route","route":"bicycle","network":"rcn","distance":"30","operator":"SchweizMobile"},"151975":{"to":"Wil (SG)","ref":"5","from":"Romanshorn","name":"Mittelland-Route - Etappe 1","type":"route","route":"bicycle","name:de":"Mittelland-Route - Etappe 1","name:en":"Mittelland Route - Stage 1","name:fr":"Route Mittelland - Étape 1","name:it":"Percorso dell'Altopiano - Tappa 1","network":"ncn","website":"https://www.schweizmobil.ch/de/veloland/etappe5.01","distance":"36","operator":"Veloland Schweiz","description":"Etappe 1 (Romanshorn - Wil (SG))"},"152075":{"to":"Solothurn","ref":"5","url":"https://www.schweizmobil.ch/de/veloland/etappe5.04","from":"Aarau","name":"Mittelland-Route - Stage 4","note":"Etappe 4 (Aarau-Solothurn)","type":"route","route":"bicycle","name:de":"Mittelland-Route - Etappe 4","name:en":"Mittelland Route - Stage 4","name:fr":"Route Mittelland - Étape 4","name:it":"Percorso dell'Altopiano - Tappa 4","network":"ncn","distance":"56","operator":"Veloland Schweiz"},"153308":{"to":"Spiez","ref":"8","from":"Meiringen","name":"Aare-Route","type":"route","route":"bicycle","name:de":"Aare-Route","name:en":"Aare Route","name:fr":"Route de l'Aar","name:it":"Percorso dell'Aare","network":"ncn","distance":"48","operator":"Veloland Schweiz","description":"Meiringen–Spiez"},"153452":{"to":"Bergün","ref":"6","url":"https://www.schweizmobil.ch/de/veloland/etappe6.02","from":"Thusis","name":"Graubünden-Route - Etappe 2","type":"route","route":"bicycle","name:de":"Graubünden-Route - Etappe 2","name:en":"Graubünden Route - Stage 2","name:fr":"Route des Grisons - Étape 2","name:it":"Percorso dei Grigioni - Tappa 2","network":"ncn","distance":"30","operator":"Veloland Schweiz"},"153454":{"to":"La Punt","ref":"65","url":"https://www.schweizmobil.ch/de/veloland/etappe65.01","from":"Maloja","name":"Inn-Radweg - Etappe 1","note":"Etappe 1","type":"route","route":"bicycle","network":"rcn","distance":"33","operator":"Veloland Schweiz"},"153455":{"to":"Martina","ref":"65","url":"https://www.schweizmobil.ch/de/veloland/etappe65.02","from":"La Punt","name":"Inn-Radweg - Etappe 2","note":"Etappe 2","type":"route","route":"bicycle","network":"rcn","distance":"75","operator":"Veloland Schweiz"},"153459":{"to":"Courtemautruy","ref":"7","url":"https://www.schweizmobil.ch/fr/veloland/etappe7.01","from":"Basel","name":"Route du Jura - Étape 1","type":"route","route":"bicycle","ascent":"1050","descent":"760","name:de":"Jura-Route - Etappe 1","name:en":"Jura Route - Stage 1","name:fr":"Route du Jura - Étape 1","name:it":"Percorso del Giura - Tappa 1","network":"ncn","distance":"57","operator":"SchweizMobil","roundtrip":"no","description":"Etappe 1 (Basel-Courtemautruy)"},"153460":{"to":"Vallorbe","ref":"7","from":"Fleurier","name":"Route du Jura - Étape 5","note":"Etape 5, Fleurier–Vallorbe","type":"route","route":"bicycle","name:de":"Jura-Route - Etappe 5","name:en":"Jura Route - Stage 5","name:fr":"Route du Jura - Étape 5","name:it":"percorso del Giura - Tappa 5","network":"ncn","website":"https://www.schweizmobil.ch/fr/veloland/etappe7.05","distance":"48","operator":"Veloland Schweiz"},"153463":{"to":"Aarau","ref":"8","url":"https://www.schweizmobil.ch/de/veloland/etappe8.06","from":"Solothurn","name":"Aare-Route","note":"Etappe 6: Solothurn-Aarau","type":"route","route":"bicycle","name:de":"Aare-Route","name:en":"Aare Route","name:fr":"Route de l'Aar","name:it":"Percorso dell'Aare","network":"ncn","distance":"56","operator":"Veloland Schweiz"},"153464":{"to":"Solothurn","ref":"8","from":"Biel (Nidau)","name":"Aare-Route - Etappe 5","note":"Etappe 5: Biel (Nidau)–Solothurn","type":"route","route":"bicycle","name:de":"Aare-Route - Etappe 5","name:en":"Aare Route - Stage 5","name:fr":"Route de l'Aar - Étape 5","name:it":"Percorso dell'Aare - Tappa 5","network":"ncn","distance":"31","operator":"Veloland Schweiz"},"153477":{"to":"Gstaad","ref":"9","from":"Bulle","name":"Route des lacs - Étape 2","type":"route","route":"bicycle","name:de":"Seen-Route - Etappe 2","name:en":"Lakes Route - Stage 2","name:fr":"Route des lacs - Étape 2","name:it":"Percorso dei laghi - Tappa 2","network":"ncn","website":"https://www.schweizmobil.ch/fr/veloland/etappe9.02","distance":"46","operator":"Veloland Schweiz"},"153478":{"to":"Zug","ref":"9","from":"Sarnen","name":"Seen-Route - Etappe 6","type":"route","route":"bicycle","name:de":"Seen-Route - Etappe 6","name:en":"Lakes Route - Stage 6","name:fr":"Route des lacs - Étape 6","name:it":"Percorso dei laghi - Tappa 6","network":"ncn","website":"https://www.schweizmobil.ch/de/veloland/etappe9.06","distance":"61","operator":"Veloland Schweiz"},"153484":{"to":"Wil (SG)","ref":"33","from":"Stein am Rhein","name":"Kartäuser-Fürstenland-Route - Etappe 1","type":"route","route":"bicycle","ascent":"620","descent":"460","network":"rcn","website":"https://www.schweizmobil.ch/de/veloland/etappe33.01","distance":"42","operator":"Veloland Schweiz","description":"Etappe 1"},"153485":{"to":"Rorschach","ref":"33","from":"Wil (SG)","name":"Kartäuser-Fürstenland-Route - Etappe 2","type":"route","route":"bicycle","network":"rcn","website":"https://www.schweizmobil.ch/de/veloland/etappe33.02","distance":"45","operator":"Veloland Schweiz"},"153521":{"to":"Montbovon","ref":"4","url":"https://www.schweizmobil.ch/fr/veloland/etappe4.07","from":"Fribourg","name":"Route panorama alpine - Étape 7","type":"route","fixme":"Check if at Echarlens there is a different route for forward and backward as mapped or only one for both direcctions","route":"bicycle","name:de":"Alpenpanorama-Route - Etappe 7","name:en":"Alpine Panorama Route - Stage 7","name:fr":"Route panorama alpine - Étape 7","name:it":"Percorso panoramico delle Alpi - Tappa 7","network":"ncn","distance":"55","operator":"Veloland Schweiz"},"157202":{"to":"Bern","ref":"74","url":"https://www.schweizmobil.ch/de/veloland/etappe74.01","from":"Thun (Amsoldingen)","name":"Gürbe–Sense - Etappe 1","type":"route","route":"bicycle","network":"rcn","distance":"38","operator":"Veloland Schweiz","description":"Etappe 1: Thun (Amsoldingen)–Bern"},"167412":{"to":"Brunnen","ref":"38","url":"https://www.schweizmobil.ch/de/veloland/etappe38.03","from":"Luzern","name":"Luzerner Hinterland-Rigi - Etappe 3","type":"route","route":"bicycle","network":"rcn","distance":"39","operator":"Veloland Schweiz"},"168691":{"to":"Thusis","ref":"6","url":"https://www.schweizmobil.ch/de/veloland/etappe6.01","from":"Chur","name":"Graubünden-Route - Etappe 1","type":"route","route":"bicycle","name:de":"Graubünden-Route - Etappe 1","name:en":"Graubünden Route - Stage 1","name:fr":"Route des Grisons - Étape 1","name:it":"Percorso dei Grigioni - Tappa 1","network":"ncn","distance":"27","operator":"Veloland Schweiz"},"168798":{"to":"Saignelégier","ref":"7","url":"https://www.schweizmobil.ch/fr/veloland/etappe7.02","from":"Courtemautruy","name":"Route du Jura - Étape 2","type":"route","route":"bicycle","ascent":"1100","descent":"640","name:de":"Jura-Route - Etappe 2","name:en":"Jura Route - Stage 2","name:fr":"Route du Jura - Étape 2","name:it":"Percorso del Giura - Tappa 2","network":"ncn","distance":"36","operator":"SchweizMobil","description":"Etappe 2 (Courtemautruy-Saignelégier)"},"168799":{"to":"La Chaux-de-Fonds","ref":"7","from":"Saignelégier","name":"Route du Jura - Étape 3","note":"Etappe 3 (Saignelégier-La Chaux-de-Fonds)","type":"route","route":"bicycle","ascent":"660","descent":"620","name:de":"Jura-Route - Etappe 3","name:en":"Jura Route - Stage 3","name:fr":"Route du Jura - Étape 3","name:it":"Percorso del Giura - Tappa 3","network":"ncn","distance":"36","operator":"Veloland Schweiz"},"168806":{"to":"Fleurier","ref":"7","from":"La Chaux-de-Fonds","name":"Route du Jura - Étape 4","type":"route","route":"bicycle","ascent":"460","descent":"740","name:de":"Jura-Route - Etappe 4","name:en":"Jura Route - Stage 4","name:fr":"Route du Jura - Étape 4","name:it":"Percorso del Giura - Tappa 4","network":"ncn","website":"https://www.schweizmobil.ch/fr/veloland/etappe7.04","distance":"40","operator":"SchweizMobil","addr:city":"La Chaux-de-Fonds","description":"Etappe 4 (La Chaux-de-Fonds-Fleurier"},"168807":{"to":"Rorschach","ref":"9","from":"Buchs","name":"Seen-Route - Etappe 10","type":"route","route":"bicycle","name:de":"Seen-Route - Etappe 10","name:en":"Lakes Route - Stage 10","name:fr":"Route des lacs - Étape 10","name:it":"Percorso dei laghi - Tappa 10","network":"ncn","website":"https://www.schweizmobil.ch/de/veloland/etappe9.10","distance":"74","operator":"Veloland Schweiz"},"176462":{"to":"Splügen","ref":"6","url":"https://www.schweizmobil.ch/de/veloland/etappe6.05","from":"Thusis","name":"Graubünden-Route - Etappe 5","type":"route","route":"bicycle","name:de":"Graubünden-Route - Etappe 5","name:en":"Graubünden Route - Stage 5","name:fr":"Route des Grisons - Étape 5","name:it":"Percorso dei Grigioni - Tappa 5","network":"ncn","distance":"27","operator":"Veloland Schweiz"},"182493":{"to":"Waldshut","ref":"RRW","from":"Waldshut","name":"Radrundweg Rheinlandschaft","type":"route","route":"bicycle","network":"lcn","website":"https://www.landkreis-waldshut.de/leben-und-arbeiten/tourismus-und-freizeit/radfahren/16-radrundtouren/","distance":"22","roundtrip":"yes","description":"Die RouteWT 15 ist nicht wie die anderen 14 Routen mit orangem Logo und Nummer bezeichnet"},"192362":{"ref":"361","url":"http://www.veloland.ch/de/lokale-routen/route-0361.html","name":"Belpbergroute","type":"route","route":"bicycle","network":"lcn","operator":"Veloland Schweiz","roundtrip":"yes","description":"Uetendorf–Uetendorf"},"194217":{"to":"Châtel-St-Denis","ref":"62","from":"Romont FR","name":"Sense–Glâne–Veveyse","type":"route","route":"bicycle","network":"rcn","distance":"33","operator":"Veloland Schweiz","description":"Étape 4: Romont (FR)–Châtel-St-Denis"},"223951":{"name":"rcn Beringen - Löhningen","type":"route","route":"bicycle","name:de":"Beringen - Löhningen","network":"rcn"},"223952":{"name":"rcn Löhningen - Siblingen","type":"route","route":"bicycle","name:de":"Löhningen - Siblingen","network":"rcn"},"223953":{"name":"rcn Neuhausen - Beringen","type":"route","route":"bicycle","name:de":"Neuhausen - Beringen","network":"rcn"},"241032":{"name":"rcn Siblingen - Schleitheim","type":"route","route":"bicycle","name:de":"Siblingen - Schleitheim","network":"rcn"},"274731":{"to":"Neuchâtel (Corcelles)","ref":"22","url":"https://www.schweizmobil.ch/fr/veloland/etappe22.02","from":"Yverdons-les-Bains","name":"Nord Vaudois - Jura - Étape 2","type":"route","route":"bicycle","network":"rcn","distance":"36","operator":"SchweizMobil","description":"Etappe 2 (Yverdon-le-Bains - Neuchâtel (Corcelles))"},"279553":{"ref":"500","name":"Kaiseraugst-Kaiserstuhl","type":"route","route":"bicycle","network":"lcn","operator":"Canton Aargau"},"279555":{"ref":"612","name":"Wegenstetten-Zeiningen","type":"route","route":"bicycle","symbol":"roter Pfeil","network":"lcn","osmc:symbol":"red::red_arrow"},"299598":{"to":"San Bernardino","ref":"6","url":"https://www.schweizmobil.ch/de/veloland/etappe6.06","from":"Splügen","name":"Graubünden-Route - Etappe 6","type":"route","route":"bicycle","name:de":"Graubünden-Route - Etappe 6","name:en":"Graubünden Route - Stage 6","name:fr":"Route des Grisons - Étape 6","name:it":"Percorso dei Grigioni - Tappa 6","network":"ncn","distance":"28","operator":"Veloland Schweiz"},"299599":{"to":"Bellinzona","ref":"6","url":"https://www.schweizmobil.ch/de/veloland/etappe6.07","from":"San Bernardino","name":"Graubünden-Route - Etappe 7","type":"route","route":"bicycle","name:de":"Graubünden-Route - Etappe 7","name:en":"Graubünden Route - Stage 7","name:fr":"Route des Grisons - Étape 7","name:it":"Percorso dei Grigioni - Tappa 7","network":"ncn","distance":"49","operator":"Veloland Schweiz"},"325182":{"to":"Interlaken","ref":"61","url":"https://www.schweizmobil.ch/de/veloland/etappe61.01","from":"Thun (Steffisburg)","name":"Berner Oberland-Route - Etappe 1","type":"route","route":"bicycle","network":"rcn","distance":"43","operator":"Veloland Schweiz"},"326881":{"to":"Chur","ref":"2;EV15","from":"Disentis","name":"Rhein-Route - Etappe 2","type":"route","route":"bicycle","name:de":"Rhein-Route - Etappe 2","name:en":"Rhine Route - Stage 2","name:fr":"Route du Rhin - Étape 2","name:it":"Percorso del Reno - Tappa 2","name:nl":"Rijnroute - Etappe 2","network":"ncn","website":"https://www.schweizmobil.ch/de/veloland/routen/route/etappe-0919.html","distance":"65","operator":"Veloland Schweiz"},"342057":{"to":"Sarnen","ref":"73","url":"https://www.schweizmobil.ch/de/veloland/routen/route/etappe-0904.html","from":"Wolhusen (Werthenstein)","name":"Wiggertal–Glaubenberg - Etappe 2","type":"route","route":"bicycle","network":"rcn","distance":"45","operator":"Veloland Schweiz"},"357979":{"to":"Luzern","ref":"24","url":"https://www.schweizmobil.ch/de/veloland/etappe24.03","from":"Escholzmatt","name":"Emmental–Entlebuch - Etappe 3","type":"route","route":"bicycle","network":"rcn","distance":"47","operator":"Veloland Schweiz","description":"rcn 24 - Etappe 3 (Escholzmatt-Luzern)"},"392857":{"name":"Sissach-Eptingen","type":"route","route":"bicycle","network":"lcn"},"544576":{"to":"Sierre","ref":"1","url":"https://www.schweizmobil.ch/fr/suisse-a-velo/itineraires/route/etappe-0929.html","from":"Brig","name":"Rhone-Route - Etappe 3","type":"route","route":"bicycle","name:de":"Rhone-Route - Etappe 3","name:en":"Rhone Route - Stage 3","name:fr":"Route du Rhône - Ėtape 3","name:nl":"Rhôneroute - Etappe 3","network":"ncn","distance":"42","operator":"SchweizMobil","description":"Rhone-Route - Etappe 3 (Brig-Sierre)"},"544577":{"to":"Martigny","ref":"1","url":"https://www.schweizmobil.ch/fr/suisse-a-velo/itineraires/route/etappe-0932.html","from":"Sierre","name":"Route du Rhône - Étape 4","type":"route","route":"bicycle","name:de":"Rhone-Route - Etappe 4","name:en":"Rhone Route - Stage 4","name:fr":"Route du Rhône - Étape 4","name:nl":"Rhôneroute - Etappe 4","network":"ncn","distance":"46","operator":"Veloland Schweiz"},"544585":{"to":"Chancy","ref":"1","url":"https://www.schweizmobil.ch/fr/suisse-a-velo/itineraires/etappe-0920.html","from":"Genève","name":"Route du Rhône - Étape 8","type":"route","route":"bicycle","name:de":"Rhone-Route - Etappe 8","name:en":"Rhone Route - Stage 8","name:fr":"Route du Rhône - Étape 8","name:nl":"Rhôneroute - Etappe 8","network":"ncn","distance":"26","operator":"Veloland Schweiz"},"911272":{"to":"Langnau","ref":"99","from":"Thun","name":"Herzroute - Etappe 4","type":"route","route":"bicycle","name:de":"Herzroute - Etappe 4","name:fr":"Route du Coeur - Étape 4","network":"rcn","website":"https://www.schweizmobil.ch/de/veloland/etappe99.04","distance":"67","operator":"Veloland Schweiz","description":"Herzroute - Etappe 4 (Thun - Langnau)"},"911275":{"to":"Burgdorf","ref":"99","from":"Langnau","name":"Herzroute","type":"route","route":"bicycle","name:de":"Herzroute","name:fr":"Route du Coeur","network":"rcn","website":"https://www.schweizmobil.ch/de/veloland/etappe99.05","distance":"39","operator":"Veloland Schweiz","description":"Etappe 5"},"961019":{"ref":"RHE","name":"lcn 5 - Rund um d'Honegg","type":"route","route":"bicycle","network":"lcn","operator":"Regionalplanung Oberland-Ost"},"961045":{"to":"Thun","ref":"4","url":"https://www.schweizmobil.ch/de/veloland/etappe4.05","from":"Sörenberg","name":"Alpenpanorama-Route - Etappe 5","type":"route","route":"bicycle","name:de":"Alpenpanorama-Route - Etappe 5","name:en":"Alpine Panorama Route - Stage 5","name:fr":"Route panorama alpine - Étape 5","name:it":"Percorso panoramico delle Alpi - Tappa 4","network":"ncn","distance":"51","operator":"Veloland Schweiz"},"1096838":{"ref":"510","name":"Rheinfelden-Maisprach","type":"route","route":"bicycle","symbol":"Roter Pfeil","network":"lcn","osmc:symbol":"red::red_arrow"},"1141633":{"to":"Rotkreuz","ref":"77","from":"Brunnen","name":"Rigi-Reuss-Klettgau - Etappe 1","type":"route","route":"bicycle","network":"rcn","website":"https://www.schweizmobil.ch/de/veloland/etappe77.01","distance":"31","operator":"Veloland Schweiz"},"1158583":{"to":"Altstätten","ref":"35","url":"https://www.schweizmobil.ch/de/veloland/routen/regionale-routen/route-035.html","from":"Sargans","name":"Liechtensteiner Rheintalroute","type":"route","route":"bicycle","network":"rcn","distance":"53","operator":"SchweizMobil","roundtrip":"no"},"1307899":{"to":"Pas-de-l'Échelle","ref":"104","url":"https://www.schweizmobil.ch/fr/veloland/route104","from":"Genève","name":"Cyclévasion Genève-Salève","type":"route","route":"bicycle","name:fr":"Cyclévasion Genève-Salève","network":"lcn","distance":"7","operator":"Etat de Genève et Ville de Genève"},"1308541":{"ref":"102","url":"https://www.schweizmobil.ch/fr/veloland/route102","name":"Cyclévasion Genève-Satigny","type":"route","route":"bicycle","name:fr":"Cyclévasion Genève-Satigny","network":"lcn","distance":"12","operator":"Etat de Genève et Ville de Genève"},"1450241":{"to":"Kreuzlingen (Siegershausen)","ref":"82","from":"Schaffhausen","name":"Seerücken-Route - Etappe 1","type":"route","route":"bicycle","network":"rcn","website":"https://www.schweizmobil.ch/de/veloland/etappe82.01","distance":"55","operator":"Veloland Schweiz","description":"Seerücken-Route - Etappe 1 (Schaffhausen -> Kreuzlingen (Siegershausen))"},"1450347":{"to":"St. Gallen","ref":"26","url":"https://www.schweizmobil.ch/de/veloland/etappe26.02","from":"Weinfelden","name":"Ostschweizer Wein-Route - Etappe 2","type":"route","route":"bicycle","network":"rcn","distance":"38","operator":"Veloland Schweiz"},"1450364":{"to":"Weinfelden","ref":"26","url":"https://www.schweizmobil.ch/de/veloland/etappe26.01","from":"Schaffhausen","name":"Ostschweizer Wein-Route - Etappe 1","type":"route","route":"bicycle","network":"rcn","distance":"52","operator":"Veloland Schweiz"},"1526253":{"to":"Arbon","ref":"82","url":"https://www.schweizmobil.ch/de/veloland/etappe82.02","from":"Kreuzlingen (Siegershausen)","name":"Seerücken-Route - Etappe 2","type":"route","route":"bicycle","network":"rcn","distance":"31","operator":"Veloland Schweiz","description":"Seerücken-Route - Etappe 2 (Kreuzlingen (Siegershausen) -> Arbon)"},"1526721":{"to":"Stein AG","ref":"56","url":"https://www.schweizmobil.ch/de/veloland/etappe56.02","from":"Lenzburg","name":"Seetal-Bötzberg - Etappe 2","type":"route","route":"bicycle","network":"rcn","distance":"42","operator":"Veloland Schweiz"},"1532552":{"ref":"ARRN","name":"Widen - Dietikon","type":"route","route":"bicycle","network":"lcn"},"1563527":{"to":"Altnau","ref":"922","url":"http://www.veloland.ch/de/route922","from":"Bürglen TG","name":"Gögelland-Route","type":"route","route":"bicycle","name:de":"Gögelland-Route","name:en":"Gögelland Route","name:fr":"Route de Gögelland","name:it":"Percorso della Gögelland","network":"lcn","operator":"Veloland Schweiz"},"1565607":{"to":"Weinfelden","ref":"923","from":"Rorschach","name":"Geo-Route - Etappe 1","type":"route","route":"bicycle","network":"lcn","website":"https://www.schweizmobil.ch/de/veloland/etappe923.01","distance":"46","operator":"Veloland Schweiz","description":"Geo-Route - Etappe 1","source:name":"Veloland Schweiz"},"1569916":{"to":"Wil SG","ref":"47","url":"https://www.schweizmobil.ch/de/veloland/routen/route-047.html","from":"Romanshorn","name":"Thurgauer Panoramaroute","type":"route","route":"bicycle","network":"rcn","distance":"35","operator":"Veloland Schweiz","description":"Thurgauer Panoramaroute (Romanshorn - Wil SG)","source:name":"Veloland Schweiz"},"1576512":{"to":"Herisau","ref":"75","url":"https://www.schweizmobil.ch/de/veloland/etappe75.01","from":"Arbon","name":"Obstgarten-Route - Etappe 1","type":"route","route":"bicycle","network":"rcn","distance":"27","operator":"Veloland Schweiz","source:name":"Veloland Schweiz"},"1576513":{"to":"Nesslau","ref":"75","url":"https://www.schweizmobil.ch/de/veloland/etappe75.02","from":"Herisau","name":"Obstgarten-Route - Etappe 2","type":"route","route":"bicycle","network":"rcn","distance":"30","operator":"Veloland Schweiz","source:name":"Veloland Schweiz"},"1606999":{"ref":"ARRN","name":"Bremgarten - Ottenbach","type":"route","route":"bicycle","network":"lcn"},"1607116":{"ref":"ARRN 522","name":"Bremgarten - Fislisbach - Baden","note":"Routenführung scheint zwischen Dättwil und Baden wesentlich anders als geplant","type":"route","route":"bicycle","network":"lcn"},"1610061":{"ref":"ARRN","name":"Sins-Muri-Wohlen","type":"route","route":"bicycle","network":"lcn"},"1612288":{"to":"Luzern","ref":"67","url":"https://www.schweizmobil.ch/de/veloland/routen/regionale-routen/route-067.html","from":"Aarau","name":"Wynental-Route","type":"route","route":"bicycle","network":"rcn","distance":"55","operator":"Veloland Schweiz"},"1613231":{"ref":"ARRN","name":"Berikon-Fislisbach","type":"route","route":"bicycle","network":"lcn"},"1614157":{"ref":"ARRN","name":"Short connections","note":"Birmenstorf-Müllingen, Zurzach-Rheinheim, Mellingen-Niederrordorf, Auenstein-Wildegg, Auenstein-Rupperswil, Tägerig-Wohlenschwil, Baden-Obersiggenthal, Rümikon-Wislikofen,Reinach-Rickenbach","type":"route","route":"bicycle","network":"lcn"},"1614158":{"ref":"ARRN","name":"Lupfig-Mülligen","type":"route","route":"bicycle","network":"lcn"},"1614159":{"ref":"ARRN","name":"Dättwil-Gebenstorf","type":"route","route":"bicycle","network":"lcn"},"1614160":{"ref":"ARRN","name":"Brugg-Othmarsingen-Wohlen","type":"route","route":"bicycle","network":"lcn"},"1614494":{"to":"Schaffhausen","ref":"923","from":"Weinfelden","name":"Geo-Route - Etappe 2","type":"route","route":"bicycle","network":"lcn","website":"https://www.schweizmobil.ch/de/veloland/etappe923.02","distance":"67","operator":"SchweizMobil","description":"Etappe 2 (Weinfelden-Schaffhausen)"},"1617756":{"ref":"ARRN","name":"Fislisbach-Mägenwil-Lenzburg","type":"route","route":"bicycle","network":"lcn"},"1618548":{"ref":"ARRN","name":"Dottikon-Dintikon-Villmergen","type":"route","route":"bicycle","network":"lcn"},"1623418":{"to":"Zug","ref":"99","from":"Willisau","name":"Herzroute - Etappe 7","type":"route","route":"bicycle","name:de":"Herzroute - Etappe 7","name:fr":"Route du Coeur - Étape 7","network":"rcn","website":"https://www.schweizmobil.ch/de/veloland/etappe99.07","alt_name":"Herzroute","distance":"72","operator":"Veloland Schweiz"},"1627102":{"to":"Hochdorf (Urswil)","ref":"94","url":"https://www.schweizmobil.ch/de/veloland/etappe94.04","from":"Huttwil","name":"L'Areuse-Emme-Sihl - Etappe 4","type":"route","route":"bicycle","name:de":"L'Areuse-Emme-Sihl - Etappe 4","name:fr":"L'Areuse-Emme-Sihl - Étape 4","network":"rcn","distance":"46","operator":"SchweizMobil","description":"Etappe 4: Huttwil–Hochdorf (Urswil)"},"1627486":{"to":"Neuchâtel","ref":"94","from":"Fleurier","name":"L'Areuse–Emme–Sihl","type":"route","route":"bicycle","name:de":"L'Areuse–Emme–Sihl","name:fr":"L'Areuse-Emme-Sihl","network":"rcn","distance":"39","operator":"Veloland Schweiz","description":"Etappe 1: Fleurier–Neuchâtel"},"1634225":{"ref":"ARRN","name":"Berikon-Birmensdorf","type":"route","route":"bicycle","network":"lcn"},"1634226":{"ref":"ARRN","name":"Berikon-Reppischhof","type":"route","route":"bicycle","network":"lcn"},"1638475":{"to":"Luzern","ref":"38","url":"https://www.schweizmobil.ch/de/veloland/etappe38.02","from":"Willisau","name":"Luzerner Hinterland-Rigi - Etappe 2","type":"route","route":"bicycle","network":"rcn","distance":"35","operator":"Veloland Schweiz","description":"rcn 38 - Etappe (Willisau - Luzern)"},"1638494":{"to":"Willisau","ref":"38","url":"https://www.schweizmobil.ch/de/veloland/etappe38.01","from":"Zofingen (Pfaffnau)","name":"Luzerner Hinterland-Rigi - Etappe 1","type":"route","route":"bicycle","network":"rcn","distance":"25","operator":"Veloland Schweiz","description":"Etappe Pfaffnau (Zofingen) - Willisau"},"1639907":{"ref":"ARRN","name":"Unterlunkhofen-Bünzen","type":"route","route":"bicycle","network":"lcn"},"1641194":{"ref":"ARRN","name":"Baden-Dietikon","type":"route","route":"bicycle","network":"lcn"},"1641195":{"ref":"ARRN 520","name":"Oetwil a. d. L. - Station Siggenthal","type":"route","route":"bicycle","network":"lcn"},"1641196":{"ref":"ARRN","name":"Kilwangen-Würenlos","type":"route","route":"bicycle","network":"lcn"},"1641602":{"ref":"ARRN 624","name":"Baden-Ehrendingen","type":"route","route":"bicycle","network":"lcn"},"1641650":{"ref":"ARRN","name":"Döttingen-Schneisingen","type":"route","route":"bicycle","network":"lcn"},"1643000":{"ref":"ARRN","name":"Endingen-Würenlingen","type":"route","route":"bicycle","network":"lcn"},"1643188":{"ref":"ARRN","name":"Lengnau-Obersiggenthal","type":"route","route":"bicycle","network":"lcn"},"1643618":{"ref":"ARRN","name":"Mellingen - Künten","type":"route","route":"bicycle","network":"lcn"},"1648016":{"ref":"ARRN","name":"Döttingen-Stilli","type":"route","route":"bicycle","network":"lcn"},"1648017":{"ref":"ARRN","name":"Leibstadt-Kleindöttingen","type":"route","route":"bicycle","network":"lcn"},"1648018":{"ref":"ARRN","name":"Schneisingen-Mellikon","type":"route","route":"bicycle","network":"lcn"},"1648019":{"name":"Murgenthal-Olten,Aarau-Koblenz","type":"route","route":"bicycle","network":"lcn","ref:arrn":"510"},"1648328":{"ref":"ARRN","name":"Baden-Gebenstorf-Windsich","type":"route","route":"bicycle","network":"lcn"},"1648329":{"ref":"ARRN","name":"Laufrohr-Turgi","type":"route","route":"bicycle","network":"lcn"},"1648330":{"ref":"ARRN","name":"Vogelsang-Gebenstorf","type":"route","route":"bicycle","network":"lcn"},"1648459":{"ref":"ARRN","name":"Niederwil-Wohlen","type":"route","route":"bicycle","network":"lcn"},"1650068":{"ref":"ARRN","name":"Aristau-Muri-Muswangen","type":"route","route":"bicycle","network":"lcn"},"1650069":{"ref":"ARRN","name":"Meisterschwanden-Villmergen","type":"route","route":"bicycle","network":"lcn"},"1650070":{"ref":"ARRN","name":"Wettingen-Otelfingen","type":"route","route":"bicycle","network":"lcn"},"1652327":{"ref":"511","name":"Aarau-Brugg (Aare links)","type":"route","route":"bicycle","network":"lcn"},"1652328":{"ref":"ARRN","name":"Birrhard-Hausen","type":"route","route":"bicycle","network":"lcn"},"1652798":{"ref":"ARRN","name":"Neuenhof-Wettingen","type":"route","route":"bicycle","network":"lcn"},"1655106":{"ref":"481","name":"Les collines de la Broye","type":"route","route":"bicycle","ascent":"740","descent":"740","network":"lcn","distance":"57","operator":"SchweizMobil"},"1656876":{"to":"Willisau","ref":"99","from":"Burgdorf","name":"Herzroute","type":"route","route":"bicycle","name:de":"Herzroute","name:fr":"Route du Coeur","network":"rcn","website":"https://www.schweizmobil.ch/de/veloland/etappe99.06","operator":"SchweizMobil","description":"Etappe 6"},"1656884":{"to":"Thun","ref":"99","url":"https://www.schweizmobil.ch/de/veloland/etappe99.03","from":"Laupen","name":"Herzroute - Etappe 3","type":"route","route":"bicycle","name:de":"Herzroute - Etappe 3","name:fr":"Route du Coeur - Étape 3","network":"rcn","distance":"64","operator":"Veloland Schweiz","description":"Etappe 3 (Laupen - Thun)"},"1660011":{"ref":"ARRN","name":"Boswil-Seengen","type":"route","route":"bicycle","network":"lcn"},"1660012":{"ref":"ARRN","name":"Büttikon-Wohlen","type":"route","route":"bicycle","network":"lcn"},"1660317":{"ref":"ARRN","name":"Bremgarten-Widen","type":"route","route":"bicycle","network":"lcn"},"1660437":{"ref":"ARRN","name":"Meisterschwanden-Seon","type":"route","route":"bicycle","network":"lcn"},"1661348":{"ref":"ARRN","name":"Hunzenschwil-Seon","type":"route","route":"bicycle","network":"lcn"},"1661349":{"ref":"ARRN","name":"Lenzburg-Suhr-Unterentfelden","type":"route","route":"bicycle","network":"lcn"},"1661876":{"ref":"ARRN","name":"Beinwil am See","type":"route","route":"bicycle","network":"lcn"},"1671748":{"ref":"ARRN","name":"Etzgen-Umiken","note":"no signposts between Uminken and Remingen","type":"route","route":"bicycle","network":"lcn"},"1671749":{"ref":"ARRN","name":"Laufrohr-Rheinsulz","type":"route","route":"bicycle","network":"lcn"},"1672454":{"ref":"501","name":"AARN: Frick-Stein","type":"route","route":"bicycle","network":"lcn","ref:aarn":"501"},"1699561":{"ref":"ARRN","name":"Aarau-Menziken","type":"route","route":"bicycle","network":"lcn"},"1699562":{"ref":"ARRN","name":"Boniswil-Seengen","type":"route","route":"bicycle","network":"lcn"},"1700657":{"ref":"ARRN","name":"Böttstein-Mettau","type":"route","route":"bicycle","network":"lcn"},"1701185":{"ref":"ARRN","name":"Anglikon-Villmergen","type":"route","route":"bicycle","network":"lcn"},"1701554":{"to":"Balsthal","ref":"71","from":"Dornach","name":"Passwang–Oberaargau","note":"Etappe 1","type":"route","route":"bicycle","ascent":"1100","descent":"950","network":"rcn","distance":"42","operator":"Veloland Schweiz"},"1702851":{"ref":"ARRN","name":"Baden-Dättwil","note":"Signposted but doesn't exist officially","type":"route","route":"bicycle","network":"lcn"},"1703058":{"ref":"ARRN","name":"Birmenstorf-Fislisbach","type":"route","route":"bicycle","network":"lcn"},"1707266":{"ref":"ARRN","name":"Grenzübergang Mellikon","type":"route","route":"bicycle","network":"lcn"},"1707267":{"ref":"ARRN","name":"Hägelen-Kaiserstuhl","type":"route","route":"bicycle","network":"lcn"},"1707268":{"ref":"ARRN","name":"Tegerfelden-Zurzach","type":"route","route":"bicycle","network":"lcn"},"1707473":{"ref":"ARRN","name":"Baden-Neuenhof","type":"route","route":"bicycle","network":"lcn"},"1709232":{"ref":"ARRN","name":"Baden-Ennetbaden","type":"route","route":"bicycle","network":"lcn"},"1709233":{"ref":"ARRN","name":"Baden-Wettingen","type":"route","route":"bicycle","network":"lcn"},"1709234":{"ref":"ARRN","name":"Busslingen-Niederwil","type":"route","route":"bicycle","network":"lcn"},"1709235":{"ref":"ARRN","name":"Hüttikon-Würenlos","type":"route","route":"bicycle","network":"lcn"},"1717427":{"ref":"ARRN","name":"Hendschiken-Lenzburg","type":"route","route":"bicycle","network":"lcn"},"1717428":{"ref":"ARRN","name":"Wohlen-Villmergen","type":"route","route":"bicycle","network":"lcn"},"1720898":{"ref":"ARRN","name":"Beinwil am See - Reinach","type":"route","route":"bicycle","network":"lcn"},"1721127":{"to":"Delémont","ref":"64","url":"https://www.schweizmobil.ch/fr/veloland/etappe64.03","from":"Biel","name":"Lötschberg–Jura - Étape 3","note":"no name on the signs","type":"route","route":"bicycle","name:de":"Lötschberg–Jura - Etappe 3","name:fr":"Lötschberg–Jura - Étape 3","network":"rcn","distance":"38","operator":"Veloland Schweiz","description":"Lötschberg–Jura (Etappe 3)"},"1727739":{"ref":"ARRN","name":"Hunzenschwil-Rupperswil","type":"route","route":"bicycle","network":"lcn"},"1744382":{"to":"Aarberg","ref":"44","url":"https://www.schweizmobil.ch/fr/veloland/etappe44.02","from":"Payern","name":"Le Jorat–Trois Lacs–Emme","type":"route","route":"bicycle","name:de":"Le Jorat–Trois Lacs–Emme","name:fr":"Le Jorat–Trois Lacs–Emme","network":"rcn","distance":"47","operator":"Veloland Schweiz","description":"Etappe 2: Payerne–Aarberg"},"1753487":{"ref":"ARRN","name":"Birrhard-Lupfig","type":"route","route":"bicycle","network":"lcn"},"1753488":{"ref":"ARRN","name":"Lupfig-Schinznach Bad","type":"route","route":"bicycle","network":"lcn"},"1754045":{"ref":"611","name":"Eiken-Hemmiken","type":"route","route":"bicycle","network":"lcn","ref:aarn":"611"},"1754046":{"ref":"613","name":"Mumpf-Schupfart","type":"route","route":"bicycle","network":"lcn"},"1765063":{"to":"Büren a.A","ref":"801","from":"Herzogenbuchsee","name":"Bucheggberg-Route","type":"route","route":"bicycle","ascent":"400","descent":"440","network":"lcn","distance":"39","operator":"Veloland Schweiz"},"1767087":{"ref":"ARRN","name":"Aesch-Jonen","type":"route","route":"bicycle","network":"lcn"},"1767088":{"ref":"ARRN","name":"Jonen-Rottenschwil","type":"route","route":"bicycle","network":"lcn"},"1769914":{"ref":"ARRN","name":"Birrhard-Brunegg","type":"route","route":"bicycle","network":"lcn"},"1769915":{"ref":"ARRN","name":"Brunegg-Mägenwil","type":"route","route":"bicycle","network":"lcn"},"1801975":{"ref":"ARRN","name":"Turgi-Untersiggenthal","type":"route","route":"bicycle","network":"lcn"},"1802012":{"ref":"ARRN","name":"Rüfenach-Villigen","type":"route","route":"bicycle","network":"lcn"},"1804055":{"ref":"ARRN","name":"Felsenau-Gippingen","type":"route","route":"bicycle","network":"lcn"},"1812014":{"ref":"ARRN","name":"Schinznach Bad - Dorf","type":"route","route":"bicycle","network":"lcn"},"1818473":{"ref":"ARRN","name":"Birri-Ottenbach","type":"route","route":"bicycle","network":"lcn"},"1829724":{"to":"Elm","ref":"83","url":"https://www.schweizmobil.ch/de/veloland/etappe83.02","from":"Glarus","name":"Suworow-Route - Etappe 2","type":"route","route":"bicycle","network":"rcn","distance":"21","operator":"Veloland Schweiz"},"1857519":{"to":"Stans","ref":"85","url":"https://www.schweizmobil.ch/de/veloland/etappe85.01","from":"Giswil","name":"Unterwaldenroute - Etappe 1","type":"route","route":"bicycle","network":"rcn","distance":"23","operator":"Veloland Schweiz"},"2077889":{"ref":"478","name":"Tour du Mont Pélerin (Chexbres–Chexbres)","type":"route","route":"bicycle","network":"lcn","distance":"30","operator":"Veloland Schweiz","roundtrip":"yes"},"2110480":{"ref":"ARRN","name":"Sins-Hochdorf","type":"route","route":"bicycle","network":"lcn"},"2110900":{"ref":"AARN","name":"Hallwil-Schloss Hallwil","type":"route","route":"bicycle","network":"lcn"},"2110901":{"ref":"AARN","name":"Hallwil-Teufenthal","type":"route","route":"bicycle","network":"lcn"},"2110902":{"ref":"AARN","name":"Schöftland-Unterkulm","type":"route","route":"bicycle","network":"lcn"},"2114005":{"ref":"AARN","name":"Schöftland-Winikon","type":"route","route":"bicycle","network":"lcn"},"2114006":{"ref":"AARN","name":"Unterentfelden-Triengen","type":"route","route":"bicycle","network":"lcn"},"2115555":{"ref":"AARN","name":"Muhen-Suhr","type":"route","route":"bicycle","network":"lcn"},"2115556":{"ref":"AARN","name":"Suhr Bahnhof","type":"route","route":"bicycle","network":"lcn"},"2127212":{"ref":"AARN","name":"Oberflachs-Schniznach-Dorf","type":"route","route":"bicycle","network":"lcn"},"2127232":{"ref":"AARN","name":"Staffelegg-Veltheim","type":"route","route":"bicycle","network":"lcn"},"2127908":{"ref":"601","name":"AARN: Aarau-Frick","type":"route","route":"bicycle","network":"lcn","ref:aarn":"601"},"2128588":{"ref":"602","name":"AARN: Frick-Küttigen","type":"route","route":"bicycle","network":"lcn","ref:aarn":"602"},"2142303":{"ref":"ARRN","name":"Auenstein-Rupperswil","type":"route","route":"bicycle","network":"lcn"},"2142304":{"ref":"ARRN","name":"Biberstein-Rohr","type":"route","route":"bicycle","network":"lcn"},"2142305":{"ref":"ARRN","name":"Rohr-Suhr","type":"route","route":"bicycle","network":"lcn"},"2143677":{"ref":"ARRN","name":"Aarau-Suhr","type":"route","route":"bicycle","network":"lcn"},"2143678":{"ref":"ARRN","name":"Buchs-Rohr","type":"route","route":"bicycle","network":"lcn"},"2156061":{"ref":"ARRN","name":"Reinach-Rickenbach","type":"route","route":"bicycle","network":"lcn"},"2156062":{"ref":"ARRN","name":"Schiltwald-Schöftland","type":"route","route":"bicycle","network":"lcn"},"2156864":{"name":"Start","type":"route","route":"bicycle","network":"lcn"},"2184794":{"ref":"ARRN","name":"Aarau Zentrum","type":"route","route":"bicycle","network":"lcn"},"2188159":{"ref":"ARRN","name":"Melligen-Niederrohrdorf","type":"route","route":"bicycle","network":"lcn"},"2190751":{"to":"Huttwil","ref":"94","url":"https://www.schweizmobil.ch/de/veloland/etappe94.03","from":"Bern","name":"L'Areuse–Emme–Sihl - Etappe 3","type":"route","route":"bicycle","name:de":"L'Areuse–Emme–Sihl - Etappe 3","name:en":"L'Areuse–Emme–Sihl - Leg 3","name:fr":"L'Areuse–Emme–Sihl - Étape 3","network":"rcn","distance":"66","operator":"SchweizMobil","description":"Etappe 3: (Bern - Huttwil)"},"2195373":{"ref":"ARRN","name":"Tägerig-Wohlenschwil","type":"route","route":"bicycle","network":"lcn"},"2195655":{"ref":"ARRN","name":"Oberentfelden-Oftringen","type":"route","route":"bicycle","network":"lcn"},"2195656":{"ref":"ARRN","name":"Schöftland-Zofingen","type":"route","route":"bicycle","network":"lcn"},"2196061":{"to":"Laupen","ref":"99","from":"Romont","name":"Herzroute - Etappe 2","type":"route","route":"bicycle","name:de":"Herzroute - Etappe 2","name:fr":"Route du Coeur - Étape 2","network":"rcn","website":"https://www.schweizmobil.ch/de/veloland/etappe99.02","distance":"63","operator":"SchweizMobil","description":"Etappe 2 (Romont - Laupen)"},"2196573":{"name":"Aarburg-Zofingen","type":"route","route":"bicycle","network":"lcn","ref:arrn":"580"},"2200173":{"ref":"ARRN","name":"Kölliken-Muhen","type":"route","route":"bicycle","network":"lcn"},"2200260":{"ref":"ARRN","name":"Holziken-Kölliken","type":"route","route":"bicycle","network":"lcn"},"2201169":{"to":"Escholzmatt","ref":"24","from":"Burgdorf","name":"Emmental–Entlebuch - Etappe 2","note":"Etappe 2","type":"route","route":"bicycle","network":"rcn","website":"https://www.schweizmobil.ch/de/veloland/etappe24.02","distance":"36","operator":"SchweizMobil"},"2201598":{"ref":"ARRN","name":"Aarau-Erlinsbach","type":"route","route":"bicycle","network":"lcn"},"2202920":{"ref":"AARN","name":"Kirchleerau-Staffelbach","type":"route","route":"bicycle","network":"lcn"},"2202921":{"ref":"AARN","name":"Moosleerau-Reitnau","type":"route","route":"bicycle","network":"lcn"},"2224989":{"ref":"ARRN","name":"Gebenstorf-Turgi","type":"route","route":"bicycle","network":"lcn"},"2236735":{"ref":"ARRN","name":"Staffelbach-Uerkheim","type":"route","route":"bicycle","network":"lcn"},"2242251":{"to":"Balterswil","ref":"921","url":"http://www.veloland.ch/de/route921","from":"Frauenfeld","name":"Huggenberger-Route","type":"route","route":"bicycle","ascent":"340","descent":"170","network":"lcn","distance":"19","operator":"Veloland Schweiz","source:name":"Veloland Schweiz"},"2256896":{"ref":"472","name":"Broye champêtre à vélo","type":"route","route":"bicycle","ascent":"560","descent":"560","network":"lcn","distance":"24","operator":"SchweizMobil","roundtrip":"yes"},"2293201":{"ref":"2","name":"Rundtour über den Rhein","note":"lokale Radrundtour, Integration in übergeordnetes Radnetz unklar, mindestens abschnittsweise kongruent mit Routen \\\"259\\\" und \\\"260\\\"","type":"route","route":"bicycle","network":"?"},"2355325":{"to":"Interlaken Ost","ref":"380","from":"Interlaken Ost","name":"Bödeli-Route","type":"route","route":"bicycle","ascent":"100","network":"lcn","distance":"23","operator":"Veloland Schweiz","roundtrip":"yes"},"2407700":{"to":"Meiringen","ref":"61","url":"https://www.schweizmobil.ch/de/veloland/etappe61.02","from":"Interlaken","name":"Berner Oberland-Route - Etappe 2","type":"route","route":"bicycle","network":"rcn","distance":"43","operator":"Veloland Schweiz"},"2451006":{"name":"Bubendorf-Reigoldswil-Bretzwil","type":"route","route":"bicycle","network":"lcn"},"2562524":{"ref":"ARRN","name":"Lenzburg-Rupperswil","type":"route","route":"bicycle","network":"lcn"},"2611491":{"name":"Zug - Inwil - Baar","type":"route","route":"bicycle","network":"lcn"},"2871997":{"name":"Lenzburg - Beinwil am See","type":"route","route":"bicycle","network":"lcn"},"2900521":{"to":"Cavergno","ref":"31","url":"https://www.schweizmobil.ch/it/veloland/etappe31.02","from":"Locarno","name":"Percorso Valle Maggia - Tappa 2","type":"route","route":"bicycle","network":"rcn","distance":"35"},"2909830":{"ref":"ARRN","name":"Eiken-Laufenburg","type":"route","route":"bicycle","network":"lcn"},"2909831":{"ref":"701","name":"Eiken-Sisseln","type":"route","route":"bicycle","network":"lcn","ref:aarn":"701"},"3006087":{"ref":"ARRN","name":"Leuggern-Mandach","type":"route","route":"bicycle","network":"lcn"},"3011498":{"ref":"603","name":"AARN: Frick-Brugg","type":"route","route":"bicycle","network":"lcn","operator":"Canton Aargau","ref:aarn":"603"},"3030610":{"ref":"360","url":"http://www.veloland.ch/de/lokale-routen/route-0360.html","name":"Moränenseeroute","type":"route","route":"bicycle","network":"lcn","operator":"Veloland Schweiz","roundtrip":"yes","description":"Uetendorf–Uetendorf"},"3090235":{"to":"Kleinlützel","ref":"348","from":"Beinwil","name":"Schwarzbubenland-Route","type":"route","route":"bicycle","ascent":"640","descent":"860","network":"lcn","distance":"29","operator":"Veloland Schweiz"},"3097585":{"ref":"ARRN","name":"Ehrendingen-Freienwil","type":"route","route":"bicycle","network":"lcn"},"3109559":{"ref":"1042","name":"Veloroute Winterthur - Gütighausen","type":"route","route":"bicycle","network":"lcn","designation":"Verbindungsroute"},"3205415":{"to":"Mals","ref":"27","url":"https://www.schweizmobil.ch/de/veloland/routen/regionale-routen/route-027.html","from":"Zernez","name":"Val Müstair","type":"route","route":"bicycle","ascent":"1250","descent":"1700","network":"rcn","distance":"52","operator":"Schweizmobil","description":"Zernez - Mals"},"3223005":{"ref":"97","name":"Dreiland-Radweg","note":"(Schweizer Abschnitt)","type":"route","route":"bicycle","network":"rcn"},"3282415":{"name":"St. Urban-Zofingen","type":"route","route":"bicycle","network":"lcn","ref:arrn":"650"},"3389689":{"ref":"502","name":"Eiken-Laufenburg","type":"route","route":"bicycle","network":"lcn","ref:aarn":"502"},"3730357":{"ref":"HKG","name":"Hochdorf - Kleinwangen - Gelfingen","type":"route","route":"bicycle","network":"lcn"},"3808466":{"ref":"777","name":"Erlebnis Tour","type":"route","route":"bicycle","network":"lcn","operator":"Veloland Schweiz","roundtrip":"yes"},"3812372":{"to":"Dornbirn","ref":"5","from":"Gaißau","name":"Gaißau-Dornbirn Route","type":"route","route":"bicycle","colour":"#248445","network":"ncn","distance":"22","operator":"Land Vorarlberg","osmc:symbol":"none:green_round::5:white","network:vogis":"OR"},"3883848":{"to":"Locarno","ref":"31","from":"Belinzona","name":"Percorso Valle Maggia - Tappa 1","type":"route","route":"bicycle","source":"veloland.ch","network":"rcn","website":"https://www.schweizmobil.ch/it/veloland/etappe31.01","distance":"22","description":"Tappa 1 Belinzona - Locarno"},"3902951":{"to":"Buchs","ref":"555","url":"https://www.schweizmobil.ch/de/veloland/route555","from":"Buchs","name":"Fünf Schlössertour","type":"route","route":"bicycle","symbol":"Fünf Schlössertour in schwarzer Schrift und 555 in weisser Schrift auf blauem Quadrat auf rotem Wegweiser","network":"rcn","distance":"42","roundtrip":"yes","osmc:symbol":"blue:blue::555:white"},"3918776":{"ref":"E","name":"TCS E","type":"route","route":"bicycle","network":"lcn"},"3918777":{"ref":"C","name":"TCS C","type":"route","route":"bicycle","network":"lcn"},"3918822":{"ref":"D","name":"TCS D","type":"route","route":"bicycle","network":"lcn"},"3946381":{"ref":"B","name":"TCS B","type":"route","route":"bicycle","network":"lcn"},"3946382":{"ref":"A","name":"TCS A","type":"route","route":"bicycle","network":"lcn"},"4156022":{"to":"Liestal","ref":"112","from":"Olten","name":"Belchen-Panorama-Route","type":"route","route":"bicycle","ascent":"1350","descent":"1400","network":"lcn","website":"https://www.schweizmobil.ch/de/veloland/route112","distance":"46","operator":"Veloland Schweiz"},"4156023":{"to":"Laufen","ref":"111","from":"Liestal","name":"Chirsi-Route","type":"route","route":"bicycle","ascent":"1100","descent":"1050","network":"lcn","website":"https://www.schweizmobil.ch/de/veloland/routen/route-0111.html","distance":"38","operator":"Veloland Schweiz"},"4297052":{"to":"Leuk","ref":"72","url":"https://www.schweizmobil.ch/fr/veloland/etappe72.01","from":"Martigny","name":"Chemin du Vignoble - Étape 1","type":"route","route":"bicycle","network":"rcn","distance":"35","operator":"Veloland Schweiz","cycle_network":"Trajet_cyclable_Etape_1,_Martigny_-_Sion"},"4298048":{"to":"Leuk","ref":"72","url":"https://www.schweizmobil.ch/fr/veloland/etappe72.02","from":"Sion","name":"Chemin du Vignoble - Étape 2","type":"route","route":"bicycle","network":"rcn","distance":"47","operator":"Veloland Schweiz"},"4702155":{"ref":"RaFe","name":"Fahrradroute Rapperswil - Feldbach","type":"route","route":"bicycle","network":"lcn"},"5278939":{"to":"Einsiedeln","ref":"99","from":"Zug","name":"Herzroute - Etappe 8","type":"route","route":"bicycle","name:de":"Herzroute - Etappe 8","name:fr":"Route du Coeur - Étape 8","network":"rcn","website":"https://www.schweizmobil.ch/de/veloland/etappe99.08","alt_name":"Herzroute","distance":"39","operator":"Veloland Schweiz"},"5278940":{"to":"Rapperswil","ref":"99","url":"https://www.schweizmobil.ch/de/veloland/etappe99.09","from":"Einsiedeln","name":"Herzroute - Etappe 9","type":"route","route":"bicycle","name:de":"Herzroute - Etappe 9","name:fr":"Route du Coeur - Étape 9","network":"rcn","alt_name":"Herzroute","distance":"50","operator":"Veloland Schweiz","description":"rcn 99 - Etappe 9 (Einsiedeln - Rapperswil)"},"5336560":{"to":"Vallorcine","ref":"V61","via":"Bonneville","from":"Ambilly","name":"Du Léman au Mont Blanc","note":"réalisé à 68 % (2023/03)","type":"route","route":"bicycle","source":"ON3V;AF3V","network":"ncn","distance":"124","roundtrip":"no"},"5376789":{"name":"Neuhaus-Schmerikon","type":"route","route":"bicycle","network":"lcn"},"5378175":{"to":"Wattwil","ref":"99","from":"Rapperswil","name":"Herzroute - Etappe 10","type":"route","route":"bicycle","name:de":"Herzroute - Etappe 10","name:fr":"Route du Coeur - Étape 10","network":"rcn","website":"https://www.schweizmobil.ch/de/veloland/etappe99.10","alt_name":"Herzroute","distance":"56","operator":"Veloland Schweiz","description":"rcn 99 - Etappe 10 (Rapperswil - Wattwil)"},"5378176":{"to":"Herisau","ref":"99","from":"Wattwil","name":"Herzroute - Etappe 11","type":"route","route":"bicycle","name:de":"Herzroute - Etappe 11","name:fr":"Route du Coeur - Étape 11","network":"rcn","website":"https://www.schweizmobil.ch/de/veloland/etappe99.11","distance":"54","operator":"Veloland Schweiz","description":"Etappe 11 (Wattwil - Herisau)"},"5378177":{"to":"Herisau","ref":"99","from":"Altstätten","name":"Herzroute - Etappe 12","type":"route","route":"bicycle","name:de":"Herzroute - Etappe 12","name:fr":"Route du Coeur - Étape 12","network":"rcn","website":"https://www.schweizmobil.ch/de/veloland/etappe99.12","alt_name":"Herzroute","distance":"46","operator":"Veloland Schweiz"},"5409704":{"ref":"210","name":"Pfäffikersee-Route","type":"route","route":"bicycle","network":"lcn","website":"https://www.schweizmobil.ch/de/veloland/routen/route-0210.html","distance":"11","roundtrip":"yes"},"5423753":{"to":"Rorschach","ref":"99","url":"https://www.schweizmobil.ch/de/veloland/etappe99.13","from":"Altstätten","name":"Herzroute - Etappe 13","type":"route","route":"bicycle","ascent":"950","descent":"1000","name:de":"Herzroute - Etappe 13","name:fr":"Route du Coeur - Étape 13","network":"rcn","distance":"38","operator":"Veloland Schweiz","description":"Etappe 13, (Altstätten–Rorschach)"},"5431148":{"ref":"ARRN-735","name":"Bremgarten-Wohlen","type":"route","route":"bicycle","network":"lcn"},"5577101":{"to":"Romont","ref":"99","from":"Lausanne","name":"Route du Coeur - Étape 1","type":"route","route":"bicycle","name:de":"Herzroute - Etappe 1","name:fr":"Route du Coeur - Étape 1","network":"rcn","website":"https://www.schweizmobil.ch/fr/veloland/etappe99.01","distance":"51","operator":"Veloland Schweiz","description":"Etappe 1"},"5660984":{"to":"Gais","ref":"42","url":"https://www.schweizmobil.ch/de/veloland/etappe42.01","from":"St. Gallen","name":"Appenzeller Route - Etappe 1","type":"route","route":"bicycle","network":"rcn","distance":"22","operator":"Veloland Schweiz","source:name":"Veloland Schweiz"},"5660985":{"to":"St. Gallen","ref":"42","url":"https://www.schweizmobil.ch/de/veloland/etappe42.02","from":"Gais","name":"Appenzeller Route - Etappe 2","type":"route","route":"bicycle","network":"rcn","distance":"48","operator":"Veloland Schweiz","source:name":"Veloland Schweiz"},"6099628":{"to":"Noiraigue","ref":"412","from":"Noiraigue","name":"Creux-du-Van Tour","type":"route","route":"bicycle","network":"lcn","operator":"SchweizMobil"},"6122264":{"ref":"476","name":"lcn 476 - Route du Vignoble de Bonvillars","type":"route","route":"bicycle","network":"lcn","operator":"Veloland Schweiz"},"6122374":{"to":"Grandson","ref":"487","url":"https://www.schweizmobil.ch/fr/veloland/route487","from":"Orbe","name":"Boucle de la Plaine de l'Orbe","type":"route","route":"bicycle","network":"lcn","distance":"32","operator":"Veloland Schweiz"},"6163479":{"ref":"599","name":"Herzschlaufe Seetal - Ostast","type":"route","route":"bicycle","network":"lcn","website":"http://www.herzschlaufe-seetal.ch/","operator":"http://www.herzschlaufe-seetal.ch/"},"6163480":{"ref":"599","name":"Herzschlaufe Seetal - Westast","type":"route","route":"bicycle","network":"lcn","website":"http://www.herzschlaufe-seetal.ch/","operator":"http://www.herzschlaufe-seetal.ch/"},"6163481":{"ref":"599","name":"Herzschlaufe - Seetal","type":"route","route":"bicycle","network":"lcn","website":"http://www.herzschlaufe-seetal.ch/","operator":"Veloland Schweiz"},"6388455":{"to":"Kreuzlingen","ref":"55","from":"St. Gallen","name":"Konzil Radweg","type":"route","route":"bicycle","network":"rcn","website":"https://www.schweizmobil.ch/de/veloland/routen/route-055.html","distance":"40","operator":"Veloland Schweiz","source:name":"Veloland Schweiz"},"6659146":{"to":"Meiringen","ref":"8","from":"Oberwald (Gletsch)","name":"Aare-Route","type":"route","route":"bicycle","name:de":"Aare-Route","name:en":"Aare Route","name:fr":"Route de l'Aar","name:it":"Percorso dell'Aare","network":"ncn","distance":"39","operator":"Veloland Schweiz","description":"Oberwald (Gletsch)–Meiringen"},"7226734":{"ref":"888","url":"http://www.veloland.ch/de/lokale-routen/route-0888.html","name":"Grünes Band Bern","type":"route","route":"bicycle","network":"lcn","operator":"Veloland Schweiz","wikidata":"Q108751873"},"7297511":{"ref":"362","url":"http://www.veloland.ch/de/lokale-routen/route-0362.html","name":"Stockentalroute","type":"route","route":"bicycle","network":"lcn","operator":"Veloland Schweiz","roundtrip":"yes","description":"Uetendorf – Uetendorf"},"7329540":{"to":"Boncourt","ref":"64","url":"https://www.schweizmobil.ch/fr/veloland/etappe64.04","from":"Delémont","name":"Lötschberg–Jura - Étape 4","type":"route","route":"bicycle","name:de":"Lötschberg–Jura - Etappe 4","name:en":"Lötschberg–Jura - Étape 4","network":"rcn","distance":"43","operator":"Veloland Schweiz","description":"Delémont–Boncourt"},"7334054":{"to":"Plaffeien","ref":"62","url":"https://www.schweizmobil.ch/de/veloland/etappe62.02","from":"Schwarzenburg","name":"Sense–Glâne–Veveyse - Etappe 2","type":"route","route":"bicycle","network":"rcn","distance":"13","operator":"Veloland Schweiz","description":"Étape 2: Schwarzenburg–Plaffeien"},"7555177":{"name":"Thal","type":"route","route":"bicycle","network":"lcn"},"7850764":{"name":"Liestal - Füllinsdorf","type":"route","route":"bicycle","network":"lcn"},"7850813":{"name":"Liestal - Füllinsdorf","type":"route","route":"bicycle","network":"lcn"},"7850831":{"name":"Rheinfelden-Augst","type":"route","route":"bicycle","network":"lcn"},"7850834":{"name":"Rheinfelden-Augst","type":"route","route":"bicycle","network":"lcn"},"7850838":{"name":"Radroute Sissach Füllinsdorf","type":"route","route":"bicycle","network":"lcn"},"8217559":{"name":"Radroute Rothrist-Vordemwald","type":"route","route":"bicycle","network":"lcn"},"8217647":{"name":"Radroute Rothrist-Strengelbach","type":"route","route":"bicycle","network":"lcn"},"8248985":{"ref":"32","name":"Rhein-Hirzel-Linth - Alternative Zufahrt ab rcn 94","type":"route","route":"bicycle","state":"connection","network":"rcn","operator":"Veloland Schweiz","description":"Ab dem Sihltal ist der Weg zur regionalen Velo Route 32 markiert.","description:en":"This is a connecting alternative from route 94 in the Sihltal towards the main section of route 32. It is only signposted eastward."},"8303777":{"ref":"VR","url":"https://www.viarhona.com/itineraire/3-viarhona-de-geneve-a-vulbens","name":"ViaRhôna 3: Genève - Vulbens","type":"route","route":"bicycle","icn_ref":"17","network":"ncn","distance":"33","roundtrip":"no"},"8311626":{"to":"Herzogenbuchsee","ref":"802","from":"Solothurn","name":"Wasseramt-Route","type":"route","route":"bicycle","ascent":"170","descent":"140","network":"lcn","distance":"17","operator":"SchweizMobil"},"8317539":{"to":"Thonon","ref":"VR","url":"https://www.viarhona.com/itineraire/1-viarhona-de-saint-gingolph-a-thonon-par-evianhttps://www.viarhona.com/itineraire/1-viarhona-de-saint-gingolph-a-thonon-par-evian","from":"Saint-Gingolph","name":"ViaRhôna 1: Saint-Gingolph - Thonon","type":"route","route":"bicycle","network":"ncn","distance":"29","roundtrip":"no"},"9053248":{"name":"Waltikon - Forch","type":"route","route":"bicycle","network":"lcn"},"9053701":{"name":"Riesbach - Zollikon","type":"route","route":"bicycle","network":"lcn"},"9053727":{"name":"Zollikon - Itschnach","type":"route","route":"bicycle","network":"lcn"},"9074333":{"name":"Tiefenbrunnen - Rehalp","type":"route","route":"bicycle","network":"lcn","operator":"Veloland Schweiz"},"9074335":{"name":"Tiefenbrunnen - Zollikon Zentrum","type":"route","route":"bicycle","network":"lcn","operator":"Veloland Schweiz"},"9076726":{"name":"Tössallmend - Winterthur","type":"route","route":"bicycle","network":"lcn","operator":"Veloland Schweiz"},"9203992":{"name":"Limmatquai - Seilergraben","type":"route","route":"bicycle","network":"lcn","operator":"Veloland Schweiz"},"9203994":{"name":"Limmatquai - Hirschengraben","type":"route","route":"bicycle","network":"lcn","operator":"Veloland Schweiz"},"9221058":{"name":"Bellevue - Tiefenbrunnen","type":"route","route":"bicycle","network":"lcn","operator":"Veloland Schweiz"},"9329255":{"name":"Bhf Wallisellen - Opfikon","type":"route","route":"bicycle","network":"lcn","operator":"Veloland Schweiz"},"9332792":{"name":"Opfikon - Bhf Bassersdorf","type":"route","route":"bicycle","network":"lcn","operator":"Veloland Schweiz"},"9332794":{"name":"Bhf Bassersdorf - Bhf Dietlikon","type":"route","route":"bicycle","network":"lcn","operator":"Veloland Schweiz"},"9332795":{"name":"Bhf Dietlikon - Bhf Wallisellen","type":"route","route":"bicycle","network":"lcn","operator":"Veloland Schweiz"},"9332815":{"name":"Bhf Wallisellen - Sportzentrum Wallisellen","type":"route","route":"bicycle","network":"lcn","operator":"Veloland Schweiz"},"9362899":{"name":"Hegibachplatz - Zollikon","type":"route","route":"bicycle","network":"lcn","operator":"Veloland Schweiz"},"9399969":{"ref":"14","name":"Erlebnistour 14","type":"route","route":"bicycle"},"9495551":{"to":"Schaffhausen","ref":"752","from":"Schaffhausen","name":"Rheinfall-Route","type":"route","route":"bicycle","network":"lcn","website":"https://www.schweizmobil.ch/de/veloland/routen/lokale-routen/route-0752.html","distance":"22","operator":"Veloland Schweiz","roundtrip":"yes"},"9620255":{"ref":"6","name":"Burgenweg 6","type":"route","fixme":"Stand Juni 2022 zwischen Öhningen und Moos nicht beschildert","route":"bicycle","network":"lcn","roundtrip":"clockwise"},"9679438":{"to":"Courtemautruy","ref":"7","from":"Courgenay","name":"Route du Jura  - Voie d'accès","type":"route","route":"bicycle","state":"connection","name:de":"Jura-Route - Zubringer","name:en":"Jura Route - Connection","name:fr":"Route du Jura - Voie d'accès","network":"ncn","operator":"SchweizMobil"},"9683101":{"to":"Saignelégier","ref":"7","from":"Saignelégier","name":"Route du Jura - Voie d'accès","type":"route","route":"bicycle","state":"connection","name:de":"Jura-Route - Zubringer","name:en":"Jura Route - Connection","name:fr":"Route du Jura - Voie d'accès","network":"ncn","operator":"SchweizMobil"},"9683671":{"ref":"998","name":"rcn 998 - Appenzeller Aussichtsroute","type":"route","route":"bicycle","network":"rcn","operator":"Veloland Schweiz","source:name":"Veloland Schweiz"},"9721600":{"to":"Laupen","ref":"299","url":"https://www.schweizmobil.ch/de/veloland/routen/lokale-routen/route-0299.html","from":"Laupen","name":"299 Herzschlaufe Sense","type":"route","route":"bicycle","network":"lcn","operator":"Veloland Schweiz","roundtrip":"yes","description":"Laupen–Plaffeien–Laupen"},"9744150":{"ref":"2","name":"Rhein-Route - Etappe 9.2","type":"route","route":"bicycle","name:de":"Rhein-Route - Etappe 9.2","name:en":"Rhine Route - Stage 9.2","name:fr":"Route du Rhin - Étape 9.2","name:it":"Percorso del Reno - Tappa 9.2","name:nl":"Rijnroute - Etappe 9.2","network":"ncn"},"9744563":{"to":"Basel Grenze","ref":"EV15","from":"Wettsteinbrücke","name":"Rhein-Route","type":"route","route":"bicycle","colour":"#003399","name:nl":"Rijnroute","network":"icn","operator":"SchweizMobil","description":"Rhein-Route (Wettsteinbrücke Basel - Grenze)"},"9772293":{"ref":"14a","name":"Erlebnistour 14a","type":"route","route":"bicycle","network":"lcn"},"9817638":{"to":"Schwarzenburg","ref":"62","url":"https://www.schweizmobil.ch/de/veloland/etappe62.01","from":"Bern","name":"Sense–Glâne–Veveyse - Etappe 1","note":"Etappe1: Bern - Schwarzenburg","type":"route","route":"bicycle","network":"rcn","distance":"34","operator":"Veloland Schweiz"},"10051214":{"ref":"751","name":"Klettgauer Wein-Route","type":"route","route":"bicycle","network":"rcn","operator":"Veloland Schweiz"},"10059510":{"name":"PSI","type":"route","route":"bicycle","network":"lcn"},"10099097":{"to":"Brienz","ref":"381","from":"Meiringen","name":"Haslital Route","type":"route","route":"bicycle","network":"lcn","cycle_network":"Veloland_Schweiz"},"10187640":{"to":"Saint Gingolph","ref":"46","url":"https://www.schweizmobil.ch/fr/veloland/etappe46.04","from":"Montreux","name":"Tour du Léman - Étape 4","type":"route","route":"bicycle","network":"rcn","distance":"16","operator":"Veloland Schweiz"},"10187641":{"to":"Montreux","ref":"46","url":"https://www.schweizmobil.ch/fr/veloland/etappe46.05","from":"Morges","name":"Tour du Léman - Étape 3","type":"route","route":"bicycle","network":"rcn","distance":"41","operator":"Veloland Schweiz"},"10187642":{"to":"Morges","ref":"46","url":"https://www.schweizmobil.ch/fr/veloland/etappe46.02","from":"Genève","name":"Tour du Léman - Étape 2","type":"route","route":"bicycle","network":"rcn","distance":"58","operator":"Veloland Schweiz"},"10237511":{"name":"Greifensee Rundweg","type":"route","route":"bicycle","symbol":"Rote Wegweiser","network":"lcn","roundtrip":"yes"},"10294243":{"name":"Menzingen - Unterägeri","type":"route","route":"bicycle","network":"lcn"},"10547103":{"to":"Échallens","ref":"475","from":"Échallens","name":"Boucle champêtre du Gros de Vaud","type":"route","route":"bicycle","network":"lcn"},"10655625":{"ref":"103","url":"https://www.schweizmobil.ch/fr/suisse-a-velo/itineraires/itineraires-locaux/route-0103.html","name":"Genève - Sézenove","type":"route","route":"bicycle","network":"lcn","distance":"11","operator":"Veloland Schweiz"},"10787990":{"name":"Route du Rhône - Voie d'accès (Étape 5-Aigle)","type":"route","route":"bicycle","state":"connection","name:de":"Rhone-Route - Zubringer (Etappe 5-Aigle)","name:en":"Rhone Route - Connection (Stage 5-Aigle)","name:fr":"Route du Rhône - Voie d'accès (Étape 5-Aigle)","name:nl":"Rhôneroute - Verbinding (Etappe 5-Aigle)","network":"ncn"},"10788249":{"name":"Rhone-Route - Zubringer (Etappe 3-Visp)","type":"route","route":"bicycle","state":"connection","name:de":"Rhone-Route - Zubringer (Etappe 3-Visp)","name:en":"Rhone Route - Connection (Stage 3-Visp)","name:fr":"Route du Rhône - Voie d'accès (Ėtape 3-Visp)","name:nl":"Rhôneroute - Verbinding (Etappe 3-Aigle)"},"10791700":{"ref":"1","name":"Route du Rhône - Alternative pour l'étape 8","type":"route","route":"bicycle","state":"alternate","name:de":"Rhone-Route - Alternative zur Etappe 8","name:en":"Rhone Route - Alternate to stage 8","name:fr":"Route du Rhône - Alternative pour l'étape 8","name:nl":"Rhôneroute - Alternatief voor etappe 8","network":"ncn"},"10792506":{"to":"Hermance","ref":"TdL","url":"https://www.savoie-mont-blanc.com/offre/fiche/tour-du-leman/653635","from":"Saint-Gingolph","name":"Tour du Léman","type":"route","route":"bicycle","network":"rcn","distance":"60"},"10953709":{"to":"Huttwil","ref":"71","url":"https://www.schweizmobil.ch/de/veloland/etappe71.02","from":"Balsthal","name":"Passwang–Oberaargau","type":"route","route":"bicycle","ascent":"360","descent":"220","network":"rcn","distance":"33","operator":"Veloland Schweiz","description":"Etappe 2"},"11010907":{"name":"Parcours villages","type":"route","route":"bicycle","network":"lcn"},"11358593":{"to":"Lindau","ref":"D8","from":"Basel","name":"D-Route 8 - Rhein-Route [Baden-Württemberg2]","type":"route","route":"bicycle","network":"ncn","description":"Grenzach - Lindau"},"11560422":{"to":"Disentis","ref":"36","url":"https://www.schweizmobil.ch/it/veloland/etappe36.02","from":"Olivone (Camperio)","name":"Percorso Blenio - Lucomagno - Tappa 2","type":"route","route":"bicycle","network":"rcn","distance":"35","operator":"Veloland Schweiz"},"11560423":{"to":"Olivone (Camperio)","ref":"36","url":"https://www.schweizmobil.ch/it/veloland/etappe36.01","from":"Biasca","name":"Percorso Blenio - Lucomagno - Tappa 1","type":"route","route":"bicycle","network":"rcn","distance":"24","operator":"Veloland Schweiz"},"11858642":{"ref":"97","name":"Dreiland-Radweg Zubringer Basel (Schweizer Teil)","note":"Relation für die Anbindung von Basel Bhf. bis zum Dreilandradweg. In der Schweiz ausgeschildert mit \\\"97\\\" in Deutschland als \\\"Dreiland-Radweg\\\". Der deutsche Teil ist in einer separaten Relation.","type":"route","route":"bicycle","network":"rcn","website":"https://www.schweizmobil.ch/de/veloland/routen/regionale-routen/route-097.html"},"11972746":{"to":"Castione","ref":"311","from":"Riazzino","name":"Percorso Pedemontano","type":"route","route":"bicycle","network":"lcn","website":"https://www.schweizmobil.ch/it/veloland/route311","distance":"22"},"12195392":{"to":"Schangnau","ref":"4","url":"https://www.schweizmobil.ch/de/veloland/etappe4.09","from":"Sörenberg","name":"Alpenpanorama-Route - Etappe 9","type":"route","route":"bicycle","name:de":"Alpenpanorama-Route - Etappe 9","name:en":"Alpine Panorama Route - Stage 9","name:fr":"Route panorama alpine - Étape 9","name:it":"Percorso panoramico delle Alpi - Tappa 9","network":"ncn","distance":"32","description":"Alternativroute zu Etappe 5"},"12201653":{"ref":"8","name":"Aare-Route - Zubringer Brienz","type":"route","route":"bicycle","name:de":"Aare-Route - Zubringer Brienz","name:en":"Aare Route - Connection","name:fr":"Route de l'Aar - Voie d'accès","network":"ncn"},"12201654":{"ref":"9","name":"Seen-Route - Zubringer Brienz","type":"route","route":"bicycle","name:de":"Seen-Route - Zubringer Brienz","name:en":"Lakes Route - Connection Brienz","name:fr":"Route des lacs - Voie d'accès Brienz","network":"ncn","operator":"Veloland Schweiz"},"12204466":{"ref":"9","name":"Route des lacs - Voie d'accès Château-d'Oex","type":"route","route":"bicycle","name:de":"Seen-Route - Zubringer Château-d'Oex","name:en":"Lakes Route - Connection Château-d'Oex","name:fr":"Route des lacs - Voie d'accès Château-d'Oex","network":"ncn","operator":"Veloland Schweiz"},"12216644":{"ref":"38","name":"Luzerner Hinterland - Rigi - Zubringer Willisau","type":"route","route":"bicycle","state":"connection","network":"rcn"},"12231284":{"to":"Tramelan","ref":"54","url":"https://www.schweizmobil.ch/fr/veloland/etappe54.02","from":"Le Locle","name":"Arc jurassien - Étape 2","type":"route","route":"bicycle","network":"rcn","distance":"42","operator":"Veloland Schweiz"},"12231285":{"to":"Le Locle","ref":"54","url":"https://www.schweizmobil.ch/fr/veloland/etappe54.01","from":"Sainte-Croix","name":"Arc jurassien - Étape 1","type":"route","route":"bicycle","network":"rcn","distance":"60","operator":"Veloland Schweiz"},"12231286":{"to":"Welschenrohr","ref":"54","url":"https://www.schweizmobil.ch/fr/veloland/etappe54.03","from":"Tramelan","name":"Arc jurassien - Étape 3","type":"route","route":"bicycle","network":"rcn","distance":"42","operator":"Veloland Schweiz"},"12231287":{"to":"Liestal","ref":"54","url":"https://www.schweizmobil.ch/de/veloland/etappe54.04","from":"Welschenrohr","name":"Arc jurassien - Etappe 4","type":"route","route":"bicycle","network":"rcn","distance":"43","operator":"Veloland Schweiz"},"12237875":{"to":"Rolle","ref":"63","url":"https://www.schweizmobil.ch/fr/veloland/etappe63.02","from":"Echallens (Goumoens)","name":"Gros de Vaud - La Côte - Étape 2","type":"route","route":"bicycle","network":"rcn","distance":"38","operator":"Veloland Schweiz"},"12237876":{"to":"Echallens (Goumoens)","ref":"63","from":"Payerne","name":"Gros de Vaud - La Côte","type":"route","route":"bicycle","network":"rcn","distance":"47","operator":"Veloland Schweiz"},"12507734":{"ref":"503","name":"AARN: Frick-Eiken","type":"route","route":"bicycle","network":"lcn","ref:aarn":"503"},"12586522":{"ref":"EV15","name":"EuroVelo 15 - Rheinradweg - Teilstrecke Schaffhausen - Basel","type":"route","route":"bicycle","network":"icn","website":"https://eurovelo.com/ev15/from-lake-constance-to-basel-via-the-rhine-falls"},"12741985":{"to":"Porrentruy","ref":"647","url":"https://www.schweizmobil.ch/fr/suisse-a-velo/itineraires/route-0647.html","from":"Porrentruy","name":"Sur les traces des dinosaures","type":"route","route":"bicycle","ascent":"663","network":"lcn","distance":"56","roundtrip":"yes","network:type":"Local","cycle_network":"SuisseMobile"},"12759928":{"to":"Burgdorf","ref":"899","via":"Wynigen","from":"Oberburg","name":"Herzschlaufe Burdorf (Etappe 2 Oberburg - Burgdorf)","type":"route","route":"bicycle","network":"lcn","distance":"48.6","operator":"Veloland Schweiz","description":"Herzschlaufe Burgdorf (Etappe 2 Oberburg – Burgdorf)"},"12799901":{"to":"Fribourg","from":"Corminboeuf","name":"Corminboeuf - Fribourg","type":"route","route":"bicycle","network":"lcn"},"12928216":{"name":"Muenchenstein Routing","type":"route","route":"bicycle","network":"lcn"},"12929288":{"name":"Birsfelden Routing","type":"route","route":"bicycle","network":"lcn"},"12930117":{"ref":"2","name":"Baselland Veloroute 2","type":"route","route":"bicycle","network":"lcn"},"12930416":{"ref":"3","name":"BasellandVeloroute 3","type":"route","route":"bicycle","network":"lcn"},"12930448":{"ref":"4","name":"Baselland Veloroute 4","type":"route","route":"bicycle","network":"lcn"},"12930512":{"ref":"5","name":"Baselland Veloroute 5","type":"route","route":"bicycle","network":"lcn"},"12930562":{"ref":"6","name":"Baselland Veloroute 6","type":"route","route":"bicycle","network":"lcn"},"12930582":{"ref":"7","name":"Baselland Veloroute 7","type":"route","route":"bicycle","network":"lcn"},"12930610":{"ref":"7","name":"Baselland Veloroute 7","type":"route","route":"bicycle","network":"lcn"},"12930651":{"ref":"8","name":"Baselland Veloroute 8","type":"route","route":"bicycle","network":"lcn"},"12930698":{"ref":"9","name":"Baselland Veloroute 9","type":"route","route":"bicycle","network":"lcn"},"12930760":{"ref":"10","name":"Baselland Veloroute 10","type":"route","route":"bicycle","network":"lcn"},"12930803":{"ref":"11","name":"Baseland Veloroute 11","type":"route","route":"bicycle","network":"lcn"},"12930822":{"ref":"12","name":"Baselland Veloroute 12","type":"route","route":"bicycle","network":"lcn"},"12930883":{"ref":"13","name":"Baselland Veloroute 13","type":"route","route":"bicycle","network":"lcn"},"12930942":{"ref":"14","name":"Baselland Veloroute 14","type":"route","route":"bicycle"},"12931002":{"ref":"15","name":"Baselland Veloroute 15","type":"route","route":"bicycle","network":"lcn"},"12931034":{"ref":"16","name":"Baselland Veloroute 16","type":"route","route":"bicycle","network":"lcn"},"12931042":{"ref":"17","name":"Baselland Veloroute 17","type":"route","route":"bicycle","network":"lcn"},"12931110":{"ref":"18","name":"Baselland Veloroute 18","type":"route","route":"bicycle","network":"lcn"},"12931174":{"ref":"19","name":"Baselland Veloroute 19","type":"route","route":"bicycle","network":"lcn"},"12931230":{"ref":"20","name":"Baselland Veloroute 20","type":"route","route":"bicycle","network":"lcn"},"12931429":{"name":"Reinach Routing","type":"route","route":"bicycle","network":"lcn"},"12931487":{"name":"Muttenz Routing","type":"route","route":"bicycle","network":"lcn"},"12931658":{"ref":"21","name":"Baselland Veloroute 21","type":"route","route":"bicycle","network":"lcn"},"12931719":{"ref":"21","name":"Baselland Velorouten 21","type":"route","route":"bicycle","network":"lcn"},"12931795":{"ref":"22","name":"Baselland Veloroute 22","type":"route","route":"bicycle","network":"lcn"},"12931819":{"ref":"23","name":"Baselland Veloroute 23","type":"route","route":"bicycle","network":"lcn"},"13111060":{"to":"Stühlingen","ref":"RWT7","url":"https://www.touren-schwarzwald.info/de/tour/radfahren/routewt-7-rund-um-den-hohenlupfen/2806079/","from":"Stühlingen","name":"Rund um den Hohenlupfen","type":"route","fixme":"fortsetzen","route":"bicycle","ascent":"430","symbol":"Weißes Gitter um 16 orange Quadrate. Im 7. Quadrat die weiße Nr. 7 auf gelbem Grund. In 2 anderen Quadraten der Text RouteWT und klein darunter Rund um den Hohenlupfen","descent":"430","network":"lcn","distance":"27","operator":"Landkreis Waldshut","roundtrip":"yes"},"13283893":{"to":"Hinterkappelen","ref":"890","url":"https://www.schweizmobil.ch/de/veloland/route890","from":"Hinterkappelen","name":"Frienisberg-Fernsichtroute","type":"route","route":"bicycle","symbol":"weisse 890 und schwarzer Text Frienisberg Fernsichtroute auf blauem Quadrat","network":"lcn","distance":"41","operator":"Veloland Schweiz","roundtrip":"yes"},"13419769":{"ref":"EV6","name":"EuroVelo 6 - Atlantic-Black Sea - part Germany - Baden-Württemberg","type":"route","route":"bicycle","colour":"#003399","name:cs":"EuroVelo 6 - Atlantik-Černé moře - sekce Německo - Bádensko-Württembersko","name:de":"EuroVelo 6 - Atlantik-Schwarzes Meer - Teil Deutschland - Baden-Württemberg","name:en":"EuroVelo 6 - Atlantic-Black Sea - part Germany - Baden-Württemberg","name:fr":"EuroVelo 6 - Atlantique-Mer Noire - tronçon Allemagne - Bade-Württemberg","name:hr":"EuroVelo 6 - Atlantik-Crno More - dio Njemačka - Baden-Württemberg","name:hu":"EuroVelo 6 - Atlanti-óceán–Fekete-tenger – Németországi szakasz - Baden-Württemberg","name:nl":"EuroVelo 6 - Atlantisch-Zwarte Zee - deel Duitsland - Baden-Württemberg","name:pl":"EuroVelo 6 - Atlantyk-Morze Czarne - część Niemcy - Badenia-Wirtembergia","name:sk":"EuroVelo 6 - Atlantik-Čierne more - sekcia Nemecko - Bádensko-Württembersko","network":"icn","website":"https://en.eurovelo.com/ev6/germany","complete":"yes","cycle_network":"EuroVelo"},"13431863":{"to":"Konstanz","ref":"LL BW","url":"http://www.literaturland-bw.de/radwege/04/","from":"Stein am Rhein","name":"Literaturland BW - Radweg 04","type":"route","fixme":"fortsetzen","route":"bicycle","network":"lcn","distance":"51"},"13443500":{"ref":"41","name":"Pilger-Route -Zubringer Kreuzlingen","type":"route","route":"bicycle","network":"rcn","operator":"SchweizMobil"},"13443501":{"ref":"55","name":"Konzil Radweg - Zubringer Kreuzlingen","type":"route","route":"bicycle","network":"rcn","operator":"SchweizMobil"},"14143424":{"to":"Oberburg","ref":"899","url":"https://www.schweizmobil.ch/de/veloland/routen/lokale-routen/route/etappe-01899.html","via":"Utzigen","from":"Burgdorf","name":"Herzschlaufe Burgdorf (Etappe 1 Burgdorf – Oberburg)","type":"route","route":"bicycle","network":"lcn","cycle_network":"Veloland Schweiz"},"14221323":{"ref":"EV6","name":"EuroVelo 6 - Atlantic-Black Sea - part Switzerland - Rheinfall variant","type":"route","route":"bicycle","colour":"#003399","icn_ref":"6","name:de":"EuroVelo 6 - Atlantik-Schwarzes Meer - Teil Schweiz - Variante Rheinfall","network":"icn","website":"https://en.eurovelo.com/ev6/switzerland","complete":"yes","distance":"159","description":"Atlantic-Black Sea - part Switzerland - Rheinfall variant","osmc:symbol":":blue:yellow_circle:6:white","cycle_network":"EuroVelo"},"14224276":{"name":"Hochschule Luzern - Technik & Architektur","type":"route","route":"bicycle","network":"lcn"},"14225733":{"to":"Rheinheim","ref":"RWT4","from":"Rheinheim","name":"RouteWT 4 - Küssaburg-Tour","type":"route","route":"bicycle","network":"lcn","website":"https://www.touren-schwarzwald.info/de/tour/radfahren/routewt-4-kuessaburg-tour/2810962/","distance":"21","roundtrip":"yes","route:status":"complete","cycle_network":"DE:BW:WT:RouteWT"},"14229240":{"ref":"RWT2","name":"RouteWT 2 - Rhein-Murg-Tour","type":"route","route":"bicycle","network":"lcn","website":"https://www.touren-schwarzwald.info/de/tour/radfahren/routewt-2-rhein-murg-tour/2805284/","operator":"Landkreis Waldshut","roundtrip":"yes","route:status":"incomplete","cycle_network":"DE:BW:WT:RouteWT"},"14263196":{"rcn":"yes","ref":"SSWv","name":"Südschwarzwald-Radweg - Variante Dinkelberg","type":"route","route":"bicycle","network":"rcn","website":"https://www.schwarzwald-tourismus.info/touren/suedschwarzwald-radweg-variante-vom-dinkelberg-ins-markgraeflerland-b5fc134448","operator":"Schwarzwald Tourismus","wikidata":"Q507891","roundtrip":"yes","wikipedia":"de:Südschwarzwald-Radweg","route:status":"incomplete"},"14263198":{"to":"Hinterzarten","ref":"SSW","from":"Hinterzarten","name":"Südschwarzwald-Radweg","type":"superroute","route":"bicycle","network":"rcn","website":"http://www.suedschwarzwald-radweg.info/","operator":"Schwarzwald Tourismus","wikidata":"Q507891","roundtrip":"yes","wikipedia":"de:Südschwarzwald-Radweg"},"14319345":{"ref":"ARRN","name":"Rüfenach-Riniken","type":"route","route":"bicycle","network":"lcn"},"14321198":{"to":"St.Gallen, Spisegg","ref":"960","from":"St.Gallen, Haggen","name":"St.Galler Brückenweg","type":"route","route":"bicycle","network":"lcn","website":"https://www.schweizmobil.ch/de/wanderland/routen/route-0960.html","wikidata":"Q1264194","wikipedia":"de:St. Galler Brückenweg"},"14350939":{"to":"Borgomanero","ref":"BI-15","from":"Locarno","name":"Ciclovia Svizzera mare","type":"route","route":"bicycle","network":"ncn","website":"http://www.bicitalia.org/it/bicitalia/gli-itinerari-bicitalia/140-bi15-ciclovia-svizzera-mare","roundtrip":"no","cycle_network":"Bicitalia"},"14389079":{"to":"Saint-Blaise","ref":"250","url":"https://www.schweizmobil.ch/de/veloland/routen/route-0250.html","from":"Saint-Blaise","name":"Chaumont Tour","type":"route","route":"bicycle","network":"lcn","distance":"32","operator":"Veloland Schweiz","description":"Saint-Blaise - Cressier - Chaumont - Saint-Blaise"},"14428119":{"to":"La Chaux-de-Fonds","ref":"252","from":"La Chaux-de-Fonds","name":"Valanvron Tour","type":"route","route":"bicycle","network":"lcn","distance":"15","operator":"Veloland Schweiz","description":"Valanvron Tour"},"14508598":{"to":"Grenchen","ref":"50","url":"https://www.schweizmobil.ch/de/veloland/etappe50.01","from":"Olten","name":"Jurasüdfuss-Route","type":"route","route":"bicycle","name:de":"Jurasüdfuss-Route","name:fr":"Route du pied du Jura","network":"rcn","distance":"52","operator":"Veloland Schweiz","description":"Etappe 1"},"14599901":{"name":"Luzern - Littau","type":"route","route":"bicycle","network":"lcn"},"14599902":{"name":"Luzern - Kriens","type":"route","route":"bicycle","network":"lcn"},"14599903":{"name":"Kriens - Obernau","type":"route","route":"bicycle","network":"lcn"},"14599904":{"name":"Horw - Kriens","type":"route","route":"bicycle","network":"lcn"},"14599905":{"name":"Horw Bahnhof- Luzern","type":"route","route":"bicycle","network":"lcn"},"14659726":{"ref":"Runde","name":"Runde Michaelsamt","type":"route","route":"bicycle","network":"lcn","website":"https://www.sempachersee-tourismus.ch/de/bewegen/velo-e-bike/michelsamt-runde/","operator":"https://www.sempachersee-tourismus.ch/de/bewegen/velo-e-bike/michelsamt-runde/","roundtrip":"yes"},"14998642":{"to":"Marcelin","from":"La Morgettaz","name":"Marcelin <-> La Morgettaz","type":"route","route":"bicycle","network":"lcn","operator":"Ville de Morges","network:type":"lcn"},"15258592":{"to":"Morges","ref":"473","from":"Morges","name":"Du pied du Jura au Léman","type":"route","route":"bicycle","network":"lcn","cycle_network":"Veloland Schweiz"},"15668911":{"to":"Frick","ref":"908","from":"Brugg","name":"Jurapark Aargau - Etappe 1","type":"route","route":"bicycle","network":"rcn","website":"https://www.schweizmobil.ch/de/veloland/routen/etappe-07714.html","distance":"48","operator":"Jurapark Aargau","description":"Jurapark Aargau-Route - Etappe 1 (Brugg-Frick)"},"15669891":{"to":"Entlebuch","ref":"399","from":"Langnau","name":"Herzschlaufe Napf","type":"route","route":"bicycle","network":"lcn","website":"https://www.schweizmobil.ch/de/veloland/etappe399.02","distance":"44","operator":"Veloland Schweiz","description":"Etappe 2"},"15669892":{"to":"Langnau","ref":"399","from":"Willisau","name":"Herzschlaufe Napf","type":"route","route":"bicycle","network":"lcn","website":"https://www.schweizmobil.ch/de/veloland/etappe399.01","distance":"58","operator":"Veloland Schweiz","description":"Etappe 1"},"15669893":{"to":"Willisau","ref":"399","from":"Entlebuch","name":"Herzschlaufe Napf","type":"route","route":"bicycle","network":"lcn","website":"https://www.schweizmobil.ch/de/veloland/etappe399.03","distance":"54","operator":"Veloland Schweiz","description":"Etappe 3"},"15673059":{"to":"Brugg","ref":"908","from":"Frick","name":"Jurapark Aargau - Etappe 2","type":"route","route":"bicycle","network":"rcn","website":"https://www.schweizmobil.ch/de/veloland/routen/etappe-07715.html","distance":"51","operator":"Jurapark Aargau"},"15737388":{"ref":"501","name":"Churer Rheinroute","type":"route","route":"bicycle","ascent":"380","descent":"380","network":"ncn","website":"https://www.schweizmobil.ch/de/veloland/routen/route-0501.html","distance":"39","operator":"Veloland Schweiz","roundtrip":"yes"},"15806781":{"name":"Seewald Piste","type":"route","route":"bicycle","network":"lcn"},"15816404":{"to":"Guin/Düdingen","ref":"TrAg","via":"Villars-sur-Glâne","from":"Avry","name":"TransAgglo","type":"route","route":"bicycle","colour":"#228b22","network":"rcn","website":"https://www.agglo-fr.ch/mobilite/transagglo-axe-de-mobilite-douce","distance":"17 km","description":"The 'ref' and 'color' tags are approximate righ now. TrAg as short for TransAgglo (no ref num yet) and the forest-green color as shown on some public plans"},"15926758":{"name":"Erlebnisweg Obersee","type":"route","route":"bicycle","website":"https://www.rapperswil-zuerichsee.ch/de/besuchen/der-erlebnisweg-obersee"},"15931552":{"name":"buechbergTRAIL","type":"route","route":"bicycle"}}