{"122848":{"ref":"1","name":"Ikla - Narva jalgrattatee","type":"route","route":"bicycle","colour":"red","name:en":"1: Ikla - Narva cycle route","name:pl":"Trasa rowerowa Ryga - Narwa","network":"ncn","distance":"1094"},"270428":{"ref":"3","name":"Valga - Narva cycle route","note":"Part of EuroVelo 11 route","type":"route","route":"bicycle","network":"ncn","distance":"402"},"270860":{"ref":"4","name":"4: Valga - Tallinn cycle route","type":"route","route":"bicycle","colour":"red","network":"ncn","distance":"601"},"404132":{"ref":"2","name":"2: Pärnu - Tallinn","type":"route","route":"bicycle","network":"ncn","distance":"232"},"1085630":{"ref":"5","name":"5: Värska - Pärnu","type":"route","route":"bicycle","network":"ncn","distance":"305"},"1085631":{"ref":"14","name":"14: Valga - Pärnu cycle route","type":"route","route":"bicycle","network":"rcn","website":"https://www.visitestonia.com/en/14-valga-parnu-bicycle-route","distance":"138"},"1142210":{"ref":"13","name":"13: Türi - Tallinn","type":"route","route":"bicycle","network":"rcn","distance":"119"},"1530034":{"ref":"12","name":"12: Haapsalu-Rapla","type":"route","route":"bicycle","network":"rcn","website":"https://www.visitestonia.com/en/12-haapsalu-rapla-bicycle-route","distance":"95"},"1530036":{"ref":"11","name":"11: West-Estonia","type":"route","route":"bicycle","network":"rcn","website":"https://www.visitestonia.com/en/11-west-estonia-bicycle-route","alt_name":"Virtsu - Haapsalu bicycle route","distance":"76"},"1556950":{"ncn":"yes","ref":"6","name":"6: Tour de LatEst","type":"route","route":"bicycle","network":"ncn","distance":"576"},"1700375":{"name":"Lahemaa Cycling Tour","type":"route","route":"bicycle","network":"lcn"},"1735954":{"ref":"204","name":"204: Jõgeva-Endla nature preserve-Jõgeva","type":"route","route":"bicycle","network":"lcn","website":"https://www.visitestonia.com/en/204-jogeva-endla-nature-preserve-jogeva-bicycle-route","distance":"70"},"1741826":{"ref":"EV10","name":"EuroVelo 10 - Baltic Sea Cycle Route - part Estonia","type":"route","route":"bicycle","colour":"#f8c833","name:cs":"EuroVelo 10 - Trasa kolem Baltského moře - sekce Estonsko","name:de":"EuroVelo 10 - Ostseeküsten-Radweg - Abschnitt Estland","name:en":"EuroVelo 10 - Baltic Sea Cycle Route - part Estonia","name:fr":"EuroVelo 10 - Littoral de la mer Baltique - tronçon Estonie","name:nl":"EuroVelo 10 - Oostzeeroute - deel Estland","name:pl":"EuroVelo 10 - Szlak Rowerowy Morza Bałtyckiego - część Estonia","name:sk":"EuroVelo 10 - Trasa okolo Baltického mora - sekcia Estónsko","network":"icn","description":"ncn estonian part of icn eurovelo","cycle_network":"EuroVelo"},"1742165":{"ref":"R1","name":"Euroroute R1 - part Estonia","type":"route","route":"bicycle","name:de":"Europaradweg R1 - Abschnitt Estland","name:en":"Euroroute R1 - part Estonia","name:nl":"Euroroute R1 - deel Estland","network":"icn"},"1751610":{"ref":"OAI","name":"Oandu-Aegviidu-Ikla rattarada. I lõik: : Oandu - Kalmeoja","type":"route","route":"bicycle","name:en":"RMK Oandu-Aegviidu-Ikla bicycle route. I section: Oandu - Kalmeoja","network":"ncn","website":"https://loodusegakoos.ee/kuhuminna/rahvuspargid/lahemaa-rahvuspark/16437","distance":"41","operator":"RMK","description":"Kõrve raja Lahemaa lõigu rattaga läbimiseks tähistatud marsruut","osmc:symbol":"red:white:red_bar:white","section_ref":"1"},"1794568":{"ref":"335","name":"335: Northern-Muhu","type":"route","route":"bicycle","network":"lcn","website":"https://www.visitestonia.com/en/335-northern-muhu-bicycle-route","distance":"47"},"1805002":{"ref":"15","name":"15: Viljandi - Elva","type":"route","route":"bicycle","network":"rcn","website":"https://www.visitestonia.com/en/15-viljandi-elva-bicycle-route","distance":"68"},"2766980":{"ref":"EV11","name":"EuroVelo 11 - East Europe Route - part Estonia","type":"route","route":"bicycle","colour":"#e69a32","name:cs":"EuroVelo 11 - Trasa východní Evropou - sekce Estonsko","name:de":"EuroVelo 11 - Osteuropa-Route - Teil Estland","name:en":"EuroVelo 11 - East Europe Route - part Estonia","name:fr":"EuroVelo 11 - La route de l'Europe de l'Est - tronçon Estonie","name:hu":"EuroVelo 11 - Észtországi szakasz","name:it":"EuroVelo 11 - Itinerario Europa Orientale - parte Estonia","name:nl":"EuroVelo 11 - Oost-Europaroute - deel Estland","name:pl":"EuroVelo 11 - Szlak Europy Wschodniej - część Estonia","name:sk":"EuroVelo 11 - Trasa východnou Európou - sekcia Estónsko","name:tr":"EuroVelo 11 - Doğu Avrupa Rotası - kısım Estonya","network":"icn","website":"https://www.eurovelo.com/en/eurovelos/eurovelo-11/countries/estonia","cycle_network":"EuroVelo"},"2769637":{"ref":"EV13","name":"EuroVelo 13 - Iron Curtain Trail - part Latvia","type":"route","route":"bicycle","colour":"#cf5345","name:cs":"EuroVelo 13 - Stezka Železné opony - sekce Lotyšsko","name:de":"EuroVelo 13 - Iron Curtain Trail - Lettischer Abschnitt","name:en":"EuroVelo 13 - Iron Curtain Trail - part Latvia","name:fr":"EuroVelo 13 - La route du rideau de fer - part Lettonie","name:nl":"EuroVelo 13 - IJzerengordijnpad - deel Letland","name:pl":"EuroVelo 13 - Szlak Żelaznej Kurtyny - część Łotwa","name:sk":"EuroVelo 13 - Cesta Železnej opony - sekcia Lotyšsko","name:tr":"EuroVelo 13 - Demir Perde Yolu - kısım Letonya","network":"icn","cycle_network":"EuroVelo"},"2984737":{"name":"Taheva bicycle trail","type":"route","route":"bicycle","roundtrip":"yes"},"3116798":{"ref":"16","name":"16: Vägeva - Mäo","type":"route","route":"bicycle","network":"rcn","website":"https://www.visitestonia.com/en/16-vageva-mao-bicycle-route","distance":"47"},"3678386":{"name":"Kividemaa rattarada","type":"route","route":"bicycle","network":"lcn","website":"https://loodusegakoos.ee/kuhuminna/puhkealad/nova-puhkeala/1462","distance":"57","operator":"RMK"},"4115242":{"name":"Jälgimäe ristmiku - Topi ristmiku vaheline kergtee","type":"route","route":"bicycle"},"4628299":{"name":"Topi-Kotka kergtee","type":"route","route":"bicycle"},"6679089":{"name":"Laagri-Saue rattatee","type":"route","route":"bicycle","network":"lcn","cycle_network":"Saue_valla_rattateede_põhivõrgustik"},"7248419":{"name":"Ilmatsalu rattarada","type":"route","route":"bicycle","network":"lcn","website":"https://loodusegakoos.ee/kuhuminna/puhkealad/tartu-jogeva-puhkeala/1647","distance":"7.5","operator":"RMK","roundtrip":"yes"},"7629775":{"ref":"17","name":"17: Ainaži - Aloja - Matīši - Burtnieki - Rūjiena - Karksi Nuija (EST)","type":"route","route":"bicycle","source":"http://old.vidzeme.com/faili/20130212151722243.pdf","network":"rcn","website":"https://www.visitestonia.com/en/17-karksi-nuia-r%C3%BBjiena-bicycle-route","distance":"32"},"7825820":{"ref":"18","name":"Võrtsjärve rattarada","type":"route","route":"bicycle","name:en":"18: The Lake Võrtsjärv cycling path","network":"rcn","website":"https://www.visitestonia.com/en/18-the-lake-vortsjarv-cycling-path","distance":"139"},"7825899":{"ref":"230","name":"230: Väike-Rakke-Pikasilla","type":"route","route":"bicycle","network":"lcn","website":"https://www.visitestonia.com/en/230-vaike-rakke-pikasilla-bicycle-route","distance":"55"},"10109941":{"name":"ikla","type":"route","route":"bicycle"},"12483554":{"name":"Padula-Urda rattatee","type":"route","route":"bicycle","network":"lcn","proposed":"cycleway","cycle_network":"Saue_valla_rattateede_põhivõrgustik"},"13011317":{"ref":"206","name":"206: Alatskivi-Elistvere","type":"route","route":"bicycle","length":"97","network":"lcn","website":"https://www.visitestonia.com/en/206-alatskivi-elistvere-bicycle-route"},"13020757":{"ref":"203","name":"203: Palamuse-Kuremaa-Torma-Voore -Palamuse","type":"route","route":"bicycle","network":"lcn","website":"https://www.visitestonia.com/en/203-palamuse-kuremaa-torma-voore-palamuse-bicycle-route"},"13023945":{"ref":"266","name":"266: Tartu Bike marathon","type":"route","route":"bicycle","network":"lcn","website":"https://www.visitestonia.com/en/266-tartu-bike-marathon-bicycle-route","distance":"89"},"13136282":{"ref":"201","name":"201: Palamuse-Voore-Palamuse","type":"route","route":"bicycle","network":"lcn","website":"https://www.visitestonia.com/en/201-palamuse-voore-palamuse-bicycle-route","distance":"37"},"13136327":{"ref":"222","name":"222: Vara","type":"route","route":"bicycle","network":"lcn","website":"https://www.visitestonia.com/en/222-vara-bicycle-route","distance":"49"},"13136437":{"ref":"265","name":"265: Otepää-Kääriku mountain bike trail","type":"route","route":"bicycle","network":"lcn","website":"https://www.visitestonia.com/en/265-otepaa-kaariku-mountain-bike-trail","distance":"15"},"13136456":{"ref":"261","name":"261: Pühajärve","type":"route","route":"bicycle","network":"lcn","website":"https://www.visitestonia.com/en/261-puhajarve-bicycle-route","distance":"11"},"13136545":{"ref":"264","name":"264: Neeruti","type":"route","route":"bicycle","network":"lcn","website":"https://www.visitestonia.com/en/264-neeruti-bicycle-route","distance":"32"},"13136869":{"ref":"223","name":"223: Saadjärve","type":"route","route":"bicycle","network":"lcn","website":"https://www.visitestonia.com/en/223-saadjarve-bicycle-route","distance":"64"},"13136925":{"ref":"221","name":"221: Alatskivi","type":"route","route":"bicycle","network":"lcn","website":"https://www.visitestonia.com/en/221-alatskivi-bicycle-route","distance":"67"},"13137073":{"ref":"262","name":"262: Harimäe-Arula","type":"route","route":"bicycle","network":"lcn","website":"https://www.visitestonia.com/en/262-harimae-arula-bicycle-route","distance":"35"},"13137075":{"ref":"225","name":"225: Mehikoorma","type":"route","route":"bicycle","network":"lcn","website":"https://www.visitestonia.com/en/225-mehikoorma-bicycle-route","distance":"46"},"13137141":{"ref":"202","name":"202: Palamuse","type":"route","route":"bicycle","network":"lcn","website":"https://www.visitestonia.com/en/202-palamuse-bicycle-route","distance":"39"},"13137202":{"ref":"205","name":"205: Kodavere-Mustvee-Kodavere","type":"route","route":"bicycle","network":"lcn","website":"https://www.visitestonia.com/en/205-kodavere-mustvee-kodavere-bicycle-route","distance":"78"},"13137492":{"ref":"263","name":"263: Vidrike","type":"route","route":"bicycle","network":"lcn","website":"https://www.visitestonia.com/en/263-vidrike-bicycle-route","distance":"37"},"13137627":{"ref":"226","name":"226: Luke-Kambja","type":"route","route":"bicycle","network":"lcn","website":"https://www.visitestonia.com/en/226-luke-kambja-bicycle-route","distance":"66"},"13137656":{"ref":"228","name":"228: Laeva","type":"route","route":"bicycle","network":"lcn","website":"https://www.visitestonia.com/en/228-laeva-bicycle-route","distance":"32"},"13137738":{"ref":"281","name":"281: Piusa","type":"route","route":"bicycle","network":"lcn","website":"https://www.visitestonia.com/en/281-piusa-bicycle-route","distance":"23.5"},"13137793":{"ref":"224","name":"224: Võnnu","type":"route","route":"bicycle","network":"lcn","website":"https://www.visitestonia.com/en/224-vonnu-bicycle-route","distance":"44"},"13137900":{"ref":"304","name":"304: Tahkuna","type":"route","route":"bicycle","network":"lcn","website":"https://www.visitestonia.com/en/304-tahkuna-bicycle-route","distance":"36"},"13137916":{"ref":"301","name":"301: Kõpu","type":"route","route":"bicycle","network":"lcn","website":"https://www.visitestonia.com/en/301-kopu-bicycle-route","distance":"52"},"13137918":{"ref":"302","name":"302: Emmaste-Suuremõisa","type":"route","route":"bicycle","network":"lcn","website":"https://www.visitestonia.com/en/302-emmaste-suuremoisa-bicycle-route","distance":"37"},"13138481":{"ref":"305","name":"305: Winding","type":"route","route":"bicycle","network":"lcn","website":"https://www.visitestonia.com/en/305-winding-bicycle-route-of-kukka","distance":"21"},"13138561":{"ref":"321","name":"321: Saaremaa","type":"route","route":"bicycle","network":"lcn","website":"https://www.visitestonia.com/en/321-saaremaa-bicycle-route","distance":"42"},"13138577":{"ref":"336","name":"336: Southern-Muhu","type":"route","route":"bicycle","network":"lcn","website":"https://www.visitestonia.com/en/336-southern-muhu-bicycle-route","distance":"26"},"13139746":{"ref":"341","name":"341: Lääne County","type":"route","route":"bicycle","network":"lcn","website":"https://www.visitestonia.com/en/341-laane-county-bicycle-route","distance":"54"},"13139765":{"ref":"342","name":"342: Noarootsi","type":"route","route":"bicycle","network":"lcn","website":"https://www.visitestonia.com/en/342-noarootsi-bicycle-route","distance":"35"},"13139770":{"ref":"343","name":"343: Marimetsa","type":"route","route":"bicycle","network":"lcn","website":"https://www.visitestonia.com/en/343-marimetsa-bicycle-route","distance":"53"},"13139777":{"ref":"344","name":"344: Tour of the southern bank of Matsalu","type":"route","route":"bicycle","network":"lcn","website":"https://www.visitestonia.com/en/344-tour-of-the-southern-bank-of-matsalu","distance":"25"},"13139790":{"ref":"350","name":"350: Vormsi","type":"route","route":"bicycle","network":"lcn","website":"https://www.visitestonia.com/en/350-vormsi-bicycle-route","distance":"38"},"13139891":{"ref":"363","name":"363: Kabli-Nigula","type":"route","route":"bicycle","network":"lcn","website":"https://www.visitestonia.com/en/363-kabli-nigula-bicycle-route","distance":"145"},"13140621":{"ref":"364","name":"364: Paikuse","type":"route","route":"bicycle","network":"lcn","website":"https://www.visitestonia.com/en/364-paikuse-bicycle-route","distance":"27"},"13144701":{"ref":"367","name":"367: Kabli-Kilingi-Nõmme","type":"route","route":"bicycle","network":"lcn","website":"https://www.visitestonia.com/en/367-kabli-kilingi-nomme-bicycle-route","distance":"90"},"13144828":{"ref":"368","name":"368: Pärnu-Lavassaare","type":"route","route":"bicycle","network":"lcn","website":"https://www.visitestonia.com/en/368-parnu-lavassaare-bicycle-route","distance":"48"},"13144972":{"ref":"369","name":"369: Pärnu-Liu","type":"route","route":"bicycle","network":"lcn","website":"https://www.visitestonia.com/en/369-parnu-liu-bicycle-route","distance":"46"},"13145121":{"ref":"370","name":"370: The big arc","type":"route","route":"bicycle","network":"lcn","website":"https://www.visitestonia.com/en/370-bicycle-route-the-big-arc-around-parnumaa","distance":"107"},"13145142":{"ref":"371","name":"371: Vändra-Jõesuu","type":"route","route":"bicycle","network":"lcn","website":"https://www.visitestonia.com/en/371-vandra-joesuu-bicycle-route","distance":"81"},"13146092":{"ref":"373","name":"373: Kaisma-Tori","type":"route","route":"bicycle","network":"lcn","website":"https://www.visitestonia.com/en/373-kaisma-tori-bicycle-route","distance":"35"},"13146430":{"ref":"141","name":"141: Ida-Virumaa seaside","type":"route","route":"bicycle","network":"lcn","website":"https://www.visitestonia.com/en/141-ida-virumaa-seaside-bicycle-route","distance":"55"},"13146657":{"ref":"143","name":"143: The Pannjärve circle","type":"route","route":"bicycle","network":"lcn","website":"https://www.visitestonia.com/en/143-the-pannjarve-circle","distance":"20"},"13146695":{"ref":"161","name":"161: Around Rapla","type":"route","route":"bicycle","network":"lcn","website":"https://www.visitestonia.com/en/161-bicycle-route-around-rapla","distance":"68"},"13146815":{"ref":"162","name":"162: Rabivere","type":"route","route":"bicycle","network":"lcn","website":"https://www.visitestonia.com/en/162-rabivere-bicycle-route","distance":"53"},"13163729":{"ref":"163","name":"163: Kaiu","type":"route","route":"bicycle","network":"lcn","website":"https://www.visitestonia.com/en/163-kaiu-bicycle-route","distance":"35"},"13163804":{"ref":"164","name":"164: Kohila-Hageri","type":"route","route":"bicycle","network":"lcn","website":"https://www.visitestonia.com/en/164-kohila-hageri-bicycle-route","distance":"30"},"13163828":{"ref":"166","name":"166: Lelle–Käru","type":"route","route":"bicycle","network":"lcn","website":"https://www.visitestonia.com/en/166-lellekaru-bicycle-route","distance":"35"},"13163928":{"ref":"167","name":"167: Vana-Vigala–Vängla","type":"route","route":"bicycle","network":"lcn","website":"https://www.visitestonia.com/en/167-vana-vigalavangla-bicycle-route","distance":"25"},"13163959":{"ref":"168","name":"168: Around Märjamaa","type":"route","route":"bicycle","network":"lcn","website":"https://www.visitestonia.com/en/168-bicycle-route-around-marjamaa","distance":"33"},"13164025":{"ref":"170","name":"170: Järvakandi–Eidapere","type":"route","route":"bicycle","network":"lcn","website":"https://www.visitestonia.com/en/170-jarvakandieidapere-bicycle-route","distance":"31"},"13183584":{"ref":"PAÄ","name":"Peraküla-Aegviidu-Ähijärve rattarada . XI lõik: Pähni-Ähijärve","type":"route","route":"bicycle","colour":"green","name:en":"RMK Peraküla-Aegviidu-Ähijärve bicycle route. XI section: Pähni-Ähijärve","network":"ncn","website":"https://www.loodusegakoos.ee/kuhuminna/puhkealad/haanja-karula-puhkeala/rmk-matkatee-pahni-ahij","distance":"105","operator":"RMK","osmc:symbol":"green:white:green_bar:white","section_ref":"11"},"13184475":{"ref":"PAÄ","name":"Peraküla-Aegviidu-Ähijärve rattarada. X lõik: Piusa-Pähni","type":"route","route":"bicycle","colour":"green","name:en":"RMK Peraküla-Aegviidu-Ähijärve bicycle route. X section: Piusa-Pähni","network":"ncn","website":"https://www.loodusegakoos.ee/kuhuminna/puhkealad/haanja-karula-puhkeala/rmk-perakula-aegviidu-ahijarve-matkatee-piusa-pahni","distance":"103","operator":"RMK","osmc:symbol":"green:white:green_bar:white","section_ref":"10"},"13184668":{"ref":"PAÄ","name":"Peraküla-Aegviidu-Ähijärve rattarada. IX lõik: Kiidjärve - Piusa","type":"route","route":"bicycle","colour":"green","name:en":"RMK Peraküla-Aegviidu-Ähijärve bicycle route. IX section: Kiidjärve - Piusa","network":"ncn","website":"https://www.loodusegakoos.ee/kuhuminna/puhkealad/rapina-varska-puhkeala/rmk-perakula-aegviidu-ahijarve-matkatee","distance":"121","operator":"RMK","osmc:symbol":"green:white:green_bar:white","section_ref":"9"},"13184713":{"ref":"PAÄ","name":"Peraküla-Aegviidu-Ähijärve rattarada. VIII lõik: Kantsi - Kiidjärve","type":"route","route":"bicycle","colour":"green","name:en":"RMK Peraküla-Aegviidu-Ähijärve bicycle route. VIII section: Kantsi - Kiidjärve","network":"ncn","website":"https://www.loodusegakoos.ee/kuhuminna/puhkealad/kiidjarve-kooraste-puhkeala/rmk-perakula-aegviidu-ahijar","distance":"44","operator":"RMK","osmc:symbol":"green:white:green_bar:white","section_ref":"8"},"13184740":{"ref":"PAÄ","name":"Peraküla-Aegviidu-Ähijärve rattarada. VII lõik: Elistvere – Kantsi","type":"route","route":"bicycle","colour":"green","name:en":"RMK Peraküla-Aegviidu-Ähijärve bicycle route. VII section: Elistvere – Kantsi","network":"ncn","website":"https://www.loodusegakoos.ee/kuhuminna/puhkealad/tartu-jogeva-puhkeala/rmk-perakula-aegviidu-ahijarve-matkatee-elistvere-kantsi","distance":"80","operator":"RMK","osmc:symbol":"green:white:green_bar:white","section_ref":"7"},"13184810":{"ref":"PAÄ","name":"Peraküla-Aegviidu-Ähijärve rattarada. VI lõik: Oostriku-Elistvere","type":"route","route":"bicycle","colour":"green","name:en":"RMK Peraküla-Aegviidu-Ähijärve bicycle route. VI section: Oostriku-Elistvere","network":"ncn","website":"https://www.loodusegakoos.ee/kuhuminna/puhkealad/tartu-jogeva-puhkeala/rmk-perakula-aegviidu-ahijarve-matkatee-oostriku-elistvere","distance":"76","operator":"RMK","osmc:symbol":"green:white:green_bar:white","section_ref":"6"},"13184966":{"ref":"PAÄ","name":"Peraküla-Aegviidu-Ähijärve rattarada. V lõik: Aegviidu-Oostriku","type":"route","route":"bicycle","colour":"green","name:en":"RMK Peraküla-Aegviidu-Ähijärve bicycle route. V section: Aegviidu-Oostriku","network":"ncn","website":"https://www.loodusegakoos.ee/kuhuminna/puhkealad/aegviidu-korvemaa-puhkeala/rmk-perakula-aegviidu-ahijarv","distance":"107","operator":"RMK","osmc:symbol":"green:white:green_bar:white","section_ref":"5"},"13188963":{"ref":"OAI","name":"Oandu-Aegviidu-Ikla rattarada. VII lõik: Kopra - Ikla","type":"route","route":"bicycle","name:en":"RMK Oandu-Aegviidu-Ikla bicycle route. VII section: Kopra - Ikla","network":"ncn","website":"https://loodusegakoos.ee/kuhuminna/puhkealad/parnumaa-puhkeala/16108","distance":"74","operator":"RMK","osmc:symbol":"red:white:red_bar:white","section_ref":"7"},"13189030":{"ref":"OAI","name":"Oandu-Aegviidu-Ikla rattarada. VI lõik: Hüpassaare - Kopra","type":"route","route":"bicycle","name:en":"RMK Oandu-Aegviidu-Ikla bicycle route. VI section: Hüpassaare - Kopra","network":"ncn","website":"https://loodusegakoos.ee/kuhuminna/rahvuspargid/soomaa-rahvuspark/16436","distance":"56","operator":"RMK","osmc:symbol":"red:white:red_bar:white","section_ref":"6"},"13189427":{"ref":"OAI","name":"Oandu-Aegviidu-Ikla rattarada. V lõik: Kellissaare - Hüpassaare","type":"route","route":"bicycle","name:en":"RMK Oandu-Aegviidu-Ikla bicycle route. V section: Kellissaare - Hüpassaare","network":"ncn","website":"https://loodusegakoos.ee/kuhuminna/puhkealad/sakala-puhkeala/16107","distance":"28","operator":"RMK","osmc:symbol":"red:white:red_bar:white","section_ref":"5"},"13189456":{"ref":"OAI","name":"Oandu-Aegviidu-Ikla rattarada. IV lõik: Hirvelaane - Kellissaare","type":"route","route":"bicycle","name:en":"RMK Oandu-Aegviidu-Ikla bicycle route. IV section: Hirvelaane - Kellissaare","network":"ncn","website":"https://loodusegakoos.ee/kuhuminna/puhkealad/sakala-puhkeala/16435","distance":"70","operator":"RMK","osmc:symbol":"red:white:red_bar:white","section_ref":"4"},"13189643":{"ref":"OAI","name":"Oandu-Aegviidu-Ikla rattarada. III lõik: Aegviidu - Hirvelaane","type":"route","route":"bicycle","name:en":"RMK Oandu-Aegviidu-Ikla bicycle route. III section: Aegviidu - Hirvelaane","network":"ncn","website":"https://loodusegakoos.ee/kuhuminna/puhkealad/aegviidu-korvemaa-puhkeala/rmk-matkatee","distance":"61","operator":"RMK","osmc:symbol":"red:white:red_bar:white","section_ref":"3"},"14078369":{"ref":"OAI","name":"Oandu-Aegviidu-Ikla rattarada. II lõik: Kalmeoja - Aegviidu","type":"route","route":"bicycle","name:en":"RMK Oandu-Aegviidu-Ikla bicycle route. II section: Kalmeoja - Aegviidu","network":"ncn","website":"https://loodusegakoos.ee/kuhuminna/puhkealad/aegviidu-korvemaa-puhkeala/16106","distance":"38","operator":"RMK","osmc:symbol":"red:white:red_bar:white","section_ref":"2"},"14078511":{"ref":"PAÄ","name":"Peraküla-Aegviidu-Ähijärve rattarada. III lõik: Ohtu-Alavere","type":"route","route":"bicycle","colour":"green","name:en":"RMK Peraküla-Aegviidu-Ähijärve bicycle route. III section: Ohtu-Alavere","network":"ncn","website":"https://www.loodusegakoos.ee/kuhuminna/puhkealad/tallinna-umbruse-puhkeala/rmk-perakula-aegviidu-ahijarve-matkatee-ohtu-alavere","distance":"83","operator":"RMK","osmc:symbol":"green:white:green_bar:white","section_ref":"3"},"14078512":{"ref":"PAÄ","name":"Peraküla-Aegviidu-Ähijärve rattarada. IV lõik: Alavere-Aegviidu","type":"route","route":"bicycle","colour":"green","name:en":"RMK Peraküla-Aegviidu-Ähijärve bicycle route. IV section: Alavere-Aegviidu","network":"ncn","website":"https://www.loodusegakoos.ee/kuhuminna/puhkealad/aegviidu-korvemaa-puhkeala/rmk-perakula-aegviidu-ahijarve-matkatee-alavere-aegviidu","distance":"32","operator":"RMK","osmc:symbol":"green:white:green_bar:white","section_ref":"4"},"14078544":{"ref":"PAÄ","name":"Peraküla-Aegviidu-Ähijärve rattarada. I lõik: Peraküla-Vihterpalu","type":"route","route":"bicycle","colour":"green","name:en":"RMK Peraküla-Aegviidu-Ähijärve bicycle route. I section: Peraküla-Vihterpalu","network":"ncn","website":"https://loodusegakoos.ee/kuhuminna/matkatee/perakula-aegviidu-ahijarve-matkatee","distance":"27","operator":"RMK","osmc:symbol":"green:white:green_bar:white","section_ref":"1"},"14078545":{"ref":"PAÄ","name":"Peraküla-Aegviidu-Ähijärve rattarada. II lõik: Vihterpalu-Ohtu","type":"route","route":"bicycle","colour":"green","name:en":"RMK Peraküla-Aegviidu-Ähijärve bicycle route. II section: Vihterpalu-Ohtu","network":"ncn","website":"https://loodusegakoos.ee/kuhuminna/puhkealad/tallinna-umbruse-puhkeala/rmk-perakula-aegviidu-ahijarve-matkatee-vihterpalu","distance":"46","operator":"RMK","osmc:symbol":"green:white:green_bar:white","section_ref":"2"},"14079246":{"ref":"PAK","name":"Penijõe-Aegviidu-Kauksi rattarada. II lõik: Varbola-Aegviidu","type":"route","route":"bicycle","name:en":"RMK Penijõe-Aegviidu-Kauksi bicycle route. II section: Varbola-Aegviidu","network":"ncn","website":"https://loodusegakoos.ee/kuhuminna/puhkealad/tallinna-umbruse-puhkeala/rmk-matkatee-penijoe-aegviidu-kauksi-varbola-aegviidu-133-km","distance":"134","operator":"RMK","osmc:symbol":"yellow:white:yellow_bar:white","section_ref":"2"},"14079247":{"ref":"PAK","name":"Penijõe-Aegviidu-Kauksi rattarada. I lõik: Penijõe-Varbola","type":"route","route":"bicycle","colour":"yellow","name:en":"RMK Penijõe-Aegviidu-Kauksi bicycle route. I section: Penijõe-Varbola","network":"ncn","website":"https://loodusegakoos.ee/kuhuminna/rahvuspargid/matsalu-rahvuspark/rmk-matkatee-penijoe-aegviidu-kauksi-penijoe-varbola-84-km","distance":"84","operator":"RMK","osmc:symbol":"yellow:white:yellow_bar:white","section_ref":"1"},"14081510":{"ref":"PAK","name":"Penijõe-Aegviidu-Kauksi rattarada. III lõik: Aegviidu-Roela","type":"route","route":"bicycle","colour":"yellow","name:en":"RMK Penijõe-Aegviidu-Kauksi bicycle route. III section: Aegviidu-Roela","network":"ncn","website":"https://loodusegakoos.ee/kuhuminna/puhkealad/pohja-eesti-puhkeala/rmk-matkatee-penijoe-aegviidu-kauksi-aegviidu-roela-106-km","distance":"106","operator":"RMK","osmc:symbol":"yellow:white:yellow_bar:white","section_ref":"3"},"15700749":{"name":"Käsmu jalgrattarada","type":"route","route":"bicycle","colour":"blue","network":"rcn","website":"https://loodusegakoos.ee/kuhuminna/rahvuspargid/lahemaa-rahvuspark/11692","distance":"16","roundtrip":"yes","description":"Kivised rannad ei võimalda rattaga piki mereranda matkata. Metsateed on kohati rööpalised, neil leidub kive ja männijuuri, kohati ka lahtist liiva, nii et rattamatkajal tasub olla ettevaatlik. Rada tähistatud sinisega.","osmc:symbol":"blue:blue_round"}}