{"27802":{"ref":"2","name":"Pyörämatkailureitti 2","type":"unposted_route","route":"bicycle","state":"disused","name:fi":"Pyörämatkailureitti 2","name:sv":"Nationell cykelled 2"},"32623":{"ref":"1","name":"Pyörämatkailureitti 1","type":"unposted_route","route":"bicycle","state":"disused","name:fi":"Pyörämatkailureitti 1","name:sv":"Nationell cykelled 1","description":"Helsinki-Kirkkonummi-Karis-Salo-Paimio-Kaarina-Turku","description:fi":"Helsinki-Kirkkonummi-Karjaa-Salo-Paimio-Kaarina-Turku","description:sv":"Helsingfors-Kyrkslätt-Karis-Salo-Pemar-S:t Karins-Åbo"},"32624":{"ref":"50","name":"Pyörämatkailureitti 50","type":"unposted_route","route":"bicycle","state":"disused","name:fi":"Pyörämatkailureitti 50","name:sv":"Nationell cykelled 50"},"32626":{"ref":"4","name":"Pyörämatkailureitti 4","type":"unposted_route","route":"bicycle","state":"disused","name:fi":"Pyörämatkailureitti 4","name:sv":"Nationell cykelled 4","description":"Helsinki-Järvenpää-Riihimäki-Lahti-Sysmä-Jyväskylä-Äänekoski-Haapavesi-Liminka-Oulu-Kemi-Rovaniemi-Kittilä-Inari-Utsjoki","description:fi":"Helsinki-Järvenpää-Riihimäki-Lahti-Sysmä-Jyväskylä-Äänekoski-Haapavesi-Liminka-Oulu-Kemi-Rovaniemi-Kittilä-Inari-Utsjoki","description:sv":"Helsingfors-Träskända-Riihimäki-Lahtis-Sysmä-Jyväskylä-Äänekoski-Haapavesi-Limingo-Uleåborg-Kemi-Rovaniemi-Kittilä-Enare-Utsjoki"},"32693":{"ref":"6","name":"Pyörämatkailureitti 6","type":"unposted_route","route":"bicycle","state":"disused","name:fi":"Pyörämatkailureitti 6","name:sv":"Nationell cykelled 6"},"32694":{"ref":"7","name":"Pyörämatkailureitti 7","type":"unposted_route","route":"bicycle","state":"inuse"},"32819":{"ref":"20","name":"Pyörämatkailureitti 20","type":"unposted_route","route":"bicycle","state":"disused","name:fi":"Pyörämatkailureitti 20","name:sv":"Nationell cykelled 20","description":"Kuusamo-Pudasjärvi-Kiiminki/Kiminge-Oulu/Uleåborg-Hailuoto/Karlö"},"35975":{"ref":"22","name":"Pyörämatkailureitti 22","type":"unposted_route","route":"bicycle","state":"disused"},"116476":{"ref":"21","name":"Pyörämatkailureitti 21","type":"unposted_route","route":"bicycle","state":"disused","name:fi":"Pyörämatkailureitti 21","name:sv":"Nationell cykelled 21"},"124974":{"ref":"79","name":"Pyörämatkailureitti 79","type":"unposted_route","route":"bicycle","state":"disused","name:fi":"Pyörämatkailureitti 79","name:sv":"Nationell cykelled 79","is_in:country_code":"FI"},"214449":{"ref":"5","name":"Pyörämatkailureitti 5 - Nationell cykelled 5","type":"unposted_route","route":"bicycle","state":"disused","name:fi":"Pyörämatkailureitti 5","name:sv":"Nationell cykelled 5","description":"Helsinki/Helsingfors-Orimattila-Heinola-Mäntyharju-Varkaus-Kuopio-Kajaani/Kajana-Ristijärvi-Suomussalmi-Kuusamo-Kemijärvi-Luosto-Sodankylä/Soaðegilli-Ivalo/Avvil/Avveel-Utsjoki/Ohcejohka","description:fi":"Helsinki-Orimattila-Heinola-Mäntyharju-Varkaus-Kuopio-Kajaani-Ristijärvi-Suomussalmi-Kuusamo-Kemijärvi-Luosto-Sodankylä-Ivalo-Utsjoki","description:se":"Helsset-Orimattila-Heinola-Mäntyharju-Varkaus-Kuopio-Kajaani-Ristijärvi-Suomussalmi-Kuusamo-Kemijärvi-Luosto-Soaðegilli-Avvil/Avveel-Ohcejohka","description:sv":"Helsingfors-Orimattila-Heinola-Mäntyharju-Varkaus-Kuopio-Kajana-Ristijärvi-Suomussalmi-Kuusamo-Kemijärvi-Luosto-Sodankylä-Ivalo-Utsjoki"},"223569":{"ref":"12","name":"Pyörämatkailureitti 12","type":"unposted_route","route":"bicycle","state":"disused","name:fi":"Pyörämatkailureitti 12","name:sv":"Nationell cykelled 12"},"226085":{"ref":"54","name":"Pyörämatkailureitti 54","type":"unposted_route","fixme":"Lemmenkuja and the connected cycleway based on guess","route":"bicycle","state":"disused","name:sv":"Nationell cykelled 54","description":"Loppi/Loppis-Hyvinkää/Hyvinge-Riihimäki-Kärkölä-Lahti/Lahtis-Heinola-Mäntyharju-Joutsa-Kangasniemi-Pieksämäki-Leppävirta"},"226829":{"ref":"23","name":"Pyörämatkailureitti 23","type":"unposted_route","route":"bicycle","state":"disused","name:en":"National cycle track 23","name:fi":"Pyörämatkailureitti 23","name:sv":"Nationell cykelled 23","description":"Pori/Björneborg-Pomarkku/Påmark-Kankaanpää-Keuruu/Keuru-Jyväskylä-Pieksämäki-Varkaus-Heinävesi-Liperi/Libelits"},"241570":{"ref":"J5","name":"J5 Jyväskylä, keskusta - Keltinmäki","note":"Kaikki reittiä osoittavat liikennemerkit Sairaalanmäen ja Keltinmäen välistä ovat kadonneet vuoteen 2023 mennessä.","type":"route","route":"bicycle","network":"lcn"},"269820":{"ref":"15","name":"Pyörämatkailureitti 15","type":"unposted_route","route":"bicycle","state":"disused","description":"- Mäntyharju - Ristiina -"},"275010":{"ref":"24","name":"Pyörämatkailureitti 24","type":"unposted_route","route":"bicycle","state":"disused","name:sv":"Nationell cykelled 24","description":"Asikkala-Padasjoki-Kuhmoinen/Kuhmois-Jämsä-Petäjävesi"},"285432":{"ref":"14","name":"Pyörämatkailureitti 14","type":"unposted_route","route":"bicycle","state":"disused","name:fi":"Pyörämatkailureitti 14","name:sv":"Nationell cykelled 14","description":"Mikkeli-Puumala-Savonlinna-Punkaharju-Ruokolahti-Imatra","description:fi":"Mikkeli-Puumala-Savonlinna-Punkaharju-Ruokolahti-Imatra","description:sv":"S:t Michel-Puumala-Nyslott-Punkaharju-Ruokolax-Imatra"},"289332":{"ref":"40","name":"Pyörämatkailureitti 40","type":"unposted_route","route":"bicycle","name:sv":"Nationell cykelled 40","network":"ncn","description":"Kaarina/S:t Karins - Raisio/Reso"},"301859":{"ref":"66","name":"Pyörämatkailureitti 66","type":"unposted_route","route":"bicycle","state":"disused","name:sv":"Nationell cykelled 66","description":"Kangasala-Ruovesi-Virrat/Virdois-Alavus/Alavo-Kuortane"},"309614":{"ref":"16","name":"Pyörämatkailureitti 16","type":"unposted_route","route":"bicycle","state":"disused","name:fi":"Pyörämatkailureitti 16","name:sv":"Nationell cykelled 16","description":"Lapua/Lappo-Viitasaari-Vehmersalmi-Koli-Lieksa"},"318755":{"ref":"25","name":"Pyörämatkailureitti 25 Nationell cykelled","type":"unposted_route","route":"bicycle","state":"disused","name:fi":"Pyörämatkailureitti 25","name:sv":"Nationell cykelled 25","description":"Porvoo/Borgå-Askola-Mäntsälä-Hyvinkää/Hyvinge-Vihti/Vichtis-Lohja/Lojo-Tammisaari/Ekenäs-Hanko/Hangö"},"326172":{"ref":"48","name":"Pyörämatkailureitti 48","type":"unposted_route","route":"bicycle","state":"disused","name:fi":"Pyörämatkailureitti 48","name:sv":"Nationell cykelled 48","description":"Orivesi-Nokia-Toijala-Valkeakoski-Pälkäne-Luopioinen/Luopiois-Kuhmoinen/Kuhmois-Joutsa"},"371604":{"ref":"??","name":"Valtakunnallinen pyörämatkailureitti ??","type":"unposted_route","route":"bicycle","state":"disused"},"409788":{"ref":"62","name":"Pyörämatkailureitti 62","type":"unposted_route","route":"bicycle","state":"disused","name:sv":"Nationell cykelled 62","description":"Imatra - Ruokolahti/Ruokolax - Puumala"},"443087":{"ref":"65","name":"Pyörämatkailureitti 65","type":"unposted_route","route":"bicycle","state":"disused","name:sv":"Nationell cykelled 65"},"535904":{"ref":"73","name":"Pyörämatkailureitti 73","type":"unposted_route","route":"bicycle","state":"disused","name:sv":"Nationell cykelled 73","description":"Joensuu - Lieksa - Nurmes - Ylikylä"},"536619":{"ref":"72","name":"Pyörämatkailureitti 72","type":"unposted_route","route":"bicycle","state":"disused","name:sv":"Nationell cykelled 72","description":"Mikkeli/S:t Michel-Haukivuori-Pieksämäki-Suonenjoki-Vesanto"},"536772":{"ref":"77","name":"Pyörämatkailureitti 77","type":"unposted_route","route":"bicycle","state":"disused","name:sv":"Nationell cykelled 77","surface":"asphalt","description":"Muikunlahti (Viitasaari)-Keitele-Pielavesi-Peltosalmi"},"538044":{"ref":"74","name":"Pyörämatkailureitti 74","type":"unposted_route","route":"bicycle","state":"disused","name:sv":"Nationell cykelled 74","description:fi":"Kuorevaara - Joensuu - Tuupovaara - Ilomantsi - Petkeljärvi","description:sv":"Kuorevaara - Joensuu - Tuupovaara - Ilomants - Petkeljärvi"},"540370":{"ref":"47","name":"Pyörämatkailureitti 47 Nationell cykelled","type":"unposted_route","route":"bicycle","state":"disused","name:fi":"Pyörämatkailureitti 47","name:sv":"Nationell cykelled 47","description:fi":"Karvia - Kristiinankaupunki - Närpiö - Laihia - Oravainen","description:sv":"Karvia - Kristinestad - Närpes - Laihela - Oravais"},"542910":{"ref":"19","name":"Pyörämatkailureitti 19","type":"unposted_route","route":"bicycle","state":"disused","name:sv":"Nationell Cykelled 19","description:fi":"Seinäjoki - Lapua - Uusikaarlepyy","description:sv":"Seinäjoki - Lappo - Nykarleby"},"543662":{"ref":"68","name":"Pyörämatkailureitti 68","type":"unposted_route","route":"bicycle","state":"disused","name:sv":"Nationell cykelled 68","description:fi":"Virrat - Ähtäri - Alajärvi - Lappajärvi - Pietarsaari","description:sv":"Virdois - Etseri - Alajärvi - Lappajärvi - Jakobstad"},"544403":{"ref":"63","name":"Pyörämatkailureitti 63","type":"unposted_route","route":"bicycle","state":"disused","name:sv":"Nationell cykelled 63","description:fi":"Lapua - Kauhava - Toholampi","description:sv":"Lappo - Kauhava - Toholampi"},"906678":{"ref":"6","name":"Pyörämatkailureitti 6 Nationell cykelled","type":"unposted_route","fixme":"Paikkakunnat","route":"bicycle","status":"disused"},"1020142":{"ref":"3","name":"Pyörämatkailureitti 3","type":"unposted_route","route":"bicycle","state":"disused","name:fi":"Pyörämatkailureitti 3","name:sv":"Nationell cykelled 3","description:fi":"Helsinki - Hyvinkää - Riihimäki - Hämeenlinna - Valkeakoski - Tampere - Ikaalinen - Kurikka - Vaasa","description:sv":"Helsingfors - Hyvinge - Tavastehus - Valkeakoski - Tammerfors - Ikalis - Kurikka - Vasa"},"1060819":{"ref":"53","name":"Pyörämatkailureitti 53","type":"unposted_route","route":"bicycle","state":"disused","name:fi":"Pyörämatkailureitti 53","name:sv":"Nationell cykelled 53","description":"Pornainen – Mäntsälä – Hausjärvi – Lammi – Padasjoki","description:fi":"Pornainen – Mäntsälä – Hausjärvi – Lammi – Padasjoki","description:sv":"Borgnäs – Mäntsälä – Hausjärvi – Lampis – Padasjoki"},"1066161":{"ref":"W","name":"Jämsän - Kuhmoisten seudullinen pyöräreitti W","type":"route","route":"bicycle","network":"rcn","description":"Kuhmoinen (- ? -) Alhojärvi ( - Partala - ) Poro-oja - Hopsu - Siniänvirta - Koskenpää"},"1075216":{"ref":"58","name":"Pyörämatkailureitti 58","type":"unposted_route","route":"bicycle","state":"disused","name:sv":"Nationell cykelled 58","description":"Myllymäki - Pylkönmäki - Karstula - Kivijärvi - Reisjärvi - Kalaja"},"1085836":{"ref":"41","name":"Pyörämatkailureitti 41","type":"unposted_route","route":"bicycle","state":"disused","name:sv":"Nationell cykelled 41"},"1100823":{"ref":"44","name":"Pyörämatkailureitti 44","type":"unposted_route","route":"bicycle","state":"disused","name:sv":"Nationel cykelled 44","description":"Äetsä-Kiikoinen-Kankaanpää-Karvia-Kauhajoki"},"1157606":{"ref":"KSR","name":"Keski-Suomen reitti","type":"unposted_route","route":"bicycle","state":"disused","name:de":"Die Route Mittelfinnland","name:en":"Central Finland Route","name:fi":"Keski-Suomen reitti","website":"http://www.cyclinginfinland.com/"},"1550636":{"ref":"84","name":"Pyörämatkailureitti 84","type":"unposted_route","route":"bicycle","state":"disused","name:fi":"Pyörämatkailureitti 84","name:sv":"Nationell cykelled 84"},"1574660":{"ref":"86","name":"Pyörämatkailureitti 86","type":"unposted_route","route":"bicycle","state":"disused","name:fi":"Pyörämatkailureitti 86","name:sv":"Nationell cykelled 86","description":"Koivuoja-Sievi-Ylivieska-Oulainen/Oulais-Vihanti-Tyrnävä-Muhos-Kiiminki/Kiminge-Haukipudas"},"1641632":{"ref":"80","name":"Pyörämatkailureitti 80","type":"unposted_route","route":"bicycle","state":"disused","name:fi":"Pyörämatkailureitti 80","name:sv":"Nationell cykelled 80"},"1642283":{"ref":"83","name":"Pyörämatkailureitti 83","type":"unposted_route","route":"bicycle","state":"disused","name:fi":"Pyörämatkailureitti 83","name:sv":"Nationell cykelled 83"},"1642928":{"ref":"78","name":"Pyörämatkailureitti 78","type":"unposted_route","route":"bicycle","state":"disused","name:fi":"Pyörämatkailureitti 78","name:sv":"Nationell cykelled 78","description":"Paltamo-Puolanka/Puolango-Pudasjärvi-Ranua-Rovaniemi"},"1644079":{"ref":"82","name":"Pyörämatkailureitti 82","type":"unposted_route","route":"bicycle","state":"disused","name:fi":"Pyörämatkailureitti 82","name:sv":"Nationell cykelled 82","description":"Autti-Kemijärvi-Savukoski-Kotala"},"1644080":{"ref":"81","name":"Pyörämatkailureitti 81","type":"unposted_route","route":"bicycle","state":"disused","name:fi":"Pyörämatkailureitti 81","name:sv":"Nationell cykelled 81","description":"Säikkä-Pekkala"},"1645683":{"ref":"90","name":"Pyörämatkailureitti 90","type":"unposted_route","route":"bicycle","state":"disused","name:fi":"Pyörämatkailureitti 90","name:sv":"Nationell cykelled 90"},"1651540":{"ref":"Repovesi National Park","name":"Repovesi Cycling routes","type":"route","route":"bicycle","network":"lcn"},"1775845":{"ref":"J8","name":"Keskusta-Pappilanrinne","note":"Vain kolme reittiä osoittavaa liikennemerkkiä tallessa vuonna 2022: kaksi Kankaankadulla ja yksi Seppäläntiellä.","type":"route","route":"bicycle","network":"lcn"},"1929118":{"ref":"59","name":"Pyörämatkailureitti 59","type":"unposted_route","route":"bicycle","state":"disused","name:fi":"Pyörämatkailureitti 59","name:sv":"Nationell cykelled 59"},"2078320":{"ref":"M","name":"Mäntyharjun pyöräilyreitti","type":"route","route":"bicycle","network":"lcn","distance":"40","description":"Keskusta - Lintula - Vihantasalmi - Miekankoski - keskusta"},"2078496":{"ref":"M","name":"Mäntyharjun pyöräilyreitti","type":"route","route":"bicycle","network":"lcn","distance":"20","description":"Keskusta - Varpanen - Sammalinen - keskusta"},"2084363":{"ref":"SSK","name":"Suur-Saimaan kierros","type":"unposted_route","route":"bicycle","status":"disused","name:de":"Die Große Seenrundfahrt","name:en":"The Great Lakes Route","name:fi":"Suur-Saimaan kierros","network":"ncn","distance":"458","description":"Lappeenranta - Mikkeli - Savonlinna - Imatra - Lappeenranta"},"2093237":{"ref":"SSK","name":"Suur-Saimaan kierros","type":"unposted_route","route":"bicycle","status":"disused","name:de":"Die Große Seenrundfahrt","name:en":"The Great Lakes Route","name:fi":"Suur-Saimaan kierros","note:fi":"Poikkeama pääreitiltä Ristiinan keskustaan"},"2098874":{"ref":"SSK","name":"Suur-Saimaan kierros","type":"unposted_route","route":"bicycle","status":"disused","name:de":"Die Große Seenrundfahrt","name:en":"The Great Lakes Route","name:fi":"Suur-Saimaan kierros"},"2128685":{"ref":"VF","name":"Via Finlandia","type":"unposted_route","route":"bicycle","state":"disused","note:fi":"Osin yhteinen reitti valtakunnallisen pyöräreitti kolmosen kanssa","distance":"596","description:fi":"Helsinki - Hyvinkää - Riihimäki - Hämeenlinna - Valkeakoski - Tampere - Ikaalinen - Kurikka - Vaasa","description:sv":"Helsingfors - Hyvinge - Tavastehus - Valkeakoski - Tammerfors - Ikalis - Kurikka - Vasa"},"2128687":{"ref":"Hi","name":"Härkätietä itään","type":"unposted_route","route":"bicycle","status":"disused","name:de":"Durch den Süden Finnlands","name:en":"Through Southern Finland","name:fi":"Härkätietä itään","description:fi":"Turku - Hämeenlinna - Lahti - Kouvola"},"2139142":{"ref":"S","name":"Saimaan saaristoreitti","type":"route","route":"bicycle","name:en":"Saimaa archipelago route","name:ru":"Велосипедный маршрут Сайма","network":"ncn","tourism":"yes","website":"https://www.visitlappeenranta.fi/fi/Teemat-ja-tarinat/Lappeenranta-pyoralla/Saimaan-Saaristoreitti","distance":"154","roundtrip":"yes"},"2141111":{"ref":"23","name":"Pyörämatkailureitti 23 (vanha reitti)","type":"unposted_route","route":"bicycle","status":"disused","name:fi":"Pyörämatkailureitti 23 (vanha reitti)","name:sv":"Nationell cykelled 23 (gammal rutt)","description:fi":"23:n vanha reitti Ruokkeelta Haukkalan kautta Älylään"},"2143705":{"ref":"SP","name":"Saimaan pyöräilyreitti (vaihtoehtoinen Saimaan ylittävä reitti)","type":"unposted_route","route":"bicycle","status":"disused","network":"rcn"},"2154555":{"ref":"44","name":"Äetsä-Kiikoinen-Kankaanpää-Karvia-Kauhajoki","type":"unposted_route","route":"bicycle","status":"disused","name:fi":"Äetsä-Kiikoinen-Kankaanpää-Karvia-Kauhajoki","name:sv":"Äetsä-Kiikois-Kankaanpää-Karvia-Kauhajoki","note:fi":"Tarrojen perusteella tämän relaation osuus Äetsässä olisi vanha reitti?"},"2166389":{"ref":"27","name":"Pyörämatkailureitti 27","type":"unposted_route","route":"bicycle","state":"disused","name:fi":"Pyörämatkailureitti 27","name:sv":"Nationell cykelled 27","description":"Kurikkala - Ylivieska - Haapajärvi - Kiuruvesi - Iisalmi - Rautavaara","description:fi":"Kurikkala - Ylivieska - Haapajärvi - Kiuruvesi - Iisalmi - Rautavaara","description:sv":"Kurikkala - Ylivieska - Haapajärvi - Kiuruvesi - Idensalmi - Rautavaara"},"2172413":{"ref":"SP","name":"Saimaan pyöräilyreitti (vaihtoehtoinen Saimaan ylittävä reitti)","type":"unposted_route","route":"bicycle","status":"disused"},"2198798":{"ref":"KSR","name":"Keski-Suomen reitti","type":"unposted_route","route":"bicycle","status":"disused","name:de":"Die Route Mittelfinnland","name:en":"Central Finland Route","name:fi":"Keski-Suomen reitti","description:fi":"Keski-Suomen reitin pisto Muuratsaloon"},"2243929":{"ref":"KSR","name":"Keski-Suomen reitti","type":"unposted_route","route":"bicycle","status":"disused","name:de":"Die Route Mittelfinnland","name:en":"Central Finland Route","name:fi":"Keski-Suomen reitti","network":"ncn"},"2265095":{"ref":"EV10","name":"EuroVelo 10 - Itämeren kiertoreitti - Suomen osa","type":"route","route":"bicycle","colour":"#003399","icn_ref":"10","name:cs":"EuroVelo 10 - Trasa kolem Baltského moře - sekce Finsko","name:de":"EuroVelo 10 - Ostseeküsten-Radweg - Abschnitt Finnland","name:en":"EuroVelo 10 - Baltic Sea Cycle Route - part Finland","name:fr":"EuroVelo 10 - Littoral de la mer Baltique - tronçon Finlande","name:nl":"EuroVelo 10 - Oostzeeroute - deel Finland","name:pl":"EuroVelo 10 - Szlak Rowerowy Morza Bałtyckiego - część Finlandia","name:sk":"EuroVelo 10 - Trasa okolo Baltického mora - sekcia Fínsko","network":"icn","website":"http://www.eurovelo.com/en/eurovelos/eurovelo-10/countries/finland","description":"ncn finnish part of icn eurovelo","cycle_network":"EuroVelo"},"2265997":{"ref":"32","name":"Pyörämatkailureitti 32","type":"unposted_route","route":"bicycle","state":"disused","name:fi":"Pyörämatkailureitti 32","name:sv":"Nationell cykelled 32"},"2297585":{"ref":"88","name":"Pyörämatkailureitti 88","type":"unposted_route","route":"bicycle","state":"disused","name:sv":"Nationell cykelled 88","network":"ncn"},"2297880":{"ref":"28","name":"Pyörämatkailureitti 28 Nationell cykelled","type":"route","route":"bicycle","network":"ncn"},"2304975":{"ref":"67","name":"Pyörämatkailureitti 67 Nationell cykelled","type":"unposted_route","route":"bicycle","state":"disused","name:fi":"Pyörämatlailureitti 67","name:sv":"Nationell cykelled 67","description:fi":"Gottböle-Teuva-Kauhajoki-Kurikka-Ilmajoki-Munakka","description:sv":"Gottböle-Östermark-Kauhajoki-Kurikka-Ilmola-Munakka"},"2327699":{"ref":"29","name":"Pyörämatkailureitti 29","type":"unposted_route","route":"bicycle","state":"disused","name:sv":"Nationell cykelled 29"},"2418611":{"ref":"70","name":"Pyörämatkailureitti 70","type":"unposted_route","route":"bicycle","state":"disused","name:sv":"Nationell cykelled 70"},"2514363":{"ref":"L","name":"Länsirannikon reitti","type":"unposted_route","route":"bicycle","name:de":"Küstenroute","name:en":"Coastal Route","name:fi":"Länsirannikon reitti","network":"unposted_ncn","distance":"955","description":"Turku - Pori - Vaasa - Kokkola - Oulu"},"2689634":{"ref":"EV10","name":"EuroVelo 10 - Baltic Sea Cycle Route","type":"superroute","route":"bicycle","colour":"#003399","source":"MML 2012;survey","icn_ref":"10","name:cs":"EuroVelo 10 - Trasa kolem Baltského moře","name:de":"EuroVelo 10 - Ostseeküsten-Radweg","name:en":"EuroVelo 10 - Baltic Sea Cycle Route","name:es":"EuroVelo 10 - Ruta del Báltico","name:fi":"EuroVelo 10 - Itämeren kiertoreitti","name:fr":"EuroVelo 10 - Littoral de la mer Baltique","name:hr":"EuroVelo 10 - Baltičkomorska kružna staza","name:hu":"EuroVelo 10 - Balti-tengeri kerékpár útvonal","name:it":"EuroVelo 10 - Itinerario ciclistico del Mar Baltico","name:nl":"EuroVelo 10 - Oostzeeroute","name:pl":"EuroVelo 10 - Szlak Rowerowy Morza Bałtyckiego","name:pt":"EuroVelo 10 - Circuito do Mar Báltico","name:sk":"EuroVelo 10 - Trasa okolo Baltického mora","name:sl":"EuroVelo 10 - Baltiška kolesarska pot","name:sv":"EuroVelo 10 - Östersjörundan","name:tr":"EuroVelo 10 - Baltık Denizi Bisiklet Rotası","network":"icn","website":"http://www.eurovelo.com/en/eurovelos/eurovelo-10","distance":"9000","operator":"European Cyclist's Federation","wikidata":"Q2036072","wikipedia":"de:Ostseeküsten-Route (EV10)","alt_name:hu":"EuroVelo 10 - Hanza kör","cycle_network":"EuroVelo"},"2839647":{"ref":"VF","name":"Via Finlandia","type":"unposted_route","route":"bicycle","state":"disused","description:de":"Eine Alternativeroute am Westufer des Sees Tuusulanjärvi","description:en":"An alternative route around lake Tuusulanjärvi (on westernside).","description:fi":"Tuusulanjärven vaihtoehtoinen, länsipuolen reitti Tuusulasta Järvenpäähän"},"2844705":{"ref":"4","name":"Pyörämatkailureitti 4","type":"unposted_route","route":"bicycle","status":"disused","name:fi":"Pyörämatkailureitti 4","name:sv":"Nationell cykelled 4","description:fi":"Vaihtoehtoinen reitti Järvenpäässä keskustasta Nummenkylään","description:sv":"En alternativ rutt från centrum till Nummenkylä i Träskända"},"2879897":{"ref":"30","name":"Pyörämatkailureitti 30 (Turku - Kaarina)","type":"route","route":"bicycle","name:fi":"Pyörämatkailureitti 30 (Turku - Kaarina)","name:sv":"Nationell cykelled 30 (Åbo - S:t Karins)","network":"ncn","description":"Reitin uusi (?) linjaus osuudella Turku - Kaarina","description:fi":"Reitin uusi (?) linjaus osuudella Turku - Kaarina","description:sv":"En ny rutt mellan Åbo och S:t Karins /?)"},"2895490":{"ref":"KSR","name":"Keski-Suomen reitti","type":"unposted_route","route":"bicycle","status":"disused","name:de":"Die Route Mittelfinnland","name:en":"Central Finland Route","name:fi":"Keski-Suomen reitti","description:fi":"Pisto Luhangan kirkonkylälle"},"3090972":{"ref":"Jepo Runt","name":"Jepo Runt","type":"route","route":"bicycle","network":"lcn","operator":"Jeppo Byaråd r.f."},"3163619":{"ref":"40","name":"Pyörämatkailureitti 40","type":"unposted_route","route":"bicycle","state":"disused","name:sv":"Nationell cykelled 40","description":"Kaarina/S:t Karins - Raisio/Reso"},"3182840":{"ref":"9","name":"Pyörämatkailureitti 9","type":"unposted_route","route":"bicycle","status":"disused","name:en":"National cycle route 9","name:fi":"Pyörämatkailureitti 9","name:sv":"Nationell cykelled 9","description":"The original alignment of route 9 from Keljo to the city centre in Jyväskylä, signposted here and there.","description:fi":"Ysireitin alkuperäinen osuus Keljosta Jyväskylän keskustaan. Tarroja edelleen jäljellä.","description:sv":"Nians ursprungliga rutt från Keljo till Jyväskylä centrum. Klistermärken kan fortfarande ses längs rutten."},"3182841":{"ref":"4","name":"Pyörämatkailureitti 4","type":"route","route":"bicycle","name:en":"National cycle route 4","name:fi":"Pyörämatkailureitti 4","name:sv":"Nationell cykelled 4","network":"ncn","description":"The original alignment of route 4 from Keljo to the city centre in Jyväskylä, signposted here and there.","description:fi":"Nelosreitin alkuperäinen osuus Keljosta Jyväskylän keskustaan. Tarroja edelleen jäljellä.","description:sv":"Fyrans ursprungliga rutt från Keljo till Jyväskylä centrum. Klistermärken kan fortfarande ses längs rutten."},"3226748":{"ref":"71","url":"http://www.poljin.fi/pyoramatkailu/ppreitit/valtakunnalliset%20reitit","name":"Pyörämatkailureitti 71","type":"unposted_route","route":"bicycle","state":"disused","name:fi":"Pyörämatkailureitti 71","name:sv":"Nationell cykelled 71","network":"ncn","description":"Kesälahti-Punkaharju-Kerimäki-Kitee-Eno-Koli-Lieksa"},"3320282":{"ref":"K","name":"Kuninkaantie","type":"unposted_route","route":"bicycle","status":"disused","name:de":"Königsstraße","name:en":"King's Road","name:fi":"Kuninkaantie","description:fi":"Pisto Virkkalasta Lohjan keskustaan"},"3352910":{"ref":"3","name":"Pyörämatkailureitti 3","type":"unposted_route","route":"bicycle","source":"photosurvey (2013-11-30)","status":"disused","name:fi":"Pyörämatkailureitti 3","name:sv":"Nationell cykelled 3","description:fi":"Kolmosreitin alkuperäinen, edelleen tarroitettu/kilvitetty linjaus Amurin kautta","description:sv":"Treans ursprungliga, fortfarande skyltad rutt via den gamla arbetarsstadsdelen Amuri i Tammerfors"},"3894042":{"ref":"1","name":"Björköby","type":"route","route":"bicycle","source":"http://www.mustasaari.fi/sv/document.aspx?docid=8415","network":"lcn"},"3894043":{"ref":"2","name":"Björköby","type":"route","route":"bicycle","source":"http://www.mustasaari.fi/sv/document.aspx?docid=8415","network":"lcn"},"3894044":{"ref":"3","name":"Björköby","type":"route","route":"bicycle","source":"http://www.mustasaari.fi/sv/document.aspx?docid=8415","network":"lcn"},"3894052":{"ref":"4","name":"Replot","type":"route","route":"bicycle","source":"http://www.mustasaari.fi/sv/document.aspx?docid=8420","network":"lcn"},"3894093":{"ref":"5","name":"Grönvik-Iskmo-Jungsund","type":"route","route":"bicycle","source":"http://www.mustasaari.fi/sv/document.aspx?docid=8416","network":"lcn"},"3894100":{"ref":"6","name":"Karperö-Singsby-Kalvholmen","type":"route","route":"bicycle","source":"http://www.mustasaari.fi/sv/document.aspx?docid=8416","network":"lcn"},"3894103":{"ref":"7","name":"Kvevlax-Koskö-Petsmo","type":"route","route":"bicycle","source":"http://www.mustasaari.fi/sv/document.aspx?docid=8417","network":"lcn"},"3894119":{"ref":"8","name":"Petsmo-Västerhankmo","type":"route","route":"bicycle","source":"http://www.mustasaari.fi/sv/document.aspx?docid=8417","network":"lcn"},"3894162":{"ref":"10","name":"Tölby-Vikby-Helsingby-Rimal","type":"route","route":"bicycle","source":"http://www.mustasaari.fi/sv/document.aspx?docid","network":"lcn"},"3894163":{"ref":"9","name":"Helsingby-Karkmo-Toby","type":"route","route":"bicycle","source":"http://www.mustasaari.fi/sv/document.aspx?docid=8418","network":"lcn"},"3894215":{"ref":"11","name":"Helsingby-Pundars","type":"route","route":"bicycle","source":"http://www.mustasaari.fi/sv/document.aspx?docid=8418","network":"lcn"},"3894231":{"ref":"12","name":"Solf-Söderfjärden-Sundom","type":"route","route":"bicycle","source":"http://www.mustasaari.fi/sv/document.aspx?docid=8419","network":"lcn"},"3894327":{"ref":"14","name":"Kuni","type":"route","route":"bicycle","source":"http://www.mustasaari.fi/sv/document.aspx?docid=8421","network":"lcn"},"3894328":{"ref":"13","name":"Kuni","type":"route","route":"bicycle","source":"http://www.mustasaari.fi/sv/document.aspx?docid=8421","network":"lcn"},"3894333":{"ref":"15","name":"Vallvik-Kuni","type":"route","route":"bicycle","source":"http://www.mustasaari.fi/sv/document.aspx?docid=8421","network":"lcn"},"3894391":{"ref":"17","name":"Kvevlax-Veikars-Vallvik","type":"route","route":"bicycle","source":"http://www.mustasaari.fi/sv/document.aspx?docid=8421","network":"lcn"},"3894403":{"ref":"16","name":"Vassor","type":"route","route":"bicycle","source":"http://www.mustasaari.fi/sv/document.aspx?docid=8422","network":"lcn"},"5459933":{"ref":"75","name":"Pyörämatkailureitti 75","type":"unposted_route","route":"bicycle","state":"disused","name:fi":"Pyörämatkailureitti 75","name:sv":"Nationell cykelled 75"},"5640883":{"ref":"14","name":"14 Pirkkala - Ylöjärvi","type":"route","route":"bicycle","name:fi":"14 Pirkkala - Ylöjärvi","name:sv":"14 Birkala - Ylöjärvi","network":"rcn","note:en":"Tampere Region Cycling Network","note:fi":"Tampereen seudulliset pyöräilyn pääreitit"},"5640884":{"ref":"10","name":"10 Tampere - Ylöjärvi","type":"route","route":"bicycle","network":"rcn","note:en":"Tampere Region Cycling Network","note:fi":"Tampereen seudulliset pyöräilyn pääreitit"},"5645055":{"ref":"15","name":"15 Nokia - Ylöjärvi","type":"route","route":"bicycle","network":"rcn","note:en":"Tampere Region Cycling Network","note:fi":"Tampereen seudulliset pyöräilyn pääreitit"},"5645329":{"ref":"8","name":"8 Tampere - Nokia","type":"route","route":"bicycle","network":"rcn","note:en":"Tampere Region Cycling Network","note:fi":"Tampereen seudulliset pyöräilyn pääreitit"},"5645338":{"ref":"13","name":"13 Pirkkala - Nokia","type":"route","route":"bicycle","name:fi":"13 Pirkkala - Nokia","name:sv":"13 Birkala - Nokia","network":"rcn","note:en":"Tampere Region Cycling Network","note:fi":"Tampereen seudulliset pyöräilyn pääreitit"},"5645352":{"ref":"7","name":"7 Tampere - Pirkkala","type":"route","route":"bicycle","name:fi":"7 Tampere - Pirkkala","name:sv":"7 Tammerfors - Birkala","network":"rcn","note:en":"Tampere Region Cycling Network","note:fi":"Tampereen seudulliset pyöräilyn pääreitit"},"5645411":{"ref":"12","name":"12 Lempäälä - Pirkkala","type":"route","route":"bicycle","name:fi":"12 Lempäälä - Pirkkala","name:sv":"12 Lembois - Birkala","network":"rcn","note:en":"Tampere Region Cycling Network","note:fi":"Tampereen seudulliset pyöräilyn pääreitit"},"5646085":{"ref":"6","name":"6 Tampere - Lempäälä - Vesilahti","type":"route","route":"bicycle","name:fi":"6 Tampere - Lempäälä - Vesilahti","name:sv":"6 Tammerfors - Lembois - Vesilax","network":"rcn","note:en":"Tampere Region Cycling Network","note:fi":"Tampereen seudulliset pyöräilyn pääreitit"},"5646109":{"ref":"11","name":"11 Kangasala - Hervanta - Lempäälä","type":"route","route":"bicycle","name:fi":"11 Kangasala - Hervanta - Lempäälä","name:sv":"11 Kangasala - Hervanta - Lembois","network":"rcn","note:en":"Tampere Region Cycling Network","note:fi":"Tampereen seudulliset pyöräilyn pääreitit"},"5658244":{"ref":"73","name":"Pyörämatkailureitti 73","type":"unposted_route","route":"bicycle","state":"disused","name:sv":"Nationell cykelled 73","ncn_ref":"73","network":"ncn"},"5669519":{"ref":"9","name":"9 Tampere - Tesoma","type":"route","route":"bicycle","name:fi":"9 Tampere - Tesoma","name:sv":"9 Tammerfors - Tesoma","network":"rcn","note:en":"Tampere Region Cycling Network","note:fi":"Tampereen seudulliset pyöräilyn pääreitit"},"5985992":{"ref":"2","name":"2 Tampere - Kangasala","type":"route","route":"bicycle","name:fi":"2 Tampere - Kangasala","name:sv":"2 Tammerfors - Kangasala","network":"rcn","note:en":"Tampere Region Cycling Network","note:fi":"Tampereen seudulliset pyöräilyn pääreitit"},"5985993":{"ref":"1","name":"1 Tampere - Teisko","type":"route","route":"bicycle","name:fi":"1 Tampere - Teisko","name:sv":"1 Tammerfors - Teisko","network":"rcn","note:en":"Tampere Region Cycling Network"},"8540279":{"ref":"16","name":"Pyörämatkailureitti 16","type":"unposted_route","route":"bicycle","status":"disused","description":"Ruunaa-Pankakoski-Lieksa part"},"8886872":{"ref":"3","name":"3 Tampere - Kaukajärvi","type":"route","route":"bicycle","name:fi":"3 Tampere - Kaukajärvi","name:sv":"3 Tammerfors - Kaukajärvi","network":"rcn","note:en":"Tampere Region Cycling Network","note:fi":"Tampereen seudulliset pyöräilyn pääreitit"},"8886873":{"ref":"4","name":"4 Tampere - Hervanta","type":"route","route":"bicycle","name:fi":"4 Tampere - Hervanta","name:sv":"4 Tammerfors - Hervanta","network":"rcn","note:en":"Tampere Region Cycling Network","note:fi":"Tampereen seudulliset pyöräilyn pääreitit"},"8886874":{"ref":"5","name":"5 Tampere - Vuores","type":"route","route":"bicycle","name:fi":"5 Tampere - Vuores","name:sv":"5 Tammerfors - Vuores","network":"rcn","note:en":"Tampere Region Cycling Network","note:fi":"Tampereen seudulliset pyöräilyn pääreitit"},"9688788":{"ref":"78","name":"Pyörämatkailureitti 78","type":"unposted_route","route":"bicycle","state":"disused"},"9690611":{"ref":"75","name":"Pyörämatkailureitti 75","type":"unposted_route","route":"bicycle","status":"disused","name:fi":"Pyörämatkailureitti 75","network":"ncn"},"9965419":{"ref":"S","name":"Puumalan saaristoreitti","type":"route","route":"bicycle","name:en":"Puumala Archipelago Route","name:fi":"Puumalan saaristoreitti","network":"rcn","tourism":"yes","website":"https://visitpuumala.fi/pyoraile_ja_patikoi/saaristoreitti/","distance":"60","roundtrip":"yes","start_date":"2017","description":"Ympyräreitti Saimaan saaristossa, 10 kilometrin vesiosuus Norppa II -pyörälautalla"},"10966483":{"ref":"64","name":"Pyörämatkailureitti 64","type":"unposted_route","route":"bicycle","status":"disused","network":"rcn"},"11049106":{"to":"Haukipudas","ref":"1","from":"Torinranta, Oulu","name":"Pääreitti 1: Oulu–Haukipudas","type":"route","route":"bicycle","network":"rcn","website":"http://oulunseudunpyoraily.fi/paareitit/","network:type":"Local","cycle_network":"Oulun_seudun_pyöräilyreitit"},"11049135":{"to":"Ritaharju","ref":"2","from":"Torinranta, Oulu","name":"Pääreitti 2: Oulu–Ritaharju","type":"route","route":"bicycle","network":"rcn","website":"http://oulunseudunpyoraily.fi/paareitit/","network:type":"Local","cycle_network":"Oulun_seudun_pyöräilyreitit"},"11049149":{"to":"Kaijonharju","ref":"3","from":"Rotuaari, Oulu","name":"Pääreitti 3: Oulu–Kaijonharju","type":"route","route":"bicycle","network":"rcn","website":"http://oulunseudunpyoraily.fi/paareitit/","network:type":"Local","cycle_network":"Oulun_seudun_pyöräilyreitit"},"11049189":{"to":"Kiiminki","ref":"4","from":"Rotuaari, Oulu","name":"Pääreitti 4: Oulu–Kiiminki","type":"route","route":"bicycle","network":"rcn","website":"http://oulunseudunpyoraily.fi/paareitit/","network:type":"Local","cycle_network":"Oulun_seudun_pyöräilyreitit"},"11049438":{"to":"Talvikangas","ref":"5","from":"Rotuaari, Oulu","name":"Pääreitti 5: Oulu–Talvikangas","type":"route","route":"bicycle","network":"rcn","website":"http://oulunseudunpyoraily.fi/paareitit/","network:type":"Local","cycle_network":"Oulun_seudun_pyöräilyreitit"},"11049453":{"to":"Hiukkavaara","ref":"6","from":"Rotuaari, Oulu","name":"Pääreitti 6: Oulu–Hiukkavaara","type":"route","route":"bicycle","network":"rcn","website":"http://oulunseudunpyoraily.fi/paareitit/","network:type":"Local","cycle_network":"Oulun_seudun_pyöräilyreitit"},"11049524":{"to":"Kontinkangas","ref":"7","from":"Torinranta, Oulu","name":"Pääreitti 7: Kauppatori–Kontinkangas","type":"route","route":"bicycle","network":"rcn","website":"http://oulunseudunpyoraily.fi/paareitit/","network:type":"Local","cycle_network":"Oulun_seudun_pyöräilyreitit"},"11049582":{"to":"Muhos","ref":"8","from":"Isokatu, Oulu","name":"Pääreitti 8: Oulu–Muhos","type":"route","route":"bicycle","network":"rcn","website":"http://oulunseudunpyoraily.fi/paareitit/","network:type":"Local","cycle_network":"Oulun_seudun_pyöräilyreitit"},"11049856":{"to":"Zeppelin, Kempele","ref":"9","from":"Isokatu, Oulu","name":"Pääreitti 9: Oulu–Zeppelin","type":"route","route":"bicycle","network":"rcn","website":"http://oulunseudunpyoraily.fi/paareitit/","network:type":"Local","cycle_network":"Oulun_seudun_pyöräilyreitit"},"11050454":{"to":"Lumijoki","ref":"10","from":"Torinranta, Oulu","name":"Pääreitti 10: Oulu–Lumijoki","type":"route","route":"bicycle","network":"rcn","website":"http://oulunseudunpyoraily.fi/paareitit/","network:type":"Local","cycle_network":"Oulun_seudun_pyöräilyreitit"},"11050455":{"to":"Oulunsalo","ref":"11","from":"Torinranta, Oulu","name":"Pääreitti 11: Oulu–Oulunsalo","type":"route","route":"bicycle","network":"rcn","website":"http://oulunseudunpyoraily.fi/paareitit/","network:type":"Local","cycle_network":"Oulun_seudun_pyöräilyreitit"},"11051149":{"to":"Nallikari, Oulu","ref":"12","from":"Rotuaari, Oulu","name":"Pääreitti 12: Oulu–Nallikari","type":"route","route":"bicycle","network":"rcn","website":"http://oulunseudunpyoraily.fi/paareitit/","network:type":"Local","cycle_network":"Oulun_seudun_pyöräilyreitit"},"11262607":{"to":"Lieto","ref":"9","from":"Turku keskusta","name":"Seudullinen pyöräilyreitti 9","type":"route","route":"bicycle","source":"Varsinais-Suomen ELY-keskus;Turku opaskartta","network":"rcn"},"11514511":{"to":"Paimio","ref":"11","via":"Kaarina keskusta;Piikkiö","from":"Turku keskusta","name":"Seudullinen pyöräilyreitti 11","type":"route","route":"bicycle","source":"Varsinais-Suomen ELY-keskus;Turku opaskartta","network":"rcn"},"11514512":{"to":"Piikkiö","ref":"10","via":"Varissuo","from":"Turku keskusta","name":"Seudullinen pyöräilyreitti 10","type":"route","route":"bicycle","source":"Varsinais-Suomen ELY-keskus;Turku opaskartta","network":"rcn"},"13073142":{"to":"Naantali","ref":"2","from":"Turku keskusta","name":"Seudullinen pyöräilyreitti 2","type":"route","route":"bicycle","source":"Varsinais-Suomen ELY-keskus;Turku opaskartta","network":"rcn"},"13103634":{"to":"Naantali","ref":"4","via":"Raisio","from":"Turku keskusta","name":"Seudullinen pyöräilyreitti 4","type":"route","route":"bicycle","source":"Varsinais-Suomen ELY-keskus;Turku opaskartta","network":"rcn"},"13123875":{"to":"Ruissalo","ref":"1","from":"Turku keskusta","name":"Seudullinen pyöräilyreitti 1","type":"route","route":"bicycle","source":"Varsinais-Suomen ELY-keskus;Turku opaskartta","network":"rcn"},"13155339":{"to":"Kakskerta","ref":"12","via":"Hirvensalo","from":"Turku keskusta","name":"Seudullinen pyöräilyreitti 12","type":"route","route":"bicycle","source":"Varsinais-Suomen ELY-keskus;Turku opaskartta","network":"rcn"},"13923912":{"to":"Leppävaara","ref":"11","from":"Keilaniemi","name":"Laajalahdenbaana","type":"route","route":"bicycle","network":"rcn","cycle_network":"Pyöräliikenteen laatukäytävät"},"13923913":{"to":"Soukka","ref":"1","from":"Helsingin asema","name":"Länsibaana","note":"Valmis osuus Töölönlahdenkatu - PoRa/Länsilinkki","type":"route","route":"bicycle","colour":"red","source":"survey;Mapillary;Espoon Kaupunki","name:fi":"Länsibaana","name:sv":"Västerbanan","network":"rcn","rcn_ref":"1","network:type":"local","cycle_network":"Pyöräliikenteen laatukäytävät"},"13923967":{"to":"Korso","ref":"6","from":"Helsingin asema","name":"Pohjoisbaana","type":"route","route":"bicycle","name:fi":"Pohjoisbaana","name:sv":"Norra Banan","network":"rcn","rcn_ref":"6","distance":"14.8","planned:to":"Malmi;Tikkurila","cycle_network":"Pyöräliikenteen laatukäytävät"},"14379829":{"ref":"6","name":"Pohjoisbaana (Vantaa)","type":"route","route":"bicycle","name:sv":"Norra Banan (Vanda)","network":"rcn","rcn_ref":"6","description":"Pohjoisbaanan Vantaan osuus","cycle_network":"Pyöräliikenteen laatukäytävät"},"14405913":{"ref":"3","name":"Keskuspuistonbaana","type":"route","route":"bicycle","network":"rcn","rcn_ref":"3","distance":"5.4","cycle_network":"Pyöräliikenteen laatukäytävät"},"14406000":{"ref":"11","name":"Vuosaarenbaana","type":"route","route":"bicycle","network":"rcn","rcn_ref":"11","distance":"5.1","cycle_network":"Pyöräliikenteen laatukäytävät"},"14406037":{"ref":"2","name":"Munkkiniemenbaana","type":"route","route":"bicycle","network":"rcn","distance":"6.6","cycle_network":"Pyöräliikenteen laatukäytävät"},"14590936":{"ref":"10","name":"Viikinbaana","type":"route","route":"bicycle","network":"rcn","rcn_ref":"10","distance":"7.1","cycle_network":"Pyöräliikenteen laatukäytävät"},"15531357":{"to":"Jäkärlä","ref":"8","from":"Turku keskusta","name":"Seudullinen pyöräilyreitti 8","type":"route","route":"bicycle","source":"Varsinais-Suomen ELY-keskus","network":"rcn"},"15660906":{"ref":"VR","name":"Velkuan reitti","type":"route","route":"bicycle","name:fi":"Velkuan reitti","name:sv":"Velkua rutt","network":"ncn","tourism":"yes"},"15663309":{"ref":"RR","name":"Rannikkoreitti","type":"route","route":"bicycle","network":"ncn","tourism":"yes","website":"https://www.bikeland.fi/rannikkoreitti","distance":"220","roundtrip":"yes"},"15666487":{"to":"Karkkila","ref":"PP","from":"Hyvinkää","name":"Pikkupässi pyöräilyreitti","type":"route","route":"bicycle","network":"rcn","website":"https://www.hyvinkaa.fi/pikkupassi1/","distance":"51"},"15669248":{"ref":"HH","name":"Hämeen härkätie","type":"route","route":"bicycle","name:fi":"Hämeen härkätie","name:sv":"Tavastlands oxväg","network":"ncn","tourism":"yes"},"15755762":{"ref":"7","name":"Pääreitti 7: Rovaniemi - Alakorkalo","type":"route","route":"bicycle","network":"rcn","network:type":"local","cycle_network":"Rovaniemen_seudun_pyöräilyreitit"},"15756351":{"to":"Tarvantie","ref":"1","from":"Rovakatu","name":"Pääreitti 1: Rovaniemi - Artic circle","type":"route","route":"bicycle","network":"rcn","cycle_network":"Rovaniemen_seudun_pyöräilyreitit"},"15756519":{"to":"Myllymäentie","ref":"2","from":"Koskikatu","name":"Pääreitti 2: Keskusta-Nivavaara","type":"route","route":"bicycle","network":"rcn","network:type":"rcn","cycle_network":"Rovaniemen_seudun_pyöräilyreitit"},"15834582":{"ref":"7","name":"Seitsemän veljeksen pyöräreitti","type":"route","route":"bicycle","network":"rcn","tourism":"yes","website":"https://www.visitnurmijarvi.fi/fi-FI/topic/62347a6954fed43d274b9e28","distance":"87","roundtrip":"yes","start_date":"2022","description":"Ympyräreitti Nurmijärven ja Vihdin kuntien alueella"}}