{"3882017":{"name":"Ποδηλατόδρομος Αγίων Αναργύρων","type":"route","route":"bicycle","name:en":"Agioi Anargyroi Cycleway","network":"lcn","description":"New segregated path in Agioi Anargyroi"},"4593973":{"name":"Ποδηλατόδρομος Βόλου - Νέων Παγασών","type":"route","route":"bicycle","name:en":"Volos - Nees Pagasae Cycleway","network":"lcn"},"6781425":{"name":"Ποδηλατόδρομος Γκάζι - Φαλήρου","type":"route","route":"bicycle","name:en":"Gazi - Faliro Cycleway","network":"rcn"},"6781477":{"name":"Οδός Ολύμπου - Σταθμός Δουκίσσης Πλακεντίας","type":"route","route":"bicycle","network":"lcn"},"6781478":{"name":"Πλατεία Χαλανδρίου - Αττική Οδός","type":"route","route":"bicycle","network":"lcn"},"6781501":{"name":"Ποδηλατόδρομοι Βριλλησίων","type":"route","route":"bicycle","network":"lcn"},"6781549":{"name":"Άνω Μελίσσια - Κηφισιά","type":"route","route":"bicycle","network":"lcn"},"6782078":{"name":"Ποδηλατόδρομος Κηφισιάς - Νέας Ερυθραίας","type":"route","route":"bicycle","name:en":"Kifisia - Nea Erythraia Cycleway","network":"lcn"},"6782119":{"name":"Νέα Ερυθραία - Εκάλη (και τοπικοί)","type":"route","route":"bicycle","network":"lcn"},"6782127":{"name":"Πολυτεχνειούπολη","type":"route","route":"bicycle","network":"lcn"},"6847113":{"name":"Ποδηλατόδρομος Αργυρούπολης","type":"route","route":"bicycle","network":"lcn"},"6856773":{"name":"Ποδηλατόδρομος Κορίνθος","type":"route","route":"bicycle","network":"lcn"},"6896456":{"name":"Ποδηλατόδρομος Παιανίας-Σπάτων","type":"route","route":"bicycle","network":"lcn"},"6896490":{"name":"Ποδηλατόδρομος Μεσογείων","type":"route","route":"bicycle","network":"lcn"},"6896509":{"name":"Ποδηλατόδρομος Φραγκοκλησσιάς-Πεντέλης","type":"route","route":"bicycle","network":"lcn"},"6896540":{"name":"Ποδηλατόδρομος Αγίου Θωμά - Πολύδροσου","type":"route","route":"bicycle","network":"lcn"},"6927604":{"name":"Ποδηλατόδρομος Καλαμάτας","type":"route","route":"bicycle","network":"lcn"},"10343982":{"to":"Athens","ref":"EV11","from":"MK/GR border (Doirani)","name":"Eurovelo 11 - East Europe Route - part Greece","type":"route","route":"bicycle","colour":"#e69a32","source":"http://eurovelo.gr/en_GB/eurovelo-greece/eurovelo-11/","name:cs":"EuroVelo 11 - Trasa východní Evropou - sekce Řecko","name:de":"EuroVelo 11 - Osteuropa-Route - Teil Griechenland","name:en":"Eurovelo 11 - East Europe Route - part Greece","name:fr":"EuroVelo 11 - La route de l'Europe de l'Est - tronçon Grèce","name:it":"EuroVelo 11 - Itinerario Europa Orientale - parte Grecia","name:nl":"EuroVelo 11 - Oost-Europaroute - deel Griekenland","name:pl":"EuroVelo 11 - Szlak Europy Wschodniej - część Grecja","name:sk":"EuroVelo 11 - Trasa východnou Európou - sekcia Grécko","name:tr":"EuroVelo 11 - Doğu Avrupa Rotası - kısım Yunanistan","network":"icn","website":"https://en.eurovelo.com/ev11/greece","cycle_network":"EuroVelo"},"10686529":{"name":"MTB Downhill 22","type":"route","route":"bicycle","network":"lcn"},"11261641":{"ref":"B1","name":"B1","type":"route","route":"bicycle","network":"lcn"},"11268047":{"ref":"B2","name":"B2","type":"route","route":"bicycle","network":"lcn"},"11268050":{"ref":"B3","name":"B3","type":"route","route":"bicycle","network":"lcn"},"13145451":{"name":"Ποδηλατόδρομος Αιγάλεω","type":"route","route":"bicycle","name:en":"Egaleo Cycleway","network":"lcn"},"13145452":{"name":"Ποδηλατόδρομος Μοσχάτου","type":"route","route":"bicycle","name:en":"Moschato Cycleway","network":"lcn"},"13145560":{"name":"Ποδηλατόδρομος Γκάζι - Κηφισιάς","type":"route","route":"bicycle","state":"proposed","name:en":"Gazi - Kifissia Cycleway (proposed)","network":"rcn"},"13145561":{"name":"Ποδηλατόδρομος Γαλατσίου","type":"route","route":"bicycle","name:en":"Galatsi Cycleway","network":"lcn"},"13145927":{"name":"Ποδηλατόδρομος Δάφνης","type":"route","route":"bicycle","name:en":"Dafni Cycleway","network":"lcn"},"13149530":{"name":"Ποδηλατόδρομος Παπάγου","type":"route","route":"bicycle","name:en":"Psychiko Cycleway","network":"lcn"},"13149531":{"name":"Ποδηλατόδρομος Ψυχικού","type":"route","route":"bicycle","name:en":"Papagou Cycleway","network":"lcn"},"13149644":{"name":"Ποδηλατόδρομος Ελευσίνας","type":"route","route":"bicycle","name:en":"Eleusis Cycleway","network":"lcn"},"13154970":{"name":"Ποδηλατόδρομος Νέας Σμύρνης","type":"route","route":"bicycle","name:en":"Nea Smyrni Cycleway","network":"lcn"},"13154973":{"name":"Ποδηλατόδρομος Βούλας","type":"route","route":"bicycle","name:en":"Voula Cycleway","network":"lcn"},"13155223":{"name":"Ποδηλατόδρομος Καλυβιών","type":"route","route":"bicycle","name:en":"Kalyvion Cycleway","network":"lcn"},"13155346":{"name":"Ποδηλατόδρομος Άνω Νέας Σμύρνης","type":"route","route":"bicycle","name:en":"Ano Nea Smyrni Cycleway","network":"lcn"},"14001807":{"name":"Ποδηλατόδρομος Φλώρινας - Νίκης","type":"route","route":"bicycle","name:en":"Florina - Niki Cycleway","network":"lcn"},"15683780":{"name":"Ποδηλατόδρομος Κομοτηνής","type":"route","route":"bicycle","name:en":"Komotini Cycleway","network":"lcn"}}