{"1357999":{"name":"多摩川サイクリングロード","type":"route","route":"bicycle","name:en":"Tamagawa Cycling Road","name:ja":"多摩川サイクリングロード","network":"lcn","alt_name":"たまリバー 50 km","wikidata":"Q11430734","wikipedia":"ja:多摩川サイクリングロード","name:ja_kana":"たまがわサイクリングロード"},"1956151":{"ref":"501","name":"高知県道501号高知安芸自転車道線","type":"route","route":"bicycle","name:en":"Kochi Prefectual Road 501","network":"rcn"},"2121817":{"ref":"441","name":"穂高松本塩尻自転車道線","note":"DO NOT TAG AS A SECONDARY ROAD","type":"route","route":"bicycle","network":"rcn","alt_name":"あづみ野やまびこ大規模自転車道","wikidata":"Q11654675","wikipedia":"ja:長野県道441号穂高松本塩尻自転車道線","official_name":"長野県道441号穂高松本塩尻自転車道線"},"2236106":{"name":"しまなみ海道サイクリングロード","type":"route","route":"bicycle","name:en":"Shimanami Kaido Cycling Route","name:ja":"しまなみ海道サイクリングロード","network":"ncn","wikidata":"Q67603142","wikipedia":"ja:しまなみ海道サイクリングロード"},"2442337":{"ref":"801","name":"北大阪サイクルライン","type":"route","route":"bicycle","name:en":"Northern Osaka Cycle Line","network":"rcn","alt_name":"北大阪周遊自転車道","wikidata":"Q11441386","cycle_network":"JP:prefectural","official_name":"大阪府道801号大阪吹田自転車道線"},"2442338":{"ref":"804","name":"北河内サイクルライン","type":"route","route":"bicycle","name:en":"Kitakawachi Cycle Line","network":"rcn","wikidata":"Q11441389","wikipedia":"ja:大阪府道804号北河内自転車道線","cycle_network":"JP:prefectural","official_name":"大阪府道804号北河内自転車道線"},"2444162":{"ref":"801","name":"京都府道801号京都八幡木津自転車道線","type":"route","route":"bicycle","name:en":"Kyoto-Yawata-Kizu Cycling Road","name:ja":"京都府道801号京都八幡木津自転車道線","network":"rcn","wikidata":"Q11375541","wikipedia":"ja:京都府道801号京都八幡木津自転車道線"},"2531210":{"name":"ファミリーコースA","type":"route","route":"bicycle","distance":"2.9"},"2531211":{"name":"ファミリーコースB","type":"route","route":"bicycle","distance":"2.8"},"2531212":{"name":"ファミリーコースC","type":"route","route":"bicycle","distance":"1.5"},"2531213":{"name":"健脚コース","type":"route","route":"bicycle","distance":"12.3"},"2610024":{"ref":"370","name":"富山県道370号富山庄川小矢部自転車道線","type":"route","route":"bicycle","network":"rcn"},"2788995":{"name":"旭川サイクリングロード","type":"route","route":"bicycle","name:en":"Asahikawa Cycling Road","name:ja":"旭川サイクリングロード","name:ja_rm":"Asahikawa saikuringu rōdo","name:ja_kana":"あさひかわサイクリングロード"},"2819249":{"ref":"335","name":"松山川内自転車道線","type":"route","route":"bicycle","network":"rcn"},"2872664":{"to":"層雲峡","ref":"1136","from":"常磐公園","name":"旭川層雲峡自転車道線","type":"route","route":"bicycle","colour":"#FFA500","name:en":"Asahikawa Sounkyo Cycling Road","name:ja":"旭川層雲峡自転車道線","network":"rcn","alt_name":"旭川層雲峡大規模自転車道","operator":"北海道","wikidata":"Q11403143","wikipedia":"ja:北海道道1136号旭川層雲峡自転車道線","network:type":"rcn","cycle_network":"JP:prefectural"},"2898865":{"to":"岡山県真庭市蒜山下長田（国道482号交点）","ref":"702","from":"岡山県真庭市蒜山下長田（国道482号交点）","name":"蒜山公園自転車道","type":"route","route":"bicycle","name:ja":"蒜山公園自転車道","network":"rcn","operator":"岡山県","wikidata":"Q11472687","wikipedia":"ja:岡山県道702号八束川上自転車道線","operator:ja":"岡山県","cycle_network":"JP:prefectural","official_name":"岡山県道702号八束川上自転車道線"},"3132059":{"name":"松山市道 重信川自転車歩行者道線","type":"route","route":"bicycle","network":"lcn","operator":"松山市","operator:en":"Matsuyama City"},"3133411":{"name":"松山市道 石手川自転車歩行者道線","type":"route","route":"bicycle","network":"lcn","operator":"松山市","operator:en":"Matsuyama City"},"3281489":{"name":"サイクリングロード","type":"route","route":"bicycle","access":"private","ascent":"88","name:ja":"サイクリングロード","network":"lcn","distance":"6.15","operator":"一般財団法人もみのき森林公園協会","roundtrip":"yes","operator:ja":"一般財団法人もみのき森林公園協会"},"3289405":{"ref":"2","name":"鹿児島県道2号加世田日吉自転車道線","type":"route","route":"bicycle","network":"rcn","alt_name":"吹上浜サイクリングロード;吹上浜砂丘自転車道","wikidata":"Q11676976","wikipedia":"ja:鹿児島県道2号加世田日吉自転車道線","cycle_network":"JP:prefectural"},"3314475":{"ref":"301","name":"遠賀宗像自転車道","type":"route","route":"bicycle","network":"rcn","alt_name":"ひびき灘自転車道線","cycle_network":"JP:prefectural","official_name":"福岡県道301号遠賀宗像自転車道線"},"3375756":{"name":"荒川サイクリングロード","type":"route","route":"bicycle","name:en":"Arakawa Cycling Road","name:ja":"荒川サイクリングロード","network":"rcn"},"3690494":{"ref":"802","name":"南河内サイクルライン","type":"route","route":"bicycle","network":"rcn","wikidata":"Q11441388","wikipedia":"ja:大阪府道802号八尾河内長野自転車道線","cycle_network":"JP:prefectural","official_name":"大阪府道802号八尾河内長野自転車道線"},"3886576":{"ref":"253","name":"多摩湖自転車道","type":"route","route":"bicycle","name:en":"Tamako Jitensha-do","name:ja":"多摩湖自転車道","network":"rcn","wikidata":"Q11525775","roundtrip":"no","wikipedia":"ja:東京都道253号保谷狭山自然公園自転車道線","name:ja_rm":"Tamako Jitensha-dō","name:ja_kana":"たまこじてんしゃどう"},"3935992":{"name":"荒川サイクリングロード （左岸）","type":"route","route":"bicycle","name:en":"Arakawa Cycling Road (East side)","name:ja":"荒川サイクリングロード （左岸）","network":"lcn"},"3938501":{"ref":"156","name":"江戸川サイクリングコース","type":"route","route":"bicycle","name:en":"Edogawa Cycling Course (Upstream)","name:es":"Ruta ciclista Edogawa (ascendente)","name:ja":"江戸川サイクリングコース","network":"rcn","wikidata":"Q11426865","wikipedia":"ja:埼玉県道156号三郷幸手自転車道線"},"3952958":{"name":"代々木公園サイクリングコース","type":"route","route":"bicycle","name:en":"Yoyogi Park Cycling Course","name:ja":"代々木公園サイクリングコース"},"4003495":{"ref":"273","name":"奈良県道273号大和郡山田原本橿原自転車道線","type":"route","route":"bicycle","source":"survey","network":"rcn","alt_name":"大和中央自転車道","wikidata":"Q11445369","wikipedia":"ja:奈良県道273号大和郡山田原本橿原自転車道線"},"5636997":{"ref":"411","name":"メイプル耶馬サイクリングロード","type":"route","route":"bicycle","name:en":"Maple Yaba Cycling Road","network":"rcn","wikidata":"Q11432942","wikipedia":"ja:大分県道411号中津山国自転車道線","official_name":"大分県道411号中津山国自転車道線"},"5673918":{"ref":"402","name":"徳島県道402号阿南徳島自転車道線","type":"route","route":"bicycle","name:en":"Tokushima Prefectural Road Route 402","network":"rcn","alt_name":"阿南徳島サイクリングロード","wikidata":"Q11490188","wikipedia":"ja:徳島県道402号阿南徳島自転車道線"},"5694290":{"ref":"401","name":"徳島県道401号鳴門徳島自転車道線","type":"route","route":"bicycle","name:en":"Tokushima Prefectual Road 401","name:ja":"徳島県道401号鳴門徳島自転車道線","network":"rcn","alt_name":"鳴門徳島自転車道線","wikidata":"Q11490186","wikipedia":"ja:徳島県道401号鳴門徳島自転車道線"},"6191293":{"ref":"462","name":"一般県道上田千曲長野自転車道線","type":"route","route":"bicycle","network":"rcn","alt_name":"千曲川自転車道","wikidata":"Q11654696","wikipedia":"ja:長野県道462号上田千曲長野自転車道線","cycle_network":"jp:prefectural:nagano","official_name":"一般県道上田千曲長野自転車道線"},"6241720":{"name":"富山湾岸サイクリングコース","type":"route","route":"bicycle","name:en":"Toyama Coastal Cycling Route","network":"rcn"},"6434015":{"ref":"R-1","name":"紀の川自転車道","type":"route","route":"bicycle","network":"lcn"},"6435171":{"ref":"R-2","name":"貴志川自転車道","type":"route","route":"bicycle","network":"lcn"},"7272630":{"ref":"601","name":"滋賀県道601号守山大津志賀自転車道線","type":"route","route":"bicycle","network":"rcn","alt_name":"びわ湖レイクサイド自転車道","wikidata":"Q11564952","wikipedia":"ja:滋賀県道601号守山大津志賀自転車道線","cycle_network":"jp:prefectural"},"7319616":{"ref":"600","name":"滋賀県道600号近江八幡安土能登川自転車道線","type":"route","route":"bicycle","network":"rcn","alt_name":"びわ湖よし笛ロード","wikidata":"Q11564949","wikipedia":"ja:滋賀県道600号近江八幡安土能登川自転車道線","cycle_network":"JP:prefectural"},"7327391":{"ref":"803","name":"大阪府道803号旭西淀川自転車道線","type":"route","route":"bicycle","name:en":"Naniwa cycle road","network":"rcn","alt_name":"なにわ自転車道","wikidata":"Q11441387","cycle_network":"JP:prefectural"},"7327806":{"ref":"563","name":"兵庫県道563号神出山田自転車道線","type":"route","route":"bicycle","network":"rcn","wikidata":"Q11393551","wikipedia":"ja:兵庫県道563号神出山田自転車道線","cycle_network":"JP:prefectural"},"7331305":{"ref":"554","name":"兵庫県道554号姫路明石自転車道線","type":"route","route":"bicycle","network":"rcn","alt_name":"播磨サイクリングロード","wikidata":"Q11393543","wikipedia":"ja:兵庫県道554号姫路明石自転車道線","cycle_network":"JP:prefectural"},"7336017":{"ref":"569","name":"兵庫県道569号加古川右岸自転車道線","type":"route","route":"bicycle","network":"rcn","wikidata":"Q11393556","wikipedia":"ja:兵庫県道569号加古川右岸自転車道線","cycle_network":"JP:prefectural"},"7342179":{"ref":"572","name":"兵庫県道572号播磨中央自転車道線","type":"route","route":"bicycle","name:en":"Harima Chuo Cycling Road","network":"rcn","wikidata":"Q11393559","wikipedia":"ja:兵庫県道572号播磨中央自転車道線","short_name":"播磨中央自転車道","cycle_network":"JP:prefectural"},"7420711":{"ref":"801","name":"和歌山県道801号白浜日置川自転車道線","type":"route","route":"bicycle","network":"rcn","cycle_network":"JP:prefectural"},"7420712":{"ref":"802","name":"和歌山県道802号太地新宮自転車道線","type":"route","route":"bicycle","network":"rcn","cycle_network":"JP:prefectural"},"7602659":{"name":"碓氷川・九十九川サイクリングロード","type":"route","route":"bicycle","highway":"cycleway","name:en":"Usui River & Tsukumo River Cycling Road","network":"lcn","operator":"安中市"},"7658453":{"name":"久喜菖蒲公園サイクリングコース","type":"route","route":"bicycle","network":"recreational","distance":"2.5","roundtrip":"yes"},"7723066":{"name":"富山湾岸サイクリングコース","type":"route","route":"bicycle","network":"rcn"},"7756282":{"name":"富山湾岸サイクリングコース","type":"route","route":"bicycle","network":"rcn"},"7765377":{"name":"富山田園サイクリングコース","type":"route","route":"bicycle","network":"rcn"},"7788001":{"name":"富山湾岸・田園連絡サイクリングコース","type":"route","route":"bicycle","network":"rcn"},"7792034":{"ref":"293","name":"羽咋健民自転車道","type":"route","route":"bicycle","name:en":"Hakui Kenmin Cycleway","name:ja":"羽咋健民自転車道","network":"rcn","distance":"32.9","roundtrip":"no","name:ja-Hira":"はくいけんみんじてんしゃどう","name:ja-Latn":"Hakui Kenmin Jitenshadô","network:type":"rcn","cycle_network":"JP:prefectural"},"7972205":{"ref":"502","name":"山口県道502号山口防府小郡自転車道線","type":"route","route":"bicycle","name:ja":"山口県道502号山口防府小郡自転車道線","network":"rcn","alt_name":"周防往還自転車道","wikidata":"Q11467342","wikipedia":"ja:山口県道502号山口防府小郡自転車道線"},"8020466":{"ref":"503","name":"山口県道503号佐波川自転車道線","type":"route","route":"bicycle","name:ja":"山口県道503号佐波川自転車道線","network":"rcn","wikidata":"Q11467343","wikipedia":"ja:山口県道503号佐波川自転車道線"},"8023807":{"ref":"501","name":"山口県道501号山口秋吉台公園自転車道線","type":"route","route":"bicycle","name:ja":"山口県道501号山口秋吉台公園自転車道線","network":"rcn","alt_name":"山口秋吉台自転車道","wikidata":"Q11467341","wikipedia":"ja:山口県道501号山口秋吉台公園自転車道線"},"8050494":{"name":"荒川サイクリングロード（右岸）","type":"route","route":"bicycle","name:en":"Arakawa Cycling Road (West side)","name:ja":"荒川サイクリングロード（右岸）","network":"lcn"},"8050964":{"name":"新芝川自転車道","type":"route","route":"bicycle","network":"rcn"},"8055424":{"ref":"404","name":"千葉県道404号銚子小見川佐原自転車道線","type":"route","route":"bicycle","network":"rcn","alt_name":"大利根サイクリングロード","wikidata":"Q11406623","wikipedia":"ja:千葉県道404号銚子小見川佐原自転車道線"},"8055648":{"name":"我孫子流山自転車道線","type":"route","route":"bicycle","network":"lcn"},"8055784":{"name":"千葉県道407号我孫子流山自転車道線","type":"route","route":"bicycle"},"8058033":{"name":"和田峠ＴＴ","type":"route","route":"bicycle","network":"lcn"},"8058257":{"name":"水と緑のふれあいロード 「中島・黒沼・豊春用水コース」","type":"route","route":"bicycle","network":"lcn","segregated":"no"},"8058461":{"ref":"451","name":"藤沢大和自転車道","type":"route","route":"bicycle","name:en":"Fujisawa Yamato Bicycle Route","network":"rcn","wikidata":"Q11589295","wikipedia":"ja:神奈川県道451号藤沢大和自転車道線"},"8058487":{"name":"境川ゆっくりロード","type":"route","route":"bicycle","network":"lcn","official_name":"境川自転車歩行者専用道路"},"8061390":{"ref":"157","name":"川越狭山自転車道","type":"route","route":"bicycle","network":"rcn","wikidata":"Q11426868","wikipedia":"ja:埼玉県道157号川越狭山自転車道線"},"8061510":{"name":"黒目川自転車ルート","type":"route","route":"bicycle","network":"lcn"},"8064133":{"name":"野川自転車道","type":"route","route":"bicycle","network":"lcn"},"8066243":{"name":"白石峠ＴＴ","type":"route","route":"bicycle","network":"lcn"},"8066391":{"name":"白石峠～荒川：接続","type":"route","route":"bicycle","network":"lcn"},"8066431":{"ref":"451","name":"引地川緑道","type":"route","route":"bicycle","network":"rcn","wikidata":"Q11589295","wikipedia":"ja:神奈川県道451号藤沢大和自転車道線"},"8066488":{"ref":"502","name":"取手常総自転車道線","type":"route","route":"bicycle","network":"rcn","wikidata":"Q11617764","wikipedia":"ja:茨城県道502号取手常総自転車道線"},"8067390":{"name":"落合川ルート（黒目川～多摩川）：接続","type":"route","route":"bicycle","network":"lcn"},"8067403":{"name":"石神井川（荒川～多摩川）：接続","type":"route","route":"bicycle","network":"lcn"},"8095854":{"name":"花見川サイクリングコース","type":"route","route":"bicycle","network":"lcn"},"8118520":{"name":"桐生足利藤岡自転車道のサイクリングロード","type":"route","route":"bicycle","name:en":"Kiryu-Ashikaga-Fujioka Cycling Road","network":"lcn","website":"https://www.pref.gunma.jp/06/h2810037.html","cycle_network":"JP:prefectural"},"8285962":{"ref":"145","name":"間沢寒河江山形自転車道線","type":"route","route":"bicycle","network":"rcn"},"8340929":{"ref":"375","name":"静岡御前崎自転車道線","type":"route","route":"bicycle","network":"rcn","cycle_network":"JP:prefectural"},"8557093":{"ref":"490","name":"新潟県道490号安田新潟自転車道線","note":"ALPSデータインポートで独立したWayの自転車道として作成されていたルートを元に作成","type":"route","route":"bicycle","network":"rcn","cycle_network":"JP:prefectural"},"8611081":{"ref":"274","name":"奈良県道274号明日香大和郡山自転車道線","type":"route","route":"bicycle","network":"rcn","alt_name":"飛鳥葛城自転車道","wikidata":"Q11445372"},"8688097":{"name":"サイクリングコース","note":"proper name unknown","type":"route","route":"bicycle","name:en":"サイクリングコース","network":"lcn"},"8706380":{"ref":"401","name":"秋田県道401号雄和仁別自転車道線","type":"route","route":"bicycle","network":"rcn","alt_name":"仁別雄物川自転車道","wikidata":"Q11595689","wikipedia":"ja:秋田県道401号雄和仁別自転車道線","official_name":"秋田県道401号雄和仁別自転車道線"},"8706381":{"ref":"402","name":"秋田中央公園自転車道","type":"route","route":"bicycle","network":"rcn","wikidata":"Q11595690","wikipedia":"ja:秋田県道402号秋田河辺雄和自転車道線","official_name":"秋田県道402号秋田河辺雄和自転車道線"},"8814490":{"name":"姿川サイクリングロード","type":"route","route":"bicycle","name:en":"Sugatagawa Cycling road","name:ja":"姿川サイクリングロード","network":"lcn","name:ja_rm":"Sugatagawa saikuringu roodo"},"9051274":{"ref":"266","name":"奈良県道266号奈良西の京斑鳩自転車道線","type":"route","route":"bicycle","name:en":"Nara Cycle Line","network":"rcn","alt_name":"奈良自転車道","wikidata":"Q11445365","wikipedia":"ja:奈良県道266号奈良西の京斑鳩自転車道線","cycle_network":"JP:prefectural"},"9531473":{"to":"岡山県備前市西片上","ref":"703","from":"岡山県久米郡美咲町吉ヶ原","name":"岡山県道703号備前柵原自転車道線","type":"route","route":"bicycle","network":"rcn"},"9631763":{"ref":"330","name":"熊本県道330号熊本山鹿自転車道線","type":"route","route":"bicycle","network":"rcn","alt_name":"ゆうかファミリーロード;熊本山鹿自転車道線","wikidata":"Q11568522","wikipedia":"ja:熊本県道330号熊本山鹿自転車道線"},"9640731":{"ref":"335","name":"熊本県道335号湯前人吉自転車道線","type":"route","route":"bicycle","network":"rcn","alt_name":"球磨川サイクリングロード","wikidata":"Q11568526","wikipedia":"ja:熊本県道335号湯前人吉自転車道線","cycle_network":"JP:prefectural"},"9645471":{"ref":"806","name":"福岡県道806号吉井久留米自転車道線","type":"route","route":"bicycle","network":"rcn","alt_name":"筑後川サイクリングロード","wikidata":"Q11592873","wikipedia":"ja:福岡県道806号吉井久留米自転車道線"},"9646244":{"name":"とびしま海道サイクリングロード","type":"route","route":"bicycle","name:en":"Tobishima Kaido Cycling Route","name:ja":"とびしま海道サイクリングロード","network":"lcn"},"9677827":{"ref":"511","name":"武豊大府自転車道線","type":"route","route":"bicycle","network":"rcn","alt_name":"知多半島サイクリングロード","wikidata":"Q11494774","wikipedia":"ja:愛知県道511号武豊大府自転車道線"},"9680743":{"ref":"288","name":"豊田安城自転車道線","type":"route","route":"bicycle","network":"rcn","alt_name":"豊田安城サイクリングロード","wikidata":"Q11494539","wikipedia":"ja:愛知県道288号豊田安城自転車道線"},"9697263":{"name":"尾張広域緑道サイクリングロード","type":"route","route":"bicycle","network":"lcn"},"9700256":{"name":"知多半島サイクリングロード迂回路","type":"route","route":"bicycle","network":"lcn"},"9708065":{"name":"木曽川沿川サイクリングコース","type":"route","route":"bicycle","network":"lcn"},"9760305":{"name":"目久尻川サイクリングロード","type":"route","route":"bicycle","network":"lcn","wikidata":"Q116456462"},"9786754":{"ref":"500","name":"鳥取県道500号鳥取河原自転車道線","type":"route","route":"bicycle","source":"survey","network":"rcn","alt_name":"因幡自転車道","wikidata":"Q11674805","wikipedia":"ja:鳥取県道500号鳥取河原自転車道線","cycle_network":"JP:prefectural"},"9799893":{"ref":"280","name":"奈良県道280号大和青垣吉野川自転車道線","type":"route","route":"bicycle","network":"rcn","alt_name":"大和青垣吉野川自転車道線","wikidata":"Q30923077","wikipedia":"ja:奈良県道280号大和青垣吉野川自転車道線","cycle_network":"JP:prefectural"},"9922332":{"ref":"803","name":"京都府道803号加悦岩滝自転車道線","type":"route","route":"bicycle","network":"rcn","wikidata":"Q11375543","wikipedia":"ja:京都府道803号加悦岩滝自転車道線","cycle_network":"JP:prefectural"},"10084342":{"name":"飯塚直方自転車道","type":"route","route":"bicycle","lcn_ref":"474"},"10126457":{"to":"Tone River","name":"福川サイクリックロード","note":"this is unlabeled, so change the name if necessary.","type":"route","route":"bicycle","name:en":"Fukugawa Cycling Road","network":"lcn"},"10259193":{"ref":"503","name":"古河坂東自転車道線","type":"route","route":"bicycle","name:en":"Koga-Bando Cycling Road","network":"rcn","wikidata":"Q11617765","wikipedia":"ja:茨城県道503号古河坂東自転車道線","name:ja_rm":"Koga Bandō Jitenshadō"},"10336387":{"name":"淡路島一周（アワイチ）","type":"route","route":"bicycle","name:en":"Awaji Island Once Around","network":"lcn","cycle_network":"JP:ACR"},"10345126":{"name":"South Coast Loop","type":"route","route":"bicycle","cycle_network":"JP:ACR"},"10345157":{"name":"Izanagi Course","type":"route","route":"bicycle","network":"lcn","cycle_network":"JP:ACR"},"10347127":{"name":"Kuniumi Course","type":"route","route":"bicycle","cycle_network":"JP:ACR"},"10356563":{"name":"日本一長い運動場線","type":"route","route":"bicycle","network":"lcn","operator":"水俣市"},"10701562":{"ref":"372","name":"福島県道372号須賀川二本松自転車道線","type":"route","route":"bicycle","network":"rcn","alt_name":"みちのく自転車道;須賀川二本松自転車道線","wikidata":"Q11593621","wikipedia":"ja:福島県道372号須賀川二本松自転車道線"},"10750582":{"to":"岡山県岡山市北区伊島町2丁目:津島交差点","ref":"700","from":"岡山県総社市中央2丁目:市役所入口交差点","name":"岡山総社自転車道線","type":"route","route":"bicycle","highway":"cycleway","network":"rcn"},"10752930":{"to":"岡山県岡山市北区新庄下","ref":"701","from":"岡山県加賀郡吉備中央町吉川","name":"岡山賀陽自転車道線","type":"route","route":"bicycle","network":"rcn","cycle_network":"JP:prefectural"},"10780430":{"name":"水と緑のふれあいロード「騎西領・中須用水コース」","type":"route","route":"bicycle","network":"lcn","segregated":"no"},"10837150":{"name":"コスモスふれあいロード","type":"route","route":"bicycle","name:en":"Cosmos Fureai Road","network":"lcn"},"10840954":{"ref":"158","name":"川島こども動物自然公園自転車道線","type":"route","route":"bicycle","name:en":"Kawajima Kodomo Dobutsu Shizen Koen Cycling Road","network":"rcn"},"10841733":{"ref":"155","name":"さいたま武蔵丘陵森林公園自転車道線","type":"route","route":"bicycle","name:en":"Saitama - Shinrin Forest Park Cycle Path","network":"rcn"},"11145808":{"name":"刈谷田サイクリングロード","type":"route","route":"bicycle","network":"lcn","network:type":"lcn"},"11204716":{"ref":"277","name":"香川県道277号香川坂出丸亀自転車道線","type":"route","route":"bicycle","network":"rcn","wikidata":"Q97551628"},"11204998":{"ref":"269","name":"香川県道269号塩江香川高松自転車道線","type":"route","route":"bicycle","name:en":"Koto-gawa Cycle Line","network":"rcn","wikidata":"Q11667523","wikipedia":"ja:香川県道269号塩江香川高松自転車道線","cycle_network":"JP:prefectural"},"11205132":{"ref":"270","name":"香川県道270号丸亀琴平観音寺自転車道線","type":"route","route":"bicycle","network":"rcn","alt_name":"土器川自転車道","wikidata":"Q85884579","wikipedia":"ja:香川県道270号丸亀琴平観音寺自転車道線","cycle_network":"JP:prefectural"},"11225533":{"ref":"302","name":"直方北九州自転車道線","type":"route","route":"bicycle","network":"rcn"},"11231363":{"ref":"803","name":"和歌山県道803号紀の川自転車道線","type":"route","route":"bicycle","network":"rcn","wikidata":"Q65252181","wikipedia":"ja:和歌山県道803号紀の川自転車道線","cycle_network":"jp:prefectural"},"11239439":{"ref":"503","name":"鳥取県道503号赤碕東郷自転車道線","type":"route","route":"bicycle","network":"rcn","alt_name":"鳥取県中部海岸自転車道","wikidata":"Q11674807","wikipedia":"ja:鳥取県道503号赤碕東郷自転車道線","network:type":"node_network","cycle_network":"JP:prefectural"},"11239473":{"ref":"501","name":"鳥取県道501号倉吉東郷自転車道線","type":"route","route":"bicycle","network":"rcn","wikidata":"Q11674806","wikipedia":"ja:鳥取県道501号倉吉東郷自転車道線","network:type":"JP:prefectural","cycle_network":"JP:prefectural"},"11243258":{"name":"名古屋港サイクリングロード","type":"route","route":"bicycle"},"11267074":{"ref":"1148","name":"北海道道1148号札幌恵庭自転車道線","type":"route","route":"bicycle","network":"rcn","alt_name":"札幌恵庭（北広島）自転車道路","wikidata":"Q11403153","wikipedia":"ja:北海道道1148号札幌恵庭自転車道線","network:type":"rcn","cycle_network":"JP:prefectural"},"11644101":{"ref":"351","name":"出雲路自転車道線","type":"route","route":"bicycle","name:en":"Izumoji Cycle Line","network":"rcn","old_name":"島根県道351号平田大社自転車道線","wikidata":"Q11441389","wikipedia":"ja:島根県道351号出雲路自転車道線","cycle_network":"JP:prefectural","official_name":"島根県道351号出雲路自転車道線"},"11655091":{"ref":"803","name":"福井県道803号北潟湖畔自転車道線","type":"route","route":"bicycle","name:en":"Kitagatako Hamming Road","network":"rcn","alt_name":"北潟湖ハミングロード","wikidata":"Q11591701","wikipedia":"ja:福井県道803号北潟湖畔自転車道線","cycle_network":"JP:prefectural"},"11662079":{"ref":"1087","name":"北海道道1087号網走常呂自転車道線","type":"route","route":"bicycle","network":"rcn","alt_name":"オホーツク自転車道;オホーツクサイクリングロード","wikidata":"Q11403124","wikipedia":"ja:北海道道1087号網走常呂自転車道線","network:type":"rcn","cycle_network":"JP:prefectural"},"11671300":{"ref":"379","name":"矢祭棚倉自転車道線","type":"route","route":"bicycle","network":"rcn","alt_name":"久慈川自転車道; 久慈川サイクリングロード","wikidata":"Q11593629","wikipedia":"ja:福島県道379号矢祭棚倉自転車道線","cycle_network":"JP:prefectural","official_name":"福島県道379号矢祭棚倉自転車道線"},"11807168":{"name":"都市計画道路志段味線","type":"route","route":"bicycle","network":"lcn"},"11833981":{"name":"香流川緑道","type":"route","route":"bicycle","network":"lcn"},"11846214":{"name":"能登海浜自転車道","type":"route","route":"bicycle","name:en":"Noto Kaihin Cycleway","name:ja":"能登海浜自転車道","network":"rcn","distance":"33.6","roundtrip":"no","name:ja-Hira":"のとかいひんじてんしゃどう","name:ja-Latn":"Noto Kaihin Jitenshadô"},"12176043":{"name":"笠松町サイクリングロード","type":"route","route":"bicycle","network":"lcn"},"12469557":{"name":"犀川自転車道","type":"route","route":"bicycle","name:en":"Saigawa Cycling Road","name:ja":"犀川自転車道","network":"lcn","distance":"8.1","roundtrip":"no","name:ja-Hira":"さいがわじてんしゃどう","name:ja-Latn":"Saigawa Jitenshadô"},"12484689":{"ref":"497","name":"田原豊橋自転車道線","type":"route","route":"bicycle"},"12499779":{"name":"加賀海浜自転車道","type":"route","route":"bicycle","name:en":"Kaga Kaihin Cycling Road","name:ja":"加賀海浜自転車道","network":"rcn","distance":"25.5","roundtrip":"no","name:ja-Hira":"かがかいひんじてんしゃどう","name:ja-Latn":"Kaga Kaihin Jitenshadô"},"12573844":{"name":"長良川自転車道","type":"route","route":"bicycle","network":"lcn"},"12581006":{"ref":"295","name":"小松加賀健民自転車道","type":"route","route":"bicycle","name:en":"Komatsu Kaga Kenmin Cycling Road","name:ja":"小松加賀健民自転車道","network":"rcn","distance":"26.7","roundtrip":"no","name:ja-Hira":"こまつかがけんみんじてんしゃどう","name:ja-Latn":"Komatsu Kaga Kenmin Jitenshadô"},"12583852":{"name":"長良川清流自転車道（迂回ルート）","type":"route","route":"bicycle"},"12583853":{"name":"長良川清流自転車道","type":"route","route":"bicycle"},"12591898":{"name":"手取キャニオンロード","type":"route","route":"bicycle","name:en":"TEDORI Canyon Road","name:ja":"手取キャニオンロード","network":"rcn","distance":"19.6","roundtrip":"no","name:ja-Hira":"てどりきゃにおんろーど","name:ja-Latn":"Tedori Kyanion Rôdo"},"12592485":{"name":"加賀海岸自転車道","type":"route","route":"bicycle","name:en":"Kaga Seaside Cycling Road","name:ja":"加賀海岸自転車道","network":"lcn","distance":"4.2","roundtrip":"no","name:ja-Hira":"かがかいがんじてんしゃどう","name:ja-Latn":"Kaga Kaigan Jitenshadô"},"12593173":{"name":"水辺の回廊","type":"route","route":"bicycle","name:ja":"水辺の回廊","network":"lcn","roundtrip":"no","name:ja-Hira":"みずべのかいろう","name:ja-Latn":"Mizube no Kairô"},"12605356":{"name":"柴山潟サイクリングロード","type":"route","route":"bicycle","name:en":"Shibayamagata Cycling Road","name:ja":"柴山潟サイクリングロード","network":"lcn","roundtrip":"no","name:ja-Hira":"しばやまがたさいくりんぐろーど","name:ja-Latn":"Shibayama Gata Saikuringu Rôdo"},"12661630":{"ref":"501","name":"岩手県道501号","type":"route","route":"bicycle","network":"rcn","wikidata":"Q11475014","wikipedia":"ja:岩手県道501号北上花巻温泉自転車道線","network:type":"rcn","cycle_network":"JP:prefectural"},"13069873":{"ref":"409","name":"県道409号 相模川自転車道","type":"route","route":"bicycle","network":"rcn","alt_name":"さがみグリーンライン自転車道","distance":"4.9","operator":"神奈川県","wikidata":"Q11589291"},"13071760":{"name":"早瀬川サイクリングロード","type":"route","route":"bicycle","name:en":"Hayase River Cycling Road","name:ja":"早瀬川サイクリングロード","network":"lcn"},"13107331":{"name":"渡良瀬遊水地サイクリングロード","type":"route","route":"bicycle","name:en":"Watarase Usuichi Cycling Road","name:ja":"渡良瀬遊水地サイクリングロード","network":"lcn"},"13163731":{"name":"中井筋自転車道","type":"route","route":"bicycle"},"13485107":{"ref":"300","name":"長崎野母崎自転車道線","type":"route","route":"bicycle","name:ja":"長崎野母崎自転車道線","network":"rcn","wikidata":"Q11652834","wikipedia":"ja:長崎県道300号長崎野母崎自転車道線","name:ja-Hira":"ながさきのもざきじてんしゃどうせん","cycle_network":"jp:prefectural:nagasaki","official_name":"長崎県道300号長崎野母崎自転車道線"},"13519575":{"ref":"465","name":"飯田上郷松川自転車道線","type":"route","route":"bicycle","name:en":"Iida Kamisato Matsukawa Cycling Road","name:ja":"飯田上郷松川自転車道線","network":"rcn","wikidata":"Q11654698","wikipedia":"ja:長野県道465号飯田上郷松川自転車道線","cycle_network":"JP:prefectural"},"13691532":{"name":"遠州街道ラウンドコース","type":"route","route":"bicycle","name:en":"Enshu Kaido Round Course","name:ja":"遠州街道ラウンドコース"},"13883810":{"name":"白砂青松の弓ヶ浜サイクリングコース","type":"route","route":"bicycle","network":"lcn","wikidata":"Q115155582","wikipedia":"ja:白砂青松の弓ヶ浜サイクリングコース"},"13884430":{"name":"福島てっぺんコース","type":"route","route":"bicycle","name:en":"Fukushima Teppen Course","name:ja":"福島てっぺんコース"},"14277267":{"ref":"352","name":"宍道湖湖北自転車道線","type":"route","route":"bicycle","network":"rcn","wikidata":"Q11476719","wikipedia":"ja:島根県道352号宍道湖湖北自転車道線"},"14619359":{"name":"美瑛川・青い池 サイクリングコース","type":"route","fixme":"一部経路未マッピング・衛星画像で確認できない区間あり","route":"bicycle","source":"survey;local knowledge","name:en":"Biei River-Blue Pond Cycling Course","name:ja":"美瑛川・青い池 サイクリングコース"},"14699634":{"name":"西印旛沼周遊コース","type":"route","route":"bicycle","network":"lcn","distance":"15","roundtrip":"yes"},"14712498":{"ref":"401","name":"佐賀県道401号佐賀環状自転車道線","type":"route","route":"bicycle","name:en":"Saga Prefectural Road Route 401","name:ja":"佐賀県道401号佐賀環状自転車道線","network":"rcn","wikidata":"Q114764526"},"15310483":{"name":"那珂川右岸堤防上快走路（河川管理用通路）","type":"route","route":"bicycle","network":"lcn","network:type":"lcn"},"15310484":{"name":"久慈川サイクリングロード","type":"route","route":"bicycle"},"15426594":{"ref":"236","name":"沖縄県道236号玉城那覇自転車道線","type":"route","route":"bicycle","name:en":"Okinawa Prefectural Route 236 Tamagusuku-Naha Cycling Road Line","name:ja":"沖縄県道236号玉城那覇自転車道線","network":"rcn","wikidata":"Q11552924","wikipedia":"ja:沖縄県道236号玉城那覇自転車道線","network:type":"rcn","cycle_network":"JP:prefectural"},"15443062":{"ref":"814","name":"滝野上野幌自転車道線","type":"route","fixme":"滝野側の始点・未開通(未整備)区間・雁来大橋付近の扱いなど","route":"bicycle","source":"GSImaps/std","network":"rcn","wikidata":"Q11403591","wikipedia":"ja:北海道道814号滝野上野幌自転車道線","cycle_network":"JP:prefectural","official_name":"北海道道814号滝野上野幌自転車道線"},"15446812":{"ref":"801","name":"福井県道801号永平寺福井自転車道線","type":"route","route":"bicycle","network":"rcn"},"15446848":{"to":"三重県志摩市大王町波切","ref":"129","from":"三重県志摩市磯部町穴川","name":"三重県道129号磯部大王自転車道線","type":"route","route":"bicycle","network":"rcn"},"15507986":{"ref":"835","name":"釧路阿寒自転車道","type":"route","route":"bicycle","network":"rcn","wikidata":"Q10903596","wikipedia":"ja:北海道道835号釧路阿寒自転車道線"},"15658025":{"name":"歌志内サイクリングロード","type":"route","route":"bicycle","network":"lcn"},"15658034":{"ref":"265","name":"鶴田五所川原自転車道線","type":"route","route":"bicycle","network":"rcn","wikidata":"Q11662476","wikipedia":"ja:青森県道265号鶴田五所川原自転車道線"},"15659803":{"ref":"1","name":"鹿児島県道1号東串良吾平自転車道線","type":"route","route":"bicycle","network":"rcn"},"15659851":{"ref":"713","name":"弁天横瀬自転車道線","type":"route","route":"bicycle","network":"rcn","wikidata":"Q11432981","wikipedia":"ja:大分県道713号弁天横瀬自転車道線"},"15659957":{"ref":"502","name":"中村大方自転車道線","type":"route","route":"bicycle","network":"rcn"},"15660087":{"name":"駄知線自転車歩行者専用道","type":"route","route":"bicycle","network":"lcn","wikidata":"Q11528037","wikipedia":"ja:東濃鉄道駄知線"},"15664335":{"ref":"977","name":"十勝川温泉帯広自転車道線","type":"route","route":"bicycle","network":"rcn","wikidata":"Q11403666","wikipedia":"ja:北海道道977号十勝川温泉帯広自転車道線"},"16022940":{"name":"別府湾岸・国東半島サイクル街道","type":"route","route":"bicycle","website":"http://scenicbyway-oita.com/cycle/"},"16202162":{"ref":"502","name":"米子境港自転車道線","type":"route","route":"bicycle","network":"rcn","network:type":"rcn","cycle_network":"JP:prefectural"},"16202278":{"name":"倉敷市道茶屋児島自転車道線","type":"route","route":"bicycle","network":"lcn","network:type":"lcn"},"16202816":{"name":"市道南島原自転車道線","type":"route","route":"bicycle","network":"lcn","network:type":"lcn"},"16203243":{"name":"庄内川自転車道","type":"route","route":"bicycle","network":"lcn","network:type":"lcn"},"16204894":{"ref":"377","name":"静岡県道377号静岡清水自転車道線","type":"route","route":"bicycle","network":"rcn","network:type":"rcn","cycle_network":"JP:prefectural"},"16204924":{"ref":"6","name":"湘南海岸・砂浜のみち","type":"route","route":"bicycle","network":"lcn","network:type":"lcn"},"16204930":{"name":"鶴見川サイクリングコース","type":"route","route":"bicycle","network":"lcn","network:type":"lcn"},"16204931":{"ref":"5","name":"金目川サイクリングコース","type":"route","route":"bicycle","network":"lcn","network:type":"lcn"},"16204946":{"ref":"114","name":"山梨県道114号南アルプス甲斐自転車道線","type":"route","route":"bicycle","network":"rcn","network:type":"rcn","cycle_network":"JP:prefectural"},"16204948":{"ref":"115","name":"山梨県道115号西下条音羽自転車道線","type":"route","route":"bicycle","network":"rcn","network:type":"rcn","cycle_network":"JP:prefectural"},"16204950":{"ref":"715","name":"山梨県道715号富士吉田山中湖自転車道線","type":"route","route":"bicycle","network":"rcn","network:type":"rcn","cycle_network":"JP:prefectural"},"16204951":{"name":"重川サイクリングロード","type":"route","route":"bicycle","network":"lcn","network:type":"lcn"},"16204967":{"ref":"256","name":"青森県道256号青森十和田湖自転車道線","type":"route","route":"bicycle","network":"rcn","network:type":"rcn","cycle_network":"JP:prefectural"},"16204971":{"ref":"502","name":"岩手県道502号盛岡矢巾自転車道線","type":"route","route":"bicycle","network":"rcn","network:type":"rcn","cycle_network":"JP:prefectural"},"16204975":{"ref":"503","name":"岩手県道503号遠野東和自転車道線","type":"route","route":"bicycle","network":"rcn","network:type":"rcn","cycle_network":"JP:prefectural"},"16213015":{"name":"りんりんロード大崎線","type":"route","route":"bicycle","network":"lcn","network:type":"lcn"},"16213022":{"ref":"872","name":"支笏湖公園自転車道線","type":"route","route":"bicycle","network":"rcn","network:type":"rcn","cycle_network":"JP:prefectural"},"16213059":{"name":"北オホーツクサイクリングロード","type":"route","route":"bicycle","network":"lcn","network:type":"lcn"},"16220683":{"name":"ゆめしま海道","type":"route","route":"bicycle","network":"lcn","network:type":"lcn"},"16220881":{"name":"フィットネスパース","type":"route","route":"bicycle","network":"lcn","network:type":"lcn"},"16230602":{"ref":"289","name":"二宮宇都宮自転車道線","type":"route","route":"bicycle","network":"rcn","network:type":"rcn","cycle_network":"JP:prefectural"},"16230616":{"name":"鬼怒川サイクリングロード","type":"route","route":"bicycle","network":"lcn","network:type":"lcn"},"16233670":{"name":"武庫川サイクリングロード","type":"route","route":"bicycle","network":"lcn","network:type":"lcn"},"16233681":{"name":"西5-270号線","type":"route","route":"bicycle","network":"lcn","network:type":"lcn"},"16233686":{"ref":"384","name":"米沢県南公園自転車道線","type":"route","route":"bicycle","network":"rcn","network:type":"rcn","cycle_network":"JP:prefectural"},"16233687":{"ref":"385","name":"立川鶴岡自転車道線","type":"route","route":"bicycle","network":"rcn","network:type":"rcn","cycle_network":"JP:prefectural"},"16233688":{"name":"徳良湖サイクリングロード","type":"route","route":"bicycle","network":"lcn","network:type":"lcn"},"16233697":{"ref":"392","name":"会津若松熱塩温泉自転車道線","type":"route","route":"bicycle","network":"rcn","network:type":"rcn","cycle_network":"JP:prefectural"},"16233781":{"name":"浅川ゆったりロード","type":"route","route":"bicycle","network":"lcn","network:type":"lcn"},"16233795":{"name":"尾根緑道","type":"route","route":"bicycle","network":"lcn","network:type":"lcn"},"16233810":{"name":"烏山川緑道","type":"route","route":"bicycle","network":"lcn","network:type":"lcn"},"16233811":{"name":"北沢川緑道","type":"route","route":"bicycle","network":"lcn","network:type":"lcn"},"16233812":{"name":"目黒川緑道","type":"route","route":"bicycle","network":"lcn","network:type":"lcn"},"16233960":{"ref":"401","name":"松戸野田関宿自転車道線","type":"route","route":"bicycle","name:en":"Matsudo-Noda-Sekiyado Cycling Road","network":"rcn","network:type":"rcn","cycle_network":"JP:prefectural"},"16233961":{"name":"広瀬川サイクリングロード","type":"route","route":"bicycle","name:en":"Hirosegawa Cycling Road","network":"lcn","network:type":"lcn"},"16233962":{"name":"桃の木川サイクリングロード","type":"route","route":"bicycle","network":"lcn","network:type":"lcn"},"16233974":{"name":"仙台亘理自転車道線","type":"route","route":"bicycle","network":"rcn","network:type":"rcn","cycle_network":"JP:prefectural"},"16233979":{"ref":"246","name":"石巻松島自転車道線","type":"route","route":"bicycle","network":"rcn","network:type":"rcn","cycle_network":"JP:prefectural"},"16234448":{"ref":"500","name":"茨城大洗自転車道線","type":"route","route":"bicycle","network":"rcn","network:type":"rcn","cycle_network":"JP:prefectural"},"16234463":{"name":"渡良瀬遊水地壬生自転車道線","type":"route","route":"bicycle","network":"lcn","network:type":"lcn"},"16234474":{"ref":"777","name":"松阪伊勢自転車道線","type":"route","route":"bicycle","network":"rcn","network:type":"rcn","cycle_network":"JP:prefectural"},"16234484":{"ref":"363","name":"綾宮崎自転車道線","type":"route","route":"bicycle","network":"rcn","network:type":"rcn","cycle_network":"JP:prefectural"},"16234517":{"ref":"365","name":"宮崎佐土原西都自転車道線","type":"route","route":"bicycle","network":"rcn","network:type":"rcn","cycle_network":"JP:prefectural"},"16235452":{"name":"日中線記念自転車歩行者道","type":"route","route":"bicycle","network":"lcn","network:type":"lcn"},"16235590":{"name":"雪舟ロード(JR上山田線跡)","type":"route","route":"bicycle","network":"lcn","network:type":"lcn"},"16237053":{"name":"ぽっぽ通り","type":"route","route":"bicycle","network":"lcn","network:type":"lcn"},"16237064":{"name":"かめのみち","type":"route","route":"bicycle","network":"lcn","network:type":"lcn"},"16237066":{"name":"きどうみち","type":"route","route":"bicycle","network":"lcn","network:type":"lcn"},"16237084":{"name":"赤谷サイクリングロード","type":"route","route":"bicycle","network":"lcn","network:type":"lcn"},"16237090":{"name":"住友鉱山鉄道跡","type":"route","route":"bicycle","network":"lcn","network:type":"lcn"},"16238526":{"name":"深川砂川自転車道線","type":"route","route":"bicycle","network":"lcn","network:type":"lcn"},"16238701":{"name":"ビワイチ","type":"route","route":"bicycle","network":"ncn","network:type":"rcn"},"16245046":{"name":"夢前川サイクリングロード","type":"route","route":"bicycle","network":"lcn","network:type":"lcn"}}