{"27421":{"name":"한강 자전거길","type":"route","route":"bicycle","name:en":"Hangang (Riv.) Bicycle Path","name:ko":"한강 자전거길","network":"ncn"},"3868090":{"to":"영산강 하구둑 인증센터","from":"담양댐 인증센터","name":"영산강 자전거길","type":"route","route":"bicycle","name:en":"Yeongsangang (riv.) Bicycle Path","name:ko":"영산강 자전거길","network":"ncn"},"4145847":{"name":"아라 자전거길(북측)","type":"route","route":"bicycle","name:en":"Ara Cycleway(North)","network":"rcn","operator":"Korea Water Resources Corporation"},"4145848":{"to":"아라한강갑문","from":"아라서해갑문","name":"아라 자건거길","type":"route","route":"bicycle","name:en":"ARA Bicycle Path","name:ko":"아라 자전거길","network":"rcn","website":"https://www.bike.go.kr/bbs/road.do?key=2006176973258&bbsCtgrySn=8&bbsCtgrySubSn=44","operator":"Korea Water Resources Corporation","network:type":"Local"},"4145849":{"name":"굴포천자전거길","type":"route","route":"bicycle","name:en":"Gulpocheon Cycleway","network":"lcn","operator":"Gyeyang-gu"},"4585331":{"name":"황룡강자전거길","type":"route","route":"bicycle","network":"rcn"},"5384694":{"name":"장수천 자전거도로","type":"route","route":"bicycle","network":"lcn","operator":"Namdong-gu Office, Incheon"},"5384726":{"name":"굴포천 자전거도로","type":"route","route":"bicycle","network":"lcn","operator":"Bupyeong-gu, Incheon"},"6554218":{"name":"경춘선 자전거길","type":"route","route":"bicycle","name:en":"Gyeongchun Line Bicycle Path","name:ko":"경춘선 자전거길","website":"http://www.bike.go.kr/bbs/detail/775;jsessionid=89A1F4568E301CE92979BE818E02C58D.node01?index=19&tpl_sn=2&msn=30"},"8280682":{"to":"팔당대교","from":"아라한강갑문","name":"한강 종주 자전거길 (서울 구간)","type":"route","route":"bicycle","name:en":"Hangang (riv.) Bicycle Path (Seoul Selection)","name:ko":"한강 종주 자전거길 (서울 구간)","network":"ncn"},"8280693":{"to":"충주 탄금대","from":"팔당대교","name":"남한강 자전거길","type":"route","route":"bicycle","source":"www.bike.go.kr","name:en":"Namhangang (riv.) Bicycle Path","name:ko":"남한강 자전거길","network":"ncn","int_name":"Namhangang (riv.) Bicycle Path","wikidata":"Q31179520","wikipedia":"ko:남한강 자전거길"},"8281515":{"to":"상주 상풍교","from":"충주 탄금대","name":"새재 자전거길","type":"route","route":"bicycle","source":"www.bike.go.kr","name:en":"Saejae Bicycle Path","name:ko":"새재 자전거길","network":"ncn","int_name":"Saejae Bicycle Path","wikidata":"Q31179503","wikipedia":"ko:새재 자전거길"},"8286939":{"to":"신매대교","from":"밝은광장","name":"북한강 자전거길","type":"route","route":"bicycle","source":"www.bike.go.kr","name:en":"Bukhangang (riv.) Bicycle Path","name:ko":"북한강 자전거길","network":"ncn","int_name":"Buckhangang Bicycle Path"},"8288695":{"name":"오천 자전거길","type":"route","route":"bicycle","source":"www.bike.go.kr","name:en":"Ocheon Bicycle Path","name:ko":"오천 자전거길","network":"ncn","int_name":"Ocheon Bicycle Path"},"8288722":{"name":"금강 자전거길","type":"route","route":"bicycle","source":"www.bike.go.kr","name:en":"Geumgang (Riv.) Bicycle Path","name:ko":"금강 자전거길","network":"ncn","int_name":"Geumgang Bicycle Path"},"8357258":{"name":"목감천 자전거길","type":"route","route":"bicycle","network":"lcn","int_name":"Mokgamcheon Bicycle Path"},"8360964":{"name":"학의천 자전거길","type":"route","route":"bicycle","network":"lcn","int_name":"Haguicheon"},"8371292":{"name":"도림천 자전거길","type":"route","route":"bicycle","network":"lcn","int_name":"Dorimcheon Bicycle Path"},"8374627":{"name":"제주환상자전거길","type":"route","route":"bicycle","source":"www.bike.go.kr","name:en":"Jeju Circular Bike Path","name:ko":"제주환상자전거길","network":"ncn","int_name":"Jeju Fantasy Bike Path"},"8377469":{"to":"고포마을","from":"통일전망대","name":"동해안 자전거길 (강원)","type":"route","route":"bicycle","name:en":"Donghaean Bicycle Path (Gangwon)","name:ko":"동해안 자전거길 (강원)","network":"ncn","int_name":"Donghaean Bicycle Path (Gangwun)"},"8381725":{"name":"동해안 자전거 길(경북)","type":"route","route":"bicycle","name:en":"East Seaside Bicycle Path (Gyungbuk)","name:ko":"동해안 자전거 길(경북)","network":"ncn","int_name":"Donghaean Bicycle Path ( Kyungbuk)","name:ko-Latn":"Donghaean Jajeongeo Gil (Gyungbuk)"},"8383106":{"name":"경춘선 자전거길","type":"route","route":"bicycle","network":"ncn","int_name":"Kyeongchun-line Bicycle path"},"8391095":{"name":"중랑천 자전거길","type":"route","route":"bicycle","name:en":"Jungnangcheon Bicycle Road","name:ja":"中浪川自転車道路","name:ko":"중랑천 자전거길","name:zh":"中浪川自転車道路","network":"rcn","int_name":"Jungnangcheon Bicycle Path","wikipedia":"ko:중랑천자전거길","network:type":"Local"},"8395919":{"name":"안양천 자전거길","type":"route","route":"bicycle","name:ja":"安養川 自転車道路","network":"lcn","int_name":"Anyangcheon Bicycle Path"},"8397373":{"name":"샛강 자전거길","type":"route","route":"bicycle","network":"lcn","int_name":"Saetgang Bicycle Path"},"8397384":{"name":"창릉천 자전거길","type":"route","route":"bicycle","network":"lcn","int_name":"Changleungcheon Bicycle Path"},"8401223":{"name":"왕숙천 자전거길","type":"route","route":"bicycle","name:ko":"왕숙천 자전거길","network":"lcn","int_name":"Wangsugcheon Bicycle Path"},"8423789":{"name":"양재천 자전거길","type":"route","route":"bicycle","network":"lcn","int_name":"Yangjaecheon Bicycle Path"},"8423790":{"name":"부용천 자전거길","type":"route","route":"bicycle","network":"lcn","int_name":"Buyeongcheon Bicycle Path"},"8425646":{"name":"운중천 자전거길","type":"route","route":"bicycle","network":"lcn","int_name":"Unjungcheon Bicycle Path"},"8425650":{"name":"분당천 자전거길","type":"route","route":"bicycle","network":"lcn","int_name":"Bundangcheon Bicycle Path"},"8425671":{"name":"동막천 자전거길","type":"route","route":"bicycle","network":"lcn","int_name":"Dongmakcheon Bicycle Path"},"8426761":{"name":"성복천 자전거길","type":"route","route":"bicycle","network":"lcn","int_name":"Seongbukcheon Bicycle Path"},"8426762":{"name":"풍덕천 자전거길","type":"route","route":"bicycle","network":"lcn","int_name":"Pungdeokcheon Bicycle Path"},"8447994":{"name":"광주천 자전거길","type":"route","route":"bicycle","name:en":"Gwangju Stream Bicycle Route","name:ko":"광주천 자전거길","network":"rcn","public_transport:version":"2"},"8447995":{"name":"광주천 자전거길","type":"route","route":"bicycle","name:en":"Gwangju Stream Bicycle Route","name:ko":"광주천 자전거길","network":"rcn","public_transport:version":"2"},"8659962":{"name":"영산강-섬진강 연결 자전거길","type":"route","route":"bicycle","network":"ncn","int_name":"Youngsangang-Seomjingang connection Bicycleway"},"8687497":{"name":"공릉천 자전거길","type":"route","route":"bicycle","network":"lcn","int_name":"Gongneungcheon Bicycle Path"},"10095334":{"name":"성수이로","type":"route","route":"bicycle"},"10287216":{"name":"차탄천 자전거길","type":"route","route":"bicycle"},"10290782":{"to":"섬강교","from":"수백교","name":"섬강 자전거길","type":"route","route":"bicycle","name:en":"Seomgang (Riv.) Bicycle Path","name:ko":"섬강 자전거길","network":"rcn"},"10327246":{"name":"신천 자전거도로","type":"route","route":"bicycle","name:ko":"신천 자전거도로","network":"lcn"},"10328017":{"name":"청담천 자전거길","type":"route","route":"bicycle","name:en":"Cheongdamcheon Bicycle Path","name:ko":"청담천 자전거길","network":"lcn"},"10377597":{"name":"소양강 자전거길","type":"route","route":"bicycle","network":"rcn"},"10459209":{"name":"탄금호 순환자전거길","type":"route","route":"bicycle","name:en":"Tangeumho (Lk.) Bicycle Path","name:ko":"탄금호 순환자전거길","network":"rcn"},"11159881":{"name":"동강 자전거길","type":"route","route":"bicycle","name:en":"Donggang Riv. Bicycle Path","name:ko":"동강 자전거길","network":"rcn","network:type":"Local"},"11320939":{"to":"서울시 성동구 마장동","from":"서울시 성동구 사근동","name":"청계천 자전거길","type":"route","route":"bicycle","name:en":"Cheonggyecheon Bicycle Path","name:ko":"청계천 자전거길"},"12686914":{"name":"평화누리자전거길 1코스","type":"route","route":"bicycle","network":"rcn"},"12933046":{"name":"평화누리자전거길 2코스","type":"route","route":"bicycle","network":"rcn"},"12933065":{"name":"평화누리자전거길 3코스","type":"route","route":"bicycle","network":"rcn"},"12934464":{"name":"평화누리자전거길 6코스","type":"route","route":"bicycle"},"14377108":{"name":"진주자전거길","type":"route","route":"bicycle","network":"lcn"},"16148781":{"name":"경기북부순환자전거길","type":"route","route":"bicycle","network":"rcn","cycle_network":"Icn"},"16178288":{"name":"포천천 자전거길","type":"route","route":"bicycle","name:ko":"포천천 자전거길","network":"lcn"},"16204945":{"name":"기장 테마임도 MTB 경기장","type":"route","route":"bicycle"},"16206068":{"name":"신갈천 자전거길","type":"route","route":"bicycle","network":"lcn"},"16206069":{"name":"지곡천 자전거길","type":"route","route":"bicycle","network":"lcn"},"16213285":{"name":"용암천 자전거길","type":"route","route":"bicycle","network":"lcn"},"16213286":{"name":"덕송천 자전거길","type":"route","route":"bicycle","network":"lcn"},"16213573":{"name":"식송천 자전거길","type":"route","route":"bicycle","network":"lcn"},"16213783":{"name":"불암천 자전거길","type":"route","route":"bicycle","network":"lcn"},"16214113":{"name":"곤지암천 자전거길","type":"route","route":"bicycle","network":"lcn"},"16214114":{"name":"노곡천 자전거길","type":"route","route":"bicycle","network":"lcn"},"16214115":{"name":"경안천 자전거길","type":"route","route":"bicycle","network":"lcn"},"16214141":{"name":"직리천 자전거길","type":"route","route":"bicycle","network":"lcn"},"16214259":{"name":"금어천 자전거길","type":"route","route":"bicycle","network":"lcn"},"16214348":{"name":"금학천 자전거길","type":"route","route":"bicycle","network":"lcn"},"16214378":{"name":"목현천 자전거길","type":"route","route":"bicycle","network":"lcn"},"16214624":{"name":"우이천 자전거길","type":"route","route":"bicycle","network":"lcn"},"16217138":{"name":"지곡천 자전거길","type":"route","route":"bicycle","network":"lcn"},"16219670":{"name":"오남천 자전거길","type":"route","route":"bicycle","network":"lcn"},"16227481":{"name":"오금천 자전거길","type":"route","route":"bicycle","network":"lcn"},"16241141":{"name":"도농천 자전거길","type":"route","route":"bicycle","network":"lcn"}}