{"228154":{"ref":"EV11","name":"EuroVelo 11 - East Europe Route - part Poland 1","type":"route","route":"bicycle","colour":"green","icn_ref":"11","name:cs":"EuroVelo 11 - Trasa východní Evropou - sekce Polsko 1","name:de":"EuroVelo 11 - Osteuropa-Route - teil Polen 1","name:en":"EuroVelo 11 - East Europe Route - part Poland 1","name:fr":"EuroVelo 11 - La route de l'Europe de l'Est - tronçon Pologne 1","name:hu":"EuroVelo 11 - Lengyelországi szakasz 1","name:it":"EuroVelo 11 - Itinerario Europa Orientale - parte Polonia 1","name:nl":"EuroVelo 11 - Oost-Europaroute - deel Polen 1","name:pl":"EuroVelo 11 - Szlak Europy Wschodniej - część Polska 1","name:sk":"EuroVelo 11 - Trasa východnou Európou - sekcia Poľsko 1","name:tr":"EuroVelo 11 - Doğu Avrupa Rotası - kısım Polonya 1","network":"icn","website":"http://www.eurovelo.com/en/eurovelos/eurovelo-11/countries/poland","operator":"European Cyclists' Federation","description":"Signposted as R11."},"232048":{"ref":"LT1","name":"Kapčiamiestis - Vilnius","type":"route","route":"bicycle","name:lt":"Kapčiamiestis - Vilnius","name:pl":"Kopciowo - Wilno","network":"ncn","operator":"www.balticcycle.eu"},"232049":{"ref":"LT2","name":"Vilnius - Kaunas - Šilutė - Klaipėda","type":"route","route":"bicycle","name:lt":"Vilnius - Kaunas - Šilutė - Klaipėda","name:pl":"Wilno - Kowno - Szyłokarczma - Kłajpeda","network":"ncn","operator":"www.BaltiCCycle.eu","cycle_network":"Balticcycle.eu"},"232057":{"ref":"LT3","name":"Vilnius - LT/LV siena","type":"route","route":"bicycle","name:de":"Wilna - LT/LV-Grenze","name:en":"Vilnius - LT/LV border","name:lt":"Vilnius - LT/LV siena","name:lv":"Viļņa - LT/LV robeža","name:pl":"Wilno - granica LT/LV","network":"ncn","operator":"www.BaltiCCycle.eu"},"1084526":{"name":"Belmontas","type":"route","route":"bicycle","state":"proposed","source":"Žygeivių klubas","name:lt":"Belmontas","name:pl":"Belmont","network":"lcn"},"1084700":{"name":"Labanoras","type":"route","route":"bicycle","state":"proposed","source":"Vilniaus Universiteto žygeivių klubas","network":"lcn"},"1521167":{"name":"Trakų Vokės, Lentvario, Užutrakio parkai ir Trakų pilis per vieną dieną","type":"route","route":"bicycle","state":"proposed","name:en":"Trakų Vokė, Lentvaris, Užutrakis parks and Trakai castle in one day","name:lt":"Trakų Vokės, Lentvario, Užutrakio parkai ir Trakų pilis per vieną dieną","name:pl":"Parki w Wace Trockiej, w Landwarowie oraz na Zatroczu oraz zamek w Trokach w jeden dzień","network":"lcn"},"1721164":{"name":"Vilniaus dviračių trasos","type":"route","route":"bicycle","name:de":"Wilna-Radwege","name:lt":"Vilniaus dviračių trasos","network":"lcn","description":"Oficialus Vilniaus m. dviračių takai"},"1753661":{"ref":"EV10","name":"EuroVelo 10 - Baltic Sea Cycle Route - part Lithuania","type":"route","route":"bicycle","colour":"#003399","icn_ref":"EV10","name:cs":"EuroVelo 10 - Trasa kolem Baltského moře - sekce Litva","name:de":"EuroVelo 10 - Ostseeküsten-Radweg - Abschnitt Litauen","name:en":"EuroVelo 10 - Baltic Sea Cycle Route - part Lithuania","name:fr":"EuroVelo 10 - Littoral de la mer Baltique - tronçon Lituanie","name:nl":"EuroVelo 10 - Oostzeeroute - deel Litouwen","name:pl":"EuroVelo 10 - Szlak Rowerowy Morza Bałtyckiego - część Litwa","name:sk":"EuroVelo 10 - Trasa okolo Baltického mora - sekcia Litva","network":"icn","website":"http://www.eurovelo.com/en/eurovelos/eurovelo-10/countries/lithuania","description":"ncn lithuanian part of icn eurovelo","cycle_network":"EuroVelo"},"2076182":{"name":"Kamastos žiedas","type":"route","route":"bicycle","network":"lcn"},"2168624":{"name":"Birštonas - Škėvonys","type":"route","route":"bicycle","network":"lcn"},"2715895":{"name":"Gražutės didysis dviračių trasos žiedas","type":"route","route":"bicycle","name:lt":"Gražutės didysis dviračių trasos žiedas","network":"lcn","operator":"Gražutės regioninis parkas"},"2716686":{"name":"Gražutės mažasis dviračių trasos žiedas","type":"route","route":"bicycle","name:lt":"Gražutės mažasis dviračių trasos žiedas","network":"lcn"},"2767554":{"name":"Kairiojo Neries kranto turizmo trasa","type":"route","route":"bicycle","name:en":"Tourist route of the Neris left bank","name:lt":"Kairiojo Neries kranto turizmo trasa","network":"lcn","website":"https://www.neriesparkas.lt/"},"2788009":{"ref":"EV13","name":"EuroVelo 13 - part Lithuania","type":"route","route":"bicycle","colour":"#003399","icn_ref":"13","name:cs":"EuroVelo 13 - Stezka železné opony - sekce Litva","name:de":"EuroVelo 13 - Iron Curtain Trail - Litauischer Abschnitt","name:en":"EuroVelo 13 - Iron Curtain Trail - part Lithuania","name:fr":"EuroVelo 13 - La route du rideau de fer - part Lituanie","name:nl":"EuroVelo 13 - IJzerengordijnpad - deel Litouwen","name:pl":"EuroVelo 13 - Szlak Żelaznej Kurtyny - część Litwa","name:sk":"EuroVelo 13 - Cesta Železnej opony - sekcia Litva","name:tr":"EuroVelo 13 - Demir Perde Yolu - kısım Litvanya","network":"icn","description":"ncn lithuanian part of icn eurovelo","cycle_network":"EuroVelo"},"2899645":{"name":"Šimonių giria","type":"route","route":"bicycle","state":"proposed","source":"Žygeivių klubas","network":"lcn","website":"http://www.zygis.vu.lt"},"3753264":{"name":"Aukštagirės maršrutas","type":"route","route":"bicycle","source":"Vilniaus Universiteto žygeivių klubas","network":"lcn"},"4447904":{"name":"Savičiūnų apylinkių pažintinis takas","type":"route","route":"bicycle","state":"proposed","name:lt":"Savičiūnų apylinkių pažintinis takas","name:pl":"Ścieżka dydaktyczna okolic Sawiczun","network":"lcn","roundtrip":"yes","trail_visibility":"bad"},"4659245":{"name":"Nida-Vecekrugas-Preila-Pervalka-Žirgų ragas","type":"route","route":"bicycle","length":"20km","symbol":"Balta-raudona-balta juostos","network":"lwn","operator":"Kuršių Nerijos nacionalinis parkas","roundtrip":"no","difficulty":"Nesudėtinga, išskyrus įvažiavimą dviračiu stačiu šlaitu į 68 metrų aukščio Vecekrugo kopą.","description":"Šis kombinuotas dviračių ir pėsčiųjų maršrutas nuves Jus į pačias gražiausias Kuršių Nerijos vietas."},"7476636":{"name":"Kleboniškio miško pėsčiųjų-dviračių takas","type":"route","route":"bicycle"},"7504231":{"name":"Tytuvėnų dviračių trasa","type":"route","route":"bicycle","network":"lcn"},"9169016":{"name":"Mažasis Nemuno (Pakaunės) žiedas","type":"route","route":"bicycle","network":"lcn"},"9169017":{"ref":"D5","name":"Dvi dienos Aukštaitijos nacionaliniame parke","type":"route","route":"bicycle","name:en":"Two days in Aukštaitija National Park","name:lt":"Dvi dienos Aukštaitijos nacionaliniame parke","name:ru":"Два дня в национальном парке Аукштайтии","network":"lcn","website":"https://www.ignalina.info/en/routes/d5-bicycle-route-two-days-in-aukstaitija-national-park/"},"9184289":{"name":"Dviračių trasa \\\"Kurtuvėnų žiedas 33\\\"","type":"route","route":"bicycle","network":"lcn"},"9184381":{"name":"Bubiai MTB XC","type":"route","route":"bicycle","network":"lcn"},"9210538":{"name":"Šiaurės kolegijos trasa 60/40 km","type":"route","route":"bicycle","network":"lcn"},"9652454":{"name":"Merkinė-Česukai-Pašilingė-Maksimai-Utieka-Žiogeliai-Druskininkai-Gailiūnai-Liškiava-Žeimiai-Gudeliai-Panara-Merkinė","note":"incomplete","type":"route","route":"bicycle","colour":"blue","network":"lcn","operator":"Dzūkijos nacionalinis parkas","osmc:symbol":"red:white:blue_bar"},"11555731":{"name":"Antalieptė - pasakiškas lieptų kraštas","type":"route","route":"bicycle","network":"lcn","operator":"Gražutės regioninis parkas"},"11624958":{"name":"Alytus–Varėna","type":"route","route":"bicycle","network":"rcn","website":"https://olitaorany.lt/"},"14344850":{"name":"Dviračių maršrutas „Romantikų“","type":"route","route":"bicycle","network":"lcn","website":"http://likebike.kaunas.lt/marsrutai/","operator":"Like Bike Kaunas"},"14344851":{"name":"Maršrutas \\\"Šeimos piknikas šile\\\"","type":"route","route":"bicycle","network":"lcn","website":"http://likebike.kaunas.lt/marsrutai/","operator":"Like Bike Kaunas"},"14344852":{"name":"Maršrutas „Vasaros fontanai“","type":"route","route":"bicycle","network":"lcn","website":"http://likebike.kaunas.lt/marsrutai/","operator":"Like Bike Kaunas"},"14344853":{"name":"Maršrutas „Miesto širdis“","type":"route","route":"bicycle","network":"lcn","website":"http://likebike.kaunas.lt/marsrutai/","operator":"Like Bike Kaunas"},"14344854":{"name":"Maršrutas „Atrask Šilainius“","type":"route","route":"bicycle","network":"lcn","website":"http://likebike.kaunas.lt/marsrutai/","operator":"Like Bike Kaunas"},"14348293":{"name":"Dusios dviračių trasa","type":"route","route":"bicycle","network":"lcn","website":"https://meteliurp.lrv.lt/lt/informacija-lankytojams/turistiniai-marsrutai/dusios-dviraciu-trasa-24-km","operator":"Metelių regionino parko direkcija"},"14348294":{"name":"Metelio dviračių trasa","type":"route","route":"bicycle","network":"lcn","website":"https://meteliurp.lrv.lt/lt/informacija-lankytojams/turistiniai-marsrutai/metelio-dviraciu-trasa-27-km","operator":"Metelių regioninio parko direkcija"},"14349886":{"name":"Maršrutas „Dienos žygis“","type":"route","route":"bicycle","network":"lcn","website":"http://likebike.kaunas.lt/marsrutai/","operator":"Like Bike Kaunas"},"14382023":{"name":"Maršrutas „Aplink Lampėdį“","type":"route","route":"bicycle","network":"lcn","website":"http://likebike.kaunas.lt/marsrutai/","operator":"Like Bike Kaunas"},"14413426":{"ref":"D2","name":"Mažasis dviračių žiedas","type":"route","route":"bicycle","name:en":"Small bicycle ring","name:lt":"Mažasis dviračių žiedas","name:ru":"Малое велосипедное кольцо","network":"lcn","website":"https://www.ignalina.info/en/routes/small-bicycle-ring-d2/"},"14413606":{"ref":"D4","name":"Dviračių maršrutas „Pamatyti DAUG“","type":"route","route":"bicycle","name:en":"Bicycle route „See more\\\"","name:lt":"Dviračių maršrutas „Pamatyti DAUG“","network":"lcn","website":"https://www.ignalina.info/en/routes/d4-bicycle-route-see-more/"},"15694561":{"ref":"3","name":"Didysis žiedas","type":"route","route":"bicycle","network":"lcn","operator":"Panevėžio miesto savivaldybė"},"15694563":{"ref":"7","name":"Sodai-Centras","type":"route","route":"bicycle","network":"lcn","operator":"Panevėžio miesto savivaldybė"},"15697797":{"ref":"1","name":"Žydroji trasa (Pajuostis - Berčiūnai)","type":"route","route":"bicycle","network":"lcn","operator":"Panevėžio miesto savivaldybė"},"15697869":{"ref":"2","name":"Piniava - Centras - Pažagieniai - Šilagalys","type":"route","route":"bicycle","network":"lcn","operator":"Panevėžio miesto savivaldybė"},"15698072":{"ref":"4","name":"Berčiūnai - Centras - Venslaviškis","type":"route","route":"bicycle","network":"lcn","operator":"Panevėžio miesto savivaldybė"},"15700064":{"ref":"5","name":"Pramonės žiedas","type":"route","route":"bicycle","network":"lcn"},"15700117":{"ref":"6","name":"Kniaudiškių žiedas - Centras","type":"route","route":"bicycle","network":"lcn"}}