{"2901116":{"name":"Партизанска","type":"route","route":"bicycle","network":"lcn"},"2901155":{"name":"Патека Јане Сандански","type":"route","route":"bicycle","network":"lcn"},"2901156":{"name":"Патека КЈ Питу","type":"route","route":"bicycle","network":"lcn"},"10340760":{"to":"Sretenovo","ref":"EV11","from":"Skopje","name":"EuroVelo 11 - East Europe Route - part North Macedonia","type":"route","route":"bicycle","colour":"#003399","icn_ref":"11","name:cs":"EuroVelo 11 - Trasa východní Evropou - sekce Severní Makedonie","name:de":"EuroVelo 11 - Osteuropa-Route - teil Nordmakedonien","name:en":"EuroVelo 11 - East Europe Route - part North Macedonia","name:fr":"EuroVelo 11 - La route de l'Europe de l'Est - tronçon Macédoine du Nord","name:it":"EuroVelo 11 - Itinerario Europa Orientale - parte Macedonia del Nord","name:nl":"EuroVelo 11 - Oost-Europaroute - deel Noord-Macedonië","name:pl":"EuroVelo 11 - Szlak Europy Wschodniej - część Macedonia Północna","name:sk":"EuroVelo 11 - Trasa východnou Európou - sekcia Severné Macedónsko","name:tr":"EuroVelo 11 - Doğu Avrupa Rotası - kısım Kuzey Makedonya","network":"icn","website":"https://en.eurovelo.com/ev11/fyro-macedonia","complete":"no","cycle_network":"EuroVelo"}}