{"385135":{"to":"Santiago de Compostela","ref":"CP","from":"Porto","name":"Caminho Português de Santiago","type":"route","route":"bicycle","name:de":"Portugiesischer Jakobsweg","name:en":"Portuguese Way of St. James","name:es":"Camino Portugués","name:gl":"Camiño Portugués de Santiago","name:it":"Cammino portoghese di Santiago","name:pl":"Portugalska Droga św. Jakuba","name:pt":"Caminho Português de Santiago","network":"ncn","alt_name":"Caminho Português de Santiago;Caminhos de Santiago dos Portugueses;Caminho Português","religion":"christian","wikidata":"Q1029533","roundtrip":"no","wikipedia":"pt:Caminho Português de Santiago","pilgrimage":"Camino de Santiago","osmc:symbol":"blue:blue:shell_modern","wiki:symbol":"Symbol_Jakobsweg.png","denomination":"catholic","cycle_network":"ES:Camino"},"1518162":{"name":"Linha Póvoa de Varzim - Famalicão","type":"route","gauge":"1000","route":"bicycle","railway":"abandoned","wikidata":"Q1500487","wikipedia":"pt:Linha do Porto à Póvoa e Famalicão"},"2381238":{"name":"Ecopista do Sabor","type":"route","route":"bicycle","network":"rcn"},"2436695":{"name":"Ciclovia Urbana de Faro","type":"route","route":"bicycle","network":"lcn"},"2624236":{"foot":"yes","name":"Ecopista do Dão","type":"route","route":"bicycle","network":"rcn","website":"https://ecopistadodao.pt/","roundtrip":"no","description":"A Ecopista do Dão desenvolveu-se ao longo do antigo ramal ferroviário do Dão, numa extensão de 49,2 Kms e atravessa os concelhos de Viseu, Tondela e Santa Comba Dão.","cycle_network":"Ecopista"},"2624249":{"name":"Ecopista do Ramal de Famalicão","type":"route","route":"bicycle","network":"rcn"},"2639396":{"name":"Pista de Cicloturismo Guimarães-Fafe","type":"route","route":"bicycle","network":"rcn"},"2762339":{"ref":"EV1","name":"Eurovelo 1 - Atlantic Coast Route - part Portugal","type":"superroute","route":"bicycle","colour":"#beb92a","name:cs":"Eurovelo 1 - Trasa po pobřeží Atlantiku - sekce Portugalsko","name:de":"Eurovelo 1 - Atlantikküsten-Route - teil Portugal","name:en":"Eurovelo 1 - Atlantic Coast Route - part Portugal","name:es":"Eurovelo 1 - Ruta Costa Atlántica - parte Portugal","name:fi":"Eurovelo 1 - Atlantin rannikkoreitti - osa Portugali","name:fr":"Eurovelo 1 - Route du littoral Atlantique - tronçon Portugal","name:hu":"Eurovelo 1 - Atlanti parti útvonal - rész Portugália","name:it":"Eurovelo 1 - Itinerario Atlantico del Litorale - parte Portogallo","name:nl":"EuroVelo 1 - Atlantische Kustroute - deel Portugal","name:pl":"Eurovelo 1 - Szlak Wybrzeża Atlantyku - część Portugalia","name:pt":"Eurovelo 1 - Rota da Costa Atlântica - parte Portugal","name:sk":"Eurovelo 1 - Trasa po pobreží Atlantiku - sekcia Portugalsko","network":"icn","website":"https://euroveloportugal.com/","wikipedia":"en:EV1 The Atlantic Coast Route","description":"ncn portuguese part of icn eurovelo","osmc:symbol":":blue:yellow_circle:1:white","wiki:symbol":"E_1_sign.jpg","cycle_network":"EuroVelo"},"2764095":{"name":"portalegre-elvas","type":"route","route":"bicycle","network":"ncn"},"2885389":{"ref":"Gira","name":"Rede ciclável de Lisboa","note":"Segue organização da CML em \\\"Gira - Bicicletas de Lisboa\\\" e deverá harmonizar com https://www.cicloviaslx.com de iniciativa não oficial.","type":"superroute","route":"bicycle","network":"rcn","website":"https://www.gira-bicicletasdelisboa.pt","old_name":"Ciclovias de Lisboa","operator":"CML"},"3218896":{"ref":"Ecovia 11","name":"Ecovia 11 (Lisboa - Badajoz)","type":"route","route":"bicycle","network":"ncn"},"3229122":{"name":"Cacilhas - Cova da Piedade - Museu da Cidade - Parque da Paz","type":"route","route":"bicycle","network":"lcn"},"3229123":{"name":"Parque da Paz - Almada Forúm","type":"route","route":"bicycle","network":"lcn"},"3229644":{"name":"Costa de Caparica - Trafaria","type":"route","route":"bicycle","network":"lcn"},"3611529":{"ref":"VDT","foot":"designated","name":"Ecopista da Linha do Tâmega","type":"route","route":"bicycle","bicycle":"designated","network":"rcn","cycleway":"track","cycle_network":"Rede_Europeia_de_Vias_Verdes"},"3810112":{"name":"Ciclovias do Metro Sul do Tejo","type":"route","route":"bicycle","network":"lcn"},"3810121":{"name":"Ciclovias do Passeio Ribeirinho da Baía do Seixal","type":"route","route":"bicycle","network":"lcn"},"3810145":{"name":"Ciclovia da Quinta da Trindade","type":"route","route":"bicycle","network":"lcn"},"5404630":{"name":"Ecopista do Rio Minho","type":"route","route":"bicycle","source":"www.ciclovia.pt","network":"rcn","roundtrip":"no"},"5406819":{"ref":"COR","name":"Ecovia Internacional do Tâmega e do Corgo","type":"route","route":"bicycle","source":"www.ciclovia.pt","network":"rcn","cycle_network":"Ecopista"},"5409518":{"name":"Ecovia do Rio Lima - Percurso das Lagoas","type":"route","route":"bicycle","source":"www.ciclovia.pt","network":"rcn","surface":"compacted"},"5409520":{"name":"Ecovia do Rio Lima - Percurso dos Açudes","type":"route","route":"bicycle","source":"www.ciclovia.pt","network":"rcn","surface":"compacted"},"5409534":{"name":"Ecovia da Laranja","type":"route","route":"bicycle","source":"www.ciclovia.pt","network":"rcn","operator":"Município de Ponte de Lima"},"5409680":{"name":"Ecovia do Rio Lima - Percurso da Laranja","type":"route","route":"bicycle","source":"www.ciclovia.pt","network":"rcn"},"5428380":{"name":"Ecopista do Vouga","type":"route","route":"bicycle","source":"www.ciclovia.pt;www.ippatrimonio.pt","network":"rcn"},"5697410":{"ref":"FX-C-FX","name":"Funchal-Cancela-Funchal","type":"route","route":"bicycle","network":"lcn","roundtrip":"yes"},"5715681":{"name":"Ecovia do Rio Vez","type":"route","route":"bicycle","source":"survey","network":"rcn","surface":"compacted"},"6196888":{"name":"Estrada Atlântica","type":"route","route":"bicycle","network":"rcn"},"6394659":{"name":"XCO Rio de Mouro","type":"route","route":"bicycle","network":"lcn","operator":"Junta de Freguesia de Rio de Mouro"},"6538791":{"ref":"ECV","name":"Ecovia do Rio Vez","type":"route","route":"bicycle","source":"survey","network":"rcn"},"6926092":{"ref":"EdL","name":"Ecopista do Lena","type":"route","route":"bicycle","network":"lcn"},"6949874":{"ref":"MOR","name":"Ecopista Ramal de Mora","type":"route","route":"bicycle","network":"rcn","website":"https://www.ciclovia.pt/ciclovias/4alentejo/2evora/rmora/rmora.php","cycle_network":"Ecopista"},"7166904":{"name":"Pista Azul","type":"route","route":"bicycle","network":"lcn","cycle_network":"Pista_Internacional_de_XCO_do_Jamor"},"7167052":{"name":"Pista Azul","type":"route","route":"bicycle","network":"lcn","cycle_network":"Pista_Internacional_de_XCO_do_Jamor"},"7167053":{"name":"Pista Preta","type":"route","route":"bicycle","network":"lcn","cycle_network":"Pista_Internacional_de_XCO_do_Jamor"},"7245648":{"foot":"official","name":"Linha da Praia (Furadouro <-> Esmoriz)","type":"route","horse":"no","route":"bicycle","bicycle":"official","network":"rcn","cycle_network":"Cicloria"},"7276082":{"name":"Linha Transversal","type":"route","route":"bicycle","network":"rcn","cycle_network":"Cicloria"},"7276083":{"name":"Linha Nascente","type":"route","route":"bicycle","network":"rcn","cycle_network":"Cicloria"},"7327863":{"name":"Ecovia del Tamega","type":"route","route":"bicycle","network":"rcn"},"7624861":{"ref":"Gira","name":"Corredor Verde Monsanto-Parque Eduardo VII","type":"route","route":"bicycle","network":"lcn","website":"http://www.cm-lisboa.pt/equipamentos/equipamento/info/centro-de-interpretacao-de-monsanto","distance":"2.3","operator":"CML"},"7644585":{"ref":"CRA","name":"Ciclovia Ribeirinha de Algés","type":"route","route":"bicycle","ascent":"0","descent":"0","network":"lcn","website":"http://www.ciclovia.pt/ciclovias/3lisboa/1lisboa/oeiras/o33010906.php","distance":"1.016","operator":"Município de Oeiras","roundtrip":"no","description":"A Ciclovia percorre a orla ribeirinha entre a Cruz Quebrada e Algés, sempre a Sul da linha do comboio."},"7644621":{"ref":"PMCC","name":"Ciclovia do Passeio Marítimo Caxias/Cruz Quebrada","type":"route","route":"bicycle","ascent":"0","descent":"0","network":"lcn","website":"http://www.ciclovia.pt/ciclovias/3lisboa/1lisboa/oeiras/o33010905.php","distance":"1.553","operator":"Município de Oeiras","roundtrip":"no","description":"Percurso ao longo do paredão de Oeiras que se desenvolve entre a marginal marítima e a linha do comboio."},"7644629":{"ref":"CQG","name":"Ciclovia da Rua da Quinta Grande","type":"route","route":"bicycle","ascent":"0","descent":"0","network":"lcn","website":"http://www.ciclovia.pt/ciclovias/3lisboa/1lisboa/oeiras/o33010903.php","alt_name":"Ciclovia da Quinta Grande","distance":"0.384","operator":"Município de Oeiras","roundtrip":"no","description":"Percorre toda a Rua da Quinta Grande servindo de ligação suave entre o centro histórico de Oeiras e a zona residencial Nova Oeiras."},"7644722":{"ref":"CNO","name":"Ciclovia de Nova Oeiras","type":"route","route":"bicycle","ascent":"0","descent":"0","network":"lcn","website":"http://www.ciclovia.pt/ciclovias/3lisboa/1lisboa/oeiras/o33010902.php","distance":"1.449","operator":"Município de Oeiras","roundtrip":"yes","description":"Percorre toda a Alameda Conde de Oeiras criando, assim, um Percurso circular."},"7644723":{"ref":"CQM","name":"Ciclovia da Quinta do Marquês","type":"route","route":"bicycle","ascent":"0","descent":"0","network":"lcn","website":"http://www.ciclovia.pt/ciclovias/3lisboa/1lisboa/oeiras/o33010901.php","distance":"0.675","operator":"Município de Oeiras","roundtrip":"no","description":"Situa-se na zona residencial da Quinta do Marquês, servindo de ligação entre o bairro e as escolas da Quinta do Marquês e o bairro e a Ciclovia de Nova Oeiras."},"7644882":{"ref":"PUM","name":"Ciclovia do Parque Urbano de Miraflores","type":"route","route":"bicycle","ascent":"0","descent":"0","network":"lcn","website":"http://www.ciclovia.pt/ciclovias/3lisboa/1lisboa/oeiras/o33010907.php","distance":"0.687","operator":"Município de Oeiras","roundtrip":"no","description":"Trata-se de duas Ciclovias, uma na Avenida dos Bombeiros Voluntários de Algés, e outra que atravessa todo o Parque Urbano de Miraflores, servindo de ligação entre o Pavilhão Desportivo de Algés e o Parque Urbano."},"7644939":{"ref":"CPCQ","name":"Ciclovia do Pavilhão Carlos Queiroz","type":"route","route":"bicycle","ascent":"0","descent":"0","network":"lcn","distance":"0.162","operator":"Município de Oeiras","roundtrip":"no","description":"Pequena Ciclovia que atravessa todo o Complexo Desportivo Carlos Queiroz."},"7645050":{"ref":"EVR","foot":"yes","name":"Ecopista da Várzea da Rainha","type":"route","route":"bicycle","network":"lcn","website":"https://www.ciclovia.pt/ciclovias/2centro/6leiria/obidos/oevrainha.php","distance":"15.63","operator":"Município de Óbidos","roundtrip":"no","description":"Percurso de Natureza, em piso de terra batida, caracterizado pela proximidade ao Rio e à Lagoa de Óbidos, ligando a Vila à Várzea da Rainha."},"7794553":{"name":"Ciclovia Avenida Conde de Riba D'ave","type":"route","route":"bicycle","network":"cmc","operator":"Município de Cascais"},"7892729":{"name":"Ciclovia Peniche Baleal","type":"route","route":"bicycle","network":"lcn"},"7930377":{"ref":"CDR2","name":"Ciclovia da Lagoa de Óbidos","type":"route","route":"bicycle","source":"http://www.ciclovia.pt","network":"lcn","route_1":"hiking","distance":"3.92","description":"Esta Ciclovia contorna toda a margem Norte da Lagoa de Óbidos, unindo a Foz do Arelho ao Nadadouro através da Rua do Penedo Furado. Todo o percurso está devidamente separado da zona de circulação rodoviária. Este percurso pode ser percorrido tanto a pé c","osmc:symbol":"verde: branco: yellow_bar:2:Preto"},"7930702":{"ref":"CDR1","foot":"yes","name":"Ciclovia das Caldas da Rainha","type":"route","route":"bicycle","source":"http://www.ciclovia.pt/ciclovias/2centro/6leiria/crainha/crcaldas.html","network":"lcn","route_1":"foot","distance":"6.54","description":"Ciclovia que liga o centro urbano da cidade à Foz do Arelho e às praias. Segue paralela à Avª Infante D. Henrique e à Variante Atlântica, através de uma zona arborizada. Todo o Percurso está segregado da via automóvel através de um lancil de cimento, com","osmc:symbol":"verde: branco: yellow_bar:1:Preto"},"7932780":{"ref":"ALC 1","name":"Ciclovia da Marginal de S. Martinho do Porto.","type":"route","route":"bicycle","bicycle":"designated","network":"lcn","osmc:symbol":"verde: branco: yellow_bar:1:Vermelho"},"7936297":{"ref":"CRD3","foot":"yes","name":"Ciclovia da Estrada Atlântica","type":"route","route":"bicycle","source":"http://www.ciclovia.pt/ciclovias/2centro/6leiria/crainha/creatlantica.html","network":"lcn","distance":"8","description":"Esta é uma Ciclovia inserida na Marginal marítima e que percorre toda a Estrada Atlântica, desde a Foz do Arelho até Salir do Porto, com surpreendentes enfiamentos paisagísticos para o mar (Berlengas). Consiste numa Banda Ciclável, no lado poente da via,","osmc:symbol":"verde: branco: yellow_bar:3:Preto"},"8197279":{"name":"Ciclovias do Cartaxo","type":"route","route":"bicycle","network":"lcn"},"8318648":{"to":"Figueira da Foz","ref":"EV1","from":"Praia de Vieira","name":"EuroVelo 1 - Atlantic Coast Route - part Portugal 14","type":"route","route":"bicycle","colour":"#beb92a","source":"https://euroveloportugal.com/en/route/eurovelo1/section-14","name:cs":"EuroVelo 1 - Trasa po pobřeží Atlantiku - sekce Portugalsko 14","name:de":"EuroVelo 1 - Atlantikküsten-Route - teil Portugal 14","name:en":"EuroVelo 1 - Atlantic Coast Route - part Portugal 14","name:es":"EuroVelo 1 - Ruta Costa Atlántica - parte Portugal 14","name:fi":"EuroVelo 1 - Atlantin rannikkoreitti - osa Portugali 14","name:fr":"EuroVelo 1 - Route du littoral Atlantique - tronçon Portugal 14","name:hu":"EuroVelo 1 - Atlanti parti útvonal - rész Portugália 14","name:it":"EuroVelo 1 - Itinerario Atlantico del Litorale - parte Portogallo 14","name:nl":"EuroVelo 1 - Atlantische Kustroute - deel Portugal 14","name:pl":"EuroVelo 1 - Szlak Wybrzeża Atlantyku - część Portugalia 14","name:pt":"EuroVelo 1 - Rota da Costa Atlântica - parte Portugal 14","name:sk":"EuroVelo 1 - Trasa po pobreží Atlantiku - sekcia Portugalsko 14","network":"icn","wikidata":"Q3060531","wikipedia":"en:EV1 The Atlantic Coast Route","osmc:symbol":":blue:blue:EV1:white","wiki:symbol":"E_1_sign.jpg","cycle_network":"EuroVelo"},"8362380":{"ref":"Gira","name":"Ciclovia Parque Quinta da Granja - Telheiras","note":"Segue organização da CML em \\\"Gira - Bicicletas de Lisboa\\\"","type":"route","route":"bicycle","network":"lcn","website":"https://www.gira-bicicletasdelisboa.pt","operator":"CML"},"8362414":{"ref":"Gira","name":"Ciclovia Telheiras","note":"Segue organização da CML em \\\"Gira - Bicicletas de Lisboa\\\"","type":"route","route":"bicycle","network":"lcn","website":"https://www.gira-bicicletasdelisboa.pt","operator":"CML"},"8362580":{"ref":"Gira","name":"Ciclovia Telheiras - Campo Grande","note":"Segue organização da CML em \\\"Gira - Bicicletas de Lisboa\\\"","type":"route","route":"bicycle","network":"lcn","website":"https://www.gira-bicicletasdelisboa.pt","operator":"CML"},"8362623":{"ref":"Gira","name":"Ciclovia Telheiras - Campo Grande (via Cidade Universitária)","note":"Segue organização da CML em \\\"Gira - Bicicletas de Lisboa\\\"","type":"route","route":"bicycle","network":"lcn","website":"https://www.gira-bicicletasdelisboa.pt","operator":"CML"},"8362648":{"ref":"Gira","name":"Ciclovia Corredor Central Bensaúde-Belavista","note":"Segue organização da CML em \\\"Gira - Bicicletas de Lisboa\\\"","type":"route","route":"bicycle","network":"lcn","website":"https://www.gira-bicicletasdelisboa.pt","operator":"CML"},"8362720":{"ref":"Gira","name":"Ciclovia Ponte Ciclopedonal sobre a 2ª Circular","note":"Segue organização da CML em \\\"Gira - Bicicletas de Lisboa\\\"","type":"route","route":"bicycle","network":"lcn","website":"https://www.gira-bicicletasdelisboa.pt","operator":"CML"},"8363018":{"ref":"Gira","name":"Ciclovia Rua António Quadros - Telheiras","note":"Segue organização da CML em \\\"Gira - Bicicletas de Lisboa\\\"","type":"route","route":"bicycle","network":"lcn","website":"https://www.gira-bicicletasdelisboa.pt","operator":"CML"},"8363162":{"ref":"Gira","name":"Ciclovia Parque Quinta da Granja","note":"Segue organização da CML em \\\"Gira - Bicicletas de Lisboa\\\"","type":"route","route":"bicycle","network":"lcn","website":"https://www.gira-bicicletasdelisboa.pt","operator":"CML"},"8363332":{"ref":"Gira","name":"Ciclovia Parque Quinta da Granja - Parque Quinta Mata Mouros","note":"Segue organização da CML em \\\"Gira - Bicicletas de Lisboa\\\"","type":"route","route":"bicycle","network":"lcn","website":"https://www.gira-bicicletasdelisboa.pt","operator":"CML"},"8363979":{"ref":"Gira","name":"Ciclovia Parque Florestal de Monsanto - Quinta da Granja","note":"Segue organização da CML em \\\"Gira - Bicicletas de Lisboa\\\"","type":"route","route":"bicycle","network":"lcn","website":"https://www.gira-bicicletasdelisboa.pt","operator":"CML"},"8364018":{"ref":"Gira","name":"Ciclovia Avenida Prof. Francisco da Gama Caeiro","note":"Segue organização da CML em \\\"Gira - Bicicletas de Lisboa\\\"","type":"route","route":"bicycle","network":"lcn","website":"https://www.gira-bicicletasdelisboa.pt","operator":"CML"},"8364025":{"ref":"Gira","name":"Ciclovia Avenida General Correia Barreto","note":"Segue organização da CML em \\\"Gira - Bicicletas de Lisboa\\\"","type":"route","route":"bicycle","network":"lcn","website":"https://www.gira-bicicletasdelisboa.pt","operator":"CML"},"8364050":{"ref":"Gira","name":"Ciclovia Avenida Calouste Gulbenkian - Praça de Espanha","note":"Segue organização da CML em \\\"Gira - Bicicletas de Lisboa\\\"","type":"route","route":"bicycle","network":"lcn","website":"https://www.gira-bicicletasdelisboa.pt","operator":"CML"},"8364067":{"ref":"Gira","name":"Ciclovia Rua Marquês de Fronteira","note":"Segue organização da CML em \\\"Gira - Bicicletas de Lisboa\\\"","type":"route","route":"bicycle","network":"lcn","website":"https://www.gira-bicicletasdelisboa.pt","operator":"CML"},"8364072":{"ref":"Gira","name":"Ciclovia Rua Latino Coelho","note":"Segue organização da CML em \\\"Gira - Bicicletas de Lisboa\\\"","type":"route","route":"bicycle","network":"lcn","website":"https://www.gira-bicicletasdelisboa.pt","operator":"CML"},"8364073":{"ref":"Gira","name":"Ciclovia Rua Pinheiro Chagas","note":"Segue organização da CML em \\\"Gira - Bicicletas de Lisboa\\\"","type":"route","route":"bicycle","network":"lcn","website":"https://www.gira-bicicletasdelisboa.pt","operator":"CML"},"8364079":{"ref":"Gira","name":"Ciclovia Avenida Duque de Ávila","note":"Segue organização da CML em \\\"Gira - Bicicletas de Lisboa\\\"","type":"route","route":"bicycle","network":"lcn","website":"https://www.gira-bicicletasdelisboa.pt","operator":"CML"},"8364083":{"ref":"Gira","name":"Ciclovia Avenida Rovisco Pais","note":"Segue organização da CML em \\\"Gira - Bicicletas de Lisboa\\\"","type":"route","route":"bicycle","network":"lcn","website":"https://www.gira-bicicletasdelisboa.pt","operator":"CML"},"8364086":{"ref":"Gira","name":"Ciclovia Avenida Praia da Vitória","note":"Segue organização da CML em \\\"Gira - Bicicletas de Lisboa\\\"","type":"route","route":"bicycle","network":"lcn","website":"https://www.gira-bicicletasdelisboa.pt","operator":"CML"},"8364108":{"ref":"Gira","name":"Ciclovia Parque Eduardo VII","note":"Segue organização da CML em \\\"Gira - Bicicletas de Lisboa\\\"","type":"route","route":"bicycle","network":"lcn","website":"https://www.gira-bicicletasdelisboa.pt","operator":"CML"},"8364151":{"ref":"Gira","name":"Ciclovia Avenida Visconde de Valmor","note":"Segue organização da CML em \\\"Gira - Bicicletas de Lisboa\\\"","type":"route","route":"bicycle","network":"lcn","website":"https://www.gira-bicicletasdelisboa.pt","operator":"CML"},"8364155":{"ref":"Gira","name":"Ciclovia Avenida Magalhães Lima","note":"Segue organização da CML em \\\"Gira - Bicicletas de Lisboa\\\"","type":"route","route":"bicycle","network":"lcn","website":"https://www.gira-bicicletasdelisboa.pt","operator":"CML"},"8364157":{"ref":"Gira","name":"Ciclovia Rua Bacelar e Silva","note":"Segue organização da CML em \\\"Gira - Bicicletas de Lisboa\\\"","type":"route","route":"bicycle","network":"lcn","website":"https://www.gira-bicicletasdelisboa.pt","operator":"CML"},"8364158":{"ref":"Gira","name":"Ciclovia Avenida Elias Garcia","note":"Segue organização da CML em \\\"Gira - Bicicletas de Lisboa\\\"","type":"route","route":"bicycle","network":"lcn","website":"https://www.gira-bicicletasdelisboa.pt","operator":"CML"},"8364160":{"ref":"Gira","name":"Ciclovia Avenida Barbosa do Bocage","note":"Segue organização da CML em \\\"Gira - Bicicletas de Lisboa\\\"","type":"route","route":"bicycle","network":"lcn","website":"https://www.gira-bicicletasdelisboa.pt","operator":"CML"},"8364164":{"ref":"Gira","name":"Ciclovia Avenida António Serpa","note":"Segue organização da CML em \\\"Gira - Bicicletas de Lisboa\\\"","type":"route","route":"bicycle","network":"lcn","website":"https://www.gira-bicicletasdelisboa.pt","operator":"CML"},"8364168":{"ref":"Gira","name":"Ciclovia Rua Filipe da Mata","note":"Segue organização da CML em \\\"Gira - Bicicletas de Lisboa\\\"","type":"route","route":"bicycle","network":"lcn","website":"https://www.gira-bicicletasdelisboa.pt","operator":"CML"},"8364170":{"ref":"Gira","name":"Ciclovia Estrada das Laranjeiras","note":"Segue organização da CML em \\\"Gira - Bicicletas de Lisboa\\\"","type":"route","route":"bicycle","network":"lcn","website":"https://www.gira-bicicletasdelisboa.pt","operator":"CML"},"8375829":{"ref":"Gira","name":"Ciclovia Vale do Silêncio","note":"Segue organização da CML em \\\"Gira - Bicicletas de Lisboa\\\"","type":"route","route":"bicycle","network":"lcn","website":"https://www.gira-bicicletasdelisboa.pt","operator":"CML"},"8375843":{"ref":"Gira","name":"Ciclovia Avenida Doutor Francisco Luís Gomes","note":"Segue organização da CML em \\\"Gira - Bicicletas de Lisboa\\\"","type":"route","route":"bicycle","network":"lcn","website":"https://www.gira-bicicletasdelisboa.pt","operator":"CML"},"8375883":{"ref":"Gira","name":"Ciclovia Alameda das Comunidades Portuguesas","note":"Segue organização da CML em \\\"Gira - Bicicletas de Lisboa\\\"","type":"route","route":"bicycle","network":"lcn","website":"https://www.gira-bicicletasdelisboa.pt","operator":"CML"},"8375884":{"ref":"Gira","name":"Ciclovia Avenida Cidade do Porto","note":"Segue organização da CML em \\\"Gira - Bicicletas de Lisboa\\\"","type":"route","route":"bicycle","network":"lcn","website":"https://www.gira-bicicletasdelisboa.pt","operator":"CML"},"8375888":{"ref":"Gira","name":"Ciclovia Pardal Monteiro","note":"Segue organização da CML em \\\"Gira - Bicicletas de Lisboa\\\"","type":"route","route":"bicycle","network":"lcn","website":"https://www.gira-bicicletasdelisboa.pt","operator":"CML"},"8375918":{"ref":"Gira","name":"Ciclovia Quinta da Graça","note":"Segue organização da CML em \\\"Gira - Bicicletas de Lisboa\\\"","type":"route","route":"bicycle","network":"lcn","website":"https://www.gira-bicicletasdelisboa.pt","operator":"CML"},"8375960":{"ref":"Gira","name":"Ciclovia Marvila","note":"Segue organização da CML em \\\"Gira - Bicicletas de Lisboa\\\"","type":"route","route":"bicycle","network":"lcn","website":"https://www.gira-bicicletasdelisboa.pt","operator":"CML"},"8375979":{"ref":"Gira","name":"Ciclovia Corredor Verde Oriental","note":"Segue organização da CML em \\\"Gira - Bicicletas de Lisboa\\\"","type":"route","route":"bicycle","network":"lcn","website":"https://www.gira-bicicletasdelisboa.pt","operator":"CML"},"8375994":{"ref":"Gira","name":"Ciclovia Quinta do Alemão/Parque Bela Vista","note":"Segue organização da CML em \\\"Gira - Bicicletas de Lisboa\\\"","type":"route","route":"bicycle","network":"lcn","website":"https://www.gira-bicicletasdelisboa.pt","operator":"CML"},"8376003":{"ref":"Gira","name":"Ciclovia Parque Belavista","note":"Segue organização da CML em \\\"Gira - Bicicletas de Lisboa\\\"","type":"route","route":"bicycle","network":"lcn","website":"https://www.gira-bicicletasdelisboa.pt","operator":"CML"},"8376015":{"ref":"Gira","name":"Ciclovia Parque Belavista","note":"Segue organização da CML em \\\"Gira - Bicicletas de Lisboa\\\"","type":"route","route":"bicycle","network":"lcn","website":"https://www.gira-bicicletasdelisboa.pt","operator":"CML"},"8376024":{"ref":"Gira","name":"Ciclovia Ponte da Belavista","note":"Segue organização da CML em \\\"Gira - Bicicletas de Lisboa\\\"","type":"route","route":"bicycle","network":"lcn","website":"https://www.gira-bicicletasdelisboa.pt","operator":"CML"},"8376027":{"ref":"Gira","name":"Ciclovia Parque Belavista/Quinta da Montanha (Olaias)","note":"Segue organização da CML em \\\"Gira - Bicicletas de Lisboa\\\"","type":"route","route":"bicycle","network":"lcn","website":"https://www.gira-bicicletasdelisboa.pt","operator":"CML"},"8376029":{"ref":"Gira","name":"Ciclovia Quinta da Montanha","note":"Segue organização da CML em \\\"Gira - Bicicletas de Lisboa\\\"","type":"route","route":"bicycle","network":"lcn","website":"https://www.gira-bicicletasdelisboa.pt","operator":"CML"},"8376052":{"ref":"Gira","name":"Ciclovia Avenida Frei Miguel Contreiras","note":"Segue organização da CML em \\\"Gira - Bicicletas de Lisboa\\\"","type":"route","route":"bicycle","network":"lcn","website":"https://www.gira-bicicletasdelisboa.pt","operator":"CML"},"8376063":{"ref":"Gira","name":"Ciclovia Avenida Sacadura Cabral","note":"Segue organização da CML em \\\"Gira - Bicicletas de Lisboa\\\"","type":"route","route":"bicycle","network":"lcn","website":"https://www.gira-bicicletasdelisboa.pt","operator":"CML"},"8376070":{"ref":"Gira","name":"Ciclovia Rua Brito Aranha","note":"Segue organização da CML em \\\"Gira - Bicicletas de Lisboa\\\"","type":"route","route":"bicycle","network":"lcn","website":"https://www.gira-bicicletasdelisboa.pt","operator":"CML"},"8376368":{"ref":"Gira","name":"Ciclovia Avenida do Brasil","note":"Segue organização da CML em \\\"Gira - Bicicletas de Lisboa\\\"","type":"route","route":"bicycle","network":"lcn","website":"https://www.gira-bicicletasdelisboa.pt","operator":"CML"},"8376375":{"ref":"Gira","name":"Ciclovia Rua das Murtas","note":"Segue organização da CML em \\\"Gira - Bicicletas de Lisboa\\\"","type":"route","route":"bicycle","network":"lcn","website":"https://www.gira-bicicletasdelisboa.pt","operator":"CML"},"8376385":{"ref":"Gira","name":"Ciclovia Rotunda da Porta Sul","note":"Segue organização da CML em \\\"Gira - Bicicletas de Lisboa\\\"","type":"route","route":"bicycle","network":"lcn","website":"https://www.gira-bicicletasdelisboa.pt","operator":"CML"},"8376398":{"ref":"Gira","name":"Ciclovia Eixo Central","note":"Segue organização da CML em \\\"Gira - Bicicletas de Lisboa\\\"","type":"route","route":"bicycle","network":"lcn","website":"https://www.gira-bicicletasdelisboa.pt","operator":"CML"},"8376472":{"ref":"Gira","name":"Ciclovia Parque Quinta Mata Mouros - Parque Quinta das Conchas","note":"Segue organização da CML em \\\"Gira - Bicicletas de Lisboa\\\"","type":"route","route":"bicycle","network":"lcn","website":"https://www.gira-bicicletasdelisboa.pt","operator":"CML"},"8376482":{"ref":"Gira","name":"Ciclovia Avenida Guerra Junqueiro","note":"Segue organização da CML em \\\"Gira - Bicicletas de Lisboa\\\"","type":"route","route":"bicycle","network":"lcn","website":"https://www.gira-bicicletasdelisboa.pt","operator":"CML"},"8376509":{"ref":"Gira","name":"Ciclovia Acesso à Ponte da Belavista","note":"Segue organização da CML em \\\"Gira - Bicicletas de Lisboa\\\"","type":"route","route":"bicycle","network":"lcn","website":"https://www.gira-bicicletasdelisboa.pt","operator":"CML"},"8376527":{"ref":"Gira","name":"Ciclovia Rua João Amaral","note":"Segue organização da CML em \\\"Gira - Bicicletas de Lisboa\\\"","type":"route","route":"bicycle","network":"lcn","website":"https://www.gira-bicicletasdelisboa.pt","operator":"CML"},"8381931":{"ref":"CDR5","name":"Ciclovia de Chão de Parada.","type":"route","route":"bicycle","source":"http://www.ciclovia.pt/ciclovias/2centro/6leiria/crainha/crcparada.html","network":"lcn","route_1":"hiking","distance":"2.16","roundtrip":"no","description":"Esta Ciclovia transporta os utilizadores desde a localidade de Chão de Parada até ao Apeadeiro da CP de Salir do Porto.  Consiste numa Banda Ciclável, separada da via rodoviária através de um traço contínuo branco, que se estende ao longo da Estrada Princ","osmc:symbol":"verde: branco: yellow_bar:3:Preto"},"8382153":{"ref":"CDR4","name":"Ciclovia de S. Martinho do Porto","type":"route","route":"bicycle","source":"http://www.ciclovia.pt/ciclovias/2centro/6leiria/crainha/crsmartinho.html","network":"lcn","route_1":"hiking","distance":"1.54","roundtrip":"no","description":"Com quase um quilómetro e meio, esta Ciclovia consiste num extenso passadiço de madeira, que \\\"sobrevoa\\\" o areal, protegendo assim as dunas da baía de S. Martinho do Porto.                                                                                                                                                                                                                                                                                                                                                                                                                                                                                                                                                                                                                                                                                                                                                                                                                                                                                                                                                                                                                                                                                                                                                                        "},"8397520":{"ref":"ACB 2","name":"Ciclovia Atlântica","type":"route","route":"bicycle","network":"lcn","osmc:symbol":"verde: branco: yellow_bar:2:Vermelho"},"8400302":{"ref":"Gira","name":"Ciclovia Alameda da Universidade","note":"Segue organização da CML em \\\"Gira - Bicicletas de Lisboa\\\"","type":"route","route":"bicycle","network":"lcn","website":"https://www.gira-bicicletasdelisboa.pt","operator":"CML"},"8400303":{"ref":"Gira","name":"Faixa Ciclável Rua Branca Edmée Marques","type":"route","route":"bicycle","network":"lcn","website":"https://www.gira-bicicletasdelisboa.pt","operator":"CML"},"8400388":{"ref":"Gira","name":"Ciclovia Avenida Ressano Garcia","note":"Segue organização da CML em \\\"Gira - Bicicletas de Lisboa\\\"","type":"route","route":"bicycle","network":"lcn","website":"https://www.gira-bicicletasdelisboa.pt","operator":"CML"},"8410116":{"to":"Peniche","ref":"EV1","from":"Santa Cruz","name":"EuroVelo 1 - Atlantic Coast Route - part Portugal 11","type":"route","route":"bicycle","colour":"#beb92a","source":"https://euroveloportugal.com/en/route/eurovelo1/section-11","name:cs":"EuroVelo 1 - Trasa po pobřeží Atlantiku - sekce Portugalsko 11","name:de":"EuroVelo 1 - Atlantikküsten-Route - teil Portugal 11","name:en":"EuroVelo 1 - Atlantic Coast Route - part Portugal 11","name:es":"EuroVelo 1 - Ruta Costa Atlántica - parte Portugal 11","name:fi":"EuroVelo 1 - Atlantin rannikkoreitti - osa Portugali 11","name:fr":"EuroVelo 1 - Route du littoral Atlantique - tronçon Portugal 11","name:hu":"EuroVelo 1 - Atlanti parti útvonal - rész Portugália 11","name:it":"EuroVelo 1 - Itinerario Atlantico del Litorale - parte Portogallo 11","name:nl":"EuroVelo 1 - Atlantische Kustroute - deel Portugal 11","name:pl":"EuroVelo 1 - Szlak Wybrzeża Atlantyku - część Portugalia 11","name:pt":"EuroVelo 1 - Rota da Costa Atlântica - parte Portugal 11","name:sk":"EuroVelo 1 - Trasa po pobreží Atlantiku - sekcia Portugalsko 11","network":"icn","wikidata":"Q3060531","wikipedia":"en:EV1 The Atlantic Coast Route","description":"Em Santa Cruz está localizada uma praia, com o mesmo nome, com um extenso areal, de cor clara e formações rochosas que fazem dela uma estância balnear muito procurada. No extremo sul, as arribas da Ponta da Vigia dão início a um conjunto de rochedos onde","osmc:symbol":":blue:blue:EV1:white","wiki:symbol":"E_1_sign.jpg","cycle_network":"EuroVelo"},"8620278":{"name":"Rota Ocidental","type":"route","route":"bicycle","network":"lcn","website":"https://trilhos.arcosdevaldevez.pt/activities/rota-ocidental/","description":"O percurso inicia-se na vila de Arcos de Valdevez e percorre a zona ocidental do concelho, onde pode observar o património histórico e absorver a cultura destes lugares."},"8700784":{"ref":"EM","name":"Eixos principais CML - Eixo Marginal","note":"Segue organização da CML em \\\"Gira - Bicicletas de Lisboa\\\"","type":"route","route":"bicycle","network":"lcn","website":"https://www.gira-bicicletasdelisboa.pt/","operator":"CML"},"8850211":{"name":"Ciclovia Consolação-Peniche","type":"route","route":"bicycle","network":"lcn"},"9155296":{"ref":"CIMA PO14","name":"[CIMA PO14] San Nomedio","type":"route","route":"bicycle","ascent":"634","source":"https://retocima.es","network":"ncn","distance":"11.7","operator":"CIMA","mtb:scale:apm":"157"},"9157144":{"ref":"CIMA PO13-1","name":"[CIMA PO13] A Paradanta * Río Deva","type":"route","route":"bicycle","ascent":"875","source":"https://retocima.es","network":"ncn","distance":"16.7","operator":"CIMA","mtb:scale:apm":"174"},"9166105":{"apm":"269","ref":"CIMA PR20-2","name":"[CIMA PR20] Portelinha * Melgaço","type":"route","route":"bicycle","ascent":"979","source":"http://retocima.webcindario.com","network":"ncn","distance":"21.6","operator":"CIMA"},"9166566":{"apm":"224","ref":"CIMA PR20-1","name":"[CIMA PR20] Portelinha * Sá / Sa Gregorio","type":"route","route":"bicycle","ascent":"953","source":"http://retocima.webcindario.com","network":"ncn","distance":"15.4","operator":"CIMA"},"9169552":{"apm":"194","ref":"CIMA PR19-1","name":"[CIMA PR19] Santo António * Riba de Mouro","type":"route","route":"bicycle","ascent":"822","source":"http://retocima.webcindario.com","network":"ncn","distance":"14.3","operator":"CIMA"},"9169560":{"apm":"269","ref":"CIMA PR19-2","name":"[CIMA PR19] Santo António * Cela / Gave","type":"route","route":"bicycle","ascent":"724","source":"http://retocima.webcindario.com","network":"ncn","distance":"7","operator":"CIMA"},"9196412":{"name":"Ciclovias","type":"route","route":"bicycle","network":"lcn","cycle_network":"MUV_Bike"},"9359908":{"ref":"Gira","name":"Ciclovia Rua Fialho de Almeida","note":"Segue organização da CML em \\\"Gira - Bicicletas de Lisboa\\\"","type":"route","route":"bicycle","network":"lcn","website":"https://www.gira-bicicletasdelisboa.pt/","operator":"CML"},"9359967":{"ref":"Gira","name":"Faixa Ciclável Rua Professor António Flores","note":"Segue organização da CML em \\\"Gira - Bicicletas de Lisboa\\\"","type":"route","route":"bicycle","network":"lcn","website":"https://www.gira-bicicletasdelisboa.pt/","operator":"CML"},"9359984":{"ref":"Gira","name":"Ciclovia Avenida Cidade de Praga","note":"Segue organização da CML em \\\"Gira - Bicicletas de Lisboa\\\"","type":"route","route":"bicycle","network":"lcn","website":"https://www.gira-bicicletasdelisboa.pt/","operator":"CML"},"9369136":{"ref":"EAL","name":"Eixos principais CML - Eixo Alcântara-Luz","note":"Segue organização da CML em \\\"Gira - Bicicletas de Lisboa\\\"","type":"route","route":"bicycle","network":"lcn","website":"https://www.gira-bicicletasdelisboa.pt/","operator":"CML"},"9369319":{"ref":"Gira","name":"Ciclovia Avenida 24 de Julho","note":"Segue organização da CML em \\\"Gira - Bicicletas de Lisboa\\\"","type":"route","route":"bicycle","network":"lcn","website":"https://www.gira-bicicletasdelisboa.pt/","operator":"CML"},"9465841":{"ref":"Gira","name":"Ciclovia Avenida de Paris","note":"Segue organização da CML em \\\"Gira - Bicicletas de Lisboa\\\"","type":"route","route":"bicycle","network":"lcn","website":"https://www.gira-bicicletasdelisboa.pt","operator":"CML"},"9465848":{"ref":"Gira","name":"Ciclovia Rua Edison","note":"Segue organização da CML em \\\"Gira - Bicicletas de Lisboa\\\"","type":"route","route":"bicycle","network":"lcn","website":"https://www.gira-bicicletasdelisboa.pt","operator":"CML"},"9492161":{"to":"Santa Cruz","ref":"EV1","from":"Azenhas do Mar","name":"EuroVelo 1 - Atlantic Coast Route - part Portugal 10","type":"route","route":"bicycle","colour":"#beb92a","name:cs":"EuroVelo 1 - Trasa po pobřeží Atlantiku - sekce Portugalsko 10","name:de":"EuroVelo 1 - Atlantikküsten-Route - teil Portugal 10","name:en":"EuroVelo 1 - Atlantic Coast Route - part Portugal 10","name:es":"EuroVelo 1 - Ruta Costa Atlántica - parte Portugal 10","name:fi":"EuroVelo 1 - Atlantin rannikkoreitti - osa Portugali 10","name:fr":"EuroVelo 1 - Route du littoral Atlantique - tronçon Portugal 10","name:hu":"EuroVelo 1 - Atlanti parti útvonal - rész Portugália 10","name:it":"EuroVelo 1 - Itinerario Atlantico del Litorale - parte Portogallo 10","name:nl":"EuroVelo 1 - Atlantische Kustroute - deel Portugal 10","name:pl":"EuroVelo 1 - Szlak Wybrzeża Atlantyku - część Portugalia 10","name:pt":"EuroVelo 1 - Rota da Costa Atlântica - parte Portugal 10","name:sk":"EuroVelo 1 - Trasa po pobreží Atlantiku - sekcia Portugalsko 10","network":"icn","website":"https://euroveloportugal.com/en/route/eurovelo1/section-10","wikidata":"Q3060531","wikipedia":"en:EV1 The Atlantic Coast Route","osmc:symbol":":blue:blue:EV1:white","wiki:symbol":"E_1_sign.jpg","cycle_network":"EuroVelo"},"9520017":{"to":"Portimão","ref":"EV1","from":"Quinta do Lago","name":"EuroVelo 1 - Atlantic Coast Route - part Portugal 2","type":"route","route":"bicycle","colour":"#beb92a","name:cs":"EuroVelo 1 - Trasa po pobřeží Atlantiku - sekce Portugalsko 2","name:de":"EuroVelo 1 - Atlantikküsten-Route - teil Portugal 2","name:en":"EuroVelo 1 - Atlantic Coast Route - part Portugal 2","name:es":"EuroVelo 1 - Ruta Costa Atlántica - parte Portugal 2","name:fi":"EuroVelo 1 - Atlantin rannikkoreitti - osa Portugali 2","name:fr":"EuroVelo 1 - Route du littoral Atlantique - tronçon Portugal 2","name:hu":"EuroVelo 1 - Atlanti parti útvonal - rész Portugália 2","name:it":"EuroVelo 1 - Itinerario Atlantico del Litorale - parte Portogallo 2","name:nl":"EuroVelo 1 - Atlantische Kustroute - deel Portugal 2","name:pl":"EuroVelo 1 - Szlak Wybrzeża Atlantyku - część Portugalia 2","name:pt":"EuroVelo 1 - Rota da Costa Atlântica - parte Portugal 2","name:sk":"EuroVelo 1 - Trasa po pobreží Atlantiku - sekcia Portugalsko 2","network":"icn","website":"https://euroveloportugal.com/en/route/eurovelo1/section-02","wikipedia":"en:EV1 The Atlantic Coast Route","osmc:symbol":":blue:blue:EV1:white","wiki:symbol":"E_1_sign.jpg","cycle_network":"EuroVelo"},"9520054":{"to":"Setúbal","ref":"EV1","from":"Melides","name":"EuroVelo 1 - Atlantic Coast Route - part Portugal 7","type":"route","route":"bicycle","colour":"#beb92a","name:cs":"EuroVelo 1 - Trasa po pobřeží Atlantiku - sekce Portugalsko 7","name:de":"EuroVelo 1 - Atlantikküsten-Route - teil Portugal 7","name:en":"EuroVelo 1 - Atlantic Coast Route - part Portugal 7","name:es":"EuroVelo 1 - Ruta Costa Atlántica - parte Portugal 7","name:fi":"EuroVelo 1 - Atlantin rannikkoreitti - osa Portugali 7","name:fr":"EuroVelo 1 - Route du littoral Atlantique - tronçon Portugal 7","name:hu":"EuroVelo 1 - Atlanti parti útvonal - rész Portugália 7","name:it":"EuroVelo 1 - Itinerario Atlantico del Litorale - parte Portogallo 7","name:nl":"EuroVelo 1 - Atlantische Kustroute - deel Portugal 7","name:pl":"EuroVelo 1 - Szlak Wybrzeża Atlantyku - część Portugalia 7","name:pt":"EuroVelo 1 - Rota da Costa Atlântica - parte Portugal 7","name:sk":"EuroVelo 1 - Trasa po pobreží Atlantiku - sekcia Portugalsko 7","network":"icn","website":"https://euroveloportugal.com/en/route/eurovelo1/section-07","wikipedia":"en:EV1 The Atlantic Coast Route","osmc:symbol":":blue:blue:EV1:white","wiki:symbol":"E_1_sign.jpg","cycle_network":"EuroVelo"},"9520055":{"to":"Melides","ref":"EV1","from":"Vila Nova de Milfontes","name":"EuroVelo 1 - Atlantic Coast Route - part Portugal 6","type":"route","route":"bicycle","colour":"#beb92a","name:cs":"EuroVelo 1 - Trasa po pobřeží Atlantiku - sekce Portugalsko 6","name:de":"EuroVelo 1 - Atlantikküsten-Route - teil Portugal 6","name:en":"EuroVelo 1 - Atlantic Coast Route - part Portugal 6","name:es":"EuroVelo 1 - Ruta Costa Atlántica - parte Portugal 6","name:fi":"EuroVelo 1 - Atlantin rannikkoreitti - osa Portugali 6","name:fr":"EuroVelo 1 - Route du littoral Atlantique - tronçon Portugal 6","name:hu":"EuroVelo 1 - Atlanti parti útvonal - rész Portugália 6","name:it":"EuroVelo 1 - Itinerario Atlantico del Litorale - parte Portogallo 6","name:nl":"EuroVelo 1 - Atlantische Kustroute - deel Portugal 6","name:pl":"EuroVelo 1 - Szlak Wybrzeża Atlantyku - część Portugalia 6","name:pt":"EuroVelo 1 - Rota da Costa Atlântica - parte Portugal 6","name:sk":"EuroVelo 1 - Trasa po pobreží Atlantiku - sekcia Portugalsko 6","network":"icn","website":"https://euroveloportugal.com/en/route/eurovelo1/section-06","wikipedia":"en:EV1 The Atlantic Coast Route","osmc:symbol":":blue:blue:EV1:white","wiki:symbol":"E_1_sign.jpg","cycle_network":"EuroVelo"},"9520056":{"to":"Vila Nova de Milfontes","ref":"EV1","from":"Aljezur","name":"EuroVelo 1 - Atlantic Coast Route - part Portugal 5","type":"route","route":"bicycle","colour":"#beb92a","name:cs":"EuroVelo 1 - Trasa po pobřeží Atlantiku - sekce Portugalsko 5","name:de":"EuroVelo 1 - Atlantikküsten-Route - teil Portugal 5","name:en":"EuroVelo 1 - Atlantic Coast Route - part Portugal 5","name:es":"EuroVelo 1 - Ruta Costa Atlántica - parte Portugal 5","name:fi":"EuroVelo 1 - Atlantin rannikkoreitti - osa Portugali 5","name:fr":"EuroVelo 1 - Route du littoral Atlantique - tronçon Portugal 5","name:hu":"EuroVelo 1 - Atlanti parti útvonal - rész Portugália 5","name:it":"EuroVelo 1 - Itinerario Atlantico del Litorale - parte Portogallo 5","name:nl":"EuroVelo 1 - Atlantische Kustroute - deel Portugal 5","name:pl":"EuroVelo 1 - Szlak Wybrzeża Atlantyku - część Portugalia 5","name:pt":"EuroVelo 1 - Rota da Costa Atlântica - parte Portugal 5","name:sk":"EuroVelo 1 - Trasa po pobreží Atlantiku - sekcia Portugalsko 5","network":"icn","website":"https://euroveloportugal.com/en/route/eurovelo1/section-05","wikipedia":"en:EV1 The Atlantic Coast Route","osmc:symbol":":blue:blue:EV1:white","wiki:symbol":"E_1_sign.jpg","cycle_network":"EuroVelo"},"9520057":{"to":"Aljezur","ref":"EV1","from":"Sagres","name":"EuroVelo 1 - Atlantic Coast Route - part Portugal 4","type":"route","route":"bicycle","colour":"#beb92a","name:cs":"EuroVelo 1 - Trasa po pobřeží Atlantiku - sekce Portugalsko 4","name:de":"EuroVelo 1 - Atlantikküsten-Route - teil Portugal 4","name:en":"EuroVelo 1 - Atlantic Coast Route - part Portugal 4","name:es":"EuroVelo 1 - Ruta Costa Atlántica - parte Portugal 4","name:fi":"EuroVelo 1 - Atlantin rannikkoreitti - osa Portugali 4","name:fr":"EuroVelo 1 - Route du littoral Atlantique - tronçon Portugal 4","name:hu":"EuroVelo 1 - Atlanti parti útvonal - rész Portugália 4","name:it":"EuroVelo 1 - Itinerario Atlantico del Litorale - parte Portogallo 4","name:nl":"EuroVelo 1 - Atlantische Kustroute - deel Portugal 4","name:pl":"EuroVelo 1 - Szlak Wybrzeża Atlantyku - część Portugalia 4","name:pt":"EuroVelo 1 - Rota da Costa Atlântica - parte Portugal 4","name:sk":"EuroVelo 1 - Trasa po pobreží Atlantiku - sekcia Portugalsko 4","network":"icn","website":"https://euroveloportugal.com/en/route/eurovelo1/section-04","wikipedia":"en:EV1 The Atlantic Coast Route","osmc:symbol":":blue:blue:EV1:white","wiki:symbol":"E_1_sign.jpg","cycle_network":"EuroVelo"},"9520058":{"to":"Sagres","ref":"EV1","from":"Portimão","name":"EuroVelo 1 - Atlantic Coast Route - part Portugal 3","type":"route","route":"bicycle","colour":"#beb92a","name:cs":"EuroVelo 1 - Trasa po pobřeží Atlantiku - sekce Portugalsko 3","name:de":"EuroVelo 1 - Atlantikküsten-Route - teil Portugal 3","name:en":"EuroVelo 1 - Atlantic Coast Route - part Portugal 3","name:es":"EuroVelo 1 - Ruta Costa Atlántica - parte Portugal 3","name:fi":"EuroVelo 1 - Atlantin rannikkoreitti - osa Portugali 3","name:fr":"EuroVelo 1 - Route du littoral Atlantique - tronçon Portugal 3","name:hu":"EuroVelo 1 - Atlanti parti útvonal - rész Portugália 3","name:it":"EuroVelo 1 - Itinerario Atlantico del Litorale - parte Portogallo 3","name:nl":"EuroVelo 1 - Atlantische Kustroute - deel Portugal 3","name:pl":"EuroVelo 1 - Szlak Wybrzeża Atlantyku - część Portugalia 3","name:pt":"EuroVelo 1 - Rota da Costa Atlântica - parte Portugal 3","name:sk":"EuroVelo 1 - Trasa po pobreží Atlantiku - sekcia Portugalsko 3","network":"icn","website":"https://euroveloportugal.com/en/route/eurovelo1/section-03","wikipedia":"en:EV1 The Atlantic Coast Route","osmc:symbol":":blue:blue:EV1:white","wiki:symbol":"E_1_sign.jpg","cycle_network":"EuroVelo"},"9520079":{"to":"Lisboa","ref":"EV1","from":"Setúbal","name":"EuroVelo 1 - Atlantic Coast Route - part Portugal 8","type":"route","route":"bicycle","colour":"#beb92a","name:cs":"EuroVelo 1 - Trasa po pobřeží Atlantiku - sekce Portugalsko 8","name:de":"EuroVelo 1 - Atlantikküsten-Route - teil Portugal 8","name:en":"EuroVelo 1 - Atlantic Coast Route - part Portugal 8","name:es":"EuroVelo 1 - Ruta Costa Atlántica - parte Portugal 8","name:fi":"EuroVelo 1 - Atlantin rannikkoreitti - osa Portugali 8","name:fr":"EuroVelo 1 - Route du littoral Atlantique - tronçon Portugal 8","name:hu":"EuroVelo 1 - Atlanti parti útvonal - rész Portugália 8","name:it":"EuroVelo 1 - Itinerario Atlantico del Litorale - parte Portogallo 8","name:nl":"EuroVelo 1 - Atlantische Kustroute - deel Portugal 8","name:pl":"EuroVelo 1 - Szlak Wybrzeża Atlantyku - część Portugalia 8","name:pt":"EuroVelo 1 - Rota da Costa Atlântica - parte Portugal 8","name:sk":"EuroVelo 1 - Trasa po pobreží Atlantiku - sekcia Portugalsko 8","network":"icn","website":"https://euroveloportugal.com/en/route/eurovelo1/section-08","wikipedia":"en:EV1 The Atlantic Coast Route","osmc:symbol":":blue:blue:EV1:white","wiki:symbol":"E_1_sign.jpg","cycle_network":"EuroVelo"},"9593320":{"name":"Ecocaminho Maia","type":"route","route":"bicycle","network":"lcn"},"9741797":{"ref":"EC","name":"Eixos principais CML - Eixo Central","note":"Segue organização da CML em \\\"Gira - Bicicletas de Lisboa\\\"","type":"route","route":"bicycle","network":"lcn","website":"https://www.gira-bicicletasdelisboa.pt","operator":"CML"},"10149639":{"apm":"146","ref":"CIMA PR10","name":"[CIMA PR10] Nossa Senhora da Graça (monte Farinha)","type":"route","route":"bicycle","ascent":"702","source":"http://retocima.webcindario.com","network":"ncn","distance":"11.2","operator":"CIMA"},"10150865":{"apm":"166","ref":"CIMA PR12","name":"[CIMA PR12] Monte do Viso (Capela)","type":"route","route":"bicycle","ascent":"582","source":"http://retocima.webcindario.com","network":"ncn","distance":"9.7","operator":"CIMA"},"10151680":{"apm":"-","ref":"CIMA PR11-2","name":"[CIMA PR11] Barragem Alvão * Ponte da Petisqueira","type":"route","route":"bicycle","ascent":"775","source":"http://retocima.webcindario.com","network":"ncn","distance":"10","operator":"CIMA"},"10151745":{"apm":"141","ref":"CIMA PR11-1","name":"[CIMA PR11] Barragem Alvão * Vila Real","type":"route","route":"bicycle","ascent":"695","source":"http://retocima.webcindario.com","network":"ncn","distance":"9","operator":"CIMA"},"10151955":{"apm":"-","ref":"CIMA PR01","name":"[CIMA PR01] Marão (Alto Espinho)","type":"route","route":"bicycle","ascent":"1265","source":"http://retocima.webcindario.com","network":"ncn","distance":"36.5","operator":"CIMA"},"10190398":{"apm":"125","ref":"CIMA PR02a","name":"[CIMA PR02] Alto Foia","type":"route","route":"bicycle","ascent":"797","source":"https://www.retocima.es/por02.htm","network":"ncn","distance":"16.2","operator":"CIMA"},"10210987":{"apm":"125","ref":"CIMA PR02b","name":"[CIMA PR02] Alto Foia","type":"route","route":"bicycle","ascent":"797","source":"http://retocima.webcindario.com","network":"ncn","distance":"16.3","operator":"CIMA"},"10211528":{"apm":"226","ref":"CIMA PR04-1","name":"[CIMA PR04] Penhas Douradas * Seia","type":"route","route":"bicycle","ascent":"1119","source":"http://retocima.webcindario.com","network":"ncn","distance":"25.3"},"10215297":{"apm":"-","ref":"CIMA PR04-2","name":"[CIMA PR04] Penhas Douradas * Seia/Sabugueiro","type":"route","route":"bicycle","ascent":"1119","source":"http://retocima.webcindario.com","network":"ncn","distance":"24.9"},"10216290":{"apm":"-","ref":"CIMA PR06-1","name":"[CIMA PR06] Montejunto * Vilar","type":"route","route":"bicycle","ascent":"578","source":"http://retocima.webcindario.com","network":"ncn","distance":"7.9","operator":"CIMA"},"10216468":{"apm":"-","ref":"CIMA PR06-2","name":"[CIMA PR06] Montejunto * Pragança","type":"route","route":"bicycle","ascent":"466","source":"http://retocima.webcindario.com","network":"ncn","distance":"5.8","operator":"CIMA"},"10221313":{"apm":"-","ref":"PR06-3","name":"[CIMA PR06] Montejunto * N-115","type":"route","route":"bicycle","ascent":"546","source":"http://retocima.webcindario.com","network":"ncn","distance":"10.7","operator":"CIMA"},"10221669":{"apm":"350","ref":"CIMA PR07-1 (inc.)","name":"[CIMA PR07] Torre * Covilha","type":"route","route":"bicycle","ascent":"1443","source":"http://retocima.webcindario.com","network":"ncn","distance":"22.8","operator":"CIMA"},"10225822":{"ref":"Gira","name":"Ciclovia Avenida Defensores de Chaves","note":"Segue organização da CML em \\\"Gira - Bicicletas de Lisboa\\\"","type":"route","route":"bicycle","network":"lcn","website":"https://www.gira-bicicletasdelisboa.pt","operator":"CML"},"10227110":{"apm":"-","ref":"CIMA PR07-2","name":"[CIMA PR07] Torre * Seia","type":"route","route":"bicycle","ascent":"1583","source":"http://retocima.webcindario.com","network":"ncn","distance":"31.1"},"10229291":{"apm":"263","ref":"CIMA PR07-3","name":"[CIMA PR07] Torre * Manteigas","type":"route","route":"bicycle","ascent":"1315","source":"http://retocima.webcindario.com","network":"ncn","distance":"22.2","operator":"CIMA"},"10233369":{"apm":"318","ref":"CIMA PR07-4","name":"[CIMA PR07] Torre * San Romao","type":"route","route":"bicycle","ascent":"1583","source":"http://retocima.webcindario.com","network":"ncn","distance":"30"},"10245903":{"apm":"157","ref":"CIMA PR09-1","name":"[CIMA PR09] Alto do Trevim * Lousa","type":"route","route":"bicycle","ascent":"1043","source":"http://retocima.webcindario.com","network":"ncn","distance":"26.89","operator":"CIMA"},"10257217":{"apm":"117","ref":"CIMA PR09-2","name":"[CIMA PR09] Alto do Trevim * Castanheira","type":"route","route":"bicycle","ascent":"741","source":"http://retocima.webcindario.com","network":"ncn","distance":"20.12","operator":"CIMA"},"10258295":{"apm":"103","ref":"CIMA PR18","name":"[CIMA PR18] Caramulinho","type":"route","route":"bicycle","ascent":"715","source":"http://retocima.webcindario.com","network":"ncn","distance":"16","operator":"CIMA"},"10261674":{"apm":"127","ref":"CIMA PR22","name":"[CIMA PR22] São Mamede","type":"route","route":"bicycle","ascent":"485","source":"http://retocima.webcindario.com","network":"ncn","distance":"9.6","operator":"CIMA"},"10484379":{"to":"Caminha","ref":"EV1","from":"Esposende","name":"EuroVelo 1 - Atlantic Coast Route - part Portugal 18","type":"route","route":"bicycle","colour":"#beb92a","source":"https://euroveloportugal.com/en/route/eurovelo1/section-18","name:nl":"EuroVelo 1 - Atlantische Kustroute - deel Portugal 18","network":"icn","wikidata":"Q3060531","wikipedia":"en:EV1 The Atlantic Coast Route","osmc:symbol":":blue:blue:EV1:white","wiki:symbol":"E_1_sign.jpg","cycle_network":"EuroVelo"},"10489719":{"to":"Esposende","ref":"EV1","from":"Porto Gaia","name":"EuroVelo 1 - Atlantic Coast Route - part Portugal 17","type":"route","route":"bicycle","colour":"#beb92a","source":"https://euroveloportugal.com/en/route/eurovelo1/section-17","name:nl":"EuroVelo 1 - Atlantische Kustroute - deel Portugal 17","network":"icn","wikidata":"Q3060531","wikipedia":"en:EV1 The Atlantic Coast Route","osmc:symbol":":blue:blue:EV1:white","wiki:symbol":"E_1_sign.jpg","cycle_network":"EuroVelo"},"10627066":{"ref":"Gira","name":"Ciclovia Avenida dos Combatentes","note":"Segue organização da CML em \\\"Gira - Bicicletas de Lisboa\\\"","type":"route","route":"bicycle","network":"lcn","website":"https://www.gira-bicicletasdelisboa.pt/","operator":"CML"},"10800310":{"ref":"Gira","name":"Ciclovia Avenida Manuel da Maia - Praça de Londres","note":"Segue organização da CML em \\\"Gira - Bicicletas de Lisboa\\\"","type":"route","route":"bicycle","network":"lcn","website":"https://www.gira-bicicletasdelisboa.pt","operator":"CML"},"10959320":{"ref":"CIMA PR03b","name":"[CIMA PR03] Pico do Arieiro ~ Rúa do Til","type":"route","route":"bicycle","ascent":"1800","source":"http://retocima.webcindario.com","network":"ncn","distance":"21.4","operator":"CIMA","mtb:scale:apm":"775"},"10959321":{"ref":"CIMA PR03a","name":"[CIMA PR03] Pico do Arieiro ~ Rúa do Comboio","type":"route","route":"bicycle","ascent":"1800","source":"http://retocima.webcindario.com","network":"ncn","distance":"19.3","operator":"CIMA","mtb:scale:apm":"775"},"10959402":{"ref":"CIMA PR05-1","name":"[CIMA PR05] Paul da Serra * Serra de Auga","type":"route","route":"bicycle","ascent":"1521","source":"http://retocima.webcindario.com","network":"ncn","distance":"18.4","operator":"CIMA","mtb:scale:apm":"513"},"10961855":{"ref":"CIMA PR05-2","name":"[CIMA PR05] Paul da Serra * São Vicente","type":"route","route":"bicycle","ascent":"1565","source":"http://retocima.webcindario.com","network":"ncn","distance":"18.7","operator":"CIMA","mtb:scale:apm":"-"},"10962252":{"ref":"CIMA PR13","name":"[CIMA PR13] Eira do Serrado","type":"route","route":"bicycle","ascent":"1085","source":"http://retocima.webcindario.com","network":"ncn","distance":"13.5","operator":"CIMA","mtb:scale:apm":"300"},"10962766":{"ref":"CIMA PR17","name":"[CIMA PR17] Achada do Teixeira","type":"route","route":"bicycle","ascent":"1374","source":"http://retocima.webcindario.com","network":"ncn","distance":"16.3","operator":"CIMA","mtb:scale:apm":"350"},"11292493":{"ref":"Gira","name":"Ciclovia da Av. Almirante Reis","type":"route","route":"bicycle","network":"lcn"},"11292585":{"ref":"Gira","name":"Ciclovia do Lumiar","type":"route","route":"bicycle","network":"lcn"},"11348315":{"name":"Ciclovias de Coimbra","type":"route","route":"bicycle","network":"lcn","operator":"CMC"},"11932102":{"ref":"EBBP","name":"Eixos principais CML - Eixo Benfica - Braço de Prata","note":"Segue organização da CML em \\\"Gira - Bicicletas de Lisboa\\\"","type":"route","route":"bicycle","network":"lcn","operator":"CML"},"11960729":{"ref":"Gira","name":"Ciclovia Avenida das Nações Unidas","note":"Segue organização da CML em \\\"Gira - Bicicletas de Lisboa\\\"","type":"route","route":"bicycle","network":"lcn","website":"https://www.gira-bicicletasdelisboa.pt","operator":"CML"},"12586668":{"ref":"Gira","name":"Ciclovia Rua Castilho","note":"Segue organização da CML em \\\"Gira - Bicicletas de Lisboa\\\"","type":"route","route":"bicycle","network":"lcn","website":"https://www.gira-bicicletasdelisboa.pt","operator":"CML"},"12586669":{"ref":"Gira","name":"Ciclovia Avenida Lusíada","note":"Segue organização da CML em \\\"Gira - Bicicletas de Lisboa\\\"","type":"route","route":"bicycle","network":"lcn","website":"https://www.gira-bicicletasdelisboa.pt","operator":"CML"},"12586698":{"ref":"Gira","name":"Ciclovia Rua Professor Fernando da Fonseca","note":"Segue organização da CML em \\\"Gira - Bicicletas de Lisboa\\\"","type":"route","route":"bicycle","network":"lcn","website":"https://www.gira-bicicletasdelisboa.pt","operator":"CML"},"13127470":{"name":"Ciclovia Avenida Marechal Teixeira Rebelo","type":"route","route":"bicycle"},"13509608":{"to":"IPPV","from":"Avenida Europa","name":"Rede Urbana de Ciclovias - Troço 1","type":"route","route":"bicycle","network":"lcn","network:type":"basic_network","cycle_network":"muv_bike"},"13818355":{"to":"Parque das Azenhas","from":"Estação da Trofa","name":"Ciclovia Norte","type":"route","route":"bicycle","network":"lcn"},"14052680":{"ref":"5","name":"Venda do Pinheiro 5 - Percurso Verde (Fácil)","type":"route","route":"bicycle","ascent":"300","colour":"green","network":"lcn","website":"https://www.cm-mafra.pt/pages/1584","distance":"15","roundtrip":"yes","cycle_network":"Mafra Cycling"},"14052713":{"ref":"6","name":"Venda do Pinheiro 6 - Percurso Azul (Moderado)","type":"route","route":"bicycle","ascent":"700","colour":"blue","network":"lcn","website":"https://www.cm-mafra.pt/pages/1584","distance":"33","roundtrip":"yes","cycle_network":"Mafra Cycling"},"14057680":{"ref":"1","name":"Mafra 1 - Percurso Verde (Fácil)","type":"route","route":"bicycle","ascent":"190","colour":"green","network":"lcn","website":"https://www.cm-mafra.pt/pages/1584","distance":"14","roundtrip":"yes","cycle_network":"Mafra Cyclin"},"14121330":{"ref":"2","name":"Mafra 2 - Percurso Azul (Moderado)","type":"route","route":"bicycle","ascent":"700","colour":"blue","network":"lcn","website":"https://www.cm-mafra.pt/pages/1584","distance":"31","roundtrip":"yes","cycle_network":"Mafra Cyclin"},"14121436":{"ref":"3","name":"Ericeira 3 - Percurso Verde (Fácil)","type":"route","route":"bicycle","ascent":"250","network":"lcn","website":"https://www.cm-mafra.pt/pages/1584","distance":"15","roundtrip":"yes","cycle_network":"Mafra Cyclin"},"14122906":{"ref":"4","name":"Ericeira 4 - Percurso Azul (Moderado)","type":"route","route":"bicycle","ascent":"750","colour":"blue","network":"lcn","website":"https://www.cm-mafra.pt/pages/1584","distance":"35","roundtrip":"yes","cycle_network":"Mafra Cyclin"},"14122952":{"ref":"7","name":"Volta ao Concelho 7 - Percurso Vermelho (Difícil)","type":"route","route":"bicycle","ascent":"1400","colour":"red","network":"lcn","website":"https://www.cm-mafra.pt/pages/1584","distance":"59","roundtrip":"yes","cycle_network":"Mafra Cyclin"},"14123005":{"ref":"8","name":"Volta ao Concelho 8 - Percurso Preto (Muito Difícil)","type":"route","route":"bicycle","ascent":"2600","colour":"black","network":"lcn","website":"https://www.cm-mafra.pt/pages/1584","distance":"117","roundtrip":"yes","cycle_network":"Mafra Cyclin"},"14319407":{"name":"Ecopista do Montado","type":"route","route":"bicycle","website":"https://www.ippatrimonio.pt/pt-pt/ecopistas-ip-patrimonio/ecopista-do-montado","previously":"Ramal de Montemor"},"16268237":{"name":"Corredor Verde do Leça","type":"route","route":"bicycle"},"16411173":{"name":"Bike CP Costa - CP Central","type":"route","route":"bicycle","network":"nwn","osmc:symbol":"blue:blue:shell_modern"}}