{"27751":{"ref":"B 1","name":"B 1","type":"route","route":"bicycle","network":"lcn","operator":"Primăria Brașov","description":"2 benzi, substrat roșu"},"27757":{"ref":"B 2","name":"B 2","type":"route","route":"bicycle","network":"lcn","operator":"Primăria Brașov","description":"2 benzi alăturate"},"1360403":{"ref":"Iza – Viseu","name":"Iza – Viseu","type":"route","route":"bicycle","network":"lcn"},"1360404":{"ref":"Iza – Romuli","name":"Iza – Romuli","type":"route","route":"bicycle","network":"lcn"},"2251756":{"ref":"Florești-Mănăstirea Tăuți","name":"Circuit de ciclism","type":"route","route":"bicycle","source":"Primăria Florești","network":"lcn","designation":"Mănăstirea Tăuți"},"2348229":{"ref":"EV6","name":"Danube Bike Trail","note":"EV6 in Bulgaria Ruse-Silistra","type":"route","route":"bicycle","name:de":"Donauradweg BG Teil3","name:en":"Danube Bike Trail - part Bulgaria - leg 3","name:hu":"Duna menti kerékpárút – Bulgáriai 3. szakasz","name:sr":"Дунавски бициклистички пут","network":"icn"},"2353336":{"ref":"EV6","name":"Danube Bike Trail","note":"EV6 in Romania Ion Corvin - Constanta","type":"route","route":"bicycle","name:de":"Donauradweg RO Teil 4.2a","name:en":"Danube Cycle Path - part Romania - leg 4.2a","name:hu":"Duna menti kerékpárút – Romániai 4.2a szakasz","name:sr":"Дунавски бициклистички пут","network":"icn"},"2353606":{"ref":"EV6","name":"Danube Bike Trail","note":"EV6 in Romania - Kaluderova - Calafat","type":"route","route":"bicycle","name:de":"Donauradweg RO Teil 1","name:en":"Danube Bike Trail - part Romania - leg 1","name:hu":"Duna menti kerékpárút – Romániai 1. szakasz","name:sr":"Дунавска бициклистичка стаза","network":"icn","name:sr-Latn":"Dunavska biciklistička staza"},"2355509":{"ref":"EV6","name":"Danube Bike Trail","note":"EV6 in Romania - Calafat - Giurgiu","type":"route","route":"bicycle","name:de":"Donauradweg RO Teil 2","name:en":"Danube Cycle Path - part Romania - leg 2","name:hu":"Duna menti kerékpárút – Romániai 2. szakasz","name:sr":"Дунавски бициклистички пут","network":"icn"},"2750854":{"ref":"EV6","name":"Danube Bike Trail","note":"EV6 in Romania Giurgiu - Calarasi - Ion Corvin","type":"route","route":"bicycle","name:de":"Donauradweg RO Teil 3","name:en":"Danube Cycle Path - part Romania - leg 3","name:hu":"Duna menti kerékpárút – Romániai 3. szakasz","name:sr":"Дунавски бициклистички пут","network":"icn"},"2751410":{"ref":"EV6","name":"Danube Bike Trail","note":"EV6 in Romania - Ion Corvin - Tulcea","type":"route","route":"bicycle","name:de":"Donauradweg RO Teil 4.1","name:en":"Danube Cycle Path - part Romania - leg 4.1","name:hu":"Duna menti kerékpárút – Romániai 4.1 szakasz","name:sr":"Дунавски бициклистички пут","network":"icn"},"2751594":{"ref":"EV6","name":"Danube Bike Trail","note":"EV6 in Romania - Constanta - Tulcea","type":"route","route":"bicycle","name:de":"Donauradweg RO Teil 4.2b","name:en":"Danube Cycle Path - part Romania - leg 4.2b","name:hu":"Duna menti kerékpárút – Romániai 4.2b szakasz","name:sr":"Дунавски бициклистички пут","network":"icn"},"2764816":{"ref":"EV6","name":"EuroVelo 6 - Atlantic-Black Sea - part Romania","type":"route","route":"bicycle","colour":"#003399","icn_ref":"6","name:cs":"EuroVelo 6 - Atlantik-Černé moře - sekce Rumunsko","name:de":"EuroVelo 6 - Atlantik-Schwarzes Meer - teil Rumänien","name:en":"EuroVelo 6 - Atlantic-Black Sea - part Romania","name:fr":"EuroVelo 6 - Atlantique-Mer Noire - tronçon Roumanie","name:hr":"EuroVelo 6 - Atlantik-Crno More - dio Rumunjska","name:hu":"EuroVelo 6 – Atlantic-Black Sea - Romániai szakasz","name:nl":"EuroVelo 6 - Atlantisch-Zwarte Zee - deel Roemenië","name:pl":"EuroVelo 6 - Atlantyk-Morze Czarne - część Rumunia","name:sk":"EuroVelo 6 - Atlantik-Čierne more - sekcia Rumunsko","network":"icn","osmc:symbol":":blue:yellow_circle:6:white","cycle_network":"EuroVelo"},"3732702":{"ref":"Față de Mureș","name":"Față de Mureș","type":"route","route":"bicycle","source":"GPS","network":"ncn"},"3767917":{"ref":"Reghin - Pădurea Mocearului - Reghin","name":"Mocear","type":"route","route":"bicycle","network":"lcn"},"3768132":{"ref":"Traseul Sării Reghin, Ideciu de Jos, Jabenița, Reghin","name":"Traseul Sării; Ideciu de Jos - Jabenița","type":"route","route":"bicycle","network":"lcn"},"3769044":{"ref":"Reghin - Pădurea Luieriului - Reghin","name":"Pădurea Luieriului","type":"route","route":"bicycle","network":"lcn"},"3769431":{"ref":"Meșendorf - Criț","name":"Traseul cicloturistic Meșendorf - Criț","type":"route","route":"bicycle","network":"rcn"},"3783501":{"ref":"Drumul Sării","name":"Drumul Sării","type":"route","route":"bicycle","network":"rcn"},"3871354":{"ref":"Reghin- Pădurea Hebe- Pădurea Magyaregenului-Reghin","name":"Hebe-Dedradului","type":"route","route":"bicycle","network":"lcn"},"6423978":{"ref":"universitatea Cluj.","name":"pista 1","type":"route","route":"bicycle","network":"rcn"},"6566601":{"lcn":"yes","ref":"C1","name":"C1 - Breaza","type":"route","route":"bicycle","lcn_ref":"C1","network":"lcn","website":"http://cniptbreazaph.ro/ro/trasee-turistice-de-bicicleta/","description":"Marcaj: C1 albastru. Lungime: 8,7km. Urcări cumulate: 207m. Dificultate: mică"},"6567074":{"lcn":"yes","ref":"C2","name":"C2 - Breaza","type":"route","route":"bicycle","lcn_ref":"C2","network":"lcn","website":"http://cniptbreazaph.ro/ro/trasee-turistice-de-bicicleta/","description":"Marcaj: C2 roșu. Lungime: 22km. Urcări cumulate: 488m.alt. Dificultate: medie"},"6567838":{"lcn":"yes","ref":"C3","name":"C3 - Breaza","type":"route","route":"bicycle","lcn_ref":"C3","network":"lcn","website":"http://cniptbreazaph.ro/ro/trasee-turistice-de-bicicleta/","description":"Marcaj: C3 albastru. Lungime: 8,1 km. Urcări cumulate: 126m. Dificultate: mică"},"8315234":{"ref":"2","name":"MBM","type":"route","route":"bicycle","network":"rcn","description":"Medias Bike Marathon, 40km","cycle_network":"MBM"},"10290907":{"to":"Moravița","ref":"EV13","from":"Kikinda","name":"EuroVelo 13 - Iron Curtain Trail - part Serbia/Romania","type":"route","route":"bicycle","colour":"#003399","icn_ref":"13","name:bg":"EuroVelo 13 - Пътя на желязната завеса - част Сърбия/Румъния","name:cs":"EuroVelo 13 - Stezka železné opony - sekce Srbsko/Rumunsko","name:de":"EuroVelo 13 - Eiserner-Vorhang-Route - Teil Serbien/Rumänien","name:en":"EuroVelo 13 - Iron Curtain Trail - part Serbia/Romania","name:fr":"EuroVelo 13 - La route du rideau de fer - part Serbie/Roumanie","name:hr":"EuroVelo 13 - Ruta Željezne Zavjese - dio Srbija/Rumunjska","name:hu":"EuroVelo 13 - Vasfüggöny útvonal - Szerbia/Románia szakasz","name:nl":"EuroVelo 13 - IJzerengordijnpad - deel Servië/Roemenië","name:pl":"EuroVelo 13 - Szlak Żelaznej Kurtyny - część Serbia/Rumunia","name:sk":"EuroVelo 13 - Cesta Železnej opony - sekcia Srbsko/Rumunsko","name:sl":"EuroVelo 13 - Varnostna zavesa pot - oddelek Srbija/Romunija","network":"icn","website":"https://en.eurovelo.com/ev13/serbia-romania","cycle_network":"EuroVelo"},"12236840":{"ref":"B2","name":"Traseul cicloturistic 2","type":"route","fixme":"To be continued after Cabana Făget","route":"bicycle","network":"lcn"},"14987197":{"ref":"DeTour 3","name":"DeTour 3: Jimbolia sightseeing","type":"route","route":"bicycle","network":"rcn"},"14987198":{"ref":"DeTour 4","name":"DeTour 4: Timisoara Hop","type":"route","route":"bicycle","network":"rcn"},"14987199":{"ref":"DeTour 1","name":"DeTour 1: The Big Banat Experience","type":"route","route":"bicycle","network":"rcn"},"14987200":{"ref":"DeTour 2","name":"DeTour 2: The Small Banat Experience","type":"route","route":"bicycle","network":"rcn"}}