{"2256240":{"ref":"ZS-ZLAT-ZT1","name":"Рибница","type":"route","route":"bicycle","name:en":"Ribnica","name:sr":"Рибница","network":"lcn","website":"http://www.mapa.iz.rs/?map=ZLAT-ZT1","operator":"Ски центар Златибор","roundtrip":"no","attribution":"Predrag Supurović, http://pedja.supurovic.net","name:sr-Latn":"Ribnica","cycle_network":"Западна_Србија"},"2256255":{"ref":"ZS-ZLAT-ZT2","name":"Бели камен","type":"route","route":"bicycle","name:en":"Beli kamen","name:sr":"Бели камен","network":"lcn","website":"http://www.mapa.iz.rs/?map=ZLAT-ZT2","operator":"Ски центар Златибор","roundtrip":"no","attribution":"Predrag Supurović, http://pedja.supurovic.net","name:sr-Latn":"Beli kamen","cycle_network":"Западна_Србија"},"2256299":{"ref":"ZS-ZLAT-ZT3","name":"Превија","type":"route","route":"bicycle","name:en":"Previja","name:sr":"Превија","network":"lcn","website":"http://www.mapa.iz.rs/?map=ZLAT-ZT3","operator":"Ски центар Златибор","roundtrip":"no","attribution":"Predrag Supurović, http://pedja.supurovic.net","name:sr-Latn":"Previja","cycle_network":"Западна_Србија"},"2764744":{"ref":"EV6","name":"EuroVelo 6 - Atlantic-Black Sea - part Serbia","type":"route","route":"bicycle","colour":"#003399","icn_ref":"6","name:cs":"EuroVelo 6 - Atlantik-Černé moře - sekce Srbsko","name:de":"EuroVelo 6 - Atlantik-Schwarzes Meer - teil Serbien","name:en":"EuroVelo 6 - Atlantic-Black Sea - part Serbia","name:fr":"EuroVelo 6 - Atlantique-Mer Noire - tronçon Serbie","name:hr":"EuroVelo 6 - Atlantik-Crno More - dio Srbija","name:hu":"EuroVelo 6 - Szerbiai szakasz","name:nl":"EuroVelo 6 - Atlantisch-Zwarte Zee - deel Servië","name:pl":"EuroVelo 6 - Atlantyk-Morze Czarne - część Serbia","name:sk":"EuroVelo 6 - Atlantik-Čierne more - sekcia Srbsko","name:sr":"ЕуроВело 6 - део Србија","network":"icn","website":"http://www.eurovelo.com/en/eurovelos/eurovelo-6/countries/serbia","osmc:symbol":":blue:yellow_circle:6:white","name:sr-Latn":"EuroVelo 6 - deo Srbija","cycle_network":"EuroVelo"},"2910889":{"ref":"DBR","name":"Danube Cycle Path - part Serbia","type":"route","route":"bicycle","name:cs":"Dunajská cyklistická cesta - sekce Srbsko","name:de":"Donauradweg - Abschnitt Serbien","name:en":"Danube Cycle Path - part Serbia","name:hr":"Dunavska biciklistička ruta - Srbija","name:sk":"Dunajská cyklistická cesta - sekcia Srbsko","name:sr":"Дунавска бициклистичка рута - Србија","network":"icn","alt_name":"Danube Bike Trail - part Serbia","name:sr-Latn":"Dunavska biciklistička ruta - Srbija"},"5574764":{"ref":"PV03","name":"Biking Trail PV03","type":"route","route":"bicycle","network":"lcn"},"9241810":{"to":"SRB/BG border (Gradina)","ref":"EV13","from":"RO/SRB border (Vatin)","name":"EuroVelo 13 - Iron Curtain Trail - part Serbia","type":"route","route":"bicycle","colour":"#003399","icn_ref":"13","name:bg":"EuroVelo 13 - Пътя на желязната завеса - част Сърбия","name:cs":"EuroVelo 13 - Stezka železné opony - sekce Srbsko","name:de":"EuroVelo 13 - Eiserner-Vorhang-Route - Teil Serbien","name:en":"EuroVelo 13 - Iron Curtain Trail - part Serbia","name:fr":"EuroVelo 13 - La route du rideau de fer - part Serbie","name:hr":"EuroVelo 13 - Ruta Željezne Zavjese - dio Srbija","name:nl":"EuroVelo 13 - IJzerengordijnpad - deel Servië","name:pl":"EuroVelo 13 - Szlak Żelaznej Kurtyny - część Serbia","name:sk":"EuroVelo 13 - Cesta Železnej opony - sekcia Srbsko","name:sl":"EuroVelo 13 - Varnostna zavesa pot - oddelek Srbija","name:tr":"EuroVelo 13 - Demir Perde Yolu - kısım Sırbistan","network":"icn","website":"http://www.eurovelo13.com/countries/serbia","complete":"yes","distance":"576","cycle_network":"EuroVelo"},"9921011":{"to":"Kikinda","ref":"EV13","from":"Mohács","name":"EuroVelo 13 - Iron Curtain Trail - part Hungary/Serbia","type":"route","route":"bicycle","colour":"#003399","icn_ref":"13","name:cs":"EuroVelo 13 - Stezka železné opony - sekce Maďarsko/Srbsko","name:de":"EuroVelo 13 - Eiserner-Vorhang-Route - Teil Ungarn/Serbien","name:en":"EuroVelo 13 - Iron Curtain Trail - part Hungary/Serbia","name:hr":"EuroVelo 13 - Ruta Željezne Zavjese - dio Madžarska/Srbija","name:hu":"EuroVelo 13 - Vasfüggöny útvonal - Magyarország/Szerbia szakasz","name:nl":"EuroVelo 13 - IJzerengordijnpad - deel Hongarije/Servië","name:pl":"EuroVelo 13 - Szlak Żelaznej Kurtyny - część Węgry/Serbia","name:sk":"EuroVelo 13 - Cesta Železnej opony - sekcia Maďarsko/Srbsko","name:sl":"EuroVelo 13 - Varnostna zavesa pot - oddelek Madžarska/Srbija","network":"icn","website":"https://en.eurovelo.com/ev13/hungary-serbia","cycle_network":"EuroVelo"},"10656103":{"ref":"105","name":"Бициклистичка стаза Крагујевац - рута 105","type":"route","route":"bicycle","name:en":"Kragujevac cycling route 105","name:sr":"Бициклистичка стаза Крагујевац - рута 105","network":"lcn","distance":"43","roundtrip":"yes","name:sr-Latn":"Biciklistička staza Kragujevac - ruta 105","network:type":"rcn","cycle_network":"turesrbije.rs"},"10833727":{"ref":"Sava","name":"Ruta Sava (Srbija)","type":"route","fixme":"official website","route":"bicycle","name:sr":"Рута Сава (Србија)","network":"icn","name:sr-Latn":"Ruta Sava (Srbija)"},"10902880":{"ref":"ZS-TARA-TR1","url":"https://www.mapa.iz.rs/?ruta=ZS-TARA-TR1","name":"Царска Тара","type":"route","route":"bicycle","network":"lcn","operator":"Национални парк \\\"Тара\\\"","roundtrip":"no","attribution":"Predrag Supurović, http://pedja.supurovic.net","cycle_network":"Западна_Србија"},"10902910":{"ref":"ZS-TARA-OS1","name":"Висока Тара","type":"route","route":"bicycle","network":"lcn","website":"https://www.mapa.iz.rs/?ruta=ZS-TARA-OS1","operator":"Национални парк \\\"Тара\\\"","roundtrip":"yes","attribution":"Predrag Supurović, http://pedja.supurovic.net","cycle_network":"Западна_Србија"},"10902953":{"ref":"ZS-B1","name":"Златибор - Тара","type":"route","route":"bicycle","network":"rcn","website":"https://www.mapa.iz.rs/?ruta=ZS-B1","operator":"ТО Западна Србија","attribution":"Predrag Supurović, http://pedja.supurovic.net","cycle_network":"Западна_Србија"},"10902971":{"ref":"ZS-ZLAT-ZV1","name":"Црнорзавска","type":"route","route":"bicycle","network":"lcn","website":"https://www.mapa.iz.rs/?ruta=ZS-ZLAT-ZV1","operator":"ТО Златибор","attribution":"Predrag Supurović, http://pedja.supurovic.net","cycle_network":"Западна_Србија"},"10902980":{"ref":"ZS-ZLAT-ZS2","name":"Тусто брдо","type":"route","route":"bicycle","network":"lcn","website":"https://www.mapa.iz.rs/?ruta=ZS-ZLAT-ZS2","operator":"ТО Златибор","roundtrip":"yes","attribution":"Predrag Supurović, http://pedja.supurovic.net","cycle_network":"Западна_Србија"},"10903175":{"ref":"ZS-ZLAT-ZS1","name":"Мали семегњевски круг","type":"route","route":"bicycle","network":"lcn","website":"https://www.mapa.iz.rs/?ruta=ZS-ZLAT-ZS1","roundtrip":"yes","attribution":"Predrag Supurović, http://pedja.supurovic.net","cycle_network":"Западна_Србија"},"10903226":{"ref":"ZS-A2","name":"Ужице - Косјерић - Дивчибаре","type":"route","route":"bicycle","network":"rcn","website":"https://www.mapa.iz.rs/?ruta=ZS-A2","operator":"ТО Западна Србија","attribution":"Predrag Supurović, http://pedja.supurovic.net","cycle_network":"Западна_Србија"},"10903384":{"ref":"ZS-G1","name":"Луново село – Пожега – Ариље","type":"route","route":"bicycle","network":"rcn","website":"https://www.mapa.iz.rs/?ruta=ZS-G1","operator":"ТО Косјерић","attribution":"Predrag Supurović, http://pedja.supurovic.net","cycle_network":"Западна_Србија"},"10903395":{"ref":"ZS-KOSJ-KD1","name":"Козомор","type":"route","route":"bicycle","network":"lcn","website":"https://www.mapa.iz.rs/?ruta=ZS-KOSJ-KD1","operator":"ТО Косјерић","attribution":"Predrag Supurović, http://pedja.supurovic.net","cycle_network":"Западна_Србија"},"10903409":{"ref":"ZS-POZG-PP1","name":"Пут давнина","type":"route","route":"bicycle","network":"lcn","website":"https://www.mapa.iz.rs/?ruta=ZS-POZG-PP1","operator":"ТО Пожега","attribution":"Predrag Supurović, http://pedja.supurovic.net","cycle_network":"Западна_Србија"},"10903417":{"ref":"ZS-ARLJ-RZ1","name":"Рзавске плаже","type":"route","route":"bicycle","network":"lcn","website":"https://www.mapa.iz.rs/?ruta=ZS-ARLJ-RZ1","operator":"ТО Ариље","attribution":"Predrag Supurović, http://pedja.supurovic.net","cycle_network":"Западна_Србија"},"10903448":{"ref":"ZS-H1","name":"Ариље – Ивањица","type":"route","route":"bicycle","network":"rcn","website":"https://www.mapa.iz.rs/?ruta=ZS-H1","cycle_network":"Западна_Србија"},"10903475":{"ref":"ZS-J1","name":"Ивањица – Јавор – Сјеница","type":"route","route":"bicycle","network":"rcn","website":"https://www.mapa.iz.rs/?ruta=ZS-J1","operator":"ТО Западна Србија","attribution":"Predrag Supurović, http://pedja.supurovic.net","cycle_network":"Западна_Србија"},"10903501":{"ref":"ZS-L1","name":"Сјеница – Златар – Нова Варош","type":"route","route":"bicycle","network":"rcn","website":"https://www.mapa.iz.rs/?ruta=ZS-L1","operator":"ТО Западна Србија","attribution":"Predrag Supurović, http://pedja.supurovic.net","cycle_network":"Западна_Србија"},"10903513":{"ref":"ZS-ZLTR-ZP1","name":"Манастирски пут","type":"route","route":"bicycle","network":"lcn","website":"https://www.mapa.iz.rs/?ruta=ZS-ZLTR-ZP1","operator":"ТО Пријепоље","attribution":"Predrag Supurović, http://pedja.supurovic.net","cycle_network":"Западна_Србија"},"10903517":{"ref":"ZS-ZLTR-UV1","name":"Златар – Увац","type":"route","route":"bicycle","network":"lcn","website":"https://www.mapa.iz.rs/?ruta=ZS-ZLTR-UV1","operator":"ТО Златар","attribution":"Predrag Supurović, http://pedja.supurovic.net","cycle_network":"Западна_Србија"},"10967738":{"ref":"Sava","name":"Ruta Sava  - detur Obedska bara","type":"route","fixme":"official website","route":"bicycle","name:sr":"Рута Сава - детур Обедска бара","network":"icn","roundtrip":"yes","name:sr-Latn":"Ruta Sava  - detur Obedska bara"},"11123588":{"ref":"EV11","name":"ЕуроВело 11 - Источноевропска рута - део Србија - Алтернативна рута","type":"route","route":"bicycle","colour":"#003399","icn_ref":"11","name:en":"ЕуроВело 11 - Источноевропска рута - део Србија - Алтернативна рута","name:nl":"EuroVelo 11 - Oost-Europaroute - deel Servië - alternatieve route","network":"icn","website":"https://en.eurovelo.com/ev11/serbia","complete":"no","operator":"European Cyclists' Federation","name:sr-Latn":"EuroVelo 11 - Istočnoevropska ruta - deo Srbija - Alternativna ruta","cycle_network":"EuroVelo"},"13623997":{"ref":"EV11","name":"EuroVelo 11 - East Europe Route - part Serbia - Official route","note":"In Vojvodina (North Serbia), this is official route as surveyed using signs on route, which is NOT same as what can be found at official EuroVelo web site. In Central Serbia, it is NOT surveyed, but follows official route from EuroVelo web site.","type":"route","route":"bicycle","colour":"#003399","icn_ref":"11","name:en":"EuroVelo 11 - East Europe Route - part Serbia - Main route","name:nl":"EuroVelo 11 - Oost-Europaroute - deel Servië - hoofdroute","name:sr":"ЕуроВело 11 - Источноевропска рута - део Србија - Главна рута","network":"icn","website":"https://en.eurovelo.com/ev11/serbia","complete":"no","operator":"European Cyclists' Federation","name:sr-Latn":"EuroVelo 11 - Istočnoevropska ruta - deo Srbija - Glavna ruta","cycle_network":"EuroVelo"}}