{"1764594":{"ref":"R1","name":"Euroroute R1 - part Kaliningrad","type":"route","route":"bicycle","name:de":"Europaradweg R1 - Abschnitt Kaliningrad","name:en":"Euroroute R1 - part Kaliningrad","name:nl":"Euroroute R1 - deel Kaliningrad","name:pl":"Trasa europejska R1 część Kalinigradzka","network":"icn","website":"http://www.r1-radweginfo.de"},"2788008":{"ref":"EV13","name":"Eurovelo 13 - Iron Curtain Trail - part Estonia","type":"route","route":"bicycle","colour":"#003399","icn_ref":"13","name:cs":"Eurovelo 13 - Stezka železné opony - sekce Estonsko","name:de":"Eurovelo 13 - Eiserner-Vorhang-Route - Estnischer Abschnitt","name:en":"Eurovelo 13 - Iron Curtain Trail - part Estonia","name:fr":"Eurovelo 13 - La route du rideau de fer - part Estonie","name:nl":"EuroVelo 13 - IJzerengordijnpad - deel Estland","name:pl":"Eurovelo 13 - Szlak Żelaznej Kurtyny - część Estonia","name:sk":"Eurovelo 13 - Cesta Železnej opony - sekcia Estónsko","name:tr":"Eurovelo 13 - Demir Perde Yolu - kısım Estonya","network":"icn","description":"ncn estonian part of icn eurovelo","cycle_network":"EuroVelo"},"2829195":{"ref":"EV10","name":"EuroVelo 10 - Baltic Sea Cycle Route - part Russia - proposed","route":"bicycle","state":"proposed","colour":"#003399","icn_ref":"10","name:cs":"EuroVelo 10 - Trasa kolem Baltského moře - sekce Rusko","name:de":"EuroVelo 10 - Ostseeküsten-Radweg - Abschnitt Russland","name:en":"EuroVelo 10 - Baltic Sea Cycle Route - part Russia","name:fr":"EuroVelo 10 - Littoral de la mer Baltique - tronçon Russie","name:nl":"EuroVelo 10 - Oostzeeroute - deel Rusland","name:pl":"EuroVelo 10 - Szlak Rowerowy Morza Bałtyckiego - część Rosja","name:sk":"EuroVelo 10 - Trasa okolo Baltického mora - sekcia Rusko","name:uk":"EuroVelo 10 - Baltic Sea Cycle Route - part Russia - proposed","network":"icn","website":"http://www.eurovelo.com/en/eurovelos/eurovelo-10/countries/russia","was:type":"route","description":"ncn russian part of icn eurovelo","cycle_network":"EuroVelo"},"3104673":{"ref":"1","name":"Циферблат-Родник","type":"route","route":"bicycle","state":"community"},"3105270":{"ref":"3","name":"Циферблат - Ленинский суд","type":"route","route":"bicycle","state":"community"},"3105271":{"ref":"2","name":"Циферблат-парк Октябрьской Революции","type":"route","route":"bicycle","state":"community"},"6421813":{"ref":"1","name":"Площадь Ленина - Президентский мост","type":"route","route":"bicycle","network":"lcn"},"7074550":{"ref":"01","name":"Веломаршрут от курорта \\\"Игора\\\" 01","type":"route","fixme":"Надо проверить и уточнить по указателям на местности","route":"bicycle","source":"Информационные стенды у станции 69 км","network":"lcn","distance":"38 km","roundtrip":"yes"},"9711548":{"ref":"Ufa1","name":"Уфа1","type":"route","route":"bicycle","network":"lcn","description":"Линейный веломаршрут через Уфу"},"11768795":{"ref":"SHB-4","name":"Панский дуб","type":"route","route":"bicycle","network":"lcn","distance":"16","description":"До с.Яблочково вдоль р.Короча"},"11800847":{"ref":"SHB-5","name":"Большетроицкое","type":"route","route":"bicycle","network":"lcn","distance":"44","description":"Вдоль р.Нежеголь до с.Большетроицкое"},"11812331":{"ref":"SHB-1","name":"Belgorod-Shebekino","type":"route","route":"bicycle","network":"lcn","distance":"41","roundtrip":"no","description":"Belgorod-Shebekino bicycle route"},"11839391":{"ref":"SHB-2","name":"Вдоль двух рек","type":"route","route":"bicycle","network":"lcn","distance":"33","roundtrip":"yes"},"13146612":{"ref":"142","name":"142: Peipsi and Narva river","type":"route","route":"bicycle","network":"lcn","website":"https://www.visitestonia.com/en/142-peipsi-and-narva-river-bicycle-route","distance":"140"},"13168125":{"ref":"2","name":"Веломаршрут №2","note":"маршрут в процессе отрисовки","type":"route","route":"bicycle","colour":"blue","network":"lcn"},"13168126":{"ref":"1","name":"Веломаршрут №1","note":"маршрут в процессе отрисовки","type":"route","route":"bicycle","colour":"red","network":"lcn"},"13232073":{"ref":"Velo 1","name":"Velo1 Москва - Санкт-Петербург","type":"route","route":"bicycle","name:ru":"Вело1 Москва - Санкт-Петербург","network":"ncn","contact:website":"https://velo-1.com/"},"13308160":{"ref":"3","name":"Веломаршрут №3","note":"маршрут в процессе отрисовки","type":"route","route":"bicycle","colour":"violet","network":"lcn"},"13327853":{"ref":"SHB-3","name":"Балка Каменный лог","type":"route","route":"bicycle","network":"lcn","distance":"37","roundtrip":"yes"},"13949685":{"ref":"4","name":"Веломаршрут №4","type":"route","route":"bicycle","colour":"orange","network":"lcn"}}