{"139639":{"ref":"024","name":"Záhorská cyklomagistrála","type":"route","route":"bicycle","colour":"red","network":"ncn","website":"https://tt.cykloportal.sk/trasy/024-zahorska-cyklomagistrala/","complete":"yes","operator":"SCK","description":"Devín - Zohor - Malacky - Šaštín-Stráže - Holíč - Skalica - Senica"},"214543":{"ref":"2005","name":"Dúbravská radiála","type":"route","route":"bicycle","colour":"blue","network":"rcn","complete":"yes","operator":"STaRZ","description":"Marked from Lafranconi bridge to Dúbravka"},"215264":{"ref":"004","name":"Moravská cyklotrasa","type":"route","route":"bicycle","colour":"red","name:cs":"Moravská cyklotrasa","name:de":"Marcher Radweg","name:sk":"Moravská cyklotrasa","network":"ncn","website":"https://www.cykloportal.sk/trasy/004-moravska-cyklisticka-cesta/","complete":"no","operator":"SCK"},"215265":{"ref":"5006","name":"Cyklotrasa Chorvátske rameno","type":"route","route":"bicycle","colour":"green","network":"rcn","operator":"STaRZ","description":"popri Chorvátskom ramene"},"216249":{"ref":"8008","name":"Stupavská cyklocesta","type":"route","route":"bicycle","colour":"yellow","network":"rcn","complete":"no","description":"Devínske jazero - Stupava - Marianka"},"226262":{"ref":"4","name":"Moravská stezka","type":"route","route":"bicycle","network":"ncn","complete":"no","operator":"cz:KČT"},"238712":{"ref":"047","name":"Štefánikova cyklomagistrála","type":"route","route":"bicycle","colour":"red","network":"ncn","complete":"no","operator":"SCK","description":"Koliba - Kamzík - Pezinská Baba - Sklená Huta - Buková - Košariská","name:etymology:wikidata":"Q319962"},"239474":{"ref":"5005","name":"Račianska radiála","type":"route","route":"bicycle","colour":"green","network":"rcn","complete":"yes","operator":"STaRZ","description":"Istrochem - Rača"},"337949":{"ref":"2008","name":"Green Bike Tour","type":"route","route":"bicycle","colour":"blue","network":"rcn","complete":"yes"},"349362":{"ref":"003","name":"Malokarpatská cyklomagistrála","type":"route","route":"bicycle","colour":"red","network":"ncn","complete":"no","operator":"SCK","wikidata":"Q17151339","wikipedia":"sk:Malokarpatská cyklomagistrála","description":"Vysoká pri Morave - Zohor - Pernek - Buková - Vrbové - Nové Mesto nad Váhom"},"454851":{"ref":"002","name":"Vážska cyklomagistrála","note":"úsek Komárno - Šúrovce","type":"route","route":"bicycle","colour":"red","network":"ncn","complete":"yes","operator":"SCK","description":"Komárno - Sereď - Šúrovce"},"569001":{"ref":"5851","name":"Cyklotrasy Cemjata","type":"route","route":"bicycle","colour":"green","network":"rcn","complete":"no","operator":"Kostitras"},"957105":{"name":"Ružinovská radiála","type":"route","route":"bicycle","colour":"yellow","network":"lcn","complete":"no","operator":"STaRZ"},"957106":{"name":"Popri Malom Dunaji - Východná radiala","type":"route","route":"bicycle","colour":"green","network":"lcn","complete":"yes","operator":"STaRZ"},"957107":{"ref":"2001","name":"Ružinovská tangenta","type":"route","route":"bicycle","colour":"blue","network":"rcn","complete":"no"},"957108":{"name":"Dolnozemská cesta","type":"route","route":"bicycle","colour":"red","network":"lcn","complete":"yes","operator":"Bratislava - Peržalka"},"1069878":{"ref":"017","name":"Dolnozemplínska cyklomagistrála","type":"route","route":"bicycle","colour":"red","network":"ncn","website":"https://ke.cykloportal.sk/trasy/017-dolnozemplinska-cyklomagistrala/","complete":"no","operator":"Kostitras","description":"Veľká Izra – Čerhov – Viničky – Veľké Slemence"},"1069879":{"ref":"018","name":"Slanská cyklomagistrála","type":"route","route":"bicycle","colour":"red","network":"ncn","complete":"no","operator":"SCK;VKÚ"},"1077283":{"ref":"5003","name":"Stupavský okruh","type":"route","route":"bicycle","colour":"green","network":"rcn","complete":"yes","operator":"SCK"},"1077300":{"jel":"rc","ref":"R","name":"Rákóczi nyomában kerékpártúra","type":"route","route":"bicycle","colour":"green","name:hu":"Rákóczi nyomában kerékpártúra","name:pl":"Rakoczy Szlak rowerowy","name:sk":"Po Rákócziho stopách","network":"rcn","complete":"no","operator":"SCK"},"1096808":{"ref":"2574","name":"Cez tri kopce a stovky viníc","note":"colour je skôr violet/fialová","type":"route","route":"bicycle","colour":"blue","network":"rcn","complete":"yes","description":"Drážovce - Bukovina"},"1110136":{"ref":"038","name":"Terchovsko - Oravská cyklomagistrála","type":"route","route":"bicycle","colour":"red","network":"ncn","complete":"yes","operator":"SCK","description":"Strečno - Terchová - Novoť"},"1111282":{"ref":"026","name":"Rajecká cyklomagistrála","note":"v úseku Žilina - Rosina už nie je vidieť žiadne C-čko, podľa ktorého by sa dalo odhadnúť trasovanie","type":"route","route":"bicycle","colour":"red","network":"ncn","complete":"yes","operator":"SCK","description":"Žilina - Turie - Rajecké Teplice - Kamenná Poruba - Rajec"},"1112311":{"ref":"021","name":"Hnilecká cyklomagistrála","type":"route","route":"bicycle","colour":"red","network":"ncn","complete":"no","operator":"SCK"},"1115727":{"ref":"5710","name":"Vínna cyklotrasa","type":"route","route":"bicycle","colour":"green","network":"rcn","website":"https://ke.cykloportal.sk/trasy/5710-vinna-cyklotrasa-cerhov-ladmovce-hradza/","complete":"no","operator":"ZOTR","description":"Čerhov – Ladmovce hrádza"},"1251749":{"ref":"5477","name":"Okruh Terchovským chotárom","type":"route","route":"bicycle","colour":"green","network":"rcn","complete":"yes","operator":"SCK"},"1271083":{"to":"Ústie Lesnického potoka, Prielom Dunajca SK/PL","ref":"014","from":"Hrabušice, mýto","name":"Spišská cyklomagistrála","type":"route","route":"bicycle","colour":"red","network":"ncn","complete":"yes","operator":"SCK"},"1273316":{"ref":"S512","name":"Cez Sitinu","type":"route","route":"bicycle","state":"proposed","colour":"violet","network":"lcn","operator":"Cyklokoalícia"},"1274229":{"ref":"019","name":"Ponitrianska cyklomagistrála","type":"route","route":"bicycle","colour":"red","network":"ncn","complete":"no","old_name":"Hornonitrianska cyklomagistrála","operator":"SCK","description":"Prameň Nitry - Nitrianske Pravno – Bojnice – Opatovce nad Nitrou – Nováky – Kamenec pod Vtáčnikom – Bystričany – Čereňany – Oslany – Malé Uherce – Partizánske – Žabokreky nad Nitrou - prerušenie - Výčapy, Opatovce - Veľký Cetín - Nové Zámky - Komoča"},"1278665":{"ref":"2424","url":"https://za.cykloportal.sk/trasy/2424-terchovsko-zazrivsky-okruh/","name":"Terchovsko-zázrivský okruh","type":"route","route":"bicycle","colour":"blue","network":"rcn","complete":"yes","operator":"SCK","description":"Terchová - Zázrivá - Oravská Lesná - Sedlo Demänová - Stará Bystrica - Terchová"},"1363517":{"dog":"no","ref":"2565","name":"Rodinná cestička","type":"route","horse":"no","route":"bicycle","colour":"blue","network":"rcn","complete":"yes","operator":"ekoPolis","description":"Banská Bystrica - Hronsek - Zvolen"},"1430208":{"ref":"5317","name":"Rokošská radiála","type":"route","route":"bicycle","colour":"green","network":"rcn","complete":"yes","operator":"SCK","description":"Prievidza – Bojnice – Šútovské sedlo – Šútovce – Dlžín – Kostolná Ves – Nitrianske Rudno – Rudnianska Lehota – Sedlo pod Čiernym vrchom"},"1475298":{"name":"Slánska cyklomagistrála","type":"route","fixme":"Slanska CM patri do ncn a ma ref 018; je toto jej pokracovanie?","route":"bicycle","colour":"blue","network":"rcn","complete":"no","operator":"Obec Hlinné"},"1534546":{"ref":"8321","name":"Pravnianska radiála","type":"route","route":"bicycle","colour":"yellow","network":"rcn","website":"http://krizom-krazom.eu/regiony/cykloturistika-v-okrese-prievidza","complete":"no","operator":"SCK","description":"Prievidza – Lazany – Malinová – Nitrianske Pravno – Kľačno – Vrícke sedlo"},"1537026":{"ref":"5318","name":"Žiarska radiála","type":"route","route":"bicycle","colour":"green","network":"rcn","complete":"yes","operator":"SCK","description":"Prievidza – Kanie pysky – Sedlo Štyri chotáre"},"1552942":{"ref":"020","name":"Cyklomagistrála Naprieč Považským Inovcom","type":"route","route":"bicycle","colour":"red","network":"ncn","complete":"yes","operator":"SCK","description":"Topoľčany-Jacovce-Podhradie-Nová Lehota-Modrovka-Hrádok-Kočovce-Zelená voda-Trenčianske Bohuslavice-Bošaca-Nová Bošáca(Hraničný priechod)"},"1554318":{"name":"Ku Vlčiemu potoku","note":"SPORT","type":"route","route":"bicycle","colour":"yellow","network":"rcn","complete":"yes","operator":"Obec Juskova Voľa"},"1567569":{"ref":"5872","name":"Šarišský cyklookruh","type":"route","route":"bicycle","colour":"green","network":"rcn","complete":"yes","operator":"SCK Šariš"},"1567570":{"ref":"5873","name":"Povodím Svinky","type":"route","route":"bicycle","colour":"green","network":"rcn","complete":"yes","operator":"SCK Šariš"},"1588106":{"ref":"5319","name":"Cigeľská spojka","type":"route","route":"bicycle","colour":"green","network":"rcn","website":"http://krizom-krazom.eu/regiony/cykloturistika-v-okrese-prievidza","complete":"yes","operator":"SCK","description":"Cigeľ – Sebedražie – Púšť – Prievidza"},"1597167":{"ref":"5315","name":"Cyklookruh Medzihorie","type":"route","route":"bicycle","colour":"green","network":"rcn","complete":"yes","operator":"SCK","description":"Veľké Uherce – Oslany – Ľubianka – Horná Ves – Rudica – Radobica – Cerová – Sedlo pod Rajtokom – Veľké Pole – Sedlo Veľké Pole – Veľké Uherce"},"1618256":{"ref":"2308","name":"Bojnický cyklookruh","type":"route","route":"bicycle","ascent":"2694","colour":"blue","descent":"2694","network":"rcn","website":"http://krizom-krazom.eu/regiony/cykloturistika-v-okrese-prievidza","complete":"yes","distance":"154","operator":"SCK","roundtrip":"yes","description":"Nitrianske Pravno - Handlová - Lehota pod Vtáčnikom - Oslany"},"1632568":{"ref":"8320","name":"Lehotská radiála","type":"route","route":"bicycle","colour":"yellow","network":"rcn","complete":"no","operator":"SCK","description":"Prievidza – Koš – Laskár – Lehota pod Vtáčnikom"},"1662393":{"name":"Carnuntum - Schloss Hof - Bratislava Tour","type":"route","route":"bicycle","network":"rcn","website":"https://www.donau.com/sk/roemerland-carnuntum-marchfeld/vylety-pohyb/pohyb/karten-touren-finden/detail-sk/carnuntum-schloss-hof-bratislava-tour/cb628870642b6fd0b3c71a6849700252/","complete":"yes","operator":"STaRZ","roundtrip":"yes","description":"Carnuntum - Schloss Hof - Bratislava Tour"},"1775657":{"ref":"022","name":"Kopaničiarska cyklomagistrála","type":"route","route":"bicycle","colour":"red","network":"ncn","complete":"yes"},"1840910":{"name":"Prístavná","type":"route","route":"bicycle","colour":"green","network":"lcn","complete":"yes","operator":"STaRZ","description":"Prístavný most - Prístavná - Košická"},"1875125":{"ref":"5871","name":"Green Bicycle - East Carpathian Greenway","type":"route","route":"bicycle","colour":"green","ref:pl":"R61","ref:sk":"5871","name:en":"Green Bicycle - East Carpathian Greenway","name:pl":"Zielony Rower - Greenway Karpaty Wschodnie","name:sk":"Zelený bicykel - Greenway Východné Karpaty","network":"rcn","website":"http://www.greenways.by/index.php?content&id=88&lang=en"},"1903804":{"ref":"8322","name":"Hradecká radiála","type":"route","route":"bicycle","colour":"yellow","network":"rcn","website":"http://krizom-krazom.eu/regiony/cykloturistika-v-okrese-prievidza","complete":"yes","operator":"SCK"},"1957817":{"ref":"5856","name":"Humenská cyklotrasa","type":"route","route":"bicycle","colour":"green","network":"rcn","complete":"no","operator":"SCK","description":"Humenné - Jasenov - Chlmec - Ptičie - Kamienka - Kamenica nad Cirochou - Hažín nad Cirochou - Lackovce - Humenné"},"1968895":{"name":"Vranovský cyklookruh","type":"route","route":"bicycle","colour":"blue","network":"rcn","complete":"no","operator":"ZCR Ekovalali"},"2054443":{"to":"Kremnica","ref":"032","from":"Vrútky","name":"Turčianska cyklomagistrála","type":"route","route":"bicycle","colour":"red","network":"ncn","website":"http://za.cykloportal.sk/cervene-trasy/231-032-turcianska-cyklomagistrala","complete":"yes","operator":"Turiec-Kremnicko","description":"Vrútky - Kremnica"},"2177162":{"name":"Cyklotrasa Novomestské podhorie","type":"route","route":"bicycle","colour":"yellow","network":"rcn","complete":"yes","operator":"Bratislava - Nové Mesto","description":"Sliačska - Pekná cesta"},"2233675":{"ref":"VT10","name":"Cyklotrasy Vysoke Tatry","type":"route","route":"bicycle","network":"lcn"},"2238171":{"ref":"2415","name":"Znievska cyklocesta","type":"route","route":"bicycle","colour":"blue","network":"rcn","complete":"yes","operator":"TBS JUS","description":"Martin - Turčianske Teplice"},"2238175":{"ref":"8414","name":"Blatnicko - Mošovská cyklotrasa","type":"route","route":"bicycle","colour":"yellow","network":"rcn","complete":"no","operator":"TBS JUS","description":"Blatnica - Socovce- Mošovce"},"2271751":{"ref":"007","name":"Podtatranská cyklomagistrála","type":"route","route":"bicycle","colour":"red","network":"ncn","complete":"yes","description":"Lysá Poľana - Tatranská Kotlina - Podbanské - Kvačany"},"2271862":{"name":"Ružinovská diagonála","type":"route","route":"bicycle"},"2272402":{"ref":"8003","name":"Spojka Malé Leváre (024-EV13)","type":"route","route":"bicycle","colour":"yellow","network":"rcn"},"2320064":{"ref":"5571","name":"Brezniansky cyklookruh","type":"route","route":"bicycle","colour":"green","network":"rcn","complete":"yes","operator":"SCK","description":"Brezno, námestie - Čiery Balog - Valaská - Brezno, námestie"},"2322515":{"ref":"026","name":"Vrchárska cyklomagistrála","type":"route","route":"bicycle","colour":"red","network":"ncn","complete":"no","operator":"SCK","description":"Vrchslatina - Čierny Balog, žel. stanica ČHZ"},"2322665":{"ref":"5551","name":"Okruh okolo Poľany","type":"route","route":"bicycle","colour":"green","network":"rcn","complete":"yes"},"2322706":{"ref":"012","name":"Rudohorská cyklomagistrála","type":"route","route":"bicycle","colour":"red","network":"ncn","operator":"SCK","description":"Jelšava - Hnúšťa - Kokava nad Rimavicou"},"2322713":{"ref":"013","name":"Novohradská cyklomagistrála","type":"route","route":"bicycle","colour":"red","network":"ncn","operator":"SCK","description":"Detva - Podkriváň - Divín - Lučenec"},"2531538":{"ref":"2554","name":"Zelená stuha Horehronia","type":"route","route":"bicycle","colour":"blue","network":"rcn","complete":"yes","operator":"SCK","description":"Bystrá - Horné Lazy - Sedlo Vagnár - Braväcovo - Veľkozelenská dolina - Bacúch"},"2586150":{"ref":"011","name":"Hontianska cyklomagistrála","type":"route","route":"bicycle","colour":"red","network":"ncn","complete":"yes","operator":"SCK"},"2591952":{"ref":"O1","name":"Cyklotrasa O1: Historický okruh","type":"route","route":"bicycle","state":"completed","network":"lcn","operator":"Bratislava"},"2624621":{"ref":"041","name":"Veľký hodrušský okruh","type":"route","route":"bicycle","colour":"red","network":"ncn","website":"https://bajkomktajchom.sk/vho/","complete":"yes","operator":"OÚ Hodruša - Hámre"},"2701813":{"name":"Cyklotrasa Ivanka - Zálesie","type":"route","route":"bicycle"},"2733343":{"ref":"R17","name":"Cyklotrasa R17: Prievozská radiála (plánovaná)","type":"route","route":"bicycle","state":"proposed","network":"lcn","operator":"Bratislava"},"2733695":{"ref":"R12","name":"Cyklotrasa R12: Lamačská radiála (plánovaná)","type":"route","route":"bicycle","state":"proposed","network":"lcn","operator":"Bratislava"},"2738056":{"ref":"006","name":"Oravská cyklomagistrála","note":"na trase pribudli nové smerovníky, niektoreé som doplnil, ale minimálne ešte jeden v Oraviciach chýba","type":"route","route":"bicycle","colour":"red","network":"ncn","complete":"no","operator":"SCK","description":"Oravská cyklomagistrála"},"2738370":{"ref":"R22","name":"Cyklotrasa R22: Kramárska radiála (plánovaná)","type":"route","route":"bicycle","state":"proposed","network":"lcn"},"2738383":{"ref":"R16","name":"Cyklotrasa R16: Ružinovská radiála (plánovaná)","type":"route","route":"bicycle","state":"proposed","network":"lcn","operator":"Bratislava"},"2738396":{"ref":"R19","name":"Cyklotrasa R19: Petržalské korzo","type":"route","route":"bicycle","state":"completed","network":"lcn","operator":"Bratislava"},"2738510":{"ref":"R18","name":"Cyklotrasa R18: Petržalská radiála","type":"route","route":"bicycle","network":"lcn","operator":"Bratislava"},"2738737":{"ref":"S561","name":"Cyklotrasa S561: Vladimíra Clementisa","type":"route","route":"bicycle","state":"completed","network":"lcn","operator":"Cyklokoalícia"},"2738742":{"ref":"S565","name":"spojka Ivana Horvátha","type":"route","route":"bicycle","state":"proposed","network":"lcn","operator":"Cyklokoalícia"},"2738881":{"ref":"005","name":"Kysucká cyklomagistrála","type":"route","route":"bicycle","colour":"red","network":"ncn","website":"http://za.cykloportal.sk/cervene-trasy/167-005-kysucka-cyklomagistrala","complete":"yes","operator":"SCK","description":"Kotešová - Korňa - Čadca - Skalité - Krásno nad Kysucou - Stará Bystrica - Sedlo Demänová","osmc:symbol":"red:white:C:red"},"2740717":{"ref":"O2","name":"Cyklotrasa O2: 2. okruh","type":"route","route":"bicycle","network":"lcn","operator":"Bratislava"},"2742471":{"ref":"R27","name":"Cyklotrasa R27: Malodunajská radiála","type":"route","route":"bicycle","state":"proposed","network":"lcn","operator":"Cyklokoalícia"},"2743298":{"ref":"046","name":"Beskydská cyklomagistrála","type":"route","route":"bicycle","colour":"red","source":"Podrobná cykloturistická mapa Orava-Liptov-Horehronie","network":"rcn","operator":"Slovenský cykloklub","description":"Beskydská cyklomagistrála","network:type":"rcn"},"2744205":{"ref":"R20","name":"Cyklotrasa R20: Priečna os","type":"route","route":"bicycle","state":"proposed","network":"lcn","operator":"Cyklokoalícia"},"2744231":{"ref":"O3","name":"Cyklotrasa O3: 3. okruh","type":"route","route":"bicycle","state":"completed","network":"lcn","operator":"Bratislava"},"2744259":{"ref":"O4","name":"Cyklotrasa O4: 4. okruh","type":"route","route":"bicycle","network":"lcn","operator":"Bratislava"},"2744276":{"ref":"R13","name":"Cyklotrasa R13: Račianska radiála","type":"route","route":"bicycle","state":"proposed","network":"lcn","operator":"Bratislava"},"2744397":{"ref":"R11","name":"Dúbravská radiála","type":"route","route":"bicycle","network":"lcn","operator":"Bratislava"},"2744419":{"ref":"O5","name":"5. okruh","type":"route","route":"bicycle","state":"proposed","network":"lcn","operator":"Cyklokoalícia"},"2747205":{"ref":"S261","name":"spojka Kvačalova","type":"route","route":"bicycle","state":"proposed","network":"lcn","operator":"Cyklokoalícia"},"2747226":{"ref":"S550","name":"spojka Trnávka / Zlaté piesky","type":"route","route":"bicycle","state":"proposed","network":"lcn","operator":"Cyklokoalícia"},"2757933":{"ref":"S171","name":"spojka Lazaretská","type":"route","route":"bicycle","state":"proposed","network":"lcn","operator":"Cyklokoalícia"},"2757939":{"ref":"S141","name":"spojka Mariánska","type":"route","route":"bicycle","state":"proposed","network":"lcn","operator":"Cyklokoalícia"},"2757992":{"ref":"S384","name":"Šustekova ul. – Haanova ul.","type":"route","route":"bicycle","state":"proposed","network":"lcn","operator":"Cyklokoalícia"},"2758004":{"ref":"S492","name":"spojka Fedinova","type":"route","route":"bicycle","state":"proposed","network":"lcn","operator":"Cyklokoalícia"},"2758020":{"ref":"S490","name":"Trasa cez Dvory","type":"route","route":"bicycle","state":"proposed","network":"lcn","operator":"Cyklokoalícia"},"2766213":{"ref":"R55","name":"Letisková radiála","type":"route","route":"bicycle","state":"proposed","network":"lcn","operator":"Cyklokoalícia"},"2771777":{"ref":"5880","name":"Po stopách príhod dobrého vojaka Švejka","type":"route","route":"bicycle","colour":"green","ref:pl":"R63","ref:sk":"5880","source":"http://bieszczady-online.pl/","name:sk":"Po stopách príhod dobrého vojaka Švejka","network":"ncn","wikidata":"Q9351924","wikipedia":"pl:Szlak śladami dobrego wojaka Szwejka"},"2772630":{"ref":"R48","name":"Starohájska radiála","type":"route","route":"bicycle","state":"proposed","network":"lcn","operator":"Cyklokoalícia"},"2774901":{"ref":"O7","name":"7. okruh - východná časť","type":"route","route":"bicycle","state":"proposed","network":"lcn","operator":"Cyklokoalícia"},"2774912":{"ref":"S620","name":"Lamačská spojka","type":"route","route":"bicycle","state":"proposed","network":"lcn","operator":"Cyklokoalícia"},"2776214":{"ref":"S461","name":"spojka Sabinovská","type":"route","route":"bicycle","state":"proposed","network":"lcn","operator":"Cyklokoalícia"},"2777183":{"ref":"S133","name":"Spojka Leškova","type":"route","route":"bicycle","state":"proposed","network":"lcn","operator":"Cyklokoalícia"},"2781146":{"ref":"S140","name":"spojka Mickiewiczowa","type":"route","route":"bicycle","state":"proposed","network":"lcn","operator":"Cyklokoalícia"},"2781167":{"ref":"S330","name":"spojka Transsibírska magistrála","type":"route","route":"bicycle","state":"proposed","network":"lcn","operator":"Cyklokoalícia"},"2782510":{"ref":"S480","name":"Trasa po Dolnozemskej ceste","type":"route","route":"bicycle","state":"proposed","network":"lcn","operator":"Cyklokoalícia"},"2782543":{"ref":"R41","name":"Karloveská radiála","type":"route","route":"bicycle","state":"proposed","network":"lcn","operator":"Cyklokoalícia"},"2782782":{"ref":"R33","name":"Podkarpatská radiála","type":"route","route":"bicycle","state":"proposed","network":"lcn","operator":"Cyklokoalícia"},"2782879":{"ref":"R35","name":"Cyklotrasa R35: Trnávska radiála","type":"route","route":"bicycle","state":"proposed","network":"lcn","operator":"Bratislava"},"2783779":{"ref":"EV11","name":"EuroVelo 11 - East Europe Route - part Slovakia","type":"route","route":"bicycle","colour":"red","icn_ref":"11","name:cs":"EuroVelo 11 - Trasa východní Evropou - sekce Slovensko","name:de":"EuroVelo 11 - Osteuropa-Route - teil Slowakei","name:en":"EuroVelo 11 - East Europe Route - part Slovakia","name:fr":"EuroVelo 11 - La route de l'Europe de l'Est - tronçon Slovaquie","name:hu":"EuroVelo 11 - Szlovákiai szakasz","name:it":"EuroVelo 11 - Itinerario Europa Orientale - parte Slovacchia","name:nl":"EuroVelo 11 - Oost-Europaroute - deel Slowakije","name:pl":"EuroVelo 11 - Szlak Europy Wschodniej - część Słowacja","name:sk":"EuroVelo 11 - Trasa východnou Európou - sekcia Slovensko","name:tr":"EuroVelo 11 - Doğu Avrupa Rotası - kısım Slovakya","network":"icn","website":"https://www.eurovelo11.sk/","complete":"no","cycle_network":"EuroVelo"},"2787773":{"ref":"R14","name":"Cyklotrasa R14: Vajnorská radiála","type":"route","route":"bicycle","state":"proposed","network":"lcn","operator":"Bratislava"},"2794040":{"ref":"R34","name":"Novomestská radiála","type":"route","route":"bicycle","state":"proposed","network":"lcn","operator":"Cyklokoalícia"},"2794069":{"ref":"S373","name":"Plynárenská","type":"route","route":"bicycle","state":"proposed","network":"lcn","operator":"Cyklokoalícia"},"2794070":{"ref":"S375","name":"Ruzova dolina","type":"route","route":"bicycle","state":"proposed","colour":"yellow","network":"lcn","operator":"Cyklokoalícia"},"2794080":{"ref":"S260","name":"Velehradská","type":"route","route":"bicycle","state":"proposed","colour":"yellow","operator":"Cyklokoalícia"},"2794092":{"ref":"S514","name":"Spojka k internátom","type":"route","route":"bicycle","state":"proposed","network":"lcn","operator":"Cyklokoalícia"},"2794700":{"ref":"S610","name":"Starodúbravská spojka","type":"route","route":"bicycle","state":"proposed","network":"lcn","operator":"Cyklokoalícia"},"2795224":{"ref":"R36","name":"Biskupická radiála","type":"route","route":"bicycle","state":"proposed","network":"lcn","operator":"Cyklokoalícia"},"2795416":{"ref":"S516","name":"spojka Staré grunty","type":"route","route":"bicycle","state":"proposed","network":"lcn","operator":"Cyklokoalícia"},"2795495":{"ref":"S110","name":"Cyklotrasa S110: Hradná spojka","type":"route","route":"bicycle","state":"proposed","network":"lcn","operator":"Cyklokoalicia"},"2795567":{"ref":"S482","name":"Romanova – Starhradská","type":"route","route":"bicycle","state":"proposed","network":"lcn","operator":"Cyklokoalicia"},"2795752":{"ref":"R28","name":"Čunovská radiála","type":"route","route":"bicycle","state":"completed","network":"lcn","operator":"Cyklokoalícia"},"2803830":{"ref":"S680","name":"Spojka po Ľubovnianskej","type":"route","route":"bicycle","state":"proposed","network":"lcn","operator":"Cyklokoalicia"},"2805447":{"ref":"O9","name":"9. okruh","type":"route","route":"bicycle","state":"proposed","network":"lcn","operator":"Cyklokoalícia"},"2805456":{"ref":"S821","name":"spojka Pod Vápenickým potokom","type":"route","route":"bicycle","state":"proposed","network":"lcn","operator":"Cyklokoalícia"},"2836782":{"ref":"R51","name":"Cyklotrasa R51: Devínska radiála","type":"route","route":"bicycle","network":"lcn","operator":"Bratislava"},"2837262":{"ref":"R29","name":"Cyklotrasa: Wolfsthalská radiála","type":"route","route":"bicycle","state":"completed","network":"lcn","operator":"Bratislava"},"2909857":{"name":"Cyklotrasa Hornád","type":"route","route":"bicycle","colour":"red","complete":"no"},"2962216":{"ref":"8706","name":"Jelšavská spojka","type":"route","route":"bicycle","colour":"yellow","network":"rcn","complete":"yes"},"2972079":{"ref":"033","name":"Donovalská cyklomagistrála","type":"route","route":"bicycle","colour":"red","network":"ncn","complete":"yes","operator":"SCK"},"3019947":{"ref":"6","name":"Šusterovka","type":"route","route":"bicycle","colour":"green","network":"lcn","complete":"yes","operator":"Mestské lesy Košice","description":"Čermeľ, Urbánkova - Alpinka"},"3079596":{"ref":"035","name":"Liptovská cyklomagistrála","type":"route","route":"bicycle","colour":"red","network":"ncn","complete":"no","operator":"SCK","description":"Bešeňová - Demänovská Dolina - Liptovský Hrádok - Biely Potok"},"3081882":{"name":"Pivovarský okruh","type":"route","route":"bicycle","colour":"red","network":"ncn","complete":"yes","operator":"Región Banská Štiavnica","description":"Pivovarský okruh"},"3081888":{"ref":"2586","name":"Lillova hamovačka","type":"route","route":"bicycle","colour":"blue","network":"rcn","complete":"yes","description":"Lillova hamovačka"},"3082101":{"ref":"8632","name":"spojka Hajská skala","type":"route","route":"bicycle","colour":"yellow","network":"rcn","complete":"yes","description":"spojka Hajská skala"},"3082102":{"name":"spojka Lukavica","type":"route","route":"bicycle","colour":"green","network":"ncn","complete":"yes","description":"spojka Lukavica"},"3085671":{"ref":"5211","name":"Cyklotrasa Sereď","type":"route","route":"bicycle","colour":"green","network":"lcn","roundtrip":"yes"},"3086472":{"name":"Kamenná spojka","type":"route","route":"bicycle","colour":"yellow","network":"rcn","complete":"yes","description":"Kamenná spojka"},"3086625":{"name":"Kopanická spojka","type":"route","route":"bicycle","colour":"yellow","network":"rcn","complete":"yes","operator":"OÚ Hodruša - Hámre","description":"Kopanická spojka"},"3090838":{"ref":"5562","name":"Bolemanova trasa","note":"trasa 5562 je aj pri Banskej Bystrici","type":"route","fixme":"continue","route":"bicycle","colour":"green","network":"rcn","operator":"Región Banská Štiavnica"},"3092083":{"ref":"2582","name":"Okruh Masaryk","type":"route","route":"bicycle","colour":"blue","network":"rcn","complete":"yes","description":"Okruh Masaryk"},"3117444":{"ref":"2207","name":"Okolo VN Kráľová","type":"route","route":"bicycle","colour":"blue","network":"rcn","complete":"yes","distance":"40","old_name":"Okruh Šala","operator":"SCK","roundtrip":"yes","old_operator":"SK CykloTour Sereď"},"3125017":{"ref":"042","name":"Vrchárska cyklomagistrála","type":"route","route":"bicycle","colour":"red","network":"ncn","complete":"no","operator":"SCK"},"3161683":{"ref":"5587","name":"Beliansky okruh","type":"route","route":"bicycle","colour":"green","network":"rcn","complete":"yes","operator":"OÚ Banská Belá"},"3161684":{"ref":"8618","name":"Spojka Gastorne","type":"route","route":"bicycle","colour":"yellow","network":"rcn","complete":"yes","operator":"OÚ Banská Belá"},"3163979":{"ref":"5408","name":"Okruh Rudina","type":"route","route":"bicycle","colour":"green","network":"rcn","complete":"yes","operator":"SCK","roundtrip":"yes","description":"Rudina - Nesluša - Rudina (cyklookruh)"},"3202558":{"to":"Málinec","via":"Poltár","from":"Lučenec","name":"Cyklistický náučný chodník","type":"route","route":"bicycle","colour":"none","network":"lcn","educational":"yes"},"3203785":{"ref":"5568","name":"Cyklistický náučný chodník Lesopark - Ľadovo - Ipolytarnóc","type":"route","route":"bicycle","colour":"green","network":"rcn","complete":"yes","operator":"SCK","description":"Lučenec - Kalonda","educational":"yes"},"3203786":{"ref":"009","name":"Cyklomagistrála Poiplia","type":"route","route":"bicycle","colour":"red","network":"ncn","alt_name":"Ipeľská cyklomagistrála"},"3233186":{"ref":"024","name":"Rajecká cyklomagistrála","type":"route","route":"bicycle","colour":"red","network":"ncn","complete":"yes","operator":"SCK","description":"Rajec - Domaniža - Považská Bystrica, vážska cyklomagistrála"},"3294932":{"name":"O2 - Kyslíková trasa","note":"not marked","type":"route","route":"bicycle","colour":"white","network":"lcn","operator":"O2"},"3303302":{"ref":"2102","name":"Veľký okruh mikroregiónu Termál","type":"route","route":"bicycle","colour":"blue","network":"rcn","complete":"yes","operator":"SCK","description":"Podhájska - Dedinka - Čechy - Podhájska (Okruh)"},"3330351":{"ref":"8026","name":"Spojka pod Švábskym vrchom","type":"route","route":"bicycle","colour":"yellow","network":"rcn","operator":"SCK","description":"neviem názov - Prameň Nápojiská"},"3362711":{"ref":"5558","name":"Brusniansky okruh","type":"route","route":"bicycle","colour":"green","network":"rcn","complete":"yes","operator":"SCK"},"3398468":{"ref":"049","name":"Tribečská hrebeňovka","type":"route","route":"bicycle","colour":"red","network":"ncn","complete":"yes","operator":"SCK","description":"Nitra (Hrad) - Penhýbeľ"},"3398470":{"ref":"045","name":"Požitavská cyklomagistrála","type":"route","route":"bicycle","colour":"red","network":"ncn","complete":"yes","operator":"SCK","description":"Úľany nad Žitavou - Vráble - Horný Ohaj - Slepčany - Zlaté Moravce - Veľká Lehota - Prameň Žitavy"},"3407117":{"ref":"008","name":"Popradská cyklomagistrála","type":"route","route":"bicycle","colour":"red","network":"ncn","complete":"yes","operator":"SCK","description":"Poprad - Biely Potok"},"3415318":{"ref":"2864","name":"Na Hrebienok","type":"route","route":"bicycle","colour":"blue","network":"rcn","complete":"yes","operator":"www.mountainbiking.sk;SCK","description":"Starý Smokovec - Hrebienok","osmc:symbol":"blue:white:::C:blue"},"3484932":{"ref":"8438","name":"Liptovský Hrádok okruh","type":"route","route":"bicycle","colour":"yellow","network":"rcn","complete":"yes","operator":"SCK Liptov","description":"Liptovský Hrádok"},"3517120":{"name":"Lesný cykloturistický náučný chodník SIGORD","type":"route","route":"bicycle","colour":"green","network":"lcn","complete":"no","operator":"Lesy SR"},"3598238":{"ref":"5900","name":"Šafránska cyklotrasa","note":"should end in Okružná but probably unfinished yet","type":"route","route":"bicycle","colour":"green","network":"rcn","complete":"no","operator":"obec Vyšná Šebastová"},"3598317":{"ref":"015","url":"https://www.cyklopo.sk/cyklotrasy/detail-cyklotrasy/13?poi=cykl","name":"Karpatská cyklocesta","type":"route","route":"bicycle","colour":"red","network":"ncn","complete":"no","operator":"SCK"},"3609476":{"name":"Kolpašský okruh","type":"route","route":"bicycle","colour":"yellow","complete":"noexit","operator":"Združenie turizmu Banská Štiavnica"},"3658332":{"ref":"016","name":"Karpatská magistrála","type":"route","route":"bicycle","colour":"red","network":"ncn","complete":"yes","description":"PL/SK - SK/UK"},"3669717":{"ref":"010","name":"Pohronská cyklomagistrála","note":"Úsek Tlmače - Starý Tekov značený 10/2018","type":"route","route":"bicycle","colour":"red","network":"ncn","complete":"yes","operator":"SCK","description":"Tlmače - Starý Tekov - Kalná nad Hromon - Jur nad Hronom"},"3692463":{"ref":"5892","name":"Na križovatke kultúr","type":"route","route":"bicycle","colour":"green","network":"rcn","complete":"yes","operator":"Bardejov"},"3729025":{"ref":"5563","name":"Štiavnická Anča","note":"trasa 5563 je aj pri Banskej Bystrici","type":"route","route":"bicycle","colour":"green","network":"rcn","complete":"yes","description":"Štiavnická Anča"},"3735422":{"ref":"049","name":"Cyklocesta Márie Séči","note":"!NEZNAČENÁ! V ÚSEKU TRI CHOTÁRE - RIMAVSKÁ SOBOTA","type":"route","route":"bicycle","colour":"red","network":"ncn","complete":"no","operator":"SCK"},"3740347":{"ref":"040","name":"Cyklomagistrála Liptov - Horehronie - Gemer","type":"route","route":"bicycle","colour":"red","network":"ncn","complete":"yes","operator":"SCK","description":"Čierny Váh - Tisovec - Hnúšťa - Rimavská Sobota"},"3763983":{"ref":"8324","name":"Chalmovská spojka","type":"route","route":"bicycle","colour":"yellow","network":"rcn","complete":"yes"},"3789455":{"ref":"8614","name":"Okruh okolo Magury","type":"route","route":"bicycle","colour":"yellow","network":"rcn","complete":"yes","operator":"SCK"},"3890030":{"ref":"037","name":"Cyklomagistrála Blhu","note":"na jednom rozcestniku sa uvadzaju aj Tomášovce, ale cyklotrasa konci vo V. Blhu","type":"route","route":"bicycle","colour":"red","network":"ncn","complete":"yes","description":"Veľký Blh - Rovné"},"3904535":{"ref":"8876","name":"Pod Štartom","type":"route","route":"bicycle","colour":"yellow","network":"rcn","complete":"yes","osmc:symbol":"yellow:white:::C:yellow"},"3964145":{"ref":"2880","name":"Okolo morského oka","type":"route","route":"bicycle","colour":"blue","network":"rcn","complete":"yes","operator":"SCK"},"4067763":{"ref":"048","name":"Vinohradnícka cyklomagistrála","type":"route","route":"bicycle","colour":"red","network":"ncn"},"4085167":{"ref":"O10","name":"10. okruh","type":"route","route":"bicycle","state":"proposed","network":"lcn","operator":"Cyklokoalicia"},"4085763":{"ref":"O8","name":"8. okruh - južná časť","type":"route","route":"bicycle","state":"proposed","network":"lcn","operator":"Cyklokoalícia"},"4085764":{"ref":"O8","name":"8. okruh - východná časť","type":"route","route":"bicycle","state":"proposed","network":"lcn","operator":"Cyklokoalícia"},"4085765":{"ref":"O9","name":"9. okruh - južná časť","type":"route","route":"bicycle","state":"proposed","network":"lcn","operator":"Cyklokoalícia"},"4085766":{"ref":"R21","name":"Cyklotrasa R21: Hradná radiála (plánovaná)","type":"route","route":"bicycle","state":"proposed","network":"lcn","operator":"Bratislava"},"4085767":{"ref":"R57","name":"Rovinská radiála","type":"route","route":"bicycle","state":"proposed","network":"lcn","operator":"Cyklokoalícia"},"4085781":{"ref":"O6","name":"6. okruh - južná časť","type":"route","route":"bicycle","state":"proposed","network":"lcn","operator":"Cyklokoalícia"},"4085782":{"ref":"O6","name":"6. okruh - západná časť","type":"route","route":"bicycle","state":"proposed","network":"lcn","operator":"Cyklokoalícia"},"4085851":{"ref":"O8","name":"8. okruh - severná časť","type":"route","route":"bicycle","state":"proposed","network":"lcn","operator":"Cyklokoalícia"},"4085852":{"ref":"S520","name":"Spojka Lamačská cesta","type":"route","route":"bicycle","state":"proposed","network":"lcn","operator":"Cyklokoalícia"},"4099273":{"ref":"5316","name":"Belianska spojka","type":"route","route":"bicycle","colour":"green","network":"rcn","complete":"no","description":"Rázcestie pri odbočke do Čavoja – Valaská Belá – Sedlo Homôlka"},"4203957":{"ref":"5562","name":"Okruh Kynceľová","note":"trasa 5562 je aj pri Banskej Stiavnici","type":"route","route":"bicycle","colour":"green","network":"rcn","complete":"yes","operator":"SCK"},"4221033":{"ref":"8620","name":"Okolo Hrubého vrchu","type":"route","route":"bicycle","colour":"yellow","network":"rcn","complete":"yes","operator":"SCK"},"4272553":{"ref":"S510","name":"Dlhodielska spojka","type":"route","route":"bicycle","state":"proposed","network":"lcn","operator":"Cyklokoalícia"},"4424970":{"ref":"S271","name":"Spojka Čulenova","type":"route","route":"bicycle","state":"proposed","network":"lcn","operator":"Cyklokoalícia"},"4425061":{"ref":"S391","name":"Spojka Einsteinova","type":"route","route":"bicycle","state":"proposed","network":"lcn","operator":"Cyklokoalicia"},"4432522":{"ref":"S682","name":"Spojka Lúky IV a Lúky VII","type":"route","route":"bicycle","state":"proposed","network":"lcn","operator":"Cyklokoalícia"},"4432523":{"ref":"S591","name":"Spojka po Šintavskej a Topoľčianskej","type":"route","route":"bicycle","state":"proposed","network":"lcn","operator":"Cyklokoalícia"},"4666268":{"ref":"8905","name":"Za históriou Sniny","type":"route","route":"bicycle","colour":"yellow","network":"rcn","complete":"yes","operator":"SCK"},"4735258":{"ref":"043","name":"Hrebeňom Považského Inovca","type":"route","fixme":"continue - nedokončené v okoli Hlohovca","route":"bicycle","colour":"red","network":"ncn","website":"http://nr.cykloportal.sk/cervene-trasy/453-043-hrebenom-povazskeho-inovca","complete":"no","operator":"SCK","description":"Trenčín - Mnichova Lehota - Chata pod Inovcom - sedlo Havran - Hlohovec"},"4735260":{"ref":"8332","name":"Beckovský okruh","type":"route","route":"bicycle","ascent":"362","colour":"yellow","descent":"362","network":"rcn","complete":"no","distance":"12.4","operator":"SCK","roundtrip":"yes","description":"Beckovský okruh"},"4776083":{"ref":"052","name":"Cyklomagistrála Dr. Téryho","type":"route","route":"bicycle","colour":"red","network":"ncn","website":"https://www.cykloportal.sk/trasy/052-cyklomagistrala-dr-teryho/","complete":"yes","operator":"SCK","roundtrip":"no"},"4782141":{"name":"Bajkom okolo Hrošovho vrchu","note":"Cyklocesta značená podľa STN bez ref.čísla","type":"route","route":"bicycle","colour":"blue","network":"rcn","complete":"no","operator":"Bike Team NB","description":"Nová Baňa - Hrádza ... Bujakv vrch - Hrošov vrch - koliba ... Tajch - Kostivrch Kohútovo - Nová Baňa Hoťapo"},"4782142":{"name":"Bajkom okolo Novej Bane","note":"Cyklocesta značená podľa STN bez ref.čísla","type":"route","route":"bicycle","colour":"red","network":"rcn","complete":"no","operator":"Bike Team NB","description":"Nová Baňa - Záhrb - Bukovina - Loksova lúka - Drozdovo - Červené zeme - sedlo Kuchyňa - Hubačov štál - jazarec - Šarvízska pasienka - Kohútovo - Nová Baňa Hoťapo"},"4782143":{"name":"Bajkom ponad vodopád","note":"Cyklocesta značená podľa STN bez ref.čísla","type":"route","route":"bicycle","colour":"green","network":"rcn","complete":"yes","operator":"Bike Team NB","description":"Nová Baňa - Záhrb - Ponad Hájenku - Sedlová cesta - Cabejovi - Viničná cesta - Bôrina - Nová Baňa Hoťapo"},"4856066":{"ref":"5323","name":"Bátoričkin cyklookruh","type":"route","route":"bicycle","colour":"green","network":"rcn","website":"http://tn.cykloportal.sk/zelene-trasy/89-5323-batorickin-cyklookruh","complete":"yes","operator":"SCK","roundtrip":"yes","description":"Podolie - Krajné - Višňové - Čachtice - Podolie"},"5012394":{"ref":"2111","name":"Šahanský okruh","type":"route","route":"bicycle","colour":"blue","network":"rcn","website":"www.dudince.sk/cyklotrasy/cykloturisticke-trasy-hontu/sahanska-trasa/","complete":"yes","operator":"SCK","description":"Šahanský okruh"},"5012395":{"ref":"2593","name":"Súdovská trasa","type":"route","route":"bicycle","colour":"blue","network":"rcn","website":"www.dudince.sk/cyklotrasy/cykloturisticke-trasy-hontu/sudovska-trasa/","complete":"yes","operator":"SCK","description":"Súdovská trasa"},"5012396":{"ref":"2594","name":"Hrušovský okruh","type":"route","route":"bicycle","colour":"blue","network":"rcn","complete":"yes","operator":"SCK","roundtrip":"yes","description":"Hrušovský okruh"},"5012397":{"ref":"5553","name":"Lišovská trasa","note":"see https://www.zahoramizadolami.sk/hybaj-na-bajk/#dm=1&filter=r-fullyTranslatedLangus-&ipd=58661557&zc=9,19.43344,48.48749 for a more accurate course of the bike route","type":"route","route":"bicycle","colour":"green","network":"rcn","complete":"no","operator":"SCK","description":"Lišovská trasa"},"5012398":{"ref":"8555","name":"Tesárska trasa","type":"route","route":"bicycle","colour":"yellow","network":"rcn","complete":"no","operator":"SCK","description":"Dudince - Hontianske Tesáre"},"5304172":{"ref":"2875","name":"Cyklistický chodník ikon","type":"route","route":"bicycle","colour":"blue","network":"rcn","website":"https://gotocarpathia.sk/karpatska-turistika/cyklotrasy/cyklisticky-chodnik-ikon/","complete":"no","description":"Inovce - Nová Sedlica"},"5310665":{"ref":"8905","name":"Za históriou Sniny","type":"route","route":"bicycle","colour":"yellow","network":"rcn","website":"https://www.snina.sk/cyklochodnik-za-historiou-sniny.phtml?id3=73707","complete":"no"},"5310730":{"ref":"2885","name":"Cyklochodník umenia","type":"route","route":"bicycle","colour":"blue","network":"rcn","complete":"no"},"5310802":{"name":"Floriánska cyklotrasa","type":"route","route":"bicycle","colour":"blue","network":"rcn","complete":"no"},"5325334":{"ref":"8002","name":"Spojka Gajary (024-EV13)","type":"route","route":"bicycle","colour":"yellow","network":"rcn","complete":"yes","operator":"SCK"},"5325442":{"ref":"8581","name":"Iliaš - Vartovka","type":"route","fixme":"name","route":"bicycle","colour":"yellow","network":"rcn","complete":"yes","description":"Iliaš - Vartovka"},"5361820":{"ref":"5009","name":"Cyklochodník Servus Pontis","note":"http://www.petrzalka.sk/2013-07-18-petrzalka-participovala-na-cyklotrase-do-kittsee/","type":"route","route":"bicycle","colour":"green","network":"lcn","complete":"yes","operator":"Bratislava, mestská časť Petržalka"},"5393296":{"ref":"Marianska cyklotrasa - okruh č. 1","name":"Marianska cyklotrasa - okruh č. 1 - Pútnický okruh","type":"route","route":"bicycle","colour":"orange","network":"lcn","website":"http://www.marianka.sk/web/?q=node/7","complete":"yes"},"5393297":{"ref":"Marianska cyklotrasa - okruh č. 2","name":"Marianska cyklotrasa - okruh č. 2 - Stupavský okruh","type":"route","route":"bicycle","colour":"aqua","network":"lcn","website":"http://www.marianka.sk/web/?q=node/7","complete":"yes"},"5393298":{"ref":"Marianska cyklotrasa - okruh č. 3","name":"Marianska cyklotrasa - okruh č. 3 - Račiansky okruh","type":"route","route":"bicycle","colour":"violet","network":"lcn","website":"http://www.marianka.sk/web/?q=node/7","complete":"yes"},"5393299":{"ref":"Marianska cyklotrasa - okruh č. 4","name":"Marianska cyklotrasa - okruh č. 4 - Borinský okruh","type":"route","route":"bicycle","colour":"lime","network":"lcn","website":"http://www.marianka.sk/web/?q=node/7","complete":"no"},"5393300":{"ref":"Marianska cyklotrasa - okruh č. 5","name":"Marianska cyklotrasa - okruh č. 5 - Karpatský okruh","type":"route","route":"bicycle","colour":"black","network":"lcn","website":"http://www.marianka.sk/web/?q=node/7","complete":"yes"},"5576790":{"ref":"8931","name":"Mestská cyklotrasa Bardejov","type":"route","route":"bicycle","colour":"yellow","network":"rcn","complete":"yes","operator":"Bardejov","roundtrip":"yes"},"5662872":{"ref":"S592","name":"Pohraničná cyklotrasa sever – juh","type":"route","route":"bicycle","state":"proposed","network":"lcn"},"5662931":{"ref":"S382","name":"Cyklotrasa S382: Mamateyova","type":"route","route":"bicycle","network":"lcn"},"5663079":{"ref":"S492","name":"Cyklotrasa S492: Budatínska – Jiráskova (plánovaná)","type":"route","route":"bicycle","state":"proposed","network":"lcn"},"5663080":{"ref":"S781","name":"Pohraničná cyklotrasa východ – západ","type":"route","fixme":"cyklotrasa asi nema zmysel, ma nove prerusenia a prekazky","route":"bicycle","state":"proposed","network":"lcn"},"5663082":{"ref":"S681","name":"Spojka po Betliarskej","type":"route","route":"bicycle","state":"proposed","network":"lcn"},"5712883":{"name":"Cyklotrasa bez hraníc","type":"route","route":"bicycle","colour":"green","network":"rcn"},"5848040":{"ref":"2715","name":"Glacká cesta","type":"route","route":"bicycle","colour":"blue","network":"rcn","complete":"yes","operator":"Rozvoj Spiš;SCK"},"5968804":{"to":"Sedlo Vagnár","ref":"5577","from":"Veľká Beňušská dolina, Pri Obalovačke","name":"okolo Beňušky","type":"route","route":"bicycle","colour":"green","network":"rcn","complete":"no","operator":"SCK"},"6102773":{"ref":"2417","name":"Cyklookruh Žiar","note":"šípka v sklenom, so smerovníkom na sklene 37km - je to okrum, čo ide cez Dubové","type":"route","route":"bicycle","colour":"blue","network":"rcn","complete":"yes","operator":"TBS JUS"},"6190725":{"ref":"048","name":"Vinohradnícka cyklomagistrála","type":"route","route":"bicycle","colour":"red","network":"ncn","complete":"yes","operator":"CKPK","description":"Rača - Svätý Jur"},"6291001":{"ref":"044","name":"Cyklomagistrála Okolo Považského Inovca","type":"route","route":"bicycle","ascent":"2163","colour":"red","descent":"2163","network":"ncn","complete":"yes","distance":"127","operator":"SCK","wikidata":"Q17138376","roundtrip":"yes","wikipedia":"sk:Okolo Považského Inovca","description":"Piešťany-Šalgovce-Radošina-Duchonka-Dubodiel-Trenčianske Jastrabie-Kalnica-Modrovka-Piešťany"},"6295832":{"ref":"8035","name":"Zelená trasa","note":"napriek nazvu ma tato cyklotrasa zltu farbu :)","type":"route","route":"bicycle","colour":"yellow","network":"rcn","complete":"yes"},"6346281":{"ref":"5014","name":"Senecký cyklistický okruh","type":"route","route":"bicycle","colour":"green","network":"rcn","complete":"yes","distance":"10.8","roundtrip":"yes","description":"Senec - Reca - Senec (okruh)"},"6355110":{"ref":"5219","name":"Veľký okočský okruh","type":"route","route":"bicycle","colour":"green","name:hu":"Nagy ekecsi körút","network":"lcn","complete":"yes","distance":"30.3","roundtrip":"yes","description":"Okočský okruh","osmc:status":"complete","network:type":"lcn","cycle_network":"SCK"},"6436988":{"ref":"031","name":"Po stopách Herkula","type":"route","route":"bicycle","colour":"red","network":"ncn","complete":"no","description":"Užhorod (zámok) - Ubľa - Zemplínske Hámre - Snina (kaštieľ)"},"6441806":{"ref":"R12","name":"Cyklotrasa R12: Lamačská radiála","type":"route","route":"bicycle","network":"lcn","operator":"Bratislava"},"6565571":{"ref":"054","url":"https://za.cykloportal.sk/trasy/054-kubinska-cyklomagistrala-biela-voda-dolny-kubin-lokca/","name":"Kubínska cyklomagistrála","type":"route","route":"bicycle","colour":"red","network":"rcn","complete":"yes","operator":"Mesto Dolný Kubín","description":"Biela Voda - Dolný Kubín - Lokca","network:type":"rcn"},"6583994":{"ref":"O6","name":"6. okruh - východná časť","type":"route","route":"bicycle","state":"proposed","network":"lcn"},"6589701":{"ref":"S112","name":"Žižkova","type":"route","route":"bicycle","state":"proposed","network":"lcn"},"6609575":{"ref":"8462","name":"Hviezdoslavova horáreň","type":"route","route":"bicycle","colour":"yellow","network":"rcn","complete":"yes","operator":"SCK","description":"Vonžovec - Pod Palkošom","network:type":"rcn"},"6694364":{"to":"Hrabušice","ref":"034","from":"Biely Potok","name":"Hornádska cyklomagistrála","type":"route","route":"bicycle","colour":"red","network":"ncn","complete":"no","operator":"SCK"},"6709565":{"name":"3 - Klepáč","type":"route","route":"bicycle","colour":"maroon","network":"lcn","website":"https://www.teplice.sk/pcdata/editor/Image/cyklomapa/cyklomapa.jpg","complete":"no"},"6709566":{"name":"7 - Turkovice - Homôľka","type":"route","route":"bicycle","colour":"yellow","network":"lcn","website":"https://www.teplice.sk/pcdata/editor/Image/cyklomapa/cyklomapa.jpg","complete":"no"},"6709567":{"name":"2 - Homôľka","type":"route","route":"bicycle","colour":"blue","network":"lcn","website":"https://www.teplice.sk/pcdata/editor/Image/cyklomapa/cyklomapa.jpg","complete":"no"},"6709568":{"name":"1 - Baske","type":"route","route":"bicycle","colour":"purple","network":"lcn","website":"https://www.teplice.sk/pcdata/editor/Image/cyklomapa/cyklomapa.jpg","complete":"no"},"7064637":{"ref":"5304","name":"Cez Ihelník","type":"route","route":"bicycle","colour":"green","network":"rcn","complete":"yes","operator":"SCK","description":"Hrádok - Tematín - Ihelník - Hrádok"},"7064639":{"ref":"2310","name":"Okruh Hrádockou dolinou","type":"route","route":"bicycle","colour":"blue","network":"rcn","complete":"yes","operator":"SCK","description":"Hrádok - Tematín - Hrádok"},"7099666":{"ref":"2592","name":"Stopa Salamandry","type":"route","route":"bicycle","colour":"blue","network":"rcn","complete":"yes","operator":"SCK"},"7099668":{"ref":"5597","name":"Prachovňa","type":"route","route":"bicycle","colour":"green","network":"rcn","complete":"yes","operator":"SCK"},"7127614":{"name":"Južný cyklookruh mesta Lučenec","type":"route","route":"bicycle","colour":"brown","network":"lcn","complete":"no","operator":"SCK","description":"hnedé SCK cykloznačenie + rozcestníky s fotkami, ale žiadne číselné označenie cyklotrasy"},"7127626":{"name":"JZ cyklookruh mesta Lučenec","type":"route","route":"bicycle","colour":"green","network":"lcn","complete":"no","description":"Lučenec, Malé Dálovce, Panické Dravce, Jazerá Veliká, Veľká n. Ipľom"},"7135905":{"ref":"5014","name":"Singletrack Vydrica","type":"route","route":"bicycle","colour":"green","network":"rcn","complete":"no","operator":"SCK","description":"Sanatórium - U Slivu - Údolie Vydrice"},"7172317":{"name":"Pusztafalu - Bysta","type":"route","route":"bicycle","network":"rcn"},"7172318":{"name":"Pusztafalu - Brezina","type":"route","route":"bicycle","network":"rcn"},"7258505":{"name":"Gemerská zelená cesta","type":"route","route":"bicycle","network":"lcn","website":"http://cyklo.sk/cyklomobilita/gemerske-zelene-cesty/","alt_name":"Ekotrasa","complete":"yes","operator":"Mesto Revúca"},"7322748":{"ref":"SZ-02","name":"SZ cyklookruh mesta Lučenec 02","type":"route","route":"bicycle","colour":"purple","network":"rcn","complete":"no"},"7322749":{"ref":"SZ-03","name":"SZ cyklookruh mesta Lučenec","type":"route","route":"bicycle","colour":"purple","network":"rcn","complete":"no"},"7366254":{"name":"Z-02B cyklookruh mesta Lučenec","type":"route","route":"bicycle","colour":"red","network":"rcn","complete":"no"},"7366255":{"name":"Z-02 cyklookruh mesta Lučenec","type":"route","route":"bicycle","colour":"red","network":"rcn","complete":"no"},"7366256":{"ref":"057","name":"Južná cykloturistická magistrála","type":"route","route":"bicycle","colour":"red","network":"ncn","complete":"no","operator":"SCK","description":"Budinské Lazy - Ábelová - Lentvora - Ľuboreč - Šiatorská Bukovinka"},"7435854":{"name":"Timravin náučný chodník","type":"route","route":"bicycle","colour":"green","network":"lcn","complete":"yes","operator":"obec Polichno"},"7442068":{"to":"Majer","ref":"8720","from":"Majer","name":"Majer okruh","type":"route","route":"bicycle","colour":"yellow","network":"rcn","website":"http://ke.cykloportal.sk/zlte-trasy/517-8720-podlesok-majer-okruh","complete":"no","roundtrip":"yes","description":"Majer - okruh"},"7463521":{"ref":"8126","name":"Spojka nad Novou Lehotou","type":"route","route":"bicycle","colour":"yellow","network":"rcn","complete":"yes"},"7474290":{"ref":"8111","name":"Spojka pod Pánskou Javorinou","type":"route","route":"bicycle","ascent":"164","colour":"yellow","descent":"54","network":"rcn","complete":"yes","distance":"3.5","operator":"SCK","description":"Spojka pod Pánskou Javorinou"},"7547982":{"ref":"SWT","name":"Historyczno-kulturowo-przyrodniczy Szlak Wokół Tatr","type":"route","route":"bicycle","name:pl":"Historyczno-kulturowo-przyrodniczy Szlak Wokół Tatr","name:sk":"Historicko - kultúrno - prírodná cesta okolo Tatier","network":"icn","website":"http://www.szlakwokoltatr.eu/","complete":"no"},"7671823":{"ref":"S470","name":"Južnoprievozská spojka","type":"route","route":"bicycle","state":"proposed","network":"lcn","operator":"Cyklokoalícia"},"7671824":{"ref":"S471","name":"Spojka Kladnianska","type":"route","route":"bicycle","state":"proposed","network":"lcn","operator":"Cyklokoalícia"},"7711500":{"ref":"N2001","name":"Petržalské bunkre","type":"route","route":"bicycle","colour":"blue","network":"rcn","complete":"yes","operator":"SCK;BSK","description":"Petržalska-Zadné lúky - Most Lafranconi"},"8038452":{"ref":"8041","name":"Suchý vrch (okruh)","type":"route","route":"bicycle","colour":"yellow","network":"rcn","complete":"no"},"8219819":{"ref":"5208","name":"Veľký skalický okruh","type":"route","route":"bicycle","colour":"green","network":"rcn","complete":"no"},"8244480":{"ref":"5210","name":"5210 - Okruh Horné Otrokovce","type":"route","route":"bicycle","colour":"green","network":"rcn","complete":"yes","operator":"SCK","description":"Záhumenice - Červená hlina - Šarapák - Chaty"},"8250326":{"ref":"8649","name":"Pálenica","type":"route","route":"bicycle","colour":"yellow","network":"lcn","complete":"yes","operator":"SCK","description":"Javor - Komárnik"},"8257330":{"name":"Majerský","type":"route","route":"bicycle","complete":"yes","description":"Majerský"},"8257663":{"name":"Z cyklookruh mesta Lučenec","type":"route","route":"bicycle","colour":"orange","network":"rcn","complete":"no"},"8277949":{"ref":"8645","name":"Stajňová","type":"route","route":"bicycle","colour":"yellow","network":"lcn","complete":"yes","operator":"SCK","description":"Za Tŕnim"},"8277967":{"ref":"055","name":"Bacúch - Pohorelá","type":"route","route":"bicycle","colour":"red","network":"rcn","complete":"yes","operator":"Obec Pohorela","description":"Bacúch - Pohorelá"},"8286577":{"ref":"5581","name":"Frntuľová - Pohorelá","type":"route","route":"bicycle","colour":"green","network":"rcn","complete":"no","operator":"SCK","description":"Frntuľová - Pohorelá"},"8286578":{"ref":"8650","name":"Vakešová","type":"route","route":"bicycle","colour":"yellow","network":"lcn","complete":"yes","operator":"SCK","description":"Za Vrchom"},"8349223":{"name":"Bohátka - Bojnice spojka","type":"route","route":"bicycle","colour":"green","network":"lcn","distance":"3.8","operator":"Hornonitrianske stopy","roundtrip":"no"},"8349224":{"name":"Bojnicko - Dubnický okruh","type":"route","route":"bicycle","colour":"red","network":"lcn","distance":"13.8","operator":"Hornonitrianske stopy","roundtrip":"yes"},"8383606":{"ref":"3 - Super Enduro","name":"3 - Super Enduro","type":"route","route":"bicycle","colour":"blue","network":"lcn","operator":"Bike Park Kálnica","cycle_network":"Bike Park Kálnica"},"8383611":{"ref":"5 - Pump Line Enduro","name":"5 - Pump Line Enduro","type":"route","route":"bicycle","colour":"blue","network":"lcn","operator":"Bike Park Kálnica","cycle_network":"Bike Park Kálnica"},"8383639":{"ref":"1","name":"Testovací okruh XC","type":"route","route":"bicycle","network":"lcn","colour:arrow":"yellow","cycle_network":"Bike Park Kálnica"},"8476927":{"name":"Výstup na Salášky (cyklo)","type":"route","route":"bicycle","colour":"blue","source":"gps;local knowledge","network":"lcn","complete":"yes","osmc:symbol":"blue::white_turned_V:blue_triangle"},"8490465":{"ref":"2210","name":"Galantský Cyklookruh","type":"route","route":"bicycle","colour":"blue","network":"rcn","distance":"64 km","roundtrip":"yes"},"8506005":{"ref":"R47","name":"Cyklotrasa R47: Dolnohonská radiála (plánovaná)","type":"route","route":"bicycle","state":"proposed","network":"lcn","operator":"Bratislava"},"8515990":{"ref":"R14","name":"Vajnorská radiála","type":"route","route":"bicycle","network":"lcn","operator":"Bratislava"},"8538078":{"name":"Okolo chotára","type":"route","route":"bicycle","colour":"red","network":"lcn","complete":"yes","operator":"o.z. Bike Village"},"8538079":{"name":"Medvedia stopa","type":"route","route":"bicycle","colour":"green","network":"lcn","complete":"yes","operator":"o.z. Bike Village"},"8538080":{"name":"Jelenia stopa","type":"route","route":"bicycle","colour":"yellow","network":"lcn","complete":"yes","operator":"o.z. Bike Village"},"8855903":{"ref":"8499","name":"Rio de Klin","type":"route","route":"bicycle","colour":"yellow","network":"rcn","complete":"yes","operator":"SCK","description":"Rázcestie pod Grapou - pútnické miesto Rio de Klin"},"8855971":{"ref":"N5401","name":"Chotárom obce Klin","type":"route","route":"bicycle","colour":"green","network":"rcn","complete":"yes","operator":"SCK","description":"Chotárom obce Klin"},"9049109":{"ref":"VSP-HO","name":"Vinařská stezka Podluží - Hodonínský okruh","type":"route","route":"bicycle","colour":"orange","network":"rcn","website":"https://www.vinarske.stezky.cz/stezka/Vinarska-stezka-Podluzi","operator":"Nadace Partnerství","roundtrip":"yes","cycle_network":"Moravské vinařské stezky"},"9343790":{"ref":"024A","name":"Spojka na Baťov kanál","type":"route","route":"bicycle","colour":"red","network":"rcn","website":"https://www.cykloportal.sk/trasy/024a-spojka-na-batov-kanal/","operator":"SCK"},"9344132":{"ref":"2206","name":"Okruh vinohradmi","type":"route","route":"bicycle","colour":"blue","network":"rcn","description":"Skalica, Kaplnka sv. Františka - Psíky - Koziny - Kolébky - Skalica, Kaplnka sv. Františka"},"9344289":{"ref":"8229","name":"Spojka na Troch kopcoch","type":"route","route":"bicycle","colour":"yellow","network":"rcn","description":"Kamenná búda - Koválovské lúky, Pod Tromi kopcami"},"9629968":{"to":"Maštinec (Veľká Ves)","ref":"2595","from":"Lučenec","name":"Štavičiarska","type":"route","route":"bicycle","colour":"blue","network":"rcn","website":"http://www.tournovohrad.sk/","operator":"OOCR Turistický Novohrad a Podpoľanie"},"9771438":{"name":"Topoľčiansky hrad","type":"route","route":"bicycle","colour":"black","network":"lcn","operator":"SCK","description":"Hrad"},"9815909":{"ref":"053","name":"Javornícka magistrála","type":"route","route":"bicycle","colour":"red","network":"ncn","complete":"yes","operator":"SCK","description":"Lúky - Kohútka"},"10033654":{"name":"Tanková cesta","type":"route","route":"bicycle","colour":"green","network":"rcn","rcn_ref":"5470"},"10162591":{"name":"Barborská cesta","type":"route","route":"bicycle","colour":"black","source":"Skeyemap, s.r.o.","network":"rcn","website":"http://barborskacesta.com","complete":"yes","operator":"Občianske združenie Banský Región - Terra Montanae","osmc:symbol":"black:yellow:black_tower"},"10715328":{"ref":"N2002","name":"SacraVelo (Bratislavský kraj)","type":"route","route":"bicycle","colour":"blue","network":"rcn","website":"https://sacravelo.eu/sk_SK/home","complete":"no","operator":"SCK","description":"SacraVelo - Sieť cezhraničných pútnických cyklotrás v okolí Dunaja"},"10960906":{"ref":"R28","name":"Čunovská radiála","type":"route","fixme":"duplicitna relacia s dalsou R28 od Stareho mosta, netreba ich zlucit? Ale na razcestniku pod mostom SNP o R28 nie je zmienka","route":"bicycle","state":"completed","network":"lcn","operator":"Cyklokoalicia"},"11008431":{"ref":"R11","name":"Dúbravská radiála","type":"route","route":"bicycle","state":"proposed","source":"Územný generel dopravy","network":"lcn","operator":"Bratislava"},"11012813":{"ref":"O2","name":"Cyklotrasa O2: 2. okruh (plánovaná)","type":"route","route":"bicycle","state":"proposed","network":"lcn","operator":"Bratislava"},"11012942":{"ref":"R18","name":"Cyklotrasa R18: Petržalská radiála (plánovaná)","type":"route","route":"bicycle","state":"proposed","network":"lcn","operator":"Bratislava"},"11012943":{"ref":"R38","name":"Cyklotrasa R38: Chorvátske rameno","type":"route","route":"bicycle","network":"lcn","operator":"Bratislava"},"11012999":{"ref":"R16","name":"Cyklotrasa R16: Ružinovská radiála","type":"route","route":"bicycle","state":"completed","network":"lcn","operator":"Bratislava"},"11013062":{"ref":"O4","name":"4. okruh","type":"route","route":"bicycle","state":"completed","network":"lcn","operator":"Bratislava"},"11014921":{"ref":"R17","name":"Cyklotrasa R17: Prievozská radiála","type":"route","route":"bicycle","state":"completed","network":"lcn","operator":"Bratislava"},"11014936":{"ref":"R20","name":"Cyklotrasa R20: Priečna os","type":"route","route":"bicycle","state":"completed","network":"lcn","operator":"Bratislava"},"11017495":{"ref":"O1","name":"Cyklotrasa O1: Historický okruh (plánovaná)","type":"route","route":"bicycle","state":"proposed","network":"lcn","operator":"Bratislava"},"11017541":{"ref":"O3","name":"Cyklotrasa O3: 3. okruh (plánovaná)","type":"route","route":"bicycle","state":"proposed","network":"lcn","operator":"Bratislava"},"11063037":{"ref":"R51","name":"Cyklotrasa R51: Devínska radiála (plánovaná)","type":"route","route":"bicycle","state":"proposed","network":"lcn","operator":"Bratislava"},"11076846":{"ref":"EV6","name":"EuroVelo 6 - Atlantic-Black Sea - part Slovakia - left bank","type":"route","route":"bicycle","colour":"red","icn_ref":"6","name:cs":"EuroVelo 6 - Atlantik-Černé moře - sekce Slovensko - levý břeh","name:de":"EuroVelo 6 - Atlantik-Schwarzes Meer - teil Slowakei - linkes Ufer","name:en":"EuroVelo 6 - Atlantic-Black Sea - part Slovakia - left bank","name:fr":"EuroVelo 6 - Atlantique-Mer Noire - tronçon Slovaquie - rive gauche","name:hr":"EuroVelo 6 - Atlantik-Crno More - dio Slovačka - lijeva obala","name:hu":"EuroVelo 6 - Atlanti óceán-Fekete tenger - Szlovákiai szakasz - bal part","name:nl":"EuroVelo 6 - Atlantisch-Zwarte Zee - deel Slowakije - linkeroever","name:pl":"EuroVelo 6 - Atlantyk-Morze Czarne - część Słowacja - lewy brzeg","name:sk":"EuroVelo 6 - Atlantik-Čierne more - sekcia Slovensko - ľavý breh","network":"ncn","website":"http://ba.cykloportal.sk/cervene-trasy/587-EV-6-EuroVelo-6,-Pr%C3%ADstavn%C3%BD-most---%C5%A0t%C3%BArovo","alt_name":"Dunajská cyklistická cesta - sekcia Slovensko - ľavý breh","wikipedia":"sk:EuroVelo 6","alt_name:cs":"Dunajská cyklistická cesta - sekce Slovensko - levý břeh","alt_name:de":"Donauradweg - Abschnitt Slowakei - linkes Ufer","alt_name:en":"Danube Cycle Path - part Slovakia - left bank","alt_name:hu":"Duna menti kerékpárút - Szlovákiai szakasz - bal part","alt_name:sk":"Dunajská cyklistická cesta - sekcia Slovensko - ľavý breh","osmc:symbol":"blue:blue::6:white","cycle_network":"EuroVelo"},"11076847":{"ref":"EV6","name":"EuroVelo 6 - Atlantic-Black Sea - part Slovakia - right bank","type":"route","route":"bicycle","colour":"red","icn_ref":"6","name:cs":"EuroVelo 6 - Atlantik-Černé moře - sekce Slovensko - pravý břeh","name:de":"EuroVelo 6 - Atlantik-Schwarzes Meer - teil Slowakei - rechtes Ufer","name:en":"EuroVelo 6 - Atlantic-Black Sea - part Slovakia - right bank","name:fr":"EuroVelo 6 - Atlantique-Mer Noire - tronçon Slovaquie - rive droite","name:hr":"EuroVelo 6 - Atlantik-Crno More - dio Slovačka - desna obala","name:hu":"EuroVelo 6 - Atlanti óceán-Fekete tenger - Szlovákiai szakasz - jobb part","name:nl":"EuroVelo 6 - Atlantisch-Zwarte Zee - deel Slowakije - rechteroever","name:pl":"EuroVelo 6 - Atlantyk-Morze Czarne - część Słowacja - prawy brzeg","name:sk":"EuroVelo 6 - Atlantik-Čierne more - sekcia Slovensko - pravý breh","network":"icn","website":"http://ba.cykloportal.sk/cervene-trasy/575-EV-6-EuroVelo-6-(Berg---Rajka)","alt_name":"Dunajská cyklistická cesta - sekcia Slovensko - pravý breh","wikipedia":"sk:EuroVelo 6","alt_name:cs":"Dunajská cyklistická cesta - sekce Slovensko - pravý břeh","alt_name:de":"Donauradweg - Abschnitt Slowakei - rechtes Ufer","alt_name:en":"Danube Cycle Path - part Slovakia - right bank","alt_name:hu":"Duna menti kerékpárút - Szlovákiai szakasz - jobb part","alt_name:sk":"Dunajská cyklistická cesta - sekcia Slovensko - pravý breh","osmc:symbol":"blue:blue::6:white","cycle_network":"EuroVelo"},"11079900":{"ref":"O4","name":"Cyklotrasa O4: 4. okruh (plánovaná)","type":"route","route":"bicycle","state":"proposed","network":"lcn","operator":"Bratislava"},"11089194":{"ref":"002","name":"Vážska cyklomagistrála","note":"úsek Hlohovec - Strečno","type":"route","route":"bicycle","colour":"red","network":"ncn","website":"http://tt.cykloportal.sk/cervene-trasy/48-002a-vazska-cyklomagistrala-hlohovec-strecno","complete":"yes","operator":"SCK","description":"Hlohovec - Piešťany - Trenčín - Považská Bystrica - Žilina - Strečno"},"11195995":{"ref":"001a","name":"Dunajská cyklistická cesta","type":"route","route":"bicycle","colour":"blue","name:cs":"Dunajská cyklistická cesta","name:de":"Donauradweg","name:en":"Danube Cycle Path","name:hu":"Duna menti kerékpárút","name:pl":"Dunajska trasa rowerowa","name:sk":"Dunajská cyklistická cesta","network":"rcn","complete":"yes","operator":"SCK, BSK","wikipedia":"sk:Dunajská cyklistická cesta","description":"Čunovo - Gabčíkovo"},"11202590":{"ref":"8653","name":"Krivý most","type":"route","route":"bicycle","colour":"yellow","network":"rcn","complete":"yes","operator":"Obec Polomka","description":"Krivý most"},"11227155":{"ref":"S492","name":"Cyklotrasa S492: Budatínska – Jiráskova","type":"route","route":"bicycle","network":"lcn","operator":"Bratislava"},"11247511":{"name":"Kalvária na Peknú vyhliadku","type":"route","route":"bicycle","colour":"yellow","network":"lcn"},"11254890":{"ref":"6182o","name":"6182o Kavalčanky - Kelčovské sedlo","type":"route","route":"bicycle","network":"rcn","complete":"no","operator":"cz:KČT","osmc:symbol":"green:yellow:green_bar"},"11293190":{"ref":"5485","name":"Okolo Oravskej Jasenice","type":"route","route":"bicycle","colour":"green","network":"rcn","description":"Okolo Oravskej Jasenice","network:type":"rcn"},"11295278":{"name":"Hranica PL/SK","type":"route","route":"bicycle","colour":"black","network":"lcn","cycle_network":"lcn"},"11320147":{"ref":"8249","name":"Po stopách vodných mlynov","type":"route","fixme":"nekompletne","route":"bicycle","colour":"yellow","network":"lcn","distance":"64 km","roundtrip":"yes"},"11343921":{"ref":"8487","name":"Pamätník na Háji","type":"route","route":"bicycle","colour":"yellow","network":"rcn","network:type":"rcn"},"11359256":{"name":"Trstená","type":"route","route":"bicycle","colour":"yellow","network":"lcn","network:type":"lcn"},"11359280":{"name":"Hladovka","type":"route","route":"bicycle","colour":"yellow","network":"lcn","network:type":"lcn"},"11375161":{"ref":"R47","name":"Cyklotrasa R47: Dolnohonská radiála","type":"route","route":"bicycle","state":"completed","network":"lcn","operator":"Bratislava"},"11484833":{"ref":"S382","name":"Cyklotrasa S382: Mamateyova (plánovaná)","type":"route","route":"bicycle","state":"proposed","network":"lcn"},"11865620":{"name":"Liesek","type":"route","route":"bicycle","colour":"yellow","network":"lcn","network:type":"lcn"},"11905508":{"name":"Náučná cyklotrasa a chodník po trase úzkokoľajky","type":"route","route":"bicycle","colour":"green","network":"lcn","complete":"no","distance":"8","operator":"Obec Smolnícka Huta","description":"Smolnícka Huta - Mníšek nad Hnilcom"},"12283287":{"ref":"5884","name":"Po sninskej úzkokoľajke","type":"route","route":"bicycle","colour":"green","network":"rcn"},"12445925":{"name":"JuRaVa","type":"route","fixme":"overit a doplnit useky trasy lebo je rozvetvena","route":"bicycle","website":"https://www.jurava.sk/inpage/cyklotrasy/","complete":"no","operator":"Združenie miest a obcí JURAVA"},"12555053":{"ref":"2","name":"Okruh Hrabiny","type":"route","route":"bicycle","colour":"green","network":"lcn","operator":"Cyklo Adventure Slovakia"},"12567891":{"ref":"2895","name":"Sopkovský okruh","type":"route","route":"bicycle","colour":"blue","network":"rcn","roundtrip":"yes"},"12656964":{"ref":"2705","name":"Modrou na Modrý kameň","type":"route","route":"bicycle","colour":"blue","network":"rcn","complete":"no"},"12788076":{"ref":"O10","name":"10. okruh","type":"route","route":"bicycle","state":"proposed","network":"lcn","operator":"Cyklokoalicia"},"12890128":{"ref":"2440","name":"Rajeckou dolinou Na dvoch kolesách","type":"route","route":"bicycle","colour":"blue","network":"rcn","complete":"yes","operator":"SCK","description":"Jasenové - Rajecké Teplice - Stránske - Kunerad - Rajec, centrum - Rajecká Lesná - Rajec, družstvo"},"12914003":{"ref":"8912","name":"Cyklochodník malých planét","type":"route","route":"bicycle","colour":"yellow","network":"lcn"},"13165249":{"name":"Muráň MTB","note":"Obchádková trasa po prepade cesty. trasa je stále značená papiermi na stromoch a šípkami na asfalte.","type":"route","route":"bicycle","colour":"none","network":"lcn","complete":"no"},"13191755":{"ref":"5608","name":"Hrušovský okruh č. 6 Rybník","type":"route","route":"bicycle","colour":"green","network":"rcn","complete":"yes","operator":"SCK","roundtrip":"yes","description":"Hrušovský okruh č. 6 Rybník"},"13474779":{"ref":"2011","name":"Cykloturistický okruh Šalaperská hora","type":"route","route":"bicycle","colour":"blue","network":"rcn","operator":"SCK"},"13474925":{"ref":"8047","name":"Okruh Veľkobielské jazero","type":"route","route":"bicycle","colour":"yellow","network":"rcn","complete":"no","operator":"SCK","description":"Okruh Veľkobielské jazero"},"13706736":{"ref":"5598","name":"Popod Žliabok","type":"route","route":"bicycle","colour":"green","network":"rcn","distance":"8","operator":"SCK"},"13932522":{"name":"Sátoraljaújhely helyi hálózat","type":"route","route":"bicycle","network":"lcn"},"13955638":{"name":"Bohátka - Bojnice spojka","type":"route","route":"bicycle","colour":"green","network":"lcn","operator":"Hornonitrianske stopy","roundtrip":"no"},"13960305":{"ref":"2441","name":"Okolo Snežnice","type":"route","fixme":"resurvey","route":"bicycle","colour":"blue","network":"rcn","operator":"Cyklo Team Lavína"},"13965597":{"ref":"N5001","name":"Náučný cykloturistický chodník okolím Perneka","type":"route","route":"bicycle","colour":"green","network":"lcn","operator":"Obec Pernek","osmc:symbol":"green:orange:green_C"},"14261811":{"ref":"N5201","name":"Skalická","type":"route","route":"bicycle","colour":"green","network":"rcn","website":"https://www.vinarske.stezky.cz/vylet/Skalicka","roundtrip":"yes","description":"Sudoměřice - Skalica - Baťov kanál - Kopčany - Holíč - Trnovec - Prietržka - Skalické vinohrady - Skalica - Sudoměřice","cycle_network":"Moravské vinařské stezky"},"14355350":{"ref":"051","name":"Zemplínska cyklomagistrála","type":"route","route":"bicycle","colour":"red","network":"ncn","website":"https://ke.cykloportal.sk/trasy/051-zemplinska-cyklomagistrala/","complete":"no","description":"Viničky – Zemplín"},"14455079":{"ref":"8244","name":"Trojmedzie","type":"route","route":"bicycle","colour":"yellow","network":"lcn","website":"https://tt.cykloportal.sk/trasy/8244-trojmedzie/"},"14724080":{"ref":"8646","name":"Randavica","type":"route","route":"bicycle","colour":"yellow","network":"lcn","complete":"yes","operator":"MAS - Horehronie","description":"Sedlo Burda - Horáreň Stožky"},"14884913":{"ref":"2319","name":"chýba","type":"route","route":"bicycle","colour":"blue","network":"lcn","complete":"no","operator":"ZO BTMMB","description":"chýba"},"14934792":{"name":"Vzduchovka","type":"route","route":"bicycle","network":"lcn"},"14938433":{"ref":"5569","name":"Okruh okolo Ostrého vrchu","type":"route","route":"bicycle","colour":"green","source":"survey","network":"rcn","operator":"SCK"},"14939283":{"ref":"R6","name":"Cyklotrasa Hušták – Podlavice","type":"route","route":"bicycle","network":"lcn"},"15023263":{"ref":"032","name":"Turčiansko – Kremnicko – Štiavnická cyklomagistrála","type":"route","route":"bicycle","network":"ncn","website":"https://www.cykloportal.sk/trasy/032-turciansko-kremnicko-stiavnicka-cm/","description":"I. úsek (Dudince - Svätý Anton)"},"15409243":{"name":"Mlynský náhon","type":"route","route":"bicycle"},"15409316":{"url":"https://www.severovychod.sk/vylet/cyklozeleznicka-presov-sigord","name":"Cykloželeznička Prešov - Sigord","type":"route","route":"bicycle"},"15756334":{"name":"Prepojka","type":"route","route":"bicycle"},"15832612":{"ref":"R","name":"Po Rákócziho stopách","type":"route","route":"bicycle","colour":"green","name:hu":"Rákóczi nyomában kerékpártúra","name:pl":"Rakoczy Szlak rowerowy","name:sk":"Po Rákócziho stopách","network":"rcn","complete":"no","operator":"SCK"},"15913673":{"ref":"5613","name":"Hrušovská trasa č. 5 - Jablonec","type":"route","route":"bicycle","colour":"green","network":"rcn","complete":"no","operator":"SCK","roundtrip":"yes"},"15980879":{"name":"SacraVelo (Győr-Moson-Sopron megye)","type":"route","route":"bicycle","network":"rcn","website":"https://sacravelo.eu/","complete":"no","cycle_network":"SacraVelo"},"15980898":{"name":"Rajka helyi hálózat","type":"route","route":"bicycle","network":"lcn"},"16054619":{"name":"Hurbanistov - Kuzmányho - Rusínska","type":"route","route":"bicycle","network":"lcn","network:type":"lcn"},"16054620":{"name":"Rusínska - Kuzmányho - Hurbanistov","type":"route","route":"bicycle","network":"lcn","network:type":"lcn"},"16121093":{"ref":"5133","via":"Farná","from":"Tekovsé Lužany","name":"Okruh Laurentius","type":"route","route":"bicycle","colour":"green","network":"lcn","complete":"yes","roundtrip":"yes","description":"Zelená okružná cykloturistická trasa vedie prostredím regiónu s viacerými zaujímovosťami.","network:type":"lcn","cycle_network":"SCK"},"16122903":{"ref":"5017","name":"Kráľová pri Senci – Hrubá Borša – Včelárska paseka","type":"route","route":"bicycle","colour":"green","network":"lcn","roundtrip":"no","description":"Lokalna trasa"},"16126547":{"to":"Poltár","via":"Husiná;Ožďany;Sušany;Hrnčiarske Zalužany;Hrnčiarska Ves;Maštinec","from":"Rimavská Sobota","name":"CYKLOTRASA RIMAVSKÁ SOBOTA – POLTÁR","type":"route","route":"bicycle","network":"rcn"}}