{"2661523":{"ref":"南港展覽館站至軍人公墓","name":"南港展覽館站至軍人公墓","type":"route","route":"bicycle","network":"lcn"},"4596903":{"ref":"新店溪右岸","name":"新店溪右岸自行車道","time":"0:30","type":"route","route":"bicycle","name:en":"Hsintien River Right Bank Bikeway","name:zh":"新店溪右岸自行車道","network":"rcn","distance":"8500","name:nan":"Sin-tiàm-khoe Iū-hōaⁿ Thih-bé-tō","operator":"臺北市政府工務局水利工程處","name:nan-HJ":"新店溪右岸鐵馬道","name:nan-TL":"Sin-tiàm-khue Iū-huānn Thih-bé-tō","name:nan-POJ":"Sin-tiàm-khoe Iū-hōaⁿ Thih-bé-tō"},"5680350":{"ref":"貴子坑溪","name":"貴子坑溪自行車道","type":"route","route":"bicycle","name:en":"Gui-zi-keng Stream Bikeway","name:zh":"貴子坑溪自行車道","network":"lcn","distance":"5000","operator":"臺北市政府工務局水利工程處"},"5680417":{"ref":"大度路","name":"大度路自行車道","type":"route","route":"bicycle","network":"lcn"},"5680418":{"ref":"人車共道88","name":"田心仔自行車道人車共道","type":"route","route":"bicycle","name:en":"Tian-xin-zai Bikeway","name:zh":"田心仔自行車道人車共道","network":"lcn","distance":"300","operator":"臺北市政府交通局"},"5680419":{"ref":"關渡","name":"關渡自行車道","type":"route","route":"bicycle","name:en":"Guan-du Bikeway","name:zh":"關渡自行車道","network":"rcn","operator":"臺北市政府工務局水利工程處"},"5680690":{"ref":"人車共道6","name":"洲美快速道路下西側人行道人車共道","type":"route","route":"bicycle","network":"rcn","distance":"340","operator":"臺北市政府交通局"},"5680693":{"ref":"人車共道22","name":"關渡路西側人行道人車共道","type":"route","route":"bicycle","network":"rcn","distance":"820","operator":"臺北市政府交通局"},"5680694":{"ref":"人車共道64","name":"大業東側人行道人車共道","type":"route","route":"bicycle","network":"lcn","distance":"2480","operator":"臺北市政府交通局"},"5680698":{"ref":"人車共道89","name":"大業路人行道人車共道","type":"route","route":"bicycle","network":"lcn","distance":"130","operator":"臺北市政府交通局"},"5680699":{"ref":"人車共道90","name":"大業路452巷人行道人車共道","type":"route","route":"bicycle","network":"rcn","distance":"120","operator":"臺北市政府交通局"},"5689088":{"ref":"大業路","name":"大業路自行車道","type":"route","route":"bicycle","network":"lcn"},"5690498":{"ref":"基隆河右岸","name":"基隆河右岸自行車道","time":"1:20","type":"route","route":"bicycle","name:en":"Keelung River Right Bank Bikeway","name:zh":"基隆河右岸自行車道","network":"rcn","distance":"20600","operator":"臺北市政府工務局水利工程處"},"5690499":{"ref":"基隆河左岸","name":"基隆河左岸自行車道","time":"1:30","type":"route","route":"bicycle","name:en":"Keelung River Left Bank Bikeway","name:zh":"基隆河左岸自行車道","network":"rcn","distance":"22200","operator":"臺北市政府工務局水利工程處"},"5690500":{"ref":"淡水河右岸","name":"淡水河右岸自行車道","type":"route","route":"bicycle","name:en":"Tamsui River Rightside Bikeway","name:zh":"淡水河右岸自行車道","network":"rcn","operator":"臺北市政府工務局水利工程處"},"5690688":{"ref":"百齡橋","name":"百齡橋自行車道","type":"route","route":"bicycle","name:en":"Bai-ling Bridge Bikeway","name:zh":"百齡橋自行車道","network":"rcn","operator":"臺北市政府工務局水利工程處"},"5692631":{"ref":"環島1","name":"環島1號線 (逆時針)","type":"route","route":"bicycle","name:en":"Cycling Route No. 1","name:zh":"環島1號線 (逆時針)","ncn_ref":"1","network":"ncn","website":"http://itaiwanbike.iot.gov.tw/","distance":"939.5","operator":"交通部運輸研究所","wikidata":"Q20063888","wikipedia":"zh:環島1號線","network:type":"rcn","cycle_network":"TW:Cycle No 1"},"5693616":{"ref":"社子大橋","name":"社子大橋自行車道","type":"route","route":"bicycle","network":"rcn","operator":"臺北市政府工務局水利工程處"},"5693617":{"ref":"洲美橋","name":"洲美橋自行車道","type":"route","route":"bicycle","network":"rcn","operator":"臺北市政府工務局水利工程處"},"5696003":{"ref":"頭前溪芎林段","name":"新竹縣頭前溪自行車道 - 芎林段","type":"route","route":"bicycle","network":"rcn"},"5696004":{"ref":"頭前溪堤內竹北段","name":"新竹縣頭前溪自行車道 - 竹北段(堤內)","type":"route","route":"bicycle","network":"rcn"},"5708728":{"ref":"環島1-3","name":"南投環線 (逆時針)","type":"route","route":"bicycle","name:en":"Nantou Cycling Route","name:zh":"南投環線 (逆時針)","ncn_ref":"環島1-3","network":"ncn","website":"http://itaiwanbike.iot.gov.tw/","alt_name":"環島1-3號線(逆時針)","operator":"交通部運輸研究所","wikidata":"Q111915504","alt_name:en":"Cycling Route No. 1-3"},"5712990":{"ref":"社子島","name":"社子島環島自行車道","time":"0:40","type":"route","route":"bicycle","network":"rcn","distance":"9000","operator":"臺北市政府交通局"},"5721756":{"ref":"大直橋","name":"大直橋自行車道","type":"route","route":"bicycle","network":"rcn","operator":"臺北市政府工務局水利工程處"},"5721757":{"ref":"麥帥一橋","name":"麥帥一橋自行車道","type":"route","route":"bicycle","network":"rcn","operator":"臺北市政府工務局水利工程處"},"5721758":{"ref":"彩虹橋","name":"彩虹橋自行車道","type":"route","route":"bicycle","network":"rcn","operator":"臺北市政府工務局水利工程處"},"5721759":{"ref":"成功橋","name":"成功橋自行車道","type":"route","route":"bicycle","network":"rcn","operator":"臺北市政府工務局水利工程處"},"5721760":{"ref":"南湖大橋","name":"南湖大橋自行車道","type":"route","route":"bicycle","network":"rcn","operator":"臺北市政府工務局水利工程處"},"5728926":{"ref":"關渡大橋","name":"關渡大橋自行車道","type":"route","route":"bicycle","network":"rcn"},"5728928":{"ref":"華江橋","name":"華江橋自行車道","type":"route","route":"bicycle","network":"rcn"},"5728929":{"ref":"臺北橋","name":"臺北橋自行車道","type":"route","route":"bicycle","network":"rcn"},"5730905":{"ref":"光復橋","name":"光復橋自行車道","type":"route","route":"bicycle","network":"rcn"},"5731370":{"ref":"華中橋","name":"華中橋自行車道","type":"route","route":"bicycle","network":"rcn"},"5731524":{"ref":"福和橋","name":"福和橋自行車道","type":"route","route":"bicycle","network":"rcn"},"5731525":{"ref":"永福橋","name":"永福橋自行車道","type":"route","route":"bicycle","network":"rcn"},"5752808":{"ref":"環島1","name":"環島1號線 (順時針)","type":"route","route":"bicycle","name:en":"Cycling Route No. 1","name:zh":"環島1號線 (順時針)","ncn_ref":"環島1","network":"ncn","website":"http://itaiwanbike.iot.gov.tw/","distance":"939.5","operator":"交通部運輸研究所","wikidata":"Q20063888","wikipedia":"zh:環島1號線","network:type":"rcn","cycle_network":"TW:Cycle No 1"},"5794202":{"ref":"苗栗3","name":"苗栗市自行車道","type":"route","route":"bicycle","lcn_ref":"苗栗3","network":"lcn"},"6193837":{"ref":"環島1-8","name":"大鵬灣環線","note":"Ref: http://itaiwanbike.iot.gov.tw/","type":"route","route":"bicycle","name:en":"Cycling Route No. 1-8","name:zh":"大鵬灣環線","ncn_ref":"環島1-8","network":"ncn","website":"http://itaiwanbike.iot.gov.tw/","alt_name":"環島1-8號線(逆時針)","distance":"939500","operator":"交通部運輸研究所","wikidata":"Q111915512","alt_name:en":"Cycling Route No. 1-8"},"6200784":{"ref":"環島1-9","name":"車城環線(東向)","note":"Ref: http://itaiwanbike.iot.gov.tw/","type":"route","route":"bicycle","name:en":"Cycling Route No. 1-9","name:zh":"車城環線(東向)","ncn_ref":"環島1-9","network":"ncn","operator":"交通部運輸研究所","wikidata":"Q111915513"},"6200789":{"ref":"環島1-10","name":"臺東站支線(往東)","note":"Ref: http://itaiwanbike.iot.gov.tw/","type":"route","route":"bicycle","name:en":"Cycling Route No. 1-10","name:zh":"臺東站支線(往東)","ncn_ref":"環島1-10","network":"ncn","website":"http://itaiwanbike.iot.gov.tw/","alt_name":"環島1-10號線(逆時針)","operator":"交通部運輸研究所","wikidata":"Q111915515","alt_name:en":"Cycling Route No. 1-10"},"6202921":{"ref":"環島1-9","name":"車城環線(西向)","note":"Ref: http://itaiwanbike.iot.gov.tw/","type":"route","route":"bicycle","name:en":"Cycling Route No. 1-9","name:zh":"車城環線(西向)","ncn_ref":"環島1-9","network":"ncn","operator":"交通部運輸研究所","wikidata":"Q111915513"},"6232275":{"ref":"環島1-2","name":"內山環線(逆時針)","note":"Ref: http://itaiwanbike.iot.gov.tw/","type":"route","route":"bicycle","ncn_ref":"1-2","network":"ncn","website":"http://itaiwanbike.iot.gov.tw/","alt_name":"環島1-2號線","operator":"交通部運輸研究所","wikidata":"Q111915503","alt_name:en":"Cycling Route No. 1-2"},"6232344":{"ref":"環島1-2","name":"內山環線(順時針)","note":"Ref: http://itaiwanbike.iot.gov.tw/","type":"route","route":"bicycle","ncn_ref":"1-2","network":"ncn","website":"http://itaiwanbike.iot.gov.tw/","alt_name":"環島1-2號線","operator":"交通部運輸研究所","wikidata":"Q111915503","alt_name:en":"Cycling Route No. 1-2"},"6232475":{"ref":"環島1-15","name":"瑞穗站支線(逆時針)","note":"Ref: http://itaiwanbike.iot.gov.tw/","type":"route","route":"bicycle","name:en":"Cycling Route No. 1-15","name:zh":"瑞穗站支線(逆時針)","ncn_ref":"環島1-15","network":"ncn","operator":"交通部運輸研究所","wikidata":"Q111915521"},"6232476":{"ref":"環島1-15","name":"瑞穗站支線(順時針)","note":"Ref: http://itaiwanbike.iot.gov.tw/","type":"route","route":"bicycle","name:en":"Cycling Route No. 1-15","name:zh":"瑞穗站支線(順時針)","ncn_ref":"環島1-15","network":"ncn","operator":"交通部運輸研究所","wikidata":"Q111915521"},"6232651":{"ref":"環島1-5","name":"高鐵左營站支線(逆時針)","note":"Ref: http://itaiwanbike.iot.gov.tw/","type":"route","route":"bicycle","name:en":"Cycling Route No. 1-5","name:zh":"高鐵左營站支線(逆時針)","ncn_ref":"環島1-5","network":"ncn","operator":"交通部運輸研究所","wikidata":"Q111915507"},"6232713":{"ref":"環島1-6","name":"高鐵左營站支線(順時針)","note":"Ref: http://itaiwanbike.iot.gov.tw/","type":"route","route":"bicycle","name:en":"Cycling Route No. 1-6","name:zh":"高鐵左營站支線(順時針)","ncn_ref":"環島1-6","network":"ncn","operator":"交通部運輸研究所","wikidata":"Q111915510"},"6235247":{"ref":"環島1-5","name":"新左營站支線(東向)","note":"Ref: http://itaiwanbike.iot.gov.tw/","type":"route","route":"bicycle","name:en":"Cycling Route No. 1-5","name:zh":"新左營站支線(東向)","ncn_ref":"環島1-5","network":"ncn","operator":"交通部運輸研究所","wikipedia":"zh:環島1號線"},"6252659":{"ref":"環島1-5","name":"新左營站支線(西向)","note":"Ref: http://itaiwanbike.iot.gov.tw/","type":"route","route":"bicycle","name:en":"Cycling Route No. 1-5","name:zh":"新左營站支線(西向)","ncn_ref":"環島1-5","network":"ncn","operator":"交通部運輸研究所","wikidata":"Q111915507"},"6293036":{"ref":"環島1-11","name":"花蓮車站支線(東向)","note":"Ref: http://itaiwanbike.iot.gov.tw/","type":"route","route":"bicycle","name:en":"Cycling Route No. 1-11","name:zh":"花蓮車站支線(東向)","ncn_ref":"環島1-11","network":"ncn","operator":"交通部運輸研究所","wikidata":"Q111915516"},"6293044":{"ref":"環島1-11","name":"花蓮車站支線(西向)","note":"Ref: http://itaiwanbike.iot.gov.tw/","type":"route","route":"bicycle","name:en":"Cycling Route No. 1-11","name:zh":"花蓮車站支線(西向)","ncn_ref":"環島1-11","network":"ncn","website":"http://itaiwanbike.iot.gov.tw/","alt_name":"環島1-11號線(順時針)","operator":"交通部運輸研究所","wikidata":"Q111915516","alt_name:en":"Cycling Route No. 1-11"},"7437649":{"ref":"西進武嶺","name":"西進武嶺","type":"route","route":"bicycle","network":"rcn"},"7570618":{"ref":"茄冬宵裡陽光鐵馬道","name":"茄冬宵裡陽光鐵馬道","type":"route","route":"bicycle","network":"lcn"},"7642389":{"ref":"汐止","name":"汐止自行車道","type":"route","route":"bicycle","network":"rcn"},"7642391":{"ref":"環島1-1","name":"北臺濱海環線 (西向)","type":"route","route":"bicycle","ncn_ref":"1-1","network":"ncn","website":"http://itaiwanbike.iot.gov.tw/","alt_name":"環島1-1號線(逆時針)","operator":"交通部運輸研究所","alt_name:en":"Cycling Route No. 1-1"},"7644461":{"ref":"環島1-1","name":"北臺濱海環線 (東向)","type":"route","route":"bicycle","ncn_ref":"1-1","network":"ncn","website":"http://itaiwanbike.iot.gov.tw/","alt_name":"環島1-1號線(順時針)","operator":"交通部運輸研究所","alt_name:en":"Cycling Route No. 1-1"},"7663892":{"ref":"環島1-3","name":"南投環線 (順時針)","type":"route","route":"bicycle","name:en":"Nantou Cycling Route","name:zh":"南投環線 (順時針)","ncn_ref":"環島1-3","network":"ncn","website":"http://itaiwanbike.iot.gov.tw/","alt_name":"環島1-3號線 (順時針)","operator":"交通部運輸研究所","wikidata":"Q111915504","alt_name:en":"Cycling Route No. 1-3"},"7697553":{"ncn":"環島1-4","ref":"環島1-4","name":"中臺濱海支線(逆時針)","type":"route","route":"bicycle","network":"ncn","website":"http://itaiwanbike.iot.gov.tw/","alt_name":"環島1-4號線(逆時針)","operator":"交通部運輸研究所","wikidata":"Q111915506","alt_name:en":"Cycling Route No. 1-4"},"7697554":{"ref":"環島1-4","name":"中臺濱海支線(順時針)","type":"route","route":"bicycle","ncn_ref":"環島1-4","network":"ncn","website":"http://itaiwanbike.iot.gov.tw/","alt_name":"環島1-4號線(順時針)","operator":"交通部運輸研究所","alt_name:en":"Cycling Route No. 1-4"},"7714629":{"ref":"環島1-5","name":"南臺濱海支線(逆時針)","type":"route","route":"bicycle","ncn_ref":"環島1-5","network":"ncn","website":"http://itaiwanbike.iot.gov.tw/","alt_name":"環島1-5號線(逆時針)","operator":"交通部運輸研究所","wikidata":"Q111915507","alt_name:en":"Cycling Route No. 1-5"},"7714630":{"ref":"環島1-5","name":"南臺濱海支線(順時針)","type":"route","route":"bicycle","ncn_ref":"環島1-5","network":"ncn","website":"http://itaiwanbike.iot.gov.tw/","alt_name":"環島1-5號線(順時針)","operator":"交通部運輸研究所","wikidata":"Q111915507","alt_name:en":"Cycling Route No. 1-5"},"7722713":{"ref":"環島1-8","name":"大鵬灣環線","note":"Ref: http://itaiwanbike.iot.gov.tw/","type":"route","route":"bicycle","name:en":"Cycling Route No. 1-8","name:zh":"大鵬灣環線","ncn_ref":"環島1-8","network":"ncn","website":"http://itaiwanbike.iot.gov.tw/","alt_name":"環島1-8號線(逆時針)","distance":"939500","operator":"交通部運輸研究所","wikidata":"Q111915512","alt_name:en":"Cycling Route No. 1-8"},"7732883":{"ref":"環島1-12","name":"溪南環線 (北向)","type":"route","route":"bicycle","ncn_ref":"環島1-12","network":"ncn","website":"http://itaiwanbike.iot.gov.tw/","alt_name":"環島1-12號線(順時針)","operator":"交通部運輸研究所","wikidata":"Q111915517","alt_name:en":"Cycling Route No. 1-12"},"7735266":{"ref":"環島1-13","name":"關渡碧潭支線(逆時針)","type":"route","route":"bicycle","ncn_ref":"環島1-13","network":"ncn","website":"http://itaiwanbike.iot.gov.tw/","alt_name":"環島1-13號線(逆時針)","operator":"交通部運輸研究所","wikidata":"Q111915518","alt_name:en":"Cycling Route No. 1-13"},"7735268":{"ref":"環島1-13","name":"關渡碧潭支線(順時針)","type":"route","route":"bicycle","ncn_ref":"環島1-13","network":"ncn","website":"http://itaiwanbike.iot.gov.tw/","alt_name":"環島1-13號線(順時針)","operator":"交通部運輸研究所","wikidata":"Q111915518","alt_name:en":"Cycling Route No. 1-13"},"7735536":{"ref":"環島1-14","name":"環島1-14號線(逆時針)","type":"route","route":"bicycle","name:en":"Cycling Route No. 1-14","name:zh":"環島1-14號線(逆時針)","ncn_ref":"環島1-14","network":"ncn","website":"http://itaiwanbike.iot.gov.tw/","operator":"交通部運輸研究所","wikidata":"Q111915520"},"7735537":{"ref":"環島1-14","name":"環島1-14號線(順時針)","type":"route","route":"bicycle","name:en":"Cycling Route No. 1-14","name:zh":"環島1-14號線(順時針)","ncn_ref":"環島1-14","network":"ncn","website":"http://itaiwanbike.iot.gov.tw/","operator":"交通部運輸研究所","wikidata":"Q111915520"},"7737612":{"ref":"環島1-15","name":"環島1-15號線(順時針)","type":"route","route":"bicycle","name:en":"Cycling Route No. 1-15","name:zh":"環島1-15號線(順時針)","ncn_ref":"環島1-15","network":"ncn","website":"http://itaiwanbike.iot.gov.tw/","operator":"交通部運輸研究所","wikidata":"Q111915521"},"7739786":{"ref":"環島1-16","name":"環島1-16號線(逆時針)","type":"route","route":"bicycle","name:en":"Cycling Route No. 1-16","name:zh":"環島1-16號線(逆時針)","ncn_ref":"環島1-16","network":"ncn","website":"http://itaiwanbike.iot.gov.tw/","operator":"交通部運輸研究所","wikidata":"Q111915522"},"7739787":{"ref":"環島1-16","name":"環島1-16號線(順時針)","type":"route","route":"bicycle","name:en":"Cycling Route No. 1-16","name:zh":"環島1-16號線(順時針)","ncn_ref":"環島1-16","network":"ncn","website":"http://itaiwanbike.iot.gov.tw/","operator":"交通部運輸研究所","wikidata":"Q111915522"},"7748599":{"ref":"環島1-17","name":"環島1-17號線(逆時針)","type":"route","route":"bicycle","name:en":"Cycling Route No. 1-17","name:zh":"環島1-17號線(逆時針)","ncn_ref":"環島1-17","network":"ncn","website":"http://itaiwanbike.iot.gov.tw/","operator":"交通部運輸研究所","wikidata":"Q111915523"},"7748600":{"ref":"環島1-17","name":"環島1-17號線(順時針)","type":"route","route":"bicycle","name:en":"Cycling Route No. 1-17","name:zh":"環島1-17號線(順時針)","ncn_ref":"環島1-17","network":"ncn","website":"http://itaiwanbike.iot.gov.tw/","operator":"交通部運輸研究所","wikidata":"Q111915523"},"7748693":{"ref":"環島1-18","name":"環島1-18號線(逆時針)","type":"route","route":"bicycle","name:en":"Cycling Route No. 1-18","name:zh":"環島1-18號線(逆時針)","ncn_ref":"環島1-18","network":"ncn","website":"http://itaiwanbike.iot.gov.tw/","operator":"交通部運輸研究所","wikidata":"Q111915524"},"7748694":{"ref":"環島1-18","name":"環島1-18號線(順時針)","type":"route","route":"bicycle","name:ab":"Cycling Route No. 1-18","ncn_ref":"環島1-18","network":"ncn","website":"http://itaiwanbike.iot.gov.tw/","operator":"交通部運輸研究所","wikidata":"Q111915524"},"7753675":{"ref":"環島1-19","name":"環島1-19號線(逆時針)","type":"route","route":"bicycle","name:en":"Cycling Route No. 1-19","name:zh":"環島1-19號線(逆時針)","ncn_ref":"環島1-19","network":"ncn","website":"http://itaiwanbike.iot.gov.tw/","operator":"交通部運輸研究所","wikidata":"Q111915525"},"7753676":{"ref":"環島1-19","name":"環島1-19號線(順時針)","type":"route","route":"bicycle","name:en":"Cycling Route No. 1-19","name:zh":"環島1-19號線(順時針)","ncn_ref":"環島1-19","network":"ncn","website":"http://itaiwanbike.iot.gov.tw/","operator":"交通部運輸研究所","wikidata":"Q111915525"},"7755876":{"ref":"環島1-21","name":"環島1-21號線(逆時針)","type":"route","route":"bicycle","name:en":"Cycling Route No. 1-21","name:zh":"環島1-21號線(逆時針)","ncn_ref":"環島1-21","network":"ncn","website":"http://itaiwanbike.iot.gov.tw/","operator":"交通部運輸研究所","wikidata":"Q111915529"},"7755877":{"ref":"環島1-21","name":"環島1-21號線(順時針)","type":"route","route":"bicycle","name:en":"Cycling Route No. 1-21","name:zh":"環島1-21號線(順時針)","ncn_ref":"環島1-21","network":"ncn","website":"http://itaiwanbike.iot.gov.tw/","operator":"交通部運輸研究所","wikidata":"Q111915529"},"7765337":{"ref":"環島1-22","name":"海科館支線(順時針)","type":"route","route":"bicycle","name:zh":"海科館支線(順時針)","ncn_ref":"環島1-22","network":"ncn","website":"http://itaiwanbike.iot.gov.tw/","alt_name":"環島1-22號線(順時針)","operator":"交通部運輸研究所","wikidata":"Q111915530","alt_name:en":"Cycling Route No. 1-22","alt_name:zh":"環島1-22號線(順時針)"},"7765338":{"ref":"環島1-22","name":"海科館支線(逆時針)","type":"route","route":"bicycle","name:zh":"海科館支線(逆時針)","ncn_ref":"環島1-22","network":"ncn","website":"http://itaiwanbike.iot.gov.tw/","alt_name":"環島1-22號線(逆時針)","operator":"交通部運輸研究所","wikidata":"Q20063888","wikipedia":"zh:環島1號線","alt_name:en":"Cycling Route No. 1-22"},"7765607":{"ref":"環島1-23","name":"高雄潮州支線(順時針)","type":"route","route":"bicycle","name:zh":"高雄潮州支線(順時針)","ncn_ref":"環島1-23","network":"ncn","website":"http://itaiwanbike.iot.gov.tw/","alt_name":"環島1-23號線(順時針)","operator":"交通部運輸研究所","wikidata":"Q111915531","alt_name:en":"Cycling Route No. 1-23"},"7765608":{"ref":"環島1-23","name":"高雄潮州支線(遡時針)","type":"route","route":"bicycle","name:zh":"高雄潮州支線(遡時針)","ncn_ref":"環島1-23","network":"ncn","website":"http://itaiwanbike.iot.gov.tw/","alt_name":"環島1-23號線(逆時針)","operator":"交通部運輸研究所","wikidata":"Q111915531","alt_name:en":"Cycling Route No. 1-23"},"7783387":{"ref":"環島1-25","name":"中彰投環線 (逆時針)","type":"route","route":"bicycle","name:zh":"中彰投環線 (逆時針)","ncn_ref":"環島1-25","network":"ncn","website":"http://itaiwanbike.iot.gov.tw/","alt_name":"環島1-25號線(逆時針)","operator":"交通部運輸研究所","wikidata":"Q111915535","alt_name:en":"Cycling Route No. 1-25"},"7783388":{"ref":"環島1-25","name":"中彰投環線 (順時針)","type":"route","route":"bicycle","name:zh":"中彰投環線 (順時針)","ncn_ref":"環島1-25","network":"ncn","website":"http://itaiwanbike.iot.gov.tw/","alt_name":"環島1-25號線(順時針)","operator":"交通部運輸研究所","wikidata":"Q111915535","alt_name:en":"Cycling Route No. 1-25"},"7786131":{"ref":"環島1-24","name":"古坑梅山支線(順時針)","type":"route","route":"bicycle","name:zh":"古坑梅山支線(順時針)","ncn_ref":"環島1-24","network":"ncn","website":"http://itaiwanbike.iot.gov.tw/","alt_name":"環島1-24號線(順時針)","operator":"交通部運輸研究所","wikidata":"Q111915534","alt_name:en":"Cycling Route No. 1-24"},"7786132":{"ref":"環島1-24","name":"古坑梅山支線(逆時針)","type":"route","route":"bicycle","name:zh":"古坑梅山支線(逆時針)","ncn_ref":"環島1-24","network":"ncn","website":"http://itaiwanbike.iot.gov.tw/","alt_name":"環島1-24號線(逆時針)","operator":"交通部運輸研究所","wikidata":"Q111915534","alt_name:en":"Cycling Route No. 1-24"},"8063054":{"ref":"黃金海岸","name":"黃金海岸自行車道","type":"route","route":"bicycle","network":"lcn"},"9637584":{"ref":"環島1-6","name":"東海岸環線(往南)","note":"Ref: http://itaiwanbike.iot.gov.tw/","type":"route","route":"bicycle","name:en":"Cycling Route NO. 1-6","name:zh":"東海岸環線(往南)","ncn_ref":"環島1-6","network":"ncn","website":"http://itaiwanbike.iot.gov.tw/","alt_name":"環島1-6號線(往南)","operator":"交通部運輸研究所","wikidata":"Q111915510","alt_name:en":"Cycling Route NO. 1-6"},"9637585":{"ref":"環島1-6","name":"東海岸環線(往北)","note":"Ref: http://itaiwanbike.iot.gov.tw/","type":"route","route":"bicycle","name:en":"Cycling Route NO. 1-6","name:zh":"東海岸環線(往北)","ncn_ref":"環島1-6","network":"ncn","website":"http://itaiwanbike.iot.gov.tw/","alt_name":"環島1-6號線(北向)","operator":"交通部運輸研究所","wikidata":"Q111915510","alt_name:en":"Cycling Route NO. 1-6","alt_name:zh":"環島1-6號線(北向)"},"13159157":{"to":"風櫃嘴","ref":"風櫃嘴","from":"楓林橋","name":"風櫃嘴","type":"route","route":"bicycle","ascent":"407","network":"rcn","distance":"6.14","network:type":"Local"},"13770998":{"ref":"基隆","name":"基隆市基隆河自行車道","type":"route","route":"bicycle","network":"rcn"},"14188308":{"to":"臺中市霧峰區臺三線200公里處","ref":"臺中市山線自行車道","from":"苗栗縣三義鄉鯉魚潭村義里橋頭","name":"臺中市山線自行車道","type":"route","route":"bicycle","network":"rcn","distance":"25.73K"}}