{"1742426":{"ref":"2","name":"Велодоріжка (планується)","type":"route","route":"bicycle","state":"proposed","name:ru":"Велодорожка (планируется)","name:uk":"Велодоріжка (планується)"},"2981678":{"ref":"89","name":"89","type":"route","route":"bicycle","name:uk":"89","network":"lcn"},"2983110":{"ref":"18","name":"18","type":"route","route":"bicycle","name:uk":"18","network":"lcn"},"2983215":{"ref":"16","name":"16","type":"route","route":"bicycle","name:uk":"16","network":"lcn"},"2983216":{"ref":"20","name":"балка Джан-Дере - с.Новоульяновка","type":"route","route":"bicycle","name:uk":"балка Джан-Дере - с.Новоульянівка","network":"lcn"},"2983231":{"ref":"19","name":"19","type":"route","route":"bicycle","name:uk":"19","network":"lcn"},"2985054":{"ref":"17","name":"Адым - Чокракская долина - гора Мангуп-Кале","type":"route","route":"bicycle","name:uk":"Адим – Чокракська долина – гора Мангуп-Кале","network":"lcn"},"3865241":{"ref":"MP2","name":"\\\"Міські Млини\\\" (вело)","type":"route","route":"bicycle","colour":"blue","name:uk":"\\\"Міські Млини\\\" (вело)","network":"lcn","website":"http://mp.velopoltava.org/2013/07/blog-post_10.html","distance":"10.3","operator":"Мандруймо Полтавщиною","osmc:symbol":"blue:white:blue_bar"},"3866359":{"ref":"MP1","name":"\\\"Опішнянськими стежками\\\" (вело)","type":"route","route":"bicycle","colour":"green","name:uk":"\\\"Опішнянськими стежками\\\" (вело)","network":"lcn","distance":"9,9","operator":"Мандруймо Полтавщиною","osmc:symbol":"green:white"},"3883324":{"ref":"MP3","name":"«Сільськими околицями» (вело)","type":"route","route":"bicycle","colour":"red","name:uk":"«Сільськими околицями» (вело)","network":"lcn","distance":"32","operator":"Мандруймо Полтавщиною","osmc:symbol":"red:white"},"5633059":{"ref":"КД","name":"Велосипедний туристсько-екологічний маршрут в урочищі \\\"Козакова долина\\\"","type":"route","route":"bicycle","name:uk":"Велосипедний туристсько-екологічний маршрут в урочищі \\\"Козакова долина\\\"","network":"rcn","distance":"27.2"},"6553361":{"ref":"№6","name":"№6 Спортивний","type":"route","route":"bicycle","colour":"black","name:ru":"№6 Спортивный","name:uk":"№6 Спортивний","osmc:symbol":"black:white:black_bar"},"6564941":{"ref":"№1","url":"http://bukovel.com/summer/service/20","name":"№1 Озерний","type":"route","route":"bicycle","colour":"yellow","name:uk":"№1 Озерний","distance":"5","operator":"ТК \\\"Буковель\\\"","description":"Маршрут, настільки легкий, що Ви можете поїхати навіть з дітьми. Старт маршруту розташовано на площі біля фонтану, поряд з кафе «Bugi.l» (біля підйомника №2). Маршрут проходить бруківкою та асфальтованою дорогою (кількасот метрів), потім повертає на ґрунт","osmc:symbol":"yellow:white:yellow_bar"},"6564997":{"ref":"№2","name":"№2 “Лісовий”","type":"route","route":"bicycle","colour":"blue","name:uk":"№2 “Лісовий”","distance":"7","osmc:symbol":"blue:white:blue_bar"},"6565041":{"ref":"3","name":"№3 “Оглядовий”","type":"route","route":"bicycle","colour":"green","name:uk":"№3 “Оглядовий”","network":"lcn","distance":"3.5","osmc:symbol":"green:white:green_bar"},"6565179":{"ref":"№7","name":"№7 “Cross*Country”","type":"route","route":"bicycle","colour":"yellow","name:uk":"№7 “Cross*Country”","osmc:symbol":"yellow:white:yellow_bar"},"6565180":{"ref":"4","name":"№4 “Пагорбами”","type":"route","route":"bicycle","colour":"orange","name:uk":"№4 “Пагорбами”","network":"lcn","osmc:symbol":"orange:white:orange_bar"},"8712278":{"ref":"№1","name":"Веломаршрут №1","type":"route","route":"bicycle","colour":"green","name:uk":"Веломаршрут №1","network":"lcn","website":"https://tic.terebovlia.info/","distance":"9","operator":"Туристично-інформаційний центр м.Теребовля","osmc:symbol":"green:white:green_bar"},"8712735":{"ref":"№2","name":"Веломаршрут №2","type":"route","route":"bicycle","colour":"blue","name:uk":"Веломаршрут №2","website":"https://tic.terebovlia.info/","operator":"Туристично-інформаційний центр м.Теребовля","osmc:symbol":"blue:white:blue_bar"},"8712736":{"ref":"№3","name":"Веломаршрут №3","type":"route","route":"bicycle","colour":"red","name:uk":"Веломаршрут №3","network":"rcn","website":"https://tic.terebovlia.info/","operator":"Туристично-інформаційний центр м.Теребовля","osmc:symbol":"red:white:red_bar"},"9920065":{"to":"Решуцьк","ref":"6101","from":"Шпанів","name":"Валерина стежка","type":"route","route":"bicycle","colour":"#00FF00","name:uk":"Валерина стежка","distance":"5,7","description":"http://www.rv.gov.ua/sitenew/main/ua/487.htm                                                                                                                                                                                                                                                                                                                                                                                                                                                                                                                                                                                                                                                                                                                                                                                                                                                                                                                                                                                                                                                                                                                                                                                                                                                                                                                                                                                                                                                                                                                                                                              "},"9920688":{"to":"Хотин","ref":"6102","from":"Олександрія","name":"Горинський берег","type":"route","route":"bicycle","name:uk":"Горинський берег","network":"lcn","distance":"15","description":"http://www.rv.gov.ua/sitenew/main/ua/487.htm http://tvd.rv.ua/6102-2/"},"9923524":{"to":"Угільці","ref":"6103","from":"Гоща","name":"Гощанське Погориння","type":"route","route":"bicycle","name:uk":"Гощанське Погориння","network":"lcn"},"11041797":{"to":"Базальтове","ref":"611","from":"Хотин","name":"Марафон Поліська Січ 2020","type":"route","route":"bicycle","colour":"#0000FF","name:uk":"Марафон Поліська Січ 2020","network":"lcn"},"11550435":{"ref":"1","name":"Навколо Кременецьких гір","type":"route","route":"bicycle","colour":"red","name:en":"Around the Kremenets mountains","name:uk":"Навколо Кременецьких гір","network":"rcn","distance":"34","roundtrip":"yes","network:type":"rcn","cycle_network":"Національний_парк_\\\"Кременецькі_гори\\\""},"11554350":{"ref":"2","name":"Кременецькими стежками до нескореної фортеці","type":"route","route":"bicycle","colour":"blue","name:en":"To the unbowed burg","name:uk":"Кременецькими стежками до нескореної фортеці","network":"rcn","distance":"20","roundtrip":"yes","network:type":"rcn","cycle_network":"Національний_парк_\\\"Кременецькі_гори\\\""},"11554351":{"ref":"3","name":"До живоносного джерела на Божій горі","type":"route","route":"bicycle","colour":"cyan","name:en":"To the stream on Bozha mountain","name:uk":"До живоносного джерела на Божій горі","network":"rcn","distance":"36","roundtrip":"yes","network:type":"rcn","cycle_network":"Національний_парк_\\\"Кременецькі_гори\\\""},"11554525":{"ref":"4","name":"Шляхами південного краю Волині","type":"route","route":"bicycle","colour":"green","name:en":"Through the south Volhynia","name:uk":"Шляхами південного краю Волині","network":"rcn","distance":"90","roundtrip":"yes","network:type":"rcn","cycle_network":"Національний_парк_\\\"Кременецькі_гори\\\""},"12328726":{"ref":"ВСР","name":"Центральна Велосипедна Стежка Розточчя","type":"route","route":"bicycle","name:uk":"Центральна Велосипедна Стежка Розточчя","network":"rcn","contact:website":"https://roweloveroztocze.pl"},"12467647":{"ref":"R63","name":"Шлях Бравого вояка Швейка","type":"route","fixme":"the route is not complete yet","route":"bicycle","colour":"green","name:en":"Route of Brave Soldier Shwejk","name:uk":"Шлях Бравого Вояка Швейка","network":"rcn"},"13330052":{"ref":"6501","name":"МАМАЙ трейл","type":"route","route":"bicycle","ascent":"173","colour":"green","descent":"171","name:en":"Mamay Trail","name:uk":"МАМАЙ трейл","network":"lcn","distance":"26","roundtrip":"yes","description":"МАМАЙ трейл – перший маркований велосипедний маршрут активного туризму в Сумській області: Суми - Барвінкове - Старе Село - Олдиш – Баси - Суми"},"14544067":{"ref":"Велосотка","name":"Одеська велосотка","type":"route","route":"bicycle","name:ru":"Одесская велосотка","name:uk":"Одеська велосотка","network":"rcn","website":"https://100km.odessa.ua/","distance":"100","roundtrip":"no","wikipedia":"uk:100 км по Поясу Слави (Одеса)","start_date":"1983","description":"Туристично-спортивний захід, приурочений до 10 квітня — дня визволення Одеси від румунсько-німецьких загарбників.","official_name":"Міжнародне велораллі \\\"100 км по Поясу Слави\\\"","description:ru":"Туристическо-спортивное мероприятие, приуроченное к 10 апреля — дню освобождения Одессы от румынско-немецких оккупантов.","official_name:ru":"Международное велоралли \\\"100 км по Поясу Славы\\\"","official_name:uk":"Міжнародне велораллі \\\"100 км по Поясу Слави\\\""}}