{"2664769":{"to":"Dipkarpaz","from":"Famagusta","name":"Famagusta - Dipkarpaz","type":"route","route":"bus"},"4489912":{"to":"Larnaca","ref":"42","from":"Nicosia","name":"42: Intercity Nicosia ⇒ Larnaca","type":"route","route":"bus","name:el":"42: Intercity Λευκωσία ⇒ Λάρνακα","network":"Intercity","operator":"Υπεραστικά Λεωφορεία Κύπρου λτδ.","public_transport:version":"2"},"6647582":{"to":"Germia","ref":"9","from":"Matiqan","name":"Autobusi 9 nga Matiqan deri në Gërmi","type":"route","route":"bus","name:en":"Bus 9 from Matiqan to Germia","name:sq":"Autobusi 9 nga Matiqan deri në Gërmi","public_transport":"bus","public_transport:version":"2"},"7890376":{"ref":"408","name":"408 Λευκωσία - Τρόοδος","type":"route","route":"bus","name:en":"408 Nicosia - Troodos","network":"Επαρχία Λευκωσίας","operator":"Ο.Σ.Ε.Λ.","public_transport:version":"2"},"7890424":{"ref":"400","name":"400 Λευκωσία - Αστρομερίτης","type":"route","route":"bus","name:en":"400 Nicosia - Astromeritis","network":"Επαρχία Λευκωσίας","operator":"Ο.Σ.Ε.Λ.","public_transport:version":"2"},"7890425":{"ref":"404","name":"404 Λευκωσία - Κακοπετριά","type":"route","route":"bus","name:en":"404 Nicosia - Kakopetria","network":"Επαρχία Λευκωσίας","operator":"Ο.Σ.Ε.Λ.","public_transport:version":"2"},"7890426":{"ref":"405","name":"405 Λευκωσία - Κακοπετριά","type":"route","route":"bus","name:en":"405 Nicosia - Kakopetria","network":"Επαρχία Λευκωσίας","operator":"Ο.Σ.Ε.Λ.","public_transport:version":"2"},"7890427":{"ref":"406","name":"406 Λευκωσία - Κυπερούντα","type":"route","route":"bus","name:en":"406 Nicosia - Kyperounta","network":"Επαρχία Λευκωσίας","operator":"Ο.Σ.Ε.Λ.","public_transport:version":"2"},"7909389":{"name":"Bus 66: Lefkosia - Agros - Pelendri - Saittas","type":"route","route":"bus","name:en":"66 Nicosia - Pelendria","network":"Επαρχία Λεμεσού","operator":"Ε.Μ.Ε.Λ.","gtfs:route_id":"10660012","gtfs_route_id":"10660012","public_transport:version":"2"},"8020548":{"ref":"406A","name":"406A Λευκωσία - Ευρύχου - Χανδριά","type":"route","route":"bus","name:en":"406A Nicosia - Evrychou - Chandria","network":"Επαρχία Λευκωσίας","operator":"Ο.Σ.Ε.Λ.","public_transport:version":"2"},"8020549":{"ref":"406C","name":"406C Λευκωσία - Χανδριά","type":"route","route":"bus","name:en":"Nicosia - Chandria","network":"Επαρχία Λευκωσίας","operator":"Ο.Σ.Ε.Λ.","public_transport:version":"2"},"10118965":{"to":"Aeroporti Ndërkombëtar i Prishtinës","ref":"1A","from":"Stacioni i Autobusëve në Prishtinë","name":"Trafiku Urban 1A (Stacioni i Autobusëve në Prishtinë - Aeroporti Ndërkombëtar i Prishtinës)","type":"route","route":"bus","interval":"01:00","operator":"Trafiku Urban","opening_hours":"Mo-Su 03:00-20:00","part:wikidata":"Q69869136","operator:wikidata":"Q60743920","public_transport:version":"2"},"10118966":{"to":"Stacioni i Autobusëve në Prishtinë","ref":"1A","from":"Aeroporti Ndërkombëtar i Prishtinës","name":"Trafiku Urban 1A (Aeroporti Ndërkombëtar i Prishtinës - Stacioni i Autobusëve në Prishtinë)","type":"route","route":"bus","interval":"01:00","operator":"Trafiku Urban","opening_hours":"Mo-Su 04:00-21:00","part:wikidata":"Q69869136","operator:wikidata":"Q60743920","public_transport:version":"2"},"10120492":{"to":"Xhamia në Mat","ref":"4","from":"Parku i Gërmisë","name":"Trafiku Urban 4 (Parku i Gërmisë - Xhamia në Mat)","type":"route","route":"bus","operator":"Trafiku Urban","part:wikidata":"Q69887657","operator:wikidata":"Q60743920","public_transport:version":"2"},"10120493":{"to":"Parku i Gërmisë","ref":"4","from":"Xhamia në Mat","name":"Trafiku Urban 4 (Xhamia në Mat - Parku i Gërmisë)","type":"route","route":"bus","operator":"Trafiku Urban","part:wikidata":"Q69887657","operator:wikidata":"Q60743920","public_transport:version":"2"},"10120831":{"to":"Fakulteti Teknik","ref":"1","from":"St. Hekurudhor","name":"Trafiku Urban 1 (St. Hekurudhor - Fakulteti Teknik)","type":"route","route":"bus","operator":"Trafiku Urban","opening_hours":"Mo-Su 03:00-20:00","operator:wikidata":"Q60743920","public_transport:version":"2"},"10120832":{"to":"St. Hekurudhor","ref":"1","from":"Fakulteti Teknik","name":"Trafiku Urban 1 (Fakulteti Teknik - St. Hekurudhor)","type":"route","route":"bus","operator":"Trafiku Urban","opening_hours":"Mo-Su 03:00-20:00","operator:wikidata":"Q60743920","public_transport:version":"2"},"10120833":{"to":"Parku i Gërmise","ref":"5","name":"Trafiku Urban 5 - Parku i Gërmise","type":"route","route":"bus","interval":"00:10","operator":"Trafiku Urban","opening_hours":"Mo-Su 07:00-22:00","operator:wikidata":"Q60743920","public_transport:version":"2"},"10120834":{"ref":"5","from":"Parku i Gërmise","name":"Trafiku Urban 5 Parku i Germise","type":"route","route":"bus","interval":"00:10","operator":"Trafiku Urban","opening_hours":"Mo-Su 06:00-22:00","operator:wikidata":"Q60743920","public_transport:version":"2"},"10121375":{"ref":"3","name":"Trafiku Urban 3","type":"route","route":"bus","operator":"Trafiku Urban","operator:wikidata":"Q60743920","public_transport:version":"2"},"10121376":{"ref":"3","name":"Trafiku Urban 3","type":"route","route":"bus","operator":"Trafiku Urban","operator:wikidata":"Q60743920","public_transport:version":"2"},"10121377":{"ref":"2","name":"Trafiku Urban 2","type":"route","route":"bus","operator":"Trafiku Urban","operator:wikidata":"Q60743920","public_transport:version":"2"},"10121378":{"ref":"2","name":"Trafiku Urban 2","type":"route","route":"bus","operator":"Trafiku Urban","operator:wikidata":"Q60743920","public_transport:version":"2"},"10166778":{"ref":"3a","name":"Trafiku Urban 3a","type":"route","route":"bus","operator":"Trafiku Urban","operator:wikidata":"Q60743920","public_transport:version":"2"},"10166779":{"ref":"3a","name":"Trafiku Urban 3a","type":"route","route":"bus","operator":"Trafiku Urban","operator:wikidata":"Q60743920","public_transport:version":"2"},"10187116":{"ref":"3b","name":"Trafiku Urban 3b","type":"route","route":"bus","operator":"Trafiku Urban","operator:wikidata":"Q60743920","public_transport:version":"2"},"10187117":{"ref":"3b","name":"Trafiku Urban 3b","type":"route","route":"bus","operator":"Trafiku Urban","operator:wikidata":"Q60743920","public_transport:version":"2"},"10219969":{"name":"Prizren - Prishtina bus station","type":"route","route":"bus","public_transport:version":"2"},"10219970":{"name":"Prishtina bus station - Prizren","type":"route","route":"bus","public_transport:version":"2"},"10220365":{"ref":"5","name":"Trafiku Urban 5","type":"route","route":"bus","operator":"Trafiku Urban","operator:wikidata":"Q60743920","public_transport:version":"2"},"10220366":{"ref":"5","name":"Trafiku Urban 5","type":"route","route":"bus","operator":"Trafiku Urban","operator:wikidata":"Q60743920","public_transport:version":"2"},"10227750":{"ref":"8","name":"Trafiku Urban 8 Prishtina Posta - Mramor","type":"route","route":"bus","operator":"Trafiku Urban","operator:wikidata":"Q60743920","public_transport:version":"2"},"10227751":{"ref":"8","name":"Trafiku Urban 8 Mramor - Prishtina Posta","type":"route","route":"bus","operator":"Trafiku Urban","operator:wikidata":"Q60743920","public_transport:version":"2"},"10247949":{"ref":"7","name":"Trafiku Urban 7","type":"route","route":"bus","operator":"Trafiku Urban","operator:wikidata":"Q60743920","public_transport:version":"2"},"10247950":{"ref":"7","name":"Trafiku Urban 7","type":"route","route":"bus","operator":"Trafiku Urban","operator:wikidata":"Q60743920","public_transport:version":"2"},"10247951":{"ref":"7a","name":"Trafiku Urban 7a","type":"route","route":"bus","operator":"Trafiku Urban","operator:wikidata":"Q60743920","public_transport:version":"2"},"10247952":{"ref":"7a","name":"Trafiku Urban 7a","type":"route","route":"bus","operator":"Trafiku Urban","operator:wikidata":"Q60743920","public_transport:version":"2"},"10248142":{"ref":"6a","name":"Trafiku Urban 6a","type":"route","route":"bus","operator":"Trafiku Urban","operator:wikidata":"Q60743920","public_transport:version":"2"},"10248143":{"ref":"6a","name":"Trafiku Urban 6a","type":"route","route":"bus","operator":"Trafiku Urban","operator:wikidata":"Q60743920","public_transport:version":"2"},"10248144":{"ref":"6","name":"Trafiku Urban 6","type":"route","route":"bus","operator":"Trafiku Urban","operator:wikidata":"Q60743920","public_transport:version":"2"},"10248145":{"ref":"6","name":"Trafiku Urban 6","type":"route","route":"bus","operator":"Trafiku Urban","operator:wikidata":"Q60743920","public_transport:version":"2"},"10248156":{"ref":"9","name":"Trafiku Urban 9","type":"route","route":"bus","operator":"Trafiku Urban","operator:wikidata":"Q60743920","public_transport:version":"2"},"10248157":{"ref":"9","name":"Trafiku Urban 9","type":"route","route":"bus","operator":"Trafiku Urban","operator:wikidata":"Q60743920","public_transport:version":"2"},"10248181":{"ref":"10","name":"Trafiku Urban 10","type":"route","route":"bus","operator":"Trafiku Urban","operator:wikidata":"Q60743920","public_transport:version":"2"},"11153452":{"to":"Xhamia e Llapit)","ref":"15","from":"Policia Keçekollë","name":"Trafiku Urban 15 (Policia Keçekollë - Xhamia e Llapit)","type":"route","route":"bus"},"11153453":{"to":"Policia Keçekollë","ref":"15","from":"Xhamia e Llapit","name":"Trafiku Urban 15 (Xhamia e Llapit - Policia Keçekollë)","type":"route","route":"bus"},"11153998":{"to":"Bardhosh, tek Kroi","ref":"3","from":"Rrethi i Matit","name":"Trafiku Urban 3 (Rrethi i Matit - Bardhosh, tek Kroi)","type":"route","route":"bus","operator":"Trafiku Urban"},"11153999":{"to":"Rrethi i Matit","ref":"3","from":"Bardhosh, tek Kroi","name":"Trafiku Urban 3 (Bardhosh, tek Kroi - Rrethi i Matit)","type":"route","route":"bus","operator":"Trafiku Urban"},"11160278":{"name":"Trafuku Urban 7C (Unaza - Kalabri - Qender)","type":"route","route":"bus"},"11160426":{"to":"Nënstacioni i Termokosit në Bregun e Diellit","ref":"3C","from":"Sinidoll, Rr. \\\"I. Kelmendi\\\"","name":"Trafiku Urban 3C (Sinidoll - Bregu i Diellit)","type":"route","route":"bus","operator":"Trafiku Urban"},"11160462":{"ref":"3C","from":"Nënstacioni i Termokosit në Bregun e Diellit","name":"Trafiku Urban 3C (Bregu i Diellit - Sinidoll)","type":"route","route":"bus","operator":"Trafiku Urban"},"13908197":{"to":"ODTÜ KKK","from":"Güzelyurt","name":"ODTÜ KKK - Güzelyurt","type":"route","route":"bus","duration":"00:20","operator":"Akva"},"15606994":{"ref":"10","name":"Makario Stadium - Pournara - Makario Stadium","type":"route","route":"bus","colour":"#800000","source":"GO_Sync","network":"NPT","gtfs_route_id":"100011","gtfs_agency_id":"9","gtfs_route_text_color":"FFFFFF"},"15771577":{"ref":"425","name":"425: Dekelia ⇒ Airport","type":"route","route":"bus","name:el":"425: Δεκέλια ⇒ Αεροδρόμιο","network":"Επαρχία Λάρνακας","operator":"Ζήνωνας Λτδ.","public_transport:version":"2"},"16293528":{"ref":"19A","name":"Bus 19A: Akrotiri - Asomatos -Trachoni - Leontiou EMEL Station","type":"route","route":"bus","colour":"#1C8600","network":"Ε.Μ.Ε.Λ.","operator":"Ε.Μ.Ε.Λ.","colour:text":"#FFFFFF","gtfs:route_id":"15070011","gtfs_route_id":"15070011","public_transport:version":"2"},"16293529":{"ref":"16B","name":"Bus 16B: Kourion Beach - Agios Ermogenis - Episkopi - Club Aphrodite - Leontiou EMEL Station","type":"route","route":"bus","colour":"#38F704","network":"Ε.Μ.Ε.Λ.","operator":"Ε.Μ.Ε.Λ.","colour:text":"#000000","gtfs:route_id":"15060021","gtfs_route_id":"15060021","public_transport:version":"2"},"16293556":{"ref":"19","name":"Bus 19: Ellados (Trachoni) - Leontiou EMEL Station","type":"route","route":"bus","colour":"#33CC33","network":"Ε.Μ.Ε.Λ.","operator":"Ε.Μ.Ε.Λ.","colour:text":"#000000","gtfs:route_id":"10190011","gtfs_route_id":"10190011","public_transport:version":"2"},"16293557":{"ref":"18","name":"Bus 18: Kourion Beach - Agios Ermogenis - Ipsonas - Agios Silas - General Hospital - My Mall","type":"route","route":"bus","colour":"#6699FF","network":"Ε.Μ.Ε.Λ.","operator":"Ε.Μ.Ε.Λ.","colour:text":"#FFFFFF","gtfs:route_id":"10180021","gtfs_route_id":"10180021","public_transport:version":"2"},"16293559":{"ref":"16","name":"Bus 16: Episkopi - Episkopiana Hotel - Leontiou EMEL Station","type":"route","route":"bus","colour":"#00FFFF","network":"Ε.Μ.Ε.Λ.","operator":"Ε.Μ.Ε.Λ.","colour:text":"#000000","gtfs:route_id":"10160011","gtfs_route_id":"10160011","public_transport:version":"2"},"16408662":{"to":"Larnaca Station","ref":"418","from":"Troulloi","name":"418: Troulloi ⇒ Kellia ⇒ Livadia ⇒ Larnaca Station","type":"route","route":"bus","roundtrip":"no","public_transport:version":"2"},"16408806":{"to":"Limassol","ref":"25","from":"Nicosia","name":"25: Intercity Nicosia ⇒ Limassol","type":"route","route":"bus","name:el":"25: Intercity Λευκωσία ⇒ Λεμεσός","network":"Intercity","operator":"Υπεραστικά Λεωφορεία Κύπρου λτδ.","public_transport:version":"2"},"16412182":{"to":"Pafos","ref":"26","from":"Nicosia","name":"26: Intercity Nicosia ⇒ Pafos","type":"route","route":"bus","name:el":"26: Intercity Λευκωσία ⇒ Πάφος","network":"Intercity","operator":"Υπεραστικά Λεωφορεία Κύπρου λτδ.","public_transport:version":"2"},"16412184":{"to":"Paralimni","ref":"23","from":"Nicosia","name":"23: Intercity Nicosia ⇒ Agia Napa ⇒ Paralimni","type":"route","route":"bus","name:el":"23: Intercity Λευκωσία ⇒ Αγία Νάπα ⇒ Παραλίμνι","network":"Intercity","operator":"Υπεραστικά Λεωφορεία Κύπρου λτδ.","public_transport:version":"2"},"16414800":{"ref":"502","name":"502: Deryneia ⇒ Paralimni ⇒ Agia Napa ⇒ Liopetri ⇒ Deryneia","type":"route","route":"bus","name:el":"502: Δερύνεια ⇒ Παραλίμνι ⇒ Αγία Νάπα ⇒ Λιοπέτρι ⇒ Δερύνεια","network":"Επαρχία Αμμοχώστου","operator":"Ο.Σ.Ε.Α.","public_transport:version":"2"},"16414801":{"ref":"501","name":"501: Deryneia ⇒ Liopetri ⇒ Agia Napa ⇒ Paralimni ⇒ Deryneia","type":"route","route":"bus","name:el":"501: Δερύνεια ⇒ Λιοπέτρι ⇒ Αγία Νάπα ⇒ Παραλίμνι ⇒ Δερύνεια","network":"Επαρχία Αμμοχώστου","operator":"Ο.Σ.Ε.Α.","public_transport:version":"2"},"16414884":{"ref":"710","name":"710: Deryneia ⇒ Sotira ⇒ Agia Napa","type":"route","route":"bus","name:el":"710: Δερύνεια ⇒ Σωτήρα ⇒ Αγία Νάπα","network":"Επαρχία Αμμοχώστου","operator":"Ο.Σ.Ε.Α.","public_transport:version":"2"},"16415146":{"ref":"705","name":"705: Dasaki Achnas ⇒ Avgorou ⇒ Liopetri ⇒ Agia Napa","type":"route","route":"bus","network":"Επαρχία Αμμοχώστου","operator":"Ο.Σ.Ε.Α.","public_transport:version":"2"},"16415148":{"ref":"704","name":"704: E.A.C. Dhekelia ⇒ Xylotympou ⇒ Ormideia ⇒ Xylofagou ⇒ Agia Napa","type":"route","route":"bus","network":"Επαρχία Αμμοχώστου","operator":"Ο.Σ.Ε.Α.","public_transport:version":"2"},"16415151":{"ref":"709","name":"709: Strovilia ⇒ Vrysoulles ⇒ Frenaros ⇒ Sotira ⇒ Agia Napa","type":"route","route":"bus","network":"Επαρχία Αμμοχώστου","operator":"Ο.Σ.Ε.Α.","public_transport:version":"2"},"16417215":{"ref":"706","name":"706: Xylotympou ⇒ Dasaki Achnas ⇒ Avgorou ⇒ Frenaros ⇒ Deryneia ⇒ Paralimni ⇒ Protaras ⇒ Konnos","type":"route","route":"bus","network":"Επαρχία Αμμοχώστου","operator":"Ο.Σ.Ε.Α.","public_transport:version":"2"},"16417218":{"ref":"708","name":"708: Strovilia ⇒ Vrysoulles ⇒ Frenaros ⇒ Deryneia ⇒ Paralimni ⇒ Protaras ⇒ Konnos","type":"route","route":"bus","network":"Επαρχία Αμμοχώστου","operator":"Ο.Σ.Ε.Α.","public_transport:version":"2"},"16417416":{"ref":"703","name":"703: E.A.C. Dhekelia ⇒ Ormideia ⇒ Xylofagou ⇒ Paralimni ⇒ Protaras ⇒ Konnos","type":"route","route":"bus","network":"Επαρχία Αμμοχώστου","operator":"Ο.Σ.Ε.Α.","public_transport:version":"2"},"16419128":{"ref":"701","name":"701: Ormideia ⇒ Xylofagou ⇒ Sotira ⇒ Paralimni ⇒ Famagusta General Hospital","type":"route","route":"bus","network":"Επαρχία Αμμοχώστου","operator":"Ο.Σ.Ε.Α.","public_transport:version":"2"},"16419131":{"ref":"702","name":"702: Xylotympou ⇒ Dasaki Achnas ⇒ Avgorou ⇒ Frenaros ⇒ Deryneia ⇒ Paralimni","type":"route","route":"bus","network":"Επαρχία Αμμοχώστου","operator":"Ο.Σ.Ε.Α.","public_transport:version":"2"}}