{"2181884":{"ref":"Abu Dhabi - Masdar 163","name":"Abu Dhabi - Masdar 163","type":"route","route":"bus","name:en":"Abu Dhabi - Masdar 163","network":"Outer City","operator":"Abu Dhabi DOT"},"2301397":{"ref":"BE-12","name":"Yas Island Bus Lane","type":"route","route":"bus","name:en":"Yas Island Bus Lane"},"3431199":{"ref":"15, 21, 29, 33, 42, 44, 61, 61D, 66, 67, 83, C1, C3, C5, C7, C18, C19, X23","name":"Фалкон Интерсекшен 1","type":"route","route":"bus","name:en":"Falcon Intersection 1"},"3431267":{"ref":"15 21 29 33 42 44 61 61D 66 67 83 C1 C3 C5 C7 C18 C19 X23","name":"شارع النهضة","type":"route","route":"bus","name:ar":"شارع النهضة","name:en":"Nahda Street"},"3431321":{"ref":"15, C1","name":"مركز الريس","type":"route","route":"bus","name:ar":"مركز الريس","name:en":"Rais Centre","name:ru":"Рейс Сентер"},"3431340":{"ref":"15, C1","name":"Манкхул, Стандард Чартеред Банк 2 Mankhool, Standard Chartered Bank 2","note":"15 Ghubaiba Bus Station O 14:53 15:13 C1 Airport Terminal 3 14:38 14:50","type":"route","route":"bus","name:en":"Mankhool, Standard Chartered Bank 2"},"3431378":{"ref":"15, C1","name":"Al Fahidie Metro Station B1","note":"/15 Quoz, Al Khail Gate 2 14:31 14:51 /83 Nakheel Metro Station Seaside ☼ 5:40 ☼ 5:55 /C1 Satwa, Bus Station 5 14:20 14:32","type":"route","route":"bus","name:en":"Al Fahidie Metro Station B1"},"3431388":{"ref":"15, C1, C14","name":"Шайк Рашид Роуд Интерсекшен 1","note":"/15 Quoz, Al Khail Gate 2 15:16 15:36 /C1 Satwa, Bus Station 5 15:14 15:25 /C14 Safa, Terminus 1 15:27 15:44","type":"route","route":"bus","name:en":"Shaik Rashid Road Intersection 1"},"3431390":{"ref":"15 93 C1 C10 C14","name":"Хадхейба, Тернофф 1 Hudheiba, Turnoff 1","note":"15 93 C1 C10 C14","type":"route","route":"bus","name:en":"Hudheiba, Turnoff 1"},"4294920":{"ref":"Yas Mall Shuttle Bus","name":"Yas Mall Shuttle Bus","type":"route","route":"bus","name:en":"Yas Mall Shuttle Bus","operator":"Yas Mall"},"8152360":{"ref":"E303","name":"E303","type":"route","route":"bus","network":"RTA","operator":"Roads and Transport Authority (Dubai)","network:wikidata":"Q22101985"},"9715763":{"to":"AL Ghubaiba Bus Station","fee":"yes","ref":"X02","via":"AL Satwa","from":"AL Ghubaiba Bus Station","name":"X02","type":"route","route":"bus","colour":"#c8b3ac","network":"RTA","operator":"Roads and Transport Authority (Dubai)","roundtrip":"yes","wheelchair":"yes","network:wikidata":"Q22101985","public_transport:version":"2"},"9716297":{"to":"Lamcy Plaza","ref":"F18","via":"Oud Metha Metro Station Terminus","from":"Lamcy Plaza","name":"F18","type":"route","route":"bus","network":"RTA","operator":"Roads and Transport Authority (Dubai)","roundtrip":"yes","wheelchair":"yes","network:wikidata":"Q22101985","operator:wikidata":"Q22101985","public_transport:version":"2"},"15355641":{"to":"Wasl Park Terminus","ref":"C26","from":"Qusais Industrial Area 2, Terminus","name":"C26","type":"route","route":"bus","colour":"#e4b929","network":"RTA","operator":"Roads and Transport Authority (Dubai)","route_ref":"C26","network:wikidata":"Q22101985"},"15360671":{"to":"Al Ghubaiba Bus Station 37","ref":"104","from":"Global Village","name":"104","type":"route","route":"bus","network":"RTA","operator":"Roads and Transport Authority (Dubai)","network:wikidata":"Q22101985"},"15360674":{"to":"Wasl Park Terminuse","ref":"F12","from":"Max Metro Station Seaside","name":"F12","type":"route","route":"bus","network":"RTA","operator":"Roads and Transport Authority (Dubai)","route_ref":"F12","network:wikidata":"Q22101985"},"15360675":{"to":"Max Metro Station Seaside","ref":"F12","from":"Wasl Park Terminus","name":"F12","type":"route","route":"bus","network":"RTA","operator":"Roads and Transport Authority (Dubai)","route_ref":"F12","network:wikidata":"Q22101985"}}