{"2182957":{"to":"Նորք Մարաշ բ/կ սրտաբանական կենտրոն","ref":"77","from":"Հաղթանակ թ/մ","name":"MiniBus #77 Aghtanak district <=> Nork Marash Medical Center","type":"route","route":"bus","colour":"yellow","name:hy":"Միկրոավտոբուս #77 Հաղթանակ թ/մ <=> Նորք Մարաշ բ/կ սրտաբանական կենտրոն","name:ru":"Микроавтобус #77 Ахтанак мк/р <=> Нор Мараш МЦ","public_transport:version":"2"},"7658770":{"to":"Մ/Կ «Բարեկամություն»","ref":"10","from":"Նոր Նորքի 5-րդ զանգված","name":"Տրոլեյբուս#10: Նոր Նորքի 5-րդ զանգված => Մ/Կ «Բարեկամություն»","type":"route","route":"trolleybus","operator":"Երևանի էլեկտրատրանսպորտ","public_transport:version":"2"},"7659696":{"to":"Նոր Նորքի 5-րդ զանգված","ref":"10","from":"Մ/Կ «Բարեկամություն»","name":"Տրոլեյբուս#10: Մ/Կ «Բարեկամություն» => Նոր Նորքի 5-րդ զանգված","type":"route","route":"trolleybus","operator":"Երևանի էլեկտրատրանսպորտ","public_transport:version":"2"},"9503324":{"to":"Էրեբունու զ/ծ","ref":"41","from":"Ավան (Մարշալ Խուդյակովի փողոց)","name":"Ավտոբուս #41: Ավան (Մարշալ Խուդյակովի փողոց) => Էրեբունու զ/ծ","type":"route","route":"bus","colour":"purple","name:en":"Bus #41: Avan (Marshal Khudyakov street) => Erebuni massive","public_transport:version":"2"},"9523334":{"to":"Նոր-Նորքի 9-րդ զանգված (Վիլնյուսի փողոց)","ref":"26","from":"Զորավար Անդրանիկի փողոց (Կայզեր)","name":"Ավտոբուս #26: Զորավար Անդրանիկի փողոց (Կայզեր) => Նոր-Նորքի 9-րդ զանգված (Վիլնյուսի փողոց)","type":"route","route":"bus","colour":"purple","name:en":"Bus #26: Zoravar Andranik st. (Kaizer supermarket) => Nor-Norq 9th massive(Vilnus st.)","public_transport:version":"2"},"9529595":{"to":"Ավան (Մարշալ Խուդյակովի փողոց)","ref":"41","from":"Էրեբունու զ/ծ","name":"Ավտոբուս #41: Էրեբունու զ/ծ => Ավան (Մարշալ Խուդյակովի փողոց)","type":"route","route":"bus","name:en":"Bus #41: Erebuni massive => Avan (Marshal Khudyakov street)","service":"purple","public_transport:version":"2"},"9574327":{"to":"Kaiser","fee":"100 AMD","ref":"12","from":"14 Krug","name":"Bus 12: 14 Կռուգ => Կայսեր","type":"route","route":"bus","name:en":"Bus 12: 14 Krug => Kaiser","network":"Yerevan Minibus","public_transport:version":"2"},"9574328":{"to":"14 Krug","fee":"100 AMD","ref":"12","from":"Kaiser","name":"Bus 12: Կայզեռ => 14 Կռուգ","type":"route","route":"bus","name:en":"Bus 12: Kaiser => 14 Krug","network":"Yerevan Minibus","public_transport:version":"2"},"9574349":{"to":"Շենգավիթ","fee":"100 AMD","ref":"13","from":"Դավթաշեն","name":"Bus 13: Դավթաշեն => Շենգավիթ","type":"route","route":"bus","name:en":"Bus 13: Davtashen => Shengavit","network":"Yerevan Minibus","public_transport:version":"2"},"9574350":{"to":"Դավթաշեն","fee":"100 AMD","ref":"13","from":"Շենգավիթ","name":"Bus 13: Շենգավիթ => Դավթաշեն","type":"route","route":"bus","name:en":"Bus 13: Shengavit => Davtashen","network":"Yerevan Minibus","public_transport:version":"2"},"9574480":{"to":"Dinamo Stadium","fee":"100 AMD","ref":"27","from":"3rd Village","name":"Bus 27: 3-րդ Գյուղ => Դինամո Մարզադաշտ","type":"route","route":"bus","name:en":"Bus 27: 3rd Village => Dinamo Stadium","network":"Yerevan Minibus","public_transport:version":"2"},"9574527":{"to":"3rd Village","fee":"100 AMD","ref":"27","from":"Dinamo Stadium","name":"Bus 27: Դինամո Մարզադաշտ => 3-րդ Գյուղ","type":"route","route":"bus","name:en":"Bus 27: Dinamo Stadium => 3rd Village","network":"Yerevan Minibus","public_transport:version":"2"},"9574699":{"to":"Grand Candy Factory","fee":"100 AMD","ref":"48","from":"Gevorg Chavush","name":"Bus 48: Գևոռգ Չավուշ => Գրանտ Քենդի Գործարան","type":"route","route":"bus","name:en":"Bus 48: Gevorg Chavush => Grand Candy Factory","network":"Yerevan Minibus","public_transport:version":"2"},"9574905":{"to":"Gevorg Chavush","fee":"100 AMD","ref":"48","from":"Grand Candy Factory","name":"Bus 48: Գրանտ Քենդի Գործարան => Գևոռգ Չավուշ","type":"route","route":"bus","name:en":"Bus 48: Grand Candy Factory => Gevorg Chavush","network":"Yerevan Minibus","public_transport:version":"2"},"9575164":{"to":"Kvartal","fee":"100 AMD","ref":"63","from":"9th Masiv","name":"Bus 63: 9րդ Մասիվ => Կվարտալ","type":"route","route":"bus","name:en":"Bus 63: 9th Masiv => Kvartal","network":"Yerevan Bus","public_transport:version":"2"},"9575165":{"to":"9th Masiv","fee":"100 AMD","ref":"63","from":"Kvartal","name":"Bus 63: Կվարտալ => 9րդ Մասիվ","type":"route","route":"bus","name:en":"Bus 63: Kvartal => 9th Masiv","network":"Yerevan Bus","public_transport:version":"2"},"9575595":{"to":"Taghamas","fee":"100 AMD","ref":"57","from":"Tashir","name":"Bus 57: Tashir => Taghamas","type":"route","route":"bus","name:en":"Bus 57: Tashir => Taghamas","network":"Yerevan Bus","public_transport:version":"2"},"9575596":{"to":"Tashir","fee":"100 AMD","ref":"57","from":"Taghamas","name":"Bus 57: Taghamas => Tashir","type":"route","route":"bus","name:en":"Bus 57: Taghamas => Tashir","network":"Yerevan Bus","public_transport:version":"2"},"9575677":{"to":"Zovun Village","fee":"100 AMD","ref":"74","from":"Erebouni Array","name":"Bus 74: Erebouni Array => Zovun Village","type":"route","route":"bus","name:en":"Bus 74: Erebouni Array => Zovun Village","network":"Yerevan Minibus","public_transport:version":"2"},"9575678":{"to":"Erebouni Array","fee":"100 AMD","ref":"74","from":"Zovun Village","name":"Bus 74: Zovun Village => Erebouni Array","type":"route","route":"bus","name:en":"Bus 74: Zovun Village => Erebouni Array","network":"Yerevan Minibus","public_transport:version":"2"},"9575808":{"to":"Nor Nork 9th massive","fee":"100 AMD","ref":"8","from":"Davtashen, Yeghvard Highway","name":"Bus 8:Davtashen, Yeghvard Highway => Nor Nork 9th massive","type":"route","route":"bus","name:en":"Bus 8: Davtashen, Yeghvard Highway=> Nor Nork 9th massive","network":"Yerevan Bus","public_transport:version":"2"},"9575809":{"to":"Davtashen, Yeghvard Highway","ref":"8","sss":"100 AMD","from":"Nor Nork 9th massive","name":"Bus 8: Nor Nork 9th massive => Davtashen, Yeghvard Highway","type":"route","route":"bus","name:en":"Bus 8: Nor Nork 9th massive => Davtashen, Yeghvard Highway","network":"Yerevan Bus","public_transport:version":"2"},"9576092":{"to":"16 Block (Kvartal)","fee":"100 AMD","ref":"5","via":"Duryan","from":"Avan (Yerevan City)","name":"MiniBus 5: Ավան (Երևան Սիթի) => 16 թաղամաս (Կվարտալ)","type":"route","route":"bus","colour":"yellow","name:en":"MiniBus 5: Avan (Yerevan City) => 16 Block (Kvartal)","network":"Yerevan Minibus","public_transport:version":"2"},"9576093":{"to":"Avan (Yerevan City)","fee":"100 AMD","ref":"5","via":"Duryan","from":"16 Block (Kvartal)s","name":"MiniBus 5: 16 թաղամաս (Կվարտալ) => Ավան (Երևան Սիթի)","type":"route","route":"bus","colour":"yellow","name:en":"MiniBus 5: 16 Block (Kvartal) => Avan (Yerevan City)","network":"Yerevan Minibus","public_transport:version":"2"},"9576236":{"to":"Դավթաշեն","fee":"100 AMD","ref":"33","from":"Խարբերդ","name":"Bus 33: Խարբերդ =>Դավթաշենի 2-րդ/4-րդ թաղամաս","type":"route","route":"bus","name:en":"Bus 33: Kharberd => Davtashen 2nd/4th block","network":"Yerevan Bus","public_transport:version":"2"},"9576237":{"to":"Խարբերդ","ref":"33","from":"Դավթաշեն","name":"Bus 33: Դավթաշենի 2-րդ/4-րդ թաղամաս => Խարբերդ","type":"route","route":"bus","name:en":"Bus 33: Davtashen 2nd/4th block => Kharberd","network":"Yerevan Bus","shelter":"100 AMD","public_transport:version":"2"},"9576396":{"to":"Hatsi pur","fee":"100 AMD","ref":"52a","from":"Sky mot","name":"Bus *ref*: *from* => *to*","type":"route","route":"bus","name:en":"Bus 52a: Sky mot => Hatsi pur","network":"Yerevan Minibus","public_transport:version":"2"},"9576397":{"to":"Sky mot","fee":"100 AMD","ref":"52a","from":"Hatsi pur","name":"Bus 52a: *from* => *to*","type":"route","route":"bus","name:en":"Bus 52a: Hatsi pur => Sky mot","network":"Yerevan Minibus","public_transport:version":"2"},"9576706":{"to":"Argavand Highway","fee":"yes","ref":"37","from":"Kasakh","name":"Minibus 37: Argavand Highway => Kasakh","type":"route","route":"bus","charge":"100 AMD","colour":"yellow","name:en":"Minibus 37: Argavand Highway => Kasakh","network":"Yerevan Minibus","public_transport:version":"2"},"9576707":{"to":"Argavand Highway","fee":"yes","ref":"37","from":"Kasakh","name":"Minibus 37: Kasakh => Argavand Highway","type":"route","route":"bus","charge":"100 AMD","colour":"yellow","name:en":"Minibus 37: Kasakh => Argavand Highway","network":"Yerevan Minibus","public_transport:version":"2"},"9651537":{"to":"Երևւանի քաղաքապետարան","ref":"20","from":"Ավան (Գեներալ Սաֆարյանի փողոց)","name":"Ավտոբուս #20: Ավան (Գեներալ Սաֆարյանի փողոց) => Երևւանի քաղաքապետարան","type":"route","route":"bus","colour":"purple","public_transport:version":"2"},"10815444":{"to":"Լանջազատ-Ланджазат-Lanjazat","ref":"11","from":"Արտաշատ-Арташат-Artashat","name":"Զովաշեն-Արտաշատ","type":"route","route":"bus","name:en":"Zovashen-Artashat","name:ru":"Зовашен-Арташат"},"10995220":{"to":"Ջրվեժ","ref":"5","from":"Ավտոկայարան","name":"Ավտոբուս #5: Ավտոկայարան => Ջրվեժ","type":"route","route":"bus","colour":"purple","name:en":"Bus #5: Bus Station => Jrvezh","public_transport:version":"2"},"10995221":{"to":"Ավտոկայարան","ref":"5","from":"Ջրվեժ","name":"Ավտոբուս #5: Ջրվեժ => Ավտոկայարան","type":"route","route":"bus","colour":"purple","name:en":"Bus #5: Jrvezh => Bus Station","public_transport:version":"2"},"11031755":{"to":"Լուկաշին փողոց","ref":"26","from":"Նոր Նորքի 1-ին զանգված","name":"Միկրոավտոբուս #26: Նոր Նորքի 1-ին զանգված => Լուկաշին փողոց","type":"route","route":"bus","colour":"yellow","name:en":"MiniBus #26: Nork Nork 1st massive => Lukashin street","public_transport:version":"2"},"11031792":{"to":"Զ. Անդրանիկի փ. (Կայզեր)","ref":"26","from":"Նոր-Նորքի 9-րդ զանգված (Վիլնյուսի փողոց)","name":"Ավտոբուս #26: Նոր-Նորքի 9-րդ զանգված (Վիլնյուսի փողոց) => Անդրանիկի փողոց (Կայզեր)","type":"route","route":"bus","colour":"purple","name:en":"Bus #26: Nor-Norq 9th massive(Vilnus st.) => Zoravar Andranik st. (Kaizer supermarket)","public_transport:version":"2"},"11063324":{"to":"Հաղթանակ թ/մ","ref":"77","from":"Նորք Մարաշ բ/կ սրտաբանական կենտրոն","name":"MiniBus #77 Nork Marash Medical Center <=> Aghtanak district","type":"route","route":"bus","colour":"yellow","name:hy":"Միկրոավտոբուս #77 Նորք Մարաշ բ/կ սրտաբանական կենտրոն <=> Հաղթանակ թ/մ","name:ru":"Микроавтобус #77 Норк Мараш МЦ <=> Ахтанак мк/р","public_transport:version":"2"},"11109787":{"to":"Մալխասյանց փ․","ref":"41","from":"Շարուրի փ․","name":"Միկրոավտոբուս։ Շարուրի փ․ => Մալխասյանց փ․","type":"route","route":"bus","colour":"yellow","name:am":"Միկրոավտոբուս։ Շարուրի փ․ => Մալխասյանց փ․","name:en":"Minibus #41 Sharuri st. => Malkhasynts st.","public_transport:version":"2"},"11110789":{"to":"Շարուրի փ․","ref":"41","from":"Մալխասյանց փ․","name":"Միկրոավտոբուս։ 41 Մալխասյանց փ․ => Շարուրի փ․","type":"route","route":"bus","colour":"yellow","name:am":"Միկրոավտոբուս։ 41 Մալխասյանց փ․ => Շարուրի փ․","name:en":"Minibus #41 Malkhasynts st. => Sharuri st.","public_transport:version":"2"},"11128173":{"to":"Լեփսուսի փ․ (Զեյթուն)","fee":"100 AMD","ref":"14","from":"Ներքին Չարբախ","name":"Ավտոբուս 14: Ներքին Չարբախ => Լեփսուսի փ․ (Զեյթուն)","type":"route","route":"bus","colour":"purple","name:en":"Bus #14: Nerqin Charbakh => Lepsus str. (Zeytun)","name:hy":"Ավտոբուս 14: Ներքին Չարբախ => Լեփսուսի փ․ (Զեյթուն)","network":"Yerevan Minibus","public_transport:version":"2"},"11128174":{"to":"Ներքին Չարբախ","fee":"100 AMD","ref":"14","from":"Լեփսուսի փ․ (Զեյթուն)","name":"Ավտոբուս 14: Լեփսուսի փ․ (Զեյթուն) => Ներքին Չարբախ","type":"route","route":"bus","colour":"purple","name:en":"Bus #14: Lepsus str. (Zeytun) => Nerqin Charbakh","network":"Yerevan Minibus","public_transport:version":"2"},"11246603":{"to":"Հովհաննիսյան փ․","ref":"4","from":"Ջրվեժ","name":"Ավտոբուս։ #4 Ջրվեժ => Հովհաննիսյան փ․","type":"route","route":"bus","colour":"purple","name:am":"Ավտոբուս։ #4 Ջրվեժ => Հովհաննիսյան փ․","name:en":"Bus #4 Jrvezh => Hovhannisyan st.","public_transport:version":"2"},"11246604":{"to":"Ջրվեժ","ref":"4","from":"Հովհաննիսյան փ․","name":"Ավտոբուս։ #4 Հովհաննիսյան փ․ => Ջրվեժ","type":"route","route":"bus","colour":"purple","name:am":"Ավտոբուս։ #4 Հովհաննիսյան փ․ => Ջրվեժ","name:en":"Bus #4 Hovhannisyan st. => Jrvezh","public_transport:version":"2"},"11248914":{"to":"Yeghegnadzor","fee":"700 AMD","ref":"32","from":"Jermuk","name":"Bus 32: Jermuk => Yeghegnadzor","type":"route","route":"bus","name:en":"Bus 32: Jermuk => Yeghegnadzor","name:hy":"Ջերմուկ => Եղեգնաձոր","name:ru":"Джермук => Ехегнадзор","network":"Vayots Dzor","roundtrip":"no","public_transport:version":"2"},"11258144":{"to":"Jermuk","fee":"700AMD","ref":"32","from":"Yeghegnadzor","name":"Bus 32: Yeghegnadzor => Jermuk","type":"route","route":"bus","name:en":"Bus 32: Yeghegnadzor => Jermuk","name:hy":"Եղեգնաձոր => Ջերմուկ","name:ru":"Ехегнадзор => Джермук","network":"Vayots Dzor","public_transport:version":"2"},"11265296":{"to":"Jermuk","fee":"2000 AMD","ref":"558","from":"Yerevan","name":"Bus 558: Yerevan => Jermuk","type":"route","route":"bus","name:en":"Bus 558: Yerevan => Jermuk","name:hy":"Երևան => Ջերմուկ","name:ru":"Ереван => Джермук","network":"Armenia","roundtrip":"no","public_transport:version":"2"},"11265297":{"to":"Yerevan","fee":"2000 AMD","ref":"558","from":"Jermuk","name":"Bus 558: Jermuk => Yerevan","type":"route","route":"bus","name:en":"Bus 558: Jermuk => Yerevan","name:hy":"Ջերմուկ => Երևան","name:ru":"Джермук => Ереван","network":"Armenia","roundtrip":"no","public_transport:version":"2"},"12457004":{"to":"\\\"Երևան\\\"","ref":"485","from":"Գետազատ","name":"Գետազատ-Երևան","type":"route","route":"bus","name:en":"Bus 485 Getazat-Yerevan","name:ru":"Гетазат-Ереван","public_transport:version":"2"},"12457005":{"ref":"9","name":"Շահումյան-Բերքանուշ","type":"route","route":"bus","name:en":"Shahumyan-Berqanush","name:ru":"Шаумян-Беркануш"},"12916699":{"ref":"452","name":"Արտաշատ-Երևան","type":"route","route":"bus","name:en":"Artashat-Yerevan","name:ru":"Арташат-Ереван","public_transport:version":"2"},"13408349":{"ref":"462","name":"Նորաշեն-Երևան","type":"route","route":"bus","name:en":"Norashen-Yerevan","name:ru":"Норашен-Ереван","public_transport:version":"2"},"13463424":{"ref":"471","name":"Վերին Դվին-Երևան","type":"route","route":"bus","name:en":"Verin Dvin-Yerevan","name:ru":"Верин Двин-Ереван","public_transport:version":"2"},"13709577":{"to":"Yerevan","ref":"456","from":"Masis","name":"Մասիս-Երևան","type":"route","fixme":"Some stops may be missing. Not sure about start hour. End hour may be 22:00 actually.","route":"bus","name:en":"Masis-Yerevan","name:ru":"Масис-Ереван","interval":"00:20:00","opening_hours":"Mo-Su 09:00-21:00","public_transport:version":"2"},"13709578":{"ref":"460","name":"Վեդի-Երևան","type":"route","route":"bus","name:en":"Vedi-Yerevan","name:ru":"Веди-Ереван","public_transport:version":"2"},"13709579":{"ref":"454","name":"Արարատ-Երևան","type":"route","route":"bus","name:en":"Ararat-Yerevan","name:ru":"Арарат-Ереван","public_transport:version":"2"},"13825730":{"ref":"467","name":"Նոյակերտ-Երևան","type":"route","route":"bus","name:en":"Noyakert-Yerevan","name:ru":"Ноякерт-Ереван","public_transport:version":"2"},"13825731":{"ref":"480","name":"Ուրցաձոր-Երևան","type":"route","route":"bus","name:en":"Urtsadzor-Yerevan","name:ru":"Урцадзор-Ереван","public_transport:version":"2"},"13829514":{"to":"Երևան","ref":"607","from":"Գորիս","name":"Գորիս-Երևան","type":"route","route":"bus","name:en":"Goris-Yerevan","name:hy":"Գորիս-Երևան","name:ru":"Горис-Ереван","public_transport:version":"2"},"13838926":{"to":"Ջրաշեն","ref":"54","from":"Դավթաշեն 4-րդ թաղամաս","name":"Դավթաշեն 4-րդ թաղամաս => Ջրաշեն","type":"route","route":"bus","name:en":"Minibus 54: Davtashen 4th district => Jrashen","public_transport:version":"2"},"13911242":{"to":"Yerevan","fee":"yes","ref":"311","from":"Vardenis","name":"Bus 311: Վարդենիս => Երևան","type":"route","fixme":"Make sure there are only 3 stops (I doubt it's the case)","route":"bus","charge":"1500 AMD","name:en":"Bus 311: Vardenis-Yerevan","name:ru":"Автобус 311: Варденис-Ереван","public_transport:version":"2"},"13985699":{"to":"Artashat","ref":"4","from":"Masis","name":"Մասիս-Արտաշատ","type":"route","fixme":"Add intermediate stops to this route (if they exist) Add Artashat-Masis route","route":"bus","name:en":"Masis-Artashat","name:ru":"Масис-Арташат"},"14368513":{"to":"Գետազատ","ref":"485","from":"\\\"Երևան\\\"","name":"Երևան-Գետազատ","type":"route","route":"bus","name:en":"Bus 485 Yerevan-Getazat","name:hy":"Երևան-Գետազատ","name:ru":"Ереван-Гетазат","public_transport:version":"2"},"14372873":{"to":"Դավթաշեն","ref":"54","from":"Ջրաշեն","name":"Ջրաշեն => Դավթաշեն 4-րդ թաղամաս","type":"route","route":"bus","name:en":"Minibus 54: Jrashen => Davtashen 4th district","public_transport:version":"2"},"14382100":{"to":"Գորիս","ref":"607","from":"Երևան","name":"Երևան-Գորիս","type":"route","route":"bus","name:en":"Yerevan-Goris","name:hy":"Երևան-Գորիս","name:ru":"Ереван-Горис","public_transport:version":"2"},"14540970":{"to":"\\\"Զվարթնոց\\\"օդանավակայան","ref":"201","from":"Երիտասարդական","name":"Minibus # 201: Երիտասարդական => \\\"Զվարթնոց\\\"օդանավակայան","type":"route","route":"bus","colour":"yellow","public_transport:version":"2"},"14540971":{"to":"Երիտասարդական","ref":"201","from":"\\\"Զվարթնոց\\\"օդանավակայան","name":"Minibus # 201: \\\"Զվարթնոց\\\"օդանավակայան => Երիտասարդական","type":"route","route":"bus","colour":"yellow","public_transport:version":"2"},"15540634":{"to":"Yerevan","from":"Sevan","name":"Bus: Sevan => Yerevan","type":"route","fixme":"Not sure about start hour (the end hour is correct), and if it's operational on weekends. The path is just an approximation.","route":"bus","charge":"700 AMD","name:en":"Sevan-Yerevan","name:ru":"Севан-Ереван","opening_hours":"Mo-Su 09:00-18:00","public_transport:version":"2"},"15540635":{"to":"Sevan","from":"Yerevan","name":"Bus: Yerevan => Sevan","type":"route","fixme":"The path is just an approximation.","route":"bus","charge":"700 AMD","name:ru":"Ереван-Севан","public_transport:version":"2"},"15541776":{"to":"Masis","ref":"456","from":"Yerevan","name":"Երևան-Մասիս","type":"route","fixme":"Some stops may be missing. Also the road is not correct (it's just the reflected version of the Masis-Yerevan 456 bus). Not sure about start hour. End hour may be 22:00 actually.","route":"bus","name:en":"Yerevan-Masis","name:ru":"Ереван-Масис","interval":"00:20:00","description":"Вечерами крайне переполнен в направлении на Масис","opening_hours":"Mo-Su 09:00-21:00","public_transport:version":"2"},"15555492":{"to":"Vardenis","fee":"yes","ref":"311","from":"Yerevan","name":"Bus 311: Երևան => Վարդենիս","type":"route","fixme":"Make sure there are only 3 stops (I doubt it's the case).","route":"bus","charge":"1500 AMD","name:en":"Bus 311: Yerevan-Vardenis","name:ru":"Автобус 311: Ереван-Варденис","public_transport:version":"2"},"16093523":{"to":"Ջրվեժ","ref":"1","from":"Աշխատանքի հրապարակ","name":"Տրոլեյբուս#1 Աշխատանքի հրապարակ => Ջրվեժ","type":"route","route":"trolleybus","operator":"Երևանի էլեկտրատրանսպորտ","public_transport:version":"2"},"16099083":{"to":"Աշխատանքի հրապարակ","ref":"1","from":"Ջրվեժ","name":"Տրոլեյբուս#1 Ջրվեժ => Աշխատանքի հրապարակ","type":"route","route":"trolleybus","operator":"Երևանի էլեկտրատրանսպորտ","public_transport:version":"2"},"16106811":{"to":"Չարբախ","ref":"2","from":"Էրեբունի թանգարան","name":"Տրոլեյբուս#2 Էրեբունի թանգարան => Չարբախ","type":"route","route":"trolleybus","operator":"Երևանի էլեկտրատրանսպորտ","public_transport:version":"2"},"16106812":{"to":"Էրեբունի թանգարան","ref":"2","from":"Չարբախ","name":"Տրոլեյբուս#2 Չարբախ => Էրեբունի թանգարան","type":"route","route":"trolleybus","operator":"Երևանի էլեկտրատրանսպորտ","public_transport:version":"2"},"16108192":{"to":"Նուբարաշենի խճուղի","ref":"2Ա","from":"Աերացիա","name":"Տրոլեյբուս#2Ա Աերացիա => Նուբարաշենի խճուղի","type":"route","route":"trolleybus","operator":"Երևանի էլեկտրատրանսպորտ","public_transport:version":"2"},"16108193":{"to":"Աերացիա","ref":"2Ա","from":"Նուբարաշենի խճուղի","name":"Տրոլեյբուս#2Ա Նուբարաշենի խճուղի => Աերացիա","type":"route","route":"trolleybus","operator":"Երևանի էլեկտրատրանսպորտ","public_transport:version":"2"},"16109344":{"to":"Ավան","ref":"9","from":"Մանկավարժական համալսարան","name":"Տրոլեյբուս#9 Մանկավարժական համալսարան => Ավան","type":"route","route":"trolleybus","operator":"Երևանի էլեկտրատրանսպորտ","public_transport:version":"2"},"16109345":{"to":"Մանկավարժական համալսարան","ref":"9","from":"Ավան","name":"Տրոլեյբուս#9 Ավան => Մանկավարժական համալսարան","type":"route","route":"trolleybus","operator":"Երևանի էլեկտրատրանսպորտ","public_transport:version":"2"},"16114262":{"to":"Դավթաշեն","ref":"10Ա","from":"Նորքի 5-րդ զանգված","name":"Տրոլեյբուս#10Ա Նորքի 5-րդ զանգված => Դավթաշեն","type":"route","route":"trolleybus","operator":"Երևանի էլեկտրատրանսպորտ","public_transport:version":"2"},"16114263":{"to":"Նորքի 5-րդ զանգված","ref":"10Ա","from":"Դավթաշեն","name":"Տրոլեյբուս#10Ա Դավթաշեն => Նորքի 5-րդ զանգված","type":"route","route":"trolleybus","operator":"Երևանի էլեկտրատրանսպորտ","public_transport:version":"2"},"16115326":{"ref":"15","from":"15-րդ թաղամաս","name":"Տրոլեյբուս#15 15-րդ թաղամաս => Էրեբունի օդանավակայան","type":"route","route":"trolleybus","operator":"Երևանի էլեկտրատրանսպորտ","frequency":"Էրեբունի օդանավակայան","public_transport:version":"2"},"16115327":{"to":"15-րդ թաղամաս","ref":"15","from":"Էրեբունի օդանավակայան","name":"Տրոլեյբուս#15 Էրեբունի օդանավակայան => 15-րդ թաղամաս","type":"route","route":"trolleybus","operator":"Երևանի էլեկտրատրանսպորտ","public_transport:version":"2"}}