{"1660436":{"name":"Brčko - Cerik","type":"route","route":"bus"},"1771193":{"to":"Hrasnica","ref":"27","from":"Ilidža","name":"Bus 27: Ilidža - Hrasnica","type":"route","route":"bus","network":"GRAS Autobus","operator":"GRAS","public_transport:version":"2"},"1780713":{"to":"Željeznička Stanica","ref":"15","from":"Buća Potok","name":"Bus 15: Buća Potok - Željeznička Stanica","type":"route","route":"bus","public_transport:version":"2"},"1818829":{"name":"Bijeljevac","type":"route","route":"bus"},"1928329":{"name":"Kanal-Bolnica","type":"route","route":"bus","operator":"Zenicatrans"},"2049516":{"ref":"Drakulic-Rakovacke Bare-Rosulje-Nova Varos-Centar","name":"39a","type":"route","route":"bus","network":"Javni gradski prevoz","operator":"Pavlovic Turs"},"2052694":{"ref":"39a","name":"Drakulić - Rosulje - Nova Varoš - Centar","type":"route","route":"bus","network":"Gradski","operator":"Pavlović Turs"},"2067392":{"ref":"13p","name":"Petričevac - Centar - Obilićevo","type":"route","route":"bus","network":"Gradski saobraćaj","operator":"Pavlovic Turs"},"2067401":{"ref":"12p","name":"JGP","type":"route","route":"bus","network":"Petricevac (Majevicka)-Rosulje-Centar","operator":"Pavlovic Turs"},"2154797":{"name":"Centar - Obilićevo - Centar","type":"route","route":"bus","public_transport":"station"},"2171296":{"to":"Baščaršija","ref":"3","from":"Ilidža","name":"Tram 3: Ilidža ⇒ Baščaršija","type":"route","route":"tram","operator":"GRAS","wikidata":"Q121543796","public_transport:version":"2"},"2171301":{"to":"Dobrinja","ref":"31E","from":"Vijećnica","name":"Bus 31E: Vijećnica-Dobrinja","type":"route","route":"bus","public_transport:version":"2"},"2252628":{"name":"Tarčin-Korča","type":"route","route":"bus","operator":"GRAS"},"2269718":{"to":"Donji Kotorac","ref":"32","from":"Ilidža","name":"Bus 32: Ilidža - Kotorac","type":"route","route":"bus","network":"GRAS Autobus","operator":"GRAS","public_transport:version":"2"},"2327978":{"to":"Sokolje","ref":"61","from":"Stup","name":"Bus 61: Stup - Sokolje","type":"route","route":"bus","network":"Autobuski saobraćaj","operator":"GRAS","public_transport:version":"2"},"2413516":{"name":"Odžaci - Argud","type":"route","route":"bus"},"2435428":{"ref":"27A","name":"Bus 27A: Ilidža => Sokolović Kolonija","type":"route","route":"bus","network":"GRAS","operator":"GRAS","public_transport:version":"2"},"2437143":{"ref":"27A","name":"Bus 27A: Sokolović Kolonija => Ilidža","type":"route","route":"bus","network":"GRAS","operator":"GRAS","public_transport:version":"2"},"2530510":{"to":"Ilidža","ref":"6","from":"Skenderija","name":"Tram 6: Skenderija ⇒ Ilidža","type":"route","route":"tram","operator":"GRAS","wikidata":"Q121543799","public_transport:version":"2"},"2534968":{"to":"Željeznička stanica","ref":"4","from":"Ilidža","name":"Tram 4: Ilidža ⇒ Željeznička stanica","type":"route","route":"tram","operator":"GRAS","wikidata":"Q121543797","public_transport:version":"2"},"3279172":{"to":"Baščaršija","ref":"1","from":"Željeznička stanica","name":"Tram 1: Željeznička stanica ⇒ Baščaršija","type":"route","route":"tram","operator":"GRAS","wikidata":"Q121543793","public_transport:version":"2"},"3279204":{"to":"Željeznička stanica","ref":"1","from":"Baščaršija","name":"Tram 1: Baščaršija ⇒ Željeznička stanica","type":"route","route":"tram","operator":"GRAS","wikidata":"Q121543793","public_transport:version":"2"},"3281834":{"to":"Čengić Vila","ref":"2","from":"Baščaršija","name":"Tram 2: Baščaršija ⇒ Čengić Vila","type":"route","route":"tram","operator":"GRAS","wikidata":"Q121543794","public_transport:version":"2"},"3281835":{"to":"Baščaršija","ref":"2","from":"Čengić Vila","name":"Tram 2: Čengić Vila ⇒ Baščaršija","type":"route","route":"tram","operator":"GRAS","wikidata":"Q121543794","public_transport:version":"2"},"3284410":{"to":"Nedžarići","ref":"5","from":"Baščaršija","name":"Tram 5: Baščaršija ⇒ Nedžarići","type":"route","route":"tram","operator":"GRAS","wikidata":"Q121543798","public_transport:version":"2"},"3284411":{"to":"Baščaršija","ref":"5","from":"Nedžarići","name":"Tram 5: Nedžarići ⇒ Baščaršija","type":"route","route":"tram","operator":"GRAS","wikidata":"Q121543798","public_transport:version":"2"},"3285669":{"to":"Ilidža","ref":"3","from":"Baščaršija","name":"Tram 3: Baščaršija ⇒ Ilidža","type":"route","route":"tram","operator":"GRAS","wikidata":"Q121543796","public_transport:version":"2"},"3285944":{"to":"Ilidža","ref":"4","from":"Željeznička stanica","name":"Tram 4: Željeznička stanica ⇒ Ilidža","type":"route","route":"tram","operator":"GRAS","wikidata":"Q121543797","public_transport:version":"2"},"3285975":{"to":"Skenderija","ref":"6","from":"Ilidža","name":"Tram 6: Ilidža ⇒ Skenderija","type":"route","route":"tram","operator":"GRAS","wikidata":"Q121543799","public_transport:version":"2"},"5651407":{"to":"Trg Austrije","fax":"+38733452186","fee":"yes","ref":"103","from":"Dobrinja","name":"Trolleybus 103: Dobrinja => Trg Austrije","type":"route","email":"info@gras.ba","phone":"+38733451555","route":"trolleybus","network":"GRAS Trolejbus","website":"https://gras.ba/karte/","operator":"GRAS","public_transport:version":"2"},"5651408":{"to":"Jezero","ref":"107","from":"Dobrinja","name":"Trolleybus 107: Dobrinja => Jezero","type":"route","route":"trolleybus","network":"GRAS trolejbusi","operator":"GRAS","public_transport:version":"2"},"5651409":{"to":"Otoka","ref":"108","from":"Dobrinja","name":"Trolleybus 108: Dobrinja => Otoka","type":"route","route":"trolleybus","network":"GRAS trolejbusi","operator":"GRAS","public_transport:version":"2"},"9142220":{"to":"Drvenija","ref":"41","from":"Gornji Velešići","name":"Bus 41: Gornji Velešići - Drvenija","type":"route","route":"bus","source":"survey","operator":"GRAS","public_transport:version":"2"},"9218487":{"to":"Dom Armije","ref":"16","from":"Bare","name":"Bus 16: Bare - Dom Armije","type":"route","route":"bus","operator":"GRAS","public_transport:version":"2"},"9403546":{"to":"Baščaršija","ref":"200E","from":"Aerodrom Sarajevo","name":"Bus 200E: Aerodrom Sarajevo ⇒ Baščaršija","type":"route","route":"bus","operator":"Centrotrans Eurolines","public_transport:version":"2"},"9403548":{"to":"Aerodrom Sarajevo","from":"Baščaršija","name":"Bus 200E: Baščaršija ⇒ Aerodrom Sarajevo","type":"route","route":"bus","operator":"Centrotrans Eurolines","public_transport:version":"2"},"10295247":{"to":"Brčko","ref":"7","from":"Štrepci","name":"Štrepci-Brčko(Dom zdravlja)-Izbor","type":"route","route":"bus","operator":"Krajnović Laser"},"10521403":{"to":"Dobrinja","ref":"107","from":"Jezero","name":"Trolleybus 107: Jezero => Dobrinja","type":"route","route":"trolleybus","network":"GRAS trolejbusi","operator":"GRAS","public_transport:version":"2"},"10542170":{"to":"Bremen, Hbf.","ref":"N1970","from":"Sarajewo, ZOB","name":"Flixbus N1970: Sarajewo, ZOB => Bremen, Hbf.","type":"route","route":"bus","name:cs":"Flixbus N1970: Sarajevo, centrální autobusové nádraží => Brémy, hlavní nádraží","name:de":"Flixbus N1970: Sarajewo, ZOB => Bremen, Hbf.","name:hr":"Flixbus N1970: Sarajevo, centralna autobusna stanica => Bremen, središnja stanica","name:hu":"Flixbus N1970: Szarajevó, központi buszpályaudvar => Bréma, központi állomás","name:sk":"Flixbus N1970: Sarajevo, centrálna autobusová stanica => Brémy, hlavná stanica","network":"Flixbus","name:bos":"Flixbus N1970: Sarajevo, centralna autobusna stanica => Bremen, centralna stanica","operator":"Centrotrans","network:wikidata":"Q15712258","network:wikipedia":"en:Flixbus","public_transport:version":"2"},"10547966":{"to":"Dortmund, ZOB","ref":"N1971","from":"Sarajewo, ZOB","name":"Flixbus N1971: Sarajewo, ZOB => Dortmund, ZOB","note":"Bussteig in Frankfurt (Hbf.) fehlt, nur improvisiert getaggt","type":"route","route":"bus","name:de":"Flixbus N1971: Sarajewo, ZOB => Dortmund, ZOB","name:hr":"Flixbus N1971: Sarajevo, centralna autobusna stanica => Dortmund, autobusna stanica","name:sl":"Flixbus N1971: Sarajevo, centralna avtobusna postaja => Dortmund, centralna avtobusna postaja","network":"Flixbus","name:bos":"Flixbus N1971: Sarajevo, centralna autobusna stanica => Dortmund, autobusna stanica","operator":"Centrotrans","network:wikidata":"Q15712258","network:wikipedia":"en:Flixbus","public_transport:version":"2"},"10548070":{"to":"Dortmund, ZOB","ref":"N971","from":"Sarajewo, ZOB","name":"Flixbus N971: Sarajewo, ZOB => Dortmund, ZOB","note":"Bussteig in Frankfurt (Hbf.) fehlt, nur improvisiert getaggt","type":"route","route":"bus","name:ba":"Flixbus N971: Sarajevo, centralna autobusna stanica => Dortmund, autobusna stanica","name:de":"Flixbus N971: Sarajewo, ZOB => Dortmund, ZOB","name:hr":"Flixbus N971: Sarajevo, centralna autobusna stanica => Dortmund, autobusna stanica","name:sl":"Flixbus N971: Sarajevo, centralna avtobusna postaja => Dortmund, centralna avtobusna postaja","network":"Flixbus","operator":"Flixbus","network:wikidata":"Q15712258","network:wikipedia":"en:Flixbus","public_transport:version":"2"},"10554997":{"to":"Hamburg, ZOB","ref":"N1972","from":"Sarajewo, ZOB","name":"Flixbus N1972: Sarajewo, ZOB => Hamburg, ZOB","type":"route","route":"bus","name:de":"Flixbus N1972: Sarajewo, ZOB => Hamburg, ZOB","name:hr":"Flixbus N1972: Sarajevo, centralna autobusna stanica => Hamburg, autobusna stanica","name:sl":"Flixbus N1972: Sarajevo, centralna avtobusna postaja => Hamburg, centralna avtobusna postaja","network":"Flixbus","name:bos":"Flixbus N1972: Sarajevo, centralna autobusna stanica => Hamburg, autobusna stanica","operator":"Centrotrans","network:wikidata":"Q15712258","network:wikipedia":"en:Flixbus","public_transport:version":"2"},"10559166":{"to":"Dortmund, ZOB","ref":"N1961","from":"Tuzla, Busbahnhof","name":"Flixbus N1961: Tuzla, Busbahnhof => Dortmund, ZOB","note":"Bussteig in Frankfurt (Hbf.) fehlt, nur improvisiert getaggt","type":"route","route":"bus","name:de":"Flixbus N1961: Tuzla, Busbahnhof => Dortmund, ZOB","name:hr":"Flixbus N1961: Tuzla, autobusna stanica => Dortmund, autobusna stanica","name:sl":"Flixbus N1961: Tuzla, avtobusna postaja => Dortmund, centralna avtobusna postaja","network":"Flixbus","name:bos":"Flixbus N1961: Tuzla, autobusna stanica => Dortmund, autobusna stanica","operator":"TransTourist","network:wikidata":"Q15712258","network:wikipedia":"en:Flixbus","public_transport:version":"2"},"10559472":{"to":"Hamburg, ZOB","ref":"N1962","from":"Tuzla, Busbahnhof","name":"Flixbus N1962: Tuzla, Busbahnhof => Hamburg, ZOB","type":"route","route":"bus","name:de":"Flixbus N1962: Tuzla, Busbahnhof => Hamburg, ZOB","name:hr":"Flixbus N1962: Tuzla, autobusna stanica => Hamburg, autobusna stanica","name:sl":"Flixbus N1962: Tuzla, avtobusna postaja => Hamburg, centralna avtobusna postaja","network":"Flixbus","name:bos":"Flixbus N1962: Tuzla, autobusna stanica => Hamburg, autobusna stanica","operator":"TransTourist","network:wikidata":"Q15712258","network:wikipedia":"en:Flixbus","public_transport:version":"2"},"11168928":{"to":"Uzarići","ref":"45","from":"Mostar","name":"45: Mostar - Uzarići","type":"route","route":"bus","operator":"Mostar bus","public_transport:version":"2"},"11168978":{"to":"Hamzići","ref":"48","via":"Čitluk; Međugorje","from":"Mostar","name":"48: Mostar - Hamzići","type":"route","route":"bus","operator":"Mostar bus","public_transport:version":"2"},"11171734":{"to":"Jasenica","ref":"2","via":"Rodoč","from":"Skakala","name":"2: Skakala-Jasenica","type":"route","route":"bus","network":"local","operator":"MostarBus","public_transport:version":"2"},"12376203":{"to":"Nova Bolnica","fee":"yes","ref":"1","from":"Mađir","name":"Mađir – Ortopedija – Nova Bolnica","type":"route","route":"bus","charge":"1.80/KM","interval":"00:15:00","operator":"Pavlović Turs","roundtrip":"yes","opening_hours":"Mo-Fr 05:25-22:25; Sa 05:25-20:25; Sun 05:25-19:55","public_transport:version":"2"},"13543563":{"to":"Otoka","ref":"101","from":"Trg Austrije","name":"Trolleybus 101: Trg Austrije => Otoka","type":"route","route":"trolleybus","network":"GRAS trolejbusi","operator":"GRAS","public_transport:version":"2"},"13543564":{"to":"Trg Austrije","ref":"101","from":"Otoka","name":"Trolleybus 101: Otoka => Trg Austrije","type":"route","route":"trolleybus","network":"GRAS trolejbusi","operator":"GRAS","public_transport:version":"2"},"13549739":{"to":"Jezero","fax":"+38733452186","fee":"yes","ref":"102","from":"Otoka","name":"Trolleybus 102: Otoka => Jezero","type":"route","email":"info@gras.ba","phone":"+38733451555","route":"trolleybus","network":"GRAS Trolejbus","website":"https://gras.ba/karte/","operator":"GRAS","public_transport:version":"2"},"13549740":{"to":"Otoka","fax":"+38733452186","fee":"yes","ref":"102","from":"Jezero","name":"Trolleybus 102: Jezero => Otoka","type":"route","email":"info@gras.ba","phone":"+38733451555","route":"trolleybus","network":"GRAS Trolejbus","website":"https://gras.ba/karte/","operator":"GRAS","public_transport:version":"2"},"13559148":{"to":"Dobrinja","fax":"+38733452186","fee":"yes","ref":"103","from":"Trg Austrije","name":"Trolleybus 103: Trg Austrije => Dobrinja","type":"route","email":"info@gras.ba","phone":"+38733451555","route":"trolleybus","network":"GRAS Trolejbus","website":"https://gras.ba/karte/","operator":"GRAS","public_transport:version":"2"},"13578063":{"to":"Dobrinja","ref":"108","from":"Otoka","name":"Trolleybus 108: Otoka => Dobrinja","type":"route","route":"trolleybus","network":"GRAS trolejbusi","operator":"GRAS","public_transport:version":"2"},"14479980":{"to":"Hodbina","ref":"29","via":"Buna","from":"Vrh Avenije","name":"29: Vrh Avenije - Buna - Hodbina","type":"route","route":"bus","name:hr":"29: Vrh Avenije - Buna - Hodbina","operator":"MOSTAR BUS"},"14643315":{"to":"Žitomislići","ref":"28","via":"Buna","from":"Vrh Avenije","name":"28: Vrh Avenije - Buna - Žitomislići","type":"route","route":"bus","name:hr":"28: Vrh Avenije - Buna -Žitomislići","operator":"MOSTAR BUS"},"14643316":{"to":"Bačevići","ref":"30","via":"Ulog","from":"Vrh Avenije","name":"30: Vrh Avenije - Ulog - Bačevići","type":"route","route":"bus","operator":"MOSTAR BUS"},"14643646":{"to":"Cim","ref":"5","via":"Musala;Autobusni kolodvor istok","from":"Rodno","name":"5: Rondo - Musala - Cim","type":"route","route":"bus","operator":"MOSTAR BUS"},"14644366":{"to":"Vranjevići","ref":"11","from":"Blagaj","name":"11: Blagaj - Vranjevići","type":"route","route":"bus","operator":"MOSTAR BUS"},"14645290":{"to":"Zalik","ref":"6","from":"Gorica","name":"6: Gorica - Zalik","type":"route","route":"bus","operator":"MOSTAR BUS"},"14645377":{"to":"Dračevice","ref":"13","from":"Sjeverni logor","name":"13: Sjeverni logor - Dračevice","type":"route","route":"bus","operator":"Mostar bus"},"14646190":{"to":"Podveležje","ref":"16","via":"Podgorani","from":"Sjeverni logor","name":"16: Sjeverni logor - Dračevice - Podveležje","type":"route","route":"bus","operator":"MOSTAR BUS"},"14646932":{"to":"Ilići","ref":"1","from":"Španski trg","name":"1: Mepas - Ilići","type":"route","route":"bus","name:hr":"1: Španjolski trg - Ilići","operator":"MOSTAR BUS"},"14646934":{"to":"Podgorani","ref":"20","via":"Potoci","from":"Bišće Polje","name":"20: Bišće Polje - Potoci - Podgorani","type":"route","route":"bus","operator":"MOSTAR BUS"},"16310307":{"to":"Vijećnica","ref":"31E","from":"Dobrinja","name":"Bus 31E: Dobrinja-Vijećnica","type":"route","route":"bus","public_transport:version":"2"},"16316897":{"to":"Ilidža","ref":"32","from":"Donji Kotorac","name":"Bus 32: Kotorac - Ilidža","type":"route","route":"bus","network":"GRAS Autobus","operator":"GRAS","public_transport:version":"2"},"16316898":{"to":"Gornji Velešići","ref":"41","from":"Drvenija","name":"Bus 41: Drvenija - Gornji Velešići","type":"route","route":"bus","source":"survey","operator":"GRAS","public_transport:version":"2"},"16316899":{"to":"Ilidža","ref":"27","from":"Hrasnica","name":"Bus 27: Hrasnica - Ilidža","type":"route","route":"bus","network":"GRAS Autobus","operator":"GRAS","public_transport:version":"2"},"16316900":{"to":"Buća Potok","ref":"15","from":"Željeznička Stanica","name":"Bus 15: Željeznička Stanica - Buća Potok","type":"route","route":"bus","public_transport:version":"2"},"16316901":{"to":"Stup","ref":"61","from":"Sokolje","name":"Bus 61: Sokolje - Stup","type":"route","route":"bus","network":"Autobuski saobraćaj","operator":"GRAS","public_transport:version":"2"},"16317034":{"to":"Drvenija","ref":"18","from":"Pofalići","name":"Bus 18: Pofalići - Drvenija","type":"route","route":"bus","source":"survey","operator":"GRAS","public_transport:version":"2"},"16317035":{"to":"Pofalići","ref":"18","from":"Drvenija","name":"Bus 18: Drvenija - Pofalići","type":"route","route":"bus","source":"survey","operator":"GRAS","public_transport:version":"2"},"16317713":{"to":"Željeznička Stanica","ref":"23","from":"Rajlovac","name":"Bus 23: Rajlovac - Željeznička Stanica","type":"route","route":"bus","public_transport:version":"2"},"16317714":{"to":"Rajlovac","ref":"23","from":"Željeznička Stanica","name":"Bus 23: Željeznička Stanica - Rajlovac","type":"route","route":"bus","public_transport:version":"2"},"16317715":{"to":"Vogošća","ref":"21","from":"Sutjeska","name":"Bus 21: Sutjeska - Vogošća","type":"route","route":"bus","operator":"GRAS","public_transport:version":"2"},"16317716":{"to":"Sutjeska","ref":"21","from":"Vogošća","name":"Bus 21: Vogošća - Sutjeska","type":"route","route":"bus","operator":"GRAS","public_transport:version":"2"},"16318052":{"to":"Stup","ref":"24","from":"Smiljevići","name":"Bus 24: Smiljevići - Stup","type":"route","route":"bus","network":"Autobuski saobraćaj","operator":"GRAS","public_transport:version":"2"},"16318053":{"to":"Smiljevići","ref":"24","from":"Stup","name":"Bus 24: Stup - Smiljevići","type":"route","route":"bus","network":"Autobuski saobraćaj","operator":"GRAS","public_transport:version":"2"}}