{"422282":{"to":"Kontula (M)","ref":"57","from":"Munkkiniemi","name":"57 Munkkiniemi - Ruskeasuo - Koskela - Viikki - Kontula(M)","type":"route","route":"bus","to:fi":"Kontula (M)","to:sv":"Gårdsbacka (M)","from:fi":"Munkkiniemi","from:sv":"Munksnäs","network":"Helsinki","operator":"Pohjolan Kaupunkiliikenne","headway:midday":"00:20","headway:sunday":"00:30","headway:evening":"00:30","headway:evening_peak":"00:10","headway:morning_peak":"00:10","public_transport:version":"2"},"547023":{"ref":"28","name":"28: City Centre - Thorpe Marriott via Drayton","type":"route","route":"bus","colour":"#ffdd01","operator":"First Norwich","public_transport:version":"1"},"939350":{"to":"Colombier","ref":"120","from":"Les Grattes","name":"Bus 120","type":"route","route":"bus","nat_ref":"21.120","network":"Onde Verte","operator":"TransN","network:wikidata":"Q30744145","public_transport:version":"1"},"1273976":{"to":"1er RA","ref":"3","from":"Valdoie Mairie","name":"Bus 3: Valdoie Mairie => 1er RA","type":"route","route":"bus","colour":"#00b1e9","network":"Optymo","website":"https://www.optymo.fr/","operator":"Régie des Transports du Territoire de Belfort","network:wikidata":"Q3354509","public_transport:version":"2"},"1273978":{"to":"La Douce","ref":"1","from":"Valdoie Mairie","name":"Bus 1 : Valdoie Maire => La Douce","type":"route","route":"bus","colour":"#f82b2f","network":"Optymo","website":"https://www.optymo.fr/","operator":"Régie des Transports du Territoire de Belfort","wheelchair":"yes","public_transport:version":"2"},"1540095":{"ref":"1Б","name":"1Б КДП \\\"Маладзёжны\\\" - КДП \\\"1-РУ\\\"","type":"route","route":"bus","name:be":"1Б КДП \\\"Маладзёжны\\\" - КДП \\\"1-РУ\\\"","name:ru":"1Б КДП \\\"Молодежный\\\" - КДП \\\"1-РУ\\\"","name:uk":"1Б КДП \\\"Молодіжний\\\" - КДП \\\"1-РУ\\\"","operator":"АП-1"},"1540097":{"ref":"1А","name":"1А КДП \\\"Маладзёжны\\\" - КДП \\\"1-РУ\\\"","type":"route","route":"bus","name:be":"1А КДП \\\"Маладзёжны\\\" - КДП \\\"1-РУ\\\"","name:ru":"1А КДП \\\"Молодежный\\\" - КДП \\\"1-РУ\\\"","name:uk":"1А КДП \\\"Молодіжний\\\" - КДП \\\"1-РУ\\\"","operator":"АП-1"},"1540408":{"ref":"3Б","name":"3Б КДП \\\"Маладзёжны\\\" - 3-РУ","type":"route","route":"bus","name:be":"3Б КДП \\\"Маладзёжны\\\" - 3-РУ","name:ru":"3Б КДП \\\"Молодежный\\\" - 3-РУ","name:uk":"3Б КДП \\\"Молодіжний\\\" - 3-РУ","operator":"АП-1"},"1751546":{"ref":"7","name":"Аўтобус №7: Іванаўка - Ленінская","type":"route","route":"bus","name:be":"Аўтобус №7: Іванаўка - Ленінская","name:ru":"Автобус №7: Ивановка - Ленинская","name:uk":"Автобус №7: Іванівка – Ленінська"},"1751547":{"ref":"7","name":"Аўтобус №7: Ленінская - Іванаўка","type":"route","route":"bus","name:be":"Аўтобус №7: Ленінская - Іванаўка","name:ru":"Автобус №7: Ленинская - Ивановка","name:uk":"Автобус №7: Ленінська - Іванівка"},"1751548":{"ref":"7а","name":"Аўтобус №7а: Паліклініка - Паўднёвая","type":"route","route":"bus","name:be":"Аўтобус №7а: Паліклініка - Паўднёвая","name:ru":"Автобус №7а: Поликлиника - Южная","name:uk":"Автобус №7а: Поліклініка – Південна"},"1751549":{"ref":"7а","name":"Аўтобус №7а: Паўднёвая - Паліклініка","type":"route","route":"bus","name:be":"Аўтобус №7а: Паўднёвая - Паліклініка","name:ru":"Автобус №7а: Южная - Поликлиника","name:uk":"Автобус №7а: Південна - Поліклініка"},"1756476":{"to":"Мазыр","ref":"201","from":"Калінкавічы","name":"201: Калінкавічы – Мазыр","type":"route","route":"bus","name:be":"201: Калінкавічы – Мазыр","name:ru":"201: Калинковичи - Мозырь","name:uk":"201: Калінковичі - Мозир"},"1756908":{"to":"Фаціна","ref":"4","name":"Аўтобус №4: Казіміраўка - вуліца Фаціна","type":"route","route":"bus","name:be":"Аўтобус №4: Казіміраўка - вуліца Фаціна","name:ru":"Автобус №4: Казимировка - улица Фатина","name:uk":"Автобус №4: Казимування - вулиця Фатіна"},"1767215":{"ref":"1","name":"Аўтобус №1: Вакзал - Ціманава","type":"route","route":"bus","name:be":"Аўтобус №1: Вакзал - Ціманава","name:ru":"Автобус №1: Вокзал - Тимоново","name:uk":"Автобус №1: Вокзал - Тимонове"},"1767216":{"ref":"1","name":"Аўтобус №1: Ціманава - Вакзал","type":"route","route":"bus","name:be":"Аўтобус №1: Ціманава - Вакзал","name:ru":"Автобус №1: Тимоново - Вокзал","name:uk":"Автобус №1: Тимонове - Вокзал"},"1767217":{"ref":"2","name":"Аўтобус №2: Ціманава - Хацень","type":"route","route":"bus","name:be":"Аўтобус №2: Ціманава - Хацень","name:ru":"Автобус №2: Тимоново - Хотень","name:uk":"Автобус №2: Тимонове - Хотень"},"1767218":{"ref":"2","name":"Аўтобус №2: Хацень - Ціманава","type":"route","route":"bus","name:be":"Аўтобус №2: Хацень - Ціманава","name:ru":"Автобус №2: Хотень - Тимоново","name:uk":"Автобус №2: Хотень - Тимонове"},"1838945":{"ref":"2","name":"2","type":"route","route":"bus","operator":"АТП № 17"},"2020365":{"to":"Piazzale Atleti Azzurri","ref":"27","from":"Byron","name":"27A : Byron -> Azzurri","type":"route","route":"bus","colour":"#312783","network":"TPER","operator":"TPER","network:wikidata":"Q3997843","network:wikipedia":"it:Trasporto Passeggeri Emilia-Romagna","public_transport:version":"2"},"2021724":{"to":"Genova","ref":"27","from":"Byron","name":"27B : Byron -> Genova","type":"route","route":"bus","colour":"#312783","network":"TPER","operator":"TPER","network:wikidata":"Q3997843","network:wikipedia":"it:Trasporto Passeggeri Emilia-Romagna","public_transport:version":"2"},"3161292":{"ref":"28A","name":"28A: City Centre - Thorpe Marriott - Taverham via Drayton","note":"Additional early evening only service","type":"route","route":"bus","colour":"#ffdd01","operator":"First Norwich","public_transport:version":"1"},"3316409":{"ref":"9","name":"Kinchbus 9","type":"route","route":"bus","operator":"Kinchbus"},"3505226":{"to":"РЫТМ","ref":"5","from":"Чыгуначны вакзал","name":"Аўтобус №5: Чыгуначны вакзал - РЫТМ","type":"route","route":"bus","name:be":"Аўтобус №5: Чыгуначны вакзал - РЫТМ","name:ru":"Автобус №5: Железнодорожный вокзал - РИТМ","name:uk":"Автобус №5: Залізничний вокзал - РІТМ","network":"city","operator":"ОАО \\\"Гомельавтотранс\\\"","public_transport:version":"2"},"3505260":{"to":"Чыгуначны вакзал","ref":"5","from":"РЫТМ","name":"Аўтобус №5: РЫТМ - Чыгуначны вакзал","type":"route","route":"bus","name:be":"Аўтобус №5: РЫТМ - Чыгуначны вакзал","name:ru":"Автобус №5: РИТМ - Железнодорожный вокзал","name:uk":"Автобус №5: РІТМ - Залізничний вокзал","network":"city","operator":"ОАО \\\"Гомельавтотранс\\\"","public_transport:version":"2"},"3506854":{"to":"Казазаеўка","ref":"4","from":"Вакзал","name":"Аўтобус №4: Вакзал - Казазаеўка","type":"route","route":"bus","name:be":"Аўтобус №4: Вакзал - Казазаеўка","name:ru":"Автобус №4: Вокзал - Казазаевка","name:uk":"Автобус №4: Вокзал - Казазаївка","network":"city","operator":"ОАО \\\"Гомельавтотранс\\\"","public_transport:version":"2"},"3506855":{"to":"Вакзал","ref":"4","from":"Казазаеўка","name":"Аўтобус №4: Казазаеўка - Вакзал","type":"route","route":"bus","name:be":"Аўтобус №4: Казазаеўка - Вакзал","name:ru":"Автобус №4: Казазаевка - Вокзал","name:uk":"Автобус №4: Казазаївка – Вокзал","network":"city","operator":"ОАО \\\"Гомельавтотранс\\\"","public_transport:version":"2"},"3508785":{"to":"Аўтапарк","ref":"1Л","from":"Аўтапарк","name":"Аўтобус №1: Левае кальцо","type":"route","route":"bus","name:be":"Аўтобус №1: Левае кальцо","name:ru":"Автобус №1 Левое кольцо","name:uk":"Автобус №1 Ліва каблучка","network":"City","operator":"ОАО \\\"Гомельавтотранс\\\"","public_transport:version":"2"},"3508799":{"to":"Аўтапарк","ref":"1П","from":"Аўтапарк","name":"Аўтобус №1: Правае кальцо","type":"route","route":"bus","colour":"green","name:be":"Аўтобус №1: Правае кальцо","name:ru":"Автобус №1 Правое кольцо","name:uk":"Автобус №1 Праве кільце","network":"city","operator":"ОАО \\\"Гомельавтотранс\\\"","public_transport:version":"2"},"3510622":{"to":"Гарошкаў","ref":"2","from":"Аўтапарк","name":"Аўтобус №2: Бальніца – Гарошкаў","type":"route","route":"bus","name:be":"Аўтобус №2: Бальніца – Гарошкаў","name:ru":"Автобус №2: Больница - Горошков","name:uk":"Автобус №2: Лікарня – Горошків","network":"local","operator":"ОАО \\\"Гомельавтотранс\\\"","public_transport:version":"2"},"3510625":{"to":"Бальніца","ref":"2","from":"Гарошкаў","name":"Аўтобус №2: Гарошкаў – Бальніца","type":"route","route":"bus","name:be":"Аўтобус №2: Гарошкаў – Бальніца","name:ru":"Автобус №2: Горошков - Больница","name:uk":"Автобус №2: Горошків - Лікарня","network":"local","operator":"ОАО \\\"Гомельавтотранс\\\"","public_transport:version":"2"},"3530680":{"to":"Аўтапарк","ref":"6","from":"Жмураўка","name":"Аўтобус №6: Шрубны цэх - Бальніца","type":"route","route":"bus","name:be":"Аўтобус №6: Шрубны цэх - Бальніца","name:ru":"Автобус №6: Шурупный цех - Больница","name:uk":"Автобус №6: Шурупний цех - Лікарня","network":"city","operator":"ОАО \\\"Гомельавтотранс\\\"","public_transport:version":"2"},"3530702":{"to":"Бальніца","ref":"6А","from":"Аўтавакзал","name":"Аўтобус №6А: Аўтавакзал - Бальніца","type":"route","route":"bus","name:be":"Аўтобус №6А: Аўтавакзал - Бальніца","name:ru":"Автобус №6А: Автовокзал - Больница","name:uk":"Автобус №6А: Автовокзал - Лікарня","network":"city","operator":"ОАО \\\"Гомельавтотранс\\\"","public_transport:version":"2"},"3565665":{"to":"Châtenois Géhant","ref":"3","from":"Valdoie Mairie","name":"Bus 3: Valdoie Mairie => Châtenois Géhant","type":"route","route":"bus","colour":"#00b1e9","network":"Optymo","website":"https://www.optymo.fr/","operator":"Régie des Transports du Territoire de Belfort","wheelchair":"yes","network:wikidata":"Q3354509","public_transport:version":"2"},"4154172":{"ref":"207","name":"Рэчыца — Балашаўка","type":"route","route":"bus","name:be":"Рэчыца — Балашаўка","name:ru":"Речица — Балашевка","name:uk":"Речиця - Балашівка","network":"regional","operator":"Филиал \\\"Автобусный парк №3\\\"","public_transport:version":"2"},"4154189":{"to":"Бушаўка","ref":"208","from":"Рэчыца","name":"Аўтобус 208: Рэчыца – Бушаўка","type":"route","route":"bus","name:be":"Аўтобус 208: Рэчыца – Бушаўка","name:ru":"Автобус 208: Речица – Бушевка","name:uk":"Автобус 208: Речиця – Бушівка","network":"local","operator":"ОАО \\\"Гомельавтотранс\\\"","public_transport:version":"2"},"4202419":{"to":"Велін","ref":"204","via":"Луначарск","from":"Рэчыца","name":"Аўтобус 204: Рэчыца – Велін праз Луначарск","type":"route","route":"bus","name:be":"Аўтобус 204: Рэчыца – Велін праз Луначарск","name:ru":"Автобус 204: Речица – Велин ч/з Луначарск","name:uk":"Автобус 204: Речиця – Велин через Луначарськ","network":"local","operator":"ОАО \\\"Гомельавтотранс\\\"","public_transport:version":"2"},"4231933":{"ref":"16","name":"16: Прымастовая – станцыя Козенкі","type":"route","route":"bus","name:be":"16: Прымастовая – станцыя Козенкі","name:ru":"16 Примостовая - станция Козенки","name:uk":"16 Примостова - станція Козенки"},"5640580":{"to":"Lüdenscheid, Wehberg Wendestelle","ref":"44","from":"Lüdenscheid, Fa. Schulte","name":"Bus 44: Lüdenscheid, Fa. Schulte => Lüdenscheid, Wehberg Wendestelle","type":"route","route":"bus","network":"WestfalenTarif","operator":"Märkische Verkehrsgesellschaft GmbH","network:guid":"DE-NW-WT","network:short":"WT","network:wikidata":"Q27926285","network:wikipedia":"de:Westfalentarif","public_transport:version":"2"},"5729727":{"to":"кооп. гаражи","ref":"7","from":"пл. Старое Место","name":"Аўтобус 7: пл. Старое Места- Кааператыўныя гаражы","type":"route","route":"bus","name:be":"Аўтобус 7: пл. Старое Места- Кааператыўныя гаражы","name:ru":"Автобус 7: пл. Старое Место - Кооперативные гаражи","name:uk":"Автобус 7: пл. Старе Місце - Кооперативні гаражі","operator":"Автобусный парк №4"},"5729728":{"to":"ул. Лесная","ref":"7а","from":"АП №4","name":"Аўтобус 7а: АП №4 - вул. Лясная","type":"route","route":"bus","name:be":"Аўтобус 7а: АП №4 - вул. Лясная","name:ru":"Автобус 7а: АП №4 - ул. Лесная","name:uk":"Автобус 7а: АП №4 – вул. Лісова","operator":"Автобусный парк №4"},"5875795":{"to":"Ansbach Schloßplatz","ref":"751","from":"Ansbach Hospitalstraße","name":"Stadtbus 751 Schloßplatz => Bocksberg => Schalkhausen => Schloßplatz","type":"route","route":"bus","network":"Verkehrsverbund Großraum Nürnberg","website":"http://www.vgn.de/komfortauskunft/ttb/?lineName=751","operator":"A-Bus","description":"Schulbus Hospitalstraße => Schloßplatz (ohne Bocksbergsiedlung)","network:short":"VGN","network:wikidata":"Q2516463","network:wikipedia":"de:Verkehrsverbund Großraum Nürnberg","public_transport:version":"2"},"6462471":{"ref":"9","name":"Аўтобус 9: Аўтавакзал - Паліклініка - Аўтавакзал","type":"route","route":"bus","name:be":"Аўтобус 9: Аўтавакзал - Паліклініка - Аўтавакзал","name:ru":"Автобус 9: Автовокзал - Поликлиника - Автовокзал","name:uk":"Автобус 9: Автовокзал – Поліклініка – Автовокзал","operator":"Автобусный парк №4"},"6462473":{"ref":"3","name":"Аўтобус 3: Здземелева - КХП - т-р «Батлейка» – Вакзал– Паліклініка - Вілейская","type":"route","route":"bus","name:be":"Аўтобус 3: Здземелева - КХП - т-р «Батлейка» – Вакзал– Паліклініка - Вілейская","name:ru":"Автобус 3: Здемелево - КХП - т-р «Батлейка» – Вокзал– Поликлиника - Вилейская","name:uk":"Автобус 3: Здемелеве - КХП - т-р \\\"Батлейка\\\" - Вокзал - Поліклініка - Вілейська","operator":"Автобусный парк №4"},"6710878":{"to":"Genova","ref":"27","from":"Byron","name":"27TB : Byron -> Genova","type":"route","route":"bus","colour":"#312783","network":"TPER","operator":"TPER","description":"Opera i \\\"T days\\\" (sabato, domenica & festivi)","network:wikidata":"Q3997843","network:wikipedia":"it:Trasporto Passeggeri Emilia-Romagna","public_transport:version":"2"},"6710880":{"to":"Piazzale Atleti Azzurri","ref":"27","from":"Byron","name":"27TA : Byron -> Azzurri","type":"route","route":"bus","colour":"#312783","network":"TPER","operator":"TPER","description":"Opera i \\\"T days\\\" (sabato, domenica & festivi)","network:wikidata":"Q3997843","network:wikipedia":"it:Trasporto Passeggeri Emilia-Romagna","public_transport:version":"2"},"6778571":{"to":"Tori 1","ref":"11","via":"Vuorikatu 7","from":"Hevoshaantie 4","name":"Bus 11: Pukinjärvi => Vuorikatu => Tori","type":"route","fixme":"Update to new route by Lifti","route":"bus","name:fi":"Linja 11: Pukinjärvii => Berggatan => Tori","name:sv":"Linje 11: Infjärden => Vuorikatu => Torget","description":"7 to 12 o'clock","description:fi":"Ajetaan kello 7-12","description:sv":"Körs klockan 7-12","public_transport:version":"2"},"6781059":{"to":"Tori 1","ref":"11","via":"Porvarinkatu / Borgaregatans skola","from":"Hevoshaantie 4","name":"Bus 11: Pukinjärvi => Kotiranta => Tori","type":"route","fixme":"Update to new route by Lifti","route":"bus","name:fi":"Linja 11: Pukinjärvii => Kotiranta => Tori","name:sv":"Linje 11: Infjärden => Hemstrand => Torget","description":"12 to 17 o'clock","description:fi":"Ajetaan kello 12-17","description:sv":"Körs klockan 12-17","public_transport:version":"2"},"7547817":{"to":"пос. Привольный","ref":"303","from":"АС Автозаводская","name":"Аўтобус № 303 \\\"АС Аўтазаводская - пас. Прывольны\\\"","type":"route","route":"bus","name:be":"Аўтобус № 303 \\\"АС Аўтазаводская - пас. Прывольны\\\"","name:ru":"Автобус № 303 \\\"АС Автозаводская - пос. Привольный\\\"","name:uk":"Автобус № 303 \\\"АС Автозаводська - сел. Привільний\\\"","network":"ГУ \\\"Столичный транспорт и связь\\\"","public_transport:version":"2"},"7635233":{"ref":"6***","name":"6 * * * Вакзал-Ліцэй","type":"route","route":"bus","name:be":"6 * * * Вакзал-Ліцэй","name:ru":"6*** Вокзал-Лицей","name:uk":"6*** Вокзал-Ліцей"},"7635283":{"ref":"6и","name":"6і Вакзал - АП-10","type":"route","route":"bus","name:be":"6і Вакзал - АП-10","name:ru":"6и Вокзал - АП-10","name:uk":"6і Вокзал - АП-10"},"7635311":{"ref":"4","name":"4 вакзал - ККП - Завод ПЭМ","type":"route","route":"bus","name:be":"4 вакзал - ККП - Завод ПЭМ","name:ru":"4 Вокзал - ККП - Завод ПЭМ","name:uk":"4 Вокзал - ККП - Завод ПЕМ"},"7635312":{"ref":"6**","name":"6 * * вакзал - Завод ПЭМ","type":"route","route":"bus","name:be":"6 * * вакзал - Завод ПЭМ","name:ru":"6** Вокзал - Завод ПЭМ","name:uk":"6** Вокзал - Завод ПЕМ"},"7635313":{"ref":"6*","name":"6 * вакзал - Завод ПЭМ - ККП","type":"route","route":"bus","name:be":"6 * вакзал - Завод ПЭМ - ККП","name:ru":"6* Вокзал - Завод ПЭМ - ККП","name:uk":"6* Вокзал - Завод ПЕМ - ККП"},"7796376":{"to":"Баршчоўка","ref":"763э","from":"Гомель","name":"Гомель — Баршчоўка","type":"route","route":"bus","name:be":"Гомель — Баршчоўка","name:ru":"Гомель-Борщёвка","name:uk":"Гомель-Борщівка","network":"regional","operator":"КТУП «Гомельоблпассажиртранс»","public_transport:version":"2"},"7838807":{"ref":"2А","name":"2А КДП \\\"Маладзёжны\\\" - 2-РУ","type":"route","route":"bus","name:be":"2А КДП \\\"Маладзёжны\\\" - 2-РУ","name:ru":"2А КДП \\\"Молодежный\\\" - 2-РУ","name:uk":"2А КДП \\\"Молодіжний\\\" - 2-РУ"},"7838808":{"ref":"2Б","name":"2Б Бальніца - 2-РУ","type":"route","route":"bus","name:be":"2Б Бальніца - 2-РУ","name:ru":"2Б Больница - 2-РУ","name:uk":"2Б Лікарня - 2-РУ"},"7838809":{"ref":"2В","name":"2В КДП \\\"Маладзёжны\\\" - 2-РУ","type":"route","route":"bus","name:be":"2В КДП \\\"Маладзёжны\\\" - 2-РУ","name:ru":"2В КДП \\\"Молодежный\\\" - 2-РУ","name:uk":"2В КДП \\\"Молодіжний\\\" - 2-РУ"},"7838811":{"ref":"2М","name":"2М КДП \\\"Маладзёжны\\\" - 2-РУ","type":"route","route":"bus","name:be":"2М КДП \\\"Маладзёжны\\\" - 2-РУ","name:ru":"2М КДП \\\"Молодежный\\\" - 2-РУ","name:uk":"2М КДП \\\"Молодіжний\\\" - 2-РУ"},"7838813":{"ref":"2\\\"О\\\"","name":"2\\\"О\\\" КДП \\\"Маладзёжны\\\" - 2-РУ","type":"route","route":"bus","name:be":"2\\\"О\\\" КДП \\\"Маладзёжны\\\" - 2-РУ","name:ru":"2\\\"О\\\" КДП \\\"Молодежный\\\" - 2-РУ","name:uk":"2\\\"О\\\" КДП \\\"Молодіжний\\\" - 2-РУ"},"7838900":{"ref":"2В*","name":"2В* КДП \\\"Маладзёжны\\\" - 2-РУ","type":"route","route":"bus","name:be":"2В* КДП \\\"Маладзёжны\\\" - 2-РУ","name:ru":"2В* КДП \\\"Молодежный\\\" - 2-РУ","name:uk":"2В* КДП \\\"Молодіжний\\\" - 2-РУ"},"7841635":{"ref":"3В","name":"3В КДП \\\"Маладзёжны\\\" - 3-РУ","type":"route","route":"bus","name:be":"3В КДП \\\"Маладзёжны\\\" - 3-РУ","name:ru":"3В КДП \\\"Молодёжный\\\" - 3-РУ","name:uk":"3В КДП \\\"Молодіжний\\\" - 3-РУ"},"7843548":{"ref":"64В","name":"64В КДП \\\"Маладзёжны\\\" - 4-РУ - ЦМЭЛ","type":"route","route":"bus","name:be":"64В КДП \\\"Маладзёжны\\\" - 4-РУ - ЦМЭЛ","name:ru":"64В КДП \\\"Молодёжный\\\" - 4-РУ - ЦМЭЛ","name:uk":"64В КДП \\\"Молодіжний\\\" - 4-РУ - ЦМЕЛ"},"7843618":{"ref":"65В","name":"65В КДП \\\"Маладзёжны\\\" - 4-РУ","type":"route","route":"bus","name:be":"65В КДП \\\"Маладзёжны\\\" - 4-РУ","name:ru":"65В КДП \\\"Молодёжный\\\" - 4-РУ","name:uk":"65В КДП \\\"Молодіжний\\\" - 4-РУ"},"7853484":{"ref":"5Б","name":"5Б Праспект Міра - КДП 1-РУ","type":"route","route":"bus","name:be":"5Б Праспект Міра - КДП 1-РУ","name:ru":"5Б Проспект Мира - КДП 1-РУ","name:uk":"5Б Проспект Миру - КДП 1-РУ"},"7853590":{"ref":"8А","name":"8А КДП \\\"1-РУ\\\" - Вакзал - Магазін Крышталь - КДП \\\"1-РУ\\\"","type":"route","route":"bus","name:be":"8А КДП \\\"1-РУ\\\" - Вакзал - Магазін Крышталь - КДП \\\"1-РУ\\\"","name:ru":"8А КДП \\\"1-РУ\\\" - Вокзал - Магазин Кристалл - КДП \\\"1-РУ\\\"","name:uk":"8А КДП \\\"1-РУ\\\" - Вокзал - Магазин Кристал - КДП \\\"1-РУ\\\""},"7857605":{"ref":"2 СКР","name":"2 СКР 2-Ру - Чырвонаслабодскі руднік","type":"route","route":"bus","name:be":"2 СКР 2-Ру - Чырвонаслабодскі руднік","name:ru":"2 СКР 2-Ру - Краснослободский рудник","name:uk":"2 СКР 2-Ру - Червонослобідська копальня"},"7948778":{"to":"Ebersberg (S)","ref":"446","via":"Obelfing, Gutenbergstraße;Forstinning, Rathaus;Hohenlinden, Gasthaus zur Post","from":"Markt Schwaben (S)","name":"Bus 446: Markt Schwaben (S) => Obelfing, Gutenbergstraße => Forstinning, Rathaus => Hohenlinden, Gasthaus zur Post => Ebersberg (S)","type":"route","route":"bus","colour":"#005262","network":"Münchner Verkehrs- und Tarifverbund","website":"https://www.mvv-muenchen.de/fileadmin/mediapool/02-Fahrplanauskunft/02-Dokumente/Anmeldeverfahren_Bedarfsverkehr.pdf","operator":"Larcher, Markt Schwaben","gtfs:feed":"DE-BY-MVV","ref_trips":"13.T2.19-446-s22-1.36.H","check_date":"2021-12-25","network:area":"region","network:guid":"DE-BY-MVV","gtfs:route_id":"19-446-s22-1","network:short":"MVV","route:category":"normal","network:wikidata":"Q259000","gtfs:trip_id:like":"%19-446-s22-1.36.H","network:wikipedia":"de:Münchner Verkehrs- und Tarifverbund","gtfs:trip_id:sample":"13.T2.19-446-s22-1.36.H","public_transport:version":"2"},"8043975":{"to":"Вакзал","ref":"43","from":"Бальшавік","name":"Аўтобус № 43: Бальшавік – Вакзал","type":"route","route":"bus","colour":"red","name:be":"Аўтобус № 43: Бальшавік – Вакзал","name:ru":"Автобус № 43: Большевик-Вокзал","name:uk":"Автобус № 43: Більшовик-Вокзал","network":"city","operator":"КТУП «Гомельоблпассажиртранс»","description":"выходные","public_transport:version":"2"},"8907520":{"ref":"14","name":"Аўтобус №14: Чыгуначны вакзал → Андрэеўшчына","type":"route","route":"bus","name:be":"Аўтобус №14: Чыгуначны вакзал → Андрэеўшчына","name:ru":"№14 ж/д Вокзал - Андреевщина","name:uk":"№14 ж/д Вокзал - Андріївщина","network":"by:municipal","operator":"Автобусный парк №3 Филиал ОАО \\\"Витебскоблавтотранс\\\" г.Орша"},"8907521":{"ref":"18","name":"Аўтобус №18: Андрэеўшчына → вул. Салянікава","type":"route","route":"bus","name:be":"Аўтобус №18: Андрэеўшчына → вул. Салянікава","name:ru":"№18 Андреевщина - ул. Соляникова","name:uk":"№18 Андріївщина – вул. Солянікова","network":"by:municipal","operator":"Автобусный парк №3 Филиал ОАО \\\"Витебскоблавтотранс\\\" г.Орша"},"8907523":{"ref":"21","name":"Аўтобус №21: Андрэеўшчына → Ачышчальныя збудаванні","type":"route","route":"bus","name:be":"Аўтобус №21: Андрэеўшчына → Ачышчальныя збудаванні","name:ru":"№21 Андреевщина - Очистные сооружения","name:uk":"№21 Андріївщина - Очисні споруди","network":"by:municipal","operator":"Автобусный парк №3 Филиал ОАО \\\"Витебскоблавтотранс\\\" г.Орша"},"8907665":{"ref":"10","name":"Аўтобус №10: Аўтобусны парк №3 → СШ №20","type":"route","route":"bus","name:be":"Аўтобус №10: Аўтобусны парк №3 → СШ №20","name:ru":"№10 Автобусный парк №3 - СШ №20","name:uk":"№10 Автобусний парк №3 - ЗОШ №20","network":"by:municipal","operator":"Автобусный парк №3 Филиал ОАО \\\"Витебскоблавтотранс\\\" г.Орша"},"8907905":{"ref":"9","name":"Аўтобус №9: вул. Пралетарская → Вагоннае дэпо","type":"route","route":"bus","name:be":"Аўтобус №9: вул. Пралетарская → Вагоннае дэпо","name:ru":"№9 ул. Пролетарская - Вагонное депо","name:uk":"№9 вул. Пролетарська - Вагонне депо","network":"by:municipal","operator":"Автобусный парк №3 Филиал ОАО \\\"Витебскоблавтотранс\\\" г.Орша"},"8926138":{"ref":"15","name":"Аўтобус №15: Чыгуначны вакзал → Водаканал","type":"route","route":"bus","name:be":"Аўтобус №15: Чыгуначны вакзал → Водаканал","name:ru":"№15 ж/д Вокзал - Водоканал","name:uk":"№15 Ж/д Вокзал - Водоканал","operator":"Автобусный парк №3 Филиал ОАО \\\"Витебскоблавтотранс\\\" г.Орша"},"8926324":{"ref":"16А","name":"Аўтобус №16А: Чыгуначны вакзал → Водаканал","type":"route","route":"bus","name:be":"Аўтобус №16А: Чыгуначны вакзал → Водаканал","name:ru":"№16А ж/д Вокзал - Водоканал","name:uk":"№16А залізничний Вокзал - Водоканал","network":"by:municipal","operator":"Автобусный парк №3 Филиал ОАО \\\"Витебскоблавтотранс\\\" г.Орша"},"8926325":{"ref":"3А","name":"Аўтобус №3А: Водаканал → Зона адпачынку","type":"route","route":"bus","name:be":"Аўтобус №3А: Водаканал → Зона адпачынку","name:ru":"№3А Водоканал - Зона отдыха","name:uk":"№3А Водоканал - Відпочинкова зона","network":"by:municipal","operator":"Автобусный парк №3 Филиал ОАО \\\"Витебскоблавтотранс\\\" г.Орша"},"8974535":{"ref":"500","name":"Мінск-Барысаў","type":"route","route":"bus","name:be":"Мінск-Барысаў","name:ru":"Минск-Борисов","name:uk":"Мінськ-Борисів","operator":"Борисовский АП№3"},"9045007":{"ref":"229","name":"Барысаў - Лошніца","type":"route","route":"bus","name:be":"Барысаў - Лошніца","name:ru":"Борисов - Лошница","name:uk":"Борисів - Лошниця","network":"Борисов"},"9910702":{"to":"Ebersberg (S)","ref":"446","via":"Markt Schwaben, Schule","from":"Markt Schwaben (S)","name":"Bus 446: Markt Schwaben (S) => Markt Schwaben, Schule => Ebersberg (S)","type":"route","route":"bus","colour":"#005262","network":"Münchner Verkehrs- und Tarifverbund","website":"https://www.mvv-muenchen.de/fileadmin/mediapool/02-Fahrplanauskunft/02-Dokumente/Anmeldeverfahren_Bedarfsverkehr.pdf","operator":"Larcher, Markt Schwaben","gtfs:feed":"DE-BY-MVV","ref_trips":"35.T0.19-446-s22-1.11.H","check_date":"2021-12-25","network:area":"region","network:guid":"DE-BY-MVV","gtfs:route_id":"19-446-s22-1","network:short":"MVV","route:category":"normal","network:wikidata":"Q259000","gtfs:trip_id:like":"%19-446-s22-1.11.H","network:wikipedia":"de:Münchner Verkehrs- und Tarifverbund","gtfs:trip_id:sample":"35.T0.19-446-s22-1.11.H","public_transport:version":"2"},"9911003":{"to":"Niederried","ref":"446","via":"Markt Schwaben, Schule;Frotzhofen","from":"Markt Schwaben (S)","name":"Bus 446: Markt Schwaben (S) => Markt Schwaben, Schule => Frotzhofen => Niederried","type":"route","route":"bus","colour":"#005262","network":"Münchner Verkehrs- und Tarifverbund","website":"https://www.mvv-muenchen.de/fileadmin/mediapool/02-Fahrplanauskunft/02-Dokumente/Anmeldeverfahren_Bedarfsverkehr.pdf","operator":"Larcher, Markt Schwaben","gtfs:feed":"DE-BY-MVV","ref_trips":"13.T0.19-446-s22-1.9.H","check_date":"2021-12-25","network:area":"region","network:guid":"DE-BY-MVV","gtfs:route_id":"19-446-s22-1","network:short":"MVV","route:category":"normal","network:wikidata":"Q259000","gtfs:trip_id:like":"%19-446-s22-1.9.H","network:wikipedia":"de:Münchner Verkehrs- und Tarifverbund","gtfs:trip_id:sample":"13.T0.19-446-s22-1.9.H","public_transport:version":"2"},"9912718":{"to":"Ebersberg (S)","ref":"446","via":"Forstinning","from":"Markt Schwaben (S)","name":"Bus 446: Markt Schwaben (S) => Forstinning => Ebersberg (S)","type":"route","route":"bus","colour":"#005262","network":"Münchner Verkehrs- und Tarifverbund","website":"https://www.mvv-muenchen.de/fileadmin/mediapool/02-Fahrplanauskunft/02-Dokumente/Anmeldeverfahren_Bedarfsverkehr.pdf","operator":"Larcher, Markt Schwaben","gtfs:feed":"DE-BY-MVV","ref_trips":"11.T0.19-446-s22-1.15.H","check_date":"2021-12-25","network:area":"region","network:guid":"DE-BY-MVV","gtfs:route_id":"19-446-s22-1","network:short":"MVV","route:category":"normal","network:wikidata":"Q259000","gtfs:trip_id:like":"%19-446-s22-1.15.H","network:wikipedia":"de:Münchner Verkehrs- und Tarifverbund","gtfs:trip_id:sample":"11.T0.19-446-s22-1.15.H","public_transport:version":"2"},"9912726":{"to":"Ebersberg (S)","ref":"446","from":"Markt Schwaben (S)","name":"Bus 446: Markt Schwaben (S) => Ebersberg (S)","type":"route","route":"bus","colour":"#005262","network":"Münchner Verkehrs- und Tarifverbund","website":"https://www.mvv-muenchen.de/fileadmin/mediapool/02-Fahrplanauskunft/02-Dokumente/Anmeldeverfahren_Bedarfsverkehr.pdf","operator":"Larcher, Markt Schwaben","gtfs:feed":"DE-BY-MVV","ref_trips":"12.T0.19-446-s22-1.12.H","check_date":"2021-12-25","network:area":"region","network:guid":"DE-BY-MVV","gtfs:route_id":"19-446-s22-1","network:short":"MVV","route:category":"normal","network:wikidata":"Q259000","gtfs:trip_id:like":"%19-446-s22-1.12.H","network:wikipedia":"de:Münchner Verkehrs- und Tarifverbund","gtfs:trip_id:sample":"12.T0.19-446-s22-1.12.H","public_transport:version":"2"},"9912849":{"to":"Niederried","ref":"446","via":"Frotzhofen","from":"Markt Schwaben","name":"Bus 446: Markt Schwaben => Frotzhofen => Niederried","type":"route","route":"bus","colour":"#005262","network":"Münchner Verkehrs- und Tarifverbund","website":"https://www.mvv-muenchen.de/mobilitaetsangebote/bedarfsverkehr/index.html","operator":"Larcher, Markt Schwaben","gtfs:feed":"DE-BY-MVV","ref_trips":"19.T0.19-446-s23-2.9.H","check_date":"2023-02-11","network:area":"region","network:guid":"DE-BY-MVV","gtfs:route_id":"19-446-s23-2","network:short":"MVV","route:category":"normal","network:wikidata":"Q259000","gtfs:trip_id:like":"%19-446-s23-2.9.H","network:wikipedia":"de:Münchner Verkehrs- und Tarifverbund","gtfs:trip_id:sample":"19.T0.19-446-s23-2.9.H","public_transport:version":"2"},"9923920":{"to":"Gelting, Ulrich-Pucher-Straße","ref":"463","via":"Grub, Nord;Poing, Böhmerwaldstraße;Poing (S), Nord","from":"Markt Schwaben (S)","name":"Bus 463: Markt Schwaben (S) => Grub, Nord => Poing, Böhmerwaldstraße => Poing (S), Nord => Gelting, Ulrich-Pucher-Straße","type":"route","route":"bus","colour":"#005262","network":"Münchner Verkehrs- und Tarifverbund","website":"https://www.mvv-muenchen.de/","operator":"RVO, Erding","gtfs:feed":"DE-BY-MVV","check_date":"2023-02-06","wheelchair":"yes","network:area":"region","network:guid":"DE-BY-MVV","gtfs:route_id":"19-463-s23-1","network:short":"MVV","route:category":"normal","network:wikidata":"Q259000","network:wikipedia":"de:Münchner Verkehrs- und Tarifverbund","gtfs:trip_id:sample":"1.T0.19-463-s23-1.8.H","public_transport:version":"2"},"9923928":{"to":"Markt Schwaben (S)","ref":"463","via":"Grub, Nord;Poing, Böhmerwaldstraße;Poing (S), Nord","from":"Markt Schwaben (S)","name":"Bus 463: Markt Schwaben (S) => Grub, Nord => Poing, Böhmerwaldstraße => Poing (S), Nord => Markt Schwaben (S)","type":"route","route":"bus","colour":"#005262","network":"Münchner Verkehrs- und Tarifverbund","website":"https://www.mvv-muenchen.de/","operator":"RVO, Erding","gtfs:feed":"DE-BY-MVV","roundtrip":"yes","check_date":"2023-02-06","wheelchair":"yes","network:area":"region","network:guid":"DE-BY-MVV","gtfs:route_id":"19-463-s23-1","network:short":"MVV","route:category":"normal","network:wikidata":"Q259000","network:wikipedia":"de:Münchner Verkehrs- und Tarifverbund","gtfs:trip_id:sample":"21.T0.19-463-s23-1.14.H","public_transport:version":"2"},"9924013":{"to":"Gelting, Ulrich-Pucher-Straße","ref":"463","via":"Kirchheim, Herzogen Wege;Landsham, Moos","from":"Markt Schwaben (S)","name":"Bus 463: Markt Schwaben (S) => Kirchheim, Herzogen Wege => Landsham, Moos => Gelting, Ulrich-Pucher-Straße","type":"route","route":"bus","colour":"#005262","network":"Münchner Verkehrs- und Tarifverbund","website":"https://www.mvv-muenchen.de/","operator":"RVO, Erding","gtfs:feed":"DE-BY-MVV","check_date":"2023-02-06","wheelchair":"yes","network:area":"region","network:guid":"DE-BY-MVV","gtfs:route_id":"19-463-s23-1","network:short":"MVV","route:category":"normal","network:wikidata":"Q259000","network:wikipedia":"de:Münchner Verkehrs- und Tarifverbund","gtfs:trip_id:sample":"13.T0.19-463-s23-1.12.H","public_transport:version":"2"},"9924037":{"to":"Gelting, Ulrich-Pucher-Straße","ref":"463","via":"Kirchheim, Herzogen Wege","from":"Markt Schwaben (S)","name":"Bus 463: Markt Schwaben (S) => Kirchheim, Herzogen Wege => Gelting, Ulrich-Pucher-Straße","type":"route","route":"bus","colour":"#005262","network":"Münchner Verkehrs- und Tarifverbund","website":"https://www.mvv-muenchen.de/","operator":"RVO, Erding","gtfs:feed":"DE-BY-MVV","check_date":"2023-02-06","wheelchair":"yes","network:area":"region","network:guid":"DE-BY-MVV","gtfs:route_id":"19-463-s23-1","network:short":"MVV","route:category":"normal","network:wikidata":"Q259000","network:wikipedia":"de:Münchner Verkehrs- und Tarifverbund","gtfs:trip_id:sample":"3.T0.19-463-s23-1.16.H","public_transport:version":"2"},"9924056":{"to":"Gelting, Ulrich-Pucher-Straße","ref":"463","via":"Pliening, Schule;Landsham, Moos;Grub, Nord;Poing, Siemensallee;Poing (S), Nord","from":"Markt Schwaben (S)","name":"Bus 463: Markt Schwaben (S) => Pliening, Schule => Landsham, Moos => Grub, Nord => Poing, Siemensallee => Poing (S), Nord => Gelting, Ulrich-Pucher-Straße","type":"route","route":"bus","colour":"#005262","network":"Münchner Verkehrs- und Tarifverbund","website":"https://www.mvv-muenchen.de/","operator":"RVO, Erding","gtfs:feed":"DE-BY-MVV","roundtrip":"yes","check_date":"2023-02-06","wheelchair":"yes","network:area":"region","network:guid":"DE-BY-MVV","gtfs:route_id":"19-463-s23-1","network:short":"MVV","route:category":"normal","network:wikidata":"Q259000","network:wikipedia":"de:Münchner Verkehrs- und Tarifverbund","gtfs:trip_id:sample":"19.T0.19-463-s23-1.11.H","public_transport:version":"2"},"9924107":{"to":"Landsham, Abzweig Grub","ref":"463V","from":"Markt Schwaben (S)","name":"Bus 463V: Markt Schwaben (S) => Landsham, Abzweig Grub","type":"route","route":"bus","colour":"#005262","network":"Münchner Verkehrs- und Tarifverbund","website":"https://www.mvv-muenchen.de/","operator":"RVO, Erding","gtfs:feed":"DE-BY-MVV","ref_trips":"1.T0.19-463-V-s23-1.2.R","check_date":"2023-02-06","wheelchair":"yes","description":"Nur an letzten Schultagen vor den jeweiligen Ferien","network:area":"region","network:guid":"DE-BY-MVV","gtfs:route_id":"19-463-V-s23-1","network:short":"MVV","route:category":"auxiliary","network:wikidata":"Q259000","network:wikipedia":"de:Münchner Verkehrs- und Tarifverbund","gtfs:trip_id:sample":"1.T0.19-463-V-s23-1.2.R","public_transport:version":"2"},"9943977":{"to":"Aitersteinering, Salzburg","ref":"469","from":"Markt Schwaben (S)","name":"Bus 469: Markt Schwaben (S) => Aitersteinering, Salzburg","type":"route","route":"bus","colour":"#005262","network":"Münchner Verkehrs- und Tarifverbund","website":"https://www.mvv-muenchen.de/","operator":"Larcher Touristik GmbH","gtfs:feed":"DE-BY-MVV","ref_trips":"8.T0.19-469-s23-1.24.R","check_date":"2023-03-18","network:area":"region","network:guid":"DE-BY-MVV","gtfs:route_id":"19-469-s23-1","network:short":"MVV","route:category":"normal","network:wikidata":"Q259000","gtfs:trip_id:like":"%19-469-s23-1.24.R","network:wikipedia":"de:Münchner Verkehrs- und Tarifverbund","gtfs:trip_id:sample":"8.T0.19-469-s23-1.24.R","public_transport:version":"2"},"9943997":{"to":"Hohenlinden, Gasthaus zur Post","ref":"469","via":"Forstinning, Rathaus","from":"Markt Schwaben (S)","name":"Bus 469: Markt Schwaben (S) => Forstinning, Rathaus => Hohenlinden, Gasthaus zur Post","type":"route","route":"bus","colour":"#005262","network":"Münchner Verkehrs- und Tarifverbund","website":"https://www.mvv-muenchen.de/","operator":"Larcher Touristik GmbH","gtfs:feed":"DE-BY-MVV","ref_trips":"33.T0.19-469-s23-1.3.R","check_date":"2023-03-18","network:area":"region","network:guid":"DE-BY-MVV","gtfs:route_id":"19-469-s23-1","network:short":"MVV","route:category":"normal","network:wikidata":"Q259000","gtfs:trip_id:like":"%19-469-s23-1.3.R","network:wikipedia":"de:Münchner Verkehrs- und Tarifverbund","gtfs:trip_id:sample":"33.T0.19-469-s23-1.3.R","public_transport:version":"2"},"9944002":{"to":"Hohenlinden, Gasthaus zur Post","ref":"469","via":"Forstinning, Rathaus;Forstern, Karlsdorfer Weg","from":"Markt Schwaben (S)","name":"Bus 469: Markt Schwaben (S) => Forstinning, Rathaus => Forstern, Karlsdorfer Weg => Hohenlinden, Gasthaus zur Post","type":"route","route":"bus","colour":"#005262","network":"Münchner Verkehrs- und Tarifverbund","website":"https://www.mvv-muenchen.de/","operator":"Larcher Touristik GmbH","gtfs:feed":"DE-BY-MVV","ref_trips":"30.T0.19-469-s23-1.5.R","check_date":"2023-03-18","network:area":"region","network:guid":"DE-BY-MVV","gtfs:route_id":"19-469-s23-1","network:short":"MVV","route:category":"normal","network:wikidata":"Q259000","gtfs:trip_id:like":"%19-469-s23-1.5.R","network:wikipedia":"de:Münchner Verkehrs- und Tarifverbund","gtfs:trip_id:sample":"30.T0.19-469-s23-1.5.R","public_transport:version":"2"},"9944564":{"to":"Ebersberg (S)","ref":"469","via":"Forstinning, Rathaus;Forstern, Karlsdorfer Weg;Hohenlinden, Gasthaus zur Post","from":"Markt Schwaben (S)","name":"Bus 469: Markt Schwaben (S) => Forstinning, Rathaus => Forstern, Karlsdorfer Weg => Hohenlinden, Gasthaus zur Post => Ebersberg (S)","type":"route","route":"bus","colour":"#005262","network":"Münchner Verkehrs- und Tarifverbund","website":"https://www.mvv-muenchen.de/","operator":"Larcher Touristik GmbH","gtfs:feed":"DE-BY-MVV","ref_trips":"13.T2.19-469-s23-1.21.R","check_date":"2023-03-18","network:area":"region","network:guid":"DE-BY-MVV","gtfs:route_id":"19-469-s23-1","network:short":"MVV","route:category":"normal","network:wikidata":"Q259000","gtfs:trip_id:like":"%19-469-s23-1.21.R","network:wikipedia":"de:Münchner Verkehrs- und Tarifverbund","gtfs:trip_id:sample":"13.T2.19-469-s23-1.21.R","public_transport:version":"2"},"10258800":{"to":"Purley Way / Waddon Road","ref":"645","from":"Purley Library","name":"London Buses route 645 → Waddon","type":"route","route":"bus","network":"London Buses","operator":"Arriva London","network:wikidata":"Q1192411","network:wikipedia":"en:London Buses","public_transport:version":"2"},"11004443":{"to":"Ebersberg (S)","ref":"446","via":"Markt Schwaben, Schule;Forstinning, Rathaus","from":"Markt Schwaben (S)","name":"Bus 446: Markt Schwaben (S) => Markt Schwaben, Schule => Forstinning, Rathaus => Ebersberg (S)","type":"route","route":"bus","colour":"#005262","network":"Münchner Verkehrs- und Tarifverbund","website":"https://www.mvv-muenchen.de/fileadmin/mediapool/02-Fahrplanauskunft/02-Dokumente/Anmeldeverfahren_Bedarfsverkehr.pdf","gtfs:feed":"DE-BY-MVV","ref_trips":"7.T0.19-446-s22-1.26.H","check_date":"2021-12-25","network:guid":"DE-BY-MVV","gtfs:route_id":"19-446-s22-1","network:short":"MVV","network:wikidata":"Q259000","gtfs:trip_id:like":"%19-446-s22-1.26.H","network:wikipedia":"de:Münchner Verkehrs- und Tarifverbund","gtfs:trip_id:sample":"7.T0.19-446-s22-1.26.H","public_transport:version":"2"},"11041525":{"to":"Mittbach","ref":"505","via":"Karlsdorf, Nord;Buch am Buchrain","from":"Markt Schwaben (S)","name":"Bus 505: Markt Schwaben (S) => Karlsdorf, Nord => Buch am Buchrain => Mittbach","type":"route","route":"bus","colour":"#005262","network":"Münchner Verkehrs- und Tarifverbund;Verkehrsgemeinschaft Landkreis Mühldorf","website":"http://www.mvv-muenchen.de/","operator":"Larcher Touristik","gtfs:feed":"DE-BY-MVV","ref_trips":"18.T0.19-505-s23-1.18.R","check_date":"2023-03-12","wheelchair":"yes","network:guid":"DE-BY-MVV;DE-BY-VLMÜ","gtfs:route_id":"19-505-s23-1","network:short":"MVV;VLMÜ","gtfs:trip_id:sample":"18.T0.19-505-s23-1.18.R","public_transport:version":"2"},"11041539":{"to":"Mittbach","ref":"505","via":"Pastetten, Rathaus;Buch am Buchrain","from":"Markt Schwaben (S)","name":"Bus 505: Markt Schwaben (S) => Pastetten, Rathaus => Buch am Buchrain => Mittbach","type":"route","route":"bus","colour":"#005262","network":"Münchner Verkehrs- und Tarifverbund;Verkehrsgemeinschaft Landkreis Mühldorf","website":"http://www.mvv-muenchen.de/","operator":"Larcher Touristik","gtfs:feed":"DE-BY-MVV","ref_trips":"19.T0.19-505-s23-1.19.R","check_date":"2023-03-12","wheelchair":"yes","network:guid":"DE-BY-MVV;DE-BY-VLMÜ","gtfs:route_id":"19-505-s23-1","network:short":"MVV;VLMÜ","gtfs:trip_id:sample":"19.T0.19-505-s23-1.19.R","public_transport:version":"2"},"11695158":{"to":"ул. 50 лет ВЛКСМ","ref":"8","via":"плошча Леніна","from":"Аўтобусны парк","name":"А8 Аўтобусны парк - вул. 50 год УЛКСМ","type":"route","route":"bus","name:be":"А8 Аўтобусны парк - вул. 50 год УЛКСМ","name:ru":"А8 Автобусный парк - ул. 50 лет ВЛКСМ","name:uk":"А8 Автобусний парк – вул. 50 років ВЛКСМ","public_transport:version":"2"},"11695328":{"to":"Аўтобусны парк","ref":"11","via":"БВБА;Універсітэт","from":"Аўтобусны парк","name":"А11 Аўтобусны парк - БХПА - Універсітэт - Аўтобусны парк","type":"route","route":"bus","name:be":"А11 Аўтобусны парк - БХПА - Універсітэт - Аўтобусны парк","name:ru":"А11 Автобусный парк - БХПО - Университет - Автобусный парк","name:uk":"А11 Автобусний парк - БХПО - Університет - Автобусний парк","roundtrip":"yes","public_transport:version":"2"},"11695583":{"to":"Універсітэт","ref":"14","via":"плошча Леніна","from":"ОПМС-115","name":"А14 ВПМС-115 - Універсітэт","type":"route","route":"bus","name:be":"А14 ВПМС-115 - Універсітэт","name:ru":"А14 ОПМС-115 - Университет","name:uk":"А14 ОПМС-115 - Університет","public_transport:version":"2"},"11695640":{"to":"Аўтобусны парк","ref":"15","from":"ул. 50 лет ВЛКСМ","name":"А15 вул. 50 год УЛКСМ - Аўтобусны парк","type":"route","route":"bus","name:be":"А15 вул. 50 год УЛКСМ - Аўтобусны парк","name:ru":"А15 ул. 50 лет ВЛКСМ - Автобусный парк","name:uk":"А15 вул. 50 років ВЛКСМ - Автобусний парк","public_transport:version":"2"},"11696159":{"to":"Аўтобусны парк","ref":"20","via":"Чырвонаармейская","from":"Аўтобусны парк","name":"А20 Аўтобусны парк - Чырвонаармейская - Аўтобусны парк","type":"route","route":"bus","name:be":"А20 Аўтобусны парк - Чырвонаармейская - Аўтобусны парк","name:ru":"А20 Автобусный парк - Красноармейская - Автобусный парк","name:uk":"А20 Автобусний парк - Червоноармійська - Автобусний парк","roundtrip":"yes","public_transport:version":"2"},"11696218":{"to":"Аўтобусны парк","ref":"22","via":"Універсітэт","from":"Аўтобусны парк","name":"А22 Аўтобусны парк - Універсітэт - Аўтобусны парк","type":"route","route":"bus","name:be":"А22 Аўтобусны парк - Універсітэт - Аўтобусны парк","name:ru":"А22 Автобусный парк - БПХО - Университет - Автобусный парк","name:uk":"А22 Автобусний парк - БВХО - Університет - Автобусний парк","roundtrip":"yes","public_transport:version":"2"},"11696359":{"to":"Спецаўтабаза","ref":"29","via":"плошча Леніна","from":"Універсітэт","name":"А29 Універсітэт - Спецаўтабаза","type":"route","route":"bus","name:be":"А29 Універсітэт - Спецаўтабаза","name:ru":"А29 Университет - Спецавтобаза","name:uk":"А29 Університет - Спецавтобаза","public_transport:version":"2"},"11696452":{"to":"Універсітэт","ref":"32","via":"БЗАЛ","from":"Мікрараён «Паўночны»","name":"А32 Мікрараён Паўночны - Універсітэт","type":"route","route":"bus","name:be":"А32 Мікрараён Паўночны - Універсітэт","name:ru":"А32 Микрорайон Северный - Университет","name:uk":"А32 Мікрорайон Північний - Університет","network":"city","public_transport:version":"2"},"11696453":{"to":"Микрорайон Северный","ref":"32","via":"БЗАЛ","from":"Універсітэт","name":"А32 Універсітэт - Мікрараён Паўночны","type":"route","route":"bus","name:be":"А32 Універсітэт - Мікрараён Паўночны","name:ru":"А32 Университет - Микрорайон Северный","name:uk":"А32 Університет - Мікрорайон Північний","network":"city","opening_hours":"Mo-Fr 06:30-20:00","public_transport:version":"2"},"11707711":{"to":"Valence TGV Rhône-Alpes Sud","ref":"X74","url":"https://www.auvergnerhonealpes.fr/uploads/Transport/a5/12_900_FH_LIGNE_74_ETE-2020.pdf","from":"Les Vans Centre","name":"Ligne X74 : Les Vans → Valence TGV Rhône-Alpes Sud","note":"Removed unserved stop 'Alba-la-Romaine - Ruines Romaines'.","type":"route","route":"bus","network":"Cars Région Express","old_ref":"74","website":"https://www.auvergnerhonealpes.fr/cars","duration":"03:19:00","opening_hours":"Mo-Su 09:46-09:46;May 1 off","network:wikidata":"Q14021675","network:wikipedia":"fr:Cars Région","public_transport:version":"2"},"11717972":{"to":"Aubenas - Place de la Paix","ref":"E13","from":"Les Vans Centre","name":"Car E13: Les Vans → Joyeuse → Largentière → Aubenas","type":"route","phone":"+33 4 75 39 40 22","route":"bus","colour":"#FCCF16","network":"Cars Région Ardèche","website":"https://www.laregionvoustransporte.fr/lignes/ligne-e13-aubenasjoyeuseles-vansales-e91-doublage-scolaire","operator":"Autocars Ginhoux","opening_hours":"Mo,Tu,Th,Fr 06:00-16:30; We 06:00-14:30; Sa 14:30-14:30; ,Su,PH 14:30-15:30; May 1 off","network:wikidata":"Q102326302","public_transport:version":"2"},"11746970":{"to":"Büschdorf","ref":"31","from":"Franz-Maye-Straße","name":"Bus 31: Franz-Maye-Straße => Büschdorf","type":"route","route":"bus","colour":"#c94b18","network":"MDV","operator":"HAVAG","network:wikidata":"Q1742463","network:wikipedia":"de:Mitteldeutscher Verkehrsverbund","public_transport:version":"2"},"12080408":{"to":"Melsungen Bahnhof","ref":"431","from":"Melsungen Bahnhof","name":"StadtBus 431: Melsungen Bahnhof => Schwimmbad => Innenstadt => Bahnhof","type":"route","route":"bus","network":"NVV","operator":"Frölich Linie"},"12120858":{"to":"Wik, Herthastraße","ref":"6","from":"Aalborgring","name":"Bus 6: Aalborgring => Wik, Herthastraße","type":"route","route":"bus","colour":"#99FF00","network":"NAH.SH;VRK","operator":"KVG - Kieler Verkehrsgesellschaft mbH","public_transport:version":"2"},"13110444":{"ref":"L2","name":"TUC L2 San Ignacio - Etxabakoitz","type":"route","route":"bus","operator":"TCC","public_transport:version":"2"},"13491044":{"to":"Сваятычы","ref":"234","from":"Баранавічы","name":"Баранавічы - Сваятычы","type":"route","route":"bus","name:be":"Баранавічы - Сваятычы","name:ru":"Барановичи - Своятичи","name:uk":"Барановичі - Своятичі","operator":"ОАО \\\"АП г. Барановичи\\\""},"13546636":{"to":"Ebersberg (S)","ref":"446","via":"Forstinning;Hohenlinden, Gasthaus zur Post","from":"Markt Schwaben (S)","name":"Bus 446: Markt Schwaben (S) => Forstinning => Hohenlinden, Gasthaus zur Post => Ebersberg (S)","type":"route","route":"bus","colour":"#005262","network":"Münchner Verkehrs- und Tarifverbund","website":"https://www.mvv-muenchen.de/fileadmin/mediapool/02-Fahrplanauskunft/02-Dokumente/Anmeldeverfahren_Bedarfsverkehr.pdf","gtfs:feed":"DE-BY-MVV","ref_trips":"48.T0.19-446-s22-1.34.H","check_date":"2021-12-12","network:guid":"DE-BY-MVV","gtfs:route_id":"19-446-s22-1","network:short":"MVV","network:wikidata":"Q259000","gtfs:trip_id:like":"%19-446-s22-1.34.H","network:wikipedia":"de:Münchner Verkehrs- und Tarifverbund","gtfs:trip_id:sample":"48.T0.19-446-s22-1.34.H","public_transport:version":"2"},"13564780":{"to":"Reithofen","ref":"505","via":"Karlsdorf, Nord","from":"Markt Schwaben (S)","name":"Bus 505: Markt Schwaben (S) => Karlsdorf, Nord => Reithofen","type":"route","route":"bus","colour":"#005262","network":"Münchner Verkehrs- und Tarifverbund;Verkehrsgemeinschaft Landkreis Mühldorf","website":"http://www.mvv-muenchen.de/","operator":"Larcher Touristik","gtfs:feed":"DE-BY-MVV","ref_trips":"20.T0.19-505-s23-1.20.R","check_date":"2023-03-12","wheelchair":"yes","description":"Nur an Schultagen","network:guid":"DE-BY-MVV;DE-BY-VLMÜ","gtfs:route_id":"19-505-s23-1","network:short":"MVV;VLMÜ","gtfs:trip_id:sample":"20.T0.19-505-s23-1.20.R","public_transport:version":"2"},"13564781":{"to":"Isen, Steinlandstraße","ref":"505","via":"Karlsdorf, Nord","from":"Markt Schwaben (S)","name":"Bus 505: Markt Schwaben (S) => Karlsdorf, Nord => Isen, Steinlandstraße","type":"route","route":"bus","colour":"#005262","network":"Münchner Verkehrs- und Tarifverbund;Verkehrsgemeinschaft Landkreis Mühldorf","website":"http://www.mvv-muenchen.de/","operator":"Larcher Touristik","gtfs:feed":"DE-BY-MVV","ref_trips":"22.T0.19-505-s23-1.22.R","check_date":"2023-03-12","wheelchair":"yes","description":"Nur an Schulfreien Tagen","network:guid":"DE-BY-MVV;DE-BY-VLMÜ","gtfs:route_id":"19-505-s23-1","network:short":"MVV;VLMÜ","gtfs:trip_id:sample":"22.T0.19-505-s23-1.22.R","public_transport:version":"2"},"13564784":{"to":"Isen, Steinlandstraße","ref":"505","from":"Markt Schwaben (S)","name":"Bus 505: Markt Schwaben (S) => Isen, Steinlandstraße","type":"route","route":"bus","colour":"#005262","network":"Münchner Verkehrs- und Tarifverbund;Verkehrsgemeinschaft Landkreis Mühldorf","website":"http://www.mvv-muenchen.de/","operator":"Larcher Touristik","gtfs:feed":"DE-BY-MVV","ref_trips":"47.T0.19-505-s23-1.25.R","check_date":"2023-03-12","wheelchair":"yes","network:guid":"DE-BY-MVV;DE-BY-VLMÜ","gtfs:route_id":"19-505-s23-1","network:short":"MVV;VLMÜ","gtfs:trip_id:sample":"47.T0.19-505-s23-1.25.R","public_transport:version":"2"},"13564785":{"to":"Isen, Hochstraße","ref":"505","from":"Markt Schwaben (S)","name":"Bus 505: Markt Schwaben (S) => Isen, Hochstraße","type":"route","route":"bus","colour":"#005262","network":"Münchner Verkehrs- und Tarifverbund;Verkehrsgemeinschaft Landkreis Mühldorf","website":"http://www.mvv-muenchen.de/","operator":"Larcher Touristik","gtfs:feed":"DE-BY-MVV","ref_trips":"17.T0.19-505-s23-1.24.R","check_date":"2023-03-12","wheelchair":"yes","network:guid":"DE-BY-MVV;DE-BY-VLMÜ","gtfs:route_id":"19-505-s23-1","network:short":"MVV;VLMÜ","gtfs:trip_id:sample":"17.T0.19-505-s23-1.24.R","public_transport:version":"2"},"13564786":{"to":"Hohenlinden, Flurstraße","ref":"505","from":"Markt Schwaben (S)","name":"Bus 505: Markt Schwaben (S) => Hohenlinden, Flurstraße","type":"route","route":"bus","colour":"#005262","network":"Münchner Verkehrs- und Tarifverbund;Verkehrsgemeinschaft Landkreis Mühldorf","website":"http://www.mvv-muenchen.de/","operator":"Larcher Touristik","gtfs:feed":"DE-BY-MVV","ref_trips":"16.T0.19-505-s23-1.26.R","check_date":"2023-03-12","wheelchair":"yes","network:guid":"DE-BY-MVV;DE-BY-VLMÜ","gtfs:route_id":"19-505-s23-1","network:short":"MVV;VLMÜ","gtfs:trip_id:sample":"16.T0.19-505-s23-1.26.R","public_transport:version":"2"},"13590449":{"to":"Hohenlinden, Gasthaus zur Post","ref":"469","via":"Markt Schwaben, Schule;Forstinning, Rathaus","from":"Markt Schwaben (S)","name":"Bus 469: Markt Schwaben (S) => Markt Schwaben, Schule => Forstinning, Rathaus => Hohenlinden, Gasthaus zur Post","type":"route","route":"bus","colour":"#005262","network":"Münchner Verkehrs- und Tarifverbund","website":"https://www.mvv-muenchen.de/","operator":"Larcher Touristik GmbH","gtfs:feed":"DE-BY-MVV","ref_trips":"2.T0.19-469-s23-1.2.R","check_date":"2023-03-18","network:area":"region","network:guid":"DE-BY-MVV","gtfs:route_id":"19-469-s23-1","network:short":"MVV","route:category":"normal","network:wikidata":"Q259000","gtfs:trip_id:like":"%19-469-s23-1.2.R","network:wikipedia":"de:Münchner Verkehrs- und Tarifverbund","gtfs:trip_id:sample":"2.T0.19-469-s23-1.2.R","public_transport:version":"2"},"13590490":{"to":"Hohenlinden, Gasthaus zur Post","ref":"469","via":"Markt Schwaben, Schule;Forstinning, Rathaus;Forstern, Karlsdorfer Weg","from":"Markt Schwaben (S)","name":"Bus 469: Markt Schwaben (S) => Markt Schwaben, Schule => Forstinning, Rathaus => Forstern, Karlsdorfer Weg => Hohenlinden, Gasthaus zur Post","type":"route","route":"bus","colour":"#005262","network":"Münchner Verkehrs- und Tarifverbund","website":"https://www.mvv-muenchen.de/","operator":"Larcher Touristik GmbH","gtfs:feed":"DE-BY-MVV","ref_trips":"27.T0.19-469-s23-1.1.R","check_date":"2023-03-18","network:area":"region","network:guid":"DE-BY-MVV","gtfs:route_id":"19-469-s23-1","network:short":"MVV","route:category":"normal","network:wikidata":"Q259000","gtfs:trip_id:like":"%19-469-s23-1.1.R","network:wikipedia":"de:Münchner Verkehrs- und Tarifverbund","gtfs:trip_id:sample":"27.T0.19-469-s23-1.1.R","public_transport:version":"2"},"13756869":{"to":"Bad Urach Busbahnhof","ref":"7646","from":"Wittlingen Rathaus","name":"DE_naldo_7646: Wittlingen => Bad Urach","type":"route","route":"bus","network":"Verkehrsverbund Neckar-Alb-Donau","operator":"Regionalverkehr Alb-Bodensee GmbH","public_transport:version":"2"},"14064424":{"to":"Tewkesbury, Tewkesbury School","bus":"school","ref":"M2","from":"Cheltenham, Pates Grammar School","name":"Bus M2: Pates Grammar School → Tewkesbury","type":"route","route":"bus","duration":"00:25","operator":"Marchants Coaches","opening_hours":"Mo-Fr 15:55-16:20; SH off","public_transport:version":"2"},"14124490":{"ref":"1-4 (39)","name":"1-4 (39) ม.ธรรมศาสตร์ ศูนย์รังสิต - บางเขน","type":"route","route":"bus","colour":"navy","name:en":"1-4 (39) Thammasat University Rangsit Campus - Bang Khen","name:th":"1-4 (39) ม.ธรรมศาสตร์ ศูนย์รังสิต - บางเขน","network":"TSB","operator":"TSB","wheelchair":"yes","network:wikidata":"Q115052890"},"14124491":{"ref":"1-4 (39)","name":"1-4 (39) บางเขน - ม.ธรรมศาสตร์ ศูนย์รังสิต","type":"route","route":"bus","colour":"navy","name:en":"1-4 (39) Bang Khen - Thammasat University Rangsit Campus","name:th":"1-4 (39) บางเขน - ม.ธรรมศาสตร์ ศูนย์รังสิต","network":"TSB","operator":"TSB","wheelchair":"yes","network:wikidata":"Q115052890"},"14465329":{"to":"Альбрэхтава","fee":"yes","ref":"10","via":"плошча Кірава","from":"Цэнтральная бальніца","name":"Ц. Бальніца - Альбрэхтова","type":"route","route":"bus","colour":"green","name:be":"Ц. Бальніца - Альбрэхтова","name:ru":"Ц. Больница - Альбрехтово","name:uk":"Ц. Лікарня – Альбрехтове","network":"Городские маршруты","website":"https://pinskap.by/","duration":"50","interval":"10","operator":"Пинский автобусный парк","wheelchair":"yes","reservation":"no","opening_hours":"Mo-Fr 05:49-23:41; Sa, Su 06:23-22:16","public_transport:version":"2"},"14568053":{"to":"Цэнтральная бальніца","fee":"yes","ref":"9","from":"Дастаеўскага","name":"Кузлітмаш - Паркавая - Цэнтральная бальніца","type":"route","route":"bus","colour":"green","name:be":"Кузлітмаш - Паркавая - Цэнтральная бальніца","name:ru":"Кузлитмаш - Парковая - Центральная больница","name:uk":"Кузлітмаш – Паркова – Центральна лікарня","network":"Городские маршруты","website":"https://pinskap.by","distance":"8.13","duration":"30","interval":"4","operator":"Пинский автобусный парк","reservation":"no","opening_hours":"Mo-Fr 05:58-23:45","public_transport:version":"2"},"15073268":{"ref":"1-9E","name":"1-9E ม.ธรรมศาสตร์ ศูนย์รังสิต - สนามหลวง","type":"route","route":"bus","colour":"navy","name:en":"1-9E Thammasat University Rangsit Campus - Sanam Luang","name:th":"1-9E ม.ธรรมศาสตร์ ศูนย์รังสิต - สนามหลวง","network":"TSB","operator":"TSB","wheelchair":"yes","description":"รถประจำทางสาย 1-9E ม.ธรรมศาสตร์ ศูนย์รังสิต - สนามหลวง                                                                                                                                                                                                                                                                                                                                                                                                                                                                                                                                                                                                                                                                                                                                                                                                                                                                                                                                                                                                                                                                                                                                                                                                                                                                                                                                                                                                                                                                                                                                                                                                                            "},"15073269":{"ref":"1-9E","name":"1-9E สนามหลวง - ม.ธรรมศาสตร์ ศูนย์รังสิต","type":"route","route":"bus","colour":"navy","name:en":"1-9E Sanam Luang - Thammasat University Rangsit Campus","name:th":"1-9E สนามหลวง - ม.ธรรมศาสตร์ ศูนย์รังสิต","network":"TSB","operator":"TSB","wheelchair":"yes","description":"รถประจำทางสาย 1-9E สนามหลวง - ม.ธรรมศาสตร์ ศูนย์รังสิต                                                                                                                                                                                                                                                                                                                                                                                                                                                                                                                                                                                                                                                                                                                                                                                                                                                                                                                                                                                                                                                                                                                                                                                                                                                                                                                                                                                                                                                                                                                                                                                                                            "},"15435310":{"to":"Landsham, Abzw. Grub","ref":"463","from":"Markt Schwaben (S)","name":"Bus 463: Markt Schwaben (S) => Landsham, Abzw. Grub","type":"route","route":"bus","colour":"#005262","network":"Münchner Verkehrs- und Tarifverbund","website":"https://www.mvv-muenchen.de/","operator":"RVO, Erding","gtfs:feed":"DE-BY-MVV","roundtrip":"yes","check_date":"2023-02-06","wheelchair":"yes","network:area":"region","network:guid":"DE-BY-MVV","gtfs:route_id":"19-463-s23-1","network:short":"MVV","route:category":"normal","network:wikidata":"Q259000","network:wikipedia":"de:Münchner Verkehrs- und Tarifverbund","gtfs:trip_id:sample":"4.T0.19-463-s23-1.13.H","public_transport:version":"2"}}