{"10340743":{"to":"Megenagna Terminal","ref":"D46","from":"Bole Arabsa","name":"Sheger D46: Bole Arabsa => Megenagna Terminal","type":"route","route":"bus","colour":"#4C4CFF","network":"Addis Ababa Public Transport","duration":"00:50:00","interval":"00:20:00","operator":"Sheger City Bus","public_transport:version":"2"},"10340744":{"to":"Bole Arabsa","ref":"D46","from":"Megenegna Terminal","name":"Sheger D46: Megenagna Terminal => Bole Arabsa","type":"route","route":"bus","colour":"#4C4CFF","network":"Addis Ababa Public Transport","duration":"00:43:31","interval":"00:20:00","operator":"Sheger City Bus","roundtrip":"no","opening_hours":"Mo-Su 06:00-23:00","public_transport:version":"2"},"10399951":{"to":"Legedadi Mission","ref":"AB097","from":"Megenegna Terminal","name":"Anbessa AB097: Megenagna Terminal => Legedadi Mission","type":"route","route":"bus","colour":"#E25725","network":"Addis Ababa Public Transport","duration":"00:50:00","interval":"00:20:00","operator":"Anbessa City Bus","roundtrip":"no","opening_hours":"Mo-Su 06:00-23:00","public_transport:version":"2"},"10399952":{"to":"Megenagna Terminal","ref":"AB097","from":"Legedadi Mission","name":"Anbessa AB097: Legedadi Mission => Megenagna Terminal","type":"route","route":"bus","colour":"#E25725","network":"Addis Ababa Public Transport","duration":"00:47:05","interval":"00:20:00","operator":"Anbessa City Bus","roundtrip":"no","opening_hours":"Mo-Su 06:00-23:00","public_transport:version":"2"},"10400256":{"to":"Aba Kiros Roundabout","ref":"AB101","from":"Megenagna Terminal","name":"Anbessa AB101: Megenagna Terminal => Aba Kiros Roundabout","type":"route","route":"bus","colour":"#E25725","network":"Addis Ababa Public Transport","duration":"00:46:24","interval":"00:20:00","operator":"Anbessa City Bus","roundtrip":"no","opening_hours":"Mo-Su 06:00-23:00","public_transport:version":"2"},"10400257":{"to":"Megenagna Terminal","ref":"AB101","from":"Aba Kiros Roundabout","name":"Anbessa AB101: Aba Kiros Round About => Megenagna Terminal","type":"route","route":"bus","colour":"#E25725","network":"Addis Ababa Public Transport","duration":"00:38:07","interval":"00:20:00","operator":"Anbessa City Bus","roundtrip":"no","opening_hours":"Mo-Su 06:00-23:00","public_transport:version":"2"},"10400403":{"to":"Ayat Chefe Condominium","ref":"AB049","from":"Megenegna Terminal","name":"Anbessa AB049: Megenagna Terminal => Ayat Chefe Condominium","type":"route","route":"bus","colour":"#E25725","network":"Addis Ababa Public Transport","duration":"00:55:32","interval":"00:20:00","operator":"Anbessa City Bus","roundtrip":"no","opening_hours":"Mo-Su 06:00-23:00","public_transport:version":"2"},"10400404":{"to":"Megenagna","ref":"AB049","from":"Ayat Chefe Condominium","name":"Anbessa AB049: Ayat Chefe Condominium => Megenagna","type":"route","route":"bus","colour":"#E25725","network":"Addis Ababa Public Transport","duration":"00:41:41","interval":"00:20:00","operator":"Anbessa City Bus","roundtrip":"no","opening_hours":"Mo-Su 06:00-23:00","public_transport:version":"2"},"10406489":{"to":"Ayat Chefe Condominium","ref":"AB083","from":"6 Kilo","name":"Anbessa AB083: 6 kilo => Ayat Chefe Condominium","type":"route","route":"bus","colour":"#E25725","network":"Addis Ababa Public Transport","duration":"01:16:15","interval":"00:20:00","operator":"Anbessa City Bus","roundtrip":"no","opening_hours":"Mo-Su 06:00-23:00","operator:short":"AB","public_transport:version":"2"},"10406490":{"to":"6 kilo","ref":"AB083","from":"Ayat Chefe Condominium","name":"Anbessa AB083: Ayat Chefe Condominium => 6 Kilo","type":"route","route":"bus","colour":"#E25725","network":"Addis Ababa Public Transport","duration":"01:01:23","interval":"00:20:00","operator":"Anbessa City Bus","roundtrip":"no","opening_hours":"Mo-Su 06:00-23:00","public_transport:version":"2"},"10406694":{"to":"Megenagna","ref":"AB106","from":"Bole Arabsa","name":"Anbessa AB106: Bole Arabsa => Megenagna Terminal","type":"route","route":"bus","colour":"#E25725","network":"Addis Ababa Public Transport","duration":"00:50:00","interval":"00:20:00","operator":"Anbessa City Bus","roundtrip":"no","opening_hours":"Mo-Su 06:00-23:00","public_transport:version":"2"},"10406695":{"to":"Bole Arabsa","ref":"AB106","from":"Megenegna Terminal","name":"Anbessa AB106: Megenagna Terminal => Bole Arabsa","type":"route","route":"bus","colour":"#E25725","network":"Addis Ababa Public Transport","duration":"00:43:31","interval":"00:20:00","operator":"Anbessa City Bus","roundtrip":"no","opening_hours":"Mo-Su 06:00-23:00","public_transport:version":"2"},"10406696":{"to":"Ayat Chefe Condominium","ref":"AB061","from":"Legehar (Old Train Station)","name":"Anbessa AB061: Legehar (Old Train Station) => Ayat Chefe Condominium","type":"route","route":"bus","colour":"#E25725","network":"Addis Ababa Public Transport","duration":"01:06:59","interval":"00:20:00","operator":"Anbessa City Bus","roundtrip":"no","opening_hours":"Mo-Su 06:00-23:00","public_transport:version":"2"},"10407730":{"to":"Kotebe Teachers College","ref":"AB010","from":"Piassa Arada","name":"Anbessa AB010: Piassa Arada => Kotebe Teachers College","type":"route","route":"bus","colour":"#E25725","network":"Addis Ababa Public Transport","duration":"01:08:07","interval":"00:20:00","operator":"Anbessa City Bus","roundtrip":"no","opening_hours":"Mo-Su 06:00-23:00","operator:short":"AB","public_transport:version":"2"},"10407731":{"to":"Piassa Arada","ref":"AB010","from":"Kotebe Teachers College","name":"Anbessa AB010: Kotebe Teachers College => Piassa Arada","type":"route","route":"bus","colour":"#E25725","network":"Addis Ababa Public Transport","duration":"00:47:40","interval":"00:20:00","operator":"Anbessa City Bus","roundtrip":"no","opening_hours":"Mo-Su 06:00-23:00","operator:short":"AB","public_transport:version":"2"},"10409762":{"to":"Megenagna","ref":"AB001","from":"Yeka Abado","name":"Anbessa AB001: Yeka Abado => Megenagna","type":"route","route":"bus","colour":"#E25725","network":"Addis Ababa Public Transport","duration":"00:55:18","interval":"00:20:00","operator":"Anbessa City Bus","roundtrip":"no","opening_hours":"Mo-Su 06:00-23:00","operator:short":"AB","public_transport:version":"2"},"10409763":{"to":"Yeka Abado","ref":"AB001","from":"Megenegna","name":"Anbessa AB001: Megenagna => Yeka Abado","type":"route","route":"bus","colour":"#E25725","network":"Addis Ababa Public Transport","duration":"00:44:39","interval":"00:20:00","operator":"Anbessa City Bus","roundtrip":"no","opening_hours":"Mo-Su 06:00-23:00","operator:short":"AB","public_transport:version":"2"},"10410196":{"to":"Brass Clinic (Bole)","ref":"AB009","from":"Piassa Arada","name":"Anbessa AB009: Piassa Arada => Brass Clinic (Bole)","type":"route","route":"bus","colour":"#E25725","network":"Addis Ababa Public Transport","duration":"00:52:48","interval":"00:20:00","operator":"Anbessa City Bus","roundtrip":"no","opening_hours":"Mo-Su 06:00-23:00","operator:short":"AB","public_transport:version":"2"},"10410197":{"to":"Piassa Arada","ref":"AB009","from":"Brass Clinic (Bole)","name":"Anbessa AB009: Brass Clinic (Bole) => Piassa Arada","type":"route","route":"bus","colour":"#E25725","ref:AB":"AB009T2A01","network":"Addis Ababa Public Transport","duration":"00:45:39","interval":"00:20:00","operator":"Anbessa City Bus","roundtrip":"no","opening_hours":"Mo-Su 06:00-23:00","operator:short":"AB","public_transport:version":"2"},"10458622":{"to":"4 kilo","ref":"SH015","from":"Bole Millenium","name":"Sheger 015: Bole Millenium => 4 Kilo","type":"route","route":"bus","colour":"#4C4CFF","network":"Addis Ababa Public Transport","duration":"00:34:08","interval":"00:20:00","operator":"Sheger City Bus","roundtrip":"no","opening_hours":"Mo-Su 06:00-23:00","public_transport:version":"2"},"10458623":{"to":"Bole Millenium","ref":"SH015","from":"4 Kilo","name":"Sheger 015: 4 Kilo => Bole Millenium","type":"route","route":"bus","colour":"#4C4CFF","network":"Addis Ababa Public Transport","duration":"00:30:00","interval":"00:20:00","operator":"Sheger City Bus","roundtrip":"no","opening_hours":"Mo-Su 06:00-23:00","public_transport:version":"2"},"10458766":{"to":"Bole Millenium","ref":"SH027","from":"Shero Meda","name":"Sheger 027: Shero Meda => Bole Millenium","type":"route","route":"bus","colour":"#4C4CFF","network":"Addis Ababa Public Transport","duration":"01:01:11","interval":"00:20:00","operator":"Sheger City Bus","roundtrip":"no","opening_hours":"Mo-Su 06:00-23:00","public_transport:version":"2"},"10458767":{"to":"Shero Meda","ref":"SH027","from":"Bole Millenium","name":"Sheger 027: Bole Millenium => Shero Meda","type":"route","route":"bus","colour":"#4C4CFF","network":"Addis Ababa Public Transport","duration":"00:49:08","interval":"00:20:00","operator":"Sheger City Bus","roundtrip":"no","opening_hours":"Mo-Su 06:00-23:00","public_transport:version":"2"},"10460044":{"to":"Abo Junction","ref":"SH028","from":"Shero Meda","name":"Sheger 028: Shero Meda => Abo Junction","type":"route","route":"bus","colour":"#4C4CFF","network":"Addis Ababa Public Transport","duration":"00:55:00","interval":"00:20:00","operator":"Sheger City Bus","roundtrip":"no","opening_hours":"Mo-Su 06:00-23:00","public_transport:version":"2"},"10460045":{"to":"Shero Meda","ref":"SH028","from":"Abo Junction","name":"Sheger 028: Abo Junction => Shero Meda","type":"route","route":"bus","colour":"#4C4CFF","network":"Addis Ababa Public Transport","duration":"01:15:00","interval":"00:20:00","operator":"Sheger City Bus","roundtrip":"no","opening_hours":"Mo-Su 06:00-23:00","public_transport:version":"2"},"10460166":{"to":"Abo Junction","ref":"SH016","from":"Piassa Arada","name":"Sheger 016: Piassa Arada => Abo Junction","type":"route","route":"bus","colour":"#4C4CFF","network":"Addis Ababa Public Transport","duration":"01:13:00","interval":"00:20:00","operator":"Sheger City Bus","roundtrip":"no","opening_hours":"Mo-Su 06:00-23:00","public_transport:version":"2"},"10460167":{"to":"Piassa","ref":"SH016","from":"Abo Junction","name":"Sheger 016: Abo Junction => Piassa","type":"route","route":"bus","colour":"#4C4CFF","network":"Addis Ababa Public Transport","duration":"01:13:00","interval":"00:20:00","operator":"Sheger City Bus","roundtrip":"no","opening_hours":"Mo-Su 06:00-23:00","public_transport:version":"2"},"10460405":{"to":"Megenagna","ref":"SH004","from":"Yeka Abado G13","name":"Sheger 004: Yeka Abado G13 => Megenaga","type":"route","route":"bus","colour":"#4C4CFF","network":"Addis Ababa Public Transport","duration":"00:31:04","interval":"00:20:00","operator":"Sheger City Bus","roundtrip":"no","opening_hours":"Mo-Su 06:00-23:00","public_transport:version":"2"},"10460406":{"to":"Yeka Abado G13","ref":"SH004","from":"Megenagna","name":"Sheger 004: Megenagna => Yeka Abado G13","type":"route","route":"bus","colour":"#4C4CFF","network":"Addis Ababa Public Transport","duration":"00:31:18","interval":"00:20:00","operator":"Sheger City Bus","roundtrip":"no","opening_hours":"Mo-Su 06:00-23:00","public_transport:version":"2"},"10460600":{"to":"Autobis Tera (2)","ref":"SH010","from":"Alem Bank","name":"Sheger 010: Alem Bank => Autobis Tera (2)","type":"route","route":"bus","colour":"#4C4CFF","network":"Addis Ababa Public Transport","duration":"00:29:00","interval":"00:20:00","operator":"Sheger City Bus","roundtrip":"no","opening_hours":"Mo-Su 06:00-23:00","public_transport:version":"2"},"10460601":{"to":"Alem Bank","ref":"SH010","from":"Autobis Tera (2)","name":"Sheger 010: Autobis Tera (2) => Alem Bank","type":"route","route":"bus","colour":"#4C4CFF","network":"Addis Ababa Public Transport","duration":"00:25:00","interval":"00:20:00","operator":"Sheger City Bus","roundtrip":"no","opening_hours":"Mo-Su 06:00-23:00","public_transport:version":"2"},"10460961":{"to":"Mexico","ref":"A10","from":"Haile Garment","name":"Sheger A10 : Haile Garment => Mexico","type":"route","route":"bus","colour":"#4C4CFF","network":"Addis Ababa Public Transport","duration":"00:36:50","interval":"00:20:00","operator":"Sheger City Bus","roundtrip":"no","opening_hours":"Mo-Su 06:00-23:00","public_transport:version":"2"},"10460962":{"to":"Haile Garment","ref":"A10","from":"Mexico","name":"Sheger A10 : Mexico => Haile Garment","type":"route","route":"bus","colour":"#4C4CFF","network":"Addis Ababa Public Transport","duration":"00:44:45","interval":"00:20:00","operator":"Sheger City Bus","roundtrip":"no","opening_hours":"Mo-Su 06:00-23:00","public_transport:version":"2"},"10461809":{"to":"Autobis Tera (1)","ref":"SH040","from":"Kara Kore","name":"Sheger 040: Kara Kore => Autobis Tera (1)","type":"route","route":"bus","colour":"#4C4CFF","network":"Addis Ababa Public Transport","duration":"00:49:00","interval":"00:20:00","operator":"Sheger City Bus","roundtrip":"no","opening_hours":"Mo-Su 06:00-23:00","public_transport:version":"2"},"10461810":{"to":"Kara Kore","ref":"SH040","from":"Autobis Tera (1)","name":"Sheger 040: Autobis Tera (1) => Kara Kore","type":"route","route":"bus","colour":"#4C4CFF","network":"Addis Ababa Public Transport","duration":"00:39:00","interval":"00:20:00","operator":"Sheger City Bus","roundtrip":"no","opening_hours":"Mo-Su 06:00-23:00","public_transport:version":"2"},"10465901":{"to":"Megenagna","ref":"D26","from":"Yerer Goro","name":"Sheger D26: Yerer Goro => Megenagna","type":"route","route":"bus","colour":"#4C4CFF","network":"Addis Ababa Public Transport","duration":"00:18:38","interval":"00:20:00","operator":"Sheger City Bus","roundtrip":"no","opening_hours":"Mo-Su 06:00-23:00","public_transport:version":"2"},"10465902":{"to":"Yerer Goro","ref":"D26","from":"Megenagna","name":"Sheger D26: Megenagna => Yerer Goro","type":"route","route":"bus","colour":"#4C4CFF","network":"Addis Ababa Public Transport","duration":"00:16:00","interval":"00:20:00","operator":"Sheger City Bus","roundtrip":"no","opening_hours":"Mo-Su 06:00-23:00","public_transport:version":"2"},"10466288":{"to":"Mexico","ref":"A24","from":"Megenagna (Bethelhem Bldg.)","name":"Sheger A24: Megenagna (Bethelhem Bldg.) => Mexico","type":"route","route":"bus","colour":"#4C4CFF","network":"Addis Ababa Public Transport","duration":"00:19:00","interval":"00:20:00","operator":"Sheger City Bus","roundtrip":"no","opening_hours":"Mo-Su 06:00-23:00","public_transport:version":"2"},"10466289":{"to":"Megenagna (CBE Bank)","ref":"A24","from":"Mexico","name":"Sheger A24: Mexico => Megenagna (CBE Bank)","type":"route","route":"bus","colour":"#4C4CFF","network":"Addis Ababa Public Transport","duration":"00:41:00","interval":"00:20:00","operator":"Sheger City Bus","roundtrip":"no","opening_hours":"Mo-Su 06:00-23:00","public_transport:version":"2"},"10466723":{"to":"Piassa","ref":"C15","from":"Mebrat Condominium","name":"Sheger C15: Mebrat Condominium => Piassa","type":"route","route":"bus","colour":"#4C4CFF","network":"Addis Ababa Public Transport","duration":"00:50:00","interval":"00:20:00","operator":"Sheger City Bus","roundtrip":"no","opening_hours":"Mo-Su 06:00-23:00","public_transport:version":"2"},"10466724":{"to":"Mebrat Condominium","ref":"C15","from":"Piassa","name":"Sheger C15: Piassa => Mebrat Condominium","type":"route","route":"bus","colour":"#4C4CFF","network":"Addis Ababa Public Transport","duration":"01:19:00","interval":"00:20:00","operator":"Sheger City Bus","roundtrip":"no","opening_hours":"Mo-Su 06:00-23:00","public_transport:version":"2"},"10468433":{"to":"Piassa","ref":"C14","from":"Sansusi","name":"Sheger C14: Sansusi => Piassa","type":"route","route":"bus","colour":"#4C4CFF","network":"Addis Ababa Public Transport","duration":"00:35:00","interval":"00:20:00","operator":"Sheger City Bus","roundtrip":"no","opening_hours":"Mo-Su 06:00-23:00","public_transport:version":"2"},"10468434":{"to":"Asko","ref":"B22","from":"Autobis Tera","name":"Sheger B22: Autobis Tera => Asko","type":"route","route":"bus","colour":"#4C4CFF","network":"Addis Ababa Public Transport","duration":"00:31:00","interval":"00:20:00","operator":"Sheger City Bus","roundtrip":"no","opening_hours":"Mo-Su 06:00-23:00","public_transport:version":"2"},"10469386":{"to":"4 Kilo","ref":"A08","from":"Beret Dildye (Gurara)","name":"Sheger A08: Gurara (Ferensay) => 4 Kilo","type":"route","route":"bus","colour":"#4C4CFF","network":"Addis Ababa Public Transport","duration":"00:22:00","interval":"00:20:00","operator":"Sheger City Bus","roundtrip":"no","opening_hours":"Mo-Su 06:00-23:00","public_transport:version":"2"},"10469387":{"to":"Gurara (Ferensay)","ref":"A08","from":"4 Kilo","name":"Sheger A08: 4 Kilo => Gurara (Ferensay)","type":"route","route":"bus","colour":"#4C4CFF","network":"Addis Ababa Public Transport","duration":"00:15:00","interval":"00:20:00","operator":"Sheger City Bus","roundtrip":"no","opening_hours":"Mo-Su 06:00-23:00","public_transport:version":"2"},"10478790":{"to":"Dil Ber","ref":"C31","from":"Piassa Arada","name":"Sheger C31: Piassa Arada => Dil Ber","type":"route","route":"bus","colour":"#4C4CFF","network":"Addis Ababa Public Transport","duration":"00:20:09","interval":"00:20:00","operator":"Sheger City Bus","roundtrip":"no","opening_hours":"Mo-Su 06:00-23:00","public_transport:version":"2"},"10478791":{"to":"Piassa Arada","ref":"C31","from":"Dil Ber","name":"Sheger C31: Bil Ber => Piassa Arada","type":"route","route":"bus","colour":"#4C4CFF","network":"Addis Ababa Public Transport","duration":"00:24:00","interval":"00:20:00","operator":"Sheger City Bus","roundtrip":"no","opening_hours":"Mo-Su 06:00-23:00","public_transport:version":"2"},"10479676":{"to":"Shero Meda","ref":"B37","from":"Autobis Tera (3)","name":"Sheger B37: Autobis Tera (3) => Shero Meda","type":"route","route":"bus","colour":"#4C4CFF","network":"Addis Ababa Public Transport","duration":"00:27:00","interval":"00:20:00","operator":"Sheger City Bus","roundtrip":"no","opening_hours":"Mo-Su 06:00-23:00","public_transport:version":"2"},"10479677":{"to":"Autobis Tera (3)","ref":"B37","from":"Shero Meda","name":"Sheger B37: Shero Meda => Autobis Tera (3)","type":"route","route":"bus","colour":"#4C4CFF","network":"Addis Ababa Public Transport","duration":"00:26:00","interval":"00:20:00","operator":"Sheger City Bus","roundtrip":"no","opening_hours":"Mo-Su 06:00-23:00","public_transport:version":"2"},"10480003":{"to":"Autobis Tera (1)","ref":"B19","from":"Abo Junction","name":"Sheger B19: Abo Junction => Autobis Tera (1)","type":"route","route":"bus","colour":"#4C4CFF","network":"Addis Ababa Public Transport","duration":"01:07:00","interval":"00:20:00","operator":"Sheger City Bus","roundtrip":"no","opening_hours":"Mo-Su 06:00-23:00","public_transport:version":"2"},"10480004":{"to":"Abo Junction","ref":"B19","from":"Autobis Tera (1)","name":"Sheger B19: Autobis Tera (1) => Abo Junction","type":"route","route":"bus","colour":"#4C4CFF","network":"Addis Ababa Public Transport","duration":"00:42:42","interval":"00:20:00","operator":"Sheger City Bus","roundtrip":"no","opening_hours":"Mo-Su 06:00-23:00","public_transport:version":"2"},"10480334":{"to":"Mexico","ref":"A09","from":"Alem Bank","name":"Sheger A09: Alem Bank => Mexico","type":"route","route":"bus","colour":"#4C4CFF","network":"Addis Ababa Public Transport","duration":"00:46:00","interval":"00:20:00","operator":"Sheger City Bus","roundtrip":"no","opening_hours":"Mo-Su 06:00-23:00","public_transport:version":"2"},"10480335":{"to":"Alem Bank","ref":"A09","from":"Mexico (Alcohol Factory)","name":"Sheger A09: Mexico (Alcohol Factory) => Alem Bank","type":"route","route":"bus","colour":"#4C4CFF","network":"Addis Ababa Public Transport","duration":"00:46:00","interval":"00:20:00","operator":"Sheger City Bus","roundtrip":"no","opening_hours":"Mo-Su 06:00-23:00","public_transport:version":"2"},"10521541":{"to":"Koye Feche","ref":"D52","from":"Megenagna","name":"Sheger D52 : Megenagna => Koye Feche","type":"route","route":"bus","colour":"#4C4CFF","network":"Addis Ababa Public Transport","duration":"01:12:00","interval":"00:20:00","operator":"Sheger City Bus","roundtrip":"no","opening_hours":"Mo-Su 06:00-23:00","public_transport:version":"2"},"10521542":{"to":"Megenagna","ref":"D52","from":"Koye Feche","name":"Sheger D52 : Koye Feche => Megenagna","type":"route","route":"bus","colour":"#4C4CFF","network":"Addis Ababa Public Transport","duration":"00:41:00","interval":"00:20:00","operator":"Sheger City Bus","roundtrip":"no","opening_hours":"Mo-Su 06:00-23:00","public_transport:version":"2"},"10521608":{"to":"Megenagna","ref":"D25","from":"Summit Condominiums","name":"Sheger D25 : Summit Condominiums => Megenagna","type":"route","route":"bus","colour":"#4C4CFF","network":"Addis Ababa Public Transport","duration":"00:42:00","interval":"00:20:00","operator":"Sheger City Bus","roundtrip":"no","opening_hours":"Mo-Su 06:00-23:00","public_transport:version":"2"},"10521609":{"to":"Summit Condominiums","ref":"D25","from":"Megenagna","name":"Sheger D25 : Megenagna => Summit Condominiums","type":"route","route":"bus","colour":"#4C4CFF","network":"Addis Ababa Public Transport","duration":"00:53:00","interval":"00:20:00","operator":"Sheger City Bus","roundtrip":"no","opening_hours":"Mo-Su 06:00-23:00","public_transport:version":"2"},"10529106":{"to":"Autobis Tera (2)","ref":"B35","from":"Kela","name":"Sheger B35 : Kela => Autobis Tera (2)","type":"route","route":"bus","colour":"#4C4CFF","network":"Addis Ababa Public Transport","duration":"00:50:53","interval":"00:20:00","operator":"Sheger City Bus","roundtrip":"no","opening_hours":"Mo-Su 06:00-23:00","public_transport:version":"2"},"10529107":{"to":"Kela","ref":"B35","from":"Autobis Tera (2)","name":"Sheger B35 : Autobis Tera (2) => Kela","type":"route","route":"bus","colour":"#4C4CFF","network":"Addis Ababa Public Transport","duration":"01:09:19","interval":"00:20:00","operator":"Sheger City Bus","roundtrip":"no","opening_hours":"Mo-Su 06:00-23:00","public_transport:version":"2"},"10529702":{"to":"Ayer Tena","ref":"B40","from":"Saris Abo","name":"Sheger B40 : Saris Abo => Ayer Tena","type":"route","route":"bus","colour":"#4C4CFF","network":"Addis Ababa Public Transport","duration":"01:03:28","interval":"00:20:00","operator":"Sheger City Bus","roundtrip":"no","opening_hours":"Mo-Su 06:00-23:00","public_transport:version":"2"},"10529703":{"to":"Saris Abo","ref":"B40","from":"Ayer Tena","name":"Sheger B40 : Ayer Tena => Saris Abo","type":"route","route":"bus","colour":"#4C4CFF","network":"Addis Ababa Public Transport","duration":"00:31:13","interval":"00:20:00","operator":"Sheger City Bus","roundtrip":"no","opening_hours":"Mo-Su 06:00-23:00","public_transport:version":"2"},"10533495":{"to":"Yeka Abado G13","ref":"C51","from":"Piassa Arada","name":"Sheger C51 : Piassa Arada => Yeka Abado G13","type":"route","route":"bus","colour":"#4C4CFF","network":"Addis Ababa Public Transport","duration":"01:12:46","interval":"00:20:00","operator":"Sheger City Bus","opening_hours":"Mo-Su 06:00-23:00","public_transport:version":"2"},"10533496":{"to":"St. George Church","ref":"C51","from":"Yeka Abado","name":"Sheger C51 : Yeka Abado => St. George Church","type":"route","route":"bus","colour":"#4C4CFF","network":"Addis Ababa Public Transport","duration":"00:55:08","interval":"00:20:00","operator":"Sheger City Bus","opening_hours":"Mo-Su 06:00-23:00","public_transport:version":"2"},"10533756":{"to":"Aba Kiros Roundabout","ref":"D23","from":"Megenagna Terminal","name":"Sheger D23 : Megenagna Terminal => Aba Kiros Roundabout","type":"route","route":"bus","colour":"#4C4CFF","network":"Addis Ababa Public Transport","duration":"01:12:46","interval":"00:20:00","operator":"Sheger City Bus","roundtrip":"no","opening_hours":"Mo-Su 06:00-23:00","public_transport:version":"2"},"10533757":{"to":"Megenagna Terminal","ref":"D23","from":"Aba Kiros Roundabout","name":"Sheger D23 : Aba Kiros Roundabout => Megenagna Terminal","type":"route","route":"bus","colour":"#4C4CFF","network":"Addis Ababa Public Transport","duration":"00:30:00","interval":"00:20:00","operator":"Sheger City Bus","roundtrip":"no","opening_hours":"Mo-Su 06:00-23:00","public_transport:version":"2"},"10534178":{"to":"Mexico","ref":"A05","from":"Lafto","name":"Sheger A05 : Lafto => Mexico","type":"route","route":"bus","colour":"#4C4CFF","network":"Addis Ababa Public Transport","duration":"01:05:00","interval":"00:20:00","operator":"Sheger City Bus","roundtrip":"no","opening_hours":"Mo-Su 06:00-23:00","public_transport:version":"2"},"10534179":{"to":"Lafto","ref":"A05","from":"Mexico","name":"Sheger A05 : Mexico => Lafto","type":"route","route":"bus","colour":"#4C4CFF","network":"Addis Ababa Public Transport","duration":"01:07:00","interval":"00:20:00","operator":"Sheger City Bus","roundtrip":"no","opening_hours":"Mo-Su 06:00-23:00","public_transport:version":"2"},"10534539":{"to":"Mexico","ref":"A01","from":"Shero Meda","name":"Sheger A01 : Shero Meda => Mexico","type":"route","route":"bus","colour":"#4C4CFF","network":"Addis Ababa Public Transport","duration":"01:13:00","interval":"00:20:00","operator":"Sheger City Bus","roundtrip":"no","opening_hours":"Mo-Su 06:00-23:00","public_transport:version":"2"},"10534540":{"to":"Shero Meda","ref":"A01","from":"Mexico","name":"Sheger A01 : Mexico => Shero Meda","type":"route","route":"bus","colour":"#4C4CFF","network":"Addis Ababa Public Transport","duration":"01:23:00","interval":"00:20:00","operator":"Sheger City Bus","roundtrip":"no","opening_hours":"Mo-Su 06:00-23:00","public_transport:version":"2"},"10534846":{"to":"Marathon Motor (Megenagna)","ref":"C17","from":"Piassa Arada","name":"Sheger C17 : Piassa Arada => Marathon Motor (Megenagna)","type":"route","route":"bus","colour":"#4C4CFF","network":"Addis Ababa Public Transport","duration":"00:30:00","interval":"00:20:00","operator":"Sheger City Bus","roundtrip":"no","opening_hours":"Mo-Su 06:00-23:00","public_transport:version":"2"},"10534847":{"to":"Piassa Arada","ref":"C17","from":"Marathon Motor (Megenagna)","name":"Sheger C17 : Marathon Motor (Megenagna) => Piassa Arada","type":"route","route":"bus","colour":"#4C4CFF","network":"Addis Ababa Public Transport","duration":"00:33:00","interval":"00:20:00","operator":"Sheger City Bus","roundtrip":"no","opening_hours":"Mo-Su 06:00-23:00","public_transport:version":"2"},"10535101":{"to":"Autobis Tera","ref":"B22","from":"Asko","name":"Sheger B22 : Asko => Autobis Tera","type":"route","route":"bus","colour":"#4C4CFF","network":"Addis Ababa Public Transport","duration":"00:35:00","interval":"00:20:00","operator":"Sheger City Bus","roundtrip":"no","opening_hours":"Mo-Su 06:00-23:00","public_transport:version":"2"},"10535102":{"to":"Sansusi","ref":"C14","from":"Piassa Arada (3)","name":"Sheger C14: Piassa Arada (3) => Sansusi","type":"route","route":"bus","colour":"#4C4CFF","network":"Addis Ababa Public Transport","duration":"00:37:00","interval":"00:20:00","operator":"Sheger City Bus","roundtrip":"no","opening_hours":"Mo-Su 06:00-23:00","public_transport:version":"2"},"10541123":{"to":"Mexico","ref":"A04","from":"Sefera","name":"Sheger A04 : Sefera => Mexico","type":"route","route":"bus","colour":"#4C4CFF","network":"Addis Ababa Public Transport","duration":"00:32:00","interval":"00:20:00","operator":"Sheger City Bus","roundtrip":"no","opening_hours":"Mo-Su 06:00-23:00","public_transport:version":"2"},"10541124":{"to":"Sefera","ref":"A04","from":"Mexico","name":"Sheger A04 : Mexico => Sefera","type":"route","route":"bus","colour":"#4C4CFF","network":"Addis Ababa Public Transport","duration":"00:40:00","interval":"00:20:00","operator":"Sheger City Bus","roundtrip":"no","opening_hours":"Mo-Su 06:00-23:00","public_transport:version":"2"},"10541369":{"to":"Jemmo 2","ref":"A18","from":"Piassa","name":"Sheger A18 : Piassa => Jemmo 2","type":"route","route":"bus","colour":"#4C4CFF","network":"Addis Ababa Public Transport","duration":"01:12:00","interval":"00:20:00","operator":"Sheger City Bus","roundtrip":"no","opening_hours":"Mo-Su 06:00-23:00","public_transport:version":"2"},"10541370":{"to":"Piassa","ref":"A18","from":"Jemmo 2","name":"Sheger A18 : Jemmo 2 => Piassa","type":"route","route":"bus","colour":"#4C4CFF","network":"Addis Ababa Public Transport","duration":"01:10:00","interval":"00:20:00","operator":"Sheger City Bus","roundtrip":"no","opening_hours":"Mo-Su 06:00-23:00","public_transport:version":"2"},"10541999":{"to":"Mexico","ref":"A02","from":"Jemo 1","name":"Sheger A02 : Jemo 1 => Mexico","type":"route","route":"bus","colour":"#4C4CFF","network":"Addis Ababa Public Transport","duration":"00:47:00","interval":"00:20:00","operator":"Sheger City Bus","roundtrip":"no","opening_hours":"Mo-Su 06:00-23:00","public_transport:version":"2"},"10542000":{"to":"Jemo 1","ref":"A02","from":"Mexico","name":"Sheger A02 : Mexico => Jemo 1","type":"route","route":"bus","colour":"#4C4CFF","network":"Addis Ababa Public Transport","duration":"00:47:56","interval":"00:20:00","operator":"Sheger City Bus","roundtrip":"no","opening_hours":"Mo-Su 06:00-23:00","public_transport:version":"2"},"10542094":{"to":"Merkato","ref":"B35B","from":"Ashewa Meda","name":"Sheger B35B : Ashewa Meda => Merkato","type":"route","route":"bus","colour":"#4C4CFF","network":"Addis Ababa Public Transport","duration":"00:50:53","interval":"00:20:00","operator":"Sheger City Bus","roundtrip":"no","opening_hours":"Mo-Su 06:00-23:00","public_transport:version":"2"},"10542095":{"to":"Ashewa Meda","ref":"B35B","from":"Merkato","name":"Sheger B35B : Merkato => Ashewa Meda","type":"route","route":"bus","colour":"#4C4CFF","network":"Addis Ababa Public Transport","duration":"01:00:10","interval":"00:20:00","operator":"Sheger City Bus","roundtrip":"no","opening_hours":"Mo-Su 06:00-23:00","public_transport:version":"2"},"10542239":{"to":"Addisu Gebeya","ref":"C50","from":"kera","name":"Sheger C50 : Kera => Addisu Gebeya","type":"route","route":"bus","colour":"#4C4CFF","network":"Addis Ababa Public Transport","duration":"00:55:00","interval":"00:20:00","operator":"Sheger City Bus","roundtrip":"no","opening_hours":"Mo-Su 06:00-23:00","public_transport:version":"2"},"10542240":{"to":"Kera","ref":"C50","from":"Addisu Gebeya","name":"Sheger C50 : Addisu Gebeya => Kera","type":"route","route":"bus","colour":"#4C4CFF","network":"Addis Ababa Public Transport","duration":"00:49:00","interval":"00:20:00","operator":"Sheger City Bus","roundtrip":"no","opening_hours":"Mo-Su 06:00-23:00","public_transport:version":"2"},"10547200":{"to":"Legehar (Old Train Station)","ref":"AB032","from":"Kotebe 01","name":"Anbessa AB032 : Kotebe 01 => Legehar (Old Train Station)","type":"route","route":"bus","colour":"#E25725","network":"Addis Ababa Public Transport","duration":"00:49:30","interval":"00:20:00","operator":"Anbessa City Bus","roundtrip":"no","opening_hours":"Mo-Su 06:00-23:00","public_transport:version":"2"},"10547201":{"to":"Kotebe 01","ref":"AB032","from":"Legehar (Old Train Station)","name":"Anbessa AB032: Legehar (Old Train Station) => Kotebe 01","type":"route","route":"bus","colour":"#E25725","network":"Addis Ababa Public Transport","duration":"00:42:00","interval":"00:20:00","operator":"Anbessa City Bus","roundtrip":"no","opening_hours":"Mo-Su 06:00-23:00","public_transport:version":"2"},"10547524":{"to":"Kality Meneharia","ref":"AB076","from":"Megenagna Terminal","name":"Anbessa AB076 : Megenagna Terminal => Kality Meneharia","type":"route","route":"bus","colour":"#E25725","network":"Addis Ababa Public Transport","duration":"01:16:00","interval":"00:20:00","operator":"Anbessa City Bus","roundtrip":"no","opening_hours":"Mo-Su 06:00-23:00","public_transport:version":"2"},"10547525":{"to":"Megenagna Terminal","ref":"AB076","from":"Kality Meneharia","name":"Anbessa AB076 : Kality Meneharia => Megenagna Terminal","type":"route","route":"bus","colour":"#E25725","network":"Addis Ababa Public Transport","duration":"01:13:00","interval":"00:20:00","operator":"Anbessa City Bus","roundtrip":"no","opening_hours":"Mo-Su 06:00-23:00","public_transport:version":"2"},"10549684":{"to":"Marathon Motor (Megenagna)","ref":"AB015","from":"Autobis Tera (Adarash)","name":"Anbessa AB015 : Autobis Tera (Adarash) => Marathon Motor (Megenagna)","type":"route","route":"bus","colour":"#E25725","network":"Addis Ababa Public Transport","duration":"00:40:00","interval":"00:20:00","operator":"Anbessa City Bus","roundtrip":"no","opening_hours":"Mo-Su 06:00-23:00","public_transport:version":"2"},"10549685":{"to":"Autobis Tera (Adarash)","ref":"AB015","from":"Marathon Motor (Megenagna)","name":"Anbessa AB015 : Marathon Motor (Megenagna) => Autobis Tera (Adarash)","type":"route","route":"bus","colour":"#E25725","network":"Addis Ababa Public Transport","duration":"01:05:00","interval":"00:20:00","operator":"Anbessa City Bus","roundtrip":"no","opening_hours":"Mo-Su 06:00-23:00","public_transport:version":"2"},"10550060":{"to":"Autobis Tera (Adarash)","ref":"AB018","from":"Yeshi Debele","name":"Anbessa AB018 : Yeshi Debele => Autobis Tera (Adarash)","type":"route","route":"bus","colour":"#E25725","network":"Addis Ababa Public Transport","duration":"01:20:00","interval":"00:20:00","operator":"Anbessa City Bus","roundtrip":"no","opening_hours":"Mo-Su 06:00-23:00","public_transport:version":"2"},"10550062":{"to":"Yeshi Debele","ref":"AB018","from":"Autobis Tera (Adarash)","name":"Anbessa AB018 : Autobis Tera (Adarash) => Yeshi Debele","type":"route","route":"bus","colour":"#E25725","network":"Addis Ababa Public Transport","duration":"00:46:00","interval":"00:20:00","operator":"Anbessa City Bus","roundtrip":"no","opening_hours":"Mo-Su 06:00-23:00","public_transport:version":"2"},"10550161":{"to":"Ayer Tena (Terminal)","ref":"AB087","from":"Winget","name":"Anbessa AB087 : Winget => Ayer Tena (Terminal)","type":"route","route":"bus","colour":"#E25725","network":"Addis Ababa Public Transport","duration":"01:00:30","interval":"00:20:00","operator":"Anbessa City Bus","roundtrip":"no","opening_hours":"Mo-Su 06:00-23:00","public_transport:version":"2"},"10550162":{"to":"Winget","ref":"AB087","from":"Ayer Tena (Terminal)","name":"Anbessa AB087 : Ayer Tena (Terminal) => Winget","type":"route","route":"bus","colour":"#E25725","network":"Addis Ababa Public Transport","duration":"01:01:20","interval":"00:20:00","operator":"Anbessa City Bus","roundtrip":"no","opening_hours":"Mo-Su 06:00-23:00","public_transport:version":"2"},"10550648":{"to":"Tulu Dimtu","ref":"AB110","from":"Shero Meda","name":"Anbessa AB110 : Shero Meda => Tulu Dimtu","type":"route","route":"bus","colour":"#E25725","network":"Addis Ababa Public Transport","duration":"02:03:02","interval":"00:20:00","operator":"Anbessa City Bus","roundtrip":"no","opening_hours":"Mo-Su 06:00-23:00","public_transport:version":"2"},"10550649":{"to":"Shero Meda","ref":"AB110","from":"Tulu Dimtu","name":"Anbessa AB110 : Tulu Dimtu => Shero Meda","type":"route","route":"bus","colour":"#E25725","network":"Addis Ababa Public Transport","duration":"02:03:10","interval":"00:20:00","operator":"Anbessa City Bus","roundtrip":"no","opening_hours":"Mo-Su 06:00-23:00","public_transport:version":"2"},"10550798":{"to":"Addis Sefer (Gebriel)","ref":"AB029","from":"Merkato (Dubai Tera)","name":"Anbessa AB029 : Merkato (Dubai Tera) => Addis Sefer (Gebriel)","type":"route","route":"bus","colour":"#E25725","network":"Addis Ababa Public Transport","duration":"01:17:06","interval":"00:20:00","operator":"Anbessa City Bus","roundtrip":"no","opening_hours":"Mo-Su 06:00-23:00","public_transport:version":"2"},"10550799":{"to":"Merkato (Dubai Tera)","ref":"AB029","from":"Addis Sefer (Gebriel)","name":"Anbessa AB029 : Addis Sefer (Gebriel) => Merkato (Dubai Tera)","type":"route","route":"bus","colour":"#E25725","network":"Addis Ababa Public Transport","duration":"01:18:03","interval":"00:20:00","operator":"Anbessa City Bus","roundtrip":"no","opening_hours":"Mo-Su 06:00-23:00","public_transport:version":"2"},"10551226":{"to":"Autobis Tera (Adarash 2)","ref":"AB028","from":"Sansusi","name":"Anbessa AB028 : Sansusi => Autobis Tera (Adarash 2)","type":"route","route":"bus","colour":"#E25725","network":"Addis Ababa Public Transport","duration":"00:50:00","interval":"00:20:00","operator":"Anbessa City Bus","roundtrip":"no","opening_hours":"Mo-Su 06:00-23:00","public_transport:version":"2"},"10551227":{"to":"Sansusi","ref":"AB028","from":"Autobis Tera (Adarash)","name":"Anbessa AB028 : Autobis Tera (Adarash) => Sansusi","type":"route","route":"bus","colour":"#E25725","network":"Addis Ababa Public Transport","duration":"01:02:10","interval":"00:20:00","operator":"Anbessa City Bus","roundtrip":"no","opening_hours":"Mo-Su 06:00-23:00","public_transport:version":"2"},"10551228":{"to":"Autobis Tera (Adarash 2)","ref":"AB047","from":"Shegole (Mender 7)","name":"Anbessa AB047 : Shegole (Mender 7) => Autobis Tera (Adarash 2)","type":"route","route":"bus","colour":"#E25725","network":"Addis Ababa Public Transport","duration":"00:38:20","interval":"00:20:00","operator":"Anbessa City Bus","roundtrip":"no","opening_hours":"Mo-Su 06:00-23:00","public_transport:version":"2"},"10551229":{"to":"Shegole (Mender 7)","ref":"AB047","from":"Autobis Tera (Adarash)","name":"Anbessa AB047 : Autobis Tera (Adarash) => Shegole (Mender 7)","type":"route","route":"bus","colour":"#E25725","network":"Addis Ababa Public Transport","duration":"00:43:00","interval":"00:20:00","operator":"Anbessa City Bus","roundtrip":"no","opening_hours":"Mo-Su 06:00-23:00","public_transport:version":"2"},"10551603":{"to":"Autobis Tera (Adarash)","ref":"AB041","from":"Eyesus","name":"Anbessa AB041 : Eyesus => Autobis Tera (Adarash)","type":"route","route":"bus","colour":"#E25725","network":"Addis Ababa Public Transport","duration":"00:51:00","interval":"00:20:00","operator":"Anbessa City Bus","roundtrip":"no","opening_hours":"Mo-Su 06:00-23:00","public_transport:version":"2"},"10551604":{"to":"Eyesus","ref":"AB041","from":"Merkato (Dubai Tera)","name":"Anbessa AB041 : Merkato (Dubai Tera) => Eyesus","type":"route","route":"bus","colour":"#E25725","network":"Addis Ababa Public Transport","duration":"00:40:00","interval":"00:20:00","operator":"Anbessa City Bus","roundtrip":"no","opening_hours":"Mo-Su 06:00-23:00","public_transport:version":"2"},"15402290":{"to":"legehar(old train station)","fee":"yes","ref":"24967","from":"akaki korkoro","name":"tracking","type":"route","route":"bus","colour":"yellow","network":"addis abeba public transport","duration":"00:02:30","interval":"30","operator":"anibesa city bus","reservation":"no","opening_hours":"08:30-12:30,15:30-20:00","public_transport:version":"2"},"15402322":{"to":"suluta","fee":"yes","ref":"17329","from":"merkato","name":"Tracking android:246ba83d560127ca","type":"route","route":"bus","colour":"yellow","network":"addis abeba public transport","duration":"00:02:30","interval":"60","operator":"anibesa city bus","reservation":"no","opening_hours":"08:30-12:30,15:30-20:00","public_transport:version":"2"},"15402481":{"to":"legehar(old train station)","fee":"yes","ref":"23519","from":"sheromeda","name":"tracking android","type":"route","route":"bus","colour":"yellow","network":"addis abeba public transport","duration":"00:02:30","interval":"30","operator":"anibesa city bus","reservation":"no","opening_hours":"08:30-12:30,15:30-20:00","public_transport:version":"2"},"15402540":{"to":"great acachi","fee":"yes","ref":"36032","from":"autobis tera","name":"tracking android","type":"route","route":"bus","colour":"yellow","network":"adis abeba public transport","duration":"00:02:30","interval":"30","operator":"anibesa city bus","reservation":"no","opening_hours":"08:30-12:30,15:30-20:00","public_transport:version":"2"},"15402577":{"to":"Autobus Tera","fee":"yes","ref":"29879","from":"Bole Medhanialem","name":"Anbessa 000: Bole Medhanialem => Autobus Tera","type":"route","route":"bus","colour":"yellow","network":"addis abeba public transport","duration":"10:30","interval":"30","operator":"anibesa city bus","reservation":"no","opening_hours":"08:30-12:30,15:30-20:00","public_transport:version":"2"},"15405615":{"to":"bole mickael","fee":"yes","ref":"37245","from":"st.george church(piassa)","name":"tracking android","type":"route","route":"bus","colour":"yellow","network":"addis abeba public transport","duration":"00:02:30","interval":"30","operator":"anibesa city bus","reservation":"no","opening_hours":"08:30-12:30,15:30-20:00","public_transport:version":"2"},"15405838":{"to":"jemo3","fee":"yes","ref":"32046","from":"legehar","name":"tracking android","type":"route","route":"bus","colour":"yellow","network":"addis abeba public transport","duration":"00:02:30","interval":"30","operator":"anibesa city bus","reservation":"no","opening_hours":"08:30-12:30,15:30-20:00","public_transport:version":"2"},"15405986":{"to":"ayertena","fee":"yes","ref":"42667","from":"kera","name":"tracking android","type":"route","route":"bus","colour":"yellow","network":"addis abeba public transport","duration":"10:30","operator":"anibesa city bus","reservation":"no","opening_hours":"08:30-12:30,15:30-20:00","public_transport:version":"2"},"15406407":{"fee":"yes","ref":"16588","from":"teji","name":"tracking android","type":"route","route":"bus","colour":"yellow","network":"addis abeba public transport","duration":"00:02:30","interval":"00:02:30","operator":"anibesa city buty","reservation":"no","opening_hours":"08:30-12:30,15:30-20:00","public_transport:version":"2"},"15406461":{"to":"zenebwork","fee":"yes","ref":"18717","from":"ayertena","name":"tracking android","type":"route","route":"bus","colour":"yellow","network":"addis abeba public transport","duration":"00:02:30","interval":"00:02:30","operator":"anibesa city bus","reservation":"no","opening_hours":"08:30-12:30,15:30-20:00","public_transport:version":"2"},"15477232":{"to":"Akaki Korkoro","fee":"yes","ref":"AB28149","from":"Legehar (Old Train Station)","name":"Anbessa AB28149 : Legehar(old station)=> Akaki Korkoro","type":"route","route":"bus","colour":"#E25725","network":"Addis Abeba Public Transport","duration":"00:50:00","interval":"00:20:00","operator":"Anbessa city bus","public_transport:version":"2"},"15477710":{"to":"Legehar (Old Train Station)","fee":"yes","ref":"AB025T2A01","from":"Akaki Korkoro","name":"Anbessa AB025T2A01 : Akaki Korokor => Legehar(old station)","type":"route","route":"bus","colour":"#CD853F","network":"Addis Ababa Public Transport","duration":"00:50:00","interval":"00:20:00","operator":"Anbessa City Bus","public_transport:version":"2"},"15479251":{"to":"Gelan","fee":"yes","ref":"AB098T2A01","from":"Saris Abo","name":"Anbessa AB098T2A01: saris abo=>gelan","type":"route","route":"bus","colour":"#CD853F","network":"Addis Ababa public transport","duration":"00:50:00","interval":"00:20:00","operator":"Anbessa City Bus","public_transport:version":"2"},"15480612":{"to":"Merkato (Dubai Tera)","fee":"yes","ref":"AB034","from":"German Square","name":"Anbessa AB034: German square => Merkato (Dubai Tera)","type":"route","route":"bus","colour":"#E25725","network":"Addis Ababa public transport","duration":"00:50:00","interval":"00:20:00","operator":"Addis Ababa Transport Bureau","opening_hours":"Mo-Su 06:00-23:00","public_transport:version":"2"},"15480652":{"to":"German Square","fee":"yes","ref":"AB034","from":"Autobis Tera (Adarash)","name":"Anbessa AB034: Autobis Tera (Adarash) => German Square","type":"route","route":"bus","colour":"#E25725","network":"Addis Abeba public transport","duration":"00:50:00","interval":"00:20:00","operator":"Addis Ababa Transport Bureau","opening_hours":"Mo-Su 06:00-23:00","public_transport:version":"2"},"15481134":{"to":"Arat Kilo","fee":"yes","ref":"AB039","from":"Meskel Square","name":"Anbessa AB039 : Meskel Square =>Arat Kilo","type":"route","route":"bus","colour":"#CD853F","network":"Addis Ababa public transport","duration":"00:50:00","interval":"00:20:00","operator":"Anbessa City Bus","public_transport:version":"2"},"15481243":{"to":"Autobus Tera","fee":"yes","ref":"AB039","from":"Kazanchis","name":"Anbessa AB039: Kazanchis => Autobus Tera","type":"route","route":"bus","colour":"#CD853F","network":"Addis Ababa public transport","duration":"00:50:00","interval":"00:20:00","operator":"Anbessa City Bus","public_transport:version":"2"},"15484447":{"to":"Piassa Arada","fee":"yes","ref":"AB048","from":"Bole Mekael","name":"Anbessa AB048 : Bole Mekael => Piassa Arada","type":"route","route":"bus","colour":"#CD853F","network":"Addis Ababa Public Transport","duration":"00:50:00","interval":"00:20:00","operator":"Anbessa City Bus","public_transport:version":"2"},"15484747":{"to":"legehar(old train station)","fee":"yes","ref":"AB067","from":"Jemo3","name":"Anbessa AB067 : Jemo3 => Legehar(old station)","type":"route","route":"bus","colour":"#CD853F","network":"Addis Ababa public transport","duration":"00:50:00","interval":"00:20:00","operator":"Anbessa City Bus","public_transport:version":"2"},"15484821":{"to":"Jemmo3","fee":"yes","ref":"AB067T2A01","from":"Legehar(old station)","name":"Anbessa AB067 : Legehar(old station)=>Jemo3","type":"route","route":"bus","colour":"#CD853F","network":"Addis Ababa public transport","duration":"00:50:00","interval":"00:20:00","operator":"Anbessa City Bus","public_transport:version":"2"},"15485879":{"to":"Summit Condominuiums","fee":"yes","ref":"AB079","from":"Arat Kilo","name":"Anbessa AB079 : Arat Kilo => Summit Condominuiums","type":"route","route":"bus","colour":"#CD853F","network":"Addis Ababa public transport","duration":"00:50:00","interval":"00:20:00","operator":"Anbessa City Bus","public_transport:version":"2"},"15485956":{"to":"Arat Kilo","fee":"yes","ref":"AB079","from":"Summit Condominuiums","name":"Anbessa AB079 : Summit Condominuiums => Arat Kilo","type":"route","route":"bus","colour":"#CD853F","network":"Addis Ababa public transport","duration":"00:50:00","interval":"00:20:00","operator":"Anbessa City Bus","public_transport:version":"2"},"15487095":{"to":"Holeta Last Station","fee":"yes","ref":"AB085","from":"Chid Tera","name":"Anbessa AB085 : Chid Tera=>Holeta Last sation","type":"route","route":"bus","colour":"#4C4CFF","network":"Addis Ababa Public Transport","duration":"00:50:00","interval":"00:20:00","operator":"Anbessa City Bus","public_transport:version":"2"},"15487222":{"to":"Autobis Tera","fee":"yes","ref":"AB085","from":"Burayu","name":"Anbessa AB085 :burayu=> Autobis Tera","type":"route","route":"bus","colour":"#CD853F","network":"Addis Ababa public transport","duration":"00:50:00","interval":"00:20:00","operator":"Anbessa City Bus","public_transport:version":"2"},"15487352":{"to":"Autobis Tera(Adarash)","fee":"yes","ref":"AB091","from":"Gerar","name":"Anbessa AB091 : Gerar=>Auto Tera(Adarash)","type":"route","route":"bus","colour":"#CD853F","network":"Addis Ababa public transport","duration":"00:50:00","interval":"00:20:00","operator":"Anbessa City Bus","public_transport:version":"2"},"15487383":{"to":"Saris Abo","fee":"yes","ref":"AB098","from":"debre gelan","name":"Saris AboAnbessa AB098 : Debre Gelan=>","type":"route","route":"bus","colour":"#CD853F","network":"Addis Ababa public transport","duration":"00:50:00","interval":"00:20:00","operator":"Anbessa City Bus","public_transport:version":"2"},"15487411":{"to":"Gelan","fee":"yes","ref":"AB098","from":"Saris Abo","name":"Anbessa AB098 :Saris Abo=> Debre Gelan","type":"route","route":"bus","colour":"#CD853F","network":"Addis Ababa public transport","duration":"00:50:00","interval":"00:20:00","operator":"Anbessa City Bus","public_transport:version":"2"},"15487437":{"to":"Tewodros Square","fee":"yes","ref":"AB003","from":"Ayer Tena Wereda 1","name":"Anbessa AB003: Ayer Tena Wereda 1 => Tewodros Square","type":"route","route":"bus","colour":"#CD853F","network":"Addis Ababa public transport","duration":"00:50:00","interval":"00:20:00","operator":"Anbessa City Bus","public_transport:version":"2"},"15487613":{"to":"Ayer Tena (Alemu Abera)","fee":"yes","ref":"AB003","from":"St. George Church","name":"Anbessa AB003: St. George Church => Ayer Tena (Alemu Abera)","type":"route","route":"bus","colour":"#CD853F","network":"Addis Ababa public transport","duration":"00:50:00","interval":"00:20:00","operator":"Anbessa City Bus","public_transport:version":"2"},"15488050":{"to":"Megenagna","fee":"yes","ref":"AB007","from":"Aleltu","name":"Anbessa AB007: Aleltu => Megenagna","type":"route","route":"bus","colour":"#CD853F","network":"Addis Ababa public transport","duration":"00:50:00","interval":"00:20:00","operator":"Anbessa City Bus","public_transport:version":"2"},"15488085":{"to":"Gurara (Ferensay)","fee":"yes","ref":"AB012","from":"Merekato(Dubia Tera","name":"Anbessa AB012 : Merekato(Dubia Tera)=>Gurara","type":"route","route":"bus","colour":"#CD853F","network":"Addis Ababa public transport","duration":"00:50:00","interval":"00:20:00","operator":"Anbessa City Bus","public_transport:version":"2"},"15488179":{"to":"Autobis Tera(Adarashi)","fee":"yes","ref":"AB012","from":"Gurara","name":"Anbessa AB012 : Gurara=> Autobis Tera(Adarashi)","type":"route","route":"bus","colour":"#CD853F","network":"Addis Ababa public transport","duration":"00:50:00","interval":"00:20:00","operator":"Anbessa City Bus","public_transport:version":"2"},"15488233":{"to":"Sansusi","fee":"yes","ref":"AB019","from":"Piassa Giorgi","name":"Anbessa AB019 : Piassa Giorgi=>Sansusi","type":"route","route":"bus","colour":"#CD853F","network":"Addis Ababa public transport","duration":"00:50:00","interval":"00:20:00","operator":"Anbessa City Bus","public_transport:version":"2"},"15488330":{"fee":"yes","ref":"AB021","from":"Sansusi","name":"Anbessa AB021 :SanSusi=>","type":"route","route":"bus","colour":"#CD853F","network":"Addis Ababa public transport","duration":"00:50:00","interval":"00:20:00","operator":"Anbessa City Bus","public_transport:version":"2"},"15488574":{"to":"File Doro","fee":"yes","ref":"AB021","from":"Autobis Tera","name":"Anbessa AB021 : Autobis Tera =>File Doro","type":"route","route":"bus","colour":"#CD853F","network":"Addis Ababa public transport","duration":"00:50:00","interval":"00:20:00","operator":"Anbessa City Bus","public_transport:version":"2"},"15488702":{"to":"Autobis Tera","fee":"yes","ref":"AB021","from":"File Doro","name":"Anbessa AB021 : File Doro=> Autobis Tera","type":"route","route":"bus","colour":"#CD853F","network":"Addis Ababa public transport","duration":"00:50:00","interval":"00:20:00","operator":"Anbessa City Bus","public_transport:version":"2"},"15520257":{"to":"Legehar (Old Train Station)","fee":"yes","ref":"AB025","from":"Akaki Korkoro","name":"Anbessa AB025 : Akaki Korokor => Legehar(old station)","type":"route","route":"bus","colour":"#CD853F","network":"Addis Ababa public transport","duration":"00:50:00","interval":"00:20:00","operator":"Anbessa City Bus","public_transport:version":"2"},"15520318":{"to":"Autobis Tera(Adarash)","fee":"yes","ref":"AB030","from":"Sululta","name":"Anbessa AB030: Sululta =>Autobis Tera(Adarash)","type":"route","route":"bus","colour":"#CD853F","network":"Addis Ababa public transport","duration":"00:50:00","interval":"00:20:00","operator":"Anbessa City Bus","public_transport:version":"2"},"15520388":{"to":"Sululta","fee":"yes","ref":"AB030","from":"Autobis Tera(Adarash)","name":"Anbessa AB030:Autobis Tera(Adarash)=>Sululta","type":"route","route":"bus","colour":"#CD853F","network":"Addis Ababa public transport","duration":"00:50:00","interval":"00:20:00","operator":"Anbessa City Bus","public_transport:version":"2"},"15520470":{"to":"Shero Meda","fee":"yes","ref":"AB031","from":"Legehar (Old Train Station)","name":"Anbessa AB031 : Legehar(Old Station) = > Shuromeda","type":"route","route":"bus","colour":"#CD853F","network":"Addis Ababa public transport","duration":"00:50:00","interval":"00:20:00","operator":"Anbessa City Bus","public_transport:version":"2"},"15520553":{"to":"Legehar (Old Train Station)","fee":"yes","ref":"AB031","from":"Shero Meda","name":"Anbessa AB031 : Shuromeda => Legehar(Old Station)","type":"route","route":"bus","colour":"#CD853F","network":"Addis Ababa public transport","duration":"00:50:00","interval":"00:20:00","operator":"Anbessa City Bus","public_transport:version":"2"},"15588630":{"to":"Mexico","fee":"yes","ref":"SH001","from":"Haile Garment","name":"Sheger SH001 : Haile Garment => Mexico","type":"route","route":"bus","colour":"#4C4CFF","network":"Addis Ababa Public Transport","duration":"00:50:00","interval":"00:20:00","operator":"Sheger City Bus","public_transport:version":"2"},"15588708":{"to":"Haile Garment","fee":"yes","ref":"SH002","from":"Mexico","name":"Sheger SH002 : Mexico=> Haile Garment","type":"route","route":"bus","colour":"#4C4CFF","network":"Addis Ababa Public Transport","duration":"00:50:00","interval":"00:20:00","operator":"Sheger City Bus","public_transport:version":"2"},"15588745":{"to":"Aba Kiros Roundabout","fee":"yes","ref":"SH003","from":"Megenagna Terminal","name":"Sheger SH003 : Megenagna Terminal => Aba Kiros Roundabout","type":"route","route":"bus","colour":"#4C4CFF","network":"Addis Ababa Public Transport","duration":"00:50:00","interval":"00:20:00","operator":"Sheger City Bus","public_transport:version":"2"},"15588800":{"fee":"yes","ref":"SH004","from":"Yeka Abado","name":"Sheger SH004 : Yeka Abado =>","type":"route","route":"bus","colour":"#4C4CFF","network":"Addis Ababa public transport","duration":"00:50:00","interval":"00:20:00","operator":"Sheger City Bus","public_transport:version":"2"},"15591121":{"to":"Megenagna Terminal","fee":"yes","ref":"SH005","from":"Summit Condominiums","name":"Sheger SH005 : Summit Condominiums <=>Megenagna Terminal","type":"route","route":"bus","colour":"#4C4CFF","network":"Addis Ababa public transport","duration":"00:50:00","interval":"00:20:00","operator":"Sheger City Bus","public_transport:version":"2"},"15591158":{"to":"Megenagna Terminal","fee":"YES","ref":"SH055","from":"Bole Arabsa","name":"Sheger SH055: Bole Arabsa => Megenagna Terminal","type":"route","route":"bus","colour":"#4C4CFF","network":"Addis Ababa Public Transport","duration":"00:50:00","interval":"00:20:00","operator":"Sheger City Bus","reservation":"NO","public_transport:version":"2"},"15591212":{"to":"Yerer Goro","fee":"yes","ref":"SH007","from":"Megenagna","name":"Sheger SH007 : Megenagna => Yerer Goro","type":"route","route":"bus","colour":"#4C4CFF","network":"Addis Ababa Public Transport","duration":"00:50:00","interval":"00:20:00","operator":"Sheger City Bus","public_transport:version":"2"},"15591213":{"to":"Megenagna","fee":"yes","ref":"SH007","from":"Yerer Goro","name":"Sheger SH007 : Yerer Goro => Megenagna","type":"route","route":"bus","colour":"#4C4CFF","network":"Addis Ababa Public Transport","duration":"00:50:00","interval":"00:20:00","operator":"Sheger City Bus","public_transport:version":"2"},"15591257":{"to":"Bole Arabsa","fee":"YES","ref":"SH055","from":"Megenagna Terminal","name":"Sheger SH055: Bole Arabsa => Megenagna Terminal","type":"route","route":"bus","colour":"#4C4CFF","network":"Addis Ababa Public Transport","duration":"00:50:00","interval":"00:20:00","operator":"Sheger City Bus","reservation":"NO","public_transport:version":"2"},"15591315":{"to":"Alem Bank","fee":"yes","ref":"SH008","from":"Mexico","name":"Sheger SH008 : Mexico => Alem Bank","type":"route","route":"bus","colour":"#4C4CFF","network":"Addis Ababa Public Transport","duration":"00:50:00","interval":"00:20:00","operator":"Sheger City Bus","public_transport:version":"2"},"15591316":{"to":"Mexico","fee":"yes","ref":"SH008","from":"Alem Bank","name":"Sheger SH008 : Alem Bank =>Mexico","type":"route","route":"bus","colour":"#4C4CFF","network":"Addis Ababa Public Transport","duration":"00:50:00","interval":"00:20:00","operator":"Sheger City Bus","public_transport:version":"2"},"15591716":{"to":"Ayer Tena","fee":"yes","ref":"SH009","from":"Autobis Tera","name":"Sheger SH009 : Autobus Tera(2) => Ayer Tena","type":"route","route":"bus","colour":"#4C4CFF","network":"Addis Ababa Public Transport","duration":"00:50:00","interval":"00:20:00","operator":"Sheger City Bus","public_transport:version":"2"},"15591717":{"fee":"yes","ref":"SH009","from":"Ayer Tena","name":"Sheger SH009 : Ayer Tena => Mexico","type":"route","route":"bus","colour":"#4C4CFF","network":"Addis Ababa Public Transport","duration":"00:50:00","interval":"00:20:00","operator":"Sheger City Bus","public_transport:version":"2"},"15591754":{"to":"Shiromeda","fee":"YES","ref":"SH028","from":"Saris Abo","name":"Sheger SH028: Saris Abo => Shiromeda","type":"route","route":"bus","colour":"#4C4CFF","network":"Addis Ababa Public Transport","duration":"00:50:00","interval":"00:20:00","operator":"Sheger City Bus","reservation":"NO","public_transport:version":"2"},"15591848":{"to":"Saris Abo","fee":"YES","ref":"SH028","from":"Shiromeda","name":"Sheger SH028: Shiromeda => Saris Abo","type":"route","route":"bus","colour":"#4C4CFF","network":"Addis Ababa Public Transport","duration":"00:50:00","interval":"00:20:00","operator":"Sheger City Bus","reservation":"NO","public_transport:version":"2"},"15591891":{"to":"Shiromeda","fee":"YES","ref":"SH035","from":"Megenagna Terminal","name":"Sheger SH035: Megenagna Terminal => Shiromeda","type":"route","route":"bus","colour":"#4C4CFF","network":"Addis Ababa Public Transport","duration":"00:50:00","interval":"00:20:00","operator":"Sheger City Bus","reservation":"NO","public_transport:version":"2"},"15595786":{"to":"Megenagna Terminal","fee":"YES","ref":"SH035","from":"Shiromeda","name":"Sheger SH035: Shiromeda => Megenagna Terminal","type":"route","route":"bus","colour":"#4C4CFF","network":"Addis Ababa Public Transport","duration":"00:50:00","interval":"00:20:00","operator":"Sheger City Bus","reservation":"NO","public_transport:version":"2"},"15596592":{"to":"Autobus Tera","fee":"yes","ref":"SH010","from":"Tropical","name":"Sheger SH010 : Tropical => Autobus Tera","type":"route","route":"bus","colour":"#4C4CFF","network":"Addis Ababa Public Transport","duration":"00:50:00","interval":"00:20:00","operator":"Sheger City Bus","public_transport:version":"2"},"15597982":{"to":"Mexico","fee":"yes","ref":"SH011","from":"Megenagna","name":"Sheger SH011 : Megenagna => Mexico","type":"route","route":"bus","colour":"#4C4CFF","network":"Addis Ababa public Transportl","duration":"00:50:00","interval":"00:20:00","operator":"Sheger City Bus","public_transport:version":"2"},"15597983":{"to":"Megenagna (CBE Bank)","fee":"yes","ref":"SH011","from":"Mexico","name":"Sheger SH011 : Mexico=> Mgenagna","type":"route","route":"bus","colour":"#4C4CFF","network":"Addis Ababa Public Transport","duration":"00:50:00","interval":"00:20:00","operator":"Sheger City Bus","public_transport:version":"2"},"15598024":{"to":"Mexico","fee":"yes","ref":"SH013","from":"Shero Meda","name":"Sheger SH013: Shero Meda=> Mxico","type":"route","route":"bus","colour":"#4C4CFF","network":"Addis Ababa Light Rail","duration":"00:50:00","interval":"00:20:00","operator":"Sheger City Bus","public_transport:version":"2"},"15598066":{"to":"Sansusi","fee":"yes","ref":"SH012","from":"Autobis Tera","name":"Sheger SH012 : Autobis Tera => Sunsusi","type":"route","route":"bus","colour":"#4C4CFF","network":"Addis Ababa Public Transport","duration":"00:50:00","interval":"00:20:00","operator":"Sheger City Bus","public_transport:version":"2"},"15598067":{"to":"Autobis Tera","fee":"yes","ref":"SH012","from":"Sansusi","name":"Sheger SH012 ;Sunsusi => Autobis Tera","type":"route","route":"bus","colour":"#4C4CFF","network":"Addis Ababa Public Transport","duration":"00:50:00","interval":"00:20:00","operator":"Sheger City Bus","public_transport:version":"2"},"15598928":{"to":"Beret Dildy(Gurara)","fee":"yes","ref":"SH014","from":"Arat Kilo","name":"Sheger SH014 :Arat Kilo => Beret Dildy(Gurara)","type":"route","route":"bus","colour":"#4C4CFF","network":"Addis abeba public transport","duration":"00:50:00","interval":"00:20:00","operator":"Sheger City Bus","public_transport:version":"2"},"15598929":{"to":"Arat Kilo","fee":"yes","ref":"SH014","from":"Beret Dildye (Gurara)","name":"Sheger SH014 : Beret Dildy(Gurara) =>Arat Kilo","type":"route","route":"bus","colour":"#4C4CFF","network":"Addis Ababa Public Transport","duration":"00:50:00","interval":"00:20:00","operator":"Sheger City Bus","public_transport:version":"2"},"15600954":{"to":"Bole Millenium","fee":"yes","ref":"SH015","from":"Arat Kilo","name":"Sheger SH015 : Arat Kilo => Bole Millenium","type":"route","route":"bus","colour":"#4C4CFF","network":"Addis Ababa Public Transport","duration":"00:50:00","interval":"00:20:00","operator":"Sheger City Bus","public_transport:version":"2"},"15600955":{"to":"Arat Kilo","fee":"yes","ref":"SH014","from":"Bole Millenium","name":"Sheger SH015 : Bole Millenium => Arat Kilo","type":"route","route":"bus","colour":"#4C4CFF","network":"Addis Ababa Public Transport","duration":"00:50:00","interval":"00:20:00","operator":"Sheger City Bus","public_transport:version":"2"},"15601016":{"to":"Piassa","fee":"yes","ref":"SH016","from":"Abo Junction","name":"Sheger SH016 : Abo Junction => Piassa","type":"route","route":"bus","colour":"#4C4CFF","network":"Addis Abeba Public Transport","duration":"00:50:00","interval":"00:20:00","operator":"Sheger City Bus","public_transport:version":"2"},"15601809":{"to":"Piassa Arada","fee":"yes","ref":"SH018","from":"Dil Ber","name":"Sheger SH018 : Dil Ber=>: Piassa Arada","type":"route","route":"bus","colour":"#4C4CFF","network":"addis abeba public transport","duration":"00:50:00","interval":"00:20:00","operator":"Sheger City Bus","public_transport:version":"2"},"15601842":{"to":"Mexico","fee":"yes","ref":"Sh021","from":"Jemmo 2","name":"ShegerSH021 : Jemmo2 => Mexico","type":"route","route":"bus","colour":"#4C4CFF","network":"addis abeba public transport","duration":"00:50:00","interval":"00:20:00","operator":"Sheger City Bus","public_transport:version":"2"},"15601900":{"to":"Hana Mariam","fee":"yes","ref":"SH022","from":"Mexico","name":"Sheger SH022 : Mexico => Hana Mariam","type":"route","route":"bus","colour":"#4C4CFF","network":"Addis Abeba Public Transport","duration":"00:50:00","interval":"00:20:00","operator":"Sheger City Bus","public_transport:version":"2"},"15601901":{"to":"Mexico","fee":"yes","ref":"SH022","from":"Hana Mariam","name":"Sheger SH022 : Hana Mariam =>Mexico","type":"route","route":"bus","colour":"#4C4CFF","network":"addis abeba public transport","duration":"00:50:00","interval":"00:20:00","operator":"Sheger City Bus","public_transport:version":"2"},"15601977":{"to":"Mebrat Condominium","fee":"yes","ref":"SH020","from":"Piassa","name":"Sheger SH020 : Piassa => Mebrat Condominium","type":"route","route":"bus","colour":"#4C4CFF","network":"Addis Ababa Public Transport","duration":"00:50:00","interval":"00:20:00","operator":"Sheger City Bus","public_transport:version":"2"},"15601978":{"to":"Piassa","fee":"yes","ref":"SH020","from":"Mebrat Condominium","name":"Sheger SH020 : Mebrat Condominium => Piassa","type":"route","route":"bus","colour":"#4C4CFF","network":"Addis Ababa Public Transport","duration":"00:50:00","interval":"00:20:00","operator":"Sheger City Bus","public_transport:version":"2"},"15602052":{"to":"Lafto","fee":"yes","ref":"SH024","from":"Mexico","name":"Sheger SH024 : Mexico => Lafto","type":"route","route":"bus","colour":"#4C4CFF","network":"Addis Abeba Public Transport","duration":"00:50:00","interval":"00:20:00","operator":"Sheger City Bus","public_transport:version":"2"},"15602148":{"to":"Yeka Abado","fee":"YES","ref":"SH033","from":"Piassa","name":"Sheger SH033: Piassa => Yeka Abado","type":"route","route":"bus","colour":"#4C4CFF","network":"Addis Ababa Public Transport","duration":"00:50:00","interval":"00:20:00","operator":"Sheger City Bus","reservation":"NO","public_transport:version":"2"},"15602159":{"to":"Sefera","fee":"yes","ref":"SH023","from":"Mexico","name":"Sheger SH023 : Mexico => Sefera","type":"route","route":"bus","colour":"#4C4CFF","network":"Addis Abeba Public Transport","duration":"00:50:00","interval":"00:20:00","operator":"Sheger City Bus","public_transport:version":"2"},"15602160":{"to":"Mexico","fee":"yes","ref":"Sh023","from":"Sefera","name":"Sheger SH023 : Sefera =>Mxico","type":"route","route":"bus","colour":"#4C4CFF","network":"Addis Abeba Public Transport","duration":"00:50:00","interval":"00:20:00","operator":"Sheger City Bus","public_transport:version":"2"},"15602430":{"to":"Piassa","fee":"YES","ref":"SH033","from":"Yeka Abado","name":"Sheger SH033: Yeka Abado => Piassa","type":"route","route":"bus","colour":"#4C4CFF","network":"Addis Ababa public transport","duration":"00:50:00","interval":"00:20:00","operator":"Sheger City Bus","reservation":"NO","public_transport:version":"2"},"15743389":{"to":"Legehar (Old Train Station)","ref":"AB061","from":"Ayat Chefe Condominium","name":"Anbessa AB061: Ayat Chefe Condominium => Legehar (Old Train Station)","type":"route","route":"bus","colour":"#E25725","network":"Addis Ababa Public Transport","duration":"01:06:59","interval":"00:20:00","operator":"Anbessa City Bus","roundtrip":"no","opening_hours":"Mo-Su 06:00-23:00","public_transport:version":"2"},"15743390":{"to":"Aleltu","fee":"yes","ref":"AB007","from":"Megenagna","name":"Anbessa AB007: Megenagna => Aleltu","type":"route","route":"bus","colour":"#CD853F","network":"Addis Ababa public transport","duration":"00:50:00","interval":"00:20:00","operator":"Anbessa City Bus","public_transport:version":"2"},"15865710":{"to":"Alem Bank","fee":"yes","ref":"AB1","from":"Legehar (Old Train Station)","name":"Anbessa AB1: Legehar(old Station) => Alem Bank","type":"route","route":"bus","colour":"#CD853F","network":"Addis Ababa public Transportl","duration":"00:22:52","interval":"00:50:00","operator":"Addis Ababa Public Transport Buruea","public_transport:version":"2"},"15865711":{"to":"Autobis Tera Adarash","fee":"yes","ref":"AB1","from":"Alem Bank","name":"Anbessa AB1: Alem Bank=>Autobis Tera Adarash","type":"route","route":"bus","colour":"#4C4CFF","network":"Addis Ababa Public Transport","duration":"00:22:52","interval":"00:50:00","operator":"Addis Ababa Public Transport Buruea","public_transport:version":"2"},"15875888":{"to":"Alem Bank","fee":"yes","ref":"AB2","from":"Legehar (Old Train Station)","name":"Anbessa AB2 : Legehar(Old Station) => Alem Bank","type":"route","route":"bus","colour":"#CD853F","network":"Addis Ababa public Transportl","duration":"00:20:38","interval":"00:50:00","operator":"Addis Ababa Public Transport Buruea","public_transport:version":"2"},"15875889":{"to":"Autobis Tera Adarash","fee":"yes","ref":"AB2","from":"Saris Abo","name":"Anbessa AB2 : Saris Abo => Autobis Tera Adarash","type":"route","route":"bus","colour":"#CD853F","network":"Addis Ababa Public Transport","duration":"00:20:38","interval":"00:50:00","operator":"Addis Ababa Public Transport Buruea","public_transport:version":"2"},"15880331":{"to":"Jemo 3","fee":"yes","ref":"AB3","from":"Autobis Tera","name":"Anbessa AB3 : Autobis Tera => Jemo 3","type":"route","route":"bus","colour":"#CD853F","network":"Addis Ababa public Transportl","duration":"00:20:38","interval":"00:50:00","operator":"Addis Ababa Public Transport Buruea","public_transport:version":"2"},"15880332":{"to":"Autobis Tera","fee":"yes","ref":"AB3","from":"Jemo 3","name":"Anbessa AB3:Jemo 3 => Autobis Tera","type":"route","route":"bus","colour":"#CD853F","network":"Addis Ababa public Transportl","duration":"00:20:38","interval":"00:50:00","operator":"Addis Ababa Public Transport Buruea","public_transport:version":"2"},"15880459":{"to":"Betel","fee":"yes","ref":"AB4","from":"Legehar (Old Train Station)","name":"Anbessa AB4 : legehar(old Station)=> Betel","type":"route","route":"bus","colour":"#CD853F","network":"Addis Ababa public Transportl","duration":"00:20:00","interval":"00:50:00","operator":"Addis Ababa Public Transport Buruea","public_transport:version":"2"},"15880460":{"to":"Legehar (Old Train Station)","fee":"yes","ref":"AB4","from":"Betel","name":"Anbessa AB4: Betel => Legehar(old Train Station)","type":"route","route":"bus","colour":"#CD853F","network":"Addis Ababa public Transportl","duration":"00:20:00","interval":"00:50:00","operator":"Addis Ababa Public Transport Buruea","public_transport:version":"2"}}