{"1751367":{"ref":"N226","name":"Marshrutka 226","type":"route","route":"bus","network":"tm.ge","operator":"tm.ge"},"1901052":{"ref":"N100","name":"N100","type":"route","fixme":"northern end in Gldani and western and in Nutsubidze incomplete","route":"bus","network":"tm.ge","operator":"tm.ge","wheelchair":"no"},"2573769":{"ref":"1","name":"ავტობუსი # 1 წრიული","type":"route","route":"bus","source":"www.rustavi.ge","name:en":"№1 – circular route","network":"Rustavi Local Bus Route","interval":"24","operating_hours":"07:39-19:14"},"2573803":{"ref":"2","name":"ავტობუსი # 2 წრიული","type":"route","route":"bus","source":"www.rustavi.ge","name:en":"№2 – circular route","network":"Rustavi Local Bus Route","interval":"24","operating_hours":"06:24-19:04"},"2574013":{"to":"ქუთაისის მოედანი","ref":"4","from":"მეტალურგიული ქარხანა","name":"ავტობუსი # 4 წრიული","type":"route","route":"bus","name:en":"№4 – circular route","network":"Rustavi Local Bus Route","interval":"24","operating_hours":"07:20-19:48"},"2574110":{"to":"XI მკ/რ","ref":"5","from":"მეტალურიული ქარხანა","name":"ავტობუსი # 5 წრიული","type":"route","route":"bus","name:en":"№5 – circular route","network":"Rustavi Local Bus Route","interval":"36","operating_hours":"07:28-19:59"},"2574157":{"to":"ლეონიძის ქუჩა","ref":"6","from":"სამგორის ქუჩა","name":"ავტობუსი # 6 წრიული","type":"route","route":"bus","source":"www.rustavi.ge","name:en":"№6 – circular route","network":"Rustavi Local Bus Route","interval":"45","operating_hours":"07:15-19:00"},"2574218":{"to":"XXI მკ/რ","ref":"7","from":"უნივერმაღი რჩეულიშვილის ქუჩა #12 (სიახლე)","name":"ავტობუსი # 7 წრიული","type":"route","route":"bus","source":"www.rustavi.ge","name:en":"№7 – circular route","network":"Rustavi Local Bus Route","interval":"24","operating_hours":"07:04-19:50"},"2918655":{"to":"Station Square","fee":"yes","ref":"37","from":"Airport","name":"Bus 37: Airport => Station Square","type":"route","fixme":"add bus stops in the city center","route":"bus","charge":"0.5 GEL","network":"ttc.com.ge","operator":"Tbilisi Transport Company","opening_hours":"07:00-24:09","public_transport:version":"2"},"2971959":{"ref":"28","name":"28","type":"route","route":"bus","operator":"Tbilisi Transport Company"},"3455390":{"ref":"8","name":"Bus Route #8","type":"route","route":"bus"},"5541927":{"bus":"marshrutka","ref":"34","name":"34","type":"route","route":"bus"},"5542871":{"bus":"marshrutka","ref":"4","name":"4","type":"route","route":"bus"},"5547083":{"bus":"marshrutka","ref":"1 წრიული (მარცხენა)","name":"მარშრუტი 1 წრიული (მარცხენა)","type":"route","route":"bus"},"6576272":{"to":"აეროპორტის გზა.(აეროპორტი)","fee":"yes","ref":"10","from":"ბათუმის ბოტანიკური ბაღი","name":"№10: ბოტანიკური ბაღი - აეროპორტი","type":"route","route":"bus","name:en":"#10: Botanical Garden - Airport","name:ka":"№10: ბოტანიკური ბაღი - აეროპორტი","name:ru":"№10: Ботанический сад - Аэропорт","network":"ბათუმის ავტოტრანსპორტი","website":"https://batauto.ge/%E1%83%92%E1%83%A0%E1%83%90%E1%83%A4%E1%83%98%E1%83%99%E1%83%94%E1%83%91%E1%83%98","interval":"34","operator":"შპს \\\"ბათუმის ავტოტრანსპორტი\\\"","reservation":"no","opening_hours":"Mo-Su 06:40-23:40","public_transport:version":"2"},"6993590":{"ref":"502","name":"მახათას მთა - გადასასვლელი ხიდი","type":"route","route":"bus","name:en":"Makhatas Mta - Gadasasvleli Khidi","name:ka":"მახათას მთა - გადასასვლელი ხიდი"},"7559365":{"to":"რუსთაველი","ref":"124","from":"მთაწმინდის პარკი","name":"Bus 124: მთაწმინდის პარკი <=> რუსთაველი","type":"route","route":"bus","name:en":"Bus 124: Mtatsminda Park <=> Rustaveli","network":"TTC","operator":"TTC","public_transport:version":"1"},"7564524":{"to":"Oqrokana","ref":"90","from":"Baratashvili Street","name":"Bus 90: Baratashvili Street <=> Oqrokana","type":"route","route":"bus","colour":"green","network":"TTC","operator":"TTC","operator:website":"http://ttc.com.ge/","public_transport:version":"1"},"7771814":{"to":"ბათუმის ბოტანიკური ბაღი","fee":"yes","ref":"10","from":"აეროპორტის გზა.(აეროპორტი)","name":"№10: აეროპორტი - ბოტანიკური ბაღი","type":"route","route":"bus","name:en":"#10: Airport - Botanical Garden","name:ka":"№10: აეროპორტი - ბოტანიკური ბაღი","name:ru":"№10: Аэропорт - Ботанический сад","network":"ბათუმის ავტოტრანსპორტი","website":"https://batauto.ge/%E1%83%92%E1%83%A0%E1%83%90%E1%83%A4%E1%83%98%E1%83%99%E1%83%94%E1%83%91%E1%83%98","interval":"34","operator":"შპს \\\"ბათუმის ავტოტრანსპორტი\\\"","reservation":"no","opening_hours":"Mo-Su 06:40-23:40","public_transport:version":"2"},"7772749":{"to":"აღმაშენებლის ქუჩა","fee":"yes","ref":"1ა","from":"აღმაშენებლის ქუჩა","name":"№1ა: აღმაშენებლის ქ – ნონეშვილის ქ.","type":"route","route":"bus","name:en":"#1A: Agmashenebeli St. - Noneshvili St.","name:ka":"№1ა: აღმაშენებლის ქ – ნონეშვილის ქ.","name:ru":"№1А: Агмашенебели ул. - Нонешвили ул.","network":"ბათუმის ავტოტრანსპორტი","website":"https://batauto.ge/%E1%83%92%E1%83%A0%E1%83%90%E1%83%A4%E1%83%98%E1%83%99%E1%83%94%E1%83%91%E1%83%98","interval":"12","operator":"შპს \\\"ბათუმის ავტოტრანსპორტი\\\"","roundtrip":"yes","reservation":"no","opening_hours":"Mo-Su 07:10-23:34","public_transport:version":"2"},"7776810":{"ref":"12ა","name":"№12ა: თბილისის მოედანი - თბილისის მოედანი","type":"route","route":"bus","name:en":"#12A: Mayakovsky Street - Makho bridge","name:ka":"№12ა: თბილისის მოედანი - თბილისის მოედანი","name:ru":"№12А: Улица Маяковского - мост Махо","operator":"შპს \\\"ბათუმის ავტოტრანსპორტი\\\"","public_transport:version":"2"},"7777921":{"ref":"16","name":"№16: თბილისის მოედანი - სარფი","type":"route","route":"bus","name:en":"#16: Mayakovsky Street - Sarpi","name:ka":"№16: თბილისის მოედანი - სარფი","name:ru":"№16: Улица Маяковского - Сарпи","operator":"შპს \\\"ბათუმის ავტოტრანსპორტი\\\"","public_transport:version":"2"},"7779686":{"to":"ლეხ და მარია კაჩინსკების ქ. ეუფორია","fee":"yes","ref":"3","from":"აფხაზეთის ქუჩა","name":"№3: აფხაზეთის ქ - კაჩინსკების ქ","type":"route","route":"bus","name:en":"#3: Apkhazeti street - Kaczynski street","name:ka":"№3: აფხაზეთის ქ - კაჩინსკების ქ","name:ru":"№3: улица Апхазети - улица Качиньских","network":"ბათუმის ავტოტრანსპორტი","website":"https://batauto.ge/%E1%83%92%E1%83%A0%E1%83%90%E1%83%A4%E1%83%98%E1%83%99%E1%83%94%E1%83%91%E1%83%98","interval":"14","operator":"შპს \\\"ბათუმის ავტოტრანსპორტი\\\"","reservation":"no","opening_hours":"Mo-Su 07:00-23:06","public_transport:version":"2"},"7815312":{"to":"აღმაშენებლის ქუჩა","fee":"yes","ref":"4","from":"სვიშვესკი ქუჩა","name":"№4: სვიშევსკის ქ - აღმაშენებლის ქ","type":"route","route":"bus","name:en":"#4: Svishevsky st. - Aghmashenebeli st.","name:ka":"№4: სვიშევსკის ქ - აღმაშენებლის ქ","name:ru":"№4: ул. Свишевского - ул. Агмашенебели","network":"ბათუმის ავტოტრანსპორტი","website":"https://batauto.ge/%E1%83%92%E1%83%A0%E1%83%90%E1%83%A4%E1%83%98%E1%83%99%E1%83%94%E1%83%91%E1%83%98","interval":"12","operator":"შპს \\\"ბათუმის ავტოტრანსპორტი\\\"","reservation":"no","opening_hours":"Mo-Su 07:10-23:34","public_transport:version":"2"},"7816037":{"to":"ივანე მესხის ქუჩა","fee":"yes","ref":"9","from":"ჯემალ ქათამაძის ქუჩა","name":"№9: ქათამაძის ქ - ივანე მესხის ქ","type":"route","route":"bus","name:en":"#9: Katamadze Street - Meskhi Street","name:ka":"№9: ქათამაძის ქ - ივანე მესხის ქ","name:ru":"№9: улица Катамадзе - улица Месхи","network":"ბათუმის ავტოტრანსპორტი","website":"https://batauto.ge/%E1%83%92%E1%83%A0%E1%83%90%E1%83%A4%E1%83%98%E1%83%99%E1%83%94%E1%83%91%E1%83%98","interval":"15","operator":"შპს \\\"ბათუმის ავტოტრანსპორტი\\\"","reservation":"no","opening_hours":"Mo-Su 07:00-23:00","public_transport:version":"2"},"7945420":{"ref":"4","name":"4","type":"route","route":"bus","network":"ttc.com.ge","operator":"ttc.com.ge","standard_service_frequency":"1 / 40 minutes"},"7945421":{"to":"კოჯორი","ref":"10","from":"ბარათაშვილის ქუჩა","name":"Bus 10: ბარათაშვილის ქუჩა => კოჯორი","note":"Not completed since one of the two destination stations (ბარათაშვილის ქუჩა) is not reached by the relation.","type":"route","route":"bus","network":"ttc.com.ge","operator":"ttc.com.ge","public_transport:version":"1","standard_service_frequency":"1 / 37 minutes"},"7945423":{"to":"კიკეთი","ref":"316","from":"ბარათაშვილის ქუჩა","name":"ბარათაშვილის ქუჩა => კიკეთი","note":"Not completed since one of the two destination stations (ბარათაშვილის ქუჩა) is not reached by the relation.","type":"route","route":"bus","network":"ttc.com.ge","operator":"ttc.com.ge","public_transport:version":"1","standard_service_frequency":"1 / 40 minutes"},"7945424":{"to":"9 აპრილის სახელობის ბაღი","ref":"112","from":"შინდისი","name":"Bus 112: შინდისი => 9 აპრილის სახელობის ბაღი","type":"route","route":"bus","network":"ttc.com.ge","operator":"ttc.com.ge","public_transport:version":"1","standard_service_frequency":"1 / 40 minutes"},"8167993":{"ref":"100","name":"მარშრუტკა 100","type":"route","route":"bus"},"8168010":{"ref":"4","name":"მარშრუტკა 4","type":"route","route":"bus"},"8171400":{"ref":"5","name":"მარშრუტკა 5","type":"route","route":"bus"},"8242747":{"ref":"31","name":"მარშრუტკა 31","type":"route","route":"bus"},"8242752":{"ref":"3","name":"მარშრუტკა 3","type":"route","route":"bus"},"8249163":{"ref":"17","name":"მარშრუტკა 17","type":"route","route":"bus"},"8410788":{"ref":"9","name":"მარშრუტკა 9","type":"route","route":"bus"},"8425766":{"ref":"23ა","name":"მარშრუტკა 23ა","type":"route","route":"bus"},"8726971":{"ref":"31","name":"31","type":"route","route":"bus"},"8756131":{"ref":"44","name":"44","type":"route","route":"bus"},"8811432":{"to":"მამია ვარშანიძის ქუჩა","fee":"yes","ref":"7ა","from":"მამია ვარშანიძის ქუჩა","name":"№7ა: ვარშანიძის ქ (წრიული, საათის ისრის საწინააღმდეგოდ) - ვარშანიძის ქ","type":"route","route":"bus","name:en":"#7A: Varshanidze Street (loop route, counterclockwise) - Varshanidze Street","name:ka":"№7ა: ვარშანიძის ქ (წრიული, საათის ისრის საწინააღმდეგოდ) - ვარშანიძის ქ","name:ru":"№7А: ул. Варшанидзе (кольцевой, против часовой стрелки) - ул. Варшанидзе","name:tr":"#7A: Varshanidze caddesinde (döngü yolu, saat yönünün tersine) - Varshanidze caddesinde","network":"ბათუმის ავტოტრანსპორტი","website":"https://batauto.ge/%E1%83%92%E1%83%A0%E1%83%90%E1%83%A4%E1%83%98%E1%83%99%E1%83%94%E1%83%91%E1%83%98","interval":"15","operator":"შპს \\\"ბათუმის ავტოტრანსპორტი\\\"","roundtrip":"yes","reservation":"no","opening_hours":"Mo-Su 07:38-23:08","public_transport:version":"2"},"9100812":{"ref":"ავტობუსი 1","name":"ავტობუსი 1","type":"route","route":"bus"},"9101188":{"ref":"777","name":"მარშრუტკა 777","type":"route","route":"bus"},"9481738":{"ref":"23","name":"მარშრუტკა 23","type":"route","route":"bus"},"9481981":{"ref":"6","name":"მარშრუტკა 6","type":"route","route":"bus"},"9482467":{"ref":"35","name":"მარშრუტკა 35","type":"route","route":"bus"},"9482626":{"ref":"28","name":"მარშრუტკა 28","type":"route","route":"bus"},"9484428":{"ref":"20","name":"ავტობუსი 20","type":"route","route":"bus"},"9484517":{"ref":"21","name":"მარშრუტკა 21","type":"route","route":"bus","public_transport:version":"2"},"9484621":{"ref":"8","name":"მარშრუტკა 8","type":"route","route":"bus"},"9484733":{"ref":"19","name":"მარშრუტკა 19","type":"route","route":"bus"},"9484864":{"ref":"31","name":"ავტობუსი 31","type":"route","route":"bus"},"9535032":{"ref":"12ა","name":"№12ა: მახოს სახლი - თბილისის მოედანი","type":"route","route":"bus","name:en":"#12A: Makho Bridge - Mayakovsky Street","name:ka":"№12ა: მახოს სახლი - თბილისის მოედანი","name:ru":"№12А: Мост Махо - Улица Маяковского","operator":"შპს \\\"ბათუმის ავტოტრანსპორტი\\\"","public_transport:version":"2"},"9570574":{"ref":"16","name":"№16: სარფი - თბილისის მოედანი","type":"route","route":"bus","name:en":"#16: Sarpi - Mayakovsky Street","name:ka":"№16: სარფი - თბილისის მოედანი","name:ru":"№16: Сарпи - Улица Маяковского","operator":"შპს \\\"ბათუმის ავტოტრანსპორტი\\\"","public_transport:version":"2"},"10105387":{"ref":"1 წრიული (მარჯვენა)","name":"მარშრუტი 1 წრიული (მარჯვენა)","type":"route","route":"bus","network":"kutaisi.gov.ge"},"10181086":{"ref":"15","name":"მარშრუტკა 15","type":"route","route":"bus"},"10181165":{"ref":"16","name":"მარშრუტკა 16","type":"route","route":"bus"},"10223420":{"ref":"39","name":"მარშრუტკა 39","type":"route","route":"bus"},"10304051":{"to":"ვარლამიშვილის მოედანი","ref":"6ა","from":"28-ე სკოლა","name":"მარშრუტკა 6ა","type":"route","route":"bus","public_transport:version":"2"},"12290585":{"to":"Peradze st.","ref":"1ა","from":"Gorgasali st.","name":"1ა","type":"route","route":"bus","network":"Gori Bus Network","operator":"Gori Municipality"},"12290834":{"to":"Peradze st.","ref":"1ბ","from":"Gorgasali st.","name":"1ბ","type":"route","route":"bus","network":"Gori Bus Network","operator":"Gori Municipality"},"12291029":{"to":"Railway Station","ref":"2","from":"Defence Academy","name":"2","type":"route","route":"bus","network":"Gori Bus Network","operator":"Gori Municipality"},"12291201":{"to":"Elektropikatsia","ref":"2ა","from":"Defence Academy","name":"2ა","type":"route","route":"bus","network":"Gori Bus Network","operator":"Gori Municipality"},"12291202":{"to":"Oil Base","ref":"2ბ","from":"Defence Academy","name":"2ბ","type":"route","route":"bus","network":"Gori Bus Network","operator":"Gori Municipality"},"12293310":{"to":"Nadiradze st.","ref":"3","from":"Tiniskhidi","name":"3","type":"route","route":"bus","network":"Gori Bus Network","operator":"Gori Municipality"},"12293424":{"to":"Mtkvartskalmsheni","ref":"4","from":"Tiniskhidi","name":"4","type":"route","route":"bus","network":"Gori Bus Network","operator":"Gori Municipality"},"12293665":{"to":"Chubinishvili st.","ref":"5","from":"Ortasheni","name":"5","type":"route","route":"bus","network":"Gori Bus Network","operator":"Gori Municipality"},"12293781":{"to":"Peradze st.","ref":"6","from":"Vologda Settlement","name":"6","type":"route","route":"bus","network":"Gori Bus Network","operator":"Gori Municipality"},"12293927":{"to":"Public Service Hall (Circular)","ref":"7","from":"Public Service Hall (Circular)","name":"7","type":"route","route":"bus","network":"Gori Bus Network","operator":"Gori Municipality"},"12379913":{"to":"Defence Academy","ref":"3ა","from":"Tiniskhidi","name":"3ა","type":"route","route":"bus","network":"Gori Bus Network","operator":"Gori Municipality"},"12379918":{"to":"Berbuki","ref":"4ა","from":"Tiniskhidi","name":"4ა","type":"route","route":"bus","network":"Gori Bus Network","operator":"Gori Municipality"},"12380250":{"to":"Railway Station","ref":"5ა","from":"Ortasheni","name":"5ა","type":"route","route":"bus","network":"Gori Bus Network","operator":"Gori Municipality"},"13379920":{"to":"Аэропорт","ref":"58","from":"КПП Псоу","name":"Автобус 58: КПП Псоу → Аэропорт","type":"route","route":"bus","public_transport:version":"2"},"13711425":{"to":"Airport","fee":"yes","ref":"37","from":"Station Square","name":"Bus 37: Station Square => Airport","type":"route","fixme":"add bus stops in the city center","route":"bus","charge":"0.5 GEL","network":"ttc.com.ge","operator":"Tbilisi Transport Company","opening_hours":"06:00-23:55","public_transport:version":"2"},"14245657":{"to":"აღმაშენებლის ქუჩა","fee":"yes","ref":"1","from":"აღმაშენებლის ქუჩა","name":"№1: აღმაშენებლის ქ – ნონეშვილის ქ.","type":"route","route":"bus","name:en":"#1: Agmashenebeli St. - Noneshvili St.","name:ka":"№1: აღმაშენებლის ქ – ნონეშვილის ქ.","name:ru":"№1: Агмашенебели ул. - Нонешвили ул.","network":"ბათუმის ავტოტრანსპორტი","website":"https://batauto.ge/%E1%83%92%E1%83%A0%E1%83%90%E1%83%A4%E1%83%98%E1%83%99%E1%83%94%E1%83%91%E1%83%98","interval":"12","operator":"შპს \\\"ბათუმის ავტოტრანსპორტი\\\"","roundtrip":"yes","reservation":"no","opening_hours":"Mo-Su 07:00-23:36","public_transport:version":"2"},"14402549":{"ref":"12","name":"№12: თბილისის მოედანი - ხელვაჩაური","type":"route","route":"bus","name:en":"#12: Mayakovsky Street - Khelvachauri","name:ka":"№12: თბილისის მოედანი - ხელვაჩაური","name:ru":"№12: Улица Маяковского - Хелвачаури","operator":"შპს \\\"ბათუმის ავტოტრანსპორტი\\\"","public_transport:version":"2"},"14402550":{"ref":"12","name":"№12: ხელვაჩაური - თბილისის მოედანი","type":"route","route":"bus","name:en":"#12: Khelvachauri - Mayakovsky Street","name:ka":"№12: ხელვაჩაური - თბილისის მოედანი","name:ru":"№12: Хелвачаури - Улица Маяковского","operator":"შპს \\\"ბათუმის ავტოტრანსპორტი\\\"","public_transport:version":"2"},"14402611":{"to":"აეროპორტის გზა.(აეროპორტი)","fee":"yes","ref":"10ა","from":"სახალვაშო","name":"№10ა: სახალვაშო - აეროპორტი","type":"route","route":"bus","name:en":"#10A: Sakhalvasho - Airport","name:ka":"№10ა: სახალვაშო - აეროპორტი","name:ru":"№10А: Сахалвашо - Аэропорт","network":"ბათუმის ავტოტრანსპორტი","website":"https://batauto.ge/%E1%83%92%E1%83%A0%E1%83%90%E1%83%A4%E1%83%98%E1%83%99%E1%83%94%E1%83%91%E1%83%98","interval":"34","operator":"შპს \\\"ბათუმის ავტოტრანსპორტი\\\"","opening_hours":"Mo-Su 06:50-23:50","public_transport:version":"2"},"14402612":{"to":"სახალვაშო","fee":"yes","ref":"10ა","from":"აეროპორტის გზა.(აეროპორტი)","name":"№10ა: აეროპორტი - სახალვაშო","type":"route","route":"bus","name:en":"#10A: Airport - Sakhalvasho","name:ka":"№10ა: აეროპორტი - სახალვაშო","name:ru":"№10А: Аэропорт - Сахалвашо","network":"ბათუმის ავტოტრანსპორტი","website":"https://batauto.ge/%E1%83%92%E1%83%A0%E1%83%90%E1%83%A4%E1%83%98%E1%83%99%E1%83%94%E1%83%91%E1%83%98","interval":"34","operator":"შპს \\\"ბათუმის ავტოტრანსპორტი\\\"","reservation":"no","opening_hours":"Mo-Su 06:50-23:50","public_transport:version":"2"},"14411990":{"to":"მამია ვარშანიძის ქუჩა","fee":"yes","ref":"7","from":"მამია ვარშანიძის ქუჩა","name":"№7: ვარშანიძის ქ (წრიული, საათის ისრის მიმართულებით) - ვარშანიძის ქ","type":"route","route":"bus","name:en":"#7: Varshanidze Street (loop route, clockwise) - Varshanidze Street","name:ka":"№7: ვარშანიძის ქ (წრიული, საათის ისრის მიმართულებით) - ვარშანიძის ქ","name:ru":"№7: ул. Варшанидзе (кольцевой, по часовой стрелке) - ул. Варшанидзе","name:tr":"#7: Varshanidze caddesinde (döngü yolu, saat yönünde) - Varshanidze caddesinde","network":"ბათუმის ავტოტრანსპორტი","website":"https://batauto.ge/%E1%83%92%E1%83%A0%E1%83%90%E1%83%A4%E1%83%98%E1%83%99%E1%83%94%E1%83%91%E1%83%98","interval":"15","operator":"შპს \\\"ბათუმის ავტოტრანსპორტი\\\"","roundtrip":"yes","reservation":"no","opening_hours":"Mo-Su 07:30-23:00","public_transport:version":"2"},"14426781":{"to":"საბაგირო","fee":"yes","ref":"13","from":"ორბელიანის ქ","name":"№13: ორბელიანის ქ - საბაგირო","type":"route","route":"bus","name:en":"#13: Orbeliani Street - Cable car","name:ka":"№13: ორბელიანის ქ - საბაგირო","name:ru":"№13: ул. Орбелиани - Канатная дорога","website":"https://batauto.ge/%E1%83%92%E1%83%A0%E1%83%90%E1%83%A4%E1%83%98%E1%83%99%E1%83%94%E1%83%91%E1%83%98","interval":"11","operator":"შპს \\\"ბათუმის ავტოტრანსპორტი\\\"","reservation":"no","opening_hours":"Mo-Su 08:00-23:57","public_transport:version":"2"},"14530459":{"to":"ლეხ და მარია კაჩინსკების ქ","fee":"yes","ref":"14","from":"ლადო ასათიანის ქ","name":"№14: ლადო ასათიანის ქ - ლეხ და მარია კაჩინსკების ქ","type":"route","route":"bus","name:en":"#14: Lado Asatiani St - Lekh and Maria Kaczynski St.","name:ka":"№14: ლადო ასათიანის ქ - ლეხ და მარია კაჩინსკების ქ","name:ru":"№14: ул. Ладо Асатиани - ул. Леха и Марии Качиньских","website":"https://batauto.ge/%E1%83%92%E1%83%A0%E1%83%90%E1%83%A4%E1%83%98%E1%83%99%E1%83%94%E1%83%91%E1%83%98","interval":"13","operator":"შპს \\\"ბათუმის ავტოტრანსპორტი\\\"","reservation":"no","opening_hours":"Mo-Su 07:40-23:42","public_transport:version":"2"},"14543539":{"to":"ადლიის ქუჩა","fee":"yes","ref":"2","from":"ახალშენის ცენტრი","name":"№2: ახალშენის ცენტრი - ადლიის ქ","type":"route","route":"bus","name:en":"#2: Akhalsheni Center - Adlia street","name:ka":"№2: ახალშენის ცენტრი - ადლიის ქ","name:ru":"№2: Ахалшени центр - улица Адлиа","network":"ბათუმის ავტოტრანსპორტი","website":"https://batauto.ge/%E1%83%92%E1%83%A0%E1%83%90%E1%83%A4%E1%83%98%E1%83%99%E1%83%94%E1%83%91%E1%83%98","interval":"32","operator":"შპს \\\"ბათუმის ავტოტრანსპორტი\\\"","reservation":"no","opening_hours":"Mo-Su 07:00-22:28","public_transport:version":"2"},"14548430":{"to":"ადლიის ქუჩა","fee":"yes","ref":"2ა","from":"ახალშენის ცენტრი","name":"№2ა: ახალშენის ცენტრი - ადლიის ქ","type":"route","route":"bus","name:en":"#2A: Akhalsheni Center - Adlia street","name:ka":"№2ა: ახალშენის ცენტრი - ადლიის ქ","name:ru":"№2А: Ахалшени центр - улица Адлиа","network":"ბათუმის ავტოტრანსპორტი","website":"https://batauto.ge/%E1%83%92%E1%83%A0%E1%83%90%E1%83%A4%E1%83%98%E1%83%99%E1%83%94%E1%83%91%E1%83%98","interval":"32","operator":"შპს \\\"ბათუმის ავტოტრანსპორტი\\\"","reservation":"no","opening_hours":"Mo-Su 07:16-22:44","public_transport:version":"2"},"14558353":{"to":"სვიშვესკი ქუჩა","fee":"yes","ref":"4","from":"აღმაშენებლის ქუჩა","name":"№4: აღმაშენებლის ქ - სვიშევსკის ქ","type":"route","route":"bus","name:en":"#4: Aghmashenebeli st. - Svishevsky st.","name:ka":"№4: სვიშევსკის ქ - აღმაშენებლის ქ","name:ru":"№4: ул. Агмашенебели - ул. Свишевского","network":"ბათუმის ავტოტრანსპორტი","website":"https://batauto.ge/%E1%83%92%E1%83%A0%E1%83%90%E1%83%A4%E1%83%98%E1%83%99%E1%83%94%E1%83%91%E1%83%98","interval":"12","operator":"შპს \\\"ბათუმის ავტოტრანსპორტი\\\"","reservation":"no","opening_hours":"Mo-Su 07:10-23:34","public_transport:version":"2"},"14577468":{"to":"აღმაშენებლის ქუჩა","fee":"yes","ref":"8","from":"თამარ მეფის გამ.(მახინჯაური)","name":"№8: მახინჯაური - აღმაშენებლის ქ","type":"route","route":"bus","name:en":"#8: Makhinjauri - Agmashenebeli Street","name:ka":"№8: მახინჯაური - აღმაშენებლის ქ","name:ru":"№8: Махинджаури - Улица Агмашенебели","network":"ბათუმის ავტოტრანსპორტი","website":"https://batauto.ge/%E1%83%92%E1%83%A0%E1%83%90%E1%83%A4%E1%83%98%E1%83%99%E1%83%94%E1%83%91%E1%83%98","interval":"15","operator":"შპს \\\"ბათუმის ავტოტრანსპორტი\\\"","reservation":"no","opening_hours":"Mo-Su 06:50-23:20","public_transport:version":"2"},"14577469":{"to":"თამარ მეფის გამ.(მახინჯაური)","fee":"yes","ref":"8","from":"აღმაშენებლის ქუჩა","name":"№8: აღმაშენებლის ქ - მახინჯაური","type":"route","route":"bus","name:en":"#8: Agmashenebeli Street - Makhinjauri","name:ka":"№8: აღმაშენებლის ქ - მახინჯაური","name:ru":"№8: Улица Агмашенебели - Махинджаури","network":"ბათუმის ავტოტრანსპორტი","website":"https://batauto.ge/%E1%83%92%E1%83%A0%E1%83%90%E1%83%A4%E1%83%98%E1%83%99%E1%83%94%E1%83%91%E1%83%98","interval":"15","operator":"შპს \\\"ბათუმის ავტოტრანსპორტი\\\"","reservation":"no","opening_hours":"Mo-Su 06:50-23:20","public_transport:version":"2"},"14635578":{"to":"ასათიანის ქ","fee":"yes","ref":"6","from":"ბუკნარი","name":"№6: ჩაქვი - ასათიანის ქ","type":"route","route":"bus","name:en":"#6: Buknari - Lado Asatiani Street","name:ka":"№6: ჩაქვი - ასათიანის ქ","name:ru":"№6: Букнари - Улица Ладо Асатиани","network":"ბათუმის ავტოტრანსპორტი","website":"https://batauto.ge/%E1%83%92%E1%83%A0%E1%83%90%E1%83%A4%E1%83%98%E1%83%99%E1%83%94%E1%83%91%E1%83%98","interval":"32","operator":"შპს \\\"ბათუმის ავტოტრანსპორტი\\\"","reservation":"no","opening_hours":"Mo-Su 06:52-22:20","public_transport:version":"2"},"14635579":{"to":"ბუკნარი","fee":"yes","ref":"6","from":"ასათიანის ქ","name":"№6: ასათიანის ქ - ჩაქვი","type":"route","route":"bus","name:en":"#6: Lado Asatiani Street - Buknari","name:ka":"№6: ასათიანის ქ - ჩაქვი","name:ru":"№6: Улица Ладо Асатиани - Букнари","network":"ბათუმის ავტოტრანსპორტი","website":"https://batauto.ge/%E1%83%92%E1%83%A0%E1%83%90%E1%83%A4%E1%83%98%E1%83%99%E1%83%94%E1%83%91%E1%83%98","interval":"32","operator":"შპს \\\"ბათუმის ავტოტრანსპორტი\\\"","reservation":"no","opening_hours":"Mo-Su 06:52-22:20","public_transport:version":"2"},"14672342":{"to":"ჯემალ ქათამაძის ქუჩა","fee":"yes","ref":"9","from":"ივანე მესხის ქუჩა","name":"№9: ივანე მესხის ქ - ქათამაძის ქ","type":"route","route":"bus","name:en":"#9: Meskhi Street - Katamadze Street","name:ka":"№9: ივანე მესხის ქ - ქათამაძის ქ","name:ru":"№9: улица Месхи - улица Катамадзе","network":"ბათუმის ავტოტრანსპორტი","website":"https://batauto.ge/%E1%83%92%E1%83%A0%E1%83%90%E1%83%A4%E1%83%98%E1%83%99%E1%83%94%E1%83%91%E1%83%98","interval":"15","operator":"შპს \\\"ბათუმის ავტოტრანსპორტი\\\"","reservation":"no","opening_hours":"Mo-Su 07:00-23:00","public_transport:version":"2"},"14740688":{"to":"აღმაშენებლის ქუჩა","fee":"yes","ref":"11","from":"ფერიის ქუჩა","name":"№11: ფერიის ქ - აღმაშენებლის ქ","type":"route","route":"bus","name:en":"#11: Pherii Street - Agmashenebeli Street","name:ka":"№11: ფერიის ქ - აღმაშენებლის ქ","name:ru":"№11: Улица Ферии - Улица Агмашенебели","network":"ბათუმის ავტოტრანსპორტი","website":"https://batauto.ge/%E1%83%92%E1%83%A0%E1%83%90%E1%83%A4%E1%83%98%E1%83%99%E1%83%94%E1%83%91%E1%83%98","interval":"12","operator":"შპს \\\"ბათუმის ავტოტრანსპორტი\\\"","reservation":"no","opening_hours":"Mo-Su 07:00-23:24","public_transport:version":"2"},"14740689":{"to":"ფერიის ქუჩა","fee":"yes","ref":"11","from":"აღმაშენებლის ქუჩა","name":"№11: აღმაშენებლის ქ - ფერიის ქ","type":"route","route":"bus","name:en":"#11: Agmashenebeli Street - Pherii Street","name:ka":"№11: აღმაშენებლის ქ - ფერიის ქ","name:ru":"№11: Улица Агмашенебели - улица Ферии","network":"ბათუმის ავტოტრანსპორტი","website":"https://batauto.ge/%E1%83%92%E1%83%A0%E1%83%90%E1%83%A4%E1%83%98%E1%83%99%E1%83%94%E1%83%91%E1%83%98","interval":"12","operator":"შპს \\\"ბათუმის ავტოტრანსპორტი\\\"","reservation":"no","opening_hours":"Mo-Su 07:00-23:24","public_transport:version":"2"},"14870726":{"to":"ზედაღელის ქუჩა","fee":"yes","ref":"15","from":"ჯემალ ქათამაძის ქუჩა","name":"№15: ქათამაძის ქ – ზედაღელის ქ","type":"route","route":"bus","name:en":"#15: Jemal Katamadze Street - Zedageli Street","name:ka":"№15: ქათამაძის ქ – ზედაღელის ქ","name:ru":"№15: улица Джемал Катамадзе - улица Зедагели","network":"ბათუმის ავტოტრანსპორტი","website":"https://batauto.ge/%E1%83%92%E1%83%A0%E1%83%90%E1%83%A4%E1%83%98%E1%83%99%E1%83%94%E1%83%91%E1%83%98","interval":"30","operator":"შპს \\\"ბათუმის ავტოტრანსპორტი\\\"","roundtrip":"yes","reservation":"no","opening_hours":"Mo-Su 07:05-22:35","public_transport:version":"2"},"14870727":{"to":"ჯემალ ქათამაძის ქუჩა","fee":"yes","ref":"15","from":"ზედაღელის ქუჩა","name":"№15: ზედაღელის ქ – ქათამაძის ქ","type":"route","route":"bus","name:en":"#15: Zedageli Street - Jemal Katamadze Street","name:ka":"№15: ზედაღელის ქ – ქათამაძის ქ","name:ru":"№15: улица Зедагели - улица Джемал Катамадзе","network":"ბათუმის ავტოტრანსპორტი","website":"https://batauto.ge/%E1%83%92%E1%83%A0%E1%83%90%E1%83%A4%E1%83%98%E1%83%99%E1%83%94%E1%83%91%E1%83%98","interval":"30","operator":"შპს \\\"ბათუმის ავტოტრანსპორტი\\\"","roundtrip":"yes","reservation":"no","opening_hours":"Mo-Su 07:05-22:35","public_transport:version":"2"},"15323036":{"ref":"101","name":"101","type":"route","route":"bus","operator":"TBC"},"15328086":{"ref":"318","name":"318","type":"route","route":"bus"},"15328093":{"ref":"346","name":"346","type":"route","route":"bus"},"15328120":{"ref":"309","name":"309","type":"route","route":"bus"},"15328206":{"ref":"371","name":"371","type":"route","route":"bus"},"15328308":{"ref":"341","name":"341","type":"route","route":"bus"}}