{"180323":{"ref":"66","name":"NXWM Bus Route 66","type":"route","route":"bus","operator":"National Express West Midlands"},"207605":{"ref":"28","name":"NXWM Bus Route 28","type":"route","route":"bus","operator":"National Express West Midlands"},"240206":{"to":"Milano M3","ref":"34","from":"Crema","name":"Crema - Milano M3","type":"route","route":"bus","network":"Adda Trasporti","operator":"Gruppo Autoguidovie","public_transport:version":"2"},"1658612":{"ref":"390","name":"Bus 390","type":"route","route":"bus","name:en":"Bus 390","network":"Egge","operator":"Egged"},"1658622":{"ref":"391","name":"Bus 391","type":"route","route":"bus","name:en":"Bus 391"},"1658627":{"ref":"392","name":"Bus 392","type":"route","route":"bus","name:ar":"باص ٣٩٢","name:en":"Bus 392","operator":"Egged"},"1661275":{"ref":"600","name":"Nateev Express - 600","type":"route","route":"bus","name:en":"Nateev Express - 600","operator":"Nateev"},"1858291":{"ref":"6","name":"Abbas-Hallisa","type":"route","route":"bus","name:en":"Abbas-Hallisa","operator":"Egged"},"3106319":{"ref":"480","name":"Egged 480","type":"route","route":"bus","name:en":"Egged 480","operator":"Egged","description":"Tel Aviv - Jerusalem"},"8594886":{"ref":"71","via":"Weststadt","from":"Busbahnhof","name":"DE_naldo_71","type":"route","route":"bus","network":"Verkehrsverbund Neckar-Alb-Donau","tourism":"Busbahnhof","network:short":"naldo","network:wikidata":"Q1467217","network:wikipedia":"de:Verkehrsverbund Neckar-Alb-Donau"},"8594887":{"to":"Busbahnhof","ref":"72","via":"Weststadt","from":"Busbahnhof","name":"DE_naldo_72","type":"route","route":"bus","network":"Verkehrsverbund Neckar-Alb-Donau","network:short":"naldo","network:wikidata":"Q1467217","network:wikipedia":"de:Verkehrsverbund Neckar-Alb-Donau"},"13477621":{"to":"Verlaine","ref":"1","from":"Oyards","name":"Rubis 1 : Oyards -> Verlaine","type":"route","route":"bus","colour":"#0066a1","network":"Rubis","operator":"Keolis Grand Bassin de Bourg-en-Bresse","network:wikidata":"Q16681031","public_transport:version":"2"},"13477622":{"to":"Verlaine","ref":"1","from":"Oyards","name":"Rubis 1 : Oyards -> Verlaine","type":"route","route":"bus","colour":"#0066a1","network":"Rubis","operator":"Keolis Grand Bassin de Bourg-en-Bresse","network:wikidata":"Q16681031","public_transport:version":"2"},"13606222":{"to":"Schweinz","ref":"466","from":"Riegersburg Parkplatz","name":"Bus 466: Riegersburg Parkplatz => Schweinz","type":"route","route":"bus","state":"main","opening_hours":"Mo-Fr 06:40, SH off","public_transport:version":"2"},"14193359":{"to":"Wasserburg, Rosenh./Sparkasse","ref":"9416","via":"Ramerberg","from":"Rott am Inn, Bräustüberl","name":"Bus 9416: Rott am Inn, Bräustüberl => Ramerberg => Wasserburg, Rosenh./Sparkasse","type":"route","route":"bus","colour":"#96368B","network":"Regionalverkehr Oberbayern;Rosenheimer Verkehrsgesellschaft","operator":"Regionalverkehr Oberbayern GmbH","ref_trips":"001","description":"Kurs (Mo-Fr): 001(Nur an Schultagen)","network:guid":"DE-BY-RVO;DE-BY-RoVG","network:short":"RVO;RoVG","public_transport:version":"2"},"14193360":{"to":"Wasserburg, Busbahnhof","ref":"9416","via":"Ramerberg","from":"Rott am Inn, Bräustüberl","name":"Bus 9416: Rott am Inn, Bräustüberl => Ramerberg => Wasserburg, Busbahnhof","type":"route","route":"bus","colour":"#96368B","network":"Regionalverkehr Oberbayern;Rosenheimer Verkehrsgesellschaft","operator":"Regionalverkehr Oberbayern GmbH","ref_trips":"073","description":"Kurs (Sa): 073","network:guid":"DE-BY-RVO;DE-BY-RoVG","network:short":"RVO;RoVG","public_transport:version":"2"},"14193362":{"to":"Attel","ref":"9416","from":"Rott am Inn, Bräustüberl","name":"Bus 9416: Rott am Inn, Bräustüberl => Attel","type":"route","route":"bus","colour":"#96368B","network":"Regionalverkehr Oberbayern;Rosenheimer Verkehrsgesellschaft","operator":"Regionalverkehr Oberbayern GmbH","ref_trips":"037","description":"Kurs (Mo-Fr): 037(Nur an Schultagen Mo-Do)","network:guid":"DE-BY-RVO;DE-BY-RoVG","network:short":"RVO;RoVG","public_transport:version":"2"},"14193364":{"to":"Wasserburg, Busbahnhof","ref":"9416","from":"Rott am Inn, Bräustüberl","name":"Bus 9416: Rott am Inn, Bräustüberl => Wasserburg, Busbahnhof","type":"route","route":"bus","colour":"#96368B","network":"Regionalverkehr Oberbayern;Rosenheimer Verkehrsgesellschaft","operator":"Regionalverkehr Oberbayern GmbH","ref_trips":"079","description":"Kurs (Sa): 079","network:guid":"DE-BY-RVO;DE-BY-RoVG","network:short":"RVO;RoVG","public_transport:version":"2"}}