{"5623657":{"to":"پایانه شهدا","ref":"50","from":"حرم مطهر (شیرازی)","name":"خط ۵۰(حرم مطهر (شیرازی) ← پایانه شهدا)","type":"route","route":"bus","name:en":"Line 50 (Holy Shrine (Shirazi) → Shohada bus station)","operator":"سازمان اتوبوسرانی مشهد","public_transport:version":"2"},"5625147":{"to":"پایانه شهید گمنام","ref":"34","from":"پایانه خواجه ربیع","name":"خط ۳۴ (پایانه خواجه ربیع ← پایانه شهید گمنام)","type":"route","route":"bus","name:en":"Line 34 (Khaje Rabie bus station → Shahid Gomnam bus station)","operator":"سازمان اتوبوسرانی مشهد","public_transport:version":"2"},"5658288":{"to":"پایانه طبرسی","ref":"800","from":"پایانه امام رضا","name":"خط ۸۰۰ (پایانه امام رضا ← پایانه طبرسی) بی‌آرتی","type":"route","route":"bus","name:en":"Line 800 (Imam Reza bus station → Tabarsi bus station) BRT","operator":"سازمان اتوبوسرانی مشهد","public_transport:version":"2"},"5688324":{"to":"پایانه خواجه ربیع","ref":"38","from":"پایانه زکریا","name":"خط ۳۸(پایانه زکریا ← پایانه خواجه ربیع)","type":"route","route":"bus","name:en":"Line 38 (Zakaria bus station → Khaje Rabie bus station)","operator":"سازمان اتوبوسرانی مشهد","public_transport:version":"2"},"5693243":{"to":"پایانه الهیه","ref":"EXP-3","from":"پایانه شهید مفتح","name":"خط ۳ تندرو (پایانه شهید مفتح ← پایانه الهیه)","type":"route","route":"bus","name:en":"ExpressLine 3 (Shahid Mofateh bus station → Elahiyeh bus station)","operator":"سازمان اتوبوسرانی مشهد","public_transport:version":"2"},"5697722":{"to":"پایانه غدیر","ref":"32","from":"پایانه خواجه ربیع","name":"خط ۳۲ (پایانه خواجه ربیع ← پایانه غدیر)","type":"route","route":"bus","name:en":"Line 32 (Khaje Rabie bus station → Ghadir bus station)","operator":"سازمان اتوبوسرانی مشهد","public_transport:version":"2"},"5697962":{"to":"پایانه شهید مفتح","ref":"68","from":"پایانه غدیر","name":"خط ۶۸ (پایانه غدیر ← پایانه شهید مفتح)","type":"route","route":"bus","name:en":"Line 68 (Ghadir bus station → Shahid Mofateh bus station)","public_transport:version":"2"},"5698799":{"to":"پایانه راه آهن","ref":"38/1","from":"پایانه آزادی","name":"خط ۳۸/۱(پایانه آزادی ← پایانه راه آهن)","type":"route","route":"bus","name:en":"Line 38.1 (Azadi bus station → Railway bus station)","operator":"سازمان اتوبوسرانی مشهد","public_transport:version":"2"},"5699091":{"to":"پایانه شهید مفتح شرقی","ref":"45","from":"پایانه شهید هاشمی نژاد","name":"خط ۴۵ (پایانه شهید هاشمی نژاد ← پایانه شهید مفتح شرقی)","type":"route","route":"bus","name:en":"Line 45 (Shahid Hasheminejad bus station → East Shahid Mofateh bus station)","operator":"سازمان اتوبوسرانی مشهد","public_transport:version":"2"},"5700127":{"to":"پایانه خواجه ربیع","ref":"EXP-2","from":"پایانه انقلاب اسلامی","name":"خط ۲ تندرو (پایانه انقلاب اسلامی ← پایانه خواجه ربیع)","type":"route","route":"bus","name:en":"ExpressLine 2 (Enghlab Eslami bus station → Khaje Rabie bus station)","operator":"سازمان اتوبوسرانی مشهد","public_transport:version":"2"},"5707936":{"to":"پایانه مصلی","ref":"100","via":"پایانه انقلاب اسلامی","from":"پایانه آزادی","name":"خط ۱۰۰ (پایانه آزادی ← پایانه مصلی)","type":"route","route":"bus","name:en":"Line 100 (Azadi bus station → Mosalla bus station)","operator":"سازمان اتوبوسرانی مشهد","public_transport:version":"2"},"5725741":{"to":"پایانه شهدا","ref":"21","from":"پایانه گردشگری","name":"خط ۲۱ (پایانه گردشگری ← پایانه شهدا)","type":"route","route":"bus","name:en":"Line 21 (Gardeshgari bus station → Shohada bus station)","operator":"سازمان اتوبوسرانی مشهد","public_transport:version":"2"},"5727013":{"to":"پایانه غدیر","ref":"37","via":"پایانه شهدا","from":"پایانه شهید مفتح","name":"خط ۳۷ (پایانه شهید مفتح ← پایانه غدیر)","type":"route","route":"bus","name:en":"Line 37 (Shahid Mofateh bus station → Ghadir bus station)","operator":"سازمان اتوبوسرانی مشهد","public_transport:version":"2"},"5728824":{"to":"پایانه الهیه","ref":"EXP-4","via":"پایانه انقلاب اسلامی","from":"پایانه امام رضا","name":"خط ۴ تندرو (پایانه امام رضا ← پایانه الهیه)","type":"route","route":"bus","name:en":"ExpressLine 4 (Imam Reza bus station → Elahiyeh bus station)","operator":"سازمان اتوبوسرانی مشهد","public_transport:version":"2"},"5734626":{"to":"پایانه شهید مفتح","ref":"37.1","via":"پایانه فردوسی","from":"پایانه شهید جوان","name":"خط ۳۷/۱ (پایانه شهید جوان ← پایانه شهید مفتح)","type":"route","route":"bus","name:en":"Line 37.1 (Shahid Javan bus station → Shahid Mofateh bus station)","operator":"سازمان اتوبوسرانی مشهد","public_transport:version":"2"},"5748379":{"to":"پایانه آزادی","ref":"17","from":"پایانه الهیه","name":"خط ۱۷(پایانه الهیه ← پایانه آزادی)","type":"route","route":"bus","name:en":"Line 17 (Elahiyeh bus station → Azadi bus station)","operator":"سازمان اتوبوسرانی مشهد","public_transport:version":"2"},"5755231":{"to":"پایانه سرافرازان","ref":"98.1","from":"ایستگاه پایانه آزادی","name":"خط ۹۸/۱ (ایستگاه پایانه آزادی ← پایانه سرافرازان)","type":"route","route":"bus","name:en":"Line 98.1 (Azadi station bus stop → Sarafrazan bus station)","operator":"سازمان اتوبوسرانی مشهد","public_transport:version":"2"},"5762269":{"to":"حرم مطهر (شیرازی)","ref":"12","from":"پایانه وکیل آباد","name":"خط ۱۲(پایانه وکیل آباد ← حرم مطهر (شیرازی))","type":"route","route":"bus","name:en":"Line 12 (Vakilabad bus station → Holy Shrine (Shirazi))","operator":"سازمان اتوبوسرانی مشهد","public_transport:version":"2"},"5763432":{"to":"آرامگاه فردوسی","ref":"202","from":"پایانه فردوسی","name":"خط ۲۰۲ (پایانه فردوسی ← آرامگاه فردوسی)","type":"route","route":"bus","name:en":"Line 202 (Ferdowsi bus station → Ferdowsi tomb)","operator":"سازمان اتوبوسرانی مشهد","public_transport:version":"2"},"5768009":{"to":"پایانه زکریا","ref":"80","from":"پایانه گردشگری","name":"خط ۸۰ (پایانه گردشگری ← پایانه زکریا)","type":"route","route":"bus","name:en":"Line 80 (Gardeshgari bus station → Zakaria bus station)","operator":"سازمان اتوبوسرانی مشهد","public_transport:version":"2"},"5807068":{"to":"پایانه آزادی","ref":"88","from":"پایانه خواجه ربیع","name":"خط ۸۸ (پایانه خواجه ربیع ← پایانه آزادی)","type":"route","route":"bus","name:en":"Line 88 (Khaje Rabi bus station → Azadi bus station)","operator":"سازمان اتوبوسرانی مشهد","public_transport:version":"2"},"5815754":{"ref":"42","name":"خط ۴۲","type":"route","route":"bus","ref:fa":"۴۲","name:en":"Line 42 (Elahiyeh bus station → Shahid Javan bus station)","operator":"سازمان اتوبوسرانی مشهد","public_transport:version":"2"},"5826081":{"to":"پایانه معراج","ref":"22","from":"پایانه شهدا","name":"خط ۲۲ (پایانه شهدا ← پایانه معراج)","type":"route","route":"bus","name:en":"Line 22 (Shohada bus station → Meraj bus station)","operator":"سازمان اتوبوسرانی مشهد","public_transport:version":"2"},"5826082":{"to":"پایانه شهدا","ref":"22","from":"پایانه معراج","name":"خط ۲۲ (پایانه معراج ← پایانه شهدا)","type":"route","route":"bus","name:en":"Line 22 (Meraj bus station → Shohada bus station)","operator":"سازمان اتوبوسرانی مشهد","public_transport:version":"2"},"5827635":{"to":"پایانه امام رضا","ref":"83","from":"پایانه امام رضا","name":"خط ۸۳ (گردشی)","type":"route","route":"bus","name:en":"Line 83 (Roundtrip)","operator":"سازمان اتوبوسرانی مشهد","roundtrip":"yes","public_transport:version":"2"},"6700357":{"to":"پایانهٔ امام خمینی","ref":"304","from":"سیدخندان","name":"خط ۳۰۴ (سیدخندان <==> پایانهٔ امام خمینی)","type":"route","route":"bus","name:en":"L304 (Seyed Khandan <==> Emam Khomeini Terminal)","network":"شرکت واحد اتوبوسرانی تهران","operator":"شهرداری تهران"},"7858282":{"ref":"۴","name":"خط ۴","type":"route","route":"bus","colour":"#FFD700","ref:en":"4","roundtrip":"yes","opening_hours":"7:00-18:00","public_transport:version":"1"},"7858283":{"ref":"۳","name":"خط ۳","type":"route","route":"bus","colour":"#F4A460","ref:en":"3","roundtrip":"yes","opening_hours":"7:00-18:00","public_transport:version":"1"},"7858284":{"ref":"۲","name":"خط ۲","type":"route","route":"bus","colour":"#00FFFF","ref:en":"2","roundtrip":"yes","opening_hours":"7:00-18:00","public_transport:version":"1"},"7858285":{"ref":"۱","name":"خط ۱","type":"route","route":"bus","colour":"#00FF00","ref:en":"1","roundtrip":"yes","opening_hours":"07:00-18:00","public_transport:version":"1"},"9494942":{"to":"شهرک گلستان","ref":"150","from":"پایانه اتوبوسرانی استقلال","name":"خط ۱۵۰","type":"route","route":"bus","source":"local knowledge","bicycle":"no","operator":"شرکت واحد اتوبوسرانی شیراز و حومه","roundtrip":"yes","wheelchair":"no","opening_hours":"Mo-Su 06:00-21:00","public_transport:version":"1"},"9544067":{"ref":"2","name":"خط مطهری","type":"route","route":"bus","public_transport:version":"1"},"9627636":{"to":"میدان راه آهن","ref":"7","from":"پایانه تجریش","name":"پایانه تجریش - میدان راه آهن","type":"route","route":"bus","name:en":"BRT line 7 North to South","operator":"شرکت واحد اتوبوسرانی تهران","public_transport:version":"2"},"9679504":{"to":"پایانه تجریش","ref":"7","from":"میدان راه آهن","name":"میدان راه آهن - پایانه تجریش","type":"route","route":"bus","name:en":"BRT line 7 South to North","operator":"شرکت واحد اتوبوسرانی تهران","public_transport:version":"2"},"10881828":{"to":"مترو قیطریه","ref":"217","from":"شهرک صدف","name":"شهرک صدف - مترو قیطریه","type":"route","route":"bus","operator":"شرکت واحد اتوبوسرانی تهران"},"10884514":{"to":"شهرک قائم","ref":"298","from":"پایانه تجریش","name":"شهرک قائم - پایانه تجریش","type":"route","route":"bus","operator":"شرکت واحد اتوبوسرانی تهران"},"10885787":{"to":"شهرک صدف","ref":"217","from":"مترو قیطریه","name":"مترو قیطریه - شهرک صدف","type":"route","route":"bus","operator":"شرکت واحد اتوبوسرانی تهران"},"10886988":{"to":"پایانه شهید افشار","ref":"106","from":"پایانه لاله","name":"پایانه لاله - پایانه شهید افشار","type":"route","route":"bus","operator":"شرکت واحد اتوبوسرانی تهران"},"10887141":{"to":"پایانه جنوب","ref":"104","from":"پایانه شهید افشار","name":"پایانه شهید افشار - پایانه جنوب","type":"route","route":"bus","operator":"شرکت واحد اتوبوسرانی تهران"},"10896047":{"to":"پایانه آزادگان","ref":"110","from":"پایانه جنت آباد","name":"پایانه جنت آباد - پایانه آزادگان","type":"route","route":"bus","operator":"شرکت واحد اتوبوسرانی تهران"},"10908037":{"to":"شهرک قائم","ref":"298","from":"پایانه تجریش","name":"پایانه تجریش - شهرک قائم","type":"route","route":"bus","operator":"شرکت واحد اتوبوسرانی تهران"},"10908075":{"to":"پایانه تجریش","ref":"219","from":"جماران","name":"جماران - پایانه تجریش","type":"route","route":"bus","operator":"شرکت واحد اتوبوسرانی تهران"},"10918660":{"to":"میدان ولنجک","ref":"221","from":"پایانه شهید افشار","name":"پایانه شهید افشار - میدان ولنجک","type":"route","route":"bus","operator":"شرکت واحد اتوبوسرانی تهران"},"10922792":{"ref":"422","name":"سید خندان - مطهری","type":"route","route":"bus","operator":"شرکت واحد اتوبوسرانی تهران"},"10930377":{"to":"شهرک بام تهران","ref":"283","from":"میدان صنعت","name":"میدان صنعت - شهرک بام تهران","type":"route","route":"bus","operator":"شرکت واحد اتوبوسرانی تهران"},"10947237":{"to":"میدان قدس","ref":"225","from":"پایانه شهید دستواره","name":"پایانه شهید دستواره - میدان قدس","type":"route","route":"bus","operator":"شرکت واحد اتوبوسرانی تهران"},"10953734":{"to":"پایانه تجریش","ref":"300","from":"پایانه اوشان","name":"پایانه اوشان - پایانه تجریش","type":"route","route":"bus","operator":"شرکت واحد اتوبوسرانی تهران"},"10958505":{"to":"پایانه شهید حقانی","ref":"301","from":"بلوار ارتش","name":"بلوار ارتش - پایانه شهید حقانی","type":"route","route":"bus","operator":"شرکت واحد اتوبوسرانی تهران"},"11376799":{"to":"میدان قدس","ref":"303","from":"پیچ شمیران","name":"پیچ شمیران - میدان قدس","type":"route","route":"bus","operator":"شرکت واحد اتوبوسرانی تهران"},"11379884":{"to":"پایانه مترو چیتگر","ref":"326","from":"شهید همت شریعتی","name":"پایانه مترو چیتگر - شهید همت شریعتی","type":"route","route":"bus","operator":"شرکت واحد اتوبوسرانی تهران"},"11555910":{"ref":"356","name":"میدان جمهوری - پل کریم خان","type":"route","route":"bus","operator":"شرکت واحد اتوبوسرانی تهران"},"11557350":{"to":"میدان انقلاب","ref":"313","from":"میدان سپاه","name":"میدان سپاه - میدان انقلاب","type":"route","route":"bus","operator":"شرکت واحد اتوبوسرانی تهران"},"11579348":{"to":"خیابان معلم","ref":"381","from":"پایانه امام خمینی ره","name":"خیابان معلم - پایانه امام خمینی ره","type":"route","route":"bus","operator":"شرکت واحد اتوبوسرانی تهران"},"11579999":{"to":"سیدخندان","ref":"304","from":"پایانه امام خمینی ره","name":"سیدخندان - پایانه امام خمینی ره","type":"route","route":"bus"},"12019749":{"to":"پایانه لاله","ref":"106","from":"پایانه شهید افشار","name":"پایانه شهید افشار - پایانه لاله","type":"route","route":"bus","operator":"شرکت واحد اتوبوسرانی تهران"},"12036655":{"to":"میدان راه آهن","ref":"349","from":"پایانه محلاتی","name":"پایانه محلاتی - میدان راه آهن","type":"route","route":"bus","source":"tehran.ir","operator":"شرکت واحد اتوبوسرانی تهران"},"12065403":{"to":"پایانه علم و صنعت","ref":"224","from":"پایانه افق","name":"پایانه افق - پایانه علم و صنعت","type":"route","route":"bus","source":"tehran.ir","network":"شرکت واحد اتوبوسرانی تهران"},"12107038":{"to":"پایانه علم و صنعت","ref":"105","from":"پایانه بیهقی","name":"پایانه بیهقی - پایانه علم و صنعت","type":"route","route":"bus","source":"tehran.ir","network":"BRT","operator":"شرکت واحد اتوبوسرانی تهران"},"12115906":{"to":"اول ‌فردوسی","ref":"358","from":"پایانه بیهقی","name":"پایانه بیهقی - اول ‌فردوسی","type":"route","route":"bus","source":"tehran.ir","operator":"شرکت واحد اتوبوسرانی تهران"},"12118059":{"to":"انتهای آفریقا","ref":"363","from":"پایانه بیهقی","name":"پایانه بیهقی - انتهای آفریقا","type":"route","route":"bus","operator":"شرکت واحد اتوبوسرانی تهران"},"12134167":{"to":"میدان صنعت","ref":"281","from":"پایانه کوهسار","name":"پایانه کوهسار - میدان صنعت","type":"route","route":"bus","source":"tehran.ir","operator":"شرکت واحد اتوبوسرانی تهران"},"12141432":{"to":"پایانه ‌مترو صادقیه","ref":"285","from":"پایانه شهران","name":"پایانه شهران - پایانه ‌مترو صادقیه","type":"route","route":"bus","operator":"شرکت واحد اتوبوسرانی تهران"},"12165123":{"to":"مترو صادقیه","ref":"322","from":"پایانه دریاچه","name":"پایانه دریاچه - مترو صادقیه","type":"route","route":"bus","source":"tehran.ir","operator":"شرکت واحد اتوبوسرانی تهران"},"12173044":{"to":"پونک","ref":"424","from":"پایانه مترو ارم سبز","name":"پایانه مترو ارم سبز - پونک","type":"route","route":"bus","operator":"شرکت واحد اتوبوسرانی تهران"},"12183431":{"to":"پل ‌مدیریت","ref":"289","from":"بلوار‌ امامزاده","name":"بلوار‌ امامزاده - پل ‌مدیریت","type":"route","route":"bus","operator":"شرکت واحد اتوبوسرانی تهران"},"12183548":{"to":"بلوار‌ امامزاده","ref":"289","from":"پل ‌مدیریت","name":"پل ‌مدیریت - بلوار‌ امامزاده","type":"route","route":"bus","operator":"شرکت واحد اتوبوسرانی تهران"},"12188720":{"to":"پایانه شهید بهشتی","ref":"388","from":"پایانه مترو صادقیه","name":"پایانه مترو صادقیه - پایانه شهید بهشتی","type":"route","route":"bus","operator":"شرکت واحد اتوبوسرانی تهران"},"12198055":{"to":"پایانه علم و صنعت","ref":"103","from":"پایانه خاوران","name":"پایانه خاوران - پایانه علم و صنعت","type":"route","route":"bus","operator":"شرکت واحد اتوبوسرانی تهران"},"12200536":{"to":"پایانه جنوب","ref":"108","from":"پایانه خاوران","name":"پایانه خاوران - پایانه جنوب","type":"route","route":"bus","operator":"شرکت واحد اتوبوسرانی تهران"},"12204285":{"to":"پایانه لاله","ref":"109","from":"پایانه مترو جوانمرد قصاب","name":"پایانه مترو جوانمرد قصاب - پایانه لاله","type":"route","route":"bus","operator":"شرکت واحد اتوبوسرانی تهران"},"12251695":{"to":"پایانه آزادی","ref":"102","from":"پایانه خاوران","name":"پایانه خاوران - پایانه آزادی","type":"route","route":"bus","operator":"شرکت واحد اتوبوسرانی تهران"},"12254606":{"to":"پایانه بیهقی","ref":"105","from":"پایانه علم و صنعت","name":"پایانه علم و صنعت - پایانه بیهقی","type":"route","route":"bus","operator":"شرکت واحد اتوبوسرانی تهران"},"12261934":{"to":"پایانه خاوران","ref":"103","from":"پایانه علم و صنعت","name":"پایانه علم و صنعت - پایانه خاوران","type":"route","route":"bus","operator":"شرکت واحد اتوبوسرانی تهران"},"12270387":{"to":"پایانه مترو شهید حقانی","ref":"305","from":"میدان صنعت","name":"میدان صنعت - پایانه مترو شهید حقانی","type":"route","route":"bus","source":"tehran.ir","operator":"شرکت واحد اتوبوسرانی تهران"},"12277341":{"to":"جنت‌آباد جنوبی","ref":"286","from":"پایانه ‌مترو صادقیه","name":"پایانه ‌مترو صادقیه - جنت‌آباد جنوبی","type":"route","route":"bus","source":"tehran.ir","operator":"شرکت واحد اتوبوسرانی تهران"},"12406052":{"to":"پل یزد آباد","ref":"تندرو ۱","from":"پایانه باقوشخانه","name":"خط تندرو ۱ (پایانه باقوشخانه ← پل یزد آباد)","type":"route","route":"bus","colour":"#b91313","name:en":"Express Line 1 (Ghushkhaneh garden bus station → Yazd Abad bus station)","operator":"شرکت واحد اتوبوسرانی شهرداری اصفهان","public_transport:version":"2"},"12406053":{"to":"پایانه باقوشخانه","ref":"تندرو ۱","from":"پل یزد آباد","name":"خط تندرو ۱ (پل یزد آباد ← پایانه باقوشخانه)","type":"route","route":"bus","colour":"#b91313","name:en":"Express Line 1 (Yazd Abad bus station → Ghushkhaneh garden bus station)","operator":"شرکت واحد اتوبوسرانی شهرداری اصفهان","public_transport:version":"2"},"12409876":{"to":"دروازه تهران","ref":"تندرو ۲","from":"پایانه آبشار","name":"خط تندرو ۲ (پایانه آبشار ← دروازه تهران)","type":"route","route":"bus","colour":"#1d39c3","name:en":"Express Line 2 (Abshar bus station → Darvazeh Tehran bus station)","operator":"شرکت واحد اتوبوسرانی شهرداری اصفهان","public_transport:version":"2"},"12409877":{"to":"پایانه آبشار","ref":"تندرو ۲","from":"دروازه تهران","name":"خط تندرو ۲ (دروازه تهران ← پایانه آبشار)","type":"route","route":"bus","colour":"#1d39c3","name:en":"Express Line 2 (Darvazeh Tehran bus station → Abshar bus station)","operator":"شرکت واحد اتوبوسرانی شهرداری اصفهان","public_transport:version":"2"},"12410241":{"to":"پایانه خرم","ref":"تندرو ۳","from":"پایانه ارغوانیه","name":"خط تندرو ۳ (پایانه ارغوانیه ← پایانه خرم)","type":"route","route":"bus","colour":"#0b8302","name:en":"Express Line 3 (Arghavaniyeh bus station → Khorram bus station)","operator":"شرکت واحد اتوبوسرانی شهرداری اصفهان","public_transport:version":"2"},"12410242":{"to":"پایانه ارغوانیه","ref":"تندرو ۳","from":"پایانه خرم","name":"خط تندرو ۳ (پایانه خرم ← پایانه ارغوانیه)","type":"route","route":"bus","colour":"#0b8302","name:en":"Express Line 3 (Khorram bus station → Arghavaniyeh bus station)","operator":"شرکت واحد اتوبوسرانی شهرداری اصفهان","public_transport:version":"2"},"12413113":{"to":"اصفهان","ref":"فلاورجان ۱","from":"فلاورجان","name":"خط ۱ - فلاورجان - اصفهان","type":"route","route":"bus","source":"http://falavarbus.ir/Pic/masir-FELAVARJAN-NEW.jpg","operator":"سازمان حمل و نقل جمعی شهرداریهای شهرستان فلاورجان"},"12413114":{"to":"فلاورجان","ref":"فلاورجان ۱","from":"اصفهان","name":"خط ۱ - اصفهان - فلاورجان","type":"route","route":"bus","source":"http://falavarbus.ir/Pic/masir-FELAVARJAN-NEW.jpg","operator":"سازمان حمل و نقل جمعی شهرداریهای شهرستان فلاورجان"},"12413307":{"to":"اصفهان","ref":"فلاورجان ۲","from":"قهدریجان","name":"خط ۲ - قهدریجان- اصفهان","type":"route","route":"bus","source":"http://falavarbus.ir/Pic/masir-GHAHDRIJAN-NEW.jpg","operator":"سازمان حمل و نقل جمعی شهرداریهای شهرستان فلاورجان"},"12413308":{"to":"قهدریجان","ref":"فلاورجان ۲","from":"اصفهان","name":"خط ۲ - اصفهان - قهدریجان","type":"route","route":"bus","source":"http://falavarbus.ir/Pic/masir-GHAHDRIJAN-NEW.jpg","operator":"سازمان حمل و نقل جمعی شهرداریهای شهرستان فلاورجان"},"12417667":{"to":"اصفهان","ref":"فلاورجان ۴","from":"ابریشم","name":"خط ۴ (ابریشم ← اصفهان)","type":"route","route":"bus","source":"http://falavarbus.ir/Pic/masir-abrisham-new.jpg","name:en":"Line 4 (Abrisham bus station → Isfahan bus station)","operator":"سازمان حمل و نقل جمعی شهرداریهای شهرستان فلاورجان","public_transport:version":"2"},"12417668":{"to":"ابریشم","ref":"فلاورجان ۴","from":"اصفهان","name":"خط ۴ (اصفهان ← ابریشم)","type":"route","route":"bus","source":"http://falavarbus.ir/Pic/masir-abrisham-new.jpg","name:en":"Line 4 (Isfahan bus station → Abrisham bus station)","operator":"سازمان حمل و نقل جمعی شهرداریهای شهرستان فلاورجان","public_transport:version":"2"},"12419532":{"to":"خمینی شهر","ref":"فلاورجان ۶","from":"زازران","name":"خط ۶ - زازران - خمینی شهر","type":"route","route":"bus","source":"http://falavarbus.ir/Pic/masir-zazeran-new.jpg","operator":"سازمان حمل و نقل جمعی شهرداریهای شهرستان فلاورجان"},"12419533":{"to":"زازران","ref":"فلاورجان ۶","from":"خمینی شهر","name":"خط ۶ - خمینی شهر - زازران","type":"route","route":"bus","source":"http://falavarbus.ir/Pic/masir-zazeran-new.jpg","operator":"سازمان حمل و نقل جمعی شهرداریهای شهرستان فلاورجان"},"12423547":{"to":"پایانه حافظ","ref":"اصفهان - سایت","via":"سایت","from":"اصفهان","name":"خط ۱ - اصفهان - سایت - حافظ","type":"route","route":"bus","source":"http://traffic.shaahinshahr.com/wp-content/uploads/2020/10/Page_01-1491x1920.jpg","operator":"سازمان مدیریت حمل‌و‌نقل شهرداری شاهین‌شهر"},"12423548":{"to":"گز برخوار","ref":"اصفهان - گز","from":"اصفهان","name":"خط ۹ - اصفهان - گز","type":"route","route":"bus","operator":"شهرداری گز برخوار"},"12423549":{"to":"پایانه حافظ","ref":"اصفهان - بانک استان","via":"بانک استان","from":"اصفهان","name":"خط ۲ - اصفهان - بانک استان","type":"route","route":"bus","source":"http://traffic.shaahinshahr.com/wp-content/uploads/2020/10/Page_10-1491x1920.jpg","operator":"سازمان مدیریت حمل‌و‌نقل شهرداری شاهین‌شهر"},"12423550":{"to":"اصفهان","ref":"اصفهان - سایت","via":"سایت","from":"پایانه حافظ","name":"خط ۱ - حافظ - سایت - اصفهان","type":"route","route":"bus","source":"http://traffic.shaahinshahr.com/wp-content/uploads/2020/10/Page_01-1491x1920.jpg","operator":"سازمان مدیریت حمل‌و‌نقل شهرداری شاهین‌شهر"},"12423551":{"to":"اصفهان","ref":"اصفهان - بانک استان","via":"بانک استان","from":"پایانه حافظ","name":"خط ۱۲ -حافظ - بانک استان - اصفهان","type":"route","route":"bus","source":"http://traffic.shaahinshahr.com/wp-content/uploads/2020/10/Page_10-1491x1920.jpg","operator":"سازمان مدیریت حمل‌و‌نقل شهرداری شاهین‌شهر"},"12423552":{"to":"اصفهان","ref":"اصفهان - گز","from":"گز برخوار","name":"خط ۹ - گز - اصفهان","type":"route","route":"bus","operator":"شهرداری گز برخوار"},"12423554":{"to":"پایانه حافظ","ref":"اصفهان - سایت","via":"سایت","from":"بابلدشت","name":"خط ۱ - اصفهان - سایت","type":"route","route":"bus","source":"http://traffic.shaahinshahr.com/wp-content/uploads/2020/10/Page_01-1491x1920.jpg","operator":"سازمان مدیریت حمل‌و‌نقل شهرداری شاهین‌شهر"},"12424186":{"to":"مترو قدس","ref":"خمینی شهر - مترو قدس","from":"خمینی شهر","name":"خط خمینی شهر - مترو قدس","type":"route","route":"bus","operator":"سازمان اتوبوسرانی خمینی شهر"},"12424187":{"to":"خمینی شهر","ref":"خمینی شهر - مترو قدس","from":"مترو قدس","name":"خط مترو قدس - خمینی شهر","type":"route","route":"bus","operator":"سازمان اتوبوسرانی خمینی شهر"},"12424664":{"to":"عاشق آباد","ref":"۵۰","from":"مترو قدس","name":"خط ۵۰ (مترو قدس ← عاشق آباد)","type":"route","route":"bus","name:en":"Line 50 (Qods Metro bus station → Ashegh Abad bus station)","operator":"شرکت واحد اتوبوسراني اصفهان و حومه","public_transport:version":"2"},"12424665":{"to":"مترو قدس","ref":"۵۰","from":"عاشق آباد","name":"خط ۵۰ (عاشق آباد ← مترو قدس)","type":"route","route":"bus","name:en":"Line 50 (Ashegh Abad bus station → Qods Metro bus station)","operator":"شرکت واحد اتوبوسرانی شهرداری اصفهان","public_transport:version":"2"},"12424667":{"to":"مترو قدس","ref":"۵۸","from":"بابوکان","name":"خط ۵۸ (بابوکان ← مترو قدس)","type":"route","route":"bus","name:en":"Line 58 (Babookan bus station → Qods Metro bus station)","operator":"شرکت واحد اتوبوسرانی شهرداری اصفهان","public_transport:version":"2"},"12424668":{"to":"بابوکان","ref":"۵۸","from":"مترو قدس","name":"خط ۵۸ (مترو قدس ← بابوکان)","type":"route","route":"bus","name:en":"Line 58 (Qods Metro bus station → Babookan bus station)","operator":"شرکت واحد اتوبوسرانی شهرداری اصفهان","public_transport:version":"2"},"12427002":{"to":"میدان لاله","ref":"۱۰۶","from":"فرودگاه","name":"خط ۱۰۶ (فرودگاه ← میدان لاله)","type":"route","route":"bus","name:en":"Line 106 (Airport bus station → Laleh square bus station)","operator":"شرکت واحد اتوبوسرانی شهرداری اصفهان","public_transport:version":"2"},"12427003":{"to":"پایانه باقوشخانه","ref":"۴۴","from":"پایگاه هشتم شکاری","name":"خط ۴۴ (پایگاه هشتم شکاری ← پایانه باقوشخانه)","type":"route","route":"bus","name:en":"Line 44 (8th Air force bus station → Ghushkhaneh garden bus station)","operator":"شرکت واحد اتوبوسرانی شهرداری اصفهان","public_transport:version":"2"},"12427004":{"to":"فرودگاه","ref":"۱۰۶","from":"میدان لاله","name":"خط ۱۰۶ (میدان لاله ← فرودگاه)","type":"route","route":"bus","name:en":"Line 106 (Laleh square bus station → Airport bus station)","operator":"شرکت واحد اتوبوسرانی شهرداری اصفهان","public_transport:version":"2"},"12427005":{"to":"پایگاه هشتم شکاری","ref":"۴۴","from":"پایانه باقوشخانه","name":"خط ۴۴ ( پایانه باقوشخانه ← پایگاه هشتم شکاری)","type":"route","route":"bus","name:en":"Line 44 (Ghushkhaneh garden bus station → 8th Air force bus station)","operator":"شرکت واحد اتوبوسرانی شهرداری اصفهان","public_transport:version":"2"},"12428987":{"to":"گز برخوار","ref":"شاهین شهر - گز","from":"شاهین شهر","name":"خط ۱۳ - شاهین شهر - گز","type":"route","route":"bus","operator":"شهرداری گز برخوار"},"12428988":{"to":"شاهین شهر","ref":"شاهین شهر - گز","from":"گز برخوار","name":"خط ۱۳ - گز - شاهین شهر","type":"route","route":"bus","operator":"شهرداری گز برخوار"},"12428990":{"to":"حبیب آباد","ref":"شاهین شهر - حبیب آباد","from":"شاهین شهر","name":"خط ۳ - شاهین شهر - حبیب آباد","type":"route","route":"bus","operator":"سازمان اتوبوسرانی شهرداری شاهین شهر و حومه"},"12428991":{"to":"شاهین شهر","ref":"شاهین شهر - حبیب آباد","from":"حبیب آباد","name":"خط ۳ - حبیب آباد - شاهین شهر","type":"route","route":"bus","operator":"سازمان اتوبوسرانی شهرداری شاهین شهر و حومه"},"12429442":{"to":"سین","ref":"سین - دولت آباد","from":"دولت آباد","name":"خط سین - دولت آباد","type":"route","route":"bus","operator":"سازمان حمل و نقل جمعی شهرستان برخوار"},"12429451":{"to":"سین","ref":"سین - دولت آباد","from":"دولت آباد","name":"خط دولت آباد - سین","type":"route","route":"bus","operator":"سازمان حمل و نقل جمعی شهرستان برخوار"},"12429452":{"to":"دولت آباد","ref":"شاپور آباد - دولت آباد","from":"شاپور آباد","name":"خط دولت آباد - شاپور آباد","type":"route","route":"bus","operator":"سازمان حمل و نقل جمعی شهرستان برخوار"},"12429453":{"to":"شاپور آباد","ref":"شاپور آباد - دولت آباد","from":"دولت آباد","name":"خط شاپور آباد - دولت آباد","type":"route","route":"bus","network":"سازمان حمل و نقل جمعی شهرستان برخوار"},"12429455":{"to":"پایانه باقوشخانه","ref":"دولت آباد - اصفهان","from":"دولت آباد","name":"خط دولت آباد - پایانه باقوشخانه","type":"route","route":"bus","operator":"سازمان حمل و نقل جمعی شهرستان برخوار"},"12429456":{"to":"دولت آباد","ref":"دولت آباد - اصفهان","from":"پایانه باقوشخانه","name":"خط پایانه باقوشخانه - دولت آباد","type":"route","route":"bus","operator":"سازمان حمل و نقل جمعی شهرستان برخوار"},"12432467":{"to":"پایانه خاوران","ref":"108","from":"پایانه جنوب","name":"پایانه جنوب - پایانه خاوران","type":"route","route":"bus","source":"tehran.ir","operator":"شرکت واحد اتوبوسرانی تهران"},"12432604":{"to":"پایانه باقوشخانه","ref":"کمشچه - اصفهان","from":"کمشچه","name":"خط کمشچه - پایانه باقوشخانه","type":"route","route":"bus","operator":"سازمان حمل و نقل جمعی شهرستان برخوار"},"12432606":{"to":"کمشچه","ref":"کمشچه - اصفهان","from":"پایانه باقوشخانه","name":"خط پایانه باقوشخانه - کمشچه","type":"route","route":"bus","operator":"سازمان حمل و نقل جمعی شهرستان برخوار"},"12432607":{"to":"پایانه باقوشخانه","ref":"حبیب آباد - اصفهان","from":"حبیب آباد","name":"خط حبیب آباد - پایانه باقوشخانه","type":"route","route":"bus","operator":"سازمان حمل و نقل جمعی شهرستان برخوار"},"12432608":{"to":"حبیب آباد","ref":"حبیب آباد - اصفهان","from":"پایانه باقوشخانه","name":"خط پایانه باقوشخانه - حبیب آباد","type":"route","route":"bus","operator":"سازمان حمل و نقل جمعی شهرستان برخوار"},"12432609":{"to":"دارک","ref":"۱۵۷","from":"شهرک امام حسین","name":"خط ۱۵۷ (شهرک امام حسین ← دارک)","type":"route","route":"bus","name:en":"Line 157 (Imam Hossein suburb bus station → Darak bus station)","operator":"شرکت واحد اتوبوسرانی شهرداری اصفهان","public_transport:version":"2"},"12432610":{"to":"شهرک امام حسین","ref":"۱۵۷","from":"دارک","name":"خط ۱۵۷ (دارک ← شهرک امام حسین)","type":"route","route":"bus","name:en":"Line 157 (Darak bus station → Imam Hossein suburb bus station)","operator":"شرکت واحد اتوبوسرانی شهرداری اصفهان","public_transport:version":"2"},"12432611":{"to":"حصه شمالی","ref":"۱۵۲","from":"پایانه باقوشخانه","name":"خط ۱۵۲ (پایانه باقوشخانه ← حصه شمالی)","type":"route","route":"bus","name:en":"Line 152 (Yaghoosh khaneh bus station → North Hesseh bus station)","operator":"شرکت واحد اتوبوسرانی شهرداری اصفهان","public_transport:version":"2"},"12432612":{"to":"پایانه باقوشخانه","ref":"۱۵۲","from":"حصه شمالی","name":"خط ۱۵۲ (حصه شمالی ← پایانه باقوشخانه)","type":"route","route":"bus","name:en":"Line 152 (North Hesseh bus station → Yaghoosh khaneh bus station)","operator":"شرکت واحد اتوبوسرانی شهرداری اصفهان","public_transport:version":"2"},"12433448":{"to":"گرکان","ref":"۴","from":"میدان قدس (طوقچی)","name":"خط ۴ (میدان قدس (طوقچی) ← گرکان)","type":"route","route":"bus","name:en":"Line 4 (Qods square bus station → Gorgan bus station)","operator":"شرکت واحد اتوبوسرانی شهرداری اصفهان","public_transport:version":"2"},"12433449":{"to":"میدان قدس (طوقچی)","ref":"۴","from":"گرکان","name":"خط ۴ (گرکان ← میدان قدس (طوقچی))","type":"route","route":"bus","name:en":"Line 4 (Gorgan bus station → Qods square bus station)","operator":"شرکت واحد اتوبوسراني اصفهان و حومه","public_transport:version":"2"},"12433450":{"to":"حصه","ref":"۵","from":"پایانه بابلدشت","name":"خط ۵ (پایانه بابلدشت ← حصه)","type":"route","route":"bus","name:en":"Line 5 (Baboldasht bus station → Hesse bus station)","operator":"شرکت واحد اتوبوسرانی شهرداری اصفهان","public_transport:version":"2"},"12433451":{"to":"پایانه بابلدشت","ref":"۵","via":"پایانه میدان قدس","from":"حصه","name":"خط ۵ (حصه ← پایانه بابلدشت)","type":"route","route":"bus","name:en":"Line 5 (Hesse bus station → Baboldasht bus station)","operator":"شرکت واحد اتوبوسرانی شهرداری اصفهان","public_transport:version":"2"},"12433452":{"to":"قهجاورستان","ref":"۱۳","from":"میدان قدس (طوقچی)","name":"خط ۱۳ (میدان قدس (طوقچی) ← قهجاورستان)","type":"route","route":"bus","name:en":"Line 13 (Qods square bus station → Ghahjaverestan bus station)","operator":"شرکت واحد اتوبوسرانی شهرداری اصفهان","public_transport:version":"2"},"12433453":{"to":"میدان قدس (طوقچی)","ref":"۱۳","from":"قهجاورستان","name":"خط ۱۳ (قهجاورستان ← میدان قدس (طوقچی))","type":"route","route":"bus","name:en":"Line 13 (Ghahjaverestan bus station → Qods square bus station)","operator":"شرکت واحد اتوبوسرانی شهرداری اصفهان","public_transport:version":"2"},"12438143":{"to":"دستگرد (ترمینال دستگرد )","ref":"دستگرد - اصفهان","from":"پایانه بابلدشت","name":"خط پایانه بابلدشت - دستگرد","type":"route","route":"bus","operator":"سازمان حمل و نقل جمعی شهرستان برخوار"},"12438144":{"to":"خورزوق (فلگه دستگرد )","ref":"خورزوق - اصفهان","from":"پایانه بابلدشت","name":"خط پایانه بابلدشت - خورزوق","type":"route","route":"bus","operator":"سازمان حمل و نقل جمعی شهرستان برخوار"},"12438145":{"to":"پایانه بابلدشت","ref":"خورزوق - اصفهان","from":"خورزوق (فلگه دستگرد )","name":"خط خورزوق - پایانه بابلدشت","type":"route","route":"bus","operator":"سازمان حمل و نقل جمعی شهرستان برخوار"},"12438146":{"to":"پایانه بابلدشت","ref":"دستگرد - اصفهان","from":"دستگرد (ترمینال دستگرد )","name":"خط دستگرد - پایانه بابلدشت","type":"route","route":"bus","operator":"سازمان حمل و نقل جمعی شهرستان برخوار"},"12441980":{"to":"خمینی شهر (پایانه امیرکبیر)","ref":"خمینی شهر - اصفهان","from":"اصفهان (دروازه دولت)","name":"خط اصفهان - خمینی شهر","type":"route","route":"bus","operator":"سازمان اتوبوسرانی خمینی شهر"},"12441981":{"to":"جوی آباد","ref":"۴۱","from":"میدان امام حسین (دروازه دولت)","name":"خط ۴۱ (میدان امام حسین (دروازه دولت) ← جوی آباد)","type":"route","route":"bus","name:en":"Line 41 (Imam Hossein square bus station → Jooy Abad bus station)","operator":"شرکت واحد اتوبوسرانی شهرداری اصفهان","public_transport:version":"2"},"12441982":{"to":"اصفهان (دروازه دولت)","ref":"خمینی شهر - اصفهان","from":"خمینی شهر (پایانه امیرکبیر)","name":"خط خمینی شهر - اصفهان","type":"route","route":"bus","operator":"سازمان اتوبوسرانی خمینی شهر"},"12441983":{"to":"میدان امام حسین (دروازه دولت)","ref":"۴۱","from":"جوی آباد","name":"خط ۴۱ (جوی آباد ← میدان امام حسین (دروازه دولت))","type":"route","route":"bus","name:en":"Line 41 (Jooy Abad bus station → Imam Hossein square bus station)","operator":"شرکت واحد اتوبوسرانی شهرداری اصفهان","public_transport:version":"2"},"12441984":{"to":"چهارراه هفتم محرم","ref":"۷۵","from":"پایانه درچه","name":"خط ۷۵ (پایانه درچه ← چهارراه هفتم محرم)","type":"route","route":"bus","name:en":"Line 75 (Darcheh bus station → 7th Moharram cross bus station)","operator":"شرکت واحد اتوبوسرانی شهرداری اصفهان","public_transport:version":"2"},"12441985":{"to":"پایانه درچه","ref":"۷۵","from":"چهارراه هفتم محرم","name":"خط ۷۵ (چهارراه هفتم محرم ← پایانه درچه)","type":"route","route":"bus","name:en":"Line 75 (7th Moharram cross bus station → Darcheh bus station)","operator":"شرکت واحد اتوبوسرانی شهرداری اصفهان","public_transport:version":"2"},"12442479":{"to":"شهر بازی","ref":"۹۲","from":"میدان انقلاب","name":"خط ۹۲ (میدان انقلاب ← خانه اصفهان)","type":"route","route":"bus","colour":"#07dfdb","name:en":"Line 92 (Enghelab square bus station → Shahre Bazi bus station)","operator":"شرکت واحد اتوبوسرانی شهرداری اصفهان","public_transport:version":"2"},"12442480":{"to":"میدان انقلاب","ref":"۹۲","from":"شهربازی","name":"خط ۹۲ (خانه اصفهان ← میدان انقلاب)","type":"route","route":"bus","colour":"#07dfdb","name:en":"Line 92 (Shahre Bazi bus station → Enghelab square bus station)","operator":"شرکت واحد اتوبوسرانی شهرداری اصفهان","public_transport:version":"2"},"12445438":{"to":"میدان امام حسین (دروازه دولت)","ref":"۲۶","from":"پایانه درچه","name":"خط ۲۶ (پایانه درچه ← میدان امام حسین (دروازه دولت))","type":"route","route":"bus","name:en":"Line 26 (Darcheh bus station → Imam Hossein square (Darvazeh Dowlat) bus station)","operator":"شرکت واحد اتوبوسرانی شهرداری اصفهان","public_transport:version":"2"},"12445439":{"to":"پایانه درچه","ref":"۲۶","from":"میدان امام حسین (دروازه دولت)","name":"خط ۲۶ (میدان امام حسین (دروازه دولت) ← پایانه درچه)","type":"route","route":"bus","name:en":"Line 26 (Imam Hossein square (Darvazeh Dowlat) bus station → Darcheh bus station)","operator":"شرکت واحد اتوبوسرانی شهرداری اصفهان","public_transport:version":"2"},"12445595":{"to":"قائمیه","ref":"۶۶","from":"درچه","name":"خط ۶۶ (درچه ← قائمیه)","type":"route","route":"bus","name:en":"Line 66 (Darcheh bus station → Ghaemiyeh bus station)","operator":"شرکت واحد اتوبوسرانی شهرداری اصفهان","public_transport:version":"2"},"12445596":{"to":"درچه","ref":"۶۶","from":"قائمیه","name":"خط ۶۶ (قائمیه ← درچه)","type":"route","route":"bus","name:en":"Line 66 (Ghaemiyeh bus station → Darcheh bus station)","operator":"شرکت واحد اتوبوسرانی شهرداری اصفهان","public_transport:version":"2"},"12446072":{"to":"تیمیارت","ref":"۴۸","from":"همدانیان/جی","name":"خط ۴۸ (همدانیان/پایانه جی ← تیمیارت)","type":"route","route":"bus","colour":"#d2b004","name:en":"Line 48 (Jay bus station → Timpart bus station)","operator":"شرکت واحد اتوبوسراني اصفهان و حومه","public_transport:version":"2"},"12446073":{"to":"همدانیان/جی","ref":"۴۸","from":"تیمیارت","name":"خط ۴۸ (تیمیارت ← همدانیان/جی)","type":"route","route":"bus","colour":"#d2b004","name:en":"Line 48 (Timpart bus station → Jay bus station)","operator":"شرکت واحد اتوبوسراني اصفهان و حومه","public_transport:version":"2"},"12446074":{"to":"هتم آباد","ref":"۱۴۶","from":"پایانه خوراسگان","name":"خط ۱۴۶ (پایانه خوراسگان ← هتم آباد)","type":"route","route":"bus","colour":"#17a314","name:en":"Line 146 (Khorasgan bus station → Hatm Abad bus station)","operator":"شرکت واحد اتوبوسراني اصفهان و حومه","public_transport:version":"2"},"12446075":{"to":"پایانه خوراسگان","ref":"۱۴۶","from":"هتم آباد","name":"خط ۱۴۶ (هتم آباد ← پایانه خوراسگان)","type":"route","route":"bus","colour":"#17a314","name:en":"Line 146 (Hatm Abad bus station → Khorasgan bus station)","operator":"شرکت واحد اتوبوسراني اصفهان و حومه","public_transport:version":"2"},"12446076":{"to":"حسن آباد","ref":"۱۴۷","from":"پایانه خوراسگان","name":"خط ۱۴۷ (پایانه خوراسگان ← حسن آباد)","type":"route","route":"bus","colour":"#332bab","name:en":"Line 147 (Khorasgan bus station → Hasan Abad bus station)","operator":"شرکت واحد اتوبوسراني اصفهان و حومه","public_transport:version":"2"},"12446077":{"to":"پایانه خوراسگان","ref":"۱۴۷","from":"حسن آباد","name":"خط ۱۴۷ (حسن آباد ← پایانه خوراسگان)","type":"route","route":"bus","colour":"#332bab","name:en":"Line 147 (Hasan Abad bus station → Khorasgan bus station)","operator":"شرکت واحد اتوبوسراني اصفهان و حومه","public_transport:version":"2"},"12446078":{"to":"پایانه خوراسگان","ref":"۷۳","from":"گورت","name":"خط ۷۳ (گورت ← پایانه خوراسگان)","type":"route","route":"bus","colour":"#810470","name:en":"Line 73 (Gavart bus station → Khorasgan bus station)","operator":"شرکت واحد اتوبوسرانی شهرداری اصفهان","public_transport:version":"2"},"12446079":{"to":"گورت","ref":"۷۳","from":"پایانه خوراسگان","name":"خط ۷۳ (پایانه خوراسگان ← گورت)","type":"route","route":"bus","colour":"#810470","name:en":"Line 73 (Khorasgan bus station → Gavart bus station)","operator":"شرکت واحد اتوبوسرانی شهرداری اصفهان","public_transport:version":"2"},"12447364":{"to":"چهارراه تهرانپارس","ref":"101","from":"پایانه آزادی","name":"پایانه آزادی - چهارراه تهرانپارس","type":"route","route":"bus","source":"tehran.ir","operator":"شرکت واحد اتوبوسرانی تهران"},"12449738":{"to":"اردیبهشتفروردین)","ref":"اصفهان - بهارستان (اردیبهشت","from":"پایانه صفه","name":"خط اصفهان - بهارستان (اردیبهشت)","type":"route","route":"bus","operator":"شهرداری بهارستان"},"12449739":{"to":"بهارستان (فروردین)","ref":"اصفهان - بهارستان (فروردین","from":"پایانه صفه","name":"خط اصفهان - بهارستان (فروردین)","type":"route","route":"bus","operator":"شهرداری بهارستان"},"12449740":{"to":"بهارستان (الفت)","ref":"اصفهان - بهارستان (الفت","from":"پایانه صفه","name":"خط اصفهان - بهارستان (الفت)","type":"route","route":"bus","operator":"شهرداری بهارستان"},"12449741":{"to":"پایانه صفه","ref":"اصفهان - بهارستان (اردیبهشت","from":"بهارستان (اردیبهشت)","name":"خط بهارستان (اردیبهشت) - اصفهان","type":"route","route":"bus","operator":"شهرداری بهارستان"},"12449742":{"to":"پایانه صفه","ref":"اصفهان - بهارستان (فروردین","from":"بهارستان (فروردین)","name":"خط بهارستان (فروردین) - اصفهان","type":"route","route":"bus","operator":"شهرداری بهارستان"},"12449743":{"to":"پایانه صفه","ref":"اصفهان - بهارستان (الفت","from":"بهارستان (الفت)","name":"خط بهارستان (الفت) - اصفهان","type":"route","route":"bus","operator":"شهرداری بهارستان"},"12450569":{"to":"میدان آزادی (دروازه شیراز)","ref":"اصفهان - بهارستان (میدان آزادی) - سریع السیر","from":"میدان آزادی بهارستان","name":"خط سریع السیر بهارستان (میدان آزادی) - اصفهان","type":"route","route":"bus","operator":"شهرداری بهارستان"},"12450570":{"to":"میدان آزادی (دروازه شیراز)","ref":"اصفهان - بهارستان (میدان ولیعصر) - سریع السیر","from":"میدان ولیعصر بهارستان","name":"خط سریع السیر بهارستان (میدان ولیعصر) - اصفهان","type":"route","route":"bus","operator":"شهرداری بهارستان"},"12450571":{"to":"میدان آزادی بهارستان","ref":"اصفهان - بهارستان (میدان آزادی) - سریع السیر","from":"میدان آزادی (دروازه شیراز)","name":"خط سریع السیر اصفهان - بهارستان (میدان آزادی)","type":"route","route":"bus","operator":"شهرداری بهارستان"},"12450572":{"to":"میدان ولیعصر بهارستان","ref":"اصفهان - بهارستان (میدان ولیعصر) - سریع السیر","from":"میدان آزادی (دروازه شیراز)","name":"خط سریع السیر اصفهان - بهارستان (میدان ولیعصر)","type":"route","route":"bus","operator":"شهرداری بهارستان"},"12454305":{"to":"هسا","ref":"هسا","from":"پایانه حافظ","name":"خط ۶ - حافظ - هسا","type":"route","route":"bus","operator":"سازمان مدیریت حمل‌و‌نقل شهرداری شاهین‌شهر"},"12454306":{"to":"پایانه حافظ","ref":"هسا","from":"هسا","name":"خط ۶ - هسا - حافظ","type":"route","route":"bus","operator":"سازمان مدیریت حمل‌و‌نقل شهرداری شاهین‌شهر"},"12454307":{"to":"گرگاب","ref":"گرگاب","from":"پایانه حافظ","name":"خط ۵ - حافظ - 'گرگاب","type":"route","route":"bus","operator":"سازمان مدیریت حمل‌و‌نقل شهرداری شاهین‌شهر"},"12454308":{"to":"پایانه حافظ","ref":"گرگاب","from":"گرگاب","name":"خط ۵ - گرگاب - حافظ","type":"route","route":"bus","operator":"سازمان مدیریت حمل‌و‌نقل شهرداری شاهین‌شهر"},"12456470":{"to":"میدان ۲۲ بهمن","ref":"خمینی شهر - دانشگاه صنعتی","from":"دانشگاه صنعتی","name":"خط دانشگاه صنعتی - خمینی شهر","type":"route","route":"bus","operator":"سازمان اتوبوسرانی خمینی شهر"},"12456471":{"to":"دانشگاه صنعتی","ref":"خمینی شهر - دانشگاه صنعتی","from":"میدان ۲۲ بهمن","name":"خط خمینی شهر - دانشگاه صنعتی","type":"route","route":"bus","operator":"سازمان اتوبوسرانی خمینی شهر"},"12460046":{"to":"دانشگاه صنعتی","ref":"۲۶۷","from":"مترو قدس","name":"خط ۲۶۷ (مترو قدس ← دانشگاه صنعتی)","type":"route","route":"bus","name:en":"Line 267 (Qods Metro bus station → Poly Technic university bus station)","operator":"شرکت واحد اتوبوسرانی شهرداری اصفهان","public_transport:version":"2"},"12460047":{"to":"شهرک علمی و تحقیقات","ref":"۱۶۹","from":"مترو قدس","name":"خط ۱۶۹ (مترو قدس ← شهرک علمی و تحقیقات)","type":"route","route":"bus","name:en":"Line 169 (Qods Metro bus station → Research & Science suburb bus station)","operator":"شرکت واحد اتوبوسرانی شهرداری اصفهان","public_transport:version":"2"},"12460048":{"to":"دانشگاه صنعتی","ref":"۶۷","from":"میدان جمهوری (دروازه تهران)","name":"خط ۶۷ (میدان جمهوری (دروازه تهران) ← دانشگاه صنعتی)","type":"route","route":"bus","name:en":"Line 67 (Jomhoori bus station → Poly Technic university bus station)","operator":"شرکت واحد اتوبوسرانی شهرداری اصفهان","public_transport:version":"2"},"12460049":{"to":"مترو قدس","ref":"۱۶۹","from":"شهرک علمی و تحقیقات","name":"خط ۱۶۹ (شهرک علمی و تحقیقات ← مترو قدس)","type":"route","route":"bus","name:en":"Line 169 (Research & Science suburb bus station → Qods Metro bus station)","operator":"شرکت واحد اتوبوسرانی شهرداری اصفهان","public_transport:version":"2"},"12460050":{"to":"مترو قدس","ref":"۲۶۷","from":"دانشگاه صنعتی","name":"خط ۲۶۷ (دانشگاه صنعتی ← مترو قدس)","type":"route","route":"bus","name:en":"Line 267 (Poly Technic university bus station → Qods Metro bus station)","operator":"شرکت واحد اتوبوسرانی شهرداری اصفهان","public_transport:version":"2"},"12460051":{"to":"میدان جمهوری (دروازه تهران)","ref":"۶۷","from":"دانشگاه صنعتی","name":"خط ۶۷ (دانشگاه صنعتی ← میدان جمهوری (دروازه تهران))","type":"route","route":"bus","name:en":"Line 67 (Poly Technic university bus station → Jomhoori bus station)","operator":"شرکت واحد اتوبوسرانی شهرداری اصفهان","public_transport:version":"2"},"12462271":{"to":"مترو قدس","ref":"۵۶","from":"دهنو","name":"خط ۵۶ (دهنو ← مترو قدس)","type":"route","route":"bus","name:en":"Line 56 (Dehno bus station → Qods Metro bus station)","operator":"شرکت واحد اتوبوسراني اصفهان و حومه","public_transport:version":"2"},"12462272":{"to":"دهنو","ref":"۵۶","from":"مترو قدس","name":"خط ۵۶ (مترو قدس ← دهنو)","type":"route","route":"bus","name:en":"Line 56 (Qods Metro bus station → Dehno bus station)","operator":"شرکت واحد اتوبوسراني اصفهان و حومه","public_transport:version":"2"},"12462273":{"to":"مترو قدس","ref":"۱۰۸","from":"بختیاردشت","name":"خط ۱۰۸ (بختیاردشت ← مترو قدس)","type":"route","route":"bus","name:en":"Line 108 (Bakhtiar Dasht suburb bus station → Qods Metro bus station)","operator":"شرکت واحد اتوبوسرانی شهرداری اصفهان","public_transport:version":"2"},"12462274":{"to":"مترو قدس","ref":"۳۰","from":"شهرک شهید منتظری","name":"خط ۳۰ (شهرک شهید منتظری ← مترو قدس)","type":"route","route":"bus","name:en":"Line 30 (Shahid Montazeri suburb bus station → Qods Metro bus station)","operator":"شرکت واحد اتوبوسرانی شهرداری اصفهان","public_transport:version":"2"},"12462275":{"to":"بختیاردشت","ref":"۱۰۸","from":"مترو قدس","name":"خط ۱۰۸ (مترو قدس ← بختیاردشت)","type":"route","route":"bus","name:en":"Line 108 (Qods Metro bus station → Bakhtiar Dasht suburb bus station)","operator":"شرکت واحد اتوبوسرانی شهرداری اصفهان","public_transport:version":"2"},"12462276":{"to":"شهرک شهید منتظری","ref":"۳۰","from":"مترو قدس","name":"خط ۳۰ (مترو قدس ← شهرک شهید منتظری)","type":"route","route":"bus","name:en":"Line 30 (Qods Metro bus station → Shahid Montazeri suburb bus station)","operator":"شرکت واحد اتوبوسراني اصفهان و حومه","public_transport:version":"2"},"12462277":{"to":"امیرکبیر","ref":"۸۸","from":"مترو قدس","name":"خط ۸۸ (مترو قدس ← امیرکبیر)","type":"route","route":"bus","name:en":"Line 88 (Qods Metro bus station → Amir Kabir bus station)","operator":"شرکت واحد اتوبوسرانی شهرداری اصفهان","public_transport:version":"2"},"12462278":{"to":"شهرک مهدیه","ref":"۱۹","from":"مترو قدس","name":"خط ۱۹ (مترو قدس ← شهرک مهدیه)","type":"route","route":"bus","name:en":"Line 19 (Qods subway suburb bus station → Mahdiyeh bus station)","operator":"شرکت واحد اتوبوسرانی شهرداری اصفهان","public_transport:version":"2"},"12462279":{"to":"مترو قدس","ref":"۸۸","from":"امیرکبیر","name":"خط ۸۸ (امیرکبیر ← مترو قدس)","type":"route","route":"bus","name:en":"Line 88 (Amir Kabir bus station → Qods Metro bus station)","operator":"شرکت واحد اتوبوسرانی شهرداری اصفهان","public_transport:version":"2"},"12462280":{"to":"مترو قدس","ref":"۱۹","from":"شهرک مهدیه","name":"خط ۱۹ (شهرک مهدیه ← مترو قدس)","type":"route","route":"bus","name:en":"Line 19 (Mahdiyeh suburb bus station → Qods subway bus station)","operator":"شرکت واحد اتوبوسراني اصفهان و حومه","public_transport:version":"2"},"12477592":{"to":"شهید علیخانی","ref":"۹۴","via":"پایانه خرم","from":"پایانه صفه","name":"خط ۹۴ (پایانه صفه ← شهید علیخانی)","type":"route","route":"bus","name:en":"Line 94 (Seffeh bus station → Shahid Alikhani bus station)","public_transport:version":"2"},"12477593":{"to":"پایانه صفه","ref":"۹۴","via":"پایانه خرم","from":"شهید علیخانی","name":"خط ۹۴ (شهید علیخانی ← پایانه صفه)","type":"route","route":"bus","name:en":"Line 94 (Shahid Alikhani bus station → Seffeh bus station)","public_transport:version":"2"},"12479517":{"ref":"202","name":"میدان شهید کلاهدوز - بلوار هجرت","type":"route","route":"bus","operator":"شرکت واحد اتوبوسرانی تهران"},"12480667":{"to":"پایانه صفه","ref":"۸۰","from":"سه راه ملک شهر","name":"خط ۸۰ (سه راه ملک شهر ← پایانه صفه)","type":"route","route":"bus","colour":"#0924aa","name:en":"Line 80 (Malek Shahr cross bus station → Seffeh bus station)","operator":"شرکت واحد اتوبوسرانی شهرداری اصفهان","public_transport:version":"2"},"12480668":{"to":"سه راه ملک شهر","ref":"۸۰","from":"پایانه صفه","name":"خط ۸۰ (پایانه صفه ← سه راه ملک شهر)","type":"route","route":"bus","colour":"#0924aa","name:en":"Line 80 (Seffeh bus station → Malek Shahr cross bus station)","operator":"شرکت واحد اتوبوسرانی شهرداری اصفهان","public_transport:version":"2"},"12482610":{"to":"فرهنگ‌شهر","fee":"yes","ref":"4","from":"فلکه شهرداری","name":"خط فرهنگ‌شهر","type":"route","route":"bus","colour":"#009999","operator":"شهرداری","opening_hours":"Mo-Su 06:00-20:00; Fr off","public_transport:version":"2"},"12482611":{"to":"فلکه شهرداری","fee":"yes","ref":"4","from":"فرهنگ‌شهر","name":"خط فرهنگ‌شهر","type":"route","route":"bus","colour":"#009999","interval":"15","operator":"شهرداری","opening_hours":"Mo-Su 06:00-20:00; Fr off","public_transport:version":"2"},"12484105":{"to":"ابوریحان بیرونی","ref":"۲۲","from":"پایانه خرم","name":"خط ۲۲ (پایانه خرم ← ابوریحان بیرونی)","type":"route","route":"bus","name:en":"Line 22 (Khoram bus station → Abo Reyhan Birooni bus station)","operator":"شرکت واحد اتوبوسرانی شهرداری اصفهان","public_transport:version":"2"},"12484106":{"to":"پایانه خرم","ref":"۲۲","from":"ابوریحان بیرونی","name":"خط ۲۲ (ابوریحان بیرونی ← پایانه خرم)","type":"route","route":"bus","name:en":"Line 22 (Abo Reyhan Birooni bus station → Khoram bus station)","operator":"شرکت واحد اتوبوسرانی شهرداری اصفهان","public_transport:version":"2"},"12489339":{"to":"میدان جمهوری اسلامی (دروازه تهران)","ref":"۷۷","from":"شهرک آزادگان","name":"خط ۷۷ (شهرک آزادگان ← میدان جمهوری اسلامی (دروازه تهران))","type":"route","route":"bus","name:en":"Line 77 (Azadegan suburb bus station → Jomhoori Eslami square bus station)","operator":"شرکت واحد اتوبوسرانی شهرداری اصفهان","public_transport:version":"2"},"12489340":{"to":"شهرک آزادگان","ref":"۷۷","from":"میدان جمهوری اسلامی (دروازه تهران)","name":"خط ۷۷ (میدان جمهوری اسلامی (دروازه تهران) ← شهرک آزادگان)","type":"route","route":"bus","name:en":"Line 77 (Jomhoori Eslami square bus station → Azadegan suburb bus station)","operator":"شرکت واحد اتوبوسرانی شهرداری اصفهان","public_transport:version":"2"},"12490798":{"to":"میدان صنعت","ref":"290","from":"پایانه ‌مترو صادقیه","name":"پایانه ‌مترو صادقیه - میدان صنعت","type":"route","route":"bus","source":"tehran.ir","operator":"شرکت واحد اتوبوسرانی تهران"},"12550622":{"to":"میدان راه آهن","ref":"336","from":"پایانه بلوار قدس","name":"پایانه بلوار قدس - میدان راه آهن","type":"route","route":"bus","operator":"شرکت واحد اتوبوسرانی تهران"},"12582382":{"to":"پایانه جنت آباد","ref":"110","from":"پایانه آزادگان","name":"پایانه آزادگان - پایانه جنت آباد","type":"route","route":"bus","operator":"شرکت واحد اتوبوسرانی تهران","opening_hours":"05:30-21:30"},"12722457":{"to":"پایانه انقلاب اسلامی","ref":"63","from":"انتهای شهرک شهید آقا مصطفی خمینی","name":"خط ۶۳ (انتهای شهرک شهید آقا مصطفی خمینی ← پایانه انقلاب اسلامی)","type":"route","route":"bus","name:en":"Line 63 (Shahid Agha Mostafa Khomeini suburb → Enghelab Eslami bus station)","operator":"سازمان اتوبوسرانی مشهد","public_transport:version":"2"},"12722458":{"to":"پایانه انقلاب اسلامی","ref":"EXP-9","from":"پایانه انقلاب اسلامی","name":"خط ۹ تندرو (گردشی)","type":"route","route":"bus","name:en":"ExpressLine 9 (Roundtrip)","operator":"سازمان اتوبوسرانی مشهد","roundtrip":"yes","public_transport:version":"2"},"12722459":{"to":"شهرک شیرین","ref":"61","from":"پایانه انقلاب اسلامی","name":"خط ۶۱ (پایانه انقلاب اسلامی ← شهرک شیرین)","type":"route","route":"bus","name:en":"Line 61 (Enghelab Eslami bus station → Shirin suburb)","operator":"سازمان اتوبوسرانی مشهد","public_transport:version":"2"},"12724618":{"to":"پایانه معراج","ref":"85","via":"پایانه انقلاب اسلامی","from":"پایانه امام رضا","name":"خط ۸۵ (پایانه امام رضا ← پایانه معراج)","type":"route","route":"bus","name:en":"Line 85 (Imam Reza bus station → Meraj bus station)","operator":"سازمان اتوبوسرانی مشهد","public_transport:version":"2"},"12724619":{"to":"پایانه انقلاب اسلامی","ref":"EXP-8","from":"پایانه انقلاب اسلامی","name":"خط ۸ تندرو (گردشی)","type":"route","route":"bus","name:en":"ExpressLine 8 (Roundtrip)","operator":"سازمان اتوبوسرانی مشهد","roundtrip":"yes","public_transport:version":"2"},"12724620":{"to":"پایانه آزادی","ref":"100","via":"پایانه انقلاب اسلامی","from":"پایانه مصلی","name":"خط ۱۰۰ (پایانه مصلی ← پایانه آزادی)","type":"route","route":"bus","name:en":"Line 100 (Mosalla bus station → Azadi bus station)","operator":"سازمان اتوبوسرانی مشهد","public_transport:version":"2"},"12732781":{"to":"پایانه گردشگری","ref":"80","from":"پایانه زکریا","name":"خط ۸۰ (پایانه زکریا ← پایانه گردشگری)","type":"route","route":"bus","name:en":"Line 80 (Zakaria bus station → Gardeshgari bus station)","operator":"سازمان اتوبوسرانی مشهد","public_transport:version":"2"},"12732782":{"to":"پایانه زکریا","ref":"38","via":"پایانه شهدا","from":"پایانه خواجه ربیع","name":"خط ۳۸(پایانه خواجه ربیع ← پایانه زکریا)","type":"route","route":"bus","name:en":"Line 38 (Khaje Rabie bus station → Zakaria bus station)","operator":"سازمان اتوبوسرانی مشهد","public_transport:version":"2"},"12739429":{"to":"پایانه فردوسی","ref":"7","from":"پایانه الهیه","name":"خط ۷ (پایانه الهیه ← پایانه فردوسی)","type":"route","route":"bus","name:en":"Line 7 (Elahiyeh bus station → Ferdowsi bus station)","operator":"سازمان اتوبوسرانی مشهد","public_transport:version":"2"},"12739430":{"to":"پایانه الهیه","ref":"7","from":"پایانه فردوسی","name":"خط ۷ (پایانه فردوسی ← پایانه الهیه)","type":"route","route":"bus","name:en":"Line 7 (Ferdowsi bus station → Elahiyeh bus station)","operator":"سازمان اتوبوسرانی مشهد","public_transport:version":"2"},"12894288":{"to":"پایانه فردوسی","ref":"95","from":"پایانه سرافرازان","name":"خط ۹۵ (پایانه سرافرازان ← پایانه فردوسی)","type":"route","route":"bus","name:en":"Line 95 (Sarafrazan bus station → Ferdowsi bus station)","operator":"سازمان اتوبوسرانی مشهد","public_transport:version":"2"},"12894289":{"to":"پایانه سرافرازان","ref":"95","from":"پایانه فردوسی","name":"خط ۹۵ (پایانه فردوسی ← پایانه سرافرازان)","type":"route","route":"bus","name:en":"Line 95 (Ferdowsi bus station → Sarafrazan bus station)","operator":"سازمان اتوبوسرانی مشهد","public_transport:version":"2"},"12895555":{"to":"پایانه امام رضا","ref":"85","from":"پایانه معراج","name":"خط ۸۵ (پایانه معراج ← پایانه امام رضا)","type":"route","route":"bus","name:en":"Line 85 (Meraj bus station → Imam Reza bus station)","operator":"سازمان اتوبوسرانی مشهد","public_transport:version":"2"},"12897591":{"to":"پایانه گردشگری","ref":"21","from":"پایانه شهدا","name":"خط ۲۱ (پایانه شهدا ← پایانه گردشگری)","type":"route","route":"bus","name:en":"Line 21 (Shohada bus station → Gardeshgari bus station)","operator":"سازمان اتوبوسرانی مشهد","public_transport:version":"2"},"12902440":{"to":"پایانه خواجه ربیع","ref":"88","from":"پایانه آزادی","name":"خط ۸۸ (پایانه آزادی ← پایانه خواجه ربیع)","type":"route","route":"bus","name:en":"Line 88 (Azadi bus station → Khaje Rabi bus station)","operator":"سازمان اتوبوسرانی مشهد","public_transport:version":"2"},"12909511":{"to":"پایانه الهیه","ref":"17","from":"پایانه آزادی","name":"خط ۱۷ (پایانه آزادی ← پایانه الهیه)","type":"route","route":"bus","name:en":"Line 17 (Azadi bus station → Elahiyeh bus station)","operator":"سازمان اتوبوسرانی مشهد","public_transport:version":"2"},"12909965":{"to":"پایانه آزادی","ref":"17.1","from":"پایانه الهیه","name":"خط ۱۷/۱(پایانه الهیه ← پایانه آزادی)","type":"route","route":"bus","name:en":"Line 17.1 (Elahiyeh bus station → Azadi bus station)","operator":"سازمان اتوبوسرانی مشهد","public_transport:version":"2"},"12909966":{"to":"پایانه الهیه","ref":"17.1","from":"پایانه آزادی","name":"خط ۱۷/۱ (پایانه آزادی ← پایانه الهیه)","type":"route","route":"bus","name:en":"Line 17.1 (Azadi bus station → Elahiyeh bus station)","operator":"سازمان اتوبوسرانی مشهد","public_transport:version":"2"},"12914909":{"to":"پایانه شهید جوان","ref":"37.1","from":"پایانه شهید مفتح","name":"خط ۳۷/۱ (پایانه شهید مفتح ← پایانه شهید جوان)","type":"route","route":"bus","name:en":"Line 37.1 (Shahid Mofateh bus station → Shahid Javan bus station)","operator":"سازمان اتوبوسرانی مشهد","public_transport:version":"2"},"12916882":{"to":"پایانه آزادی","ref":"38.1","via":"پایانه شهدا","from":"پایانه راه آهن","name":"خط ۳۸/۱(پایانه راه آهن ← پایانه آزادی)","type":"route","route":"bus","name:en":"Line 38.1 (Railway bus station → Azadi bus station)","public_transport:version":"2"},"12917149":{"to":"ایستگاه ابتدای احمدآباد","ref":"92","from":"ایستگاه نوفل لوشاتو ۲۶","name":"خط ۹۲ (ایستگاه نوفل لوشاتو ۲۶ ← ایستگاه ابتدای احمدآباد)","type":"route","route":"bus","name:en":"Line 92 (Nofel Loshato 26 bus stop → Ahmadabad boulevard bus stop)","public_transport:version":"2"},"12917150":{"to":"ایستگاه نوفل لوشاتو ۲۶","ref":"92","from":"ایستگاه ابتدای احمدآباد","name":"خط ۹۲ (ایستگاه ابتدای احمدآباد ← ایستگاه نوفل لوشاتو ۲۶)","type":"route","route":"bus","name:en":"Line 92 (Ahmadabad boulevard bus stop → Nofel Loshato 26)","public_transport:version":"2"},"12927514":{"to":"ایستگاه بیمارستان فارابی","ref":"98.1","from":"پایانه سرافرازان","name":"خط ۹۸/۱ (پایانه سرافرازان ← ایستگاه بیمارستان فارابی)","type":"route","route":"bus","name:en":"Line 98.1 (Sarafrazan bus station → Farabi hospital bus stop)","operator":"سازمان اتوبوسرانی مشهد","public_transport:version":"2"},"12928143":{"to":"پایانه غدیر","ref":"10","from":"پایانه وکیل آباد","name":"خط ۱۰ (پایانه وکیل آباد ← پایانه غدیر)","type":"route","route":"bus","name:en":"Line 10 (Vakilabad bus station → Ghadir bus station)","operator":"سازمان اتوبوسرانی مشهد","public_transport:version":"2"},"12928144":{"to":"پایانه وکیل آباد","ref":"10","from":"پایانه غدیر","name":"خط ۱۰ (پایانه غدیر ← پایانه وکیل آباد)","type":"route","route":"bus","name:en":"Line 10 (Ghadir bus station → Vakilabad bus station)","operator":"سازمان اتوبوسرانی مشهد","public_transport:version":"2"},"12933677":{"to":"پایانه شهید جوان","ref":"98","from":"پایانه سرافرازان","name":"خط ۹۸ (پایانه سرافرازان ← پایانه شهید جوان)","type":"route","route":"bus","name:en":"Line 98 (Sarafrazan bus station → Shahid Javn bus station)","operator":"سازمان اتوبوسرانی مشهد","public_transport:version":"2"},"12933678":{"to":"پایانه سرافرازان","ref":"98","from":"پایانه شهید جوان","name":"خط ۹۸ (پایانه شهید جوان ← پایانه سرافرازان)","type":"route","route":"bus","name:en":"Line 98 (Shahid Javan bus station → Sarafrazan bus station)","operator":"سازمان اتوبوسرانی مشهد","public_transport:version":"2"},"12934359":{"to":"پایانه آزادی","ref":"97","from":"پایانه سرافرازان","name":"خط ۹۷ (پایانه سرافرازان ← پایانه آزادی)","type":"route","route":"bus","name:en":"Line 97 (Sarafrazan bus station → Azadi bus station)","operator":"سازمان اتوبوسرانی مشهد","public_transport:version":"2"},"12934360":{"to":"پایانه سرافرازان","ref":"97","from":"پایانه آزادی","name":"خط ۹۷ (پایانه آزادی ← پایانه سرافرازان)","type":"route","route":"bus","name:en":"Line 97 (Azadi bus station → Sarafrazan bus station)","operator":"سازمان اتوبوسرانی مشهد","public_transport:version":"2"},"12936970":{"to":"پایانه فردوسی","ref":"11","from":"پایانه وکیل آباد","name":"خط ۱۱ (پایانه وکیل آباد ← پایانه فردوسی)","type":"route","route":"bus","name:en":"Line 11 (Vakilabad bus station → Ferdowsi bus station)","operator":"سازمان اتوبوسرانی مشهد","public_transport:version":"2"},"12936971":{"to":"پایانه وکیل آباد","ref":"11","from":"پایانه فردوسی","name":"خط ۱۱ (پایانه فردوسی ← پایانه وکیل آباد)","type":"route","route":"bus","name:en":"Line 11 (Ferdowsi bus station → Vakilabad bus station)","operator":"سازمان اتوبوسرانی مشهد","public_transport:version":"2"},"12938016":{"to":"جرم مطهر","ref":"50","from":"پایانه شهدا","name":"خط ۵۰ (پایانه شهدا ← حرم مطهر (شیرازی))","type":"route","route":"bus","name:en":"Line 50 (Shohada bus station → Holy Shrine (Shirazi))","operator":"سازمان اتوبوسرانی مشهد","public_transport:version":"2"},"12939470":{"to":"پایانه گردشگری","ref":"81","from":"پایانه شهید جوان","name":"خط ۸۰ (پایانه شهید جوان ← پایانه گردشگری)","type":"route","route":"bus","name:en":"Line 81 (Shahid Javan bus station → Gardeshgari bus station)","operator":"سازمان اتوبوسرانی مشهد","public_transport:version":"2"},"12939471":{"to":"پایانه شهید جوان","ref":"81","from":"پایانه گردشگری","name":"خط ۸۱ (پایانه گردشگری ← پایانه شهید جوان)","type":"route","route":"bus","name:en":"Line 81 (Gardeshgari bus station → Shahid Javan bus station)","operator":"سازمان اتوبوسرانی مشهد","public_transport:version":"2"},"12943356":{"to":"پایانه وکیل آباد","ref":"12","from":"حرم مطهر (شیرازی)","name":"خط ۱۲ (حرم مطهر (شیرازی) ← پایانه وکیل آباد)","type":"route","route":"bus","name:en":"Line 12 (Holy Shrine (Shirazi) → Vakilabad bus station)","operator":"سازمان اتوبوسرانی مشهد","public_transport:version":"2"},"12943944":{"to":"حرم مطهر (باب الجواد)","ref":"210","from":"پایانه گردشگری","name":"خط ۲۱۰ (پایانه گردشگری ← حرم مطهر(باب الجواد))","type":"route","route":"bus","name:en":"Line 210 (Gardeshgari bus station → Holy Shrine(Bab-ol-Javad))","operator":"سازمان اتوبوسرانی مشهد","public_transport:version":"2"},"12943945":{"to":"پایانه گردشگری","ref":"210","from":"حرم مطهر (باب الجواد)","name":"خط ۲۱۰ (حرم مطهر(باب الجواد) ← پایانه گردشگری)","type":"route","route":"bus","name:en":"Line 210 (Holy Shrine(Bab-ol-Javad) → Gardeshgari bus station)","operator":"سازمان اتوبوسرانی مشهد","public_transport:version":"2"},"12946471":{"to":"پایانه گردشگری","ref":"22.2","via":"پایانه فردوسی","from":"پایانه انقلاب اسلامی","name":"خط ۲۲/۲(حرم مطهر(باب الجواد) ← پایانه گردشگری)","type":"route","route":"bus","name:en":"Line 22.2 (Enghlab Eslami bus station → Gardeshgari bus station)","operator":"سازمان اتوبوسرانی مشهد","public_transport:version":"2"},"12946472":{"to":"پایانه انقلاب اسلامی","ref":"22.2","from":"پایانه گردشگری","name":"خط ۲۲/۲ (پایانه گردشگری ← پایانه انقلاب اسلامی)","type":"route","route":"bus","name:en":"Line 22.2 (Gardeshgari bus station → Enghelab Eslami bus station)","operator":"سازمان اتوبوسرانی مشهد","public_transport:version":"2"},"12954935":{"to":"پایانه انقلاب اسلامی","ref":"EXP-2","via":"پایانه شهدا","from":"پایانه خواجه ربیع","name":"خط ۲ تندرو (پایانه خواجه ربیع ← پایانه انقلاب اسلامی)","type":"route","route":"bus","name:en":"ExpressLine 2 (Khaje Rabie bus station → Eslami bus station)","operator":"سازمان اتوبوسرانی مشهد","public_transport:version":"2"},"12956232":{"to":"پایانه آزادی","ref":"16.1","from":"پایانه الهیه","name":"خط ۱۶/۱(پایانه الهیه ← پایانه آزادی)","type":"route","route":"bus","name:en":"Line 16.1 (Elahiyeh bus station → Azadi bus station)","operator":"سازمان اتوبوسرانی مشهد","public_transport:version":"2"},"12956233":{"to":"پایانه الهیه","ref":"16.1","from":"پایانه آزادی","name":"خط ۱۶/۱ (پایانه آزادی ← پایانه الهیه)","type":"route","route":"bus","name:en":"Line 16.1 (Azadi bus station → Elahiyeh bus station)","operator":"سازمان اتوبوسرانی مشهد","public_transport:version":"2"},"12979843":{"to":"پایانه شهید هاشمی نژاد","ref":"45","from":"پایانه شهید مفتح شرقی","name":"خط ۴۵ (پایانه شهید مفتح شرقی ← پایانه شهید هاشمی نژاد)","type":"route","route":"bus","name:en":"Line 45 (East Shahid Mofateh bus station → Shahid Hasheminejad bus station)","operator":"سازمان اتوبوسرانی مشهد","public_transport:version":"2"},"12987789":{"to":"پایانه خواجه ربیع","ref":"32","from":"پایانه غدیر","name":"خط ۳۲ (پایانه غدیر ← پایانه خواجه ربیع)","type":"route","route":"bus","name:en":"Line 32 (Ghadir bus station → Khaje Rabie bus station)","operator":"سازمان اتوبوسرانی مشهد","public_transport:version":"2"},"12989500":{"to":"پایانه غدیر","ref":"68","from":"پایانه شهید مفتح","name":"خط ۶۸ (پایانه شهید مفتح ← پایانه غدیر)","type":"route","route":"bus","name:en":"Line 68 (Shahid Mofateh bus station → Ghadir bus station)","public_transport:version":"2"},"12991432":{"to":"پایانه مصلی","ref":"35","from":"پایانه خواجه ربیع","name":"خط ۳۵ (پایانه آزادی ← پایانه خواجه ربیع)","type":"route","route":"bus","name:en":"Line 35 (Khaje Rabie bus station → Mosalla bus station)","operator":"سازمان اتوبوسرانی مشهد","public_transport:version":"2"},"12991433":{"to":"پایانه خواجه ربیع","ref":"35","from":"پایانه مصلی","name":"خط ۳۵ (پایانه مصلی ← پایانه خواجه ربیع)","type":"route","route":"bus","name:en":"Line 35 (Mosalla bus station → Khaje Rabie bus station)","operator":"سازمان اتوبوسرانی مشهد","public_transport:version":"2"},"12992314":{"to":"پایانه خواجه ربیع","ref":"34","from":"پایانه شهید گمنام","name":"خط ۳۴ (پایانه شهید گمنام ← پایانه خواجه ربیع)","type":"route","route":"bus","name:en":"Line 34 (Shahid Gomnam bus station → Khaje Rabie bus station)","operator":"سازمان اتوبوسرانی مشهد","public_transport:version":"2"},"12994022":{"to":"پایانه الهیه","ref":"42","from":"پایانه شهید جوان","name":"خط ۴۲ (پایانه شهید جوان ← پایانه الهیه)","type":"route","route":"bus","name:en":"Line 42 (Shahid Javan bus station → Elahiyeh bus station)","operator":"سازمان اتوبوسرانی مشهد","public_transport:version":"2"},"12994723":{"to":"پایانه شهید مفتح","ref":"EXP-3","from":"پایانه الهیه","name":"خط ۳ تندرو (پایانه الهیه ← پایانه شهید مفتح)","type":"route","route":"bus","name:en":"ExpressLine 3 (Elahiyeh bus station → Shahid Mofateh bus station)","operator":"سازمان اتوبوسرانی مشهد","public_transport:version":"2"},"13010658":{"to":"پایانه آزادی","ref":"94","from":"شهرک صابر","name":"خط ۹۴ (شهرک صابر ← پایانه آزادی)","type":"route","route":"bus","name:en":"Line 94 (Saber suburb → Azadi bus station)","operator":"سازمان اتوبوسرانی مشهد","public_transport:version":"2"},"13010659":{"to":"شهرک صابر","ref":"94","from":"پایانه آزادی","name":"خط ۹۴ (پایانه آزادی ← شهرک صابر)","type":"route","route":"bus","name:en":"Line 94 (Azadi bus station → Saber suburb)","operator":"سازمان اتوبوسرانی مشهد","public_transport:version":"2"},"13013732":{"to":"پایانه شهید مفتح","ref":"37","via":"پایانه شهید هاشمی نژاد","from":"پایانه غدیر","name":"خط ۳۷ (پایانه غدیر ← پایانه شهید مفتح)","type":"route","route":"bus","name:en":"Line 37 (Ghadir bus station → Shahid Mofateh bus station)","operator":"سازمان اتوبوسرانی مشهد","public_transport:version":"2"},"13015485":{"to":"پایانه شهید جوان","ref":"15","from":"پایانه الهیه","name":"خط ۱۵ (پایانه الهیه ← پایانه شهید جوان)","type":"route","route":"bus","name:en":"Line 15 (Elahiyeh bus station → Shahid Javan bus station)","operator":"سازمان اتوبوسرانی مشهد","public_transport:version":"2"},"13015486":{"to":"پایانه الهیه","ref":"15","from":"پایانه شهید جوان","name":"خط ۱۵ (پایانه شهید جوان ← پایانه الهیه)","type":"route","route":"bus","name:en":"Line 15 (Shahid Javan bus station → Elahiyeh bus station)","operator":"سازمان اتوبوسرانی مشهد","public_transport:version":"2"},"13016690":{"to":"پایانه خواجه ربیع","ref":"99","from":"پایانه وکیل آباد","name":"خط ۹۹ (پایانه وکیل آباد ← پایانه خواجه ربیع)","type":"route","route":"bus","name:en":"Line 99 (Vakilabad bus station → Khaje Rabie bus station)","operator":"سازمان اتوبوسرانی مشهد","public_transport:version":"2"},"13016691":{"to":"پایانه وکیل آباد","ref":"99","from":"پایانه خواجه ربیع","name":"خط ۹۹ (پایانه خواجه ربیع ← پایانه وکیل آباد)","type":"route","route":"bus","name:en":"Line 99 (Khaje Rabi bus station → Vakilabad bus station)","operator":"سازمان اتوبوسرانی مشهد","public_transport:version":"2"},"13019790":{"to":"پایانه الهیه","ref":"13","from":"پایانه وکیل آباد","name":"خط ۱۳ (پایانه وکیل آباد ← پایانه الهیه)","type":"route","route":"bus","name:en":"Line 13 (Vakilabad bus station → Elahiyeh bus station)","operator":"سازمان اتوبوسرانی مشهد","public_transport:version":"2"},"13019791":{"to":"پایانه وکیل آباد","ref":"13","from":"پایانه الهیه","name":"خط ۱۳ (پایانه الهیه ← پایانه وکیل آباد)","type":"route","route":"bus","name:en":"Line 13 (Elahiyeh bus station → Vakilabad bus station)","operator":"سازمان اتوبوسرانی مشهد","public_transport:version":"2"},"13021173":{"to":"پایانه الهیه","ref":"EXP-4","from":"پایانه الهیه","name":"خط ۴ تندرو (پایانه الهیه ← پایانه امام رضا )","type":"route","route":"bus","name:en":"ExpressLine 4 (Elahiyeh bus station → Imam Reza bus station)","operator":"سازمان اتوبوسرانی مشهد","public_transport:version":"2"},"13022575":{"to":"پایانه وکیل آباد","ref":"13.1","from":"پایانه الهیه","name":"خط ۱۳/۱ (پایانه الهیه ← پایانه وکیل آباد)","type":"route","route":"bus","name:en":"Line 13.1 (Elahiyeh bus station → Vakilabad bus station)","operator":"سازمان اتوبوسرانی مشهد","public_transport:version":"2"},"13022576":{"to":"پایانه الهیه","ref":"13.1","from":"پایانه وکیل آباد","name":"خط ۱۳/۱ (پایانه وکیل آباد ← پایانه الهیه)","type":"route","route":"bus","name:en":"Line 13.1 (Vakilabad bus station → Elahiyeh bus station)","operator":"سازمان اتوبوسرانی مشهد","public_transport:version":"2"},"13028109":{"to":"پایانه انقلاب اسلامی","ref":"61","from":"شهرک شیرین","name":"خط ۶۱ (شهرک شیرین ← پایانه انقلاب اسلامی)","type":"route","route":"bus","name:en":"Line 61 (Shirin suburb → Enghelab Eslami bus station)","operator":"سازمان اتوبوسرانی مشهد","public_transport:version":"2"},"13028690":{"to":"پایانه شهید جوان","ref":"28.1","via":"پایانه فردوسی","from":"پایانه مصلی","name":"خط ۲۸/۱ (پایانه مصلی ← پایانه شهید جوان)","type":"route","route":"bus","name:en":"Line 28.1 (Mosalla bus station → Shahid Javan bus station)","operator":"سازمان اتوبوسرانی مشهد","public_transport:version":"2"},"13028691":{"to":"پایانه مصلی","ref":"28.1","via":"پایانه فردوسی","from":"پایانه شهید جوان","name":"خط ۲۸/۱ (پایانه شهید جوان ← پایانه مصلی)","type":"route","route":"bus","name:en":"Line 28.1 (Shahid Javan bus station → Mosalla bus station)","operator":"سازمان اتوبوسرانی مشهد","public_transport:version":"2"},"13028881":{"to":"پایانه آزادی","ref":"14","from":"پایانه الهیه","name":"خط ۱۴(پایانه الهیه ← پایانه آزادی)","type":"route","route":"bus","name:en":"Line 14 (Elahiyeh bus station → Azadi bus station)","operator":"سازمان اتوبوسرانی مشهد","public_transport:version":"2"},"13028882":{"to":"پایانه الهیه","ref":"14","from":"پایانه آزادی","name":"خط ۱۴ (پایانه آزادی ← پایانه الهیه)","type":"route","route":"bus","name:en":"Line 14 (Azadi bus station → Elahiyeh bus station)","operator":"سازمان اتوبوسرانی مشهد","public_transport:version":"2"},"13030541":{"to":"پایانه آزادی","ref":"18.1","from":"پایانه الهیه","name":"خط ۱۸/۱(پایانه الهیه ← پایانه آزادی)","type":"route","route":"bus","name:en":"Line 18.1 (Elahiyeh bus station → Azadi bus station)","operator":"سازمان اتوبوسرانی مشهد","public_transport:version":"2"},"13030542":{"to":"پایانه الهیه","ref":"18.1","from":"پایانه آزادی","name":"خط ۱۸/۱ (پایانه آزادی ← پایانه الهیه)","type":"route","route":"bus","name:en":"Line 18.1 (Azadi bus station → Elahiyeh bus station)","operator":"سازمان اتوبوسرانی مشهد","public_transport:version":"2"},"13035786":{"to":"پایانه آزادی","ref":"18","from":"پایانه الهیه","name":"خط ۱۸ (پایانه الهیه ← پایانه آزادی)","type":"route","route":"bus","name:en":"Line 18 (Elahiyeh bus station → Azadi bus station)","operator":"سازمان اتوبوسرانی مشهد","public_transport:version":"2"},"13035787":{"to":"پایانه الهیه","ref":"18","from":"پایانه آزادی","name":"خط ۱۸ (پایانه آزادی ← پایانه الهیه)","type":"route","route":"bus","name:en":"Line 18 (Azadi bus station → Elahiyeh bus station)","operator":"سازمان اتوبوسرانی مشهد","public_transport:version":"2"},"13036762":{"to":"انتهای خیابان لادن","ref":"1094","from":"انتهای بولوار شاهد","name":"خط ۱۰۹۴ (انتهای بولوار شاهد ← انتهای خیابان لادن) مینی‌بوس","type":"route","route":"bus","name:en":"Line 1094 (Shahed boulevard end → Ladan street end) Minibus","operator":"سازمان اتوبوسرانی مشهد","public_transport:version":"2"},"13036763":{"to":"انتهای بولوار شاهد","ref":"1094","from":"انتهای خیابان لادن","name":"خط ۱۰۹۴ (انتهای خیابان لادن ← انتهای بولوار شاهد) مینی‌بوس","type":"route","route":"bus","name:en":"Line 1094 (Ladan street end → Shahed boulevard end) Minibus","operator":"سازمان اتوبوسرانی مشهد","public_transport:version":"2"},"13042735":{"to":"پایانه آزادی","ref":"20","from":"پایانه الهیه","name":"خط ۲۰ (پایانه الهیه ← پایانه آزادی)","type":"route","route":"bus","name:en":"Line 20 (Elahiyeh bus station → Azadi bus station)","operator":"سازمان اتوبوسرانی مشهد","public_transport:version":"2"},"13042736":{"to":"پایانه الهیه","ref":"20","from":"پایانه آزادی","name":"خط ۲۰ (پایانه آزادی ← پایانه الهیه)","type":"route","route":"bus","name:en":"Line 20 (Azadi bus station → Elahiyeh bus station)","operator":"سازمان اتوبوسرانی مشهد","public_transport:version":"2"},"13043693":{"to":"پایانه آزادی","ref":"14.1","from":"پایانه الهیه","name":"خط ۱۴/۱(پایانه الهیه ← پایانه آزادی)","type":"route","route":"bus","name:en":"Line 14.1 (Elahiyeh bus station → Azadi bus station)","operator":"سازمان اتوبوسرانی مشهد","public_transport:version":"2"},"13043694":{"to":"پایانه الهیه","ref":"14.1","from":"پایانه آزادی","name":"خط ۱۴/۱ (پایانه آزادی ← پایانه الهیه)","type":"route","route":"bus","name:en":"Line 14.1 (Azadi bus station → Elahiyeh bus station)","operator":"سازمان اتوبوسرانی مشهد","public_transport:version":"2"},"13047968":{"to":"پایانه امام رضا","ref":"84","from":"پایانه امام رضا","name":"خط ۸۴ (گردشی)","type":"route","route":"bus","name:en":"Line 84 (Roundtrip)","operator":"سازمان اتوبوسرانی مشهد","roundtrip":"yes","public_transport:version":"2"},"13053798":{"to":"پایانه انقلاب اسلامی","ref":"71.1","from":"پایانه صبا","name":"خط ۷۱/۱ (پایانه صبا ← پایانه انقلاب اسلامی)","type":"route","route":"bus","name:en":"Line 71.1 (Saba bus station → Enghelab Eslami bus station)","operator":"سازمان اتوبوسرانی مشهد","public_transport:version":"2"},"13053799":{"to":"پایانه صبا","ref":"71.1","from":"پایانه انقلاب اسلامی","name":"خط ۷۱/۱ (پایانه انقلاب اسلامی ← پایانه صبا)","type":"route","route":"bus","name:en":"Line 71.1 (Enghelab Eslami bus station → Saba bus station)","operator":"سازمان اتوبوسرانی مشهد","public_transport:version":"2"},"13054497":{"to":"پایانه آزادی","ref":"19","from":"انتهای بولوار شاهد","name":"خط ۱۹ (انتهای بولوار شاهد ← پایانه آزادی)","type":"route","route":"bus","name:en":"Line 19 ( Shahed boulevard end → Azadi bus station)","operator":"سازمان اتوبوسرانی مشهد","public_transport:version":"2"},"13054498":{"to":"انتهای بولوار شاهد","ref":"19","from":"پایانه آزادی","name":"خط ۱۹ (پایانه آزادی ← انتهای بولوار شاهد)","type":"route","route":"bus","name:en":"Line 19 (Azadi bus station → Shahed boulevard end)","operator":"سازمان اتوبوسرانی مشهد","public_transport:version":"2"},"13061161":{"to":"پایانه شهدا","ref":"27","from":"مجموعه ورزشی آستان قدس رضوی","name":"خط ۲۷ (مجموعه ورزشی آستان قدس رضوی ← پایانه شهدا)","type":"route","route":"bus","name:en":"Line 27 (Astan Ghods Razi sport complex → Shohada bus station)","operator":"سازمان اتوبوسرانی مشهد","public_transport:version":"2"},"13061162":{"to":"مجموعه ورزشی آستان قدس رضوی","ref":"27","from":"پایانه شهدا","name":"خط ۲۷ (پایانه شهدا ← مجموعه ورزشی آستان قدس رضوی)","type":"route","route":"bus","name:en":"Line 27 (Shohada bus station → Astan Ghods Razi sport complex)","operator":"سازمان اتوبوسرانی مشهد","public_transport:version":"2"},"13061609":{"to":"پایانه صبا","ref":"75","from":"پایانه انقلاب اسلامی","name":"خط ۷۵ (پایانه انقلاب اسلامی ← پایانه صبا)","type":"route","route":"bus","name:en":"Line 75 (Enghelab Eslami bus station → Saba bus station)","operator":"سازمان اتوبوسرانی مشهد","public_transport:version":"2"},"13061610":{"to":"پایانه انقلاب اسلامی","ref":"75","from":"پایانه صبا","name":"خط ۷۵ (پایانه صبا ← پایانه انقلاب اسلامی)","type":"route","route":"bus","name:en":"Line 75 (Saba bus station → Enghelab Eslami bus station)","operator":"سازمان اتوبوسرانی مشهد","public_transport:version":"2"},"13065514":{"to":"پایانه الهیه","ref":"31","from":"پایانه آزادی","name":"خط ۳۱ (پایانه آزادی ← پایانه الهیه)","type":"route","route":"bus","name:en":"Line 31 (Azadi bus station → Elahiyeh bus station)","operator":"سازمان اتوبوسرانی مشهد","public_transport:version":"2"},"13065515":{"to":"پایانه آزادی","ref":"31","from":"پایانه الهیه","name":"خط ۳۱ (پایانه الهیه ← پایانه آزادی)","type":"route","route":"bus","name:en":"Line 31 (Elahiyeh bus station → Azadi bus station)","operator":"سازمان اتوبوسرانی مشهد","public_transport:version":"2"},"13065976":{"to":"انتهای شهرک شهید آقا مصطفی خمینی","ref":"63","from":"پایانه انقلاب اسلامی","name":"خط ۶۳ (پایانه انقلاب اسلامی ← انتهای شهرک شهید آقا مصطفی خمینی)","type":"route","route":"bus","name:en":"Line 63 (Enghelab Eslami bus station → Shahid Agha Mostafa Khomeini suburb)","operator":"سازمان اتوبوسرانی مشهد","public_transport:version":"2"},"13067385":{"to":"پایانه شهید جوان","ref":"26","from":"پایانه معراج","name":"خط ۲۶ (پایانه معراج ← پایانه شهید جوان)","type":"route","route":"bus","name:en":"Line 26 (Meraj bus station → Shahid Javan bus station)","operator":"سازمان اتوبوسرانی مشهد","public_transport:version":"2"},"13067386":{"to":"پایانه معراج","ref":"26","from":"پایانه شهید جوان","name":"خط ۲۶ (پایانه شهید جوان ← پایانه معراج)","type":"route","route":"bus","name:en":"Line 26 (Shahid Javan bus station → Meraj bus station)","operator":"سازمان اتوبوسرانی مشهد","public_transport:version":"2"},"13068328":{"to":"پایانه راه آهن","ref":"29","from":"انتهای بهارستان","name":"خط ۲۹ (انتهای بهارستان ← پایانه راه آهن)","type":"route","route":"bus","name:en":"Line 29 (Baharestan end → Railway bus station)","operator":"سازمان اتوبوسرانی مشهد","public_transport:version":"2"},"13068329":{"to":"انتهای بهارستان","ref":"29","from":"پایانه راه آهن","name":"خط ۲۹ (پایانه راه آهن ← انتهای بهارستان)","type":"route","route":"bus","name:en":"Line 29 (Railway bus station → Baharestan end)","operator":"سازمان اتوبوسرانی مشهد","public_transport:version":"2"},"13072631":{"to":"پایانه صبا","ref":"87","from":"پایانه بوستان خورشید","name":"خط ۸۷ (پایانه بوستان خورشید ← پایانه صبا)","type":"route","route":"bus","name:en":"Line 87 (Khorshid park bus station → Saba bus station)","operator":"سازمان اتوبوسرانی مشهد","public_transport:version":"2"},"13072632":{"to":"پایانه بوستان خورشید","ref":"87","via":"پایانه شهید جوان","from":"پایانه صبا","name":"خط ۸۷ (پایانه صبا ← پایانه بوستان خورشید)","type":"route","route":"bus","name:en":"Line 87 (Saba bus station → Khorshid park bus station)","operator":"سازمان اتوبوسرانی مشهد","public_transport:version":"2"},"13074219":{"to":"پایانه انقلاب اسلامی","ref":"74","from":"پایانه صبا","name":"خط ۷۴ (پایانه صبا ← پایانه انقلاب اسلامی)","type":"route","route":"bus","name:en":"Line 74 (Saba bus station → Enghelab Eslami bus station)","operator":"سازمان اتوبوسرانی مشهد","public_transport:version":"2"},"13074220":{"to":"پایانه صبا","ref":"74","from":"پایانه انقلاب اسلامی","name":"خط ۷۴ (پایانه انقلاب اسلامی ← پایانه صبا)","type":"route","route":"bus","name:en":"Line 74 (Enghelab Eslami bus station → Saba bus station)","operator":"سازمان اتوبوسرانی مشهد","public_transport:version":"2"},"13078659":{"to":"پایانه الهیه","ref":"831","via":"پایانه آزادی","from":"پایانه مصلی","name":"خط ۸۳۱ (پایانه مصلی ← پایانه الهیه) بی‌آرتی","type":"route","route":"bus","name:en":"Line 831 (Mosalla bus station → Elahiyeh bus station) BRT","operator":"سازمان اتوبوسرانی مشهد","public_transport:version":"2"},"13078660":{"to":"پایانه مصلی","ref":"831","from":"پایانه الهیه","name":"خط ۸۳۱ (پایانه الهیه ← پایانه مصلی) بی‌آرتی","type":"route","route":"bus","name:en":"Line 831 (Elahiyeh bus station → Mosalla bus station) BRT","operator":"سازمان اتوبوسرانی مشهد","public_transport:version":"2"},"13084549":{"to":"پایانه امام رضا","ref":"90","via":"پایانه انقلاب اسلامی","from":"پایانه وکیل آباد","name":"خط ۹۰ (پایانه وکیل آباد ← پایانه امام رضا)","type":"route","route":"bus","name:en":"Line 90 (Vakilababad bus station → Imam Reza bus station)","operator":"سازمان اتوبوسرانی مشهد","public_transport:version":"2"},"13084550":{"to":"پایانه وکیل آباد","ref":"90","via":"پایانه انقلاب اسلامی","from":"پایانه امام رضا","name":"خط ۹۰ (پایانه امام رضا ← پایانه وکیل آباد)","type":"route","route":"bus","name:en":"Line 90 (Imam Reza bus station → Vakilababad bus station)","operator":"سازمان اتوبوسرانی مشهد","public_transport:version":"2"},"13086515":{"to":"پایانه شهید جوان","ref":"89","from":"پایانه الهیه","name":"خط ۸۹ (پایانه الهیه ← پایانه شهید جوان )","type":"route","route":"bus","name:en":"Line 89 (Elahiyeh bus station → Shahid Javan bus station)","operator":"سازمان اتوبوسرانی مشهد","public_transport:version":"2"},"13086516":{"to":"پایانه الهیه","ref":"89","from":"پایانه شهید جوان","name":"خط ۸۹ (پایانه شهید جوان ← پایانه الهیه)","type":"route","route":"bus","name:en":"Line 89 (Shahid Javan bus station → Elahiyeh bus station)","operator":"سازمان اتوبوسرانی مشهد","public_transport:version":"2"},"13086941":{"to":"پایانه وکیل آباد","ref":"91","from":"پایانه شهید جوان","name":"خط ۹۱ (پایانه شهید جوان ← پایانه وکیل آباد)","type":"route","route":"bus","name:en":"Line 91 (Shahid Javan bus station → Vakilabad bus station)","operator":"سازمان اتوبوسرانی مشهد","public_transport:version":"2"},"13086942":{"to":"پایانه شهید جوان","ref":"91","from":"پایانه وکیل آباد","name":"خط ۹۱ (پایانه وکیل آباد ← پایانه شهید جوان )","type":"route","route":"bus","name:en":"Line 91 (Vakilabad bus station → Shahid Javan bus station)","operator":"سازمان اتوبوسرانی مشهد","public_transport:version":"2"},"13090062":{"to":"پایانه امام رضا","ref":"800","from":"پایانه طبرسی","name":"خط ۸۰۰ (پایانه طبرسی ← پایانه امام رضا) بی‌آرتی","type":"route","route":"bus","name:en":"Line 800 (Tabarsi bus station → Imam Reza bus station) BRT","operator":"سازمان اتوبوسرانی مشهد","public_transport:version":"2"},"13094530":{"to":"پایانه فردوسی","ref":"202","from":"آرامگاه فردوسی","name":"خط ۲۰۲ (آرامگاه فردوسی ← پایانه فردوسی)","type":"route","route":"bus","name:en":"Line 202 (Ferdowsi tomb → Ferdowsi bus station)","operator":"سازمان اتوبوسرانی مشهد","public_transport:version":"2"},"13096507":{"to":"حرم مطهر (باب الجواد)","ref":"62","from":"پایانه آزادی","name":"خط ۶۲ (پایانه آزادی ← حرم مطهر)","type":"route","route":"bus","name:en":"Line 62 (Azadi bus station → Holy Shrine)","operator":"سازمان اتوبوسرانی مشهد","public_transport:version":"2"},"13096508":{"to":"پایانه آزادی","ref":"62","from":"حرم مطهر (باب الجواد)","name":"خط ۶۲ (حرم مطهر ← پایانه آزادی)","type":"route","route":"bus","name:en":"Line 62 (Holy Shrine → Azadi bus station)","operator":"سازمان اتوبوسرانی مشهد","public_transport:version":"2"},"13097891":{"to":"پایانه شهدا","ref":"60","via":"پایانه فردوسی; پایانه معراج","from":"شهید درودی ۲۸","name":"خط ۶۰ (شهید درودی ۲۸ ← پایانه شهدا)","type":"route","route":"bus","name:en":"Line 60 (Shahid Daruodi 28 → Shohada bus station)","operator":"سازمان اتوبوسرانی مشهد","public_transport:version":"2"},"13097892":{"to":"شهید درودی ۱۹","ref":"60","via":"پایانه فردوسی","from":"پایانه شهدا","name":"خط ۶۰ (پایانه شهدا ← شهید درودی ۱۹)","type":"route","route":"bus","name:en":"Line 60 (Shohada bus station → Shahid Daruodi 19)","operator":"سازمان اتوبوسرانی مشهد","public_transport:version":"2"},"13102703":{"to":"پایانه فردوسی","ref":"205","from":"شاهنامه ۱","name":"خط ۲۰۵ (شاهنامه ۱ ← پایانه فردوسی ۲)","type":"route","route":"bus","name:en":"Line 205 (Shahnameh 1 → Ferdowsi bus station2)","operator":"سازمان اتوبوسرانی مشهد","public_transport:version":"2"},"13102704":{"to":"شاهنامه ۲","ref":"205","from":"پایانه فردوسی","name":"خط ۲۰۵ (پایانه فردوسی ← شاهنامه ۲)","type":"route","route":"bus","name:en":"Line 205 (Ferdowsi bus station → Shahnameh 2)","operator":"سازمان اتوبوسرانی مشهد","public_transport:version":"2"},"13102878":{"to":"پایانه آزادی","ref":"203","from":"پایانه معراج","name":"خط ۲۰۳ (پایانه معراج ← پایانه آزادی)","type":"route","route":"bus","name:en":"Line 203 (Meraj bus station → Azadi bus station)","operator":"سازمان اتوبوسرانی مشهد","public_transport:version":"2"},"13102879":{"to":"پایانه معراج","ref":"203","from":"پایانه آزادی","name":"خط ۲۰۳ (پایانه آزادی ← پایانه معراج)","type":"route","route":"bus","name:en":"Line 203 (Azadi bus station → Meraj bus station)","operator":"سازمان اتوبوسرانی مشهد","public_transport:version":"2"},"13103002":{"to":"پایانه آزادی","ref":"94.1","from":"پایانه وکیل آباد","name":"خط ۹۴/۱ (پایانه وکیل آباد ← پایانه آزادی)","type":"route","route":"bus","name:en":"Line 94.1 (Vakilabad bus station → Azadi bus station)","operator":"سازمان اتوبوسرانی مشهد","public_transport:version":"2"},"13103003":{"to":"پایانه وکیل آباد","ref":"94.1","from":"پایانه آزادی","name":"خط ۹۴/۱ (پایانه آزادی ← پایانه وکیل آباد)","type":"route","route":"bus","name:en":"Line 94.1 (Azadi bus station → Vakilabad bus station)","operator":"سازمان اتوبوسرانی مشهد","public_transport:version":"2"},"13106147":{"to":"پایانه زکریا","ref":"86","from":"حرم مطهر (باب الجواد)","name":"خط ۸۶ (حرم مطهر ← پایانه زکریا)","type":"route","route":"bus","name:en":"Line 86 (Holy Shrine → Zakaria bus station)","operator":"سازمان اتوبوسرانی مشهد","public_transport:version":"2"},"13106148":{"to":"حرم مطهر (باب الجواد)","ref":"86","from":"پایانه زکریا","name":"خط ۸۶ (پایانه زکریا ← حرم مطهر)","type":"route","route":"bus","name:en":"Line 86 (Zakaria bus station → Holy Shrine)","operator":"سازمان اتوبوسرانی مشهد","public_transport:version":"2"},"13110585":{"to":"پایانه بوستان خورشید","ref":"96","from":"پایانه آزادی","name":"خط ۹۶ (پایانه آزادی ← پایانه بوستان خورشید)","type":"route","route":"bus","name:en":"Line 96 (Azadi bus station → Khorshid park bus station)","operator":"سازمان اتوبوسرانی مشهد","public_transport:version":"2"},"13110586":{"to":"پایانه آزادی","ref":"96","from":"پایانه بوستان خورشید","name":"خط ۹۶ (پایانه بوستان خورشید ← پایانه آزادی)","type":"route","route":"bus","name:en":"Line 96 (Khorshid park bus station → Azadi bus station)","operator":"سازمان اتوبوسرانی مشهد","public_transport:version":"2"},"13112050":{"to":"پایانه بوستان خورشید","ref":"1097","from":"امیریه ۶۶","name":"خط ۱۰۹۷ (امیریه ۶۶ ← پایانه بوستان خورشید) مینی‌بوس","type":"route","route":"bus","name:en":"Line 1097 (Amiriyeh 66 bus stop → Khorshid park bus station) Minibus","operator":"سازمان اتوبوسرانی مشهد","public_transport:version":"2"},"13112051":{"to":"امیریه ۴۷","ref":"1097","from":"پایانه بوستان خورشید","name":"خط ۱۰۹۷ (پایانه بوستان خورشید ← امیریه ۴۷) مینی‌بوس","type":"route","route":"bus","name:en":"Line 1097 (Khorshid park bus station → Amiriyeh 47 bus stop) Minibus","operator":"سازمان اتوبوسرانی مشهد","public_transport:version":"2"},"13117572":{"to":"پایانه بوستان خورشید","ref":"1098","from":"انتهای بولوار حجاب","name":"خط ۱۰۹۸ (انتهای بولوار حجاب ← پایانه بوستان خورشید) مینی‌بوس","type":"route","route":"bus","name:en":"Line 1098 (Hejab boulevard end bus stop → Khorshid park bus station) Minibus","operator":"سازمان اتوبوسرانی مشهد","public_transport:version":"2"},"13117573":{"to":"انتهای بولوار حجاب","ref":"1098","from":"پایانه بوستان خورشید","name":"خط ۱۰۹۸ (پایانه بوستان خورشید ← انتهای بولوار حجاب) مینی‌بوس","type":"route","route":"bus","name:en":"Line 1098 (Khorshid park bus station → Hejab boulevard end bus stop) Minibus","operator":"سازمان اتوبوسرانی مشهد","public_transport:version":"2"},"13120973":{"to":"پایانه شهید گمنام","ref":"46","from":"پایانه طبرسی","name":"خط ۴۶ (پایانه طبرسی ← پایانه شهید گمتام)","type":"route","route":"bus","name:en":"Line 46 (Tabarsi bus station → Shahid Gomnam bus station)","operator":"سازمان اتوبوسرانی مشهد","public_transport:version":"2"},"13120974":{"to":"پایانه طبرسی","ref":"46","from":"پایانه شهید گمنام","name":"خط ۴۶ (پایانه شهید گمتام ← پایانه طبرسی)","type":"route","route":"bus","name:en":"Line 46 (Shahid Gomnam bus station → Tabarsi bus station)","operator":"سازمان اتوبوسرانی مشهد","public_transport:version":"2"},"13125522":{"to":"پایانه آزادی","ref":"1093","from":"نماز ۳۰","name":"خط ۱۰۹۳ (پایانه آزادی ← نماز ۳۰) مینی‌بوس","type":"route","route":"bus","name:en":"Line 1093 (Namaz 30 bus stop → Azadi bus station) Minibus","operator":"سازمان اتوبوسرانی مشهد","public_transport:version":"2"},"13125523":{"to":"نماز ۲۹","ref":"1093","from":"پایانه آزادی","name":"خط ۱۰۹۳ (پایانه آزادی ← نماز ۲۹) مینی‌بوس","type":"route","route":"bus","name:en":"Line 1093 (Azadi bus station → Namaz 29 bus stop) Minibus","operator":"سازمان اتوبوسرانی مشهد","public_transport:version":"2"},"13128239":{"to":"پایانه انقلاب اسلامی","ref":"78","from":"انتهای شهرک عسگریه","name":"خط ۷۸ (انتهای شهرک عسگریه ← پایانه انقلاب اسلامی )","type":"route","route":"bus","name:en":"Line 78 (Asgariyeh suburb end bus stop → Enghelab Eslami bus station)","operator":"سازمان اتوبوسرانی مشهد","public_transport:version":"2"},"13128240":{"to":"انتهای شهرک عسگریه","ref":"78","from":"پایانه انقلاب اسلامی","name":"خط ۷۸ (پایانه انقلاب اسلامی ← انتهای شهرک عسگریه)","type":"route","route":"bus","name:en":"Line 78 (Enghelab Eslami bus station → Asgariyeh suburb end bus stop)","operator":"سازمان اتوبوسرانی مشهد","public_transport:version":"2"},"13133632":{"to":"انتهای خیابان لادن","ref":"1096","from":"شهید بصیر ۱۹","name":"خط ۱۰۹۴ (شهید بصیر ۱۹ ← انتهای خیابان لادن) مینی‌بوس","type":"route","route":"bus","name:en":"Line 1096 (Shahid Basir 19 → Ladan street end) Minibus","operator":"سازمان اتوبوسرانی مشهد","public_transport:version":"2"},"13133633":{"to":"شهید بصیر ۱۹","ref":"1096","from":"انتهای خیابان لادن","name":"خط ۱۰۹۴ (انتهای خیابان لادن ← شهید بصیر ۱۹) مینی‌بوس","type":"route","route":"bus","name:en":"Line 1096 (Ladan street end → Shahid Basir 19) Minibus","operator":"سازمان اتوبوسرانی مشهد","public_transport:version":"2"},"13138345":{"to":"پایانه شهید هاشمی نژاد","ref":"36","from":"انتهای شهرک شهید چمران","name":"خط ۳۶ (انتهای شهرک شهید چمران ← پایانه شهید هاشمی نژاد)","type":"route","route":"bus","name:en":"Line 36 (Shahid Chamran suburb end bus stop → Hasheminejad bus station)","operator":"سازمان اتوبوسرانی مشهد","public_transport:version":"2"},"13138346":{"to":"انتهای شهرک شهید چمران","ref":"36","from":"پایانه شهید هاشمی نژاد","name":"خط ۳۶ (پایانه شهید هاشمی نژاد ← انتهای شهرک شهید چمران)","type":"route","route":"bus","name:en":"Line 36 (Shahid Hasheminejad bus station → Shahid Chamran suburb end bus stop)","operator":"سازمان اتوبوسرانی مشهد","public_transport:version":"2"},"13138574":{"to":"پایانه آزادی","ref":"1031","from":"میدان آیت الله مشکینی","name":"خط ۱۰۳۱ (میدان آیت الله مشکینی ← پایانه آزادی) مینی‌بوس","type":"route","route":"bus","name:en":"Line 1031 (Ayatollah Meshkini square bus stop → Azadi bus station) Minibus","operator":"سازمان اتوبوسرانی مشهد","public_transport:version":"2"},"13138575":{"to":"میدان آیت الله مشکینی","ref":"1031","from":"پایانه آزادی","name":"خط ۱۰۳۱ (پایانه آزادی ← میدان آیت الله مشکینی) مینی‌بوس","type":"route","route":"bus","name:en":"Line 1031 (Azadi bus station → Ayatollah Meshkini square bus stop) Minibus","operator":"سازمان اتوبوسرانی مشهد","public_transport:version":"2"},"13140110":{"to":"پایانه انقلاب اسلامی","ref":"702","from":"پایانه یهشت رضا (ع)","name":"خط ۷۰۲ (پایانه یهشت رضا (ع) ← پایانه انقلاب اسلامی)","type":"route","route":"bus","name:en":"Line 702 (Reza Paradise bus station → Enghelab Eslami bus statioin)","operator":"سازمان اتوبوسرانی مشهد","public_transport:version":"2"},"13140111":{"to":"پایانه یهشت رضا (ع)","ref":"702","from":"پایانه انقلاب اسلامی","name":"خط ۷۰۲ (پایانه انقلاب اسلامی ← پایانه یهشت رضا (ع))","type":"route","route":"bus","name:en":"Line 702 (Enghelab Eslami bus station → Reza Paradise bus statioin)","operator":"سازمان اتوبوسرانی مشهد","public_transport:version":"2"},"13148189":{"to":"زیرکن","ref":"1034","via":"پایانه شهید گمنام; پایانه خواچه ربیع","from":"میدان طبرسی","name":"خط ۱۰۳۴ (میدان طبرسی ← زیرکن) مینی‌بوس","type":"route","route":"bus","name:en":"Line 1034 (Tabarsi square → Zirkan) Minibus","operator":"سازمان اتوبوسرانی مشهد","public_transport:version":"2"},"13148190":{"to":"میدان طبرسی","ref":"1034","via":"پایانه خواجه ربیع","from":"زیرکن","name":"خط ۱۰۳۴ (زیرکن ← میدان طبرسی) مینی‌بوس","type":"route","route":"bus","name:en":"Line 1034 (Zirkan → Tabarsi square) Minibus","operator":"سازمان اتوبوسرانی مشهد","public_transport:version":"2"},"13182818":{"to":"پایانه فردوسی","ref":"79","from":"انتهای شهرک مهرگان","name":"خط ۷۹ (انتهای شهرک مهرگان ← پایانه فردوسی)","type":"route","route":"bus","name:en":"Line 79 (Mehregan suburb end bus stop → Ferdowsi bus station)","operator":"سازمان اتوبوسرانی مشهد","public_transport:version":"2"},"13182819":{"to":"انتهای شهرک مهرگان","ref":"79","from":"پایانه فردوسی","name":"خط ۷۹ (پایانه فردوسی ← انتهای شهرک مهرگان)","type":"route","route":"bus","name:en":"Line 79 (Ferdowsi bus station → Mehregan suburb end bus stop)","operator":"سازمان اتوبوسرانی مشهد","public_transport:version":"2"},"13189458":{"to":"پایانه امام رضا","ref":"71","from":"پایانه صبا","name":"خط ۷۱ (پایانه صبا ← پایانه امام رضا)","type":"route","route":"bus","name:en":"Line 71 (Saba bus station → Imam Reza bus station)","operator":"سازمان اتوبوسرانی مشهد","public_transport:version":"2"},"13189459":{"to":"پایانه صبا","ref":"71","from":"پایانه امام رضا","name":"خط ۷۱ (پایانه امام رضا ← پایانه صبا)","type":"route","route":"bus","name:en":"Line 71 (Imam Reza bus station → Saba bus station)","operator":"سازمان اتوبوسرانی مشهد","public_transport:version":"2"},"13189708":{"to":"پایانه الهیه","ref":"73","from":"شهید انفرادی ۱۸","name":"خط ۷۳ (شهید انفرادی ۱۸← پایانه الهیه)","type":"route","route":"bus","name:en":"Line 73 (Shahid Enferadi 18 bus stop → Elahiyeh bus station)","operator":"سازمان اتوبوسرانی مشهد","public_transport:version":"2"},"13189709":{"to":"شهید انفرادی ۱۵","ref":"73","from":"پایانه الهیه","name":"خط ۷۳ (پایانه الهیه ← شهید انفرادی ۱۵)","type":"route","route":"bus","name:en":"Line 73 (Elahiyeh bus station → Shahid Enferadi 15 bus stop)","operator":"سازمان اتوبوسرانی مشهد","public_transport:version":"2"},"13190773":{"to":"پایانه شهید هاشمی نژاد","ref":"33","from":"انتهای شهرک مهرگان","name":"خط ۳۳ (انتهای شهرک مهرگان ← پایانه شهید هاشمی نژاد)","type":"route","route":"bus","name:en":"Line 33 (Mehregan suburb end bus stop → Shahid Hasheminejad bus station)","operator":"سازمان اتوبوسرانی مشهد","public_transport:version":"2"},"13190774":{"to":"انتهای شهرک مهرگان","ref":"33","from":"پایانه شهید هاشمی نژاد","name":"خط ۳۳ (پایانه شهید هاشمی نژاد ← انتهای شهرک مهرگان)","type":"route","route":"bus","name:en":"Line 33 (Shahid Hasheminejad bus station → Mehregan suburb end bus stop)","operator":"سازمان اتوبوسرانی مشهد","public_transport:version":"2"},"13287908":{"to":"خیام","ref":"10","from":"شهید بهشتی","name":"خط 10","type":"route","route":"bus","name:en":"Line 10","operator":"سازمان مدیریت حمل و نقل بار و مسافر شهرداری نیشابور","public_transport:version":"2"},"13287909":{"to":"شهید بهشتی","ref":"10","from":"خیام","name":"خط 10","type":"route","route":"bus","name:en":"Line 10","operator":"سازمان مدیریت حمل و نقل بار و مسافر شهرداری نیشابور","public_transport:version":"2"},"13292431":{"to":"شهرک فیروزه","ref":"19.1","from":"پایانه منوچهری","name":"خط 19/1","type":"route","route":"bus","name:en":"Line 19.1","operator":"سازمان حمل و نقل بار و مسافر شهرداری نیشابور","public_transport:version":"2"},"13292432":{"to":"پایانه منوچهری","ref":"19.1","from":"شهرک فیروزه","name":"خط 19/1","type":"route","route":"bus","name:en":"Line 19.1","operator":"سازمان حمل و نقل بار و مسافر شهرداری نیشابور","public_transport:version":"2"},"13349844":{"to":"شهرک بسیج","ref":"4","from":"میدان امام خمینی","name":"خط 4","type":"route","route":"bus","name:en":"Line 4","operator":"سازمان مدیریت حمل و نقل بار و مسافر شهرداری نیشابور","public_transport:version":"2"},"13349845":{"to":"میدان امام خمینی","ref":"4","from":"شهرک بسیج","name":"خط 4","type":"route","route":"bus","name:en":"Line 4","operator":"سازمان مدیریت حمل و نقل بار و مسافر شهرداری نیشابور","public_transport:version":"2"},"13365253":{"to":"هلالی","ref":"7","from":"پایانه منوچهری","name":"خط 7","type":"route","route":"bus","name:en":"Line 7","operator":"سازمان حمل و نقل بار و مسافر شهرداری نیشابور","public_transport:version":"2"},"13365254":{"to":"پایانه منوچهری","ref":"7","from":"هلالی","name":"خط 7","type":"route","route":"bus","name:en":"Line 7","operator":"سازمان حمل و نقل بار و مسافر شهرداری نیشابور","public_transport:version":"2"},"13372949":{"to":"بلوار ادیب","ref":"3","from":"میدان راه آهن","name":"خط 3","type":"route","route":"bus","name:en":"Line 3","operator":"سازمان مدیریت حمل و نقل بار و مسافر شهرداری نیشابور","public_transport:version":"2"},"13374328":{"to":"میدان راه آهن","ref":"3","from":"بلوار ادیب","name":"خط 3","type":"route","route":"bus","name:en":"Line 3","operator":"سازمان مدیریت حمل و نقل بار و مسافر شهرداری نیشابور","public_transport:version":"2"},"13379001":{"to":"شهرآرا","ref":"19.2","from":"پایانه منوچهری","name":"خط 19/2","type":"route","route":"bus","name:en":"Line 19.2","operator":"سازمان مدیریت حمل و نقل بار و مسافر شهرداری نیشابور","public_transport:version":"2"},"13379002":{"to":"پایانه منوچهری","ref":"19.2","from":"شهرآرا","name":"خط 19/2","type":"route","route":"bus","name:en":"Line 19.2","operator":"سازمان مدیریت حمل و نقل بار و مسافر شهرداری نیشابور"},"13386671":{"to":"ابراهیمی","ref":"1","from":"بلوار رسالت","name":"خط 1","type":"route","route":"bus","name:en":"Line 1","operator":"سازمان مدیریت حمل و نقل بار و مسافر شهرداری نیشابور","public_transport:version":"2"},"13386672":{"to":"بلوار رسالت","ref":"1","from":"ابراهیمی","name":"خط 1","type":"route","route":"bus","name:en":"Line 1","operator":"سازمان مدیریت حمل و نقل بار و مسافر شهرداری نیشابور","public_transport:version":"2"},"14090500":{"to":"مترو دانشگاه شریف","ref":"293","from":"میدان صنعت","name":"۲۹۳: میدان صنعت ← مترو دانشگاه شریف","type":"route","route":"bus","source":"tehran.ir","name:en":"293: Industry Square → Sharif University Metro","operator":"Tehran Bus Company","public_transport:version":"2"},"14092648":{"to":"میدان صنعت","ref":"293","name":"۲۹۳: مترو دانشگاه شریف ← میدان صنعت","type":"route","route":"bus","name:en":"293: Sharif University Metro → Industry Square","operator":"Tehran Bus Company","public_transport:version":"2"},"14371873":{"to":"پایانه ولیعصر","ref":"۳۱","from":"پایانه آبشار","name":"خط ۳۱ (پایانه آبشار ← پایانه ولیعصر)","type":"route","route":"bus","name:en":"Line 31 (Abshar bus station → Valiasr bus station)","operator":"شرکت واحد اتوبوسرانی شهرداری اصفهان","public_transport:version":"2"},"14371874":{"to":"پایانه آبشار","ref":"۳۱","from":"پایانه ولیعصر","name":"خط ۳۱ (پایانه ولیعصر ← پایانه آبشار)","type":"route","route":"bus","name:en":"Line 31 (Valiasr bus station → Abshar bus station)","operator":"شرکت واحد اتوبوسرانی شهرداری اصفهان","public_transport:version":"2"},"15049540":{"to":"میدان امام علی","ref":"۴۷","from":"کوی میلاد","name":"خط ۴۷ (کوی میلاد ← میدان امام علی)","type":"route","route":"bus","name:en":"line 47 ( Atsharan → Imam Ali Square )","operator":"شرکت واحد اتوبوسرانی شهرداری اصفهان"},"15051073":{"to":"کوی میلاد","ref":"۴۷","via":"کمال;ولی عصر;میدان احمد آباد;جی;تالار;اطشاران","from":"میدان امام علی","name":"خط ۴۷ ( میدان امام علی ←  کوی میلاد )","type":"route","route":"bus","name:en":"line 47 ( Imam Ali square → Atsharan )","operator":"سازمان اتوبوسرانی اصفهان"},"15052573":{"to":"پایانه درچه","ref":"تندرو ۴","from":"پایانه جی","name":"تندرو ۴ ( پایانه جی ← پایانه درچه )","type":"route","route":"bus","colour":"#503702","name:en":"Express Line 4 ( Jey Terminal → Dorcheh Teminal )","operator":"سازمان اتوبوسرانی اصفهان"},"15080974":{"to":"پایانه جی","ref":"تندرو ۴","from":"پایانه درچه","name":"تندرو۴ ( پایانه درچه ← پایانه جی )","type":"route","route":"bus","colour":"#503702","name:en":"Express Line 4 ( Dorcheh Teminal →  Jey Teminal )"},"15087808":{"to":"شهرک سلامت","ref":"۵۲","from":"میدان امام علی (ع)","name":"خط ۵۲ ( میدان امام علی (ع) ← شهرک سلامت )","type":"route","route":"bus","colour":"#1a71ff","name:en":"Line 52 ( Imam Ali square → Healthcare City )"},"15087922":{"to":"میدان امام علی (ع)","ref":"۲۹۱","from":"میدان بزرگمهر","name":"خط ۲۹۱ ( میدان بزرگمهر ← میدان امام علی (ع) )","type":"route","route":"bus","colour":"#00ad3d","name:en":"Line 291 ( Bozorgmehr Square → Imam Ali Square )","operator":"شرکت واحد اتوبوسرانی شهرداری اصفهان"},"15087924":{"to":"میدان بزرگمهر","ref":"۲۹۱","from":"میدان امام علی (ع)","name":"خط ۲۹۱ ( میدان امام علی (ع) ← میدان بزرگمهر )","type":"route","route":"bus","colour":"#00ad3d","name:en":"Line 291 ( Imam Ali Square → Bozorgmehr Square )","operator":"شرکت واحد اتوبوسرانی شهرداری اصفهان"},"15088318":{"to":"دارک","ref":"۱","from":"میدان بزرگمهر","name":"خط ۱ ( میدان بزرگمهر ← دارک )","type":"route","route":"bus","colour":"#7e0724","name:en":"Line 1 ( Bozorgmehr Square → Darak )","operator":"شرکت واحد اتوبوسرانی شهرداری اصفهان"},"15098030":{"to":"میدان بزرگمهر","ref":"۱","from":"ایستگاه اتوبوس دارک","name":"خط ۱ ( دارک ← میدان بزرگمهر )","type":"route","route":"bus","colour":"#7e0724","name:en":"Line 1 ( Darak → Bozorgmehr Square )"},"15098305":{"to":"الله اکبر","ref":"۱۴۸","from":"شهرک سلامت","name":"خط ۱۴۸ ( شهرک سلامت ← الله اکبر )","type":"route","route":"bus","colour":"#ad0556","name:en":"Line 148 (  Healthcare City → Allah Akbar )"},"15099744":{"to":"شهرک سلامت","ref":"۱۴۸","from":"ابتدای الله اکبر","name":"خط ۱۴۸ ( الله اکبر ← شهرک سلامت )","type":"route","route":"bus","colour":"#ad0556","name:en":"Line 148 ( Allah Akbar →  Healthcare City )"},"15099875":{"to":"میدان امام علی","ref":"۵۲","from":"شهرک سلامت","name":"خط ۵۲ ( شهرک سلامت ← میدان امام علی (ع) )","type":"route","route":"bus","colour":"#364cec","name:en":"Line 52 (  Healthcare City → Imam Ali square )"},"15312236":{"to":"پایانه مترو قدس","ref":"۳۴","from":"پایانه صفه","name":"خط ۳۴ (پایانه صفه ←  پایانه مترو قدس)","type":"route","route":"bus","name:en":"Line 34 (Seffeh bus station _ Qods Metro bus station)"},"15314942":{"to":"پایانه صفه","ref":"۳۴","from":"پایانه مترو قدس","name":"خط ۳۴ (پایانه مترو قدس _ پایانه صفه)","type":"route","route":"bus","name:en":"Line 34 (Qods Metro bus station _ Seffeh bus station)"},"15337334":{"to":"استاد قدسی","ref":"۲۸","from":"پایانه خوراسگان","name":"خط ۲۸ ( پایانه خوراسگان ← استاد قدسی )","type":"route","route":"bus","colour":"#d4b30c","name:en":"Line 28 (Khorasgan bus station → Ostad Ghodsi)","operator":"شرکت واحد اتوبوسرانی اصفهان"},"15343803":{"to":"پایانه خوراسگان","ref":"۲۸","from":"استاد قدسی","name":"خط ۲۸ ( استاد قدسی ← پایانه خوراسگان)","type":"route","route":"bus","colour":"#d4b30c","name:en":"Line 28 ( Ostad Ghodsi →  Khorasgan bus station)","operator":"شرکت واحد اتوبوسرانی اصفهان"},"15344416":{"to":"پارک دنارت","ref":"۹۶","from":"پایانه آبشار","name":"خط ۹۶ (پایانه آبشار -> پارک دنارت)","type":"route","route":"bus","name:en":"Line 96 (Abshar bus station -> Denart park)","operator":"شرکت واحد اتوبوسرانی شهرداری اصفهان","public_transport:version":"2"},"15344417":{"to":"پایانه آبشار","ref":"۹۶","from":"پارک دنارت","name":"خط۹۶ (پارک دنارت -> پایانه آبشار)","type":"route","route":"bus","name:en":"Line 96 (Denart park -> Abshar bus station)","operator":"شرکت واحد اتوبوسرانی شهرداری اصفهان","public_transport:version":"2"},"15345221":{"to":"آتش نشانی","ref":"۴۳","from":"میدان امام حسین","name":"خط ۴۳ (میدان امام حسین ← میدان لاله)","type":"route","route":"bus","name:en":"Line 43 (Imam Hossein Square → Laleh Square)"},"15395018":{"to":"میدان امام حسین","ref":"۴۳","from":"میدان لاله","name":"خط ۴۳ (میدان لاله ← میدان امام حسین)","type":"route","route":"bus","name:en":"Line 43 (Laleh Square → Imam Hossein Square)"},"15431599":{"to":"میدان قدس","ref":"۳۵","from":"مترو سی و سه پل","name":"خط ۳۵ ( مترو سی و سه پل ← میدان قدس )","type":"route","route":"bus"},"15437264":{"ref":"۳۵","name":"خط ۳۵ ( میدان قدس ← مترو سی و سه پل )","type":"route","route":"bus"},"15448960":{"to":"سه راه ملک شهر","ref":"۸۳","from":"میدان بزرگمهر","name":"خط ۸۳ ( میدان بزرگمهر ← سه راه ملک شهر )","type":"route","route":"bus","colour":"#cd1d1d","operator":"شرکت واحد اتوبوسرانی اصفهان و حومه"},"15469563":{"to":"میدان بزرگمهر","ref":"۸۳","from":"سه راه ملک شهر","name":"خط ۸۳ ( سه راه ملک شهر ← میدان بزرگمهر )","type":"route","route":"bus","colour":"#cd1d1d","operator":"شرکت واحد اتوبوسرانی اصفهان و حومه"},"15484331":{"to":"میدان امام خمینی","ref":"۲۹","from":"میدان بزرگمهر","name":"خط ۲۹ ( میدان بزرگمهر ← میدان امام خمینی )","type":"route","route":"bus","colour":"#ff1414"},"15487160":{"to":"میدان بزرگمهر","ref":"۲۹","from":"میدان امام خمینی","name":"خط ۲۹ ( میدان امام خمینی ← میدان بزرگمهر )","type":"route","route":"bus"},"15523237":{"to":"پایانه خوراسگان","ref":"۱۵۰","from":"راران","name":"خط ۱۵۰ (راران ← پایانه خوراسگان)","type":"route","route":"bus"},"15523266":{"to":"راران","ref":"۱۵۰","from":"پایانه خوراسگان","name":"خط ۱۵۰ ( پایانه خوراسگان ← راران)","type":"route","route":"bus"},"15545874":{"to":"پایانه خوراسگان","ref":"۴۲","from":"میدان امام حسین","name":"خط ۴۲ (میدان امام حسین ← پایانه خوراسگان)","type":"route","route":"bus","colour":"#2bd714"},"15549194":{"to":"بهشت","ref":"۷۹","from":"پایانه باقوشخانه","name":"خط ۷۹ ( پایانه باقوشخانه ← شهید مفتح )","type":"route","route":"bus"},"15577709":{"to":"پایانه باقوشخانه","ref":"۷۹","from":"چهارراه شهید مفتح","name":"خط ۷۹ ( شهید مفتح ← پایانه باقوشخانه )","type":"route","route":"bus"},"15577762":{"to":"دانشگاه اصفهان","ref":"۶۳","from":"میدان امام حسین","name":"خط ۶۳ ( میدان امام حسین ← دانشگاه اصفهان )","type":"route","route":"bus"},"15584951":{"to":"میدان امام حسین","ref":"۶۳","from":"دانشگاه اصفهان","name":"خط ۶۳ ( دانشگاه اصفهان ← میدان امام حسین )","type":"route","route":"bus"},"15588450":{"to":"میدان جمهوری اسلامی","ref":"۹","from":"پاسداران","name":"خط ۹ ( میدان انقلاب ← میدان جمهوری اسلامی )","type":"route","route":"bus","colour":"#f40606"},"15595186":{"to":"پاسداران","ref":"۹","from":"میدان جمهوری اسلامی","name":"خط ۹ ( میدان جمهوری اسلامی ← میدان انقلاب )","type":"route","route":"bus","colour":"#f40606"},"15595285":{"to":"دارک","ref":"۵۷","from":"میدان جمهوری اسلامی","name":"خط ۵۷ ( میدان جمهوری اسلامی ← دارک )","type":"route","route":"bus"},"15602498":{"to":"میدان جمهوری اسلامی","ref":"۵۷","from":"دارک","name":"خط ۵۷ ( دارک ← میدان جمهوری اسلامی )","type":"route","route":"bus"},"15689972":{"to":"دبیرستان شهید منتظری","ref":"۶۴","from":"میدان بزرگمهر","name":"خط ۶۴ ( میدان بزرگمهر ← سروش بادران )","type":"route","route":"bus","colour":"#07df2b"},"15712896":{"to":"میدان بزرگمهر","ref":"۶۴","from":"دبیرستان شهید منتظری","name":"خط ۶۴ ( سروش بادران ← میدان بزرگمهر )","type":"route","route":"bus","colour":"#07df2b"},"15716984":{"to":"اسپارت","ref":"۶۴۱","from":"میدان بزرگمهر","name":"خط ۶۴۱ ( میدان بزرگمهر ← اسپارت )","type":"route","route":"bus","colour":"#07df2b"},"15803450":{"to":"میدان بزرگمهر","ref":"۶۴۱","from":"اسپارت","name":"خط ۶۴۱ ( اسپارت ← میدان بزرگمهر )","type":"route","route":"bus","colour":"#07df2b"},"15865789":{"to":"سپهر","ref":"۴۰","from":"سی و سه پل","name":"خط ۴۰ (هتل پل← شهرک امیریه)","type":"route","route":"bus"},"15865940":{"to":"سی و سه پل","ref":"۴۰","from":"سپهر","name":"خط ۴۰ (شهرک امیریه ← هتل پل)","type":"route","route":"bus"},"15880961":{"to":"کوی امام","ref":"۳۶","from":"سی و سه پل","name":"خط ۳۶ ( سی و سه پل ← کوی امام )","type":"route","route":"bus"},"15900931":{"to":"میدان استقلال","ref":"۸۲","from":"سه راه ملک شهر","name":"خط ۸۲ ( سه راه ملک شهر ← میدان استقلال )","type":"route","route":"bus"},"15903458":{"to":"سه راه ملک شهر","ref":"۸۲","from":"میدان استقلال","name":"خط ۸۲ ( میدان استقلال ← سه راه ملک شهر )","type":"route","route":"bus"},"15906039":{"to":"پایانه مترو قدس","ref":"۴۵","from":"پایانه خرم","name":"خط ۴۵ ( پایانه خرم ← پایانه مترو قدس )","type":"route","route":"bus"}}