{"5653132":{"to":"كلية حطين","ref":"61","from":"المحطة","name":"المحطة - كلية حطين","type":"route","route":"bus","to:en":"Kuliyyat Hateen","from:en":"Mahatta","name:en":"Mahatta - Kuliyyat Hateen"},"5653134":{"to":"المحطة","ref":"61","from":"كلية حطين","name":"كلية حطين - المحطة","type":"route","route":"bus","to:en":"Mahatta","from:en":"Kuliyyat Hateen","name:en":"Kuliyyat Hateen - Mahatta","frequency":"10 - 15"},"5671318":{"to":"الجبل الشمالي","ref":"115","from":"الجامعة الأردنية","name":"الجامعة الأردنية - الجبل الشمالي","type":"route","route":"bus","to:en":"Jabal Al Shamali","from:en":"Jordan University","name:en":"Jordan University - Jabal Al Shamali"},"5671330":{"to":"الجامعة الأردنية","ref":"115","from":"الجبل الشمالي","name":"الجبل الشمالي - الجامعة الأردنية","type":"route","route":"bus","to:en":"Jordan University","from:en":"Jabal Al Shamali","name:en":"Jabal Al Shamali - Jordan University"},"11202189":{"ref":"560","name":"Mahatta--Sahab","type":"route","route":"bus","operator":"GAM"},"11202190":{"ref":"560","name":"Sahab -- Mahatta","type":"route","route":"bus","operator":"GAM"},"11205050":{"to":"وادي السير","ref":"ك١٥","from":"رأس العين","name":"كوستر ١٥: رأس العين -وادي السير","type":"route","route":"bus","to:en":"Wadi As-Seer","ref:en":"C15","from:en":"Jordan Museum","name:en":"Coaster 15: Jordan Museum - Wadi As-Seer"},"11225953":{"to":"Sweileh","ref":"101","from":"Mahatta","name":"Mahatta--Sweileh","type":"route","route":"bus","operator":"GAM"},"11225954":{"to":"Mahatta","ref":"101","from":"Sweileh","name":"Sweileh -- Mahatta","type":"route","route":"bus","operator":"GAM"},"11299181":{"to":"Marj Al Hamam","ref":"103","from":"Mahatta","name":"Mahatta--Marj Al Hamam","type":"route","route":"bus"},"13735677":{"to":"BRT Sport City Terminal","fee":"yes","ref":"98","from":"Swaileh","name":"BRT Swaileh - Sports City","type":"route","route":"bus","colour":"#990099","network":"Amman BRT","website":"ammanbrt.jo","operator":"Greater Amman Municipality","public_transport:version":"2"},"13743482":{"to":"Swaileh","fee":"yes","ref":"98","from":"BRT Sport City Terminal","name":"BRT Sports City – Swaileh","type":"route","route":"bus","colour":"#990099","network":"Amman BRT","website":"ammanbrt.jo","operator":"Greater Amman Municipality","public_transport:version":"2"},"14231547":{"to":"صويلح","fee":"0.55","ref":"99","from":"رأس العين","name":"باص ٩٩: متحف الاردن => صويلح","type":"route","route":"bus","name:en":"Bus 99: Jordan Museum => Sweileh","network":"الباص السريع","website":"http://ammanbrt.jo/","public_transport:version":"2"},"14231927":{"to":"رأس العين","fee":"0.55","ref":"99","from":"صويلح","name":"باص ٩٩:صويلح => متحف الاردن","type":"route","route":"bus","name:en":"Bus 99: Sweileh => Jordan Museum","network":"الباص السريع","website":"http://ammanbrt.jo/","public_transport:version":"2"},"14238230":{"to":"رأس العين","ref":"ك١٥","from":"البيادر","name":"كوستر ١٥: البيادر - رأس العين","type":"route","route":"bus","to:en":"Jordan Museum","ref:en":"C15","from:en":"Al Bayader","name:en":"Coaster 15: Al Bayader - Jordan Museum"}}