{"2102520":{"to":"금수산태양궁전","ref":"금수산태양궁전궤도전차","from":"삼흥역","name":"삼흥역>금수산태양궁전","type":"route","route":"tram","name:fr":"Tram touriste Samhung Metro St>Kumsusan Mem.","network":"금수산태양궁전궤도전차","operator":"Military authorities","public_transport:version":"2"},"2102521":{"to":"삼흥역","ref":"금수산태양궁전궤도전차","from":"금수산태양궁전","name":"금수산태양궁전>삼흥역","type":"route","route":"tram","name:fr":"Tram touriste Kumsusan Mem>Samhung Metro St","network":"금수산태양궁전궤도전차","operator":"Military authorities","public_transport:version":"2"},"5376445":{"to":"평양역","ref":"1","from":"만경대","name":"T1 : 만경대>평양역","type":"route","route":"tram","name:en":"T1 : Mangyongdae>Pyongyang Station","network":"평양 궤도전차","operator":"평양시려객운수종합기업소","public_transport:version":"2"},"5376446":{"to":"만경대","ref":"1","from":"평양역","name":"T1 : 평양역>만경대","type":"route","route":"tram","name:en":"T1 : Pyongyang Station>Mangyongdae","network":"평양 궤도전차","operator":"평양시려객운수종합기업소","public_transport:version":"2"},"5376627":{"to":"서평양","ref":"3","from":"락랑","name":"T3 : 락랑>서평양","type":"route","route":"tram","name:en":"T3 : Ragrang>West Pyongyang","network":"평양 궤도전차","operator":"평양시려객운수종합기업소","public_transport:version":"2"},"5376628":{"to":"토성","ref":"2","from":"문수","name":"T2 : 문수>토성","type":"route","route":"tram","name:en":"T2 : Munsu>Tosong","network":"평양 궤도전차","operator":"평양시려객운수종합기업소","public_transport:version":"2"},"5376629":{"to":"문수","ref":"2","from":"토성","name":"T2 : 토성>문수","type":"route","route":"tram","name:en":"T2 : Tosong>Munsu","network":"평양 궤도전차","operator":"평양시려객운수종합기업소","public_transport:version":"2"},"5376795":{"to":"락랑","ref":"3","from":"서평양","name":"T3 : 서평양>락랑","type":"route","route":"tram","name:en":"T3 : West Pyongyang>Ragrang","network":"평양 궤도전차","operator":"평양시려객운수종합기업소","public_transport:version":"2"},"11356338":{"to":"삭평","ref":"청진시 궤도전차","from":"퐁천","name":"퐁천 → 삭평","type":"route","route":"tram","network":"청진시 궤도전차","public_transport:version":"2"},"11356774":{"to":"대동문","ref":"10","from":"사동","name":"10: 사동 → 대동문","type":"route","route":"bus","network":"평양"},"12222190":{"to":"명사십리","ref":"원산갈마해안관광지구 궤도전차","from":"룡천","name":"룡천>명사십리","type":"route","route":"tram","network":"원산갈마해안관광지구 궤도전차","public_transport:version":"2"},"12222191":{"to":"룡천","ref":"원산갈마해안관광지구 궤도전차","from":"명사십리","name":"명사십리>룡천","type":"route","route":"tram","network":"원산갈마해안관광지구 궤도전차","public_transport:version":"2"},"12336670":{"ref":"1","name":"Kaesong Bus","type":"route","route":"bus"},"12337479":{"to":"사동","ref":"10","from":"대동문","name":"10: 대동문 → 사동","type":"route","route":"bus","network":"평양"},"14562771":{"to":"퐁천","ref":"청진시 궤도전차","from":"삭평","name":"삭평 → 퐁천","type":"route","route":"tram","network":"청진시 궤도전차","public_transport:version":"2"}}