{"1556252":{"ref":"14","name":"천안 시내버스 14","type":"route","route":"bus","name:en":"Cheonan Bus 14","name:ko":"천안 시내버스 14"},"1584359":{"ref":"2","name":"천안 시내버스 2","type":"route","route":"bus","name:en":"Cheonan Bus 2","name:ko":"천안 시내버스 2","network":"천안시","designation":"시내일반"},"1612798":{"ref":"11","name":"천안 시내버스 11","type":"route","route":"bus","name:en":"Cheonan Bus 11","name:ko":"천안 시내버스 11","network":"천안시","operator":"천안시"},"1648149":{"ref":"140","name":"천안 시내버스 140","type":"route","route":"bus","name:en":"Cheonan Bus 140","name:ko":"천안 시내버스 140","network":"천안시"},"2195500":{"to":"장전역","ref":"121","from":"금곡주차장","name":"부산버스 121","type":"route","route":"bus","network":"부산시내버스","interval":"25min(분)","operator":"삼진여객","opening_hours":"05:00-22:15","public_transport:version":"2"},"2195501":{"ref":"15","name":"부산버스 15 (use as and late-night line)","type":"route","route":"bus","network":"부산시내버스","interval":"5min(분)","operator":"삼진여객","opening_hours":"05:00-22:05,22:35-22:55","interval:night":"20min(분)"},"2195502":{"to":"진시장","ref":"111","from":"금곡동","name":"부산버스 111","type":"route","route":"bus","network":"부산시내버스","interval":"00:05 - 00:06","operator":"국제여객, 삼진여객","opening_hours":"05:00-22:10","public_transport:version":"2"},"2195503":{"ref":"북구3","name":"북구3","type":"route","route":"bus","network":"부산 북구 마을버스"},"2204545":{"to":"선창마을","ref":"1009","from":"금곡주차장","name":"부산 버스 1009","type":"route","route":"bus","network":"부산 급행버스","interval":"40~45","operator":"금진여객, 삼진여객, 성원여객","opening_hours":"05:20-22:40","public_transport:version":"2"},"2204546":{"ref":"북구7-2","name":"북구7-2","type":"route","route":"bus","network":"부산 북구 마을버스"},"2204547":{"ref":"63","name":"63","type":"route","route":"bus","network":"양산시내버스"},"2204550":{"ref":"금정1","name":"금정1","type":"route","route":"bus","network":"부산 금정구 마을버스"},"2204551":{"ref":"126","name":"부산버스 126","type":"route","route":"bus","network":"부산시내버스","interval":"00:06","operator":"삼진여객, 성원여객, 금진여객","opening_hours":"04:40-22:35","public_transport:version":"2"},"2204552":{"to":"화명동","ref":"59","from":"부산역","name":"59","type":"route","route":"bus","network":"부산시내버스","operator":"삼진여객","public_transport:version":"2"},"2204558":{"ref":"24","name":"24","type":"route","route":"bus","network":"양산시내버스"},"2236433":{"ref":"160","name":"천안 시내버스 160","type":"route","route":"bus","name:en":"Cheonan Bus 160","name:ko":"천안 시내버스 160","network":"천안시"},"2239883":{"ref":"양양-광산","name":"양양-광산","type":"route","route":"bus","network":"양양군"},"2246774":{"ref":"양양-오색","name":"양양-오색","type":"route","route":"bus","network":"양양군"},"2430416":{"to":"점터","from":"거창","name":"거창-점터","type":"route","route":"bus","distance":"19.5","description":"금원산자연","public_transport:version":"1"},"2432712":{"ref":"910","name":"천안·아산 시내버스 910","type":"route","route":"bus","name:en":"Cheonan·Asan Bus 910","name:ko":"천안·아산 시내버스 910"},"2495931":{"ref":"3","name":"천안 시내버스 3","type":"route","route":"bus","name:en":"Cheonan Bus 3","name:ko":"천안 시내버스 3","network":"천안시"},"2673040":{"ref":"100","name":"천안 시내버스 100","type":"route","route":"bus","network":"천안시"},"2673041":{"ref":"13","name":"천안 시내버스 13","type":"route","route":"bus","name:en":"Cheonan Bus 13","name:ko":"천안 시내버스 13","network":"천안시","operator":"천안시"},"2859858":{"ref":"수영2","name":"수영2","type":"route","route":"bus","int_name":"Gwangan-2","operator":"광안여객"},"2894431":{"ref":"100","name":"서울 시내버스 100","type":"route","route":"bus","name:ko":"서울 시내버스 100"},"2894437":{"ref":"101","name":"서울 시내버스 101","type":"route","route":"bus","name:ko":"서울 시내버스 101"},"2894443":{"to":"동대문역","ref":"102","from":"수락산역","name":"서울 시내버스 102","type":"route","route":"bus","name:ko":"서울 시내버스 102","network":"서울 간선버스","operator":"흥안운수","public_transport:version":"2"},"2894490":{"to":"숭례문","ref":"105","from":"상계주공7단지","name":"105 (숭례문 방면)","type":"route","route":"bus","network":"서울시 간선버스","operator":"흥안운수","public_transport:version":"2"},"2894491":{"to":"종로5가/의정부","ref":"106","from":"의정부/종로5가","name":"서울 간선버스 106","type":"route","route":"bus","colour":"#3d5bab","name:ko":"서울 간선버스 106","network":"서울시 시내버스","interval":"평일배차:11~15분 주말배차:토요일 12~16분/공휴일 13~20분","operator":"대원여객"},"2894500":{"to":"동대문/민락동차고지","ref":"107","from":"민락동차고지/동대문","name":"서울 간선버스 107","type":"route","route":"bus","colour":"#3d5bab","name:en":"Seoul Bus 107","name:ko":"서울 간선버스 107","network":"서울시 시내버스","interval":"평일배차 6~9분 주말배차 토요일 8~13분/공휴일 9~15분","operator":"대원여객"},"2894550":{"ref":"120","name":"서울 시내버스 120","type":"route","route":"bus","name:ko":"서울 시내버스 120"},"2894563":{"ref":"130","name":"서울 시내버스 130","type":"route","route":"bus","name:ko":"서울 시내버스 130"},"2894568":{"ref":"140","name":"서울 시내버스 140","type":"route","route":"bus","name:ko":"서울 시내버스 140","public_transport:version":"1"},"2894571":{"ref":"141","name":"서울 시내버스 141","type":"route","route":"bus","name:ko":"서울 시내버스 141"},"2894576":{"ref":"142","name":"서울 시내버스 142","type":"route","route":"bus","name:ko":"서울 시내버스 142"},"2894583":{"ref":"144","name":"144","type":"route","route":"bus"},"2894769":{"to":"상계동 주공7단지","ref":"146","from":"강남역","name":"서울 시내버스 146","type":"route","route":"bus","name:ko":"서울 시내버스 146","network":"서울시 간선버스","operator":"흥안운수","public_transport:version":"2"},"2894774":{"ref":"147","name":"147","type":"route","route":"bus"},"2895320":{"ref":"148","name":"148","type":"route","route":"bus"},"2895724":{"to":"용산구청","ref":"100","from":"하계동","name":"서울 버스 100","type":"route","route":"bus","operator":"한성여객"},"2895731":{"ref":"150","name":"서울 시내버스 150","type":"route","route":"bus","name:ko":"서울 시내버스 150","public_transport:version":"1"},"2895736":{"to":"경인교육대후문","ref":"152","from":"화계사","name":"서울 버스 152","type":"route","route":"bus","network":"서울시 간선버스","operator":"동아운수","public_transport:version":"2"},"2895737":{"ref":"153","name":"153 (롯데관악점 방면)","type":"route","route":"bus"},"2895766":{"ref":"160","name":"서울 시내버스 160","type":"route","route":"bus","name:ko":"서울 시내버스 160"},"2895775":{"ref":"710","name":"서울 시내버스 710","type":"route","route":"bus","name:ko":"서울 시내버스 710"},"2895818":{"ref":"201","name":"201","type":"route","route":"bus","public_transport:version":"1"},"2895828":{"ref":"240","name":"240","type":"route","route":"bus"},"2895832":{"ref":"241","name":"241","type":"route","route":"bus"},"2895833":{"ref":"260","name":"260","type":"route","route":"bus"},"2895850":{"ref":"261","name":"261","type":"route","route":"bus"},"2895858":{"ref":"262","name":"262","type":"route","route":"bus"},"2895884":{"ref":"421","name":"421","type":"route","route":"bus"},"2895887":{"ref":"463","name":"463","type":"route","route":"bus"},"2895911":{"ref":"270","name":"270","type":"route","route":"bus"},"2895915":{"ref":"271","name":"271","type":"route","route":"bus","public_transport:version":"1"},"2895916":{"ref":"272","name":"272","type":"route","route":"bus","public_transport:version":"1"},"2895930":{"ref":"273","name":"273","type":"route","route":"bus"},"2896193":{"ref":"301","name":"301","type":"route","route":"bus"},"2896343":{"ref":"340","name":"340","type":"route","route":"bus"},"2896351":{"to":"성촌마을입구","ref":"341","from":"강동공영차고지","name":"서울 버스 341: 강동공영차고지 → 성촌마을입구","type":"route","route":"bus","colour":"#3D5BAB","network":"서울특별시 간선버스","operator":"대원여객"},"2896450":{"ref":"360","name":"360","type":"route","route":"bus","public_transport:version":"1"},"2896453":{"ref":"362","name":"362","type":"route","route":"bus"},"2896454":{"ref":"350","name":"서울 시내버스 350","type":"route","route":"bus","name:en":"Seoul Bus 350","name:ko":"서울 시내버스 350","public_transport:version":"1"},"2896668":{"ref":"370","name":"서울 시내버스 370","type":"route","route":"bus","name:en":"Seoul Bus 370","name:ko":"서울 시내버스 370"},"2896711":{"ref":"401","name":"401","type":"route","route":"bus"},"2896719":{"ref":"402","name":"서울 시내버스 402","type":"route","route":"bus","name:en":"Seoul Bus 402","name:ko":"서울 시내버스 402"},"2897118":{"ref":"406","name":"406","type":"route","route":"bus"},"2897129":{"ref":"407","name":"407","type":"route","route":"bus","public_transport:version":"1"},"2897134":{"ref":"212","name":"212","type":"route","route":"bus"},"2897169":{"ref":"121","name":"121","type":"route","route":"bus"},"2897171":{"ref":"420","name":"서울 시내버스 420","type":"route","route":"bus","name:en":"Seoul Bus 420","name:ko":"서울 시내버스 420"},"2897203":{"ref":"461","name":"461","type":"route","route":"bus"},"2897216":{"ref":"462","name":"462","type":"route","route":"bus","public_transport:version":"1"},"2897217":{"ref":"470","name":"470","type":"route","route":"bus","public_transport:version":"1"},"2897221":{"ref":"471","name":"471","type":"route","route":"bus","public_transport:version":"1"},"2897229":{"ref":"472","name":"472","type":"route","route":"bus","public_transport:version":"1"},"2899064":{"ref":"500","name":"서울 버스 500","type":"route","route":"bus"},"2899065":{"ref":"501","name":"501","type":"route","route":"bus","public_transport:version":"1"},"2899068":{"ref":"504","name":"서울 버스 504","type":"route","route":"bus","public_transport:version":"1"},"2899069":{"ref":"505","name":"서울 버스 505 (서울역-노온사동)","type":"route","route":"bus","public_transport:version":"2"},"2899070":{"ref":"506","name":"506","type":"route","route":"bus","public_transport:version":"1"},"2899071":{"to":"기아대교","ref":"507","from":"동대문 역사문화공원역","name":"서울 버스 507","type":"route","route":"bus","network":"서울시 간선버스","operator":"서울교통네트웍주식회사","public_transport:version":"2"},"2905694":{"to":"가산동종점","ref":"571","from":"진관차고지","name":"서울 버스 571: 진관공영차고지 → 가산동종점","type":"route","route":"bus","network":"서울특별시 간선버스","operator":"신인운수","public_transport:version":"2"},"2905756":{"ref":"600","name":"600","type":"route","route":"bus"},"2905810":{"to":"혜화역","ref":"601","from":"개화역광역환승센터","name":"601 (개화역광역환승센터 행)","type":"route","route":"bus","network":"서울시 간선버스","operator":"다모아자동차","public_transport:version":"2"},"2905812":{"ref":"603","name":"603","type":"route","route":"bus","public_transport:version":"1"},"2906216":{"ref":"606","name":"606","type":"route","route":"bus","public_transport:version":"1"},"2907209":{"ref":"640","name":"640","type":"route","route":"bus","public_transport:version":"1"},"2907234":{"ref":"641","name":"641","type":"route","route":"bus"},"2907600":{"ref":"651","name":"서울 버스 651","type":"route","route":"bus","operator":"김포교통"},"2907605":{"ref":"652","name":"서울 버스 652","type":"route","route":"bus","operator":"신길운수"},"2907910":{"ref":"670","name":"670","type":"route","route":"bus"},"2907915":{"ref":"661","name":"661","type":"route","route":"bus"},"2909680":{"ref":"701","name":"701","type":"route","route":"bus"},"2909681":{"ref":"702","name":"702A","type":"route","route":"bus"},"2909682":{"ref":"774","name":"774","type":"route","route":"bus"},"2909683":{"ref":"704","name":"704","type":"route","route":"bus"},"2909684":{"ref":"773","name":"773","type":"route","route":"bus"},"2910118":{"ref":"708","name":"708","type":"route","route":"bus"},"2910121":{"ref":"720","name":"720","type":"route","route":"bus"},"2910155":{"ref":"721","name":"721","type":"route","route":"bus"},"2910191":{"ref":"750","name":"750","type":"route","route":"bus"},"2910199":{"ref":"751","name":"751","type":"route","route":"bus","public_transport:version":"1"},"2910217":{"ref":"752","name":"752","type":"route","route":"bus"},"2911239":{"ref":"761","name":"761","type":"route","route":"bus"},"3082516":{"ref":"400","name":"천안 시내버스 400","type":"route","route":"bus","name:en":"Cheonan Bus 400","name:ko":"천안 시내버스 400"},"3205861":{"ref":"7212","name":"7212; Eunpyeong - Oksu","type":"route","route":"bus","operator":"Seoul Metropolitan Bus"},"3248562":{"to":"용추","via":"안의","from":"거창","name":"거창-용추","type":"route","route":"bus"},"3248805":{"to":"거창","via":"안의","from":"용추","name":"용추-거창","type":"route","route":"bus"},"3287032":{"ref":"Lunch Shuttle (6 Quay Office)","name":"Lunch Shuttle 6 Quay Office - Main Gate","type":"route","route":"bus"},"3290669":{"ref":"116","name":"거제 시내버스 116","type":"route","route":"bus"},"3290670":{"ref":"410","name":"여차종점 (3330) - 학동삼거리 (5363)","type":"route","route":"bus"},"3290889":{"ref":"120","name":"덕산아내APT (1409) --> 수창APT (1430)","type":"route","route":"bus"},"3292521":{"ref":"420","name":"쌍근종점 (3305) -- 학동삼거리 (Hakdong) (5362/5363)","type":"route","route":"bus"},"4238338":{"ref":"6707B","name":"버스노선-공항버스-6707B: 송도->인천공항","type":"route","route":"bus"},"4265863":{"ref":"6-2","name":"송도-간선-6-2","type":"route","route":"bus","operator":"원진운수(주)/대인교통(주)"},"4684428":{"ref":"7011","name":"7011","type":"route","route":"bus","public_transport:version":"1"},"4691877":{"ref":"마포16","name":"마포16 (Mapo 16)","type":"route","route":"bus","public_transport:version":"2"},"4712439":{"ref":"502","name":"502: 한국은행→월암동","type":"route","route":"bus","public_transport:version":"2"},"4768489":{"ref":"463","name":"463","type":"route","route":"bus","public_transport:version":"1"},"4781419":{"ref":"7720","name":"7720","note":"To be continued to the north","type":"route","route":"bus","public_transport:version":"1"},"4872019":{"ref":"672","name":"672","type":"route","route":"bus","public_transport:version":"1"},"5220911":{"ref":"02","name":"서울 시내버스 02","type":"route","route":"bus","name:en":"Seoul Bus 02","name:ko":"서울 시내버스 02","operator":"북부운수"},"5380711":{"name":"1570","type":"route","route":"bus"},"5417730":{"to":"경희대의료원","ref":"동대문01","from":"회기역","name":"서울 버스 동대문01: 회기역 → 경희대의료원","type":"route","route":"bus","colour":"#5bb025","network":"동대문구 마을버스","operator":"우리운송"},"5634652":{"ref":"4432","name":"4432","type":"route","route":"bus","public_transport:version":"1"},"5658251":{"ref":"04","name":"서울 시내버스 04","type":"route","route":"bus","name:en":"Seoul Bus 04","name:ko":"서울 시내버스 04","operator":"북부운수","roundtrip":"yes"},"5675346":{"ref":"6707B","name":"버스노선-공항버스-6707B: 인천공항->송도","type":"route","route":"bus"},"5708687":{"ref":"75","name":"일반-75: 고속철도광명역->고강공영차고지","type":"route","route":"bus"},"5845995":{"ref":"101","name":"101(안목종점-강릉고속터미널)","type":"route","route":"bus"},"5846413":{"ref":"SHUTTLE","name":"장기주차장 셔틀버스","type":"route","route":"bus"},"5899859":{"ref":"463","name":"463","type":"route","route":"bus"},"6024921":{"ref":"400","name":"400","type":"route","route":"bus"},"6024954":{"ref":"405","name":"서울 시내버스 405","type":"route","route":"bus","name:en":"Seoul Bus 405","name:ko":"서울 시내버스 405","public_transport:version":"1"},"6191434":{"ref":"440","name":"440","type":"route","route":"bus","public_transport:version":"1"},"6503601":{"to":"숭례문","ref":"9300","from":"도촌동9단지앞","name":"9000 숭례문 행","type":"route","route":"bus","network":"경기 성남시 직행좌석","operator":"KD transprot group","public_transport:version":"2"},"6521095":{"ref":"M4101","name":"광역급행버스 M4101","type":"route","route":"bus","name:en":"M-Bus 4101","name:ko":"광역급행버스 M4101","operator":"경기고속"},"6594587":{"name":"4412","type":"route","route":"bus"},"6594588":{"name":"3011","type":"route","route":"bus"},"6711765":{"name":"5012","type":"route","route":"bus"},"6838113":{"name":"7022","type":"route","route":"bus"},"6838114":{"name":"702B","type":"route","route":"bus"},"6838115":{"name":"8774","type":"route","route":"bus"},"6839138":{"name":"7720","type":"route","route":"bus"},"6840611":{"name":"7613","type":"route","route":"bus"},"6925721":{"name":"707","type":"route","route":"bus"},"6946554":{"to":"신사동사거리.신사역","ref":"441","via":"신사사거리","from":"월암종점","name":"서울 시내버스 441 → 신사동","type":"route","route":"bus","colour":"blue","network":"서울시 간선버스","operator":"우신버스","public_transport:version":"2"},"6967600":{"to":"5단지입구","ref":"1","via":"금정역","from":"5단지종점","name":"군포 마을버스 1","type":"route","route":"bus","network":"군포시","public_transport:version":"2"},"6968452":{"to":"당정역","ref":"5","via":"수리산역","from":"당정역","name":"군포 마을버스 5","type":"route","route":"bus","network":"군포시","public_transport:version":"2"},"6968710":{"to":"삼성마을1단지아파트","ref":"9","via":"금정역","from":"삼성마을1단지아파트","name":"군포 마을버스 9","type":"route","route":"bus","network":"군포시","public_transport:version":"2"},"6970008":{"to":"둔대초등학교","ref":"7","via":"산본역","from":"둔대초등학교","name":"군포 마을버스 7","type":"route","route":"bus","network":"군포시","public_transport:version":"2"},"6970874":{"to":"당정역","ref":"3","via":"금정역","from":"당정역","name":"군포 마을버스 3","type":"route","route":"bus","network":"군포시","public_transport:version":"2"},"6971049":{"to":"7단지아파트","ref":"2","via":"수리산역","from":"한양프라자","name":"군포 마을버스 2","type":"route","route":"bus","network":"군포시","public_transport:version":"2"},"6982099":{"ref":"8507","name":"광명 시내버스 8507","type":"route","route":"bus","name:en":"Gwangmyeong Bus 8507","name:ko":"광명 시내버스 8507","operator":"코레일네트웍스","public_transport:version":"2"},"6985646":{"to":"당정역","ref":"3-1","via":"둔전초등학교","from":"당정역","name":"군포 마을버스 3-1","type":"route","route":"bus","network":"군포시","public_transport:version":"2"},"7000948":{"ref":"112","name":"천안 시내버스 112","type":"route","route":"bus","name:en":"Cheonan Bus 112","name:ko":"천안 시내버스 112","network":"천안시"},"7010190":{"to":"각원사","ref":"81","from":"차암2통","name":"천안 시내버스 81","type":"route","route":"bus","name:en":"Cheonan Bus 81","name:ko":"천안 시내버스 81","network":"천안시"},"7047668":{"ref":"7","name":"천안 시내버스 7","type":"route","route":"bus","name:en":"Cheonan Bus 7","name:ko":"천안 시내버스 7","network":"천안시"},"7083826":{"name":"금정구 3번(남산행)","type":"route","route":"bus","name:ko":"금정구 3번(남산행)","network":"부산광역시 마을버스 운송사업조합","operator":"태성여객","description":"구서 - 외대 - 남산 Guseo - Woedae (Univ. of Foreign Students) - Namsan"},"7083827":{"name":"금정구 3번(구서행)","type":"route","route":"bus","name:ko":"금정구 3번(구서행)","network":"부산광역시 마을버스 운송사업조합","operator":"부산광역시 마을버스 운송사업조합","description":"남산 - 외대 - 구서 Namsan - Woedae (Univ. of Foreign Students) - Guseo"},"7093956":{"ref":"관악02","name":"관악02","type":"route","route":"bus","name:en":"Gwanak 02","name:ko":"관악02"},"7099087":{"to":"실리콘파크.삼성중공업","ref":"602-1","from":"율동공원","name":"602-1","type":"route","route":"bus","network":"성남시 마을버스","operator":"서현교통","public_transport:version":"2"},"7111732":{"name":"금정 3번(브니엘행)","type":"route","route":"bus","name:ko":"금정 3번(브니엘행)","network":"부산광역시 마을버스 운송사업조합","operator":"태성여객","description":"구서 - 브니엘고 - 구서 Guseo - Beunielgo - Guseo"},"7165630":{"ref":"68","name":"68","type":"route","route":"bus","colour":"#1C78CF","name:en":"Incheon Bus 68","name:ko":"인천 버스 68","operator":"도영운수 주식회사","opening_hours":"04:20~22:50"},"7172324":{"to":"월암종점","ref":"502","via":"한국은행","from":"월암종점","name":"서울 시내버스 502 → 한국은행","type":"route","route":"bus","network":"서울특별시","operator":"우신버스","public_transport:version":"2"},"7238324":{"ref":"65","name":"인천 버스 65","type":"route","route":"bus","colour":"#1C78CF","name:en":"Incheon Bus 65","name:ko":"인천 버스 65","operator":"도영운수 주식회사","opening_hours":"04:20-22:50"},"7388659":{"ref":"90","name":"천안 시내버스 90","type":"route","route":"bus","name:en":"Cheonan Bus 90","name:ko":"천안 시내버스 90"},"7388844":{"ref":"1","name":"천안 시내버스 1","type":"route","route":"bus","name:en":"Cheonan Bus 1","name:ko":"천안 시내버스 1"},"7388845":{"ref":"12","name":"천안 시내버스 12","type":"route","route":"bus","name:en":"Cheonan Bus 12","name:ko":"천안 시내버스 12"},"7388846":{"ref":"990","name":"아산 시내버스 990","type":"route","route":"bus","name:en":"Asan Bus 990","name:ko":"아산 시내버스 990"},"7390665":{"ref":"9","name":"천안 시내버스 9","type":"route","route":"bus","name:en":"Cheonan Bus 9","name:ko":"천안 시내버스 9"},"7390667":{"ref":"20","name":"천안 시내버스 20","type":"route","route":"bus","name:en":"Cheonan Bus 20","name:ko":"천안 시내버스 20"},"7390668":{"ref":"19","name":"천안 시내버스 19","type":"route","route":"bus","name:en":"Cheonan Bus 19","name:ko":"천안 시내버스 19"},"7390669":{"ref":"800","name":"천안 시내버스 800","type":"route","route":"bus","name:en":"Cheonan Bus 800","name:ko":"천안 시내버스 800"},"7393914":{"ref":"7770","name":"수원 시내버스 7770","type":"route","route":"bus","name:en":"Suwon Bus 7770","name:ko":"수원 시내버스 7770","operator":"경진여객"},"7394721":{"ref":"70","name":"안성 시내버스 70","type":"route","route":"bus","name:en":"Anseong Bus 70","name:ko":"안성 시내버스 70"},"7407111":{"name":"부산버스 39","type":"route","route":"bus","interval":"00:09","operator":"부산여객자동차(주)","opening_hours":"05:00 - 22:05"},"7407575":{"ref":"21","name":"천안 시내버스 21","type":"route","route":"bus","name:en":"Cheonan Bus 21","name:ko":"천안 시내버스 21"},"7409620":{"ref":"24","name":"천안 시내버스 24","type":"route","route":"bus","name:en":"Cheonan Bus 24","name:ko":"천안 시내버스 24"},"7409748":{"ref":"51","name":"천안 시내버스 51","type":"route","route":"bus","name:en":"Cheonan Bus 51","name:ko":"천안 시내버스 51"},"7409749":{"ref":"52","name":"천안 시내버스 52","type":"route","route":"bus","name:en":"Cheonan Bus 52","name:ko":"천안 시내버스 52"},"7409750":{"ref":"63","name":"천안 시내버스 63","type":"route","route":"bus","name:en":"Cheonan Bus 63","name:ko":"천안 시내버스 63"},"7414776":{"to":"모락산현대아파트","ref":"03","via":"범계역;자유공원","from":"관악타운","name":"의왕 버스 03 → 모락산현대아파트","type":"route","route":"bus","colour":"yellow","source":"도로명주소","network":"Uiwang Town Bus","operator":"의왕운수","public_transport:version":"2"},"7414777":{"to":"관악타운","ref":"03","via":"자유공원;범계역","from":"모락산현대아파트","name":"의왕 버스 03 → 관악타운","type":"route","route":"bus","colour":"yellow","source":"도로명주소","network":"Uiwang Town Bus","operator":"의왕운수","public_transport:version":"2"},"7415119":{"ref":"2","name":"인천 버스 2","type":"route","route":"bus","colour":"#1C78CF","name:en":"Incheon Bus 2","name:ko":"인천 버스 2","operator":"동화운수","opening_hours":"04:45-23:00"},"7420984":{"ref":"110","name":"천안 시내버스 110","type":"route","route":"bus","network":"천안시"},"7420985":{"ref":"120","name":"천안 시내버스 120","type":"route","route":"bus","name:en":"Cheonan Bus 120","name:ko":"천안 시내버스 120","network":"천안시"},"7420986":{"ref":"121","name":"천안 시내버스 121","type":"route","route":"bus","name:en":"Cheonan Bus 121","name:ko":"천안 시내버스 121","network":"천안시"},"7421005":{"ref":"201","name":"천안 시내버스 201","type":"route","route":"bus","name:en":"Cheonan Bus 201","name:ko":"천안 시내버스 201"},"7430876":{"name":"부산버스 1003","type":"route","route":"bus","interval":"00:11","operator":"부산여객자동차(주)","opening_hours":"04:20 - 22:20"},"7431037":{"name":"부산버스 1003(심야)","type":"route","route":"bus","interval":"00:10","operator":"부산여객자동차(주)","opening_hours":"22:30 - 23:45"},"7431230":{"to":"경제자유구역청","ref":"부산버스 1011","from":"청강리","name":"부산버스 1011 (경제자유구역청 행)","type":"route","route":"bus","network":"부산시 급행버스","interval":"00:20 - 00:25","operator":"부일여객, 해동여객","opening_hours":"05:00 - 21:00","public_transport:version":"2"},"7434198":{"name":"부산버스 141","type":"route","route":"bus","interval":"00:10","operator":"해동여객","opening_hours":"05:00 - 22:00"},"7437154":{"name":"부산버스 141(심야)","type":"route","route":"bus","interval":"00:15","operator":"해동여객","opening_hours":"22:40 - 23:40"},"7437447":{"to":"북구청","ref":"200","from":"청강리","name":"부산버스 200","type":"route","route":"bus","network":"부산광역시 일반시내버스","interval":"00:12","operator":"세익여객","opening_hours":"04:40 - 21:50","public_transport:version":"2"},"7472430":{"ref":"마포01","name":"마포01","type":"route","route":"bus","operator":"웅산교통"},"7472431":{"ref":"마포01","name":"마포01","type":"route","route":"bus","operator":"웅산교통"},"7472457":{"ref":"마포02","name":"마포02","type":"route","route":"bus","operator":"웅산교통"},"7472458":{"ref":"마포02","name":"마포02","type":"route","route":"bus","operator":"웅산교통"},"7472470":{"ref":"마포03","name":"마포03","type":"route","route":"bus","operator":"아현운수"},"7472471":{"ref":"마포03","name":"마포03","type":"route","route":"bus","operator":"아현운수"},"7472654":{"ref":"마포05","name":"마포05","type":"route","route":"bus","operator":"온누리운수"},"7472655":{"ref":"마포05","name":"마포05","type":"route","route":"bus","operator":"온누리운수"},"7472702":{"ref":"마포06","name":"마포06","type":"route","route":"bus","operator":"온누리운수"},"7472703":{"ref":"마포06","name":"마포06","type":"route","route":"bus","operator":"온누리운수"},"7474734":{"ref":"마포07","name":"마포07 (신촌·현대백화점 방면)","type":"route","route":"bus","operator":"승마교통"},"7474735":{"ref":"마포07","name":"마포07 (양화진성지 방면)","type":"route","route":"bus","operator":"승마교통"},"7474796":{"ref":"마포09","name":"마포09","type":"route","route":"bus","operator":"정암운수"},"7474797":{"ref":"마포09","name":"마포09","type":"route","route":"bus","operator":"정암운수"},"7474806":{"ref":"마포10","name":"마포10","type":"route","route":"bus","operator":"정암운수"},"7474847":{"ref":"마포11","name":"마포11 (신촌지하역 방면)","type":"route","route":"bus","operator":"신수동마을버스"},"7474921":{"ref":"마포12","name":"마포12 (신촌지하역 방면)","type":"route","route":"bus","operator":"신수동마을버스"},"7474946":{"ref":"마포13","name":"마포13","type":"route","route":"bus","operator":"미향운수"},"7474947":{"ref":"마포13","name":"마포13","type":"route","route":"bus","operator":"미향운수"},"7474949":{"ref":"마포14","name":"마포14 (산울림소극장 방면)","type":"route","route":"bus","operator":"미향운수"},"7474950":{"ref":"마포14","name":"마포14 (창전삼성아파트 방면)","type":"route","route":"bus","operator":"미향운수"},"7474968":{"ref":"마포17","name":"마포17","type":"route","route":"bus","operator":"신수동마을버스"},"7474969":{"ref":"마포17","name":"마포17","type":"route","route":"bus","operator":"신수동마을버스"},"7475001":{"ref":"마포18","name":"마포18","type":"route","route":"bus","operator":"미금마을버스"},"7477483":{"name":"부산버스 100","type":"route","route":"bus","interval":"12min(분)","operator":"해동여객","opening_hours":"04:50-21:50"},"7477868":{"ref":"은평01","name":"은평01","type":"route","route":"bus","operator":"선진운수"},"7477869":{"ref":"은평01","name":"은평01","type":"route","route":"bus","operator":"선진운수"},"7477871":{"ref":"은평03","name":"은평03","type":"route","route":"bus","operator":"갈현운수"},"7477872":{"ref":"은평03","name":"은평03","type":"route","route":"bus","operator":"갈현운수"},"7477946":{"ref":"은평02","name":"은평02","type":"route","route":"bus","operator":"선진운수"},"7477947":{"ref":"은평02","name":"은평02","type":"route","route":"bus","operator":"선진운수"},"7477949":{"ref":"은평04","name":"은평04","type":"route","route":"bus","operator":"선진운수"},"7477950":{"ref":"은평04","name":"은평04","type":"route","route":"bus","operator":"선진운수"},"7478046":{"ref":"은평05","name":"은평05","type":"route","route":"bus","operator":"영운운수"},"7478047":{"ref":"은평05","name":"은평05","type":"route","route":"bus","operator":"영운운수"},"7478091":{"ref":"은평06","name":"은평06","type":"route","route":"bus","operator":"영운운수"},"7478092":{"ref":"은평06","name":"은평06","type":"route","route":"bus","operator":"영운운수"},"7478130":{"ref":"은평07","name":"은평07","type":"route","route":"bus","operator":"영운운수"},"7478131":{"ref":"은평07","name":"은평07","type":"route","route":"bus","operator":"영운운수"},"7478166":{"ref":"은평08","name":"은평08","type":"route","route":"bus","operator":"갈현운수"},"7478167":{"ref":"은평08","name":"은평08","type":"route","route":"bus","operator":"갈현운수"},"7478169":{"ref":"은평09","name":"은평09","type":"route","route":"bus","operator":"갈현운수"},"7478170":{"ref":"은평09","name":"은평09","type":"route","route":"bus","operator":"갈현운수"},"7478184":{"to":"상신초교후문.산새마을종점","ref":"은평10","from":"숭실고등학교","name":"은평10","type":"route","route":"bus","colour":"lightgreen","interval":"00:18:00~00:25:00","operator":"영운운수","wheelchair":"no","opening_hours":"Mo-Su 06:00-23:50","opening_hours:covid19":"same"},"7478185":{"to":"숭실고으학교","ref":"은평10","from":"상신초교후문.산새마을종점","name":"은평10","type":"route","route":"bus","colour":"lightgreen","interval":"00:18:00~00:25:00","operator":"영운운수","wheelchair":"no","opening_hours":"Mo-Su 06:00-23:50"},"7478222":{"ref":"용산01","name":"용산01","type":"route","route":"bus","operator":"남산운수"},"7478223":{"to":"한남동주민센터","ref":"용산01","from":"순천향병원","name":"용산01","type":"route","route":"bus","name:en":"Yongsan 01","interval":"00:15","operator":"남산운수","contact:phone":"+82 2-792-8953","opening_hours":"06:30-22:30","public_transport:version":"2"},"7478369":{"ref":"용산02","name":"용산02 (남영역 방면)","type":"route","route":"bus","operator":"태영마을버스"},"7478376":{"ref":"용산02","name":"용산02 (한신아파트 방면)","type":"route","route":"bus","operator":"태영마을버스"},"7478414":{"ref":"용산03","name":"용산03","type":"route","route":"bus","operator":"남산운수"},"7478415":{"ref":"용산03","name":"용산03","type":"route","route":"bus","operator":"남산운수"},"7478436":{"ref":"용산04","name":"용산04 (경기여상 방면)","type":"route","route":"bus","operator":"금양운수"},"7478437":{"ref":"용산04","name":"용산04 (서울역 방면)","type":"route","route":"bus","operator":"금양운수"},"7478524":{"ref":"서대문01","name":"서대문01","type":"route","route":"bus","operator":"부일교통"},"7478525":{"ref":"서대문01","name":"서대문01","type":"route","route":"bus","operator":"부일교통"},"7478527":{"ref":"서대문09","name":"서대문09대","type":"route","route":"bus","operator":"홍제교통"},"7478528":{"ref":"서대문09","name":"서대문09대","type":"route","route":"bus","operator":"홍제교통"},"7478530":{"ref":"서대문09","name":"서대문09소","type":"route","route":"bus","operator":"홍제교통"},"7478531":{"ref":"서대문09","name":"서대문09소","type":"route","route":"bus","operator":"홍제교통"},"7478589":{"ref":"서대문10","name":"서대문10","type":"route","route":"bus","operator":"홍제교통"},"7478590":{"ref":"서대문10","name":"서대문10","type":"route","route":"bus","operator":"홍제교통"},"7478592":{"ref":"서대문11","name":"서대문11","type":"route","route":"bus","operator":"삼하운수"},"7478593":{"ref":"서대문11","name":"서대문11","type":"route","route":"bus","operator":"삼하운수"},"7478624":{"ref":"서대문13","name":"서대문13","type":"route","route":"bus","operator":"삼하운수"},"7478625":{"ref":"서대문13","name":"서대문13","type":"route","route":"bus","operator":"삼하운수"},"7478627":{"ref":"서대문12","name":"서대문12","type":"route","route":"bus","operator":"태화운수"},"7478628":{"ref":"서대문12","name":"서대문12","type":"route","route":"bus","operator":"태화운수"},"7481015":{"ref":"서대문03","name":"서대문03","type":"route","route":"bus","operator":"연일교통"},"7481016":{"ref":"서대문03","name":"서대문03","type":"route","route":"bus","operator":"연일교통"},"7481033":{"ref":"서대문04","name":"서대문04","type":"route","route":"bus","operator":"정원마을버스"},"7481034":{"ref":"서대문04","name":"서대문04","type":"route","route":"bus","operator":"정원마을버스"},"7481119":{"ref":"서대문05","name":"서대문05","type":"route","route":"bus","operator":"서북운수"},"7481120":{"ref":"서대문05","name":"서대문05","type":"route","route":"bus","operator":"서북운수"},"7481266":{"ref":"서대문06","name":"서대문06","type":"route","route":"bus","operator":"서북운수"},"7481267":{"ref":"서대문06","name":"서대문06","type":"route","route":"bus","operator":"서북운수"},"7481280":{"ref":"서대문07","name":"서대문07","type":"route","route":"bus","operator":"태화운수"},"7481281":{"ref":"서대문07","name":"서대문07","type":"route","route":"bus","operator":"태화운수"},"7481310":{"ref":"서대문08","name":"서대문08","type":"route","route":"bus","operator":"태화운수"},"7481312":{"ref":"서대문08","name":"서대문08","type":"route","route":"bus","operator":"태화운수"},"7481331":{"ref":"서대문14","name":"서대문14","type":"route","route":"bus","operator":"미향운수"},"7481332":{"ref":"서대문14","name":"서대문14","type":"route","route":"bus","operator":"미향운수"},"7481397":{"ref":"서대문02","name":"서대문02소","type":"route","route":"bus","operator":"충정운수"},"7481398":{"ref":"서대문02","name":"서대문02소","type":"route","route":"bus","operator":"충정운수"},"7481400":{"ref":"서대문02","name":"서대문02대","type":"route","route":"bus","operator":"충정운수"},"7481401":{"ref":"서대문02","name":"서대문02대","type":"route","route":"bus","operator":"충정운수"},"7484708":{"to":"회기역종점","ref":"동대문03","from":"가든아파트.수사연구소","name":"서울 버스 동대문03: 가든아파트.수사연구소 → 회기역종점","type":"route","route":"bus","colour":"#5bb025","network":"동대문구 마을버스","operator":"휘경운수"},"7484709":{"to":"동대부고.은석초교앞","ref":"동대문03","from":"회기역종점","name":"서울 버스 동대문03: 회기역종점 → 동대부고.은석초교앞","type":"route","route":"bus","colour":"#5bb025","network":"동대문구 마을버스","operator":"휘경운수"},"7484756":{"to":"영휘원사거리.(구)홍릉사거리","ref":"동대문05","from":"답십리역","name":"서울 버스 동대문05: 답십리역 → 영휘원사거리.(구)홍릉사거리","type":"route","route":"bus","colour":"#5bb025","network":"동대문구 마을버스","operator":"태현교통"},"7484757":{"to":"부속상가","ref":"동대문05","from":"영휘원사거리.(구)홍릉사거리","name":"서울 버스 동대문05: 영휘원사거리.(구)홍릉사거리 → 부속상가","type":"route","route":"bus","colour":"#5bb025","network":"동대문구 마을버스","operator":"태현교통"},"7484866":{"ref":"광진01","name":"광진01","type":"route","route":"bus","operator":"광장운수"},"7484868":{"ref":"광진01","name":"광진01","type":"route","route":"bus","operator":"광장운수"},"7484888":{"ref":"광진02","name":"광진02","type":"route","route":"bus","operator":"구의교통"},"7484889":{"ref":"광진02","name":"광진02","type":"route","route":"bus","operator":"구의교통"},"7486557":{"ref":"광진03","name":"광진03","type":"route","route":"bus","operator":"구의교통"},"7486558":{"ref":"광진03","name":"광진03","type":"route","route":"bus","operator":"구의교통"},"7486565":{"ref":"광진04","name":"광진04","type":"route","route":"bus","operator":"구의교통"},"7486566":{"ref":"광진04","name":"광진04","type":"route","route":"bus","operator":"구의교통"},"7486579":{"ref":"광진05","name":"광진05","type":"route","route":"bus","operator":"한빛운수"},"7486580":{"ref":"광진05","name":"광진05","type":"route","route":"bus","operator":"한빛운수"},"7486584":{"ref":"중랑01","name":"중랑01","type":"route","route":"bus","operator":"진아중화버스"},"7486585":{"ref":"중랑01","name":"중랑01","type":"route","route":"bus","operator":"진아중화버스"},"7486587":{"ref":"중랑02","name":"중랑02","type":"route","route":"bus","operator":"중랑운수"},"7486588":{"ref":"중랑02","name":"중랑02","type":"route","route":"bus","operator":"중랑운수"},"7486629":{"ref":"7737","name":"7737","type":"route","route":"bus","operator":"원버스"},"7486630":{"ref":"7737","name":"7737","type":"route","route":"bus","operator":"원버스"},"7490932":{"to":"오목교역.대학학원","ref":"양천02","from":"강서보건소.9호선등촌역","name":"서울 버스 양천02: 강서보건소.9호선등촌역 → 오목교역.대학학원","type":"route","route":"bus","network":"서울특별시 마을버스","operator":"목동운수"},"7490933":{"to":"롯데캐슬아파트.목3동시장","ref":"양천02","from":"오목교역.대학학원","name":"서울 버스 양천02: 오목교역.대학학원 → 롯데캐슬아파트.목3동시장","type":"route","route":"bus","network":"서울특별시 마을버스","operator":"목동운수"},"7490951":{"to":"당산역.지하철2호선","ref":"양천01","from":"강서보건소.9호선등촌역","name":"서울 버스 양천01: 강서보건소.9호선등촌역 → 당산역.지하철2호선","type":"route","route":"bus","network":"서울특별시 마을버스","operator":"목동운수"},"7490952":{"to":"롯데캐슬아파트.목3동시장","ref":"양천01","from":"당산역.지하철2호선","name":"서울 버스 양천01: 당산역.지하철2호선 → 롯데캐슬아파트.목3동시장","type":"route","route":"bus","network":"서울특별시 마을버스","operator":"목동운수"},"7493318":{"to":"목동역","ref":"양천03","from":"신정이펜하우스1단지","name":"서울 버스 양천03: 신정이펜하우스1단지 → 목동역","type":"route","route":"bus","network":"서울특별시 마을버스","operator":"신목교통"},"7493319":{"to":"신정이펜하우스1단지.새금성교회","ref":"양천03","from":"목동역","name":"서울 버스 양천03: 목동역 → 신정이펜하우스1단지.새금성교회","type":"route","route":"bus","network":"서울특별시 마을버스","operator":"신목교통"},"7493338":{"to":"양천구청역","ref":"양천04","from":"신도림동아3차아파트","name":"양천04: 신도림동아3차아파트 → 양천구청역","type":"route","route":"bus","network":"서울특별시 마을버스","operator":"우리교통","public_transport:version":"1"},"7493339":{"to":"동아1차아파트102동","ref":"양천04","from":"양천구청역","name":"서울 버스 양천04: 양천구청역 → 동아1차아파트102동","type":"route","route":"bus","network":"서울특별시 마을버스","operator":"우리교통"},"7493662":{"ref":"강서01","name":"강서01","type":"route","route":"bus","operator":"새한교통"},"7493663":{"ref":"강서01","name":"강서01","type":"route","route":"bus","operator":"새한교통"},"7493665":{"ref":"강서02","name":"강서02","type":"route","route":"bus","operator":"새한교통"},"7493666":{"ref":"강서02","name":"강서02","type":"route","route":"bus","operator":"새한교통"},"7493668":{"ref":"강서03","name":"강서03","type":"route","route":"bus","operator":"부민운수"},"7493669":{"ref":"강서03","name":"강서03","type":"route","route":"bus","operator":"부민운수"},"7493732":{"ref":"강서04","name":"강서04","type":"route","route":"bus","operator":"염경운수"},"7493733":{"ref":"강서04","name":"강서04","type":"route","route":"bus","operator":"염경운수"},"7493768":{"ref":"강서05","name":"강서05","type":"route","route":"bus","operator":"대운교통"},"7493769":{"ref":"강서05","name":"강서05","type":"route","route":"bus","operator":"대운교통"},"7493806":{"ref":"강서05-1","name":"강서05-1","type":"route","route":"bus","operator":"대운교통"},"7493807":{"ref":"강서05-1","name":"강서05-1","type":"route","route":"bus","operator":"대운교통"},"7493840":{"ref":"강서06","name":"강서06","type":"route","route":"bus","operator":"염경운수"},"7493841":{"ref":"강서06","name":"강서06","type":"route","route":"bus","operator":"염경운수"},"7493843":{"ref":"강서07","name":"강서07","type":"route","route":"bus","operator":"염경운수"},"7493844":{"ref":"강서07","name":"강서07","type":"route","route":"bus","operator":"염경운수"},"7494340":{"ref":"종로01","name":"종로01","type":"route","route":"bus","operator":"대산교통"},"7494341":{"ref":"종로01","name":"종로01","type":"route","route":"bus","operator":"대산교통"},"7494378":{"ref":"종로02","name":"종로02","type":"route","route":"bus","operator":"대산교통"},"7494379":{"ref":"종로02","name":"종로02","type":"route","route":"bus","operator":"대산교통"},"7494445":{"ref":"종로03","name":"종로03","type":"route","route":"bus","operator":"종로운수"},"7494446":{"ref":"종로03","name":"종로03","type":"route","route":"bus","operator":"종로운수"},"7494462":{"ref":"종로05","name":"종로05","type":"route","route":"bus","operator":"나경운수"},"7494463":{"ref":"종로05","name":"종로05","type":"route","route":"bus","operator":"나경운수"},"7494470":{"ref":"종로06","name":"종로06","type":"route","route":"bus","operator":"약수교통"},"7494471":{"ref":"종로06","name":"종로06","type":"route","route":"bus","operator":"약수교통"},"7496365":{"name":"부산버스 100-1","type":"route","route":"bus","operator":"해동여객"},"7496902":{"ref":"종로07","name":"종로07","type":"route","route":"bus","operator":"와룡운수"},"7496903":{"ref":"종로07","name":"종로07","type":"route","route":"bus","operator":"와룡운수"},"7496916":{"ref":"종로08","name":"종로08","type":"route","route":"bus","operator":"와룡운수"},"7496917":{"ref":"종로08","name":"종로08","type":"route","route":"bus","operator":"와룡운수"},"7497185":{"ref":"종로09","name":"종로09 (시청역 방면)","type":"route","route":"bus","operator":"인왕교통"},"7497186":{"ref":"종로09","name":"종로09 (수성동계곡 방면)","type":"route","route":"bus","operator":"인왕교통"},"7497260":{"ref":"종로11","name":"종로11 (서울역 방면)","type":"route","route":"bus","operator":"삼청교통"},"7497261":{"ref":"종로11","name":"종로11 (삼청동 방면)","type":"route","route":"bus","operator":"삼청교통"},"7497274":{"ref":"종로12","name":"종로12","type":"route","route":"bus","operator":"은수교통"},"7497275":{"ref":"종로12","name":"종로12","type":"route","route":"bus","operator":"은수교통"},"7497279":{"ref":"종로13","name":"종로13","type":"route","route":"bus","operator":"약수교통"},"7497280":{"ref":"종로13","name":"종로13","type":"route","route":"bus","operator":"약수교통"},"7497691":{"ref":"N37","name":"N37 (진관공영차고지 방면)","type":"route","route":"bus","operator":"한국비알티자동차"},"7497692":{"ref":"N37","name":"N37 (송파공영차고지 방면)","type":"route","route":"bus","operator":"한국비알티자동차"},"7500411":{"ref":"N30","name":"N30 (서울역버스환승센터 방면)","type":"route","route":"bus","operator":"서울승합"},"7500412":{"ref":"N30","name":"N30 (강동공영차고지 방면)","type":"route","route":"bus","operator":"서울승합"},"7500564":{"to":"중랑공영차고지","ref":"N26","from":"강서공영차고지","name":"N26 (중랑공영차고지.신내역 방면)","type":"route","route":"bus","network":"서울시 심야버스","operator":"메트로버스","public_transport:version":"2"},"7500565":{"to":"강서공영차고지","ref":"N26","from":"중랑공영차고지","name":"N26 (개화역광역환승센터 방면)","type":"route","route":"bus","network":"서울시 심야버스","operator":"메트로버스","public_transport:version":"2"},"7504068":{"name":"부산버스 139","type":"route","route":"bus","interval":"22min(분)","operator":"부산여객자동차(주)","opening_hours":"05:00-22:00"},"7504912":{"ref":"N16","name":"서울 시내버스 N16","type":"route","route":"bus","name:ko":"서울 시내버스 N16","operator":"서울교통네트웍"},"7504913":{"ref":"N16","name":"서울 시내버스 N16","type":"route","route":"bus","operator":"서울교통네트웍"},"7505539":{"ref":"N15","name":"서울 시내버스 N15","type":"route","route":"bus","name:ko":"서울 시내버스 N15","operator":"동아운수","public_transport:version":"1"},"7505540":{"ref":"N15","name":"서울 시내버스 N15","type":"route","route":"bus","name:ko":"서울 시내버스 N15","operator":"동아운수"},"7509862":{"ref":"성북01","name":"성북01","type":"route","route":"bus","operator":"아리랑교통"},"7509863":{"ref":"성북01","name":"성북01","type":"route","route":"bus","operator":"아리랑교통"},"7509870":{"ref":"성북02","name":"성북02","type":"route","route":"bus","operator":"성삼운수"},"7509871":{"ref":"성북02","name":"성북02","type":"route","route":"bus","operator":"성삼운수"},"7509880":{"ref":"성북03","name":"성북03","type":"route","route":"bus","operator":"성삼운수"},"7509881":{"ref":"성북03","name":"성북03","type":"route","route":"bus","operator":"성삼운수"},"7509895":{"to":"정수빌라","ref":"성북05","from":"정릉2동주민센터","name":"서울 버스 성북05: 정릉2동주민센터 → 정수빌라","type":"route","route":"bus","colour":"#5bb025","network":"서울특별시 마을버스","operator":"대진여객"},"7509896":{"to":"정릉2동주민센터","ref":"성북05","from":"정수빌라","name":"서울 버스 성북05: 정수빌라 → 정릉2동주민센터","type":"route","route":"bus","colour":"#5bb025","network":"서울특별시 마을버스","operator":"대진여객"},"7509921":{"ref":"성북06","name":"성북06","type":"route","route":"bus","operator":"대진여객"},"7509922":{"ref":"성북06","name":"성북06","type":"route","route":"bus","operator":"대진여객"},"7509925":{"ref":"성북07","name":"성북07","type":"route","route":"bus","operator":"대진여객"},"7509926":{"ref":"성북07","name":"성북07","type":"route","route":"bus","operator":"대진여객"},"7510270":{"ref":"성북08","name":"성북08","type":"route","route":"bus","operator":"길음운수"},"7510271":{"ref":"성북08","name":"성북08","type":"route","route":"bus","operator":"길음운수"},"7510273":{"ref":"성북09","name":"성북09","type":"route","route":"bus","operator":"길음운수"},"7510274":{"ref":"성북09","name":"성북09","type":"route","route":"bus","operator":"길음운수"},"7510343":{"ref":"성북10","name":"성북10","type":"route","route":"bus","operator":"고려승객"},"7510344":{"ref":"성북10","name":"성북10","type":"route","route":"bus","operator":"고려승객"},"7510391":{"ref":"성북12","name":"성북12","type":"route","route":"bus","operator":"석계운수"},"7510392":{"ref":"성북12","name":"성북12","type":"route","route":"bus","operator":"석계운수"},"7512723":{"ref":"성북13","name":"성북13","type":"route","route":"bus","operator":"석계운수"},"7512724":{"ref":"성북13","name":"성북13","type":"route","route":"bus","operator":"석계운수"},"7512727":{"ref":"성북14","name":"성북14","type":"route","route":"bus","operator":"석계운수"},"7512732":{"ref":"성북15","name":"성북15","type":"route","route":"bus","operator":"고려승객"},"7512733":{"ref":"성북15","name":"성북15","type":"route","route":"bus","operator":"고려승객"},"7513440":{"ref":"성동01","name":"성동01","type":"route","route":"bus","operator":"왕금운수"},"7513472":{"ref":"성동02","name":"성동02","type":"route","route":"bus","operator":"응봉운수"},"7513473":{"ref":"성동02","name":"성동02","type":"route","route":"bus","operator":"응봉운수"},"7513485":{"ref":"성동03","name":"성동03","type":"route","route":"bus","operator":"낙산운수"},"7513486":{"ref":"성동03","name":"성동03","type":"route","route":"bus","operator":"낙산운수"},"7513521":{"ref":"성동05","name":"성동05","type":"route","route":"bus","operator":"동호운수"},"7513522":{"ref":"성동05","name":"성동05","type":"route","route":"bus","operator":"동호운수"},"7513523":{"ref":"성동06","name":"성동06","type":"route","route":"bus","operator":"동호운수"},"7513524":{"ref":"성동06","name":"성동06","type":"route","route":"bus","operator":"동호운수"},"7513534":{"ref":"성동08","name":"성동08","type":"route","route":"bus","operator":"금호교통"},"7513535":{"ref":"성동08","name":"성동08","type":"route","route":"bus","operator":"금호교통"},"7513537":{"ref":"성동09","name":"성동09","type":"route","route":"bus","operator":"화송옥수운수"},"7513538":{"ref":"성동09","name":"성동09","type":"route","route":"bus","operator":"화송옥수운수"},"7513740":{"ref":"성동10","name":"성동10","type":"route","route":"bus","operator":"화송옥수운수"},"7513741":{"ref":"성동10","name":"성동10","type":"route","route":"bus","operator":"화송옥수운수"},"7513812":{"ref":"성동12","name":"성동12","type":"route","route":"bus","operator":"화송옥수운수"},"7513813":{"ref":"성동12","name":"성동12","type":"route","route":"bus","operator":"화송옥수운수"},"7513887":{"ref":"성동13","name":"성동13","type":"route","route":"bus","operator":"(주)성수여객"},"7513888":{"ref":"성동13","name":"성동13","type":"route","route":"bus","operator":"(주)성수여객"},"7513901":{"ref":"성동07","name":"성동07","type":"route","route":"bus","operator":"동호운수"},"7513902":{"ref":"성동07","name":"성동07","type":"route","route":"bus","operator":"동호운수"},"7516711":{"ref":"강북01","name":"강북01","type":"route","route":"bus","operator":"인수운수"},"7516712":{"ref":"강북01","name":"강북01","type":"route","route":"bus","operator":"인수운수"},"7516756":{"ref":"강북02","name":"강북02","type":"route","route":"bus","operator":"화계운수"},"7516757":{"ref":"강북02","name":"강북02","type":"route","route":"bus","operator":"화계운수"},"7516759":{"ref":"강북03","name":"강북03","type":"route","route":"bus","operator":"수유운수"},"7516760":{"ref":"강북03","name":"강북03","type":"route","route":"bus","operator":"수유운수"},"7516784":{"ref":"강북04","name":"강북04","type":"route","route":"bus","operator":"미봉운수"},"7516785":{"ref":"강북04","name":"강북04","type":"route","route":"bus","operator":"미봉운수"},"7516817":{"ref":"강북05","name":"강북05","type":"route","route":"bus","operator":"미봉운수"},"7516818":{"ref":"강북05","name":"강북05","type":"route","route":"bus","operator":"미봉운수"},"7516820":{"ref":"강북06","name":"강북06","type":"route","route":"bus","operator":"미봉운수"},"7516821":{"ref":"강북06","name":"강북06","type":"route","route":"bus","operator":"미봉운수"},"7516885":{"ref":"강북08","name":"강북08","type":"route","route":"bus","operator":"하이상운"},"7516886":{"ref":"강북08","name":"강북08","type":"route","route":"bus","operator":"하이상운"},"7516888":{"ref":"강북09","name":"강북09","type":"route","route":"bus","operator":"복지운수"},"7516889":{"ref":"강북09","name":"강북09","type":"route","route":"bus","operator":"복지운수"},"7517007":{"ref":"강북10","name":"강북10","type":"route","route":"bus","operator":"미향운수"},"7517008":{"ref":"강북10","name":"강북10","type":"route","route":"bus","operator":"미향운수"},"7517043":{"ref":"강북11","name":"강북11","type":"route","route":"bus","operator":"복지운수"},"7517044":{"ref":"강북11","name":"강북11","type":"route","route":"bus","operator":"복지운수"},"7517046":{"ref":"강북12","name":"강북12","type":"route","route":"bus","operator":"하이상운"},"7517047":{"ref":"강북12","name":"강북12","type":"route","route":"bus","operator":"하이상운"},"7520698":{"ref":"도봉01","name":"도봉01","type":"route","route":"bus","operator":"청록운수"},"7520699":{"ref":"도봉01","name":"도봉01","type":"route","route":"bus","operator":"청록운수"},"7520738":{"ref":"도봉02","name":"도봉02","type":"route","route":"bus","operator":"청록운수"},"7520739":{"ref":"도봉02","name":"도봉02","type":"route","route":"bus","operator":"청록운수"},"7520741":{"ref":"도봉03","name":"도봉03","type":"route","route":"bus","operator":"청록운수"},"7520742":{"ref":"도봉03","name":"도봉03","type":"route","route":"bus","operator":"청록운수"},"7520744":{"ref":"도봉04","name":"도봉04","type":"route","route":"bus","operator":"청록운수"},"7520745":{"ref":"도봉04","name":"도봉04","type":"route","route":"bus","operator":"청록운수"},"7520887":{"ref":"도봉05","name":"서울 마을버스 도봉05","type":"route","route":"bus","name:ko":"서울 마을버스 도봉05","operator":"쌍문운수"},"7520888":{"ref":"도봉05","name":"서울 마을버스 도봉05","type":"route","route":"bus","name:ko":"서울 마을버스 도봉05","operator":"쌍문운수"},"7520890":{"ref":"도봉06","name":"서울 마을버스 도봉06","type":"route","route":"bus","name:ko":"서울 마을버스 도봉06","operator":"쌍문운수"},"7520891":{"ref":"도봉06","name":"서울 마을버스 도봉06","type":"route","route":"bus","name:ko":"서울 마을버스 도봉06","operator":"쌍문운수"},"7520893":{"ref":"도봉07","name":"서울 마을버스 도봉07","type":"route","route":"bus","name:ko":"서울 마을버스 도봉07","operator":"쌍문운수"},"7520894":{"ref":"도봉07","name":"서울 마을버스 도봉07","type":"route","route":"bus","name:ko":"서울 마을버스 도봉07","operator":"쌍문운수"},"7520906":{"ref":"도봉08","name":"도봉08","type":"route","route":"bus","operator":"진양운수"},"7520907":{"ref":"도봉08","name":"도봉08","type":"route","route":"bus","operator":"진양운수"},"7520941":{"ref":"도봉09","name":"서울 마을버스 도봉09","type":"route","route":"bus","name:ko":"서울 마을버스 도봉09","operator":"진양운수"},"7520942":{"ref":"도봉09","name":"서울 마을버스 도봉09","type":"route","route":"bus","name:ko":"서울 마을버스 도봉09","operator":"진양운수"},"7524129":{"ref":"노원01","name":"노원01","type":"route","route":"bus","operator":"성서교통"},"7524130":{"ref":"노원01","name":"노원01","type":"route","route":"bus","operator":"성서교통"},"7524298":{"ref":"노원02","name":"노원02","type":"route","route":"bus","operator":"오렌지버스"},"7524299":{"ref":"노원02","name":"노원02","type":"route","route":"bus","operator":"오렌지버스"},"7524369":{"ref":"노원03","name":"노원03","type":"route","route":"bus","operator":"진아중화버스"},"7524370":{"ref":"노원03","name":"노원03","type":"route","route":"bus","operator":"진아중화버스"},"7524388":{"ref":"노원04","name":"노원04","type":"route","route":"bus","operator":"진아중화버스"},"7524389":{"ref":"노원04","name":"노원04","type":"route","route":"bus","operator":"진아중화버스"},"7524390":{"ref":"노원13","name":"노원13","type":"route","route":"bus","operator":"진아중화버스"},"7524392":{"ref":"노원13","name":"노원13","type":"route","route":"bus","operator":"진아중화버스"},"7524881":{"ref":"노원05","name":"노원05","type":"route","route":"bus","operator":"성서교통"},"7524882":{"ref":"노원05","name":"노원05","type":"route","route":"bus","operator":"성서교통"},"7524884":{"ref":"노원08","name":"노원08","type":"route","route":"bus","operator":"수락운수"},"7524885":{"ref":"노원08","name":"노원08","type":"route","route":"bus","operator":"수락운수"},"7524911":{"ref":"노원09","name":"노원09","type":"route","route":"bus","operator":"한마음교통"},"7524912":{"ref":"노원09","name":"노원09","type":"route","route":"bus","operator":"한마음교통"},"7524928":{"ref":"노원11","name":"노원11","type":"route","route":"bus","operator":"성서교통"},"7524929":{"ref":"노원11","name":"노원11","type":"route","route":"bus","operator":"성서교통"},"7524980":{"ref":"노원14","name":"노원14","type":"route","route":"bus","operator":"번창운수"},"7524982":{"ref":"노원14","name":"노원14","type":"route","route":"bus","operator":"번창운수"},"7525033":{"to":"덕성여대","ref":"노원15","from":"청백아파트1단지","name":"서울 마을버스 노원15","type":"route","route":"bus","name:ko":"서울 마을버스 노원15","network":"서울 마을버스","operator":"번창운수","wikipedia":"ko:번창운수","public_transport:version":"1"},"7525034":{"to":"청백아파트1단지","ref":"노원15","from":"덕성여대","name":"서울 마을버스 노원15","type":"route","route":"bus","name:ko":"서울 마을버스 노원15","network":"서울 마을버스","operator":"번창운수","wikipedia":"ko:번창운수","public_transport:version":"1"},"7527611":{"to":"송파공영차고지입구","ref":"N13","from":"상계주공7단지","name":"N13","type":"route","route":"bus","network":"서울시 심야버스","operator":"흥안운수","public_transport:version":"1"},"7527612":{"to":"상계주공7단지","ref":"N13","from":"송파공영차고지입구","name":"N13","type":"route","route":"bus","network":"서울시 심야버스","operator":"흥안운수","public_transport:version":"2"},"7530388":{"to":"상계주공7단지","ref":"N61","from":"양천공영차고지","name":"서울 버스 N61 (상계주공7단지 방면)","type":"route","route":"bus","network":"서울시 심야버스","operator":"관악교통, 삼화상운","public_transport:version":"1"},"7530389":{"to":"양천공영차고지","ref":"N61","from":"상계주공7단지","name":"서울 버스 N61","type":"route","route":"bus","network":"서울시 심야버스","operator":"관악교통, 삼화상운","public_transport:version":"1"},"7530793":{"ref":"N65","name":"서울 버스 N65 (시흥동 방면)","type":"route","route":"bus","operator":"범일운수"},"7530794":{"ref":"N65","name":"서울 버스 N65 (개화역광역환승센터 방면)","type":"route","route":"bus","operator":"범일운수"},"7533185":{"ref":"관악01","name":"관악01","type":"route","route":"bus","operator":"은천운수"},"7533186":{"ref":"관악01","name":"관악01","type":"route","route":"bus","operator":"은천운수"},"7533201":{"ref":"관악03","name":"관악03 (국사봉터널 방면)","type":"route","route":"bus","operator":"금강운수"},"7533202":{"ref":"관악03","name":"관악03 (관악우체국(신림역) 방면)","type":"route","route":"bus","operator":"금강운수"},"7533204":{"ref":"관악04","name":"관악04 (사랑의병원(낙성대역) 방면)","type":"route","route":"bus","operator":"인헌운수"},"7533205":{"ref":"관악04","name":"관악04 (봉천동아파트 방면)","type":"route","route":"bus","operator":"인헌운수","addr:city":"봉천동","addr:district":"관악구"},"7533229":{"ref":"관악05","name":"관악05 (봉림교(신림역) 방면)","type":"route","route":"bus","operator":"인헌운수"},"7533230":{"ref":"관악05","name":"관악05 (신림2동 현대아파트 방면)","type":"route","route":"bus","operator":"인헌운수"},"7533232":{"ref":"관악06","name":"서울 버스 관악06","type":"route","route":"bus","operator":"봉현운수"},"7533233":{"ref":"관악06","name":"관악06","type":"route","route":"bus","operator":"봉현운수"},"7533242":{"ref":"관악07","name":"관악07","type":"route","route":"bus","operator":"신림운수"},"7533243":{"ref":"관악07","name":"관악07","type":"route","route":"bus","operator":"신림운수"},"7533244":{"ref":"관악08","name":"관악08 (신림역 방면)","type":"route","route":"bus","operator":"신림운수"},"7533245":{"ref":"관악08","name":"관악08 (난곡공영차고지 방면)","type":"route","route":"bus","operator":"신림운수"},"7533252":{"ref":"관악10","name":"관악10 (신림역 방면)","type":"route","route":"bus","operator":"난곡운수"},"7533253":{"ref":"관악10","name":"관악10 (민방위교육장 방면)","type":"route","route":"bus","operator":"난곡운수"},"7533255":{"ref":"관악11","name":"관악11","type":"route","route":"bus","operator":"은성운수"},"7533256":{"ref":"관악11","name":"관악11","type":"route","route":"bus","operator":"은성운수"},"7533287":{"ref":"금천01","name":"서울 버스 금천01 (벽산아파트 방면)","type":"route","route":"bus","operator":"범일운수"},"7533288":{"ref":"금천01","name":"서울 버스 금천01 (독산역 방면)","type":"route","route":"bus","operator":"범일운수"},"7533290":{"ref":"금천02","name":"서울 버스 금천02 (안천중학교 방면)","type":"route","route":"bus","operator":"범일운수"},"7533291":{"ref":"금천02","name":"서울 버스 금천02 (벽산3단지 방면)","type":"route","route":"bus","operator":"범일운수"},"7533315":{"ref":"금천03","name":"서울 버스 금천03 (구로디지털단지역 방면)","type":"route","route":"bus","operator":"대상운수"},"7533316":{"ref":"금천03","name":"서울 버스 금천03 (가산디지털단지역 방면)","type":"route","route":"bus","operator":"대상운수"},"7533318":{"ref":"금천07","name":"서울 버스 금천07 (구로디지털단지역 방면)","type":"route","route":"bus","operator":"경성운수"},"7533319":{"ref":"금천07","name":"서울 버스 금천07 (금천노인종합복지관 방면)","type":"route","route":"bus","operator":"경성운수"},"7533325":{"ref":"금천04","name":"서울 버스 금천04 (기아자동차 방면)","type":"route","route":"bus","operator":"대상운수"},"7533326":{"ref":"금천04","name":"서울 버스 금천04 (시흥사거리 방면)","type":"route","route":"bus","operator":"대상운수"},"7533328":{"ref":"금천08","name":"서울 버스 금천08","type":"route","route":"bus","operator":"금천운수"},"7533329":{"ref":"금천08","name":"서울 버스 금천08","type":"route","route":"bus","operator":"금천운수"},"7533336":{"ref":"금천11","name":"서울 버스 금천11 (석수역 방면)","type":"route","route":"bus","operator":"이삭운수"},"7533337":{"ref":"금천11","name":"서울 버스 금천11 (한울중학교 방면)","type":"route","route":"bus","operator":"이삭운수"},"7533344":{"ref":"금천05","name":"금천05 (가산디지털단지역 방면)","type":"route","route":"bus","operator":"신곤운수"},"7533345":{"ref":"금천05","name":"금천05 (독산한신아파트 방면)","type":"route","route":"bus","operator":"신곤운수"},"7533349":{"ref":"금천06","name":"서울 버스 금천06 (구로디지털단지역 방면)","type":"route","route":"bus","operator":"한남상운"},"7533350":{"ref":"금천06","name":"서울 버스 금천06 (금천노인종합복지관 방면)","type":"route","route":"bus","operator":"한남상운"},"7533504":{"ref":"구로03","name":"구로03","type":"route","route":"bus","operator":"개웅운수"},"7533505":{"ref":"구로03","name":"구로03","type":"route","route":"bus","operator":"개웅운수"},"7533506":{"ref":"구로04","name":"구로04","type":"route","route":"bus","operator":"개웅운수"},"7533507":{"ref":"구로04","name":"구로04","type":"route","route":"bus","operator":"개웅운수"},"7533508":{"ref":"구로12","name":"구로12","type":"route","route":"bus","operator":"수빈운수"},"7533531":{"ref":"구로01","name":"구로01","type":"route","route":"bus","operator":"오봉운수"},"7533532":{"ref":"구로01","name":"구로01","type":"route","route":"bus","operator":"오봉운수"},"7533534":{"ref":"구로02","name":"구로02","type":"route","route":"bus","operator":"오봉운수"},"7533535":{"ref":"구로02","name":"구로02","type":"route","route":"bus","operator":"오봉운수"},"7534620":{"ref":"구로05","name":"구로05","type":"route","route":"bus","operator":"고척운수"},"7534621":{"ref":"구로05","name":"구로05","type":"route","route":"bus","operator":"고척운수"},"7534623":{"ref":"구로06","name":"구로06","type":"route","route":"bus","operator":"구로운수"},"7534624":{"ref":"구로06","name":"구로06","type":"route","route":"bus","operator":"구로운수"},"7534696":{"ref":"구로10","name":"구로10 (구일역 방면)","type":"route","route":"bus","operator":"수빈운수"},"7534697":{"ref":"구로10","name":"구로10 (대림역 방면)","type":"route","route":"bus","operator":"수빈운수"},"7534699":{"ref":"구로11","name":"구로11","type":"route","route":"bus","operator":"수빈운수"},"7534700":{"ref":"구로11","name":"구로11","type":"route","route":"bus","operator":"수빈운수"},"7537654":{"ref":"구로07","name":"구로07","type":"route","route":"bus","operator":"오류운수"},"7537655":{"ref":"구로07","name":"구로07","type":"route","route":"bus","operator":"오류운수"},"7537700":{"ref":"구로09","name":"서울 버스 구로09","type":"route","route":"bus","operator":"서북교통"},"7537701":{"ref":"구로09","name":"서울 버스 구로09","type":"route","route":"bus","operator":"서북교통"},"7537704":{"ref":"구로08","name":"구로08","type":"route","route":"bus","operator":"오봉운수"},"7537705":{"ref":"구로08","name":"구로08","type":"route","route":"bus","operator":"오봉운수"},"7537713":{"ref":"구로13","name":"구로13","type":"route","route":"bus","operator":"수빈운수"},"7537714":{"ref":"구로13","name":"구로13","type":"route","route":"bus","operator":"수빈운수"},"7537718":{"ref":"구로14","name":"구로14","type":"route","route":"bus","operator":"오류운수"},"7537719":{"ref":"구로14","name":"구로14","type":"route","route":"bus","operator":"오류운수"},"7537721":{"ref":"구로15","name":"구로15","type":"route","route":"bus","operator":"오류운수"},"7537722":{"ref":"구로15","name":"구로15","type":"route","route":"bus","operator":"오류운수"},"7540437":{"ref":"동작11","name":"동작11","type":"route","route":"bus","operator":"상도3동마을버스"},"7540438":{"ref":"동작11","name":"동작11","type":"route","route":"bus","operator":"상도3동마을버스"},"7540440":{"ref":"동작02","name":"동작02","type":"route","route":"bus","operator":"상도3동마을버스"},"7540441":{"ref":"동작02","name":"동작02","type":"route","route":"bus","operator":"상도3동마을버스"},"7540481":{"ref":"동작07","name":"동작07","type":"route","route":"bus","operator":"사당3동마을버스"},"7540482":{"ref":"동작07","name":"동작07","type":"route","route":"bus","operator":"사당3동마을버스"},"7540484":{"ref":"동작16","name":"동작16","type":"route","route":"bus","operator":"사당3동마을버스"},"7540485":{"ref":"동작16","name":"동작16","type":"route","route":"bus","operator":"사당3동마을버스"},"7540492":{"ref":"동작06","name":"동작06 (사랑의병원(낙성대역) 방면)","type":"route","route":"bus","operator":"합성마을버스"},"7540493":{"ref":"동작06","name":"동작06 (사당시장(이수역) 방면)","type":"route","route":"bus","operator":"합성마을버스"},"7540818":{"ref":"동작05","name":"동작05","type":"route","route":"bus","operator":"보라매마을버스"},"7540819":{"ref":"동작05","name":"서울 버스 동작05","type":"route","route":"bus","operator":"보라매마을버스"},"7540821":{"ref":"동작05-1","name":"서울 버스 동작05-1","type":"route","route":"bus","operator":"보라매마을버스"},"7540822":{"ref":"동작05-1","name":"동작05-1","type":"route","route":"bus","operator":"보라매마을버스"},"7540880":{"ref":"동작01","name":"동작01","type":"route","route":"bus","operator":"흑석운수"},"7540881":{"ref":"동작01","name":"동작01","type":"route","route":"bus","operator":"흑석운수"},"7540883":{"ref":"동작21","name":"동작21","type":"route","route":"bus","operator":"흑석운수"},"7540884":{"ref":"동작21","name":"동작21","type":"route","route":"bus","operator":"흑석운수"},"7540921":{"ref":"동작03","name":"동작03 (노들역 방면)","type":"route","route":"bus","operator":"노들운수"},"7540922":{"ref":"동작03","name":"동작03 (신대방삼거리 방면)","type":"route","route":"bus","operator":"노들운수"},"7540924":{"ref":"동작08","name":"동작08 (대방역 방면)","type":"route","route":"bus","operator":"명승운수"},"7540925":{"ref":"동작08","name":"동작08 (상도동 방면)","type":"route","route":"bus","operator":"명승운수"},"7541221":{"ref":"동작09","name":"동작09","type":"route","route":"bus","operator":"화인운수"},"7541222":{"ref":"동작09","name":"동작09","type":"route","route":"bus","operator":"화인운수"},"7541224":{"ref":"동작10","name":"동작10","type":"route","route":"bus","operator":"흑석운수"},"7541225":{"ref":"동작10","name":"동작10","type":"route","route":"bus","operator":"흑석운수","public_transport:version":"1"},"7541405":{"ref":"동작17","name":"동작17","type":"route","route":"bus","operator":"사당3동마을버스"},"7541406":{"ref":"동작17","name":"동작17","type":"route","route":"bus","operator":"사당3동마을버스"},"7541408":{"ref":"동작18","name":"동작18","type":"route","route":"bus","operator":"사당3동마을버스"},"7541409":{"ref":"동작18","name":"동작18","type":"route","route":"bus","operator":"사당3동마을버스"},"7541540":{"ref":"동작12","name":"동작12","type":"route","route":"bus","operator":"노들운수"},"7541541":{"ref":"동작12","name":"동작12","type":"route","route":"bus","operator":"노들운수"},"7541542":{"ref":"동작13","name":"동작13","type":"route","route":"bus","operator":"연성교통"},"7541543":{"ref":"동작13","name":"동작13","type":"route","route":"bus","operator":"연성교통"},"7541679":{"ref":"동작15","name":"동작15","type":"route","route":"bus","operator":"합성마을버스"},"7541680":{"ref":"동작15","name":"동작15","type":"route","route":"bus","operator":"합성마을버스"},"7541682":{"ref":"동작20","name":"동작20 (낙성대역 방면)","type":"route","route":"bus","operator":"합성마을버스"},"7541683":{"ref":"동작20","name":"동작20 (사당자이아파트 방면)","type":"route","route":"bus","operator":"합성마을버스"},"7541809":{"ref":"동작14","name":"동작14 (사랑의병원(낙성대역) 방면)","type":"route","route":"bus","operator":"합성마을버스"},"7541810":{"ref":"동작14","name":"동작14 (달마사(흑석동) 방면)","type":"route","route":"bus","operator":"합성마을버스"},"7541812":{"ref":"동작19","name":"동작19","type":"route","route":"bus","operator":"상도3동마을버스"},"7541813":{"ref":"동작19","name":"동작19","type":"route","route":"bus","operator":"상도3동마을버스"},"7544646":{"ref":"영등포03","name":"영등포03","type":"route","route":"bus","operator":"대영운수"},"7544647":{"ref":"영등포03","name":"영등포03","type":"route","route":"bus","operator":"대영운수"},"7544664":{"ref":"영등포05","name":"영등포05","type":"route","route":"bus","operator":"대영마을버스"},"7544691":{"ref":"영등포06","name":"영등포06","type":"route","route":"bus","operator":"은성운수"},"7544692":{"ref":"영등포06","name":"영등포06","type":"route","route":"bus","operator":"은성운수"},"7544714":{"ref":"영등포04","name":"영등포04","type":"route","route":"bus","operator":"대림운수"},"7544715":{"ref":"영등포04","name":"영등포04","type":"route","route":"bus","operator":"대림운수"},"7544824":{"ref":"영등포08","name":"영등포08","type":"route","route":"bus","operator":"대영마을버스"},"7544825":{"ref":"영등포08","name":"영등포08","type":"route","route":"bus","operator":"대영마을버스"},"7544827":{"ref":"영등포09","name":"영등포09","type":"route","route":"bus","operator":"양정운수"},"7544828":{"ref":"영등포09","name":"영등포09","type":"route","route":"bus","operator":"양정운수"},"7547242":{"ref":"영등포10","name":"영등포10","type":"route","route":"bus","operator":"태진운수"},"7547243":{"ref":"영등포10","name":"영등포10","type":"route","route":"bus","operator":"태진운수"},"7547245":{"ref":"영등포11","name":"영등포11","type":"route","route":"bus","operator":"태진운수"},"7547246":{"ref":"영등포11","name":"영등포11","type":"route","route":"bus","operator":"태진운수"},"7547251":{"ref":"영등포12","name":"영등포12","type":"route","route":"bus","operator":"오케이버스"},"7547252":{"ref":"영등포12","name":"영등포12","type":"route","route":"bus","operator":"오케이버스"},"7547254":{"ref":"영등포13","name":"서울 버스 영등포13","type":"route","route":"bus","operator":"오케이버스"},"7547255":{"ref":"영등포13","name":"영등포13","type":"route","route":"bus","operator":"오케이버스"},"7547924":{"to":"월암종점","ref":"441","via":"신사사거리","from":"월암종점","name":"서울 시내버스 441 (월암동 방면)","type":"route","route":"bus","colour":"blue","source":"도로명주소","network":"서울시 간선버스","operator":"우신버스","public_transport:version":"2"},"7548111":{"ref":"영등포02","name":"영등포02","type":"route","route":"bus","operator":"태경운수"},"7548112":{"ref":"영등포02","name":"영등포02","type":"route","route":"bus","operator":"태경운수"},"7548131":{"ref":"영등포07","name":"영등포07","type":"route","route":"bus","operator":"은성운수"},"7548132":{"ref":"영등포07","name":"영등포07","type":"route","route":"bus","operator":"은성운수"},"7548187":{"ref":"영등포01","name":"서울 버스 영등포01","type":"route","route":"bus","operator":"형일교통"},"7548188":{"ref":"영등포01","name":"서울 버스 영등포01","type":"route","route":"bus","operator":"형일교통"},"7552974":{"ref":"강남01","name":"강남01","type":"route","route":"bus","operator":"일원교통"},"7552975":{"ref":"강남01","name":"강남01","type":"route","route":"bus","operator":"일원교통"},"7552977":{"ref":"강남02","name":"강남02 (양재역 방면)","type":"route","route":"bus","operator":"포이운수"},"7552978":{"ref":"강남02","name":"강남02 (강남구민체육관 방면)","type":"route","route":"bus","operator":"포이운수"},"7553022":{"ref":"강남03","name":"강남03","type":"route","route":"bus","operator":"일원교통"},"7553023":{"ref":"강남03","name":"강남03","type":"route","route":"bus","operator":"일원교통"},"7553088":{"ref":"강남06","name":"강남06","type":"route","route":"bus","operator":"은곡운수"},"7553089":{"ref":"강남06","name":"강남06","type":"route","route":"bus","operator":"은곡운수"},"7553091":{"ref":"강남06-1","name":"강남06-1","type":"route","route":"bus","operator":"은곡운수"},"7553092":{"ref":"강남06-1","name":"강남06-1","type":"route","route":"bus","operator":"은곡운수"},"7553098":{"ref":"강남05","name":"강남05 (석촌역 방면)","type":"route","route":"bus","operator":"개포운수"},"7553099":{"ref":"강남05","name":"강남05 (구룡마을 방면)","type":"route","route":"bus","operator":"개포운수"},"7553832":{"ref":"강남07","name":"강남07 (양재역 방면)","type":"route","route":"bus","operator":"스마일버스"},"7553833":{"ref":"강남07","name":"강남07 (서울의료원(삼성역) 방면)","type":"route","route":"bus","operator":"스마일버스"},"7554602":{"ref":"강남08","name":"강남08","type":"route","route":"bus","operator":"오케이버스"},"7554603":{"ref":"강남08","name":"강남08","type":"route","route":"bus","operator":"오케이버스"},"7554662":{"ref":"강남10","name":"강남10 (양재역 방면)","type":"route","route":"bus","operator":"새롬교통"},"7554663":{"ref":"강남10","name":"강남10 (개포 4.7단지 방면)","type":"route","route":"bus","operator":"새롬교통"},"7556509":{"ref":"9401","name":"9401 (서울역버스환승센터 방면)","type":"route","route":"bus","operator":"동성교통"},"7556510":{"ref":"9401","name":"9401 (구미동차고지 방면)","type":"route","route":"bus","operator":"동성교통"},"7556515":{"to":"반포고교","ref":"서초01","from":"잠원역","name":"서초01","type":"route","route":"bus","source":"공공데이터포털","name:en":"Bus Seocho 01: Jamwon → Banpo High School","interval":"00:25","operator":"서초그린교통","contact:phone":"+82 2 582 1682","opening_hours":"06:00-22:00","public_transport:version":"2"},"7556516":{"to":"잠원역","ref":"서초01","from":"반포고교","name":"서초01","type":"route","route":"bus","source":"공공데이터포털","name:en":"Bus Seocho 01: Banpo High School → Jamwon","interval":"00:25","operator":"서초그린교통","contact:phone":"+82 2 582 1682","opening_hours":"06:00-22:00","public_transport:version":"2"},"7556606":{"to":"신사역","ref":"서초03","from":"교대역","name":"서초03","type":"route","route":"bus","name:en":"Bus Seocho 03: Seoul National University of Education → Sinsa Station","interval":"00:07","operator":"서일교통","contact:phone":"+82 2 521 8336","opening_hours":"06:00-23:00","public_transport:version":"2"},"7556607":{"to":"교대역","ref":"서초03","from":"신사역","name":"서초03","type":"route","route":"bus","name:en":"Bus Seocho 03: Sinsa Station → Seoul National University of Education","interval":"00:07","operator":"서일교통","contact:phone":"+82 2 521 8336","opening_hours":"06:00-23:00","public_transport:version":"2"},"7556609":{"to":"교대역","ref":"서초02","from":"교대역","name":"서초02","type":"route","route":"bus","source":"공공데이터포털","name:en":"Bus Seocho 02: Seoul National University of Education → Seoul National University of Education (Northbound)","interval":"00:15","operator":"서초그린교통","roundtrip":"yes","contact:phone":"+82 2 582 1682","opening_hours":"06:00-22:30","public_transport:version":"2"},"7556610":{"to":"교대역","ref":"서초02","from":"교대역","name":"서초02","type":"route","route":"bus","source":"공공데이터포털","name:en":"Bus Seocho 02: Seoul National University of Education → Seocho Station (Southbound)","interval":"00:15","operator":"서초그린교통","roundtrip":"yes","contact:phone":"+82 2 582 1682","opening_hours":"06:00-22:30","public_transport:version":"2"},"7556638":{"to":"세탁소","ref":"서초05","from":"정금마을 앞","name":"서초05","type":"route","route":"bus","name:en":"Bus Seocho 05: Jeonggeum Village → Washhouse","interval":"00:15","operator":"(주)광일운수","contact:phone":"+82 2 3473 8590","opening_hours":"06:00-23:30","public_transport:version":"2"},"7556639":{"to":"정금마을","ref":"서초05","from":"세탁소","name":"서초05","type":"route","route":"bus","name:en":"Bus Seocho 05: Washhouse → Jeonggeum Village","interval":"00:15","operator":"(주)광일운수","contact:phone":"+82 2 3473 8590","opening_hours":"06:00-23:30","public_transport:version":"2"},"7556641":{"to":"정금마을","ref":"서초06","from":"정금마을 앞","name":"서초06 (동덕여고 방면)","type":"route","route":"bus","name:en":"Bus Seocho 06: Jeonggeum Village → Dongduk Girls' High School","interval":"00:18","operator":"(주)광일운수","contact:phone":"+82 2 3473 8590","opening_hours":"06:00-23:30","public_transport:version":"2"},"7556642":{"to":"정금마을","ref":"서초06","from":"정금마을 앞","name":"서초06 (정금마을(이수교) 방면)","type":"route","route":"bus","name:en":"Bus Seocho 06: Dongduk Girls' High School → Jeonggeum Village","interval":"00:18","operator":"(주)광일운수","contact:phone":"+82 2 3473 8590","opening_hours":"06:00-23:30","public_transport:version":"2"},"7556731":{"to":"양재역","ref":"서초08","from":"서울추모공원","name":"서초08 (양재역 방면)","type":"route","route":"bus","name:en":"Bus Seocho 08: Seoul Memorial Park → Yangjae Station","interval":"00:13","operator":"양재운수","contact:phone":"+82 70 8834 0623","opening_hours":"06:00-22:30","public_transport:version":"2"},"7556732":{"to":"서울추모공원","ref":"서초08","from":"양재역","name":"서초08 (서초추모공원 방면)","type":"route","route":"bus","name:en":"Bus Seocho 08: Yangjae Station → Seoul Memorial Park","interval":"00:13","operator":"양재운수","contact:phone":"+82 70 8834 0623","opening_hours":"06:00-22:30","public_transport:version":"2"},"7556734":{"to":"양재근린공원","ref":"서초18","from":"선바위역","name":"서초18 (양재근린공원 행)","type":"route","route":"bus","name:en":"Bus Seocho 18: Seonbawi Station → Yangjae Neighborhood Park","network":"서울시 마을버스","interval":"00:04","operator":"청암운수","contact:phone":"+82 2 529 3507","opening_hours":"06:00-23:00","public_transport:version":"2"},"7556735":{"to":"선바위역","ref":"서초18","from":"양재근린공원","name":"서초18 (선바위역 행)","type":"route","route":"bus","name:en":"Bus Seocho 18: Yangjae Neighborhood Park → Seonbawi Station","network":"서울시 마을버스","interval":"00:04","operator":"청암운수","contact:phone":"+82 2 529 3507","opening_hours":"06:00-23:00","public_transport:version":"2"},"7556738":{"to":"서초보금자리5단지","ref":"서초18-1","from":"양재역","name":"서초18-1 (서초보금자리5단지 행)","type":"route","route":"bus","name:en":"Bus Seocho 18-1:Yangjae Station → LH 5 Complex","network":"서울시 마을버스","interval":"00:23","operator":"청암운수","contact:phone":"+82 2 529 3507","opening_hours":"06:00-22:30","public_transport:version":"2"},"7557721":{"to":"양재역4번출구","ref":"서초20","from":"서초더샵포레","name":"서초20 (양재역 방면)","type":"route","route":"bus","name:en":"Bus Seocho 20: Naegok District 1 Complex → Yangjae Station","interval":"00:25","operator":"양재운수","contact:phone":"+82 70 8834 0623","opening_hours":"06:00-22:00","public_transport:version":"2"},"7557722":{"to":"서초더샵포레","ref":"서초20","from":"양재역4번출구","name":"서초20 (내곡지구1단지 방면)","type":"route","route":"bus","name:en":"Bus Seocho 20: Yangjae Station → Naegok District 1 Complex","interval":"00:25","operator":"양재운수","contact:phone":"+82 70 8834 0623","opening_hours":"06:00-22:00","public_transport:version":"2"},"7557768":{"to":"서초구민체육센터","ref":"서초21","from":"한국소비자원","name":"서초21 (이수동 방면)","type":"route","route":"bus","name:en":"Bus Seocho 21: Yangjae Intersection → Seocho-gu Citizens Sports Center","interval":"00:08","operator":"선흥상운","contact:phone":"+82 2 3463 5837","opening_hours":"06:00-23:00","public_transport:version":"2"},"7557769":{"to":"구룡사입구","ref":"서초21","from":"서초구민체육센터","name":"서초21 (양재IC 방면)","type":"route","route":"bus","name:en":"Bus Seocho 21: Seocho-gu Citizens Sports Center → Guryongsa Entrance","interval":"00:08","operator":"선흥상운","contact:phone":"+82 2 3463 5837","opening_hours":"06:00-23:00","public_transport:version":"2"},"7560212":{"to":"강남역","ref":"서초09","from":"헌인가구단지","name":"서초09","type":"route","route":"bus","name:en":"Bus Seocho 09: Heonin Furniture Complex → Gangnam Station","interval":"00:08","operator":"청화운수","contact:phone":"+82 2 2226 5582","opening_hours":"05:30-23:00","public_transport:version":"2"},"7560213":{"to":"헌인가구단지","ref":"서초09","from":"강남역","name":"서초09","type":"route","route":"bus","name:en":"Bus Seocho 09: Gangnam Station → Heonin Furniture Complex","interval":"00:08","operator":"청화운수","contact:phone":"+82 2 2226 5582","opening_hours":"05:30-23:00","public_transport:version":"2"},"7560223":{"to":"임광아파트후문","ref":"서초07","from":"내방역8번출구","name":"서초07 (방배역 방면)","type":"route","route":"bus","name:en":"Bus Seocho 07: Naebang Station → Imgwang Apartments","interval":"00:07","operator":"부생운수","contact:phone":"+82 2 523 1513","opening_hours":"06:00-23:00","public_transport:version":"2"},"7560224":{"to":"오거리","ref":"서초07","from":"임광아파트후문","name":"서초07 (제일병원 방면)","type":"route","route":"bus","name:en":"Bus Seocho 07: Imgwang Apartments → Naebang Station","interval":"00:07","operator":"부생운수","contact:phone":"+82 2 523 1513","opening_hours":"06:00-23:00","public_transport:version":"2"},"7560227":{"to":"강남역","ref":"서초10","from":"서초구민제육센터","name":"서초10","type":"route","route":"bus","name:en":"Bus Seocho 10: Seocho-gu Citizens Sports Center → Gangnam Station","interval":"00:08","operator":"서초교통","contact:phone":"+82 2 582 1682","opening_hours":"06:00-23:00","public_transport:version":"2"},"7560228":{"to":"서초구민제육센터","ref":"서초10","from":"강남역","name":"서초10","type":"route","route":"bus","name:en":"Bus Seocho 10: Gangnam Station → Seocho-gu Citizens Sports Center","interval":"00:08","operator":"서초교통","contact:phone":"+82 2 582 1682","opening_hours":"06:00-23:00","public_transport:version":"2"},"7560265":{"ref":"9407","name":"9407","type":"route","route":"bus","operator":"대명운수"},"7560266":{"ref":"9407","name":"9407","type":"route","route":"bus","operator":"대명운수"},"7560846":{"to":"방배(백석예술대)역.3번출구","ref":"서초16","from":"정금마을.방배경찰서(중)","name":"서초16","type":"route","route":"bus","name:en":"Bus Seocho 16: Jeonggeum Village → Bangbae Station","interval":"00:11","operator":"광일운수","contact:phone":"+82 2 3473 8590","opening_hours":"06:00-23:30","public_transport:version":"2"},"7560847":{"to":"정금마을(중)","ref":"서초16","from":"방배(백석예술대)역.3번출구","name":"서초16","type":"route","route":"bus","name:en":"Bus Seocho 16: Bangbae Station → Jeonggeum Village","interval":"00:11","operator":"광일운수","contact:phone":"+82 2 3473 8590","opening_hours":"06:00-23:30","public_transport:version":"2"},"7560849":{"to":"임광아파트후문","ref":"서초15","from":"롯데캐슬헤론아파트","name":"서초15 (불교TV(사당역) 방면)","type":"route","route":"bus","name:en":"Bus Seocho 15: Lotte Castle Heron Apartments → Imgwang Apartments Back Gate","interval":"00:07","operator":"부생운수","contact:phone":"+82 2 523 1513","opening_hours":"06:00-23:00","public_transport:version":"2"},"7560850":{"to":"롯데캐슬헤론아파트","ref":"서초15","from":"임광아파트후문","name":"서초15 (롯데캐슬헤론아파트 방면)","type":"route","route":"bus","name:en":"Bus Seocho 15: Imgwang Apartments Back Gate → Lotte Castle Heron Apartments","interval":"00:07","operator":"부생운수","contact:phone":"+82 2 523 1513","opening_hours":"06:00-23:00","public_transport:version":"2"},"7560852":{"to":"반포1동성당","ref":"서초11","from":"예술의전당","name":"서초11 (반포1동성당 방면)","type":"route","route":"bus","name:en":"Bus Seocho 11: Seoul Arts Center → Banpo-1-dong Catholic Church","interval":"00:13","operator":"서애운수","contact:phone":"+82 2 584 2248","opening_hours":"06:00-22:50","public_transport:version":"2"},"7560853":{"to":"예술의전당","ref":"서초11","from":"반포1동성당","name":"서초11 (예술의전당 방면)","type":"route","route":"bus","name:en":"Bus Seocho 11: Banpo-1-dong Catholic Church → Seoul Arts Center","interval":"00:13","operator":"서애운수","contact:phone":"+82 2 584 2248","opening_hours":"06:00-22:50","public_transport:version":"2"},"7561417":{"to":"아리랑TV.국립국악원","ref":"서초22","from":"남부터미널","name":"서초22 (국립국악원 방면)","type":"route","route":"bus","name:en":"Bus Seocho 22: Nambu Terminal → Center for Korean Traditional Performing Arts","interval":"00:06","operator":"계현운수","contact:phone":"+82 70 4100 4102","opening_hours":"06:00-23:00","public_transport:version":"2"},"7561418":{"to":"남부터미널","ref":"서초22","from":"아리랑TV.국립국악원","name":"서초22 (남부터미널 방면)","type":"route","route":"bus","name:en":"Bus Seocho 22: Center for Korean Traditional Performing Arts → Nambu Terminal","interval":"00:06","operator":"계현운수","contact:phone":"+82 70 4100 4102","opening_hours":"06:00-23:00","public_transport:version":"2"},"7561420":{"to":"서초구청맞은편","ref":"서초17","from":"사당역10번출구","name":"서초17 (서초구청 방면)","type":"route","route":"bus","name:en":"Bus Seocho 17: Sadang Station → Seocho-Gu Office","interval":"00:09","operator":"광일운수","contact:phone":"+82 2 3473 8590","opening_hours":"06:00-22:45","public_transport:version":"2"},"7561421":{"to":"사당역","ref":"서초17","from":"서초구청맞은편","name":"서초17 (사당역 방면)","type":"route","route":"bus","name:en":"Bus Seocho 17: Seocho-Gu Office → Sadang Station","interval":"00:09","operator":"광일운수","contact:phone":"+82 2 3473 8590","opening_hours":"06:00-22:45","public_transport:version":"2"},"7561581":{"ref":"9408","name":"9408 (영등포 방면)","type":"route","route":"bus","operator":"남성교통"},"7562825":{"to":"동덕여고","ref":"서초13","from":"이수역2번출구","name":"서초13 (동덕여고 방면)","type":"route","route":"bus","name:en":"Bus Seocho 13: Isu Station → Dongduk Girls School","interval":"00:10","operator":"청진운수","contact:phone":"+82 2 587 5399","opening_hours":"06:00-23:10","public_transport:version":"2"},"7562826":{"to":"이수역2번출구","ref":"서초13","from":"동덕여고","name":"서초13 (이수역 방면)","type":"route","route":"bus","name:en":"Bus Seocho 13: Dongduk Girls School → Isu Station","interval":"00:10","operator":"청진운수","contact:phone":"+82 2 587 5399","opening_hours":"06:00-23:10","public_transport:version":"2"},"7562831":{"ref":"서초14","name":"서초14","type":"route","route":"bus","name:en":"Bus Seocho 14: Isu Station → Gyeongwon Middle School","interval":"00:09","operator":"청진교통","contact:phone":"+82 2 536 6733","opening_hours":"06:00-23:00","public_transport:version":"2"},"7562833":{"to":"이수역2번출구","ref":"서초14","from":"경원중학교","name":"서초14","type":"route","route":"bus","name:en":"Bus Seocho 14:Gyeongwon Middle School → Isu Station","interval":"00:09","operator":"청진교통","contact:phone":"+82 2 536 6733","opening_hours":"06:00-23:00","public_transport:version":"2"},"7565035":{"to":"서원마을","ref":"강동02","from":"가래여울","name":"서울 버스 강동02: 가래여울 → 서원마을","type":"route","route":"bus","operator":"강동마을버스"},"7565036":{"to":"가래여울","ref":"강동02","from":"서원마을","name":"서울 버스 강동02: 서원마을 → 가래여울","type":"route","route":"bus","network":"서울특별시 마을버스","operator":"강동교통"},"7565137":{"to":"천호역(중)","ref":"강동05","from":"강동공영차고지","name":"서울 버스 강동05: 강동공영차고지 → 천호역(중)","type":"route","route":"bus","network":"서울특별시 마을버스","operator":"강동교통"},"7565138":{"to":"강일리버파크6단지","ref":"강동05","from":"천호역(중)","name":"서울 버스 강동05: 천호역(중) → 강일리버파크6단지","type":"route","route":"bus","operator":"강동마을버스"},"7567851":{"ref":"9701","name":"9701 (롯데백화점 본점 방면)","type":"route","route":"bus","operator":"선진운수"},"7567852":{"ref":"9701","name":"9701 (고양 가좌동 방면)","type":"route","route":"bus","operator":"선진운수"},"7567975":{"ref":"9707","name":"9707(영등포 방면)","type":"route","route":"bus","operator":"선진운수"},"7567976":{"ref":"9707","name":"9707(일산 방면)","type":"route","route":"bus","operator":"선진운수"},"7571503":{"ref":"9709","name":"9709 (숭례문 방면)","type":"route","route":"bus","operator":"서울운수"},"7571504":{"ref":"9709","name":"9709 (맥금동 방면)","type":"route","route":"bus","operator":"서울운수"},"7574629":{"ref":"M6724","name":"M6724 (연세대 송도캠퍼스 방면)","type":"route","route":"bus","operator":"청룡교통"},"7576228":{"ref":"M7731","name":"M7731 (공덕역 방면)","type":"route","route":"bus","operator":"가온누리엠"},"7576229":{"ref":"M7731","name":"M7731 (덕이동 방면)","type":"route","route":"bus","operator":"가온누리엠"},"7578769":{"to":"강남역","ref":"M6405","from":"웰카운티","name":"광역급행버스 M6405","type":"route","route":"bus","network":"인천시 광역급행버스","operator":"인강여객","public_transport:version":"2"},"7578770":{"ref":"M6405","name":"광역급행버스 M6405","type":"route","route":"bus","operator":"인강여객","public_transport:version":"2"},"7586564":{"ref":"M6427","name":"M6427","type":"route","route":"bus","operator":"김포운수"},"7586565":{"ref":"M6427","name":"M6427","type":"route","route":"bus","operator":"김포운수"},"7587522":{"ref":"G6001","name":"G6001 (여의도환승센터 방면)","type":"route","route":"bus","operator":"김포운수"},"7587524":{"ref":"G6001","name":"G6001 (고창 방면)","type":"route","route":"bus","operator":"김포운수"},"7590308":{"ref":"M6117","name":"M6117 (서울역 방면)","type":"route","route":"bus","operator":"김포운수"},"7590309":{"ref":"M6117","name":"M6117 (구래 방면)","type":"route","route":"bus","operator":"김포운수"},"7619665":{"ref":"1000","name":"평택 시내버스 1000","type":"route","route":"bus"},"7663551":{"ref":"1522","name":"평택 시내버스 1522","type":"route","route":"bus","name:en":"Pyeongtaek Bus 1522","name:ko":"평택 시내버스 1522"},"7676534":{"ref":"92","name":"수원 시내버스 92","type":"route","route":"bus","name:en":"Suwon Bus 92","name:ko":"수원 시내버스 92","operator":"수원여객/용남고속"},"7696128":{"ref":"50","name":"평택 시내버스 50","type":"route","route":"bus","name:en":"Pyeongtaek Bus 50","name:ko":"평택 시내버스 50"},"7800457":{"ref":"B2","name":"세종 시내버스 B2","type":"route","route":"bus","name:en":"Sejong Bus B2","name:ko":"세종 시내버스 B2","operator":"세종도시교통공사"},"7800459":{"ref":"B1","name":"대전 시내버스 B1","type":"route","route":"bus","colour":"red","name:en":"Daejeon Bus B1","name:ko":"대전 시내버스 B1","operator":"대전BRT"},"7814587":{"ref":"705","name":"705","type":"route","route":"bus"},"7814943":{"ref":"775","name":"775","type":"route","route":"bus"},"7814982":{"ref":"7211","name":"7211","type":"route","route":"bus"},"7814986":{"ref":"7720","name":"7720","type":"route","route":"bus"},"7814992":{"ref":"7722","name":"7722","type":"route","route":"bus"},"7814997":{"ref":"7723","name":"7723","type":"route","route":"bus"},"7815036":{"ref":"7734","name":"7734","type":"route","route":"bus"},"7815098":{"ref":"8772","name":"8772","type":"route","route":"bus"},"7833948":{"ref":"20","name":"부산버스 20","type":"route","route":"bus"},"7833949":{"ref":"22","name":"부산버스 22","type":"route","route":"bus"},"7833950":{"ref":"24","name":"부산버스 24","type":"route","route":"bus"},"7833951":{"ref":"27","name":"부산버스 27","type":"route","route":"bus"},"7833952":{"ref":"131","name":"부산버스 131","type":"route","route":"bus"},"7833953":{"ref":"2","name":"부산남구마을버스 2","type":"route","route":"bus"},"7833954":{"ref":"8","name":"부산남구마을버스 8","type":"route","route":"bus"},"7837151":{"ref":"110","name":"평택 시내버스 110","type":"route","route":"bus","name:en":"Pyeongtaek Bus 110","name:ko":"평택 시내버스 110","operator":"서울고속"},"7838907":{"ref":"900","name":"천안·아산 시내버스 900","type":"route","route":"bus","name:en":"Cheonan·Asan Bus 900","name:ko":"천안·아산 시내버스 900"},"7908595":{"ref":"1199","name":"평택 시내버스 1199","type":"route","route":"bus","name:en":"Pyeongtaek Bus 1199","name:ko":"평택 시내버스 1199"},"7916359":{"ref":"10","name":"평택 마을버스 10","type":"route","route":"bus","name:en":"Pyeongtaek Bus 10","name:ko":"평택 마을버스 10"},"7916360":{"ref":"777","name":"평택 시내버스 777","type":"route","route":"bus"},"7918929":{"ref":"55","name":"평택 마을버스 55","type":"route","route":"bus"},"7920318":{"ref":"1502","name":"평택 시내버스 1502","type":"route","route":"bus","name:en":"Pyeongtaek Bus 1502","name:ko":"평택 시내버스 1502"},"7921214":{"ref":"300","name":"수원 시내버스 300","type":"route","route":"bus","source":"도로명주소","name:en":"Suwon Bus 300","name:ko":"수원 시내버스 300","public_transport:version":"2"},"7921215":{"ref":"301","name":"수원 시내버스 301","type":"route","route":"bus","source":"도로명주소","name:en":"Suwon Bus 301","name:ko":"수원 시내버스 301","operator":"성우운수","public_transport:version":"2"},"7921216":{"ref":"1311","name":"평택 시내버스 1311","type":"route","route":"bus","name:en":"Pyeongtaek Bus 1311","name:ko":"평택 시내버스 1311"},"7921402":{"to":"사당역","ref":"777","from":"수원역","name":"수원 시내버스 777","type":"route","route":"bus","source":"도로명주소","name:en":"Suwon Bus 777","name:ko":"수원 시내버스 777","network":"수원시 일반시내버스","operator":"경진여객","public_transport:version":"2"},"7921404":{"ref":"65","name":"광주 시내버스 65","type":"route","route":"bus","name:en":"Gwangju Bus 65","name:ko":"광주 시내버스 65","public_transport:version":"2"},"7921549":{"ref":"707","name":"안산 시내버스 707","type":"route","route":"bus","name:en":"Ansan Bus 707","name:ko":"안산 시내버스 707"},"7924407":{"ref":"64","name":"수원 시내버스 64","type":"route","route":"bus","name:en":"Suwon Bus 64","name:ko":"수원 시내버스 64","public_transport:version":"2"},"7930754":{"ref":"22-1","name":"용인 시내버스 22-1","type":"route","route":"bus","name:en":"Yongin Bus 22-1","name:ko":"용인 시내버스 22-1"},"7946187":{"ref":"502","name":"청주 시내버스 502","type":"route","route":"bus","name:en":"Cheongju Bus 502","name:ko":"청주 시내버스 502"},"7946188":{"ref":"747","name":"청주 시내버스 747","type":"route","route":"bus"},"7946189":{"ref":"1000","name":"세종 시내버스 1000","type":"route","route":"bus"},"7948088":{"ref":"105","name":"청주 시내버스 105","type":"route","route":"bus","name:en":"Cheongju Bus 105","name:ko":"청주 시내버스 105"},"7971428":{"ref":"B0","name":"세종 시내버스 B0","type":"route","route":"bus","name:en":"Sejong Bus B0","name:ko":"세종 시내버스 B0","operator":"세종도시교통공사"},"8101008":{"ref":"09C","name":"의왕 마을버스 09: 월암2동 → 초평동","note":"09B와 운행 시간이 중복되어 철도연구원 앞에서 09B로 변경 후 운행","type":"route","route":"bus","public_transport:version":"2"},"8101009":{"ref":"09C","name":"의왕 마을버스 09: 초평동 → 월암2동","type":"route","route":"bus","public_transport:version":"2"},"8101012":{"ref":"07","name":"의왕 마을버스 07: 의왕테크노파크 → 의왕파크푸르지오","type":"route","route":"bus","public_transport:version":"2"},"8101013":{"ref":"07","name":"의왕 마을버스 07: 의왕파크푸르지오 → 의왕테크노파크","type":"route","route":"bus","public_transport:version":"2"},"8111872":{"ref":"송암72","name":"송암72(송암공단 방향)","type":"route","route":"bus","network":"광주광역시 시내버스","operator":"세영운수","public_transport:version":"2"},"8115815":{"ref":"송암72","name":"송암72(수완지구 방향)","type":"route","route":"bus","network":"광주광역시 시내버스","operator":"세영운수","public_transport:version":"2"},"8119486":{"ref":"수완03","name":"수완03(효천초교 방향)","type":"route","route":"bus","network":"광주광역시 시내버스","operator":"대원시내버스;대진운수;대창운수;동화운수;삼원운수;세영운수;을로운수","public_transport:version":"2"},"8131238":{"ref":"09","name":"첨단09","type":"route","route":"bus","public_transport:version":"2"},"8161846":{"ref":"34","name":"남양주 버스 34","type":"route","route":"bus","operator":"대원운수","public_transport:version":"1"},"8172377":{"to":"서울성모병원","ref":"540","from":"군포공영차고지","name":"서울 시내버스 540","type":"route","route":"bus","colour":"#3d5bab","name:en":"Seoul Bus 540","name:ko":"서울 시내버스 540","network":"서울시","alt_name":"540번 버스","operator":"우신버스","public_transport:version":"2"},"8172378":{"to":"군포공영차고지","ref":"540","from":"서울성모병원","name":"서울 시내버스 540","type":"route","route":"bus","colour":"#3d5bab","source":"도로명주소","name:en":"Seoul Bus 540","name:ko":"서울 시내버스 540","network":"서울시","alt_name":"540번 버스","operator":"우신버스","public_transport:version":"2"},"8178218":{"to":"강남역","ref":"541","from":"군포공영차고지","name":"서울 시내버스 541","type":"route","route":"bus","colour":"#3d5bab","network":"서울시 간선버스","alt_name":"541번 버스","operator":"우신버스","public_transport:version":"2"},"8185382":{"to":"금곡주차장","ref":"121","from":"장전역","name":"부산버스 121","type":"route","route":"bus","network":"부산시내버스","interval":"25min(분)","operator":"삼진여객","opening_hours":"05:00-22:15","public_transport":"platform","public_transport:version":"2"},"8192348":{"to":"율동공원","ref":"602-1","from":"실리콘파크.삼성중공업","name":"602-1","type":"route","route":"bus","network":"성남시 마을버스","operator":"서현교통","public_transport:version":"2"},"8195968":{"to":"동대문 역사문화공원역","ref":"507","from":"석수역","name":"서울 버스 507","type":"route","route":"bus","network":"서울시 간선버스","operator":"서울교통네트웍주식회사","public_transport:version":"2"},"8209005":{"to":"금곡동","ref":"111","from":"진시장","name":"부산버스 111","type":"route","route":"bus","network":"부산시내버스","interval":"00:05 - 00:06","operator":"국제여객, 삼진여객","opening_hours":"05:00-22:10","public_transport:version":"2"},"8210701":{"to":"강남역","ref":"146","from":"상계동 주공7단지","name":"서울 시내버스 146","type":"route","route":"bus","name:ko":"서울 시내버스 146","network":"서울시 간선버스","operator":"흥안운수","public_transport:version":"2"},"8210761":{"to":"수락산역","ref":"102","from":"동대문역","name":"서울 시내버스 102","type":"route","route":"bus","name:ko":"서울 시내버스 102","network":"서울 간선버스","operator":"흥안운수","public_transport:version":"2"},"8210914":{"to":"화계사","ref":"152","from":"경인교육대후문","name":"서울 버스 152","type":"route","route":"bus","network":"서울시 간선버스","operator":"동아운수","public_transport:version":"2"},"8211029":{"to":"진관공영차고지","ref":"571","from":"가산동기점","name":"서울 버스 571: 가산동기점 → 진관공영차고지","type":"route","route":"bus","network":"서울특별시 간선버스","operator":"신인운수","public_transport:version":"2"},"8212441":{"to":"청강리공영차고지","ref":"200","from":"북구청","name":"부산 버스 200","type":"route","route":"bus","network":"부산광역시 일반시내버스","interval":"00:12","operator":"세익여객","opening_hours":"04:40 - 21:50","public_transport:version":"2"},"8212705":{"to":"도촌동9단지앞","ref":"9300","from":"숭례문","name":"9300 도촌동 행","type":"route","route":"bus","network":"경기 성남시 직행좌석","operator":"KD transprot group","public_transport:version":"2"},"8218569":{"to":"청강리","ref":"부산버스 1011","from":"경제자유구역청","name":"부산버스 1011 (청강리 행)","type":"route","route":"bus","network":"부산시 급행버스","interval":"00:20 - 00:25","operator":"부일여객, 해동여객","opening_hours":"05:00 - 21:00","public_transport:version":"2"},"8222056":{"to":"개화역광역환승센터","ref":"601","from":"혜화역","name":"601 (혜화역 행)","type":"route","route":"bus","network":"서울시 간선버스","operator":"다모아자동차","public_transport:version":"2"},"8222665":{"to":"서울역","ref":"605","from":"강서공영차고지","name":"605 (서울역 방면)","type":"route","route":"bus","network":"서울시 간선버스","operator":"공항버스","public_transport:version":"2"},"8226410":{"to":"상계주공7단지","ref":"105","from":"숭례문","name":"105 (상계동 방면)","type":"route","route":"bus","network":"서울시 간선버스","operator":"흥안운수","public_transport:version":"2"},"8226614":{"to":"부산역","ref":"59","from":"화명동","name":"59","type":"route","route":"bus","network":"부산시내버스","operator":"삼진여객","public_transport:version":"2"},"8226673":{"to":"양재역","ref":"서초18-1","from":"서초보금자리5단지","name":"서초18-1 (양재역 행)","type":"route","route":"bus","name:en":"Bus Seocho 18-1: LH 5 Complexl → Yangjae Station","network":"서울시 마을버스","interval":"00:23","operator":"청암운수","contact:phone":"+82 2 529 3507","opening_hours":"06:00-22:30","public_transport:version":"2"},"8234850":{"to":"군포공영차고지","ref":"541","from":"강남역","name":"서울 시내버스 541 (군포공영차고지 행)","type":"route","route":"bus","colour":"#3d5bab","network":"서울시 간선버스","alt_name":"541번 버스","operator":"우신버스","public_transport:version":"2"},"8244722":{"ref":"03","name":"서울 시내버스 03","type":"route","route":"bus","name:en":"Seoul Bus 03","name:ko":"서울 시내버스 03","operator":"북부운수"},"8463282":{"ref":"95","name":"구리 시내버스 95","type":"route","route":"bus","name:en":"Guri Bus 95","name:ko":"구리 시내버스 95","operator":"대원운수","public_transport:version":"1"},"8463301":{"ref":"96","name":"구리 시내버스 96","type":"route","route":"bus","name:en":"Guri Bus 96","name:ko":"구리 시내버스 96","operator":"대원운수","public_transport:version":"1"},"8520280":{"to":"인천성모병원","ref":"1","from":"왕길동","name":"인천 버스 1 →인천성모병원","type":"route","route":"bus","colour":"#1C78CF","name:ko":"인천 버스 1 →인천성모병원","description":"추가 중입니다.","public_transport:version":"2"},"8524730":{"to":"왕길동","ref":"1","from":"인천성모병원","name":"인천 버스 1 →왕길동","type":"route","route":"bus","colour":"#1C78CF","name:ko":"인천 버스 1 →왕길동","description":"추가 중입니다.","public_transport:version":"2"},"8524780":{"to":"구로디지털단지역","ref":"5617","from":"시흥동","name":"서울 버스 5617 (구로디지털단지역 방면)","type":"route","route":"bus","network":"서울시 지선버스","operator":"범일운수"},"8524781":{"to":"시흥동","ref":"5617","from":"구로디지털단지역","name":"서울 버스 5617 (시흥동 방면)","type":"route","route":"bus","network":"서울시 지선버스","operator":"범일운수"},"8524783":{"to":"벽산아파트","ref":"금천01-1","from":"가산디지털단지역","name":"서울 버스 금천01-1 (벽산아파트 방면)","type":"route","route":"bus","operator":"범일운수"},"8524784":{"to":"가산디지털단지역","ref":"금천01-1","from":"벽산아파트","name":"서울 버스 금천01-1 (가산디지털단지역 방면)","type":"route","route":"bus","operator":"범일운수"},"8524835":{"ref":"153","name":"153 (우이동 방면)","type":"route","route":"bus","network":"서울시 간선버스","operator":"동아운수"},"8718372":{"to":"구로디지털단지역","ref":"5621","from":"삼익아파트","name":"서울 버스 5621 (구로디지털단지역 방면)","type":"route","route":"bus","network":"서울시 지선버스","operator":"범일운수"},"8718373":{"to":"삼익아파트","ref":"5621","from":"구로디지털단지역","name":"서울 버스 5621 (삼익아파트 방면)","type":"route","route":"bus","network":"서울시 지선버스","operator":"범일운수"},"8718634":{"to":"노들역","ref":"5531","from":"군포공영차고지","name":"서울 버스 5531 (노들역 방면)","type":"route","route":"bus","network":"서울시 지선버스","operator":"군포교통","public_transport:version":"2"},"8718635":{"to":"군포공영차고지","ref":"5531","from":"노들역","name":"서울 버스 5531 (군포공영차고지 방면)","type":"route","route":"bus","network":"서울시 지선버스","operator":"군포교통","public_transport:version":"2"},"8746413":{"ref":"1","name":"인천재능대학교 제물포 셔틀버스","type":"route","route":"bus","operator":"인천재능대학교"},"8751604":{"to":"경의선신촌역","ref":"5713","from":"비산동","name":"서울 버스 5713 (경의선신촌역 방면)","type":"route","route":"bus","network":"서울시 지선버스","operator":"서울매일버스","public_transport:version":"2"},"8751605":{"to":"비산동","ref":"5713","from":"경의선신촌역","name":"서울 버스 5713 (비산동 방면)","type":"route","route":"bus","network":"서울시 지선버스","operator":"서울매일버스","public_transport:version":"2"},"8880555":{"to":"송보7차아파트","ref":"990","from":"중마터미널","name":"990 (송보7차아파트 방면)","type":"route","route":"bus","network":"광양시 시내버스","duration":"01:40","operator":"광양교통"},"8887910":{"to":"중마터미널","ref":"991","from":"송보7차아파트","name":"991 (중마터미널 방면)","type":"route","route":"bus","network":"광양시 시내버스","duration":"01:40","operator":"광양교통"},"8901114":{"ref":"44","name":"김해 버스 44","type":"route","route":"bus","operator":"김해시"},"9234117":{"ref":"112-5","name":"112-5","type":"route","route":"bus","operator":"경기상운"},"9243163":{"to":"서광주역 종점","ref":"지원25","from":"월남동","name":"지원25 (서광주역 방향)","type":"route","route":"bus","network":"광주광역시 시내버스","operator":"동화운수"},"9303503":{"to":"창동역","ref":"1142","from":"중계본동","name":"1142","type":"route","route":"bus","network":"서울시 지선버스","operator":"흥안운수"},"9312529":{"ref":"51-1","name":"51-1","type":"route","route":"bus","roundtrip":"yes","public_transport:version":"2"},"9312530":{"ref":"51","name":"51","type":"route","route":"bus","roundtrip":"yes","public_transport:version":"2"},"9312531":{"ref":"51-2","name":"51-2","type":"route","route":"bus","roundtrip":"yes","public_transport:version":"2"},"9460287":{"to":"의왕역","ref":"1-2","from":"환경사업소","name":"안양 버스 1-2 → 월암동.부곡중","type":"route","route":"bus","network":"안양시 시내버스","operator":"삼영운수","roundtrip":"no","opening_hours":"Mo-Su 05:00-22:40","public_transport:version":"2"},"9464036":{"to":"환경사업소","ref":"1-2","from":"의왕역","name":"안양 버스 1-2 → 석수동버스공영차고지","type":"route","route":"bus","network":"안양시 시내버스","operator":"삼영운수","roundtrip":"no","public_transport:version":"2"},"9468697":{"to":"한가람한양아파트","ref":"6","from":"한가람한양아파트","name":"안양 버스 6 (외선순환)","type":"route","route":"bus","source":"도로명주소","network":"안양시 마을버스","operator":"학의운수","roundtrip":"yes","public_transport:version":"2"},"9470912":{"ref":"900","name":"수원 시내버스 900","type":"route","route":"bus","name:en":"Suwon Bus 900","name:ko":"수원 시내버스 900","public_transport:version":"2"},"9473976":{"to":"한가람한양아파트","ref":"6","from":"한가람한양아파트","name":"안양 버스 6 (내선순환)","type":"route","route":"bus","source":"도로명주소","network":"안양시 마을버스","operator":"학의운수","roundtrip":"yes","public_transport:version":"2"},"9505660":{"to":"금정역","ref":"6-2","from":"경인교육대","name":"안양 버스 6-2 → 금정역","type":"route","route":"bus","source":"도로명주소","network":"안양시 마을버스","public_transport:version":"2"},"9505661":{"to":"경인교육대","ref":"6-2","from":"금정역","name":"안양 버스 6-2 → 경인교육대","type":"route","route":"bus","source":"도로명주소","network":"안양시 마을버스","public_transport:version":"2"},"9602092":{"ref":"3313","name":"3313","type":"route","route":"bus"},"9660607":{"ref":"87","name":"천안 시내버스 87","type":"route","route":"bus","name:en":"Cheonan Bus 87","name:ko":"천안 시내버스 87"},"9721798":{"to":"신사동사거리.신사역","ref":"542","from":"부곡버스공영차고지","name":"서울 버스 542 → 신사동","type":"route","route":"bus","colour":"blue","network":"서울시 간선버스","operator":"대원여객","public_transport:version":"2"},"9724327":{"to":"부곡버스공영차고지","ref":"542","from":"신사동사거리.신사역","name":"서울 시내버스 542 → 부곡버스공영차고지","type":"route","route":"bus","network":"서울시 간선버스","operator":"대원여객","public_transport:version":"2"},"9826298":{"ref":"2","name":"수원 마을버스 2","type":"route","route":"bus","name:en":"Suwon Bus 2","name:ko":"수원 마을버스 2","operator":"광교운수","roundtrip":"yes","public_transport:version":"2"},"9957072":{"name":"708","type":"route","route":"bus"},"10307126":{"to":"동원고(마을)","ref":"2-1","from":"조원주공아파트","name":"수원 버스 2-1","type":"route","route":"bus","operator":"율전버스"},"10719352":{"ref":"01A","name":"서울 시내버스 01A","type":"route","route":"bus","name:en":"Seoul Bus 01A","name:ko":"서울 시내버스 01A"},"10719353":{"ref":"01B","name":"서울 시내버스 01B","type":"route","route":"bus","name:en":"Seoul Bus 01B","name:ko":"서울 시내버스 01B"},"10723522":{"ref":"33A","name":"평택 마을버스 33A","type":"route","route":"bus","name:en":"Pyeongtaek Bus 33A","name:ko":"평택 마을버스 33A"},"10723523":{"ref":"33B","name":"평택 마을버스 33B","type":"route","route":"bus","name:en":"Pyeongtaek Bus 33B","name:ko":"평택 마을버스 33B"},"10726325":{"ref":"412","name":"청주 시내버스 412","type":"route","route":"bus","name:en":"Cheongju Bus 412","name:ko":"청주 시내버스 412"},"10726326":{"ref":"50-1","name":"청주 시내버스 50-1","type":"route","route":"bus","name:en":"Cheongju Bus 50-1","name:ko":"청주 시내버스 50-1"},"10726327":{"ref":"50-2","name":"청주 시내버스 50-2","type":"route","route":"bus","name:en":"Cheongju Bus 50-2","name:ko":"청주 시내버스 50-2"},"10726328":{"ref":"823","name":"청주 시내버스 823","type":"route","route":"bus","name:en":"Cheongju Bus 823","name:ko":"청주 시내버스 823"},"10726329":{"ref":"711","name":"청주 시내버스 711","type":"route","route":"bus","name:en":"Cheongju Bus 711","name:ko":"청주 시내버스 711"},"10726330":{"ref":"710","name":"청주 시내버스 710","type":"route","route":"bus","name:en":"Cheongju Bus 710","name:ko":"청주 시내버스 710"},"10726589":{"ref":"300","name":"세종 시내버스 300","type":"route","route":"bus","name:en":"Sejong Bus 300","name:ko":"세종 시내버스 300"},"10727026":{"ref":"2","name":"대전 시내버스 2","type":"route","route":"bus","colour":"#ff0000","name:en":"Daejeon Bus 2","name:ko":"대전 시내버스 2","interval":"8","opening_hours":"Mo-Su 05:45-22:30; PH off","interval:conditional":"9 @ (Sa 05:45-22:30); 10 @ (Su 05:45-22:30)"},"10727027":{"ref":"마을5","name":"대전 마을버스 5","type":"route","route":"bus","colour":"#00A3FB","name:en":"Daejeon Bus 5","name:ko":"대전 마을버스 5","interval":"25","operator":"유성마을버스","opening_hours":"Mo-Su 06:00-22:30; PH off","interval:conditional":"40 @ (Su 06:00-22:30)"},"10727028":{"ref":"301","name":"대전 시내버스 301","type":"route","route":"bus","name:en":"Daejeon Bus 301","name:ko":"대전 시내버스 301"},"10727254":{"ref":"102","name":"대전 시내버스 102","type":"route","route":"bus","name:en":"Daejeon Bus 102","name:ko":"대전 시내버스 102"},"10727257":{"ref":"1","name":"대전 시내버스 1","type":"route","route":"bus","colour":"red","name:en":"Daejeon Bus 1","name:ko":"대전 시내버스 1","interval":"8","opening_hours":"Mo-Su 05:25-22:35; PH off","interval:conditional":"9 @ (Sa 05:25-22:35); 10 @ (Su 05:25-22:35)"},"10727258":{"ref":"607","name":"대전 시내버스 607","type":"route","route":"bus","name:en":"Daejeon Bus 607","name:ko":"대전 시내버스 607"},"10727387":{"ref":"501","name":"대전 시내버스 501","type":"route","route":"bus","name:en":"Daejeon Bus 501","name:ko":"대전 시내버스 501"},"10727442":{"ref":"34","name":"대전 시내버스 34","type":"route","route":"bus","name:en":"Daejeon Bus 34","name:ko":"대전 시내버스 34"},"10727444":{"ref":"3","name":"대전 시내버스 3","type":"route","route":"bus","name:en":"Daejeon Bus 3","name:ko":"대전 시내버스 3"},"10727575":{"ref":"48","name":"계룡 시내버스 48","type":"route","route":"bus","name:en":"Gyeryong Bus 48","name:ko":"계룡 시내버스 48"},"10729471":{"ref":"604","name":"대전 시내버스 604","type":"route","route":"bus","name:en":"Daejeon Bus 604","name:ko":"대전 시내버스 604"},"10731979":{"ref":"마을1","name":"대전 마을버스 1","type":"route","route":"bus","colour":"#00A3FB","name:en":"Daejeon Bus 1","name:ko":"대전 마을버스 1","operator":"유성마을버스"},"10731980":{"ref":"704","name":"대전 시내버스 704","type":"route","route":"bus","name:en":"Daejeon Bus 704","name:ko":"대전 시내버스 704"},"10732097":{"ref":"마을3","name":"대전 마을버스 3","type":"route","route":"bus","colour":"#00A3FB","name:en":"Daejeon Bus 3","name:ko":"대전 마을버스 3","operator":"유성마을버스"},"10732098":{"ref":"655","name":"세종 시내버스 655","type":"route","route":"bus","name:en":"Sejong Bus 655","name:ko":"세종 시내버스 655"},"10732198":{"ref":"1004","name":"세종 시내버스 1004","type":"route","route":"bus","name:en":"Sejong Bus 1004","name:ko":"세종 시내버스 1004"},"10732199":{"ref":"1005","name":"세종 시내버스 1005","type":"route","route":"bus","name:en":"Sejong Bus 1005","name:ko":"세종 시내버스 1005"},"10732200":{"ref":"1002","name":"대전 시내버스 1002","type":"route","route":"bus","name:en":"Daejeon Bus 1002","name:ko":"대전 시내버스 1002"},"10732229":{"ref":"340","name":"세종 시내버스 340","type":"route","route":"bus","name:en":"Sejong Bus 340","name:ko":"세종 시내버스 340"},"10732230":{"ref":"221","name":"세종 시내버스 221","type":"route","route":"bus","name:en":"Sejong Bus 221","name:ko":"세종 시내버스 221"},"10732231":{"ref":"601","name":"세종 시내버스 601","type":"route","route":"bus","name:en":"Sejong Bus 601","name:ko":"세종 시내버스 601"},"10732232":{"ref":"430","name":"세종 시내버스 430","type":"route","route":"bus","name:en":"Sejong Bus 430","name:ko":"세종 시내버스 430"},"10732233":{"ref":"61","name":"세종 시내버스 61","type":"route","route":"bus","name:en":"Sejong Bus 61","name:ko":"세종 시내버스 61"},"10732234":{"ref":"222","name":"세종 시내버스 222","type":"route","route":"bus","name:en":"Sejong Bus 222","name:ko":"세종 시내버스 222"},"10732337":{"ref":"204","name":"세종 시내버스 204","type":"route","route":"bus","name:en":"Sejong Bus 204","name:ko":"세종 시내버스 204"},"10732354":{"ref":"801","name":"세종 시내버스 801","type":"route","route":"bus","name:en":"Sejong Bus 801","name:ko":"세종 시내버스 801"},"10736703":{"ref":"700","name":"천안 시내버스 700","type":"route","route":"bus","name:en":"Cheonan Bus 700","name:ko":"천안 시내버스 700"},"10736807":{"ref":"701","name":"천안 시내버스 701","type":"route","route":"bus","name:en":"Cheonan Bus 701","name:ko":"천안 시내버스 701"},"10736808":{"ref":"710","name":"천안 시내버스 710","type":"route","route":"bus","name:en":"Cheonan Bus 710","name:ko":"천안 시내버스 710"},"10736809":{"ref":"600","name":"천안 시내버스 600","type":"route","route":"bus","name:en":"Cheonan Bus 600","name:ko":"천안 시내버스 600"},"10736810":{"ref":"500","name":"천안 시내버스 500","type":"route","route":"bus","name:en":"Cheonan Bus 500","name:ko":"천안 시내버스 500"},"10736811":{"ref":"614","name":"천안 시내버스 614","type":"route","route":"bus","name:en":"Cheonan Bus 614","name:ko":"천안 시내버스 614"},"10736812":{"ref":"830","name":"천안 시내버스 830","type":"route","route":"bus","name:en":"Cheonan Bus 830","name:ko":"천안 시내버스 830"},"10736813":{"ref":"840","name":"천안 시내버스 840","type":"route","route":"bus","name:en":"Cheonan Bus 840","name:ko":"천안 시내버스 840"},"10736814":{"ref":"850","name":"천안 시내버스 850","type":"route","route":"bus","name:en":"Cheonan Bus 850","name:ko":"천안 시내버스 850"},"10736815":{"ref":"860","name":"천안 시내버스 860","type":"route","route":"bus","name:en":"Cheonan Bus 860","name:ko":"천안 시내버스 860"},"10736888":{"ref":"991","name":"세종 시내버스 991","type":"route","route":"bus","name:en":"Sejong Bus 991","name:ko":"세종 시내버스 991"},"10736904":{"ref":"85","name":"세종 시내버스 85","type":"route","route":"bus","name:en":"Sejong Bus 85","name:ko":"세종 시내버스 85"},"10737016":{"ref":"910","name":"세종 시내버스 910","type":"route","route":"bus","name:en":"Sejong Bus 910","name:ko":"세종 시내버스 910"},"10737143":{"ref":"80","name":"평택 시내버스 80","type":"route","route":"bus","name:en":"Pyeongtaek Bus 80","name:ko":"평택 시내버스 80"},"10737144":{"ref":"98","name":"평택 시내버스 98","type":"route","route":"bus","name:en":"Pyeongtaek Bus 98","name:ko":"평택 시내버스 98"},"10737145":{"ref":"15","name":"평택 시내버스 15","type":"route","route":"bus","name:en":"Pyeongtaek Bus 15","name:ko":"평택 시내버스 15"},"10737146":{"ref":"20","name":"평택 시내버스 20","type":"route","route":"bus","name:en":"Pyeongtaek Bus 20","name:ko":"평택 시내버스 20"},"10737147":{"ref":"810","name":"평택 시내버스 810","type":"route","route":"bus","name:en":"Pyeongtaek Bus 810","name:ko":"평택 시내버스 810"},"10737148":{"ref":"8000","name":"평택 시내버스 8000","type":"route","route":"bus","name:en":"Pyeongtaek Bus 8000","name:ko":"평택 시내버스 8000"},"10741520":{"ref":"27-2","name":"수원 마을버스 27-2","type":"route","route":"bus","name:en":"Suwon Bus 27-2","name:ko":"수원 마을버스 27-2"},"10741521":{"ref":"27-6","name":"수원 마을버스 27-6","type":"route","route":"bus","name:en":"Suwon Bus 27-6","name:ko":"수원 마을버스 27-6"},"10741565":{"ref":"27-3","name":"수원 마을버스 27-3","type":"route","route":"bus","name:en":"Suwon Bus 27-3","name:ko":"수원 마을버스 27-3"},"10741658":{"ref":"7780","name":"수원 시내버스 7780","type":"route","route":"bus","name:en":"Suwon Bus 7780","name:ko":"수원 시내버스 7780"},"10741659":{"name":"수원 시내버스 7800","type":"route","route":"bus","name:en":"Suwon Bus 7800","name:ko":"수원 시내버스 7800"},"10741660":{"ref":"2-1","name":"수원 마을버스 2-1","type":"route","route":"bus","name:en":"Suwon Bus 2-1","name:ko":"수원 마을버스 2-1","public_transport:version":"2"},"10741661":{"ref":"7790","name":"화성 시내버스 7790","type":"route","route":"bus","name:en":"Hwaseong Bus 7790","name:ko":"화성 시내버스 7790"},"10741662":{"ref":"8155","name":"화성 시내버스 8155","type":"route","route":"bus","name:en":"Hwaseong Bus 8155","name:ko":"화성 시내버스 8155"},"10741663":{"ref":"8156","name":"화성 시내버스 8156","type":"route","route":"bus","name:en":"Hwaseong Bus 8156","name:ko":"화성 시내버스 8156"},"10741858":{"ref":"21","name":"수원 마을버스 21","type":"route","route":"bus","name:en":"Suwon Bus 21","name:ko":"수원 마을버스 21"},"10742101":{"ref":"25","name":"수원 마을버스 25","type":"route","route":"bus","name:en":"Suwon Bus 25","name:ko":"수원 마을버스 25"},"10742102":{"ref":"25-2","name":"수원 마을버스 25-2","type":"route","route":"bus","name:en":"Suwon Bus 25-2","name:ko":"수원 마을버스 25-2"},"10742166":{"ref":"11","name":"세종 시내버스 11","type":"route","route":"bus","name:en":"Sejong Bus 11","name:ko":"세종 시내버스 11"},"10742167":{"ref":"12","name":"세종 시내버스 12","type":"route","route":"bus","name:en":"Sejong Bus 12","name:ko":"세종 시내버스 12"},"10743518":{"ref":"622","name":"대전 시내버스 622","type":"route","route":"bus","name:en":"Daejeon Bus 622","name:ko":"대전 시내버스 622"},"10743519":{"ref":"601","name":"대전 시내버스 601","type":"route","route":"bus","name:en":"Daejeon Bus 601","name:ko":"대전 시내버스 601"},"10755607":{"ref":"63","name":"대전 시내버스 63","type":"route","route":"bus","name:en":"Daejeon Bus 63","name:ko":"대전 시내버스 63"},"10755788":{"ref":"410","name":"천안 시내버스 410","type":"route","route":"bus","name:en":"Cheonan Bus 410","name:ko":"천안 시내버스 410"},"10755949":{"ref":"111","name":"청주 시내버스 111","type":"route","route":"bus","name:en":"Cheongju Bus 111","name:ko":"청주 시내버스 111"},"10757323":{"ref":"201","name":"세종 시내버스 201","type":"route","route":"bus","name:en":"Sejong Bus 201","name:ko":"세종 시내버스 201"},"10757324":{"ref":"202","name":"세종 시내버스 202","type":"route","route":"bus","name:en":"Sejong Bus 202","name:ko":"세종 시내버스 202"},"10991217":{"ref":"G8808","name":"부천 시내버스 G8808","type":"route","route":"bus","name:en":"Bucheon Bus G8808","name:ko":"부천 시내버스 G8808","public_transport:version":"2"},"11000583":{"ref":"40-1","name":"청주 시내버스 40-1","type":"route","route":"bus","name:en":"Cheongju Bus 40-1","name:ko":"청주 시내버스 40-1"},"11000584":{"ref":"40-2","name":"청주 시내버스 40-2","type":"route","route":"bus","name:en":"Cheongju Bus 40-2","name:ko":"청주 시내버스 40-2"},"11000585":{"ref":"30-1","name":"청주 시내버스 30-1","type":"route","route":"bus","name:en":"Cheongju Bus 30-1","name:ko":"청주 시내버스 30-1"},"11000586":{"ref":"30-2","name":"청주 시내버스 30-2","type":"route","route":"bus","name:en":"Cheongju Bus 30-2","name:ko":"청주 시내버스 30-2"},"11000587":{"ref":"20-1","name":"청주 시내버스 20-1","type":"route","route":"bus","name:en":"Cheongju Bus 20-1","name:ko":"청주 시내버스 20-1"},"11000588":{"ref":"20-2","name":"청주 시내버스 20-2","type":"route","route":"bus","name:en":"Cheongju Bus 20-2","name:ko":"청주 시내버스 20-2"},"11000599":{"ref":"311","name":"청주 시내버스 311","type":"route","route":"bus","name:en":"Cheongju Bus 311","name:ko":"청주 시내버스 311"},"11000600":{"ref":"713","name":"청주 시내버스 713","type":"route","route":"bus","name:en":"Cheongju Bus 713","name:ko":"청주 시내버스 713"},"11002543":{"ref":"203","name":"세종 시내버스 203","type":"route","route":"bus","name:en":"Sejong Bus 203","name:ko":"세종 시내버스 203"},"11002592":{"ref":"52","name":"세종 시내버스 52","type":"route","route":"bus","name:en":"Sejong Bus 52","name:ko":"세종 시내버스 52"},"11002593":{"ref":"53","name":"세종 시내버스 53","type":"route","route":"bus","name:en":"Sejong Bus 53","name:ko":"세종 시내버스 53"},"11002737":{"ref":"300","name":"공주 시내버스 300","type":"route","route":"bus","name:en":"Gongju Bus 300","name:ko":"공주 시내버스 300"},"11002792":{"ref":"311","name":"대전 시내버스 311","type":"route","route":"bus","name:en":"Daejeon Bus 311","name:ko":"대전 시내버스 311"},"11005936":{"ref":"820","name":"청주 시내버스 820","type":"route","route":"bus","name:en":"Cheongju Bus 820","name:ko":"청주 시내버스 820"},"11006404":{"ref":"75","name":"대전 시내버스 75","type":"route","route":"bus","name:en":"Daejeon Bus 75","name:ko":"대전 시내버스 75"},"11006405":{"ref":"21","name":"대전 시내버스 21","type":"route","route":"bus","name:en":"Daejeon Bus 21","name:ko":"대전 시내버스 21"},"11006406":{"ref":"22","name":"대전 시내버스 22","type":"route","route":"bus","name:en":"Daejeon Bus 22","name:ko":"대전 시내버스 22"},"11009440":{"ref":"1","name":"안성 시내버스 1","type":"route","route":"bus","name:en":"Anseong Bus 1","name:ko":"안성 시내버스 1"},"11009441":{"ref":"10-2","name":"안성 시내버스 10-2","type":"route","route":"bus","name:en":"Anseong Bus 10-2","name:ko":"안성 시내버스 10-2"},"11009442":{"ref":"20","name":"안성 시내버스 20","type":"route","route":"bus","name:en":"Anseong Bus 20","name:ko":"안성 시내버스 20"},"11009462":{"ref":"161","name":"천안 시내버스 161","type":"route","route":"bus","name:en":"Cheonan Bus 161","name:ko":"천안 시내버스 161"},"11015365":{"ref":"순환5","name":"아산 시내버스 순환5","type":"route","route":"bus","name:en":"Asan Bus 5","name:ko":"아산 시내버스 순환5"},"11049891":{"ref":"115","name":"천안 시내버스 115","type":"route","route":"bus","name:en":"Cheonan Bus 115","name:ko":"천안 시내버스 115"},"11097696":{"ref":"24-3","name":"용인 시내버스 24-3","type":"route","route":"bus","name:en":"Yongin Bus 24-3","name:ko":"용인 시내버스 24-3"},"11133256":{"to":"한라비발디2차정문","ref":"10","from":"관설동 종점","name":"원주 시내버스 10","type":"route","route":"bus","name:en":"Wonju Bus 10","interval":"90","operator":"동신운수, 태창운수"},"11202732":{"ref":"970","name":"아산 시내버스 970","type":"route","route":"bus","name:en":"Asan Bus 970","name:ko":"아산 시내버스 970"},"11202733":{"ref":"981","name":"아산 시내버스 981","type":"route","route":"bus","name:en":"Asan Bus 981","name:ko":"아산 시내버스 981"},"11202734":{"ref":"500","name":"아산 시내버스 500","type":"route","route":"bus","name:en":"Asan Bus 500","name:ko":"아산 시내버스 500"},"11266948":{"ref":"530","name":"아산 시내버스 530","type":"route","route":"bus","name:en":"Asan Bus 530","name:ko":"아산 시내버스 530"},"11267007":{"ref":"777","name":"아산 시내버스 777","type":"route","route":"bus","name:en":"Asan Bus 777","name:ko":"아산 시내버스 777"},"11340273":{"to":"신분당선강남역(중)","ref":"1151","from":"오산리종점","name":"성남 시내버스 1151","type":"route","route":"bus","name:en":"Seongnam Bus 1151","name:ko":"성남 시내버스 1151","network":"경기 성남시 직행좌석","operator":"KD transprot group","public_transport:version":"2"},"11353516":{"to":"광주종합버스터미널(유·스퀘어)","fee":"yes","via":"비아EX-HUB","from":"센트럴시티 터미널","name":"서울호남 → 광주 고속버스","type":"route","route":"bus","name:ko":"서울호남 → 광주 고속버스","duration":"03:20","operator":"금호고속;중앙고속","reservation":"yes","public_transport:version":"2"},"11364978":{"to":"센트럴시티","from":"광주종합버스터미널","name":"광주 → 서울호남 고속버스","type":"route","route":"bus","name:ko":"광주 → 서울호남 고속버스","duration":"03:20","operator":"금호고속;중앙고속","public_transport:version":"2"},"11379301":{"ref":"1371","name":"평택 시내버스 1371","type":"route","route":"bus","name:en":"Pyeongtaek Bus 1371","name:ko":"평택 시내버스 1371"},"11379302":{"ref":"6600","name":"평택 시내버스 6600","type":"route","route":"bus","name:en":"Pyeongtaek Bus 6600","name:ko":"평택 시내버스 6600"},"11484080":{"to":"능동사거리 군자역","ref":"119","from":"오산리종점","name":"광주 시내버스 119","type":"route","route":"bus","name:en":"Gwangju Bus 119","name:ko":"광주 시내버스 119","network":"경기도 시내버스","operator":"KD 운송그룹","network:en":"G-BUS","network:ko":"경기도 시내버스","network:wikidata":"Q4859793","network:wikipedia":"ko:경기도의 시내버스"},"11484235":{"to":"보정역","ref":"57","from":"사기막골","name":"용인 마을버스 57","type":"route","route":"bus","colour":"#FADED7D","name:en":"Yongin Bus 57","name:ko":"용인 마을버스 57","network":"경기도 마을버스","operator":"한비운수"},"11484287":{"ref":"8","name":"평택 시내버스 8","type":"route","route":"bus","name:en":"Pyeongtaek Bus 8","name:ko":"평택 시내버스 8"},"11484433":{"ref":"7-2","name":"평택 시내버스 7-2","type":"route","route":"bus","name:en":"Pyeongtaek Bus 7-2","name:ko":"평택 시내버스 7-2"},"11484434":{"ref":"M5438","name":"광역급행버스 M5438","type":"route","route":"bus","name:en":"Metropolitan Bus M5438","name:ko":"광역급행버스 M5438"},"11512819":{"ref":"10","name":"오산 마을버스 10","type":"route","route":"bus","name:en":"Osan Bus 10","name:ko":"오산 마을버스 10"},"11512820":{"ref":"88","name":"오산 마을버스 88","type":"route","route":"bus","name:en":"Osan Bus 88","name:ko":"오산 마을버스 88"},"11512854":{"ref":"5300","name":"오산 시내버스 5300","type":"route","route":"bus","name:en":"Osan Bus 5300","name:ko":"오산 시내버스 5300"},"11518875":{"ref":"30","name":"오산 시내버스 30","type":"route","route":"bus","name:en":"Osan Bus 30","name:ko":"오산 시내버스 30"},"11518876":{"ref":"7","name":"오산 시내버스 7","type":"route","route":"bus","name:en":"Osan Bus 7","name:ko":"오산 시내버스 7"},"11518877":{"ref":"8","name":"오산 시내버스 8","type":"route","route":"bus","name:en":"Osan Bus 8","name:ko":"오산 시내버스 8"},"11520015":{"to":"석계역1번출구A","ref":"73","from":"경복대","name":"남양주 버스 73","type":"route","route":"bus","network":"경기도 시내버스","operator":"경기버스","network:en":"G-BUS","network:ko":"경기도 시내버스","network:wikidata":"Q4859793","network:wikipedia":"ko:경기도의 시내버스"},"11521107":{"ref":"20","name":"수원 시내버스 20","type":"route","route":"bus","name:en":"Suwon Bus 20","name:ko":"수원 시내버스 20"},"11521108":{"ref":"20-1","name":"수원 시내버스 20-1","type":"route","route":"bus","name:en":"Suwon Bus 20-1","name:ko":"수원 시내버스 20-1"},"11521255":{"ref":"202","name":"오산 시내버스 202","type":"route","route":"bus","name:en":"Osan Bus 202","name:ko":"오산 시내버스 202"},"11521259":{"ref":"1311","name":"오산 시내버스 1311","type":"route","route":"bus","name:en":"Osan Bus 1311","name:ko":"오산 시내버스 1311"},"11521270":{"ref":"33","name":"오산 마을버스 33","type":"route","route":"bus","name:en":"Osan Bus 33","name:ko":"오산 마을버스 33"},"11521271":{"ref":"33-1","name":"오산 마을버스 33-1","type":"route","route":"bus","name:en":"Osan Bus 33-1","name:ko":"오산 마을버스 33-1"},"11530152":{"ref":"3","name":"평택 시내버스 3","type":"route","route":"bus","name:en":"Pyeongtaek Bus 3","name:ko":"평택 시내버스 3"},"11530265":{"ref":"118","name":"천안 시내버스 118","type":"route","route":"bus","name:en":"Cheonan Bus 118","name:ko":"천안 시내버스 118"},"11530549":{"ref":"100","name":"오산 마을버스 100","type":"route","route":"bus","name:en":"Osan Bus 100","name:ko":"오산 마을버스 100"},"11536983":{"ref":"232","name":"천안 시내버스 232","type":"route","route":"bus","name:en":"Cheonan Bus 232","name:ko":"천안 시내버스 232"},"11537007":{"ref":"240","name":"아산 시내버스 240","type":"route","route":"bus","name:en":"Asan Bus 240","name:ko":"아산 시내버스 240"},"11560540":{"to":"금곡리","ref":"71","from":"금곡리","name":"남양주 버스 71","type":"route","route":"bus","network":"경기도 버스","operator":"경기버스"},"11582602":{"to":"강변역","ref":"9","from":"진벌리차고지","name":"남양주 버스 9","type":"route","route":"bus","network":"경기도 시내버스","operator":"경기운수","network:en":"G-BUS","network:ko":"경기도 시내버스","network:wikidata":"Q4859793","network:wikipedia":"ko:경기도의 시내버스"},"11582603":{"to":"사릉역","ref":"7-4","from":"금곡2리.경복대학","name":"남양주 버스 7-4","type":"route","route":"bus","network":"경기도 시내버스","operator":"경기버스","network:en":"G-BUS","network:ko":"경기도 시내버스","network:wikidata":"Q4859793","network:wikipedia":"ko:경기도의 시내버스"},"11582683":{"to":"잠실광역환승센터","ref":"8012","from":"광릉내종점","name":"남양주 버스 8012","type":"route","route":"bus","network":"경기도 광역버스","operator":"경기버스"},"11583338":{"to":"당고개역","ref":"80","from":"양지차고지","name":"남양주 버스 80","type":"route","route":"bus","colour":"ff0","network":"남양주 마을버스","operator":"태산운수"},"11599220":{"to":"강변역","ref":"1","from":"진벌리차고지","name":"남양주 버스 1","type":"route","route":"bus","network":"경기도 시내버스","operator":"대원운수","network:en":"G-BUS","network:ko":"경기도 시내버스","network:wikidata":"Q4859793","network:wikipedia":"ko:경기도의 시내버스"},"11599327":{"to":"금곡구종점","ref":"땡큐60","from":"비웰컴즈.대성산업","name":"남양주 버스 땡큐60","type":"route","route":"bus","network":"경기도 시내버스","operator":"경기운수","network:en":"G-BUS","network:ko":"경기도 시내버스","network:wikidata":"Q4859793","network:wikipedia":"ko:경기도의 시내버스"},"11599412":{"to":"사릉역","ref":"5-1","from":"금곡산업단지입구","name":"남양주 버스 5-1","type":"route","route":"bus","network":"경기도 시내버스","operator":"경기운수","network:en":"G-BUS","network:ko":"경기도 시내버스","network:wikidata":"Q4859793","network:wikipedia":"ko:경기도의 시내버스"},"11606416":{"to":"강남역","ref":"7007","from":"광릉내종점","name":"남양주 버스 7007","type":"route","route":"bus","network":"경기도 시내버스","operator":"경기버스","network:en":"G-BUS","network:ko":"경기도 시내버스","network:wikidata":"Q4859793","network:wikipedia":"ko:경기도의 시내버스"},"11631032":{"to":"당고개역","ref":"105","from":"진벌리차고지","name":"남양주 버스 105","type":"route","route":"bus","network":"경기도 시내버스","operator":"대원운수","network:en":"G-BUS","network:ko":"경기도 시내버스","network:wikidata":"Q4859793","network:wikipedia":"ko:경기도의 시내버스"},"11645248":{"to":"하남스타필드","ref":"23","from":"내촌차고지","name":"남양주 버스 23","type":"route","route":"bus","network":"경기도 시내버스","operator":"경기버스","network:en":"G-BUS","network:ko":"경기도 시내버스","network:wikidata":"Q4859793","network:wikipedia":"ko:경기도의 시내버스"},"11695683":{"to":"강변역","ref":"92","from":"광릉내종점","name":"구리 버스 92","type":"route","route":"bus","network":"경기도 시내버스","operator":"경기여객","network:en":"G-BUS","network:ko":"경기도 시내버스","network:wikidata":"Q4859793","network:wikipedia":"ko:경기도의 시내버스"},"11723249":{"ref":"순환111A","name":"평택 시내버스 순환111A","type":"route","route":"bus","name:en":"Pyeongtaek Bus circulation111A","name:ko":"평택 시내버스 순환111A"},"11723250":{"ref":"순환111B","name":"평택 시내버스 순환111B","type":"route","route":"bus","name:en":"Pyeongtaek Bus circulation111B","name:ko":"평택 시내버스 순환111B"},"11723925":{"to":"경민대학","ref":"21","from":"경복대학","name":"남양주 버스 21번","type":"route","route":"bus","name:ko":"남양주 버스 21번","network":"경기도 시내버스","operator":"경기운수","network:en":"G-BUS","network:ko":"경기도 시내버스","network:wikidata":"Q4859793","network:wikipedia":"ko:경기도의 시내버스"},"11727779":{"ref":"32","name":"대전 시내버스 32","type":"route","route":"bus","name:en":"Daejeon Bus 32","name:ko":"대전 시내버스 32"},"11838429":{"ref":"141","name":"천안 시내버스 141","type":"route","route":"bus","name:en":"Cheonan Bus 141","name:ko":"천안 시내버스 141"},"11838430":{"ref":"101","name":"천안 시내버스 101","type":"route","route":"bus","name:en":"Cheonan Bus 101","name:ko":"천안 시내버스 101"},"11973010":{"to":"야당역","ref":"084","from":"운정역","name":"파주 마을버스 084","type":"route","route":"bus"},"11973011":{"to":"와석초교","ref":"084(와석초)","from":"운정역","name":"파주 마을버스 084(와석초)","type":"route","route":"bus"},"11973012":{"to":"야당역","ref":"084(심야)","from":"운정역","name":"파주 마을버스 084(심야)","type":"route","route":"bus"},"11997428":{"ref":"108","name":"대전 시내버스 108","type":"route","route":"bus","name:en":"Daejeon Bus 108","name:ko":"대전 시내버스 108"},"11997429":{"ref":"912","name":"대전 시내버스 912","type":"route","route":"bus","name:en":"Daejeon Bus 912","name:ko":"대전 시내버스 912"},"11999289":{"ref":"500","name":"공주 시내버스 500","type":"route","route":"bus","name:en":"Gongju Bus 500","name:ko":"공주 시내버스 500"},"12000120":{"ref":"B3","name":"청주 시내버스 B3","type":"route","route":"bus","name:en":"Cheongju Bus B3","name:ko":"청주 시내버스 B3"},"12000150":{"ref":"53","name":"청주 시내버스 53","type":"route","route":"bus","name:en":"Cheongju Bus 53","name:ko":"청주 시내버스 53"},"12000151":{"ref":"535","name":"청주 시내버스 535","type":"route","route":"bus","name:en":"Cheongju Bus 535","name:ko":"청주 시내버스 535"},"12003826":{"ref":"41","name":"대전 시내버스 41","type":"route","route":"bus","name:en":"Daejeon Bus 41","name:ko":"대전 시내버스 41"},"12003827":{"ref":"42","name":"대전 시내버스 42","type":"route","route":"bus","name:en":"Daejeon Bus 42","name:ko":"대전 시내버스 42"},"12003828":{"ref":"46","name":"대전 시내버스 46","type":"route","route":"bus","name:en":"Daejeon Bus 46","name:ko":"대전 시내버스 46"},"12003829":{"ref":"43","name":"계룡 시내버스 43","type":"route","route":"bus","name:en":"Gyeryong Bus 43","name:ko":"계룡 시내버스 43"},"12007302":{"ref":"105","name":"대전 시내버스 105","type":"route","route":"bus","name:en":"Daejeon Bus 105","name:ko":"대전 시내버스 105"},"12008362":{"ref":"211","name":"대전 시내버스 211","type":"route","route":"bus","name:en":"Daejeon Bus 211","name:ko":"대전 시내버스 211"},"12022828":{"ref":"802","name":"대전 시내버스 802","type":"route","route":"bus","name:en":"Daejeon Bus 802","name:ko":"대전 시내버스 802"},"12032122":{"ref":"705","name":"대전 시내버스 705","type":"route","route":"bus","name:en":"Daejeon Bus 705","name:ko":"대전 시내버스 705"},"12096061":{"ref":"114","name":"대전 시내버스 114","type":"route","route":"bus","name:en":"Daejeon Bus 114","name:ko":"대전 시내버스 114"},"12096062":{"ref":"115","name":"대전 시내버스 115","type":"route","route":"bus","name:en":"Daejeon Bus 115","name:ko":"대전 시내버스 115"},"12096289":{"ref":"106","name":"대전 시내버스 106","type":"route","route":"bus","name:en":"Daejeon Bus 106","name:ko":"대전 시내버스 106"},"12103512":{"ref":"135","name":"천안 시내버스 135","type":"route","route":"bus","name:en":"Cheonan Bus 135","name:ko":"천안 시내버스 135"},"12119317":{"ref":"831","name":"청주 시내버스 831","type":"route","route":"bus","name:en":"Cheongju Bus 831","name:ko":"청주 시내버스 831"},"12119318":{"ref":"832","name":"청주 시내버스 832","type":"route","route":"bus","name:en":"Cheongju Bus 832","name:ko":"청주 시내버스 832"},"12119319":{"ref":"611","name":"청주 시내버스 611","type":"route","route":"bus","name:en":"Cheongju Bus 611","name:ko":"청주 시내버스 611"},"12119646":{"ref":"430","name":"천안 시내버스 430","type":"route","route":"bus","name:en":"Cheonan Bus 430","name:ko":"천안 시내버스 430"},"12120033":{"ref":"34","name":"오산 시내버스 34","type":"route","route":"bus","name:en":"Osan Bus 34","name:ko":"오산 시내버스 34"},"12120034":{"ref":"G6010","name":"화성 시내버스 G6010","type":"route","route":"bus","name:en":"Hwaseong Bus G6010","name:ko":"화성 시내버스 G6010"},"12120035":{"ref":"24","name":"용인 시내버스 24","type":"route","route":"bus","name:en":"Yongin Bus 24","name:ko":"용인 시내버스 24"},"12120036":{"ref":"99","name":"오산 마을버스 99","type":"route","route":"bus","name:en":"Osan Bus 99","name:ko":"오산 마을버스 99"},"12120094":{"ref":"9","name":"오산 시내버스 9","type":"route","route":"bus","name:en":"Osan Bus 9","name:ko":"오산 시내버스 9"},"12120095":{"ref":"111","name":"오산 시내버스 111","type":"route","route":"bus","name:en":"Osan Bus 111","name:ko":"오산 시내버스 111"},"12245585":{"to":"상일동역4번출구.고덕전통시장","ref":"초이-01","from":"초광산단동로","name":"하남 버스 초이-01: 초광산단동로 → 상일동역4번출구.고덕전통시장","type":"route","route":"bus","network":"경기도 시내버스","operator":"경기상운"},"12247742":{"to":"상일동역4번출구.고덕전통시장","ref":"초이-01","from":"초광산단동로","name":"하남 버스 초이-01: 초광산단동로 → 상일동역4번출구.고덕전통시장","type":"route","route":"bus","colour":"#33cc99","network":"경기도 시내버스","operator":"경기상운","network:en":"G-BUS","network:ko":"경기도 시내버스","network:wikidata":"Q4859793","network:wikipedia":"ko:경기도의 시내버스","public_transport:version":"2"},"12247770":{"to":"초광산단로","ref":"초이-01","from":"상일동역4번출구.고덕전통시장","name":"하남 버스 초이-01:  상일동역4번출구.고덕전통시장 → 초광산단로","type":"route","route":"bus","colour":"#33cc99","network":"경기도 시내버스","operator":"경기상운","network:en":"G-BUS","network:ko":"경기도 시내버스","network:wikidata":"Q4859793","network:wikipedia":"ko:경기도의 시내버스","public_transport:version":"2"},"12248840":{"to":"윗배알미","ref":"배알미-01","from":"하남BRT환승센터","name":"하남 버스 배알미-01: 하남BRT환승센터 → 윗배알미","type":"route","route":"bus","colour":"#33cc99","network":"경기도 시내버스","operator":"경기상운","network:en":"G-BUS","network:ko":"경기도 시내버스","network:wikidata":"Q4859793","network:wikipedia":"ko:경기도의 시내버스","public_transport:version":"2"},"12249016":{"to":"하남BRT환승센터","ref":"배알미-01","from":"윗배알미","name":"하남 버스 배알미-01: 윗배알미 → 하남BRT환승센터","type":"route","route":"bus","colour":"#33cc99","network":"경기도 시내버스","operator":"경기상운","network:en":"G-BUS","network:ko":"경기도 시내버스","network:wikidata":"Q4859793","network:wikipedia":"ko:경기도의 시내버스"},"12274797":{"to":"영서고","ref":"18","from":"관설동종점","name":"원주 시내버스 18","type":"route","route":"bus"},"12285502":{"to":"기업사거리","ref":"100-2","from":"중흥2단지","name":"원주 시내버스 100-2","type":"route","route":"bus","operator":"동신운수, 태창운수"},"12320635":{"to":"둔촌동역3번출구","ref":"1","from":"상산곡동.공영차고지","name":"하남 버스 1: 상산곡동.공영차고지 → 둔촌동역3번출구","type":"route","route":"bus","colour":"#f99d1c","network":"경기도 시내버스","operator":"대통운수","network:en":"G-BUS","network:ko":"경기도 시내버스","network:wikidata":"Q4859793"},"12320636":{"to":"상산곡동.공영차고지","ref":"1","from":"둔촌동역3번출구","name":"하남 버스 1: 둔촌동역3번출구 → 상산곡동.공영차고지","type":"route","route":"bus","colour":"#f99d1c","network":"경기도 시내버스","operator":"대통운수","network:en":"G-BUS","network:ko":"경기도 시내버스","network:wikidata":"Q4859793"},"12322150":{"to":"덕풍3동행정복지센터.이마트","ref":"2","from":"어진마을입구","name":"하남 버스 2: 어진마을입구 → 덕풍3동행정복지센터.이마트","type":"route","route":"bus","colour":"#f99d1c","network":"경기도 시내버스","operator":"하남마을버스","network:en":"G-BUS","network:ko":"경기도 시내버스","network:wikidata":"Q4859793","network:wikipedia":"ko:경기도의 시내버스"},"12322151":{"to":"어진마을입구","ref":"2","from":"덕풍3동행정복지센터.이마트","name":"하남 버스 2: 덕풍3동행정복지센터.이마트 → 어진마을입구","type":"route","route":"bus","colour":"#f99d1c","network":"경기도 시내버스","operator":"하남마을버스","network:en":"G-BUS","network:ko":"경기도 시내버스"},"12322433":{"to":"미사강변호반써밋","ref":"3","from":"힐즈파크푸르지오3단지","name":"하남 버스 3: 힐즈파크푸르지오3단지 → 미사강변호반써밋","type":"route","route":"bus","colour":"#f99d1c","network":"경기도 시내버스","operator":"은방울교통","network:en":"G-BUS","network:ko":"경기도 시내버스"},"12322434":{"to":"세미도서관.힐즈파크푸르지오1단지","ref":"3","from":"미사강변호반써밋","name":"하남 버스 3: 미사강변호반써밋 → 세미도서관.힐즈파크푸르지오1단지","type":"route","route":"bus","colour":"#f99d1c","network":"경기도 시내버스","operator":"은방울교통","network:en":"G-BUS","network:ko":"경기도 시내버스","network:wikidata":"Q4859793"},"12322688":{"to":"하남시민체험농장","ref":"3-1","from":"한솔리치빌2.3단지","name":"하남 버스 3-1: 한솔리치빌2.3단지 → 하남시민체험농장","type":"route","route":"bus","colour":"#f99d1c","network":"경기도 시내버스","operator":"은방울교통","network:en":"G-BUS","network:ko":"경기도 시내버스","network:wikidata":"Q4859793","network:wikipedia":"ko:경기도의 시내버스"},"12322689":{"to":"한솔리치빌2.3단지","ref":"3-1","from":"하남시민체험농장","name":"버스 노선 3-1: 하남시민체험농장 →한솔리치빌2.3단지","type":"route","route":"bus","colour":"#f99d1c","network":"경기도 시내버스","operator":"은방울교통","network:en":"G-BUS","network:ko":"경기도 시내버스","network:wikidata":"Q4859793","network:wikipedia":"ko:경기도의 시내버스"},"12323379":{"to":"하남고등학교","ref":"5","from":"하남BRT환승센터","name":"하남 버스 5: 하남BRT환승센터 → 하남고등학교","type":"route","route":"bus","colour":"#f99d1c","network":"경기도 시내버스","operator":"삼성교통","network:en":"G-BUS","network:ko":"경기도 시내버스"},"12323380":{"to":"BRT환승센터.검단산입구","ref":"5","from":"하남고등학교","name":"하남 버스 5: 하남고등학교 → BRT환승센터.검단산입구","type":"route","route":"bus","colour":"#f99d1c","network":"경기도 시내버스","operator":"삼성교통","network:en":"G-BUS","network:ko":"경기도 시내버스"},"12323676":{"to":"한솔리치빌2.3단지","ref":"6-1","from":"초이농협","name":"하남 버스 6-1: 초이농협 → 한솔리치빌2.3단지","type":"route","route":"bus","colour":"#f99d1c","network":"경기도 시내버스","operator":"오륜운수","network:en":"G-BUS","network:ko":"경기도 시내버스","network:wikidata":"Q4859793","network:wikipedia":"ko:경기도의 시내버스"},"12323677":{"to":"초이농협","ref":"6-1","from":"한솔리치빌2.3단지","name":"하남 버스 6-1: 한솔리치빌2.3단지 → 초이농협","type":"route","route":"bus","colour":"#f99d1c","network":"경기도 시내버스","operator":"오륜운수","network:en":"G-BUS","network:ko":"경기도 시내버스","network:wikidata":"Q4859793","network:wikipedia":"ko:경기도의 시내버스"},"12323920":{"to":"둔촌동역","ref":"7","from":"감북동행정복지센터","name":"하남 버스 7: 감북동행정복지센터 → 둔촌동역","type":"route","route":"bus","colour":"#f99d1c","network":"경기도 시내버스","operator":"오륜운수","network:en":"G-BUS","network:ko":"경기도 시내버스","network:wikidata":"Q4859793"},"12323921":{"to":"감북동행정복지센터","ref":"7","from":"둔촌동역3번출구","name":"하남 버스 7: 둔촌동역3번출구 → 감북동행정복지센터","type":"route","route":"bus","colour":"#f99d1c","network":"경기도 시내버스","operator":"오륜운수","network:en":"G-BUS","network:ko":"경기도 시내버스","network:wikidata":"Q4859793"},"12324525":{"to":"둔촌동역3번출구","ref":"8","from":"감일교차로","name":"하남 버스 8: 감일교차로 → 둔촌동역3번출구","type":"route","route":"bus","colour":"#f99d1c","network":"경기도 시내버스","operator":"오륜운수","network:en":"G-BUS","network:ko":"경기도 시내버스","network:wikidata":"Q4859793"},"12324526":{"to":"감일교차로","ref":"8","from":"둔촌동역3번출구","name":"하남 버스 8: 둔촌동역3번출구 → 감일교차로","type":"route","route":"bus","colour":"#f99d1c","network":"경기도 시내버스","operator":"오륜운수","network:en":"G-BUS","network:ko":"경기도 시내버스","network:wikidata":"Q4859793"},"12324692":{"to":"광암정수장앞","ref":"9","from":"초이농협","name":"하남 버스 9: 초이농협 → 광암정수장앞","type":"route","route":"bus","colour":"#f99d1c","network":"경기도 시내버스","operator":"오륜운수","network:en":"G-BUS","network:ko":"경기도 시내버스","network:wikidata":"Q4859793","network:wikipedia":"ko:경기도의 시내버스"},"12324693":{"to":"초이농협","ref":"9","from":"광암정수장앞","name":"하남 버스 9: 광암정수장앞 → 초이농협","type":"route","route":"bus","colour":"#f99d1c","network":"경기도 시내버스","operator":"오륜운수","network:en":"G-BUS","network:ko":"경기도 시내버스","network:wikidata":"Q4859793","network:wikipedia":"ko:경기도의 시내버스"},"12324879":{"to":"미사강변호반써밋","ref":"10","from":"하남BRT환승센터","name":"하남 버스 10: 하남BRT환승센터 → 미사강변호반써밋","type":"route","route":"bus","colour":"#f99d1c","network":"경기도 시내버스","operator":"은방울교통","network:en":"G-BUS","network:ko":"경기도 시내버스","network:wikidata":"Q4859793"},"12324880":{"to":"BRT환승센터.검단산입구","ref":"10","from":"미사강변호반써밋","name":"하남 버스 10: 미사강변호반써밋 → BRT환승센터.검단산입구","type":"route","route":"bus","colour":"#f99d1c","network":"경기도 시내버스","operator":"은방울교통","network:en":"G-BUS","network:ko":"경기도 시내버스","network:wikidata":"Q4859793","network:wikipedia":"ko:경기도의 시내버스"},"12325010":{"to":"꽃뫼마을2단지","ref":"20","from":"골말","name":"하남 버스 20: 골말 → 꽃뫼마을2단지","type":"route","route":"bus","colour":"#f99d1c","network":"경기도 시내버스","operator":"하남마을버스","network:en":"G-BUS","network:ko":"경기도 시내버스"},"12325011":{"to":"골말","ref":"20","from":"꽃뫼마을2단지","name":"하남 버스 20: 꽃뫼마을2단지 → 골말","type":"route","route":"bus","colour":"#f99d1c","network":"경기도 시내버스","operator":"하남마을버스","network:en":"G-BUS","network:ko":"경기도 시내버스"},"12327205":{"to":"스타필드하남주차장","ref":"22","from":"한솔리치빌2.3단지","name":"하남 버스 22: 한솔리치빌2.3단지 → 스타필드하남주차장","type":"route","route":"bus","colour":"#f99d1c","network":"경기도 시내버스","operator":"하남마을버스","network:en":"G-BUS","network:ko":"경기도 시내버스"},"12327206":{"to":"한솔리치빌2.3단지","ref":"22","from":"스타필드하남주차장","name":"하남 버스 22: 스타필드하남주차장 → 한솔리치빌2.3단지","type":"route","route":"bus","colour":"#f99d1c","network":"경기도 시내버스","operator":"하남마을버스","network:en":"G-BUS","network:ko":"경기도 시내버스","network:wikidata":"Q4859793","network:wikipedia":"ko:경기도의 시내버스"},"12328352":{"to":"팔당역","ref":"50","from":"은가람중학교.리버스위트칸타빌","name":"하남 버스 50: 은가람중학교.리버스위트칸타빌 → 팔당역","type":"route","route":"bus","colour":"#f99d1c","network":"경기도 시내버스","operator":"삼성교통","network:en":"G-BUS","network:ko":"경기도 시내버스","network:wikidata":"Q4859793","network:wikipedia":"ko:경기도의 시내버스"},"12328353":{"to":"은가람중학교.리버스위트칸타빌","ref":"50","from":"팔당역","name":"하남 버스 50: 팔당역 → 은가람중학교.리버스위트칸타빌","type":"route","route":"bus","colour":"#f99d1c","network":"경기도 시내버스","operator":"삼성교통","network:en":"G-BUS","network:ko":"경기도 시내버스","network:wikidata":"Q4859793","network:wikipedia":"ko:경기도의 시내버스"},"12328506":{"to":"스타필드하남","ref":"100","from":"법화골","name":"하남 버스 100: 법화골 → 스타필드하남","type":"route","route":"bus","colour":"#f99d1c","network":"경기도 시내버스","operator":"은방울교통","network:en":"G-BUS","network:ko":"경기도 시내버스"},"12328507":{"to":"법화골","ref":"100","from":"스타필드하남","name":"하남 버스 100: 스타필드하남 → 법화골","type":"route","route":"bus","colour":"#f99d1c","network":"경기도 시내버스","operator":"은방울교통","network:en":"G-BUS","network:ko":"경기도 시내버스"},"12329230":{"to":"남한산성입구.양지파출소","ref":"30","from":"상산곡동.공영차고지","name":"하남 버스 30: 상산곡동.공영차고지 → 남한산성입구.양지파출소","type":"route","route":"bus","colour":"#33cc99","network":"경기도 시내버스","operator":"경기상운","network:en":"G-BUS","network:ko":"경기도 시내버스","network:wikidata":"Q4859793","network:wikipedia":"ko:경기도의 시내버스"},"12329677":{"to":"상산곡동.공영차고지","ref":"30","from":"남한산성입구.양지파출소","name":"하남 버스 30: 남한산성입구.양지파출소 → 상산곡동.공영차고지","type":"route","route":"bus","colour":"#33cc99","network":"경기도 시내버스","operator":"경기상운","network:en":"G-BUS","network:ko":"경기도 시내버스","network:wikidata":"Q4859793","network:wikipedia":"ko:경기도의 시내버스"},"12331968":{"to":"강변역.테크노마트","ref":"강동01","from":"길동신동아아파트","name":"서울 버스 강동01: 길동신동아아파트 → 강변역.테크노마트앞","type":"route","route":"bus","colour":"#5bb025","network":"서울특별시 마을버스","operator":"신명운수"},"12332737":{"to":"길동신동아아파트","ref":"강동01","from":"강변역.테크노마트앞","name":"하남 버스 강동01: 강변역.테크노마트앞 → 길동신동아아파트","type":"route","route":"bus","colour":"#5bb025","network":"서울특별시 마을버스","operator":"신명운수"},"12333979":{"to":"목동우성아파트, 양천공영차고지","ref":"6617","from":"양천공영차고지","name":"서울 버스 6617","type":"route","route":"bus"},"12336782":{"to":"잠실역8번출구","ref":"30-3","from":"상산곡동.공영차고지","name":"하남 버스 30-3: 상산곡동.공영차고지 → 잠실역8번출구","type":"route","route":"bus","colour":"#33cc99","network":"경기도 시내버스","operator":"경기상운","network:en":"G-BUS","network:ko":"경기도 시내버스","network:wikidata":"Q4859793","network:wikipedia":"ko:경기도의 시내버스"},"12336783":{"to":"상산곡동.공영차고지","ref":"30-3","from":"잠실역8번출구","name":"하남 버스 30-3: 잠실역8번출구 → 상산곡동.공영차고지","type":"route","route":"bus","colour":"#33cc99","network":"경기도 시내버스","operator":"경기상운","network:en":"G-BUS","network:ko":"경기도 시내버스","network:wikidata":"Q4859793","network:wikipedia":"ko:경기도의 시내버스"},"12337480":{"to":"잠실역8번출구","ref":"30-5","from":"하남BRT환승센터","name":"하남 버스 30-5: 하남BRT환승센터 → 잠실역8번출구","type":"route","route":"bus","colour":"#33cc99","network":"경기도 시내버스","operator":"경기상운","network:en":"G-BUS","network:ko":"경기도 시내버스","network:wikidata":"Q4859793","network:wikipedia":"ko:경기도의 시내버스"},"12337481":{"to":"BRT환승센터.검단산입구","ref":"30-5","from":"잠실역8번출구","name":"하남 버스 30-5: 잠실역8번출구 → BRT환승센터.검단산입구","type":"route","route":"bus","colour":"#33cc99","network":"경기도 시내버스","operator":"경기상운","network:en":"G-BUS","network:ko":"경기도 시내버스","network:wikidata":"Q4859793","network:wikipedia":"ko:경기도의 시내버스"},"12337785":{"to":"잠실광역환승센터","ref":"31","from":"감일스윗시티1단지.단독주택1단지","name":"하남 버스 31: 감일스윗시티1단지.단독주택1단지 → 잠실광역환승센터","type":"route","route":"bus","colour":"#33cc99","network":"경기도 시내버스","operator":"경기상운","network:en":"G-BUS","network:ko":"경기도 시내버스","network:wikidata":"Q4859793","network:wikipedia":"ko:경기도의 시내버스"},"12337786":{"to":"감일스윗시티1단지.단독주택1단지","ref":"31","from":"잠실광역환승센터","name":"하남 버스 31: 잠실광역환승센터 → 감일스윗시티1단지.단독주택1단지","type":"route","route":"bus","colour":"#33cc99","network":"경기도 시내버스","operator":"경기상운","network:en":"G-BUS","network:ko":"경기도 시내버스","network:wikidata":"Q4859793","network:wikipedia":"ko:경기도의 시내버스"},"12338892":{"to":"잠실역8번출구","ref":"35","from":"감일교차로","name":"하남 버스 35: 감일교차로 → 잠실역8번출구","type":"route","route":"bus","colour":"#33cc99","network":"경기도 시내버스","operator":"경기상운","network:en":"G-BUS","network:ko":"경기도 시내버스","network:wikidata":"Q4859793","network:wikipedia":"ko:경기도의 시내버스"},"12338893":{"to":"감일교차로","ref":"35","from":"잠실역8번출구","name":"하남 버스 35: 잠실역8번출구 → 감일교차로","type":"route","route":"bus","colour":"#33cc99","network":"경기도 시내버스","operator":"경기상운","network:en":"G-BUS","network:ko":"경기도 시내버스","network:wikidata":"Q4859793","network:wikipedia":"ko:경기도의 시내버스"},"12339122":{"to":"복정역환승센터1번승강장","ref":"38","from":"하남BRT환승센터","name":"하남 버스 38: 하남BRT환승센터 → 복정역환승센터1번승강장","type":"route","route":"bus","colour":"#33cc99","network":"경기도 시내버스","operator":"경기상운","network:en":"G-BUS","network:ko":"경기도 시내버스","network:wikidata":"Q4859793","network:wikipedia":"ko:경기도의 시내버스"},"12339123":{"to":"BRT환승센터.검단산입구","ref":"38","from":"복정역환승센터1번승강장","name":"하남 버스 38: 복정역환승센터1번승강장 → BRT환승센터.검단산입구","type":"route","route":"bus","colour":"#33cc99","network":"경기도 시내버스","operator":"경기상운","network:en":"G-BUS","network:ko":"경기도 시내버스","network:wikidata":"Q4859793","network:wikipedia":"ko:경기도의 시내버스"},"12341097":{"to":"강동경희대병원.명일동이마트","ref":"81","from":"하남BRT환승센터","name":"하남 버스 81: 하남BRT환승센터 → 강동경희대병원.명일동이마트","type":"route","route":"bus","colour":"#33cc99","network":"경기도 시내버스","operator":"경기상운","network:en":"G-BUS","network:ko":"경기도 시내버스","network:wikidata":"Q4859793","network:wikipedia":"ko:경기도의 시내버스"},"12341098":{"to":"BRT환승센터.검단산입구","ref":"81","from":"강동경희대병원.명일동이마트","name":"하남 버스 81: 강동경희대병원.명일동이마트 → BRT환승센터.검단산입구","type":"route","route":"bus","colour":"#33cc99","network":"경기도 시내버스","operator":"경기상운","network:en":"G-BUS","network:ko":"경기도 시내버스","network:wikidata":"Q4859793","network:wikipedia":"ko:경기도의 시내버스"},"12342099":{"to":"은가람중학교.리버스위트칸타빌","ref":"83","from":"하남BRT환승센터","name":"하남 버스 83: 하남BRT환승센터 → 은가람중학교.리버스위트칸타빌","type":"route","route":"bus","colour":"#33cc99","network":"경기도 시내버스","operator":"경기상운","network:en":"G-BUS","network:ko":"경기도 시내버스","network:wikidata":"Q4859793","network:wikipedia":"ko:경기도의 시내버스"},"12342100":{"to":"BRT환승센터.검단산입구","ref":"83","from":"은가람중학교.리버스위트칸타빌","name":"하남 버스 83: 은가람중학교.리버스위트칸타빌 → BRT환승센터.검단산입구","type":"route","route":"bus","colour":"#33cc99","network":"경기도 시내버스","operator":"경기상운","network:en":"G-BUS","network:ko":"경기도 시내버스","network:wikidata":"Q4859793","network:wikipedia":"ko:경기도의 시내버스"},"12343695":{"to":"고속철도수서역","ref":"87","from":"하남BRT환승센터","name":"하남 버스 87: 하남BRT환승센터 → 고속철도수서역","type":"route","route":"bus","colour":"#33cc99","network":"경기도 시내버스","operator":"경기상운","network:en":"G-BUS","network:ko":"경기도 시내버스","network:wikidata":"Q4859793","network:wikipedia":"ko:경기도의 시내버스"},"12343696":{"to":"BRT환승센터.검단산입구","ref":"87","from":"고속철도수서역","name":"하남 버스 87: 고속철도수서역 → BRT환승센터.검단산입구","type":"route","route":"bus","colour":"#33cc99","network":"경기도 시내버스","operator":"경기상운","network:en":"G-BUS","network:ko":"경기도 시내버스","network:wikidata":"Q4859793","network:wikipedia":"ko:경기도의 시내버스"},"12344201":{"to":"오금역2번출구","ref":"89","from":"미사강변호반써밋","name":"하남 버스 89: 미사강변호반써밋 → 오금역2번출구","type":"route","route":"bus","colour":"#33cc99","network":"경기도 시내버스","operator":"경기상운","network:en":"G-BUS","network:ko":"경기도 시내버스","network:wikidata":"Q4859793","network:wikipedia":"ko:경기도의 시내버스"},"12344671":{"to":"한강유역환경청.미사고등학교","ref":"89","from":"오금역2번출구","name":"하남 버스 89: 오금역2번출구 → 한강유역환경청.미사고등학교","type":"route","route":"bus","colour":"#33cc99","network":"경기도 시내버스","operator":"경기상운","network:en":"G-BUS","network:ko":"경기도 시내버스","network:wikidata":"Q4859793","network:wikipedia":"ko:경기도의 시내버스"},"12344871":{"to":"서울아산병원앞","ref":"112-5","from":"미사경정공원관람동","name":"하남 버스 112-5: 미사경정공원관람동 → 서울아산병원앞","type":"route","route":"bus","colour":"#33cc99","network":"경기도 시내버스","operator":"경기상운","network:en":"G-BUS","network:ko":"경기도 시내버스","network:wikidata":"Q4859793","network:wikipedia":"ko:경기도의 시내버스"},"12344872":{"to":"미사경정공원관람동","ref":"112-5","from":"서울아산병원앞","name":"하남 버스 112-5: 서울아산병원앞 → 미사경정공원관람동","type":"route","route":"bus","colour":"#33cc99","network":"경기도 시내버스","operator":"경기상운","network:en":"G-BUS","network:ko":"경기도 시내버스","network:wikidata":"Q4859793","network:wikipedia":"ko:경기도의 시내버스"},"12350543":{"ref":"09B","name":"의왕 마을버스 09: 한국철도기술연구원 → 강진마을 → 초평동","type":"route","route":"bus","public_transport:version":"2"},"12350544":{"ref":"09A","name":"의왕 마을버스 09: 초평동 → 한국철도기술연구원","type":"route","route":"bus","public_transport:version":"2"},"12350545":{"ref":"09A","name":"의왕 마을버스 09: 한국철도기술연구원 → 초평동","type":"route","route":"bus","public_transport:version":"2"},"12361196":{"ref":"08","name":"의왕 버스 08 → 오봉산마을","type":"route","route":"bus","public_transport:version":"2"},"12361197":{"ref":"08","name":"의왕 버스 08 → 오전동주민센터","type":"route","route":"bus","public_transport:version":"2"},"12397681":{"ref":"835","name":"청주 시내버스 835","type":"route","route":"bus","name:en":"Cheongju Bus 835","name:ko":"청주 시내버스 835"},"12411386":{"to":"경남아너스빌","ref":"33-4","from":"경기광주역","name":"광주 버스 33-4: 경기광주역 → 경남아너스빌","type":"route","route":"bus","colour":"#33cc99","network":"경기도 시내버스","operator":"경기고속","network:en":"G-BUS","network:ko":"경기도 시내버스","network:wikidata":"Q4859793","network:wikipedia":"ko:경기도의 시내버스"},"12411387":{"to":"경기광주역","ref":"33-4","from":"경남아너스빌","name":"광주 버스 33-4: 경남아너스빌 → 경기광주역","type":"route","route":"bus","colour":"#33cc99","network":"경기도 시내버스","operator":"경기고속","network:en":"G-BUS","network:ko":"경기도 시내버스","network:wikidata":"Q4859793","network:wikipedia":"ko:경기도의 시내버스"},"12411562":{"to":"광남중학교.광남고등학교.청소년수련관.태전지웰","ref":"33-7","from":"경기광주역","name":"광주 버스 33-7: 경기광주역 → 광남중학교.광남고등학교.청소년수련관.태전지웰","type":"route","route":"bus","network":"경기도 시내버스","operator":"경기고속","network:en":"G-BUS","network:ko":"경기도 시내버스","network:wikidata":"Q4859793","network:wikipedia":"ko:경기도의 시내버스"},"12411563":{"to":"경기광주역","ref":"33-7","from":"광남중학교.광남고등학교.청소년수련관.태전지웰","name":"광주 버스 33-7: 광남중학교.광남고등학교.청소년수련관.태전지웰 → 경기광주역","type":"route","route":"bus","colour":"#33cc99","network":"경기도 시내버스","operator":"경기고속","network:en":"G-BUS","network:ko":"경기도 시내버스","network:wikidata":"Q4859793","network:wikipedia":"ko:경기도의 시내버스"},"12412759":{"to":"가운고등학교","ref":"38","from":"자족용지","name":"남양주 버스 38","type":"route","route":"bus","network":"경기도 시내버스","operator":"대원운수","network:en":"G-BUS","network:ko":"경기도 시내버스","network:wikidata":"Q4859793"},"12412812":{"to":"금곡동구종점","ref":"땡큐10","from":"다산차고지","name":"남양주 버스 땡큐10","type":"route","route":"bus","network":"경기도 시내버스","operator":"대원운수","network:en":"G-BUS","network:ko":"경기도 시내버스","network:wikidata":"Q4859793"},"12412903":{"to":"55번종점","ref":"55","from":"사능차고지","name":"남양주 버스 55","type":"route","route":"bus","network":"경기도 시내버스","operator":"대원운수","network:en":"G-BUS","network:ko":"경기도 시내버스","network:wikidata":"Q4859793","network:wikipedia":"ko:경기도의 시내버스"},"12412962":{"to":"잠실광역환승센터","ref":"8002","from":"대성리차고지","name":"남양주 버스 8002","type":"route","route":"bus","network":"경기도 시내버스","operator":"대원운수","not:network:wikidata":"Q4859793"},"12413038":{"to":"석계역1번출구A","ref":"76","from":"수택동차고지","name":"남양주 버스 76","type":"route","route":"bus","network":"경기도 시내버스","operator":"대원운수","network:en":"G-BUS","network:ko":"경기도 시내버스","network:wikidata":"Q4859793","network:wikipedia":"ko:경기도의 시내버스"},"12413106":{"to":"석계역1번출구 a","ref":"1156","from":"퇴계원읍사무소","name":"서울 지선버스 1156","type":"route","route":"bus","network":"서울특별시 지선버스","operator":"태릉교통"},"12415274":{"to":"곤지암읍사무소","ref":"39-1","from":"동원대학교","name":"광주 버스 39-1: 동원대학교 → 곤지암읍사무소","type":"route","route":"bus","colour":"#33cc99","network":"경기도 시내버스","operator":"경기고속","network:en":"G-BUS","network:ko":"경기도 시내버스","network:wikidata":"Q4859793","network:wikipedia":"ko:경기도의 시내버스"},"12415275":{"to":"동원대학교","ref":"39-1","from":"곤지암읍사무소","name":"광주 버스 39-1: 곤지암읍사무소 → 동원대학교","type":"route","route":"bus","colour":"#33cc99","network":"경기도 시내버스","operator":"경기고속","network:en":"G-BUS","network:ko":"경기도 시내버스","network:wikidata":"Q4859793","network:wikipedia":"ko:경기도의 시내버스"},"12416577":{"to":"신대리입구","ref":"39-2","from":"곤지암터미널","name":"광주 버스 39-2: 곤지암터미널 → 신대리입구","type":"route","route":"bus","colour":"#33cc99","network":"경기도 시내버스","operator":"경기고속","network:en":"G-BUS","network:ko":"경기도 시내버스","network:wikidata":"Q4859793","network:wikipedia":"ko:경기도의 시내버스"},"12416578":{"to":"곤지암터미널","ref":"39-2","from":"신대리입구","name":"광주 버스 39-2: 신대리입구 → 곤지암터미널","type":"route","route":"bus","colour":"#33cc99","network":"경기도 시내버스","operator":"경기고속","network:en":"G-BUS","network:ko":"경기도 시내버스","network:wikidata":"Q4859793","network:wikipedia":"ko:경기도의 시내버스"},"12423367":{"to":"목동7단지","ref":"6637","from":"노온사동","name":"서울 버스 6637","type":"route","route":"bus","operator":"범일운수"},"12424610":{"to":"개봉역","ref":"1","from":"거모동","name":"광명 버스 1","type":"route","route":"bus","operator":"화영운수"},"12425871":{"to":"안양역","ref":"2","from":"은계아란트리","name":"광명 버스 2","type":"route","route":"bus","operator":"화영운수"},"12428819":{"to":"안양역","ref":"11","from":"광명돔경륜장","name":"광명 버스 11","type":"route","route":"bus","operator":"화영운수"},"12428835":{"to":"여의도환승센터","ref":"11-1","from":"중앙하이츠","name":"광명 버스 11-1","type":"route","route":"bus","operator":"화영운수"},"12433106":{"to":"여의도환승센터","ref":"11-2","from":"소하동광명동굴입구","name":"광명 버스 11-2","type":"route","route":"bus","operator":"화영운수"},"12433193":{"to":"KTX광명역","ref":"11-3","from":"마린월드","name":"광명 버스 11-3","type":"route","route":"bus","operator":"화영운수"},"12436503":{"to":"개봉역","ref":"17","from":"광명종합터미널","name":"광명 버스 17","type":"route","route":"bus","operator":"화영운수"},"12436596":{"to":"안양역","ref":"12","from":"중앙하이츠","name":"광명 버스 12","type":"route","route":"bus","operator":"화영운수"},"12437998":{"to":"개봉역","ref":"39","from":"시흥경찰서","name":"광명 버스 39","type":"route","route":"bus","operator":"화영운수"},"12446525":{"to":"다사","ref":"급행1","from":"동화사","name":"대구 버스 급행1","type":"route","route":"bus","operator":"세진교통/우진교통/우진교통"},"12468598":{"name":"서울 버스 6624","type":"route","route":"bus","operator":"(주)중부운수"},"12469296":{"to":"학정동","ref":"급행2","from":"대일리","name":"대구 버스 급행2","type":"route","route":"bus","operator":"성보교통/영진교통"},"12513862":{"ref":"511","name":"대전 시내버스 511","type":"route","route":"bus","name:en":"Daejeon Bus 511","name:ko":"대전 시내버스 511"},"12513863":{"ref":"711","name":"대전 시내버스 711","type":"route","route":"bus","name:en":"Daejeon Bus 711","name:ko":"대전 시내버스 711"},"12513864":{"ref":"703","name":"대전 시내버스 703","type":"route","route":"bus","name:en":"Daejeon Bus 703","name:ko":"대전 시내버스 703"},"12513865":{"ref":"706","name":"대전 시내버스 706","type":"route","route":"bus","name:en":"Daejeon Bus 706","name:ko":"대전 시내버스 706"},"12513866":{"ref":"606","name":"대전 시내버스 606","type":"route","route":"bus","name:en":"Daejeon Bus 606","name:ko":"대전 시내버스 606"},"12514890":{"ref":"103","name":"대전 시내버스 103","type":"route","route":"bus","name:en":"Daejeon Bus 103","name:ko":"대전 시내버스 103"},"12514891":{"ref":"104","name":"대전 시내버스 104","type":"route","route":"bus","name:en":"Daejeon Bus 104","name:ko":"대전 시내버스 104"},"12514892":{"ref":"107","name":"대전 시내버스 107","type":"route","route":"bus","name:en":"Daejeon Bus 107","name:ko":"대전 시내버스 107"},"12517960":{"ref":"101","name":"대전 시내버스 101","type":"route","route":"bus","name:en":"Daejeon Bus 101","name:ko":"대전 시내버스 101"},"12520196":{"ref":"201","name":"대전 시내버스 201","type":"route","route":"bus","name:en":"Daejeon Bus 201","name:ko":"대전 시내버스 201"},"12520197":{"ref":"203","name":"대전 시내버스 203","type":"route","route":"bus","name:en":"Daejeon Bus 203","name:ko":"대전 시내버스 203"},"12520198":{"ref":"701","name":"대전 시내버스 701","type":"route","route":"bus","name:en":"Daejeon Bus 701","name:ko":"대전 시내버스 701"},"12520391":{"ref":"1-3","name":"안성 시내버스 1-3","type":"route","route":"bus","name:en":"Anseong Bus 1-3","name:ko":"안성 시내버스 1-3"},"12535672":{"ref":"211","name":"청주 시내버스 211","type":"route","route":"bus","name:en":"Cheongju Bus 211","name:ko":"청주 시내버스 211"},"12535673":{"ref":"216-1","name":"청주 시내버스 216-1","type":"route","route":"bus","name:en":"Cheongju Bus 216-1","name:ko":"청주 시내버스 216-1"},"12535674":{"ref":"512","name":"청주 시내버스 512","type":"route","route":"bus","name:en":"Cheongju Bus 512","name:ko":"청주 시내버스 512"},"12535675":{"ref":"101","name":"청주 시내버스 101","type":"route","route":"bus","name:en":"Cheongju Bus 101","name:ko":"청주 시내버스 101"},"12535676":{"ref":"115","name":"청주 시내버스 115","type":"route","route":"bus","name:en":"Cheongju Bus 115","name:ko":"청주 시내버스 115"},"12535720":{"ref":"525","name":"청주 시내버스 525","type":"route","route":"bus","name:en":"Cheongju Bus 525","name:ko":"청주 시내버스 525"},"12537183":{"ref":"510","name":"아산 시내버스 510","type":"route","route":"bus","name:en":"Asan Bus 510","name:ko":"아산 시내버스 510"},"12537184":{"ref":"512","name":"아산 시내버스 512","type":"route","route":"bus","name:en":"Asan Bus 512","name:ko":"아산 시내버스 512"},"12537185":{"ref":"300","name":"아산 시내버스 300","type":"route","route":"bus","name:en":"Asan Bus 300","name:ko":"아산 시내버스 300"},"12537186":{"ref":"400","name":"아산 시내버스 400","type":"route","route":"bus","name:en":"Asan Bus 400","name:ko":"아산 시내버스 400"},"12537187":{"ref":"430","name":"아산 시내버스 430","type":"route","route":"bus","name:en":"Asan Bus 430","name:ko":"아산 시내버스 430"},"12537188":{"ref":"120","name":"아산 시내버스 120","type":"route","route":"bus","name:en":"Asan Bus 120","name:ko":"아산 시내버스 120"},"12537189":{"ref":"980","name":"아산 시내버스 980","type":"route","route":"bus","name:en":"Asan Bus 980","name:ko":"아산 시내버스 980"},"12537721":{"ref":"200","name":"천안 시내버스 200","type":"route","route":"bus","name:en":"Cheonan Bus 200","name:ko":"천안 시내버스 200"},"12537722":{"ref":"620","name":"천안 시내버스 620","type":"route","route":"bus","name:en":"Cheonan Bus 620","name:ko":"천안 시내버스 620"},"12537723":{"ref":"720","name":"천안 시내버스 720","type":"route","route":"bus","name:en":"Cheonan Bus 720","name:ko":"천안 시내버스 720"},"12537724":{"ref":"730","name":"천안 시내버스 730","type":"route","route":"bus","name:en":"Cheonan Bus 730","name:ko":"천안 시내버스 730"},"12568837":{"to":"The Academy of Korean Studies","ref":"220","from":"Sagimakgol","name":"220","type":"route","route":"bus","network":"경기도 시내버스","distance":"52.5","interval":"5~13min(Mon-Fri), 8~18min(Sat-Sun)","operator":"성남시내버스","network:en":"G-BUS","network:ko":"경기도 시내버스","network:wikidata":"Q4859793","network:wikipedia":"ko:경기도의 시내버스"},"12699313":{"to":"경희대입구","ref":"동대문01","from":"경희대의료원","name":"서울 버스 동대문01: 경희대의료원 → 경희대입구","type":"route","route":"bus","colour":"#5bb025","network":"동대문구 마을버스","operator":"우리운송"},"12699315":{"to":"외대앞역","ref":"동대문02","from":"회기역","name":"서울 버스 동대문02: 회기역  → 외대앞역","type":"route","route":"bus","colour":"#5bb025","network":"동대문구 마을버스","operator":"우리운송"},"12699316":{"to":"동안교회","ref":"동대문02","from":"외대앞역","name":"서울 버스 동대문02: 외대앞역 → 동안교회","type":"route","route":"bus","colour":"#5bb025","network":"동대문구 마을버스","operator":"우리운송"},"12701408":{"to":"죽전역","ref":"1","from":"성복효성해링턴코트","name":"용인 마을버스 1","type":"route","route":"bus","name:en":"Town Bus 1","network":"G-Bus","operator":"상현운수"},"12701514":{"to":"성복역,데이파크","ref":"88A","from":"성복역,데이파크","name":"용인 마을버스 88A","type":"route","route":"bus","network":"G-Bus","operator":"수성교통"},"12701524":{"to":"태영아파트","ref":"88B","from":"태영아파트","name":"용인 마을버스 88B","type":"route","route":"bus","network":"G-Bus","operator":"상현운수"},"12701558":{"ref":"88C","name":"용인 마을버스 88C","type":"route","route":"bus","network":"경기도 시내버스","operator":"상현운수","network:en":"G-BUS","network:ko":"경기도 시내버스","network:wikidata":"Q4859793"},"12701595":{"to":"죽전역.신세계백화점","ref":"1-1","from":"광교웰빙타운","name":"용인 마을버스 1-1","type":"route","route":"bus","network":"경기도 시내버스","operator":"상현운수","network:en":"G-BUS","network:ko":"경기도 시내버스","network:wikidata":"Q4859793","network:wikipedia":"ko:경기도의 시내버스"},"12704814":{"to":"죽전역.신세계백화점","ref":"2-1","from":"상현LG자이아파트","name":"용인 마을버스 2-1","type":"route","route":"bus","network":"G-Bus","operator":"상현운수"},"12710258":{"to":"미금역.2001아울렛","ref":"5","from":"상현지구대.금호5단지","name":"용인 마을버스 5(상현운수)","type":"route","route":"bus","network":"G-Bus","operator":"상현운수"},"12710282":{"to":"수지구청역","ref":"5-1","from":"머내기업은행","name":"용인 마을버스 5-1","type":"route","route":"bus","network":"G-Bus","operator":"상현운수"},"12710298":{"to":"죽전역.신세계백화점","ref":"11","from":"미금역.2001아울렛","name":"용인 마을버스 11","type":"route","route":"bus","network":"G-Bus","operator":"수성교통"},"12710355":{"to":"미금역.2001아울렛","ref":"14","from":"관음사","name":"용인 마을버스 14","type":"route","route":"bus","network":"경기도 시내버스","operator":"수성교통","network:en":"G-BUS","network:ko":"경기도 시내버스","network:wikidata":"Q4859793"},"12710356":{"to":"죽존역.신세계백화점","ref":"14-1","from":"관음사","name":"용인 마을버스 14-1","type":"route","route":"bus","network":"경기도 시내버스","operator":"수성교통","network:en":"G-BUS","network:ko":"경기도 시내버스","network:wikidata":"Q4859793"},"12710357":{"to":"라크포레빌","ref":"14-3","from":"광교산체육공원","name":"용인 마을버스 14-3","type":"route","route":"bus","network":"경기도 시내버스","operator":"수성교통","network:en":"G-BUS","network:ko":"경기도 시내버스","network:wikidata":"Q4859793"},"12710358":{"to":"동천동","ref":"14-4","from":"동천자이","name":"용인 마을버스 14-4","type":"route","route":"bus","network":"G-Bus","operator":"수성교통"},"12710725":{"to":"미금역.2001아울렛","ref":"15","from":"성복효성해링턴코트","name":"용인 마을버스 15","type":"route","route":"bus","network":"경기도 시내버스","operator":"수성교통","network:en":"G-BUS","network:ko":"경기도 시내버스","network:wikidata":"Q4859793"},"12710726":{"to":"죽전역.신세계백화점","ref":"15-2","from":"신봉동.광교산입구등산로","name":"용인 마을버스 15-2","type":"route","route":"bus","network":"경기도 시내버스","operator":"수성교통","network:en":"G-BUS","network:ko":"경기도 시내버스","network:wikidata":"Q4859793"},"12710727":{"to":"수지구청역","ref":"15-3","from":"벽산블루밍아파트","name":"용인 마을버스 15-3","type":"route","route":"bus","network":"G-Bus","operator":"수성교통"},"12710781":{"to":"죽전자이2차.용인서부경찰서","ref":"15-4","from":"죽전자이2차.용인서부경찰서","name":"용인 마을버스 15-4","type":"route","route":"bus","network":"경기도 시내버스","operator":"수성교통","network:en":"G-BUS","network:ko":"경기도 시내버스","network:wikidata":"Q4859793","network:wikipedia":"ko:경기도의 시내버스"},"12710887":{"to":"미금역.2001아울렛","ref":"16","from":"성복효성해링턴코트","name":"용인 마을버스 16","type":"route","route":"bus","network":"G-Bus","operator":"상현운수"},"12713844":{"to":"성복역","ref":"15-5","from":"소말구리고개","name":"용인 마을버스 15-5","type":"route","route":"bus","network":"G-Bus","operator":"수성교통"},"12713845":{"to":"동천역","ref":"17","from":"미금역.2001아울렛","name":"용인 마을버스 17(수성교통)","type":"route","route":"bus","network":"G-Bus","operator":"수성교통"},"12713846":{"to":"죽전역.신세계백화점","ref":"17-1","from":"신봉센트레빌6단지","name":"용인 마을버스 17-1","type":"route","route":"bus","network":"경기도 시내버스","operator":"수성교통","network:en":"G-BUS","network:ko":"경기도 시내버스","network:wikidata":"Q4859793"},"12713861":{"to":"죽전역.신세계백화점","ref":"82","from":"성복효성해링턴코트","name":"용인 마을버스 82","type":"route","route":"bus","network":"G-Bus","operator":"상현운수"},"12713862":{"to":"죽전역.신세계백화점","ref":"82-1","from":"상현지구대.금호5단지","name":"용인 마을버스 82-1","type":"route","route":"bus","network":"G-Bus","operator":"상현운수"},"12713872":{"to":"상현역","ref":"99","from":"성복역","name":"용인 마을버스 99","type":"route","route":"bus","network":"G-Bus","operator":"상현운수"},"12764243":{"to":"가산동종점","ref":"5012","from":"가산동기점","name":"서울 지선버스 5012","type":"route","route":"bus","operator":"신인운수"},"12942360":{"to":"구미동","ref":"9408","from":"영등포","name":"9408 (구미동 방면)","type":"route","route":"bus","network":"서울특별시 광역버스","operator":"남성버스","public_transport:version":"1"},"12948881":{"to":"안양역","ref":"1303","from":"외국어대학교","name":"용인시 직행좌석버스 1303(안양역 방면)","type":"route","route":"bus","network":"용인시 직행좌석버스","operator":"경기고속","public_transport:version":"1"},"12948882":{"to":"안양역","ref":"3330","from":"도촌동9단지앞","name":"성남시 직행좌석버스 3330(안양역 방면)","type":"route","route":"bus","network":"성남시 직행좌석버스","operator":"대원버스","public_transport:version":"1"},"12948883":{"to":"사당역(중)","ref":"103","from":"도촌동9단지앞","name":"성남시 일반시내버스 103번(사당역 방면)","type":"route","route":"bus","network":"성남시 일반시내버스","operator":"대원버스","public_transport:version":"1"},"12954255":{"to":"단국대.치과병원","ref":"7007-1","from":"한국거래소","name":"용인시 직행좌석버스 7007-1(단국대 방면)","type":"route","route":"bus","network":"용인시 직행좌석버스","operator":"평택버스","public_transport:version":"1"},"13053819":{"to":"대동아파트","ref":"101","from":"노봉","name":"동해 버스 101","type":"route","route":"bus","operator":"동해상사"},"13098288":{"ref":"717","name":"청주 시내버스 717","type":"route","route":"bus","name:en":"Cheongju Bus 717","name:ko":"청주 시내버스 717"},"13098289":{"ref":"851","name":"청주 시내버스 851","type":"route","route":"bus","name:en":"Cheongju Bus 851","name:ko":"청주 시내버스 851"},"13098290":{"ref":"811-1","name":"청주 시내버스 811-1","type":"route","route":"bus","name:en":"Cheongju Bus 811-1","name:ko":"청주 시내버스 811-1"},"13098291":{"ref":"811-2","name":"청주 시내버스 811-2","type":"route","route":"bus","name:en":"Cheongju Bus 811-2","name:ko":"청주 시내버스 811-2"},"13098292":{"ref":"843","name":"청주 시내버스 843","type":"route","route":"bus","name:en":"Cheongju Bus 843","name:ko":"청주 시내버스 843"},"13098293":{"ref":"842-1","name":"청주 시내버스 842-1","type":"route","route":"bus","name:en":"Cheongju Bus 842-1","name:ko":"청주 시내버스 842-1"},"13098294":{"ref":"842-2","name":"청주 시내버스 842-2","type":"route","route":"bus","name:en":"Cheongju Bus 842-2","name:ko":"청주 시내버스 842-2"},"13107165":{"to":"보훈회관","ref":"3323","from":"강동공영차고지","name":"서울 버스 3323: 강동공영차고지 → 보훈회관","type":"route","route":"bus","colour":"#5bb025","network":"서울특별시 지선버스","operator":"대원여객"},"13107166":{"to":"강일리버파크6단지","ref":"3323","from":"보훈회관","name":"서울 버스 3323: 보훈회관 → 강일리버파크6단지","type":"route","route":"bus","colour":"#5bb025","network":"서울특별시 지선버스","operator":"대원여객"},"13111866":{"to":"삼거마을","ref":"2","from":"해룡대안","name":"2 (삼거동 방면)","type":"route","route":"bus","colour":"#923F73","operator":"동신교통"},"13111955":{"to":"금토천교","ref":"3000","from":"미사강변호반써밋","name":"하남 버스 3000: 미사강변호반써밋 → 금토천교","type":"route","route":"bus","colour":"#FF0000","network":"경기도 시내버스","operator":"경기상운","network:en":"G-BUS","network:ko":"경기도 시내버스","network:wikidata":"Q4859793","network:wikipedia":"ko:경기도의 시내버스"},"13112493":{"to":"해룡대안","ref":"2","from":"삼거마을","name":"2 (해룡대안 방면)","type":"route","route":"bus","colour":"#923F73","operator":"동신교통"},"13112649":{"to":"한강유역환경청.미사고등학교","ref":"3000","from":"금토천교","name":"하남 버스 3000: 금토천교 → 한강유역환경청.미사고등학교","type":"route","route":"bus","colour":"#FF0000","network":"경기도 시내버스","operator":"경기상운","network:en":"G-BUS","network:ko":"경기도 시내버스","network:wikidata":"Q4859793","network:wikipedia":"ko:경기도의 시내버스"},"13113607":{"to":"조곡동행정복지센터","ref":"5","from":"청암대학","name":"5 (조곡동행정복지센터 방면)","type":"route","route":"bus","colour":"#923F73","operator":"동신교통"},"13113608":{"to":"청암대학","ref":"5","from":"조곡동행정복지센터","name":"5 (청암대학 방면)","type":"route","route":"bus","colour":"#923F73","operator":"동신교통"},"13113674":{"to":"의료원로터리","ref":"2","from":"삼거마을","name":"2 (의료원로터리 방면)","type":"route","route":"bus","colour":"#923F73","operator":"동신교통"},"13113675":{"to":"석현저수지","ref":"14","from":"검단산성차고지","name":"14 (석현저수지(향림골노인정) 방면)","type":"route","route":"bus","colour":"#923F73","operator":"동신교통"},"13113676":{"to":"조비","ref":"14","from":"검단산성차고지","name":"14 (조비 방면)","type":"route","route":"bus","colour":"#923F73","operator":"동신교통"},"13113677":{"to":"검단산성차고지","ref":"14","from":"조비","name":"14 (검단산성 방면)","type":"route","route":"bus","colour":"#923F73","operator":"동신교통"},"13113678":{"to":"검단산성차고지","ref":"14","from":"석현저수지","name":"14 (검단산성 방면)","type":"route","route":"bus","colour":"#923F73","operator":"동신교통"},"13113949":{"to":"학동역","ref":"9202","from":"상산곡동.공영차고지","name":"하남 버스 9202: 상산곡동.공영차고지 → 학동역","type":"route","route":"bus","colour":"#ff0000","network":"경기도 시내버스","operator":"경기상운","network:en":"G-BUS","network:ko":"경기도 시내버스","network:wikidata":"Q4859793","network:wikipedia":"ko:경기도의 시내버스"},"13113950":{"to":"상산곡동.공영차고지","ref":"9202","from":"학동역","name":"하남 버스 9202: 학동역 → 상산곡동.공영차고지","type":"route","route":"bus","colour":"#ff0000","network":"경기도 시내버스","operator":"경기상운","network:en":"G-BUS","network:ko":"경기도 시내버스","network:wikidata":"Q4859793","network:wikipedia":"ko:경기도의 시내버스"},"13114084":{"to":"잠실광역환승센터","ref":"9302","from":"하남BRT환승센터","name":"하남 버스 9302: 하남BRT환승센터 → 잠실광역환승센터","type":"route","route":"bus","colour":"#ff0000","network":"경기도 시내버스","operator":"경기상운","network:en":"G-BUS","network:ko":"경기도 시내버스","network:wikidata":"Q4859793","network:wikipedia":"ko:경기도의 시내버스"},"13114085":{"to":"BRT환승센터.검단산입구","ref":"9302","from":"잠실광역환승센터","name":"하남 버스 9302: 잠실광역환승센터 → BRT환승센터.검단산입구","type":"route","route":"bus","colour":"#ff0000","network":"경기도 시내버스","operator":"경기상운","network:en":"G-BUS","network:ko":"경기도 시내버스","network:wikidata":"Q4859793","network:wikipedia":"ko:경기도의 시내버스"},"13114277":{"to":"잠실역","ref":"9303-1","from":"하남BRT환승센터","name":"하남 버스 9303-1: 하남BRT환승센터 → 잠실역","type":"route","route":"bus","colour":"#FF0000","network":"경기도 시내버스","operator":"경기상운","network:en":"G-BUS","network:ko":"경기도 시내버스","network:wikidata":"Q4859793","network:wikipedia":"ko:경기도의 시내버스"},"13114278":{"to":"BRT환승센터.검단산입구","ref":"9303-1","from":"잠실역","name":"하남 버스 9303-1: 잠실역 → BRT환승센터.검단산입구","type":"route","route":"bus","colour":"#FF0000","network":"경기도 시내버스","operator":"경기상운","network:en":"G-BUS","network:ko":"경기도 시내버스","network:wikidata":"Q4859793","network:wikipedia":"ko:경기도의 시내버스"},"13114603":{"to":"강남역.역삼세무서","ref":"9303","from":"하남BRT환승센터","name":"하남 버스 9303: 하남BRT환승센터 → 강남역.역삼세무서","type":"route","route":"bus","colour":"#FF0000","network":"경기도 시내버스","operator":"경기상운","network:en":"G-BUS","network:ko":"경기도 시내버스","network:wikidata":"Q4859793","network:wikipedia":"ko:경기도의 시내버스"},"13114604":{"to":"BRT환승센터.검단산입구","ref":"9303","from":"강남역.역삼세무서","name":"하남 버스 9303: 강남역.역삼세무서 → BRT환승센터.검단산입구","type":"route","route":"bus","colour":"#FF0000","network":"경기도 시내버스","operator":"경기상운","network:en":"G-BUS","network:ko":"경기도 시내버스","network:wikidata":"Q4859793","network:wikipedia":"ko:경기도의 시내버스"},"13114634":{"to":"테크노마트앞.강변역","ref":"9304","from":"하남BRT환승센터","name":"하남 버스 9304: 하남BRT환승센터 → 테크노마트앞.강변역","type":"route","route":"bus","colour":"#ff0000","network":"경기도 시내버스","operator":"경기상운","network:en":"G-BUS","network:ko":"경기도 시내버스","network:wikidata":"Q4859793","network:wikipedia":"ko:경기도의 시내버스"},"13114635":{"to":"BRT환승센터.검단산입구","ref":"9304","from":"테크노마트앞.강변역","name":"하남 버스 9304: 테크노마트앞.강변역 → BRT환승센터.검단산입구","type":"route","route":"bus","colour":"#FF0000","network":"경기도 시내버스","operator":"경기상운","network:en":"G-BUS","network:ko":"경기도 시내버스","network:wikidata":"Q4859793","network:wikipedia":"ko:경기도의 시내버스"},"13115884":{"to":"국민은행","ref":"20","from":"삼산중학교","name":"20 (국민은행 방면)","type":"route","route":"bus","colour":"#923F73","operator":"동신교통"},"13115885":{"to":"삼산중학교","ref":"20","from":"국민은행","name":"20 (삼산중학교 방면)","type":"route","route":"bus","colour":"#923F73","operator":"동신교통"},"13115886":{"to":"청암대학","ref":"52","from":"제일고","name":"52 (청암대학 방면)","type":"route","route":"bus","colour":"#923F73","operator":"순천교통"},"13115887":{"to":"제일고","ref":"52","from":"청암대학","name":"52 (제일고 방면)","type":"route","route":"bus","colour":"#923F73","operator":"순천교통"},"13115888":{"to":"순천역서측","ref":"55","from":"가곡신영아파트","name":"55 (순천역서측 방면)","type":"route","route":"bus","colour":"#923F73","operator":"동신교통"},"13115889":{"to":"삼거마을","ref":"55","from":"가곡신영아파트","name":"55 (삼거마을 방면)","type":"route","route":"bus","colour":"#923F73","operator":"동신교통"},"13115890":{"to":"가곡신영아파트","ref":"55","from":"순천역서측","name":"55 (가곡신영A 방면)","type":"route","route":"bus","colour":"#923F73","operator":"동신교통"},"13115891":{"to":"가곡신영아파트","ref":"55","from":"삼거마을","name":"55 (가곡신영A 방면)","type":"route","route":"bus","colour":"#923F73","operator":"동신교통"},"13116167":{"to":"조례대림아파트","ref":"59","from":"제일고","name":"59 (조례대림아파트 방면)","type":"route","route":"bus","operator":"순천교통"},"13116168":{"to":"조례대림아파트","ref":"59-1","from":"제일고","name":"59-1 (조례대림아파트 방면)","type":"route","route":"bus","operator":"순천교통"},"13116169":{"to":"제일고","ref":"59","from":"조례대림아파트","name":"59 (제일고 방면)","type":"route","route":"bus","operator":"순천교통"},"13116170":{"to":"제일고","ref":"59-1","from":"조례대림아파트","name":"59-1 (제일고 방면)","type":"route","route":"bus","operator":"순천교통"},"13117329":{"to":"하남BRT환승센터","ref":"38-52","from":"수청1리","name":"광주 버스 38-52: 수청1리 → 하남BRT환승센터","type":"route","route":"bus","colour":"#33CC99","network":"경기도 시내버스","operator":"경기고속","network:en":"G-BUS","network:ko":"경기도 시내버스","network:wikidata":"Q4859793","network:wikipedia":"ko:경기도의 시내버스"},"13117330":{"to":"수청1리","ref":"38-52","from":"하남BRT환승센터","name":"광주 버스 38-52: 하남BRT환승센터 → 수청1리","type":"route","route":"bus","colour":"#33CC99","network":"경기도 시내버스","operator":"경기고속","network:en":"G-BUS","network:ko":"경기도 시내버스","network:wikidata":"Q4859793","network:wikipedia":"ko:경기도의 시내버스"},"13120585":{"to":"드라마촬영장","ref":"71","from":"제일고","name":"71 (드라마촬영장 방면)","type":"route","route":"bus","operator":"순천교통"},"13120586":{"to":"드라마촬영장","ref":"71-1","from":"제일고","name":"71-1 (드라마촬영장 방면)","type":"route","route":"bus","operator":"순천교통"},"13120587":{"to":"제일고","ref":"71","from":"드라마촬영장","name":"71 (제일고 방면)","type":"route","route":"bus","operator":"순천교통"},"13120588":{"to":"제일고","ref":"71-1","from":"드라마촬영장","name":"71-1 (제일고 방면)","type":"route","route":"bus","operator":"순천교통"},"13120589":{"to":"제일고","ref":"100","from":"제일고","name":"100 (제일고 방면)","type":"route","route":"bus","operator":"순천교통"},"13121475":{"to":"강동공영차고지","ref":"341","from":"성촌마을입구","name":"서울 버스 341: 성촌마을입구 → 강동공영차고지","type":"route","route":"bus","colour":"#3D5BAB","network":"서울특별시 간선버스","operator":"대원여객"},"13122016":{"to":"제일고","ref":"101","from":"제일고","name":"101 (제일고 방면)","type":"route","route":"bus","operator":"순천교통"},"13122017":{"to":"중앙동주민센터","ref":"555","from":"검단산성차고지","name":"555 (중앙동주민센터 방면)","type":"route","route":"bus","operator":"동신교통"},"13122018":{"to":"검단산성차고지","ref":"555","from":"중앙동주민센터","name":"555 (검단산성 방면)","type":"route","route":"bus","operator":"동신교통"},"13125211":{"to":"천진암","ref":"38","from":"광주시축협","name":"광주 버스 38: 광주시축협 → 천진암","type":"route","route":"bus","colour":"#33CC99","network":"경기도 시내버스","operator":"경기고속","network:en":"G-BUS","network:ko":"경기도 시내버스","network:wikidata":"Q4859793","network:wikipedia":"ko:경기도의 시내버스"},"13125212":{"to":"광주크리닉센터","ref":"38","from":"천진암","name":"광주 버스 38: 천진암 → 광주크리닉센터","type":"route","route":"bus","colour":"#33CC99","network":"경기도 시내버스","operator":"경기고속","network:en":"G-BUS","network:ko":"경기도 시내버스","network:wikidata":"Q4859793","network:wikipedia":"ko:경기도의 시내버스"},"13127054":{"to":"시외버스터미널","ref":"77","from":"제일고","name":"77 (광양터미널 방면)","type":"route","route":"bus","operator":"순천교통"},"13127055":{"to":"제일고","ref":"77","from":"시외버스터미널","name":"77 (제일고 방면)","type":"route","route":"bus","operator":"순천교통"},"13127056":{"to":"시외버스터미널","ref":"777","from":"청암대학","name":"777 (광양터미널 방면)","type":"route","route":"bus","operator":"순천교통"},"13127057":{"to":"청암대학","ref":"777","from":"시외버스터미널","name":"777 (청암대학 방면)","type":"route","route":"bus","operator":"순천교통"},"13127768":{"to":"삼호병원","ref":"88","from":"검단산성차고지","name":"88 (벌교 방면)","type":"route","route":"bus","operator":"동신교통"},"13127769":{"to":"검단산성차고지","ref":"88","from":"삼호병원","name":"88 (검단산성 방면)","type":"route","route":"bus","operator":"동신교통"},"13127770":{"to":"대동","ref":"56","from":"제일고","name":"56 (왕조대동 방면)","type":"route","route":"bus","operator":"순천교통"},"13127771":{"to":"범암","ref":"56","from":"제일고","name":"56 (범암 방면)","type":"route","route":"bus","operator":"순천교통"},"13127772":{"to":"제일고","ref":"56","from":"대동","name":"56 (제일고 방면)","type":"route","route":"bus","operator":"순천교통"},"13127773":{"to":"제일고","ref":"56","from":"범암","name":"56 (제일고 방면)","type":"route","route":"bus","operator":"순천교통"},"13132539":{"to":"천진암","ref":"38-1","from":"광주시축협","name":"광주 버스 38-1: 광주시축협 → 천진암","type":"route","route":"bus","colour":"#33CC99","network":"경기도 시내버스","operator":"대원고속","network:en":"G-BUS","network:ko":"경기도 시내버스","network:wikidata":"Q4859793","network:wikipedia":"ko:경기도의 시내버스"},"13132540":{"to":"퇴촌농협","ref":"38-1","from":"천진암","name":"광주 버스 38-1: 천진암 → 퇴촌농협","type":"route","route":"bus","colour":"#33CC99","network":"경기도 시내버스","operator":"대원고속","network:en":"G-BUS","network:ko":"경기도 시내버스","network:wikidata":"Q4859793","network:wikipedia":"ko:경기도의 시내버스"},"13132579":{"to":"천진암","ref":"38-11","from":"퇴촌농협","name":"광주 버스 38-11: 퇴촌농협 → 천진암","type":"route","route":"bus","colour":"#33CC99","network":"경기도 시내버스","operator":"대원고속","network:en":"G-BUS","network:ko":"경기도 시내버스","network:wikidata":"Q4859793","network:wikipedia":"ko:경기도의 시내버스"},"13132580":{"to":"퇴촌농협","ref":"38-11","from":"천진암","name":"광주 버스 38-11: 천진암 → 퇴촌농협","type":"route","route":"bus","colour":"#33CC99","network":"경기도 시내버스","operator":"대원고속","network:en":"G-BUS","network:ko":"경기도 시내버스","network:wikidata":"Q4859793","network:wikipedia":"ko:경기도의 시내버스"},"13135549":{"to":"천진암","ref":"38-12","from":"퇴촌농협","name":"광주 버스 38-12: 퇴촌농협 → 천진암","type":"route","route":"bus","colour":"#33CC99","network":"경기도 시내버스","operator":"경기고속","network:en":"G-BUS","network:ko":"경기도 시내버스","network:wikidata":"Q4859793","network:wikipedia":"ko:경기도의 시내버스"},"13135550":{"to":"광주크리닉센터","ref":"38-12","from":"천진암","name":"광주 버스 38-12: 천진암 → 광주크리닉센터","type":"route","route":"bus","colour":"#33CC99","network":"경기도 시내버스","operator":"경기고속","network:en":"G-BUS","network:ko":"경기도 시내버스","network:wikidata":"Q4859793","network:wikipedia":"ko:경기도의 시내버스"},"13145856":{"to":"광주크리닉센터","ref":"38-14","from":"천진암","name":"광주 버스 38-14: 천진암 → 광주크리닉센터","type":"route","route":"bus","colour":"#33CC99","network":"경기도 시내버스","operator":"경기고속","network:en":"G-BUS","network:ko":"경기도 시내버스","network:wikidata":"Q4859793","network:wikipedia":"ko:경기도의 시내버스"},"13147946":{"ref":"순환311","name":"평택 시내버스 순환311","type":"route","route":"bus","name:en":"Pyeongtaek Bus Sunhwan 311","name:ko":"평택 시내버스 순환311"},"13151670":{"to":"퇴촌농협","ref":"38-19","from":"경기광주역","name":"광주 버스 38-19: 경기광주역 → 퇴촌농협","type":"route","route":"bus","colour":"#33CC99","network":"경기도 시내버스","operator":"경기고속","network:en":"G-BUS","network:ko":"경기도 시내버스","network:wikidata":"Q4859793","network:wikipedia":"ko:경기도의 시내버스"},"13151671":{"to":"경기광주역","ref":"38-19","from":"퇴촌농협","name":"광주 버스 38-19: 퇴촌농협 → 경기광주역","type":"route","route":"bus","colour":"#33CC99","network":"경기도 시내버스","operator":"경기고속","network:en":"G-BUS","network:ko":"경기도 시내버스","network:wikidata":"Q4859793","network:wikipedia":"ko:경기도의 시내버스"},"13166692":{"ref":"216","name":"대전 시내버스 216","type":"route","route":"bus","name:en":"Daejeon Bus 216","name:ko":"대전 시내버스 216"},"13166693":{"name":"대전 시내버스 314","type":"route","route":"bus","name:en":"Daejeon Bus 314","name:ko":"대전 시내버스 314"},"13166694":{"ref":"318","name":"대전 시내버스 318","type":"route","route":"bus","name:en":"Daejeon Bus 318","name:ko":"대전 시내버스 318"},"13166695":{"ref":"315","name":"대전 시내버스 315","type":"route","route":"bus","name:en":"Daejeon Bus 315","name:ko":"대전 시내버스 315"},"13166896":{"ref":"316","name":"대전 시내버스 316","type":"route","route":"bus","name:en":"Daejeon Bus 316","name:ko":"대전 시내버스 316"},"13166897":{"ref":"616","name":"대전 시내버스 616","type":"route","route":"bus","name:en":"Daejeon Bus 616","name:ko":"대전 시내버스 616"},"13166898":{"ref":"317","name":"대전 시내버스 317","type":"route","route":"bus","name:en":"Daejeon Bus 317","name:ko":"대전 시내버스 317"},"13167129":{"ref":"512","name":"대전 시내버스 512","type":"route","route":"bus","name:en":"Daejeon Bus 512","name:ko":"대전 시내버스 512"},"13167130":{"ref":"615","name":"대전 시내버스 615","type":"route","route":"bus","name:en":"Daejeon Bus 615","name:ko":"대전 시내버스 615"},"13167131":{"ref":"603","name":"대전 시내버스 603","type":"route","route":"bus","name:en":"Daejeon Bus 603","name:ko":"대전 시내버스 603"},"13167132":{"ref":"514","name":"대전 시내버스 514","type":"route","route":"bus","name:en":"Daejeon Bus 514","name:ko":"대전 시내버스 514"},"13167272":{"ref":"605","name":"대전 시내버스 605","type":"route","route":"bus","name:en":"Daejeon Bus 605","name:ko":"대전 시내버스 605"},"13167273":{"ref":"602","name":"대전 시내버스 602","type":"route","route":"bus","name:en":"Daejeon Bus 602","name:ko":"대전 시내버스 602"},"13167274":{"ref":"612","name":"대전 시내버스 612","type":"route","route":"bus","name:en":"Daejeon Bus 612","name:ko":"대전 시내버스 612"},"13167275":{"ref":"911","name":"대전 시내버스 911","type":"route","route":"bus","name:en":"Daejeon Bus 911","name:ko":"대전 시내버스 911"},"13167276":{"to":"한국과학기술원북문","ref":"특구1","from":"한국과학기술원북문","name":"대전 시내버스 특구1","type":"route","route":"bus","colour":"#5BB025","name:en":"Daejeon Bus Teukgu-1","name:ko":"대전 시내버스 특구1","interval":"40","operator":"대전운수","start_date":"2021-08-23","opening_hours":"Mo-Su,PH 06:00-22:00"},"13168684":{"ref":"47-1","name":"계룡 시내버스 47-1","type":"route","route":"bus","name:en":"Gyeryong Bus 47-1","name:ko":"계룡 시내버스 47-1"},"13168685":{"ref":"45","name":"계룡 시내버스 45","type":"route","route":"bus","name:en":"Gyeryong Bus 45","name:ko":"계룡 시내버스 45"},"13168686":{"ref":"100","name":"계룡 시내버스 100","type":"route","route":"bus","name:en":"Gyeryong Bus 100","name:ko":"계룡 시내버스 100"},"13168687":{"ref":"300","name":"계룡 시내버스 300","type":"route","route":"bus","name:en":"Gyeryong Bus 300","name:ko":"계룡 시내버스 300"},"13179550":{"to":"수청1리","ref":"38-2","from":"광주시축협","name":"광주 버스 38-2: 광주시축협 → 수청1리","type":"route","route":"bus","colour":"#33CC99","network":"경기도 시내버스","operator":"경기고속","network:en":"G-BUS","network:ko":"경기도 시내버스","network:wikidata":"Q4859793","network:wikipedia":"ko:경기도의 시내버스"},"13179551":{"to":"광주크리닉센터","ref":"38-2","from":"수청1리","name":"광주 버스 38-2: 수청1리 → 광주크리닉센터","type":"route","route":"bus","colour":"#33CC99","network":"경기도 시내버스","operator":"광주시 공영버스","network:en":"G-BUS","network:ko":"경기도 시내버스","network:wikidata":"Q4859793","network:wikipedia":"ko:경기도의 시내버스"},"13184267":{"to":"신성포","ref":"21","from":"제일고","name":"21 (신성포 방면)","type":"route","route":"bus","operator":"순천교통"},"13184268":{"to":"테크노파크","ref":"21","from":"제일고","name":"21 (전남테크노파크 방면)","type":"route","route":"bus","operator":"순천교통"},"13185183":{"to":"수청1리","ref":"38-21","from":"광주시축협","name":"광주 버스 38-21: 광주시축협 → 수청1리","type":"route","route":"bus","colour":"#33CC99","network":"경기도 시내버스","operator":"경기고속","network:en":"G-BUS","network:ko":"경기도 시내버스","network:wikidata":"Q4859793","network:wikipedia":"ko:경기도의 시내버스"},"13185184":{"to":"퇴촌농협","ref":"38-21","from":"수청1리","name":"광주 버스 38-21: 수청1리 → 퇴촌농협","type":"route","route":"bus","colour":"#33CC99","network":"경기도 시내버스","operator":"경기고속","network:en":"G-BUS","network:ko":"경기도 시내버스","network:wikidata":"Q4859793","network:wikipedia":"ko:경기도의 시내버스"},"13185190":{"to":"수청1리","ref":"38-22","from":"퇴촌농협","name":"광주 버스 38-22: 퇴촌농협 → 수청1리","type":"route","route":"bus","colour":"#33CC99","network":"경기도 시내버스","operator":"대원고속","network:en":"G-BUS","network:ko":"경기도 시내버스","network:wikidata":"Q4859793","network:wikipedia":"ko:경기도의 시내버스"},"13185191":{"to":"광주크리닉센터","ref":"38-22","from":"수청1리","name":"광주 버스 38-22: 수청1리 → 광주크리닉센터","type":"route","route":"bus","colour":"#33CC99","network":"경기도 시내버스","operator":"대원고속","network:en":"G-BUS","network:ko":"경기도 시내버스","network:wikidata":"Q4859793","network:wikipedia":"ko:경기도의 시내버스"},"13191614":{"to":"위례호반써밋.힐스테이트센트럴위례","ref":"33","from":"감일교차로","name":"하남 버스 33: 감일교차로 → 위례호반써밋.힐스테이트센트럴위례","type":"route","route":"bus","colour":"#33CC99","network":"경기도 시내버스","operator":"경기상운","network:en":"G-BUS","network:ko":"경기도 시내버스","network:wikidata":"Q4859793","network:wikipedia":"ko:경기도의 시내버스"},"13191615":{"to":"감일교차로","ref":"33","from":"위례호반써밋.힐스테이트센트럴위례","name":"하남 버스 33: 위례호반써밋.힐스테이트센트럴위례 → 감일교차로","type":"route","route":"bus","colour":"#33CC99","network":"경기도 시내버스","operator":"경기상운","network:en":"G-BUS","network:ko":"경기도 시내버스","network:wikidata":"Q4859793","network:wikipedia":"ko:경기도의 시내버스"},"13193353":{"to":"일원본동주민센터","ref":"16","from":"상산곡동.공영차고지","name":"광주 버스 16: 상산곡동.공영차고지 → 일원본동주민센터","type":"route","route":"bus","colour":"#33CC99","network":"경기도 시내버스","operator":"대원고속","network:en":"G-BUS","network:ko":"경기도 시내버스","network:wikidata":"Q4859793","network:wikipedia":"ko:경기도의 시내버스"},"13193354":{"to":"상산곡동.공영차고지","ref":"16","from":"일원본동주민센터","name":"광주 버스 16: 일원본동주민센터 → 상산곡동.공영차고지","type":"route","route":"bus","colour":"#33CC99","network":"경기도 시내버스","operator":"대원고속","network:en":"G-BUS","network:ko":"경기도 시내버스","network:wikidata":"Q4859793","network:wikipedia":"ko:경기도의 시내버스"},"13193419":{"to":"테크노마트앞.강변역","ref":"13","from":"광주터미널","name":"광주 버스 13: 광주터미널 → 테크노마트앞.강변역","type":"route","route":"bus","colour":"#33CC99","network":"경기도 시내버스","operator":"경기고속","network:en":"G-BUS","network:ko":"경기도 시내버스","network:wikidata":"Q4859793","network:wikipedia":"ko:경기도의 시내버스"},"13193420":{"to":"광주터미널","ref":"13","from":"테크노마트앞.강변역","name":"광주 버스 13: 테크노마트앞.강변역 → 광주터미널","type":"route","route":"bus","colour":"#33CC99","network":"경기도 시내버스","operator":"경기고속","network:en":"G-BUS","network:ko":"경기도 시내버스","network:wikidata":"Q4859793","network:wikipedia":"ko:경기도의 시내버스"},"13264229":{"ref":"1452","name":"평택 시내버스 1452","type":"route","route":"bus","name:en":"Pyeongtaek Bus 1452","name:ko":"평택 시내버스 1452"},"13274101":{"ref":"H104","name":"화성 시내버스 H104","type":"route","route":"bus","name:en":"Hwaseong Bus H104","name:ko":"화성 시내버스 H104"},"13274616":{"ref":"9802","name":"수원 시내버스 9802","type":"route","route":"bus","name:en":"Suwon Bus 9802","name:ko":"수원 시내버스 9802"},"13274829":{"ref":"554","name":"554","type":"route","route":"bus","network":"전주시 시내버스"},"13276347":{"ref":"8472","name":"수원 시내버스 8472","type":"route","route":"bus","name:en":"Suwon Bus 8472","name:ko":"수원 시내버스 8472"},"13276539":{"ref":"27-8","name":"수원 마을버스 27-8","type":"route","route":"bus","name:en":"Suwon Bus 27-8","name:ko":"수원 마을버스 27-8"},"13276577":{"ref":"5","name":"평택 마을버스 5","type":"route","route":"bus","name:en":"Pyeongtaek Bus 5","name:ko":"평택 마을버스 5"},"13276578":{"ref":"5-3","name":"평택 마을버스 5-3","type":"route","route":"bus","name:en":"Pyeongtaek Bus 5-3","name:ko":"평택 마을버스 5-3"},"13277390":{"to":"한양아파트.압구정로데오역","ref":"342","from":"한양아파트.압구정로데오역","name":"서울 버스 342: 강동공영차고지 → 한양아파트.압구정로데오역","type":"route","route":"bus","colour":"#3D5BAB","network":"서울특별시 시내버스","operator":"서울승합"},"13277391":{"to":"강일리버파크6단지","ref":"342","from":"한양사거리.압구정로데오역","name":"서울 버스 342: 한양사거리.압구정로데오역 → 강일리버파크6단지","type":"route","route":"bus","colour":"#3D5BAB","network":"서울특별시 시내버스","operator":"서울승합"},"13333079":{"to":"삼성서울병원정문건너편","ref":"3413","from":"강동공영차고지","name":"서울 버스 3413: 강동공영차고지 → 삼성서울병원정문건너편","type":"route","route":"bus","colour":"#5BB025","network":"서울특별시 시내버스","operator":"서울승합"},"13333080":{"to":"강일리버파크6단지","ref":"3413","from":"삼성서울병원정문건너편","name":"서울 버스 3413: 삼성서울병원정문건너편 → 강일리버파크6단지","type":"route","route":"bus","colour":"#5BB025","network":"서울특별시 시내버스","operator":"서울승합"},"13338381":{"to":"테크노마트앞.강변역","ref":"13-2","from":"퇴촌관음리","name":"광주 버스 13-2: 퇴촌관음리 → 테크노마트앞.강변역","type":"route","route":"bus","colour":"#33CC99","network":"경기도 시내버스","operator":"대원고속","network:en":"G-BUS","network:ko":"경기도 시내버스","network:wikidata":"Q4859793","network:wikipedia":"ko:경기도의 시내버스"},"13338382":{"to":"퇴촌관음리","ref":"13-2","from":"강변역.테크노마트","name":"광주 버스 13-2: 강변역.테크노마트 → 퇴촌관음리","type":"route","route":"bus","colour":"#33CC99","network":"경기도 시내버스","operator":"대원고속","network:en":"G-BUS","network:ko":"경기도 시내버스","network:wikidata":"Q4859793","network:wikipedia":"ko:경기도의 시내버스"},"13433193":{"to":"수청1리","ref":"38-23","from":"퇴촌농협","name":"광주 버스 38-23: 퇴촌농협 → 수청1리","type":"route","route":"bus","colour":"#33CC99","network":"경기도 시내버스","operator":"경기고속","network:en":"G-BUS","network:ko":"경기도 시내버스","network:wikidata":"Q4859793","network:wikipedia":"ko:경기도의 시내버스"},"13433194":{"to":"퇴촌농협","ref":"38-23","from":"수청1리","name":"광주 버스 38-23: 수청1리 → 퇴촌농협","type":"route","route":"bus","colour":"#33CC99","network":"경기도 시내버스","operator":"경기고속","network:en":"G-BUS","network:ko":"경기도 시내버스","network:wikidata":"Q4859793","network:wikipedia":"ko:경기도의 시내버스"},"13434463":{"to":"보건소.공설운동장","ref":"38-24","from":"광주시축협","name":"광주 버스 38-24: 광주시축협 → 보건소.공설운동장","type":"route","route":"bus","colour":"#33CC99","network":"경기도 시내버스","operator":"대원고속","network:en":"G-BUS","network:ko":"경기도 시내버스","network:wikidata":"Q4859793","network:wikipedia":"ko:경기도의 시내버스"},"13434464":{"to":"보건소.공설운동장","ref":"38-24","from":"보건소.공설운동장","name":"광주 버스 38-24: 보건소.공설운동장 → 보건소.공설운동장","type":"route","route":"bus","colour":"#33CC99","network":"경기도 시내버스","operator":"대원고속","network:en":"G-BUS","network:ko":"경기도 시내버스","network:wikidata":"Q4859793","network:wikipedia":"ko:경기도의 시내버스"},"13437751":{"to":"양평터미널","ref":"38-25","from":"광주시축협","name":"광주 버스 38-25: 광주시축협 → 양평터미널","type":"route","route":"bus","colour":"#33CC99","network":"경기도 시내버스","operator":"경기고속","network:en":"G-BUS","network:ko":"경기도 시내버스","network:wikidata":"Q4859793","network:wikipedia":"ko:경기도의 시내버스"},"13437752":{"to":"광주크리닉센터","ref":"38-25","from":"양평터미널","name":"광주 버스 38-25: 양평터미널 → 광주크리닉센터","type":"route","route":"bus","colour":"#33CC99","network":"경기도 시내버스","operator":"경기고속","network:en":"G-BUS","network:ko":"경기도 시내버스","network:wikidata":"Q4859793","network:wikipedia":"ko:경기도의 시내버스"},"13537858":{"ref":"3002","name":"계룡 시내버스 3002","type":"route","route":"bus","name:en":"Gyeryong Bus 3002","name:ko":"계룡 시내버스 3002"},"13561411":{"to":"KTX울산역","fee":"yes + charge = 1500 WON","ref":"13","from":"통도사신평 버스터미널","name":"양산 버스 13 통도사신평 버스터미널 -> KTX 울산역","type":"route","route":"bus","colour":"#00AC6C","name:en":"Bus 13: Tongdosa-Sinpyeong Bus Terminal ->KTX Ulsan Stn.","name:ko":"양산 버스 13 통도사신평 버스터미널 -> KTX 울산역","network":"양산 일반버스","distance":"12.5","duration":"00:31","interval":"25","operator":"푸른교통 / 세원","opening_hours":"Mo-Su 06:45-21:20"},"13561412":{"to":"통도사신평 버스터미널","fee":"yes + charge = 1500 WON","ref":"13","from":"KTX 울산역","name":"양산 버스 13 KTX 울산역 -> 통도사신평 버스터미널","type":"route","route":"bus","colour":"#00AC6C","name:en":"Bus 13: KTX Ulsan Stn.->Tongdosa-Sinpyeong Bus Terminal","name:ko":"양산 버스 13 KTX 울산역 -> 통도사신평 버스터미널","network":"양산 일반버스","distance":"12.5","duration":"00:31","interval":"25","operator":"푸른교통 / 세원","opening_hours":"Mo-Su 07:15-21:50"},"13567516":{"to":"흥업사거리","ref":"8","from":"흥업면사무소","name":"원주시 공영버스 누리버스 8번","type":"route","route":"bus","operator":"원주시 시설 관리공단"},"13575346":{"to":"영서고","ref":"52-1","from":"관설동 종점","name":"원주 시내버스 52-1","type":"route","route":"bus"},"13575819":{"to":"태화강역","fee":"yes + charge = 2300","ref":"1723","from":"통도사신평 버스터미널","name":"울산 버스 1723 통도사신평 버스터미널 -> 태화강역","type":"route","route":"bus","colour":"#9999ff","name:en":"Ulsan Bus 1723 Tongdosa-Sinpyeong Bus Terminal ->Taehwagang stn.","name:ko":"울산 버스 1723 통도사신평 버스터미널 -> 태화강역","network":"울산 직행버스","distance":"75.8","duration":"01:01","interval":"26","operator":"세원","opening_hours":"Mo-Su 05:11-22:18"},"13575820":{"to":"통도사신평 버스터미널","fee":"yes + charge = 2300","ref":"1723","from":"태화강역","name":"울산 버스 1723 태화강역 -> 통도사신평 버스터미널","type":"route","route":"bus","colour":"#9999ff","name:en":"Ulsan Bus 1723 Taehwagang stn. -> Tongdosa-Sinpyeong Bus Terminal","name:ko":"울산 버스 1723 태화강역 -> 통도사신평 버스터미널","network":"울산 직행버스","distance":"75.8","duration":"01:01","interval":"33","operator":"세원","opening_hours":"Mo-Su 06:26-23:42"},"13589995":{"to":"구언양버스터미널","ref":"313","from":"삼동초등학교","name":"울산 버스 313 삼동초등학교 -> 구언양버스터미널","note":"1일 1회(once a day)","type":"route","route":"bus","colour":"#ffc600","name:en":"Ulsan Bus 313 Samdong elementary school -> Eonyang Bus Terminal (former)","name:ko":"울산 버스 313 삼동초등학교 -> 구언양버스터미널","network":"울산 일반버스","distance":"30.6","operator":"울산여객","opening_hours":"Mo-Su 21:30-21:30"},"13589996":{"to":"구언양버스터미널","ref":"313","from":"사촌","name":"울산 버스 313 사촌 -> 구언양버스터미널","note":"1일 2회 (twice a day)","type":"route","route":"bus","colour":"#ffc600","name:en":"Ulsan Bus 313 Sachon -> Eonyang Bus Terminal (former)","name:ko":"울산 버스 313 사촌 -> 구언양버스터미널","network":"울산 일반버스","distance":"18","operator":"울산여객","opening_hours":"Mo-Su 12:40-18:30"},"13589997":{"to":"삼동초등학교","ref":"313","from":"사촌","name":"울산 버스 313 사촌 -> 삼동초등학교","type":"route","route":"bus","colour":"#ffc600","name:en":"Ulsan Bus 313 Sachon -> Samdong elementary school","name:ko":"울산 버스 313 사촌 -> 삼동초등학교","network":"울산 일반버스","distance":"48.6","operator":"울산여객","opening_hours":"Mo-Su 07:30-15:50"},"13589998":{"to":"사촌","ref":"313","from":"구언양버스터미널","name":"울산 버스 313 구언양버스터미널 -> 사촌","note":"1일 1회 (once a day)","type":"route","route":"bus","colour":"#ffc600","name:en":"Ulsan Bus 313 Eonyang Bus Terminal (former) -> Sachon","name:ko":"울산 버스 313 구언양버스터미널 -> 사촌","network":"울산 일반버스","distance":"18","operator":"울산여객","opening_hours":"Mo-Su 06:30-06:30"},"13589999":{"to":"사촌","ref":"313","from":"구언양버스터미널","name":"울산 버스 313 구언양버스터미널 -> 사촌","note":"1일 2회 (twice a day)","type":"route","route":"bus","colour":"#ffc600","name:en":"Ulsan Bus 313 Eonyang Bus Terminal (former) -> Sachon","name:ko":"울산 버스 313 구언양버스터미널 -> 사촌","network":"울산 일반버스","distance":"30.3","operator":"울산여객","opening_hours":"Mo-Su 14:00-19:50"},"13592055":{"to":"동호동","ref":"급행2","from":"대일리","name":"대구 버스 급행2","type":"route","route":"bus","operator":"성보교통/영진교통"},"13649287":{"to":"운정역","ref":"080A","from":"운정역","name":"파주 마을버스 080A","type":"route","route":"bus","operator":"우리교통"},"13655578":{"to":"운정역","ref":"080B","from":"운정역","name":"파주 마을버스 080B","type":"route","route":"bus","operator":"우리교통"},"13688553":{"ref":"3314","from":"장지공영차고지","name":"서울 버스 3314 : 장지공영차고지→잠실종합운동장","type":"route","route":"bus","colour":"#5BB025","network":"서울특별시 시내버스","operator":"서울특별시"},"13741839":{"to":"전북대종점","ref":"8-2","from":"전북대종점","name":"전주 시내버스 8-2","type":"route","route":"bus"},"13758141":{"ref":"5","name":"천안 시내버스 5","type":"route","route":"bus","name:en":"Cheonan Bus 5","name:ko":"천안 시내버스 5"},"13795868":{"ref":"559","name":"559","type":"route","route":"bus","network":"전주시 시내버스"},"13810532":{"ref":"216","name":"포항 버스 216","type":"route","route":"bus","name:en":"Pohang Bus 216","name:ko":"포항 버스 216"},"13825399":{"to":"부산종합버스터미널","from":"서울경부","name":"서울경부 → 부산 고속버스","type":"route","route":"bus","name:ko":"서울경부 → 부산 고속버스","operator":"금호고속;중앙고속;동양고속;한일고속;천일고속;삼화고속"},"13825400":{"name":"부산 → 서울경부 고속버스","type":"route","route":"bus","name:ko":"부산 → 서울경부 고속버스","operator":"금호고속;중앙고속;동양고속;한일고속;천일고속;삼화고속"},"13825402":{"to":"영광","from":"서울호남","name":"서울호남 → 영광 고속버스","type":"route","route":"bus","name:ko":"서울호남 → 영광 고속버스","operator":"금호고속;천일고속;중앙고속"},"13828326":{"ref":"929","name":"929 남양그린빌 > 남양그린빌","type":"route","route":"bus","operator":"시민교통"},"13829805":{"to":"선암호수노인복지회관","ref":"923","from":"선암호수노인복지회관","name":"923 선암호수노인복지회관 > 선암호수노인복지회관","type":"route","route":"bus","operator":"시민교통"},"13831664":{"name":"106 덕하공영처고지 > 꽃바위","type":"route","route":"bus"},"13877406":{"ref":"207","name":"포항 버스 207","type":"route","route":"bus","name:en":"Pohang Bus 207","name:ko":"포항 버스 207"},"14145173":{"to":"정자역","ref":"109","from":"정자역","name":"성남시 마을버스 109","type":"route","route":"bus","network":"경기도 마을버스","interval":"8~10분","operator":"진아교통"},"14354873":{"ref":"3314","from":"장지공영차고지","name":"서울 버스 3314 : 잠실종합운동장→장지공영차고지","type":"route","route":"bus","colour":"#5BB025","name:en":"Seoul Bus 3314 : Jamsil Sport Complex → Jangji Public Garage","name:ko":"서울 버스 3314 : 잠실종합운동장→장지공영차고지","network":"서울특별시 시내버스","operator":"서울특별시"},"14437436":{"to":"대둔리마을회관","ref":"1","from":"문막행정복지센터","name":"원주시 누리버스 1번 골무네기 경유","type":"route","route":"bus"},"14441060":{"ref":"2","name":"원주시 누리버스 2번 진밭 - 밤산골경유","type":"route","route":"bus"},"14441061":{"name":"원주시 누리버스 2번 진밭","type":"route","route":"bus"},"14477095":{"to":"범물동","ref":"급행3","from":"동명","name":"대구 버스 급행3","type":"route","route":"bus","operator":"동명교통/신진자동차"},"14477250":{"to":"설화명곡역","ref":"급행4","from":"유곡리","name":"대구 버스 급행4","type":"route","route":"bus","operator":"세한여객/현대교통"},"14477280":{"to":"대구대학교","ref":"급행5","from":"성서산단","name":"대구 버스 급행5","type":"route","route":"bus","name:ko":"대구 버스 급행5","operator":"경북교통/세진교통/신흥버스"},"14477347":{"to":"성서공단","ref":"급행6","from":"연경동","name":"대구 버스 급행6","type":"route","route":"bus","operator":"광남자동차/세운버스"},"14477371":{"to":"동호동","ref":"급행7","from":"대곡지구","name":"대구 버스 급행7","type":"route","route":"bus","operator":"동명교통/우진교통"},"14477469":{"to":"진천역","ref":"급행8-1","from":"유곡리","name":"대구 버스 급행8-1","type":"route","route":"bus","operator":"세운버스/세한여객/신흥버스/현대교통"},"14479300":{"to":"검단동","ref":"순환2-1","from":"검단동","name":"대구 버스 순환2-1","type":"route","route":"bus","operator":"성보교통"},"14479301":{"to":"검단동","ref":"순환2","from":"검단동","name":"대구 버스 순환2","type":"route","route":"bus","operator":"성보교통"},"14482865":{"to":"검단산성차고지","ref":"68","from":"구기시계","name":"68 (검단산성 방면)","type":"route","route":"bus","operator":"동신교통"},"14482866":{"to":"구기시계","ref":"68","from":"검단산성차고지","name":"68 (낙안구기 방면)","type":"route","route":"bus","operator":"동신교통"},"14484134":{"to":"제일고","ref":"66","from":"인월동조례","name":"66 (제일고 방면)","type":"route","route":"bus","operator":"순천교통"},"14484135":{"to":"인월동조례","ref":"66","from":"제일고","name":"66 (인월동조례 방면)","type":"route","route":"bus","operator":"순천교통"},"14489369":{"to":"승주서동","ref":"60","from":"제일고","name":"60 (승주서동 방면)","type":"route","route":"bus","operator":"순천교통"},"14489370":{"name":"60 (제일고 방면)","type":"route","route":"bus"},"14496527":{"to":"응령마을","ref":"64","from":"제일고","name":"64 (상사응령 방면)","type":"route","route":"bus","operator":"순천교통"},"14496537":{"to":"제일고","ref":"64","from":"응령마을","name":"64 (제일고 방면)","type":"route","route":"bus","operator":"순천교통"},"14500390":{"to":"구상마을","ref":"51","from":"검단산성차고지","name":"51 (서면구상 방면)","type":"route","route":"bus","operator":"동신교통"},"14500391":{"to":"검단산성차고지","ref":"51","from":"구상마을","name":"51 (검단산성 방면)","type":"route","route":"bus","operator":"동신교통"},"14669735":{"to":"서귀포버스터미널","ref":"101","from":"제주국제공항","name":"101번 버스","type":"route","route":"bus","operator":"금남여객"},"14676612":{"to":"한양대학교생활과학대학","ref":"성동03-2","from":"왕십리KCC스위첸아파트","name":"성동03-2","type":"route","route":"bus","operator":"낙산운수"},"14767428":{"to":"건대입구역","ref":"3217","from":"복정역환승센터","name":"서울 버스 3217 : 복정역환승센터 → 건대입구역","type":"route","route":"bus","colour":"#5bb025","network":"서울특별시 시내버스","operator":"한서교통"},"14767429":{"to":"복정역환승센터","ref":"3217","from":"건대입구역","name":"서울 버스 3217 : 건대입구역 → 복정역환승센터","type":"route","route":"bus","colour":"#5bb025","network":"서울특별시 시내버스","operator":"한서교통"},"14772088":{"name":"34","type":"route","route":"bus"},"14899378":{"ref":"B4","name":"세종 시내버스 B4","type":"route","route":"bus","name:en":"Sejong Bus B4","name:ko":"세종 시내버스 B4"},"14899379":{"ref":"B5","name":"세종 시내버스 B5","type":"route","route":"bus","name:en":"Sejong Bus B5","name:ko":"세종 시내버스 B5"},"14899454":{"ref":"205","name":"세종 시내버스 205","type":"route","route":"bus","name:en":"Sejong Bus 205","name:ko":"세종 시내버스 205"},"14900398":{"to":"신구교","ref":"첨단2","from":"신구교","name":"대전 시내버스 첨단2","type":"route","route":"bus","colour":"#5BB025","name:en":"Daejeon Bus Cheomdan 2","name:ko":"대전 시내버스 첨단2","operator":"대전승합"},"14900620":{"ref":"8200","name":"광주 시내버스 8200","type":"route","route":"bus","name:en":"Gwangju Bus 8200","name:ko":"광주 시내버스 8200"},"14900621":{"ref":"8201","name":"광주 시내버스 8201","type":"route","route":"bus","name:en":"Gwangju Bus 8201","name:ko":"광주 시내버스 8201"},"14900622":{"ref":"8202","name":"광주 시내버스 8202","type":"route","route":"bus","name:en":"Gwangju Bus 8202","name:ko":"광주 시내버스 8202"},"14900623":{"ref":"6801","name":"광주 시내버스 6801","type":"route","route":"bus","name:en":"Gwangju Bus 6801","name:ko":"광주 시내버스 6801"},"14901001":{"ref":"1000","name":"아산 시내버스 1000","type":"route","route":"bus","name:en":"Asan Bus 1000","name:ko":"아산 시내버스 1000"},"14909905":{"to":"영광종합버스터미널","from":"광주종합버스터미널(유스퀘어)","name":"광주 → 영광 시외버스","type":"route","route":"bus","name:ko":"광주 → 영광 시외버스","distance":"40km","duration":"01:14","operator":"금호고속","description":"구간: 광주터미널 → 광주송정역 시외버스 → 문장터미널 → 영광터미널"},"14909940":{"to":"광주종합버스터미널(유스퀘어)","from":"영광종합버스터미널","name":"영광 → 광주 시외버스","type":"route","route":"bus","name:ko":"영광 → 광주 시외버스","operator":"금호고속"},"14937921":{"ref":"마을7","name":"평택 마을버스 7","type":"route","route":"bus","name:en":"Pyeongtaek Bus 7","name:ko":"평택 마을버스 7"},"14937950":{"ref":"1361","name":"평택 시내버스 1361","type":"route","route":"bus","name:en":"Pyeongtaek Bus 1361","name:kr":"평택 시내버스 1361"},"14997696":{"name":"51","type":"route","route":"bus","network":"부산 시내버스","operator":"화신여객"},"15005584":{"to":"탑립동","ref":"첨단1","from":"탑립동","name":"대전 시내버스 첨단1","type":"route","route":"bus","operator":"동건운수"},"15324082":{"to":"한성아파트","ref":"320","from":"서산공용버스터미널","name":"서산 버스 320","type":"route","route":"bus","colour":"5bb025","name:en":"Seosan City Bus 320","name:ko":"서산 버스 320","interval":"00:40","operator":"서령버스","opening_hours":"06:00-21:00"},"15417471":{"ref":"100","name":"서산 버스 100","type":"route","route":"bus","colour":"#5bb025","name:en":"Seosan City Bus 100","name:ko":"서산 버스 100","interval":"40","opening_hours":"06:00-21:00"},"15417475":{"ref":"110","name":"서산 버스 110","type":"route","route":"bus","colour":"#5bb025","name:en":"Seosan City Bus 110","name:ko":"서산 버스 110","interval":"00:40","opening_hours":"06:00-21:00"},"15429697":{"to":"동남아파트","ref":"130","from":"서산공용버스터미널","name":"서산 버스 130","type":"route","route":"bus","colour":"#5bb025","name:en":"Seosan City Bus 130","name:ko":"서산 버스 130","operator":"서령버스"},"15430036":{"to":"서산공용버스터미널","ref":"140","via":"예천주공아파트","from":"서산공용버스터미널","name":"서산 버스 140","type":"route","route":"bus","colour":"#5bb025","name:en":"Seosan City Bus 140","name:ko":"서산 버스 140","opening_hours":"Mo-Su 09:40-19:40"},"15430168":{"ref":"141","from":"서산공용버스터미널","name":"서산 버스 141","type":"route","route":"bus","colour":"#5bb025","name:en":"Seosan City Bus 141","name:ko":"서산 버스 141","interval":"50","opening_hours":"Mo-Su 09:10-20:00"},"15433825":{"to":"예천현대아파트","ref":"150","from":"서산공용버스터미널","name":"서산 버스 150","type":"route","route":"bus","colour":"#5bb025","name:en":"Seosan City Bus 150","name:ko":"서산 버스 150","interval":"50","opening_hours":"Mo-Su 10:20-21:00"},"15820347":{"name":"원주 시내버스 19","type":"route","route":"bus"},"15864627":{"ref":"공영쇄암A","name":"공영쇄암A","type":"route","route":"bus"}}