{"2834233":{"ref":"15","name":"15 بحري","type":"route","route":"bus","colour":"gray","name:ar":"15 بحري","name:fr":"15 Marine","operator":"الشركة اللبنانية للبناء","operator:ar":"الشركة اللبنانية للبناء","public_transport:version":"2"},"2839081":{"to":"جبيل","ref":"الدورة - جبيل","from":"الحافلة","name":"الحافلة الدورة - جبيل","type":"route","route":"bus","name:ar":"الحافلة الدورة - جبيل","public_transport:version":"2"},"3202896":{"ref":"2","name":"2","type":"route","route":"bus","operator":"إل سي سي","public_transport:version":"2"},"3521367":{"to":"Wardieh","ref":"12","from":"Burj El Barajne","name":"12","type":"route","route":"bus","operator":"L.C.C.","public_transport:version":"2"},"3522398":{"ref":"5'","name":"5'","type":"route","route":"bus","operator":"O.C.F.T.C.","public_transport:version":"2"},"3613743":{"ref":"Dora - Broumana","name":"Dora - Broumana","type":"route","route":"bus","name:en":"Dora - Broumana","name:fr":"Dora - Broumana","operator":"Sakr","public_transport:version":"2"},"3815240":{"ref":"Dora - Mansurieh","name":"Dora - Mansurieh","type":"route","route":"bus","name:en":"Dora - Mansurieh","operator":"Milo","public_transport:version":"2"},"4613549":{"ref":"LMT 9","name":"Lebanon Mountain Trail","type":"route","route":"bus","symbol":"white bar over purple bar","network":"nwn","osmc:symbol":"purple:purple:white_bar"},"5327862":{"ref":"24","name":"24","type":"route","route":"bus","operator":"L.L.C.","public_transport:version":"2"},"5367261":{"ref":"Ain el-Mreisse - Burj el-Barajneh","name":"Ain el-Mreisse - Burj el-Barajneh","note":"Unfinished! The line may start somewhere before Ain el-Mreisse and might take slightly different routes according to traffic. Lost track when it leaves Imam el-Khomeini Road, but definitely doesn't go back the same route. Please complete.","type":"route","route":"bus","name:en":"Ain el-Mreisse - Burj el-Barajneh","operator":"private vans","public_transport:version":"2"},"7632338":{"ref":"15","name":"15 بحري","type":"route","route":"bus","colour":"gray","name:ar":"15 بحري","name:en":"15 Bahri","name:fr":"15 Bahri","operator":"LCC","opening_hours":"Mo-Sa"},"8818517":{"to":"الدورة","ref":"جبيل - الدورة","from":"جبيل","name":"الحافلة جبيل - الدورة","type":"route","route":"bus","name:ar":"الحافلة جبيل - الدورة","public_transport:version":"2"},"8818522":{"ref":"24","name":"24","type":"route","route":"bus","operator":"L.L.C.","public_transport:version":"2"},"8818523":{"ref":"15","name":"15 بحري","type":"route","route":"bus","colour":"gray","name:ar":"15 بحري","operator":"الشركة اللبنانية للبناء","operator:ar":"الشركة اللبنانية للبناء","public_transport:version":"2"},"8818527":{"ref":"2","name":"2","type":"route","route":"bus","website":"http://www.lccworld.com/","operator":"L.C.C.","public_transport:version":"2"}}