{"2107991":{"name":"Podgorica - Plav","type":"route","route":"bus","operator":"Elan Company"},"2235940":{"ref":"1","name":"Nikšić-Krupac","type":"route","route":"bus"},"4505516":{"ref":"2","name":"Igalo-Meljine","type":"route","route":"bus","operator":"Blue Line","wheelchair":"no","public_transport:version":"2"},"14601765":{"ref":"2","name":"Meljine-Igalo","type":"route","route":"bus","operator":"Blue Line","wheelchair":"no","public_transport:version":"2"},"14722388":{"to":"Blok VI","fee":"yes","ref":"18","from":"Zabjelo","name":"Bus 18: Zabjelo => Blok VI","type":"route","route":"bus","charge":"0.90 EUR/person","bicycle":"no","website":"https://podgorica.me/stranice/gradski-saobracaj","distance":"6.5","interval":"20","operator":"PUTEVI d.o.o. Podgorica","opening_hours":"Mo-Sa 06:00-22:20; Su 06:00-21:00","interval:conditional":"40 @ (Sa 06:00-22:20); 60 @ (Su 06:00-21:00))","public_transport:version":"2"},"14724474":{"to":"Zabjelo","fee":"yes","ref":"18","from":"Blok VI","name":"Bus 18: Blok VI => Zabjelo","type":"route","route":"bus","charge":"0.90 EUR/person","bicycle":"no","website":"https://podgorica.me/stranice/gradski-saobracaj","distance":"6.5","duration":"20","interval":"20","operator":"Gradski Saobraćaj PG D.O.O.","opening_hours":"Mo-Sa 06:00-22:20; Su 06:30-21:30","interval:conditional":"40 @ (Sa 06:00-22:20); 60 @ (Su 06:30-21:30))","public_transport:version":"2"},"14730118":{"to":"Masline (Burum)","ref":"10","from":"Zabjelo","name":"Bus 10: Zabjelo => Masline (Burum)","type":"route","route":"bus","website":"https://podgorica.me/broj-i-naziv-linije-l-10-a-masline-burum-b-zabjelo/","interval":"30","operator":"Gradski Saobraćaj PG DOO","public_transport:version":"2"},"14884054":{"to":"Tološi","ref":"4","from":"Konik","name":"Bus 4: Konik => Tološi","type":"route","route":"bus","website":"https://podgorica.me/broj-i-naziv-linije-l-4-a-konik-b-tolosi/","interval":"20","operator":"Gradski Saobraćaj PG DOO","public_transport:version":"2"},"16050314":{"to":"Blok VI","fee":"yes","ref":"19","from":"Muharema Asovića","name":"Bus 19: Konik => Blok VI","type":"route","route":"bus","charge":"0.90 EUR/person","bicycle":"no","website":"https://podgorica.me/stranice/gradski-saobracaj","distance":"7.1","duration":"40","interval":"20","operator":"Gradski Saobraćaj PG D.O.O.","opening_hours":"Mo-Sa 06:00-22:20; Su 06:00-22:00","interval:conditional":"40 @ (Sa 06:00-22:20); 60 @ (Su 06:00-22:00))","public_transport:version":"2"},"16051624":{"to":"Muharema Asovića","fee":"yes","ref":"19","from":"Blok VI","name":"Bus 19: Blok VI => Konik","type":"route","route":"bus","charge":"0.90 EUR/person","bicycle":"no","website":"https://podgorica.me/stranice/gradski-saobracaj","distance":"7.1","duration":"40","interval":"20","operator":"Gradski Saobraćaj PG D.O.O.","opening_hours":"Mo-Sa 06:00-22:20; Su 06:00-22:00","interval:conditional":"40 @ (Sa 06:00-22:20); 60 @ (Su 06:00-22:00))","public_transport:version":"2"},"16053240":{"to":"Rogami","fee":"yes","ref":"20","from":"Donji Kokoti","name":"Bus 20: Donji Kokoti => Rogami - Duklja","type":"route","route":"bus","charge":"0.90 EUR/person","distance":"13.5","duration":"40","interval":"20","official_name":"Linija 20","opening_hours":"Mo-Su 06:00-22:00","interval:conditional":"40 @ (Su 06:00-22:00)","public_transport:version":"2"},"16109310":{"to":"Donji Kokoti","fee":"yes","ref":"20","from":"Rogami","name":"Bus 20: Rogami - Duklja => Donji Kokoti","type":"route","route":"bus","charge":"0.90 EUR/person","distance":"13.5","duration":"40","interval":"20","official_name":"Linija 20","opening_hours":"Mo-Su 06:00-22:00","interval:conditional":"40 @ (Su 06:00-22:00)","public_transport:version":"2"}}