{"2076459":{"name":"Автобуска - Мала Речица","type":"route","route":"bus"},"2294165":{"to":"Железара","ref":"16","from":"Пржино","name":"16","type":"route","route":"bus","network":"Skopje:local","operator":"JSP","roundtrip":"yes"},"2565773":{"to":"Железара","ref":"13","from":"Кисела Вода","name":"13","type":"route","route":"bus","network":"Skopje:local","operator":"JSP"},"2568718":{"to":"Карпош 3","ref":"26","from":"Железара","name":"26","type":"route","route":"bus","network":"Skopje:local","operator":"JSP","public_transport:version":"2"},"2569254":{"ref":"42","name":"42","type":"route","route":"bus","network":"Skopje:local","operator":"JSP"},"2641220":{"name":"5 Circular","type":"route","route":"bus","operator":"Hera Trans"},"3209055":{"ref":"41","name":"41","type":"route","route":"bus","network":"Skopje:local","operator":"JSP"},"3442965":{"ref":"4","name":"4","type":"route","route":"bus","network":"Skopje:local","operator":"JSP","public_transport:version":"2"},"3443020":{"ref":"5","name":"5","type":"route","route":"bus","network":"Skopje:local","operator":"ЈСП Скопје","public_transport:version":"2"},"3443065":{"to":"Хемтекс Т-Крајна","fee":"yes","ref":"7","from":"Карпош 3 ТЦ Сити Мол Т","name":"Насока: Карпош 3 - Горно Лисиче","type":"route","route":"bus","name:en":"Direction: Karposh 3 - Lisiche","network":"Skopje:local","duration":"00:45:00","interval":"00:25:00","operator":"ЈСП Скопје","opening_hours":"Mo-Su 05:15-23:10","public_transport:version":"2"},"3444158":{"ref":"8","name":"8","type":"route","route":"bus","network":"Skopje:local","operator":"JSP","public_transport:version":"2"},"3444219":{"ref":"9","name":"9","type":"route","route":"bus","network":"Skopje:local","operator":"JSP"},"5637326":{"ref":"57","name":"57","type":"route","route":"bus","network":"Skopje:local","operator":"JSP","public_transport:version":"2"},"5638819":{"ref":"21","name":"21","type":"route","route":"bus","network":"Skopje:local","operator":"JSP","public_transport:version":"2"},"5638911":{"to":"Волково (Лепенец)","ref":"22П","from":"Транспортен Центар","name":"22П","type":"route","route":"bus","network":"Skopje:local","operator":"JSP","public_transport:version":"2"},"5653805":{"ref":"73","name":"73","type":"route","route":"bus","network":"Skopje:local"},"5653806":{"ref":"4A","name":"4A","type":"route","route":"bus","network":"Skopje:local","operator":"JSP","public_transport:version":"2"},"6834466":{"to":"Матка","ref":"60","from":"Транспортен Центар","name":"60","type":"route","route":"bus","network":"Skopje:local","operator":"JSP"},"6866191":{"ref":"19","name":"19","type":"route","route":"bus","network":"Skopje:local","operator":"JSP"},"6866541":{"ref":"3","name":"3","type":"route","route":"bus","network":"Skopje:local","operator":"JSP"},"6866813":{"ref":"21A","name":"21A","type":"route","route":"bus","network":"Skopje:local","operator":"JSP"},"6866918":{"to":"ТАФТАЛИЏЕ 2","fee":"yes","ref":"24","from":"ПРИПОР","name":"24","type":"route","route":"bus","charge":"120 MKD","network":"Skopje:local","operator":"ЈСП Скопје"},"6877336":{"ref":"50","name":"50","type":"route","route":"bus","network":"Skopje:local","operator":"JSP"},"6877676":{"to":"Дома на печат","ref":"43","from":"Јужноморавски Бригади","name":"43","type":"route","route":"bus","network":"Skopje:local","operator":"JSP"},"6877833":{"ref":"12","name":"12","type":"route","route":"bus","network":"Skopje:local","operator":"JSP"},"8284590":{"to":"Карпош 4","ref":"15","from":"Ново Лисиче","name":"15","type":"route","route":"bus","network":"Skopje:local","operator":"JSP"},"8425400":{"to":"Долно Лисиче","ref":"31","from":"Транспортен Центар","name":"31","type":"route","route":"bus","network":"Skopje:local","operator":"JSP"},"8425461":{"to":"Дом на печат","ref":"33","from":"Долно Лисиче","name":"33","type":"route","route":"bus","network":"Skopje:local","operator":"JSP"},"8425516":{"to":"Дом на печат","ref":"27","from":"Вардарска","name":"27","type":"route","route":"bus","network":"Skopje:local","operator":"JSP"},"8425696":{"to":"Дом на печат","ref":"44","from":"Трубарево","name":"44","type":"route","route":"bus","network":"Skopje:local","operator":"JSP"},"8429824":{"to":"Визбегово","ref":"18","from":"Транспортен Центар","name":"18","type":"route","route":"bus","network":"Skopje:local","operator":"JSP"},"8429862":{"to":"Средно Водно","ref":"25","from":"Транспортен Центар","name":"25","type":"route","route":"bus","network":"Skopje:local","operator":"JSP"},"8429885":{"to":"Огњанци","ref":"62","from":"Транспортен Центар","name":"62","type":"route","route":"bus","network":"Skopje:local","operator":"JSP"},"8429924":{"to":"Дом на печат","ref":"23П","from":"М.А.Ченто","name":"23П","type":"route","route":"bus","network":"Skopje:local","operator":"JSP"},"9600718":{"to":"Београдска аутобуска станица","ref":"992","from":"Автобуска Станица Скопје","name":"Flixbus 992: Skopje, Busbahnhof => Belgrad, Busbahnhof","type":"route","route":"bus","name:de":"Flixbus 992: Skopje, Busbahnhof => Belgrad, Busbahnhof","name:mk":"Flixbus 992: Скопје, автобуска станица => Белград, автобуска станица","name:sr":"Фликбус 992: Скопље, аутобуска станица => Београд, аутобуска станица","network":"Flixbus","operator":"Fudeks","network:wikidata":"Q15712258","network:wikipedia":"en:Flixbus","public_transport:version":"2"},"10479154":{"to":"Дексион","ref":"5","from":"Ново Лисиче","name":"5ka :Ново Лисиче-Дексион","type":"route","route":"bus","operator":"JSP"},"10483461":{"to":"Ново Лисиче","ref":"5","from":"Дексион","name":"5ka: Дексион-Ново Лисиче","type":"route","route":"bus","operator":"ЈСП Скопје"},"12600424":{"to":"Музеј на Современа Уметност Т","fee":"yes","ref":"17","from":"Островска Т-Почетна","name":"Насока: Островска кон Музеј на Современа Уметност","type":"route","route":"bus","name:en":"Direction: Ostrovska to Museum of Modern Art","network":"Skopje:local","duration":"00:40:00","interval":"01:20:00","operator":"ЈСП Скопје","opening_hours":"Mo-Su 09:00-13:05","public_transport:version":"2"},"12601354":{"to":"Островска Т-Крајна","fee":"yes","ref":"17","from":"Музеј на Современа Уметност Т","name":"Насока: Музеј на Современа Уметност кон Островска","type":"route","route":"bus","name:en":"Direction: Museum of Modern Art to Ostrovska","network":"Skopje:local","duration":"00:40:00","interval":"01:20:00","operator":"ЈСП Скопје","opening_hours":"Mo-Su 09:40-13:45","public_transport:version":"2"},"12655791":{"to":"Алкалоид","fee":"yes","ref":"2","from":"Сарај Т-Почетна","name":"Насока: С.Сарај до Автокоманда","type":"route","route":"bus","name:en":"Direction: Saraj T-Starting to Alkaloid","network":"Skopje:local","duration":"00:45:00","interval":"00:20:00","operator":"ЈСП Скопје","opening_hours":"Mo-Su 05:15-23:05","public_transport:version":"2"},"12718930":{"to":"Карпош 3 ТЦ Сити Мол Т","fee":"yes","ref":"7","from":"Хемтекс Т-Почетна","name":"Насока: Горно Лисиче - Карпош 3","type":"route","route":"bus","name:en":"Direction: Upper Lisiche - Karposh 3","network":"Skopje:local","website":"http://jsp.com.mk/","duration":"00:45:00","interval":"00:25:00","operator":"ЈСП Скопје","reservation":"no","opening_hours":"Mo-Su 05:00-22:45","public_transport:version":"2"},"16523102":{"to":"ПРИПОР","fee":"yes","ref":"24","from":"ТАФТАЛИЏЕ 2","name":"24","type":"route","route":"bus","charge":"120 MKD","network":"Skopje:local","operator":"ЈСП Скопје"}}