{"3094425":{"fax":"+853 2885 0089","ref":"52","name":"52 路線 Carreira n.º 52","type":"route","phone":"+853 2885 0060","route":"bus","name:en":"Line 52","name:pt":"Carreira n.º 52","name:zh":"52 路線","network":"Macau","website":"http://tcm.com.mo/","operator":"澳巴 TCM","payment:ic":"yes","wheelchair":"yes","payment:cash":"yes","payment:coins":"yes","service_times":"Mo-Su 06:00-24:00","payment:city_union":"yes"},"3259277":{"fax":"+853 2885 0089","ref":"73","name":"73 路線 Carreira n.º 73","type":"route","phone":"+853 2885 0060","route":"bus","name:en":"Line 73","name:pt":"Carreira n.º 73","name:zh":"73 路線","network":"Macau","website":"http://tcm.com.mo/","operator":"澳巴 TCM","payment:ic":"yes","wheelchair":"yes","payment:cash":"yes","payment:coins":"yes","service_times":"Mo-Su 06:30-00:10","payment:city_union":"yes"},"3685829":{"fax":"+853 2823 4416","ref":"51","name":"51 路線 Carreira n.º 51","type":"route","phone":"+853 2827 1122","route":"bus","name:en":"Line 51","name:pt":"Carreira n.º 51","name:zh":"51 路線","network":"Macau","website":"https://www.transmac.com.mo/","operator":"新福利 Transmac","payment:ic":"yes","wheelchair":"yes","payment:cash":"yes","payment:coins":"yes","service_times":"Mo-Su 05:30-01:00","payment:city_union":"yes"},"3685830":{"fax":"+853 2823 4416","ref":"72","name":"72 路線 Carreira n.º 72","type":"route","phone":"+853 2827 1122","route":"bus","name:en":"Line 72","name:pt":"Carreira n.º 72","name:zh":"72 路線","network":"Macau","website":"https://www.transmac.com.mo/","operator":"新福利 Transmac","payment:ic":"yes","wheelchair":"yes","payment:cash":"yes","payment:coins":"yes","service_times":"Mo-Su 06:00-00:15","payment:city_union":"yes"},"3685831":{"ref":"37T","name":"37T 路線 Carreira n.º 37T","type":"route","phone":"+853 2827 1122","route":"bus","name:en":"Line 37T","name:pt":"Carreira n.º 37T","name:zh":"37T 路線","network":"Macau","website":"https://www.transmac.com.mo/","operator":"Transmac"},"3788864":{"fax":"+853 2823 4416","ref":"39","name":"39 路線 Carreira n.º 39","type":"route","phone":"+853 2827 1122","route":"bus","name:en":"Line 39","name:pt":"Carreira n.º 39","name:zh":"39 路線","network":"Macau","website":"https://www.transmac.com.mo/","operator":"新福利 Transmac","payment:ic":"yes","wheelchair":"yes","payment:cash":"yes","payment:coins":"yes","service_times":"Mo-Su 06:00-00:00","payment:city_union":"yes"},"3788958":{"fax":"+853 2823 4416","ref":"37","name":"37 路線 Carreira n.º 37","type":"route","phone":"+853 2827 1122","route":"bus","name:en":"Line 37","name:pt":"Carreira n.º 37","name:zh":"37 路線","network":"Macau","website":"https://www.transmac.com.mo/","operator":"新福利 Transmac","payment:ic":"yes","wheelchair":"no","payment:cash":"yes","payment:coins":"yes","service_times":"Mo-Su 07:00-23:30","payment:city_union":"yes"},"3788959":{"fax":"+853 2885 0089","ref":"6B","name":"6B 路線 Carreira n.º 6B","type":"route","phone":"+853 2885 0060","route":"bus","name:en":"Line 6B","name:pt":"Carreira n.º 6B","name:zh":"6B 路線","network":"Macau","website":"http://tcm.com.mo/","operator":"澳巴 TCM","payment:ic":"yes","wheelchair":"no","payment:cash":"yes","payment:coins":"yes","service_times":"Mo-Su 06:15-23:30","payment:city_union":"yes"},"3788960":{"fax":"+853 2885 0089","ref":"MT3","name":"MT3 路線 Carreira n.º MT3","type":"route","phone":"+853 2885 0060","route":"bus","name:en":"Line MT3","name:pt":"Carreira n.º MT3U","name:zh":"MT3 路線","network":"Macau","website":"http://tcm.com.mo/","operator":"澳巴 TCM","payment:ic":"yes","wheelchair":"yes","payment:cash":"yes","payment:coins":"yes","service_times":"Mo-Su 06:50-20:30","payment:city_union":"yes"},"3790493":{"ref":"MT4","name":"MT4 路線 Carreira n.º MT4","type":"route","phone":"+853 2827 1122","route":"bus","name:en":"Line MT4","name:pt":"Carreira n.o MT4","name:zh":"MT4 路線","network":"Macau","website":"https://www.transmac.com.mo/","operator":"Transmac","payment:ic":"yes","wheelchair":"yes","payment:cash":"yes","payment:coins":"yes","service_times":"Mo-Su 05:45-00:45","payment:city_union":"yes"},"3790494":{"fax":"+853 2885 0089","ref":"N1A","name":"N1A 路線 Carreira n.º N1A","type":"route","phone":"+853 2885 0060","route":"bus","name:en":"Line N1A","name:pt":"Carreira n.º N1A","name:zh":"N1A 路線","network":"Macau","website":"http://tcm.com.mo/","operator":"澳巴 TCM","payment:ic":"yes","wheelchair":"no","payment:cash":"yes","payment:coins":"yes","service_times":"Mo-Su 00:00-06:00","payment:city_union":"yes"},"3790495":{"fax":"+853 2885 0089","ref":"N1B","name":"N1B 路線 Carreira n.º N1B","type":"route","phone":"+853 2885 0060","route":"bus","name:en":"Line N1B","name:pt":"Carreira n.º N1B","name:zh":"N1B 路線","network":"Macau","website":"http://tcm.com.mo/","operator":"澳巴 TCM","payment:ic":"yes","wheelchair":"no","payment:cash":"yes","payment:coins":"yes","service_times":"Mo-Su 00:00-06:00","payment:city_union":"yes"},"3837582":{"fax":"+853 2823 4416","ref":"1A","name":"1A 路線 Carreira n.º 1A","type":"route","phone":"+853 2827 1122","route":"bus","name:en":"Line 1A","name:pt":"Carreira n.º 1A","name:zh":"1A 路線","network":"Macau","website":"https://www.transmac.com.mo/","operator":"新福利 Transmac","payment:ic":"yes","wheelchair":"yes","payment:cash":"yes","payment:coins":"yes","service_times":"Mo-Su 06:00-00:10","payment:city_union":"yes"},"3837583":{"fax":"+853 2885 0089","ref":"2","name":"2 路線 Carreira n.º 2","type":"route","phone":"+853 2885 0060","route":"bus","name:en":"Line 2","name:pt":"Carreira n.º 2","name:zh":"2 路線","network":"Macau","website":"http://tcm.com.mo/","operator":"澳巴 TCM","payment:ic":"yes","wheelchair":"yes","payment:cash":"yes","payment:coins":"yes","service_times":"Mo-Su 06:18-00:20","payment:city_union":"yes"},"3837584":{"fax":"+853 2885 0089","ref":"2A","name":"2A 路線 Carreira n.º 2A","type":"route","phone":"+853 2885 0060","route":"bus","name:en":"Line 2A","name:pt":"Carreira n.º 2A","name:zh":"2A 路線","network":"Macau","website":"http://tcm.com.mo/","operator":"澳巴 TCM","payment:ic":"yes","wheelchair":"limited","payment:cash":"yes","payment:coins":"yes","service_times":"Mo-Su 06:36-23:40","payment:city_union":"yes"},"3838947":{"fax":"+853 2885 0089","ref":"12","name":"12 路線 Carreira n.º 12","type":"route","phone":"+853 2885 0060","route":"bus","name:en":"Line 12","name:pt":"Carreira n.º 12","name:zh":"12 路線","network":"Macau","website":"http://tcm.com.mo/","operator":"澳巴 TCM","payment:ic":"yes","wheelchair":"yes","payment:cash":"yes","payment:coins":"yes","service_times":"Mo-Su 06:0-00:11","payment:city_union":"yes"},"3838948":{"fax":"+853 2885 0089","ref":"22","name":"22 路線 Carreira n.º 22","type":"route","phone":"+853 2885 0060","route":"bus","name:en":"Line 22","name:pt":"Carreira n.º 22","name:zh":"22 路線","network":"Macau","website":"http://tcm.com.mo/","operator":"澳巴 TCM","payment:ic":"yes","wheelchair":"yes","payment:cash":"yes","payment:coins":"yes","service_times":"Mo-Su 06:15-00:09","payment:city_union":"yes"},"3838949":{"fax":"+853 2885 0089","ref":"N3","name":"N3 路線 Carreira n.º N3","type":"route","phone":"+853 2885 0060","route":"bus","name:en":"Line N3","name:pt":"Carreira n.º N3","name:zh":"N3 路線","network":"Macau","website":"http://tcm.com.mo/","operator":"澳巴 TCM","payment:ic":"yes","wheelchair":"yes","payment:cash":"yes","payment:coins":"yes","service_times":"Mo-Su 00:00-06:00","payment:city_union":"yes"},"3865090":{"fax":"+853 2875 5220","ref":"3X","name":"3X 路線 Carreira n.º 3X","type":"route","phone":"+853 2877 7888","route":"bus","name:en":"Line 3X","name:pt":"Carreira n.º 3X","name:zh":"3X 路線","network":"Macau","website":"http://newera.com.mo/","operator":"新時代 New Era","payment:ic":"yes","wheelchair":"yes","payment:cash":"yes","payment:coins":"yes","service_times":"Mo-Su 07:00-23:00","payment:city_union":"yes"},"3869030":{"to":"媽閣總站","fax":"+853 2875 5220","ref":"1","from":"關閘總站","name":"1 路線 Carreira n.º 1","type":"route","phone":"+853 2877 7888","route":"bus","name:en":"Line 1","name:pt":"Carreira n.º 1","name:zh":"1 路線","network":"Macau","website":"http://newera.com.mo/","operator":"澳巴 TCM","payment:ic":"yes","wheelchair":"yes","payment:cash":"yes","payment:coins":"yes","service_times":"Mo-Su 05:45-01:15","payment:city_union":"yes"},"3869031":{"fax":"+853 2875 5220","ref":"10","name":"10 路線 Carreira n.º 10","type":"route","phone":"+853 2877 7888","route":"bus","name:en":"Line 10","name:pt":"Carreira n.º 10","name:zh":"10 路線","network":"Macau","website":"http://newera.com.mo/","operator":"新時代 New Era","payment:ic":"yes","wheelchair":"yes","payment:cash":"yes","payment:coins":"yes","service_times":"Mo-Su 05:45-01:15","payment:city_union":"yes"},"3869032":{"fax":"+853 2875 5220","ref":"10A","name":"10A 路線 Carreira n.º 10A","type":"route","phone":"+853 2877 7888","route":"bus","name:en":"Line 10A","name:pt":"Carreira n.º 10A","name:zh":"10A 路線","network":"Macau","website":"http://newera.com.mo/","operator":"新時代 New Era","payment:ic":"yes","wheelchair":"no","payment:cash":"yes","payment:coins":"yes","service_times":"Mo-Su 06:15-24:00","payment:city_union":"yes"},"3869033":{"fax":"+853 2875 5220","ref":"10B","name":"10B 路線 Carreira n.º 10B","type":"route","phone":"+853 2877 7888","route":"bus","name:en":"Line 10B","name:pt":"Carreira n.º 10B","name:zh":"10B 路線","network":"Macau","website":"http://newera.com.mo/","operator":"新時代 New Era","roundtrip":"yes","payment:ic":"yes","wheelchair":"no","payment:cash":"yes","payment:coins":"yes","service_times":"Mo-Su 06:00-01:15","payment:city_union":"yes"},"3869034":{"fax":"+853 2875 5220","ref":"10X","name":"10X 路線 Carreira n.º 10X","type":"route","phone":"+853 2877 7888","route":"bus","name:en":"Line 10X","name:pt":"Carreira n.º 10X","name:zh":"10X 路線","network":"Macau","website":"http://newera.com.mo/","operator":"新時代 New Era","payment:ic":"yes","wheelchair":"yes","payment:cash":"yes","payment:coins":"yes","service_times":"Mo-Sa 07:00-09:00; PH off","payment:city_union":"yes"},"3869035":{"fax":"+853 2875 5220","ref":"11","name":"11 路線 Carreira n.º 11","type":"route","phone":"+853 2877 7888","route":"bus","name:en":"Line 11","name:pt":"Carreira n.º 11","name:zh":"11 路線","network":"Macau","website":"http://newera.com.mo/","operator":"新時代 New Era","roundtrip":"yes","payment:ic":"yes","wheelchair":"no","payment:cash":"yes","payment:coins":"yes","service_times":"Mo-Su 06:10-24:00","payment:city_union":"yes"},"3869036":{"fax":"+853 2875 5220","ref":"18","name":"18 路線 Carreira n.º 18","type":"route","phone":"+853 2877 7888","route":"bus","name:en":"Line 18","name:pt":"Carreira n.º 18","name:zh":"18 路線","network":"Macau","website":"http://newera.com.mo/","operator":"新時代 New Era","payment:ic":"yes","wheelchair":"no","payment:cash":"yes","payment:coins":"yes","service_times":"Mo-Su 05:45-01:10","payment:city_union":"yes"},"3869037":{"fax":"+853 2875 5220","ref":"23","name":"23 路線 Carreira n.º 23","type":"route","phone":"+853 2877 7888","route":"bus","name:en":"Line 23","name:pt":"Carreira n.º 23","name:zh":"23 路線","network":"Macau","website":"http://newera.com.mo/","operator":"新時代 New Era","payment:ic":"yes","wheelchair":"no","payment:cash":"yes","payment:coins":"yes","service_times":"Mo-Su 06:30-23:30","payment:city_union":"yes"},"3869038":{"fax":"+853 2875 5220","ref":"27","name":"27 路線 Carreira n.º 27","type":"route","phone":"+853 2877 7888","route":"bus","name:en":"Line 27","name:pt":"Carreira n.º 27","name:zh":"27 路線","network":"Macau","website":"http://newera.com.mo/","operator":"新時代 New Era","payment:ic":"yes","wheelchair":"no","payment:cash":"yes","payment:coins":"yes","service_times":"Mo-Su 06:00-22:00","payment:city_union":"yes"},"3869039":{"fax":"+853 2875 5220","ref":"28A","name":"28A 路線 Carreira n.º 28A","type":"route","phone":"+853 2877 7888","route":"bus","name:en":"Line 28A","name:pt":"Carreira n.º 28A","name:zh":"28A 路線","network":"Macau","website":"http://newera.com.mo/","operator":"新時代 New Era","payment:ic":"yes","wheelchair":"no","payment:cash":"yes","payment:coins":"yes","service_times":"Mo-Su 06:30-00:10","payment:city_union":"yes"},"3869040":{"fax":"+853 2875 5220","ref":"28B","name":"28B 路線 Carreira n.º 28B","type":"route","phone":"+853 2877 7888","route":"bus","name:en":"Line 28B","name:pt":"Carreira n.º 28B","name:zh":"28B 路線","network":"Macau","website":"http://newera.com.mo/","operator":"新時代 New Era","payment:ic":"yes","wheelchair":"no","payment:cash":"yes","payment:coins":"yes","service_times":"Mo-Su 06:15-23:45","payment:city_union":"yes"},"3869041":{"fax":"+853 2875 5220","ref":"29","name":"29 路線 Carreira n.º 29","type":"route","phone":"+853 2877 7888","route":"bus","name:en":"Line 29","name:pt":"Carreira n.º 29","name:zh":"29 路線","network":"Macau","website":"http://tcm.com.mo/","operator":"澳巴 TCM","payment:ic":"yes","wheelchair":"no","payment:cash":"yes","payment:coins":"yes","service_times":"Mo-Su 07:30-19:15","payment:city_union":"yes"},"3869042":{"fax":"+853 2875 5220","ref":"3","name":"3 路線 Carreira n.º 3","type":"route","phone":"+853 2877 7888","route":"bus","name:en":"Line 3","name:pt":"Carreira n.º 3","name:zh":"3 路線","network":"Macau","website":"http://newera.com.mo/","operator":"新時代 New Era","payment:ic":"yes","wheelchair":"yes","payment:cash":"yes","payment:coins":"yes","service_times":"Mo-Su 05:45-01:15","payment:city_union":"yes"},"3869043":{"fax":"+853 2875 5220","ref":"30","name":"30 路線 Carreira n.º 30","type":"route","phone":"+853 2877 7888","route":"bus","name:en":"Line 30","name:pt":"Carreira n.º 30","name:zh":"30 路線","network":"Macau","website":"http://newera.com.mo/","operator":"新時代 New Era","payment:ic":"yes","wheelchair":"yes","payment:cash":"yes","payment:coins":"yes","service_times":"Mo-Su 06:00-01:10","payment:city_union":"yes"},"3869044":{"to":"駕駛學習暨考試中心","fax":"+853 2875 5220","ref":"35","from":"蘇利安圓形地","name":"35 路線 Carreira n.º 35","type":"route","phone":"+853 2877 7888","route":"bus","name:en":"Line 35","name:pt":"Carreira n.º 35","name:zh":"35 路線","network":"Macau","website":"http://www.tcm.com.mo/web/","operator":"澳巴 TCM","payment:ic":"yes","wheelchair":"no","payment:cash":"yes","payment:coins":"yes","service_times":"Mo-Su 07:00-23:00","payment:city_union":"yes"},"3869045":{"fax":"+853 2875 5220","ref":"36","name":"36 路線 Carreira n.º 36","type":"route","phone":"+853 2877 7888","route":"bus","name:en":"Line 36","name:pt":"Carreira n.º 36","name:zh":"36 路線","network":"Macau","website":"http://newera.com.mo/","operator":"新時代 New Era","payment:ic":"yes","wheelchair":"no","payment:cash":"yes","payment:coins":"yes","service_times":"Mo-Su 07:00-23:50","payment:city_union":"yes"},"3869046":{"fax":"+853 2875 5220","ref":"3A","name":"3A 路線 Carreira n.º 3A","type":"route","phone":"+853 2877 7888","route":"bus","name:en":"Line 3A","name:pt":"Carreira n.º 3A","name:zh":"3A 路線","network":"Macau","website":"http://newera.com.mo/","operator":"新時代 New Era","payment:ic":"yes","wheelchair":"no","payment:cash":"yes","payment:coins":"yes","service_times":"Mo-Su 05:40-01:10","payment:city_union":"yes"},"3869047":{"fax":"+853 2875 5220","ref":"50","name":"50 路線 Carreira n.º 50","type":"route","phone":"+853 2877 7888","route":"bus","name:en":"Line 50","name:pt":"Carreira n.º 50","name:zh":"50 路線","network":"Macau","website":"http://newera.com.mo/","operator":"新時代 New Era","payment:ic":"yes","wheelchair":"yes","payment:cash":"yes","payment:coins":"yes","service_times":"Mo-Su 07:00-09:00,17:00-20:00","payment:city_union":"yes"},"3869048":{"fax":"+853 2875 5220","ref":"50B","name":"50B 路線 Carreira n.º 50B","type":"route","phone":"+853 2877 7888","route":"bus","name:en":"Line 50B","name:pt":"Carreira n.º 50B","name:zh":"50B 路線","network":"Macau","website":"http://newera.com.mo/","operator":"澳巴 TCM","payment:ic":"yes","wheelchair":"no","payment:cash":"yes","payment:coins":"yes","service_times":"Mo-Su 06:30-20:30","payment:city_union":"yes"},"3869049":{"fax":"+853 2875 5220","ref":"8","name":"8 路線 Carreira n.º 8","type":"route","phone":"+853 2877 7888","route":"bus","name:en":"Line 8","name:pt":"Carreira n.º 8","name:zh":"8 路線","network":"Macau","website":"http://newera.com.mo/","operator":"新時代 New Era","payment:ic":"yes","wheelchair":"no","payment:cash":"yes","payment:coins":"yes","service_times":"Mo-Su 06:10-00:10","payment:city_union":"yes"},"3869050":{"fax":"+853 2875 5220","ref":"8A","name":"8A 路線 Carreira n.º 8A","type":"route","phone":"+853 2877 7888","route":"bus","name:en":"Line 8A","name:pt":"Carreira n.º 8A","name:zh":"8A 路線","network":"Macau","website":"http://newera.com.mo/","operator":"新時代 New Era","roundtrip":"yes","payment:ic":"yes","wheelchair":"no","payment:cash":"yes","payment:coins":"yes","service_times":"Mo-Su 06:10-00:10","payment:city_union":"yes"},"3869051":{"fax":"+853 2875 5220","ref":"H1","name":"H1 路線 Carreira n.º H1","type":"route","phone":"+853 2877 7888","route":"bus","name:en":"Line H1","name:pt":"Carreira n.º H1","name:zh":"H1 路線","network":"Macau","website":"http://newera.com.mo/","operator":"澳巴 TCM","payment:ic":"yes","wheelchair":"no","payment:cash":"yes","payment:coins":"yes","service_times":"Mo-Su 07:30-23:30","payment:city_union":"yes"},"3869052":{"fax":"+853 2875 5220","ref":"MT1","name":"MT1 路線 Carreira n.º MT1","type":"route","phone":"+853 2877 7888","route":"bus","name:en":"Line MT1","name:pt":"Carreira n.º MT1","name:zh":"MT1 路線","network":"Macau","website":"http://newera.com.mo/","operator":"新時代 New Era","payment:ic":"yes","wheelchair":"yes","payment:cash":"yes","payment:coins":"yes","service_times":"Mo-Su 07:30-22:30","payment:city_union":"yes"},"3869053":{"fax":"+853 2875 5220","ref":"MT2","name":"MT2 路線 Carreira n.º MT2","type":"route","phone":"+853 2877 7888","route":"bus","name:en":"Line MT2","name:pt":"Carreira n.º MT2","name:zh":"MT2 路線","network":"Macau","website":"http://newera.com.mo/","operator":"新時代 New Era","payment:ic":"yes","wheelchair":"yes","payment:cash":"yes","payment:coins":"yes","service_times":"Mo-Su 07:00-21:45","payment:city_union":"yes"},"3869054":{"fax":"+853 2875 5220","ref":"21A","name":"21A 路線 Carreira n.º 21A","type":"route","phone":"+853 2877 7888","route":"bus","name:en":"Line 21A","name:pt":"Carreira n.º 21A","name:zh":"21A 路線","network":"Macau","website":"http://newera.com.mo/","operator":"新時代 New Era","payment:ic":"yes","wheelchair":"no","payment:cash":"yes","payment:coins":"yes","service_times":"Mo-Su 07:00-23:30","payment:city_union":"yes"},"3949159":{"fax":"+853 2875 5220","ref":"71","name":"71 路線 Carreira n.º 71","type":"route","phone":"+853 2877 7888","route":"bus","name:en":"Line 71","name:pt":"Carreira n.º 71","name:zh":"71 路線","network":"Macau","website":"http://newera.com.mo/","operator":"新時代 New Era","payment:ic":"yes","wheelchair":"yes","payment:cash":"yes","payment:coins":"yes","service_times":"Mo-Su 06:30-00:00","payment:city_union":"yes"},"4105223":{"fax":"+853 2875 5220","ref":"59","name":"59 路線 Carreira n.º 59","type":"route","phone":"+853 2877 7888","route":"bus","name:en":"Line 59","name:pt":"Carreira n.º 59","name:zh":"59 路線","network":"Macau","website":"http://newera.com.mo/","operator":"新時代 New Era","payment:ic":"yes","wheelchair":"yes","payment:cash":"yes","payment:coins":"yes","service_times":"Mo-Su 16:00-20:00","payment:city_union":"yes"},"4250783":{"fax":"+853 2875 5220","ref":"55","name":"55 路線 Carreira n.º 59","type":"route","phone":"+853 2877 7888","route":"bus","name:en":"Line 55","name:pt":"Carreira n.º 55","name:zh":"55 路線","network":"Macau","website":"http://newera.com.mo/","operator":"新時代 New Era","payment:ic":"yes","wheelchair":"yes","payment:cash":"yes","payment:coins":"yes","service_times":"Mo-Su 06:00-24:00","payment:city_union":"yes"},"4282866":{"fax":"+853 2823 4416","ref":"15","name":"15 路線 Carreira n.º 15","type":"route","phone":"+853 2827 1122","route":"bus","name:en":"Line 15","name:pt":"Carreira n.º 15","name:zh":"15 路線","network":"Macau","website":"https://www.transmac.com.mo/","operator":"新福利 Transmac","payment:ic":"yes","wheelchair":"no","payment:cash":"yes","payment:coins":"yes","service_times":"Mo-Su 06:00-20:00","payment:city_union":"yes"},"4282867":{"fax":"+853 2823 4416","ref":"16","name":"16 路線 Carreira n.º 16","type":"route","phone":"+853 2827 1122","route":"bus","name:en":"Line 16","name:pt":"Carreira n.º 16","name:zh":"16 路線","network":"Macau","website":"https://www.transmac.com.mo/","operator":"新福利 Transmac","payment:ic":"yes","wheelchair":"no","payment:cash":"yes","payment:coins":"yes","service_times":"Mo-Su 06:00-01:00","payment:city_union":"yes"},"4282868":{"fax":"+853 2823 4416","ref":"33","name":"33 路線 Carreira n.º 33","type":"route","phone":"+853 2827 1122","route":"bus","name:en":"Line 33","name:pt":"Carreira n.º33","name:zh":"33 路線","network":"Macau","website":"https://www.transmac.com.mo/","operator":"新福利 Transmac","payment:ic":"yes","wheelchair":"yes","payment:cash":"yes","payment:coins":"yes","service_times":"Mo-Su 05:30-00:30","payment:city_union":"yes"},"4282869":{"fax":"+853 2823 4416","ref":"4","name":"4 路線 Carreira n.º 4","type":"route","phone":"+853 2827 1122","route":"bus","name:en":"Line 4","name:pt":"Carreira n.º 4","name:zh":"4 路線","network":"Macau","website":"https://www.transmac.com.mo/","operator":"新福利 Transmac","payment:ic":"yes","wheelchair":"yes","payment:cash":"yes","payment:coins":"yes","service_times":"Mo-Su 06:00-00:10","payment:city_union":"yes"},"4282870":{"fax":"+853 2823 4416","ref":"5","name":"5 路線 Carreira n.º 5","type":"route","phone":"+853 2827 1122","route":"bus","name:en":"Line 5","name:pt":"Carreira n.º 5","name:zh":"5 路線","network":"Macau","website":"https://www.transmac.com.mo/","operator":"新福利 Transmac","payment:ic":"yes","wheelchair":"yes","payment:cash":"yes","payment:coins":"yes","service_times":"Mo-Su 05:40-01:15","payment:city_union":"yes"},"4282871":{"fax":"+853 2823 4416","ref":"5X","name":"5X 路線 Carreira n.º 5X","type":"route","phone":"+853 2827 1122","route":"bus","name:en":"Line 5X","name:pt":"Carreira n.º 5X","name:zh":"5X 路線","network":"Macau","website":"https://www.transmac.com.mo/","operator":"新福利 Transmac","payment:ic":"yes","wheelchair":"yes","payment:cash":"yes","payment:coins":"yes","service_times":"Mo-Sa 07:00-09:30,17:00-19:30; PH off","payment:city_union":"yes"},"4282872":{"fax":"+853 2885 0089","ref":"6A","name":"6A 路線 Carreira n.º 6A","type":"route","phone":"+853 2885 0060","route":"bus","name:en":"Line 6A","name:pt":"Carreira n.º 6A","name:zh":"6A 路線","network":"Macau","website":"http://tcm.com.mo/","operator":"澳巴 TCM","payment:ic":"yes","wheelchair":"no","payment:cash":"yes","payment:coins":"yes","service_times":"Mo-Su 06:15-23:33","payment:city_union":"yes"},"4282874":{"fax":"+853 2885 0089","ref":"7","name":"7 路線 Carreira n.º 7","type":"route","phone":"+853 2885 0060","route":"bus","name:en":"Line 7","name:pt":"Carreira n.º 7","name:zh":"7 路線","network":"Macau","website":"http://tcm.com.mo/","operator":"澳巴 TCM","payment:ic":"yes","wheelchair":"no","payment:cash":"yes","payment:coins":"yes","service_times":"Mo-Su 06:15-00:10","payment:city_union":"yes"},"4282875":{"fax":"+853 2823 4416","ref":"9","name":"9 路線 Carreira n.º 9","type":"route","phone":"+853 2827 1122","route":"bus","name:en":"Line 9","name:pt":"Carreira n.º 9","name:zh":"9 路線","network":"Macau","website":"https://www.transmac.com.mo/","operator":"新福利 Transmac","payment:ic":"yes","wheelchair":"no","payment:cash":"yes","payment:coins":"yes","service_times":"Mo-Su 05:45-01:10","payment:city_union":"yes"},"4282876":{"fax":"+853 2823 4416","ref":"9A","name":"9A 路線 Carreira n.º 9A","type":"route","phone":"+853 2827 1122","route":"bus","name:en":"Line 9A","name:pt":"Carreira n.º 9","name:zh":"9A 路線","network":"Macau","website":"https://www.transmac.com.mo/","operator":"新福利 Transmac","payment:ic":"yes","wheelchair":"yes","payment:cash":"yes","payment:coins":"yes","service_times":"Mo-Su 05:45-01:30","payment:city_union":"yes"},"4282877":{"fax":"+853 2823 4416","ref":"AP1","name":"AP1 路線 Carreira n.º AP1","type":"route","phone":"+853 2827 1122","route":"bus","name:en":"Line AP1","name:pt":"Carreira n.º AP1","name:zh":"AP1 路線","network":"Macau","website":"https://www.transmac.com.mo/","operator":"新福利 Transmac","payment:ic":"yes","wheelchair":"yes","payment:cash":"yes","payment:coins":"yes","service_times":"Mo-Su 06:00-01:20","payment:city_union":"yes"},"4282878":{"fax":"+853 2875 5220","ref":"N4","name":"N4 路線 Carreira n.º N4","type":"route","phone":"+853 2877 7888","route":"bus","name:en":"Line N4","name:pt":"Carreira n.º N4","name:zh":"N4 路線","network":"Macau","website":"http://newera.com.mo/","operator":"新時代 New Era","payment:ic":"yes","wheelchair":"no","payment:cash":"yes","payment:coins":"yes","service_times":"Mo-Su 00:00-06:00","payment:city_union":"yes"},"4451974":{"to":"澳門文化中心","fax":"+853 2823 4416","ref":"17","from":"白鴿巢總站","name":"17 路線 Carreira n.º 17","type":"route","phone":"+853 2827 1122","route":"bus","name:en":"Line 17","name:pt":"Carreira n.º 17","name:zh":"17 路線","network":"Macau","website":"https://www.transmac.com.mo/","operator":"新福利 Transmac","payment:ic":"yes","wheelchair":"no","payment:cash":"yes","payment:coins":"yes","service_times":"Mo-Su 05:30-00:50","payment:city_union":"yes"},"4451975":{"fax":"+853 2885 0089","ref":"18A","name":"18A 路線 Carreira n.º 18A","type":"route","phone":"+853 2885 0060","route":"bus","name:en":"Line 18A","name:pt":"Carreira n.º 18A","name:zh":"18A 路線","network":"Macau","website":"http://tcm.com.mo/","operator":"澳巴 TCM","payment:ic":"yes","wheelchair":"no","payment:cash":"yes","payment:coins":"yes","service_times":"Mo-Su 06:22-23:38","payment:city_union":"yes"},"4451976":{"fax":"+853 2885 0089","ref":"19","name":"19 路線 Carreira n.º 19","type":"route","phone":"+853 2885 0060","route":"bus","name:en":"Line 19","name:pt":"Carreira n.º 19","name:zh":"19 路線","network":"Macau","website":"http://tcm.com.mo/","operator":"澳巴 TCM","payment:ic":"yes","wheelchair":"no","payment:cash":"yes","payment:coins":"yes","service_times":"Mo-Su 06:13-23:51","payment:city_union":"yes"},"4451977":{"fax":"+853 2823 4416","ref":"25","name":"25 路線 Carreira n.º 25","type":"route","phone":"+853 2827 1122","route":"bus","name:en":"Line 25","name:pt":"Carreira n.º 25","name:zh":"25 路線","network":"Macau","website":"https://www.transmac.com.mo/","operator":"新福利 Transmac","payment:ic":"yes","wheelchair":"yes","payment:cash":"yes","payment:coins":"yes","service_times":"Mo-Su 05:30-01:15","payment:city_union":"yes"},"4451978":{"fax":"+853 2823 4416","ref":"25B","name":"25B 路線 Carreira n.º 25B","type":"route","phone":"+853 2827 1122","route":"bus","name:en":"Line 25B","name:pt":"Carreira n.º 25B","name:zh":"25B 路線","network":"Macau","website":"https://www.transmac.com.mo/","operator":"新福利 Transmac","payment:ic":"yes","wheelchair":"limited","payment:cash":"yes","payment:coins":"yes","service_times":"Mo-Su 06:00-01:00","payment:city_union":"yes"},"4451979":{"fax":"+853 2823 4416","ref":"26","name":"26 路線 Carreira n.º 26","type":"route","phone":"+853 2827 1122","route":"bus","name:en":"Line 26","name:pt":"Carreira n.º 26","name:zh":"26 路線","network":"Macau","website":"https://www.transmac.com.mo/","operator":"新福利 Transmac","payment:ic":"yes","wheelchair":"yes","payment:cash":"yes","payment:coins":"yes","service_times":"Mo-Su 06:00-24:00","payment:city_union":"yes"},"4451980":{"fax":"+853 2823 4416","ref":"26A","name":"26A 路線 Carreira n.º 26A","type":"route","phone":"+853 2827 1122","route":"bus","name:en":"Line 26A","name:pt":"Carreira n.º 26A","name:zh":"26A 路線","network":"Macau","website":"https://www.transmac.com.mo/","operator":"新福利 Transmac","payment:ic":"yes","wheelchair":"yes","payment:cash":"yes","payment:coins":"yes","service_times":"Mo-Su 06:00-01:00","payment:city_union":"yes"},"4451981":{"fax":"+853 2823 4416","ref":"32","name":"32 路線 Carreira n.º 32","type":"route","phone":"+853 2827 1122","route":"bus","name:en":"Line 32","name:pt":"Carreira n.º32","name:zh":"32 路線","network":"Macau","website":"https://www.transmac.com.mo/","operator":"新福利 Transmac","payment:ic":"yes","wheelchair":"yes","payment:cash":"yes","payment:coins":"yes","service_times":"Mo-Su 06:00-00:00","payment:city_union":"yes"},"4543130":{"fax":"+853 2823 4416","ref":"28C","name":"28C 路線 Carreira n.º 28C","type":"route","phone":"+853 2827 1122","route":"bus","name:en":"Line 28C","name:pt":"Carreira n.º 28C","name:zh":"28C 路線","network":"Macau","website":"https://www.transmac.com.mo/","operator":"新福利 Transmac","payment:ic":"yes","wheelchair":"no","payment:cash":"yes","payment:coins":"yes","service_times":"Mo-Su 06:00-01:00","payment:city_union":"yes"},"4636161":{"fax":"+853 2823 4416","ref":"34","name":"34 路線 Carreira n.º 34","type":"route","phone":"+853 2827 1122","route":"bus","name:en":"Line 34","name:pt":"Carreira n.º34","name:zh":"34 路線","network":"Macau","website":"https://www.transmac.com.mo/","operator":"新福利 Transmac","payment:ic":"yes","wheelchair":"yes","payment:cash":"yes","payment:coins":"yes","service_times":"Mo-Su 06:00-01:00","payment:city_union":"yes"},"4636162":{"fax":"+853 2885 0089","ref":"N2","name":"N2 路線 Carreira n.º N2","type":"route","phone":"+853 2885 0060","route":"bus","name:en":"Line N2","name:pt":"Carreira n.º N2","name:zh":"N2 路線","network":"Macau","website":"http://tcm.com.mo/","operator":"澳巴 TCM","payment:ic":"yes","wheelchair":"yes","payment:cash":"yes","payment:coins":"yes","service_times":"Mo-Su 00:00-06:00","payment:city_union":"yes"},"5475570":{"fax":"+853 2875 5220","ref":"MT5","name":"MT5 路線 Carreira n.º MT5","type":"route","phone":"+853 2877 7888","route":"bus","name:en":"Line MT5","name:pt":"Carreira n.º MT5","name:zh":"MT5 路線","network":"Macau","website":"http://newera.com.mo/","operator":"新時代 New Era","payment:ic":"yes","wheelchair":"no","payment:cash":"yes","payment:coins":"yes","service_times":"Mo-Sa 07:00-21:00; PH off","payment:city_union":"yes"},"5714901":{"fax":"+853 2885 0089","ref":"N5","name":"N5 路線 Carreira n.º N5","type":"route","phone":"+853 2885 0060","route":"bus","name:en":"Line N5","name:pt":"Carreira n.º N5","name:zh":"N5 路線","network":"Macau","website":"http://tcm.com.mo/","operator":"澳巴 TCM","payment:ic":"yes","wheelchair":"yes","payment:cash":"yes","payment:coins":"yes","service_times":"Mo-Su 00:00-06:00","payment:city_union":"yes"},"5864584":{"fax":"+853 2823 4416","ref":"H3","name":"H3 路線 Carreira n.º H3","type":"route","phone":"+853 2827 1122","route":"bus","name:en":"Line H3","name:pt":"Carreira n.º H3","name:zh":"H3 路線","network":"Macau","website":"https://www.transmac.com.mo/","operator":"新福利 Transmac","payment:ic":"yes","wheelchair":"no","payment:cash":"yes","payment:coins":"yes","service_times":"Mo-Su 06:20-20:00","payment:city_union":"yes"},"6152389":{"fax":"+853 2885 0089","ref":"N6","name":"N6 路線 Carreira n.º N6","type":"route","phone":"+853 2885 0060","route":"bus","name:en":"Line N6","name:pt":"Carreira n.º N6","name:zh":"N6 路線","network":"Macau","website":"http://tcm.com.mo/","operator":"澳巴 TCM","payment:ic":"yes","wheelchair":"yes","payment:cash":"yes","payment:coins":"yes","service_times":"Mo-Su 00:00-06:00","payment:city_union":"yes"},"6179441":{"fax":"+853 2885 0089","ref":"56","name":"56 路線 Carreira n.º 56","type":"route","phone":"+853 2885 0060","route":"bus","name:en":"Line 56","name:pt":"Carreira n.º 56","name:zh":"56 路線","network":"Macau","website":"http://tcm.com.mo/","operator":"澳巴 TCM","payment:ic":"yes","wheelchair":"yes","payment:cash":"yes","payment:coins":"yes","service_times":"Mo-Su 06:00-00:00","payment:city_union":"yes"},"6454160":{"fax":"+853 2823 4416","ref":"AP1X","name":"AP1X 路線 Carreira n.º AP1X","type":"route","phone":"+853 2827 1122","route":"bus","name:en":"Line AP1X","name:pt":"Carreira n.º AP1X","name:zh":"AP1X 路線","network":"Macau","website":"https://www.transmac.com.mo/","operator":"新福利 Transmac","payment:ic":"yes","wheelchair":"yes","payment:cash":"yes","payment:coins":"yes","service_times":"Mo-Su 06:00-10:00,15:00-20:00","payment:city_union":"yes"},"6537659":{"fax":"+853 2875 5220","ref":"30X","name":"30X 路線 Carreira n.º 30X","type":"route","phone":"+853 2877 7888","route":"bus","name:en":"Line 30X","name:pt":"Carreira n.º 30X","name:zh":"30X 路線","network":"Macau","website":"http://newera.com.mo/","operator":"新時代 New Era","payment:ic":"yes","wheelchair":"yes","payment:cash":"yes","payment:coins":"yes","service_times":"Mo-Sa 07:00-09:00; PH off","payment:city_union":"yes"},"6537660":{"ref":"51A","name":"51A 路線 Carreira n.º 51A","type":"route","phone":"+853 2827 1122","route":"bus","name:en":"Line 51A","name:pt":"Carreira n.o 51A","name:zh":"51A 路線","network":"Macau","website":"https://www.transmac.com.mo/","operator":"Transmac","payment:ic":"yes","wheelchair":"yes","payment:cash":"yes","payment:coins":"yes","service_times":"Mo-Su 06:00-24:00","payment:city_union":"yes"},"6622919":{"fax":"+853 2885 0089","ref":"H2","name":"H2 路線 Carreira n.º H2","type":"route","phone":"+853 2885 0060","route":"bus","name:en":"Line H2","name:pt":"Carreira n.º H2","name:zh":"H2 路線","network":"Macau","website":"http://tcm.com.mo/","operator":"澳巴 TCM","wheelchair":"yes","service_times":"Mo-Fr 06:30-20:00"},"6703915":{"fax":"+853 2823 4416","ref":"32T","name":"32T 路線 Carreira n.º 32T","type":"route","phone":"+853 2827 1122","route":"bus","name:en":"Line 32T","name:pt":"Carreira n.º32T","name:zh":"32T 路線","network":"Macau","website":"https://www.transmac.com.mo/","operator":"新福利 Transmac","wheelchair":"yes","service_times":"Fr-Su 19:00-23:00"},"8115636":{"ref":"5AX","name":"5AX  路線","type":"route","route":"bus","operator":"澳門新福利公共汽車有限公司"},"9159311":{"ref":"101X","name":"101X 路線 Carreira n.º 101X","type":"route","route":"bus","name:en":"Line 101X","name:pt":"Carreira n.º 101X","name:zh":"101X 路線","network":"Macau","operator":"TCM"},"11242923":{"ref":"3AX","name":"3AX 路線 Carreira n.º 3AX","type":"route","route":"bus","name:zh":"3AX 路線"},"11247355":{"ref":"18B","name":"18B 路線 Carreira n.º 18B","type":"route","route":"bus","name:zh":"18B 路線"},"11293298":{"ref":"25AX","name":"25AX 路線 Carreira n.º 25AX","type":"route","route":"bus","name:zh":"25AX 路線"},"11516962":{"ref":"701X","name":"701X 路線 Carreira n.º 701X","type":"route","route":"bus","name:en":"Line 701X","name:pt":"Carreira n.º 701X","name:zh":"701X 路線"},"12048459":{"ref":"73S","name":"73S路線","type":"route","route":"bus"},"12412113":{"ref":"Z52","name":"珠海Z52路","type":"route","route":"bus"},"12412114":{"ref":"Z53","name":"珠海Z53路","type":"route","route":"bus"},"13110948":{"ref":"51X","name":"51X 路線 Carreira n.º 51X","type":"route","route":"bus","name:pt":"Carreira n.º 51X","name:zh":"51X 路線"},"13110949":{"ref":"71S","name":"71S 路線 Carreira n.º 71S","type":"route","route":"bus","name:pt":"Carreira n.º 71S","name:zh":"71S 路線"},"13973529":{"ref":"25BS","name":"25BS 路線","type":"route","route":"bus"},"14293831":{"ref":"Z56","name":"珠海Z56路","type":"route","route":"bus"},"14983093":{"ref":"17S","name":"17S 路線","type":"route","route":"bus"}}