{"31301":{"ref":"T527","name":"T527 Subang Mas - Seksyen 15","type":"route","route":"bus","name:ms":"T527 Subang Mas - Seksyen 15","network":"Rapid KL","operator":"Prasarana Malaysia","network:wikidata":"Q3271384","operator:wikidata":"Q4209298","public_transport:version":"2"},"1824556":{"to":"Taman Dagang","ref":"421","from":"Maybank","name":"421: Bukit Bintang => Taman Dagang","type":"route","route":"bus","name:en":"421: Bukit Bintang => Taman Dagang","name:ms":"421: Bukit Bintang => Taman Dagang","network":"Rapid KL","operator":"Prasarana Malaysia","roundtrip":"no","network:wikidata":"Q3271384","operator:wikidata":"Q4209298","public_transport:version":"2"},"1827216":{"to":"Pasar Seni","ref":"400","from":"Damai Perdana","name":"400: Damai Perdana → Hab Lebuh Pudu","type":"route","route":"bus","operator":"Rapid KL"},"1852545":{"to":"Bukit Bintang KL monorail","ref":"T401","from":"Bandar Sri Permaisuri","name":"T401: MRT Cochrane ↺ Bandar Sri Permaisuri","type":"route","route":"bus","operator":"Rapid KL"},"1858055":{"to":"Titiwangsa","ref":"402","from":"Terminal Maluri","name":"402: Terminal Maluri → Titiwangsa","type":"route","route":"bus","name:en":"402: Terminal Maluri → Titiwangsa","name:ms":"402: Terminal Maluri → Titiwangsa","network":"Rapid KL","operator":"Prasarana Malaysia","network:wikidata":"Q3271384","operator:wikidata":"Q4209298","public_transport:version":"2"},"2155937":{"to":"Relau","ref":"301","from":"Jeti","name":"Jetty - Relau via Jalan Sungai Dua","type":"route","route":"bus","website":"http://www.rapidpg.com.my","operator":"Rapid Penang","public_transport:version":"1"},"2257125":{"ref":"304","name":"Bukit Gedung - Persiaran Gurney","type":"route","route":"bus","website":"http://www.rapidpg.com.my","operator":"Rapid Penang","public_transport:version":"1"},"2418413":{"ref":"204","name":"Penang Hill - Jetty","type":"route","route":"bus","source":"www.rapidpg.com.my","name:zh":"升旗山-码头","operator":"Rapid Penang"},"2662847":{"to":"Hospital Sungai Buloh","ref":"MPS3","via":"KTM Sungai Buloh","from":"Batu Arang","name":"MPS3: Batu Arang → Hospital Sungai Buloh","type":"route","route":"bus","colour":"#f8ed00","name:ms":"MPS3: Batu Arang → Hospital Sungai Buloh","network":"Rapid KL","interval":"02:00","operator":"Prasarana Malaysia","roundtrip":"no","wheelchair":"yes","opening_hours":"Mo-Su 06:00-21:30","source:geometry":"https://www.openstreetmap.org/user/angys/traces/6134274","network:wikidata":"Q3271384","operator:wikidata":"Q4209298","public_transport:version":"2"},"2662848":{"to":"Hab Lebuh Pudu","ref":"107","from":"Bestari Jaya","name":"107: Bestari Jaya → Hab Lebuh Pudu","type":"route","route":"bus","operator":"Selangor Omnibus"},"2712595":{"to":"JB Sentral","fee":"yes","ref":"T32","from":"Flat Taman Selesa Jaya","name":"Svc T32 (Flat Taman Selesa Jaya → JB Sentral)","type":"route","route":"bus","network":"Causeway Link","website":"https://www.causewaylink.com.my/","operator":"Causeway Link","direction":"1","network:wikidata":"Q5054648","network:wikipedia":"en:Causeway Link","operator:wikidata":"Q5054648","operator:wikipedia":"en:Causeway Link","public_transport:version":"1"},"2712598":{"to":"Terminal Bas Kota Tinggi","ref":"T10","from":"JB Sentral","name":"Svc T10 (JB Sentral → Terminal Bas Kota Tinggi)","type":"route","route":"bus","network":"Causeway Link","website":"https://www.causewaylink.com.my/","operator":"Causeway Link","network:wikidata":"Q5054648","network:wikipedia":"en:Causeway Link","operator:wikidata":"Q5054648","operator:wikipedia":"en:Causeway Link","public_transport:version":"1"},"2712602":{"to":"Terminal Putri Kulai","ref":"T30","from":"JB Sentral","name":"Svc T30 (JB Sentral → Terminal Putri Kulai)","type":"route","route":"bus","network":"Causeway Link","operator":"Causeway Link","network:wikidata":"Q5054648","network:wikipedia":"en:Causeway Link","operator:wikidata":"Q5054648","operator:wikipedia":"en:Causeway Link","public_transport:version":"1"},"2832237":{"to":"JB Sentral","ref":"JPO1","from":"Johor Premium Outlet","name":"Svc JPO1 (Johor Premium Outlet → JB Sentral)","type":"route","route":"bus","network":"Causeway Link","website":"https://www.causewaylink.com.my/","operator":"Causeway Link","network:wikidata":"Q5054648","network:wikipedia":"en:Causeway Link","operator:wikidata":"Q5054648","operator:wikipedia":"en:Causeway Link","public_transport:version":"1"},"2893317":{"ref":"751","name":"751: Taman Sri Muda → Hab Pasar Seni","type":"route","route":"bus","name:ms":"751: Taman Sri Muda → Hab Pasar Seni","network":"Rapid KL","operator":"Prasarana Malaysia","network:wikidata":"Q3271384","operator:wikidata":"Q4209298","public_transport:version":"2"},"3031365":{"ref":"302","name":"302: Titiwangsa ↺ KLCC","type":"route","route":"bus","operator":"Rapid KL"},"3107110":{"to":"Terminal Bas Masai","fee":"yes","ref":"F200","from":"Terminal Bas Masai","name":"Svc F200 (Roundtrip from Terminal Bas Masai)","type":"route","route":"bus","network":"Causeway Link","website":"https://www.causewaylink.com.my/","operator":"Causeway Link","direction":"1","network:wikidata":"Q5054648","network:wikipedia":"en:Causeway Link","operator:wikidata":"Q5054648","operator:wikipedia":"en:Causeway Link","public_transport:version":"1"},"3119554":{"to":"Terminal Bas Masai","fee":"yes","ref":"F201","from":"Terminal Bas Masai","name":"Svc F201 (Roundtrip from Terminal Bas Masai)","type":"route","route":"bus","network":"Causeway Link","website":"https://www.causewaylink.com.my/","operator":"Causeway Link","direction":"1","network:wikidata":"Q5054648","network:wikipedia":"en:Causeway Link","operator:wikidata":"Q5054648","operator:wikipedia":"en:Causeway Link","public_transport:version":"1"},"3123008":{"to":"Hub Desa Rakyat","fee":"no","ref":"P302","from":"Terminal Pasir Gudang","name":"Svc P302 (Terminal Pasir Gudang → Hub Desa Rakyat)","type":"route","route":"bus","network":"Bas Muafakat Johor","direction":"1","public_transport:version":"1"},"3178001":{"ref":"T608","name":"T608 Bukit Subang","type":"route","route":"bus","operator":"RapidKL"},"3178272":{"ref":"U81","name":"Subang - KL","type":"route","route":"bus","name:en":"Subang - KL","name:ms":"Subang - KL","network":"Rapid KL","operator":"Prasarana Malaysia","network:wikidata":"Q3271384","operator:wikidata":"Q4209298","public_transport:version":"1"},"3459861":{"to":"Stesen LRT Maluri","ref":"T327","from":"Taman Shamelin","name":"Taman Shamelin - Maluri","type":"route","route":"bus","operator":"Rapid KL"},"3522723":{"to":"JB Sentral","ref":"T30","from":"Terminal Putri Kulai","name":"Svc T30 (Terminal Putri Kulai → JB Sentral)","type":"route","route":"bus","network":"Causeway Link","operator":"Causeway Link","network:wikidata":"Q5054648","network:wikipedia":"en:Causeway Link","operator:wikidata":"Q5054648","operator:wikipedia":"en:Causeway Link","public_transport:version":"1"},"3577323":{"to":"Jurong East","fee":"yes","ref":"CW3","from":"Perling Mall","name":"Svc CW3 (Perling Mall → Jurong East)","type":"route","route":"bus","network":"Causeway Link","website":"https://www.causewaylink.com.my/","operator":"Causeway Link","network:wikidata":"Q5054648","network:wikipedia":"en:Causeway Link","operator:wikidata":"Q5054648","operator:wikipedia":"en:Causeway Link","public_transport:version":"1"},"3810524":{"ref":"308","name":"Gertak Sanggul - Sungai Nibong","type":"route","route":"bus","source":"www.rapidpg.com.my","name:zh":"美湖－双溪里蒙","operator":"Rapid Penang"},"3810669":{"ref":"10","name":"Jetty - Botanical Garden","type":"route","route":"bus","source":"www.rapidpg.com.my","operator":"Rapid Penang"},"3810681":{"ref":"102","name":"Airport - Teluk Bahang","type":"route","route":"bus","source":"www.rapidpg.com.my","operator":"Rapid Penang"},"3835690":{"ref":"401E","name":"Balik Pulau - Jetty","type":"route","route":"bus","name:zh":"浮罗山背－码头","website":"http://www.rapidpg.com.my","operator":"RapidPenang","public_transport:version":"1"},"3906364":{"to":"Teluk Bahang","ref":"102","from":"Airport","name":"Airport - Teluk Bahang","type":"route","route":"bus","source":"Personal Field Collection","operator":"Rapid Penang","public_transport:version":"1"},"3906370":{"ref":"201","name":"Rapid Penang","type":"route","route":"bus","source":"Personal Field Collection","name:zh":"槟城快捷通","operator":"Rapid Penang"},"4764513":{"ref":"PJ02","name":"PJ Free Bus","type":"route","route":"bus","source":"MBPJ Broucher","network":"PJ02 Taman Jaya - SS2 - PPUM","operator":"MBPJ","public_transport:version":"2"},"4764514":{"ref":"PJ01","name":"Taman Medan - PJ New Town - Stesen LRT Taman Jaya","type":"route","route":"bus","source":"MBPJ Broucher","network":"PJ Free Bus","operator":"MBPJ"},"4765724":{"to":"Butterworth","from":"Alor Setar","name":"Transnasional Alor Setar – Butterworth","type":"route","route":"bus","public_transport:version":"2"},"5145416":{"name":"rapidpenang","type":"route","route":"bus","network":"rwn"},"5166887":{"name":"KTDI, KTHO, KTR","type":"route","route":"bus"},"5419074":{"ref":"404","name":"404","type":"route","route":"bus","network":"Balik Pulau to Pantai Acheh","operator":"Rapid Penang"},"5657158":{"to":"City","ref":"42","via":"Sengkurong","from":"Kuala Lurah Checkpoint","name":"Bus 42: Kuala Lurah Checkpoint => Sengkurong => City","type":"route","route":"bus","colour":"grey","network":"Brunei-Muara bus","public_transport:version":"2"},"5657159":{"to":"Sungai Kebun","ref":"43","from":"Putat","name":"Bus 43: Putat => Sungai Kebun","type":"route","route":"bus","colour":"gray","network":"Brunei-Muara bus","public_transport:version":"2"},"5657162":{"to":"City","ref":"44","via":"Junjongan","from":"Kuala Lurah Checkpoint","name":"Bus 44: Kuala Lurah Checkpoint => Junjongan => City","type":"route","route":"bus","colour":"grey","network":"Brunei-Muara bus","public_transport:version":"2"},"5657168":{"to":"City","ref":"48","via":"Pengkalan Batu","from":"Kuala Lurah Checkpoint","name":"Bus 48: Kuala Lurah Checkpoint => Bengkurong => City","type":"route","route":"bus","colour":"grey","network":"Brunei-Muara bus","public_transport:version":"2"},"6155649":{"to":"Terminal Amanjaya","ref":"T30a","from":"Stesen Bas Medan Kidd","name":"T30a Stesen Bas Medan Kidd - Terminal Amanjaya (outbound)","type":"route","route":"bus","source":"https://peraktransit.com.my/routes-2/","network":"myBAS","interval":"01:00","operator":"Perak Transit","network:type":"Local","opening_hours":"06:00-21:00","public_transport:version":"2"},"6167123":{"to":"Melaka Central","ref":"1B","from":"Bas Stesen Tampin","name":"Tampin - Melaka Central","type":"route","route":"bus","operator":"Panorama Melaka","public_transport:version":"2"},"6476228":{"to":"Hab Pasar Seni","ref":"PURPLE","via":"Bukit Bintang","from":"Hab Pasar Seni","name":"GOKL Purple: Hab Pasar Seni ↺ Bukit Bintang","type":"route","route":"bus","colour":"purple","network":"GOKL City Bus","operator":"DBKL","roundtrip":"yes","public_transport:version":"2"},"6477886":{"to":"Hab Titiwangsa","ref":"RED","via":"KL Sentral","from":"Hab Titiwangsa","name":"GOKL Red: Hab Titiwangsa ↺ KL Sentral","type":"route","route":"bus","colour":"red","network":"GOKL City Bus","operator":"DBKL","roundtrip":"yes","public_transport:version":"1"},"6477887":{"to":"Hab Titiwangsa","ref":"BLUE","via":"Bukit Bintang","from":"Hab Titiwangsa","name":"GOKL Blue: Hab Titiwangsa ↺ Bukit Bintang","type":"route","route":"bus","colour":"blue","network":"GOKL City Bus","operator":"DBKL","roundtrip":"yes","public_transport:version":"1"},"6479785":{"to":"KLCC","ref":"GREEN","via":"Bukit Bintang","from":"KLCC","name":"GOKL Green: KLCC ↺ Bukit Bintang","type":"route","route":"bus","colour":"green","network":"GOKL City Bus","operator":"DBKL","roundtrip":"yes","public_transport:version":"2"},"6622983":{"to":"Queen Street Terminal","fee":"yes","ref":"170","from":"Larkin Terminal","name":"Svc 170 (Larkin Terminal → Queen Street Terminal)","type":"route","route":"bus","network":"Land Transport Authority","website":"https://www.sbstransit.com.sg/","operator":"SBS Transit","direction":"2","network:short":"LTA","network:wikidata":"Q3299279","network:wikipedia":"en:Land Transport Authority","operator:wikidata":"Q2661305","operator:wikipedia":"en:SBS Transit","public_transport:version":"1"},"6698277":{"name":"Airport Liner","type":"route","route":"bus","source":"survey","operator":"Citybus","public_transport:version":"2"},"7788030":{"name":"Jerantut - Kuala Tahan","type":"route","route":"bus","public_transport:version":"2"},"8223869":{"ref":"CAT BM City","name":"CAT Bukit Mertajam City","type":"route","route":"bus","source":"www.rapidpg.com.my;http://www.rapidpg.com.my/journey-planner/route-maps/details/cat-bm.gif","name:zh":"大山脚市区免费巴士","operator":"Rapid Penang"},"8242053":{"ref":"CAT BP","name":"CAT Balik Pulau","type":"route","route":"bus","source":"www.rapidpg.com.my;http://www.rapidpg.com.my/journey-planner/route-maps/details/cat-bp.gif","name:zh":"浮罗山背免费巴士","operator":"Rapid Penang"},"8289613":{"ref":"788","name":"Stesen MRT Sungai Jernih","type":"route","route":"bus","network":"Rapid KL","operator":"Prasarana Malaysia","wikipedia":"en:Sungai Jernih MRT station#MRT Feeder Bus Services","network:wikidata":"Q3271384","operator:wikidata":"Q4209298"},"8305238":{"ref":"452","name":"Hab Lebuh Pudu ⇌ Bandar Tasik Kesuma","type":"route","route":"bus","network":"KJ622"},"8434860":{"ref":"CAT BK","name":"CAT Batu Kawan","type":"route","route":"bus","source":"www.rapidpg.com.my","name:zh":"峇都交湾免费巴士","network":"CAT Penang","operator":"Rapid Penang"},"8439868":{"ref":"CAT NT","name":"CAT Nibong Tebal","type":"route","route":"bus","source":"www.rapidpg.com.my","name:zh":"高渊免费巴士","operator":"Rapid Penang"},"8446871":{"ref":"CAT BT","name":"CAT Bertam","type":"route","route":"bus","source":"www.rapidpg.com.my","name:zh":"柏淡免费巴士","operator":"Rapid Penang"},"8451584":{"ref":"CAT BB","name":"CAT Bayan Baru","type":"route","route":"bus","source":"www.rapidpg.com.my","name:zh":"峇央峇鲁免费巴士","operator":"Rapid Penang"},"8476404":{"name":"CAT Tanjung Tokong/Pulau Tikus","type":"route","route":"bus","source":"www.rapidpg.com.my","name:zh":"丹绒道光/浮罗池滑免费巴士","operator":"Rapid Penang"},"8478436":{"ref":"CT11","name":"CAT Sungai Dua","type":"route","route":"bus","source":"www.rapidpg.com.my","name:zh":"双溪赖免费巴士","operator":"Rapid Penang"},"9130337":{"to":"Hab Pasar Seni","fee":"yes","ref":"650","via":"Taman Desa","from":"Hab Pasar Seni","name":"650: Hab Pasar Seni ↺ Taman Desa","type":"route","route":"bus","colour":"#ed207b","name:ms":"650: Hab Pasar Seni ↺ Taman Desa","network":"Rapid KL","interval":"00:20-01:00","operator":"Prasarana Malaysia","roundtrip":"yes","wheelchair":"yes","opening_hours":"Mo-Su 05:30-23:00","network:wikidata":"Q3271384","operator:wikidata":"Q4209298","public_transport:version":"1"},"9217242":{"to":"Tanjong Rambutan","ref":"T32","via":"Bercham","from":"Stesen Bas Medan Kidd","name":"T32 Stesen Bas Medan Kidd – Tanjong Rambutan via Bercham (outbound)","type":"route","route":"bus","source":"https://peraktransit.com.my/routes-2/","network":"myBAS","interval":"01:00","operator":"Perak Transit","network:type":"Local","opening_hours":"6:05-21:05","public_transport:version":"2"},"10670428":{"ref":"F100","name":"F100 Ipoh Town","type":"route","route":"bus","source":"https://peraktransit.com.my/routes-2/","network":"myBAS","interval":"00:20","operator":"Perak Transit","roundtrip":"yes","network:type":"Local","opening_hours":"Mo-Fr 06:30-20:10; Sa-Su 06:30-20:00","interval:conditional":"00:30@(Sa-Su 06:30-20:00)","public_transport:version":"2"},"10676464":{"to":"Stesen Bas Medan Kidd","ref":"T30a","from":"Terminal Amanjaya","name":"T30a Terminal Amanjaya - Stesen Bas Medan Kidd (inbound)","type":"route","route":"bus","source":"https://peraktransit.com.my/routes-2/","network":"myBAS","interval":"01:00","operator":"Perak Transit","network:type":"Local","opening_hours":"06:00-21:00","public_transport:version":"2"},"10692052":{"ref":"F103","name":"F103 Stesen Bas Medan Kidd - Taman Cempaka - Ampang - Stesen Bas Medan Kidd (Loop)","type":"route","route":"bus","source":"https://peraktransit.com.my/routes-2/","network":"myBAS","interval":"01:00","operator":"Perak Transit","roundtrip":"yes","network:type":"Local","opening_hours":"5:55-19:55","public_transport:version":"2"},"10697397":{"ref":"F101a","name":"F101a Stesen Bas Medan Kidd - Bercham via Taman Ipoh - Stesen Bas Medan Kidd","type":"route","route":"bus","source":"https://peraktransit.com.my/routes-2/","network":"myBAS","interval":"02:00","operator":"Perak Transit","roundtrip":"yes","network:type":"Local","opening_hours":"6:00-20:00","public_transport:version":"2"},"10700810":{"ref":"F101b","name":"F101b Stesen Bas Medan Kidd - Bercham via JPJ - Stesen Bas Medan Kidd","type":"route","route":"bus","source":"https://peraktransit.com.my/routes-2/","network":"myBAS","interval":"02:00","operator":"Perak Transit","roundtrip":"yes","network:type":"Local","opening_hours":"7:00-21:00","public_transport:version":"2"},"10741886":{"to":"Taman Botani","ref":"T37","via":"Lapangan Terbang Sultan Azlan Shah","from":"Stesen Bas Medan Kidd","name":"T37 Stesen Bas Medan Kidd - Lapangan Terbang Sultan Azlan Shah – Taman Botani (outbound)","type":"route","route":"bus","source":"https://peraktransit.com.my/routes-2/","network":"myBAS","interval":"01:00","operator":"Perak Transit","network:type":"Local","opening_hours":"05:40-19:00","public_transport:version":"2"},"10743733":{"to":"Stesen Bas Medan Kidd","ref":"T37","via":"Lapangan Terbang Sultan Azlan Shah","from":"Taman Botani","name":"T37 Taman Botani - Lapangan Terbang Sultan Azlan Shah – Stesen Bas Medan Kidd (inbound)","type":"route","route":"bus","source":"https://peraktransit.com.my/routes-2/","network":"myBAS","interval":"01:00","operator":"Perak Transit","network:type":"Local","opening_hours":"05:40-19:00","public_transport:version":"2"},"10776621":{"ref":"F102","name":"F102 Stesen Bas Medan Kidd - Manjoi - Buntong - Stesen Bas Medan Kidd (Loop)","type":"route","route":"bus","source":"https://peraktransit.com.my/routes-2/","network":"myBAS","interval":"01:00","operator":"Perak Transit","roundtrip":"yes","network:type":"Local","opening_hours":"6:05-20:05","public_transport:version":"2"},"10788377":{"to":"Stesen Bas Medan Kidd","ref":"T32","via":"Bercham","from":"Tanjong Rambutan","name":"T32 Tanjong Rambutan - Stesen Bas Medan Kidd via Bercham (inbound)","type":"route","route":"bus","source":"https://peraktransit.com.my/routes-2/","network":"myBAS","interval":"01:00","operator":"Perak Transit","network:type":"Local","opening_hours":"6:05-21:05","public_transport:version":"2"},"10808625":{"to":"Stesen Bas Gopeng","ref":"T34","from":"Stesen Bas Medan Kidd","name":"T34 Stesen Bas Medan Kidd – Stesen Bas Gopeng (outbound)","type":"route","route":"bus","source":"https://peraktransit.com.my/routes-2/","network":"myBAS","interval":"01:00","operator":"Perak Transit","network:type":"Local","opening_hours":"6:15-21:15","interval:conditional":"00:30 @ (Mo-Fr)","public_transport:version":"2"},"10809079":{"to":"Stesen Bas Gopeng","ref":"T34","from":"Stesen Bas Medan Kidd","name":"T34 Stesen Bas Gopeng – Stesen Bas Medan Kidd (inbound)","type":"route","route":"bus","source":"https://peraktransit.com.my/routes-2/","network":"myBAS","interval":"01:00","operator":"Perak Transit","network:type":"Local","opening_hours":"6:15-21:15","interval:conditional":"00:30 @ (Mo-Fr)","public_transport:version":"2"},"10812162":{"to":"Pengkalan Sentosa","ref":"T35","via":"Pasir Puteh","from":"Stesen Bas Medan Kidd","name":"T35 Stesen Bas Medan Kidd – Pasir Puteh – Pengkalan Sentosa (outbound)","type":"route","route":"bus","source":"https://peraktransit.com.my/routes-2/","network":"myBAS","interval":"01:00","operator":"Perak Transit","network:type":"Local","opening_hours":"5:55-21:55","interval:conditional":"00:30 @ (Mo-Fr)","public_transport:version":"2"},"10814329":{"to":"Pengkalan Sentosa","ref":"T35","via":"Pasir Puteh","from":"Stesen Bas Medan Kidd","name":"T35 Pengkalan Sentosa – Pasir Puteh – Stesen Bas Medan Kidd (inbound)","type":"route","route":"bus","source":"https://peraktransit.com.my/routes-2/","network":"myBAS","interval":"01:00","operator":"Perak Transit","network:type":"Local","opening_hours":"5:55-21:55","interval:conditional":"00:30 @ (Mo-Fr)","public_transport:version":"2"},"10828034":{"to":"Tanjong Rambutan","ref":"T33b","from":"Stesen Bas Medan Kidd","name":"T33b Stesen Bas Medan Kidd – Tanjong Rambutan (outbound)","type":"route","route":"bus","source":"https://peraktransit.com.my/routes-2/","network":"myBAS","interval":"02:00","operator":"Perak Transit","network:type":"Local","opening_hours":"07:00-21:00","public_transport:version":"2"},"10828208":{"to":"Stesen Bas Medan Kidd","ref":"T33b","from":"Tanjong Rambutan","name":"T33b Tanjong Rambutan – Stesen Bas Medan Kidd (inbound)","type":"route","route":"bus","source":"https://peraktransit.com.my/routes-2/","network":"myBAS","interval":"02:00","operator":"Perak Transit","network:type":"Local","opening_hours":"07:00-21:00","public_transport:version":"2"},"10832137":{"to":"Chemor","ref":"T31a","via":"Tasek","from":"Stesen Bas Medan Kidd","name":"T31a Stesen Bas Medan Kidd – Tasek - Chemor (outbound)","type":"route","route":"bus","source":"https://peraktransit.com.my/routes-2/","network":"myBAS","interval":"02:00","operator":"Perak Transit","network:type":"Local","opening_hours":"06:10-20:10","public_transport:version":"2"},"10832138":{"to":"Stesen Bas Medan Kidd","ref":"T31a","via":"Tasek","from":"Chemor","name":"T31a Chemor – Tasek - Stesen Bas Medan Kidd (inbound)","type":"route","route":"bus","source":"https://peraktransit.com.my/routes-2/","network":"myBAS","interval":"02:00","operator":"Perak Transit","network:type":"Local","opening_hours":"06:10-20:10","public_transport:version":"2"},"10838100":{"to":"Chemor","ref":"T31b","via":"Jalan Tun Abdul Razak","from":"Stesen Bas Medan Kidd","name":"T31b Stesen Bas Medan Kidd – Tasek – Chemor via Jalan Tun Abdul Razak (outbound)","type":"route","route":"bus","source":"https://peraktransit.com.my/routes-2/","network":"myBAS","interval":"02:00","operator":"Perak Transit","network:type":"Local","opening_hours":"07:10-21:10","public_transport:version":"2"},"10838101":{"to":"Stesen Bas Medan Kidd","ref":"T31b","via":"Jalan Tun Abdul Razak","from":"Chemor","name":"T31b Chemor – Tasek – Stesen Bas Medan Kidd via Jalan Tun Abdul Razak (inbound)","type":"route","route":"bus","source":"https://peraktransit.com.my/routes-2/","network":"myBAS","interval":"02:00","operator":"Perak Transit","network:type":"Local","opening_hours":"07:10-21:10","public_transport:version":"2"},"10843001":{"to":"Chemor","ref":"T30b","via":"Terminal Amanjaya","from":"Stesen Bas Medan Kidd","name":"T30b Stesen Bas Medan Kidd – Terminal Amanjaya - Chemor (outbound)","type":"route","route":"bus","source":"https://peraktransit.com.my/routes-2/","network":"myBAS","interval":"01:00","operator":"Perak Transit","network:type":"Local","opening_hours":"06:30-21:30","public_transport:version":"2"},"10843002":{"to":"Stesen Bas Medan Kidd","ref":"T30b","via":"Terminal Amanjaya","from":"Chemor","name":"T30b Chemor – Terminal Amanjaya - Stesen Bas Medan Kidd (inbound)","type":"route","route":"bus","source":"https://peraktransit.com.my/routes-2/","network":"myBAS","interval":"01:00","operator":"Perak Transit","network:type":"Local","opening_hours":"06:30-21:30","public_transport:version":"2"},"10847201":{"to":"Chemor","ref":"T33a","via":"Tanjong Rambutan","from":"Stesen Bas Medan Kidd","name":"T33a Stesen Bas Medan Kidd – Tanjong Rambutan - Chemor (outbound)","type":"route","route":"bus","source":"https://peraktransit.com.my/routes-2/","network":"myBAS","interval":"02:00","operator":"Perak Transit","network:type":"Local","opening_hours":"05:40-19:40","public_transport:version":"2"},"10847202":{"to":"Stesen Bas Medan Kidd","ref":"T33a","via":"Tanjong Rambutan","from":"Chemor","name":"T33a Chemor – Tanjong Rambutan - Stesen Bas Medan Kidd (inbound)","type":"route","route":"bus","source":"https://peraktransit.com.my/routes-2/","network":"myBAS","interval":"02:00","operator":"Perak Transit","network:type":"Local","opening_hours":"05:40-19:40","public_transport:version":"2"},"10953036":{"to":"Seri Iskandar","ref":"T36","via":"Batu Gajah","from":"Stesen Bas Medan Kidd","name":"T36 Stesen Bas Medan Kidd – Batu Gajah - Seri Iskandar (outbound)","type":"route","route":"bus","source":"https://peraktransit.com.my/routes-2/","network":"myBAS","interval":"00:45","operator":"Perak Transit","network:type":"Local","opening_hours":"Mo-Fr 06:00-19:30; Sa-Su 06:00-20:00","interval:conditional":"01:00 @ (Sa-Su)","public_transport:version":"2"},"10956396":{"to":"Stesen Bas Medan Kidd","ref":"T36","via":"Batu Gajah","from":"Seri Iskandar","name":"T36 Seri Iskandar – Batu Gajah - Stesen Bas Medan Kidd (inbound)","type":"route","route":"bus","source":"https://peraktransit.com.my/routes-2/","network":"myBAS","interval":"00:45","operator":"Perak Transit","network:type":"Local","opening_hours":"Mo-Fr 06:00-19:30; Sa-Su 06:00-20:00","interval:conditional":"01:00 @ (Sa-Su)","public_transport:version":"2"},"11117854":{"to":"National Palace","ref":"HOP","via":"Lake Garden","from":"Bukit Bintang","name":"Hop-on Hop-off Bus","type":"route","fixme":"Route of Hop-on Hop-off bus has been completely changed after the pandemic. Only one route left. Updated until stop 11 Merdeka Square.","route":"bus","colour":"blue","network":"Hop-on Hop-off Bus","website":"https://myhoponhopoff.com/kl/","operator":"Elang Wah","roundtrip":"yes","public_transport:version":"2"},"11211669":{"to":"Taman Cahaya","fee":"no","ref":"AJ2A","via":"Jalan Cahaya","from":"Flat Sri Nilam","name":"AJ2A: Sri Nilam => Spectrum Mall","type":"route","route":"bus","interval":"60","operator":"MPAJ","roundtrip":"yes","public_transport:version":"2"},"11249169":{"to":"Sri Nilam","ref":"AJ2B","via":"AEON","from":"Sri Nilam","name":"AJ2B: Sri Nilam => AEON => Hospital Ampang","type":"route","route":"bus","operator":"MPAJ","roundtrip":"no","public_transport:version":"2"},"11257432":{"to":"Hutan Lipur Ampang","ref":"T302","from":"Ampang Point","name":"T302: Ampang Point => Hutan Lipur Ampang","type":"route","route":"bus","operator":"RapidKL","public_transport:version":"2"},"11260696":{"to":"Ampang Point","ref":"T302","from":"Hutan Lipur Ampang","name":"T302: Hutan Lipur Ampang => Ampang Point","type":"route","route":"bus","operator":"RapidKL","public_transport:version":"2"},"11267780":{"to":"MRT Sungai Buloh","fee":"yes","ref":"T101","via":"Bukit Rahman Putra","from":"MRT Sungai Buloh","name":"T101: MRT Sungai Buloh ↺ Bukit Rahman Putra","type":"route","route":"bus","charge":"RM1","colour":"#662d91","source":"https://www.openstreetmap.org/user/nabilersyad/traces/7057358","name:en":"T101: MRT Sungai Buloh ↺ Bukit Rahman Putra","name:ms":"T101: MRT Sungai Buloh ↺ Bukit Rahman Putra","network":"Rapid KL","interval":"00:30","operator":"Prasarana Malaysia","roundtrip":"yes","wheelchair":"yes","opening_hours":"Mo-Su 06:00-23:30","network:wikidata":"Q3271384","operator:wikidata":"Q4209298","public_transport:version":"2"},"11276050":{"to":"MRT Kajang","ref":"T462","via":"PKNS Bangi","from":"MRT Kajang","name":"T462: MRT Kajang => Seksyen 8 Bangi","type":"route","route":"bus","network":"Rapid KL","operator":"Prasarana Malaysia","roundtrip":"yes","network:wikidata":"Q3271384","operator:wikidata":"Q4209298","public_transport:version":"2"},"11290276":{"to":"MRT Kajang","ref":"T464","via":"Teras Jernang","from":"MRT Kajang","name":"T464: MRT Kajang => Teras Jernang","note":"to be continued","type":"route","route":"bus","network":"Rapid KL","operator":"Prasarana Malaysia","roundtrip":"yes","network:wikidata":"Q3271384","operator:wikidata":"Q4209298","public_transport:version":"2"},"11290277":{"to":"MRT Kajang","ref":"T463","via":"Seksyen 4 Bangi","from":"MRT Kajang","name":"T463: MRT Kajang => Seksyen 4 Bangi","note":"to be continued","type":"route","route":"bus","network":"Rapid KL","operator":"Prasarana Malaysia","roundtrip":"yes","network:wikidata":"Q3271384","operator:wikidata":"Q4209298","public_transport:version":"2"},"11290278":{"to":"MRT Kajang","ref":"T461","via":"Taman Kajang Utama","from":"MRT Kajang","name":"T461: MRT Kajang => Taman Kajang Utama","note":"to be continued","type":"route","route":"bus","network":"Rapid KL","operator":"Prasarana Malaysia","roundtrip":"yes","network:wikidata":"Q3271384","operator:wikidata":"Q4209298","public_transport:version":"2"},"11315061":{"to":"Maybank Puduraya","ref":"421","via":"Bukit Bintang","from":"Taman Dagang","name":"421: Taman Dagang => Bukit Bintang","type":"route","route":"bus","name:en":"421: Taman Dagang => Bukit Bintang","name:ms":"421: Taman Dagang => Bukit Bintang","network":"Rapid KL","operator":"Prasarana Malaysia","network:wikidata":"Q3271384","operator:wikidata":"Q4209298","public_transport:version":"2"},"11348615":{"to":"LRT Salak Selatan","ref":"T402","from":"Bandar Sri Permaisuri","name":"T402: LRT Salak Selatan => Bandar Sri Permaisuri","type":"route","fixme":"halfway done","route":"bus","operator":"Rapid KL","public_transport:version":"2"},"11379238":{"to":"LRT Maluri","ref":"T400","via":"IKEA Cheras","from":"Bandar Tun Razak","name":"T400: Bdr Tun Razak => LRT Maluri","type":"route","route":"bus","operator":"Rapid KL","public_transport:version":"2"},"11380208":{"to":"MRT Taman Midah Pintu B","ref":"T305","from":"Hab Sri Nilam","name":"T305: Sri Nilam => MRT Tmn Midah","note":"some missing bus stops","type":"route","route":"bus","operator":"Rapid KL","public_transport:version":"2"},"11380209":{"to":"Hab Sri Nilam","ref":"T305","from":"MRT Taman Midah Pintu B","name":"T305: MRT Tmn Midah => Sri Nilam","type":"route","route":"bus","operator":"Rapid KL","public_transport:version":"2"},"11549145":{"ref":"B1","name":"BRT Sunway Line","type":"route","route":"bus","colour":"#1E4D2B","name:ja":"ラピドKLBRTサンウェイ線","name:zh":"双威线","network":"BRT","network:wikidata":"Q16255640","network:wikipedia":"en:BRT Sunway Line"},"11621140":{"to":"MRT Kwasa Sentral","ref":"T801","from":"MRT Kwasa Sentral","name":"T801 :MRT Kwasa Sentral","type":"route","route":"bus","operator":"Rapid KL","roundtrip":"yes","public_transport:version":"2"},"11686002":{"to":"Terminal Bas MBKT","ref":"T102","from":"Jeti Merang","name":"T102: Jeti Merang -> Kuala Terengganu","type":"route","route":"bus","operator":"Casligas","public_transport:version":"2"},"11779671":{"ref":"708","from":"Klang","name":"708: Klang -> Bdr Damansara","type":"route","route":"bus","operator":"RapidKL","public_transport:version":"2"},"11911773":{"to":"Pasar Seni","ref":"780","from":"Kota Damansara","name":"780: Kota Damansara - Pasar Seni","type":"route","route":"bus","network":"Rapid KL","operator":"Prasarana Malaysia","network:wikidata":"Q3271384","operator:wikidata":"Q4209298","public_transport:version":"2"},"12046127":{"to":"Wisma Hafiz","ref":"KLG1","from":"Wisma Hafiz","name":"KLG1: Jalan Batu Tiga Lama - Taman Bayu Perdana","type":"route","route":"bus","network":"Smart Selangor"},"12310845":{"to":"Kota Damansara","ref":"780","from":"Pasar Seni","name":"780: Pasar Seni - Kota Damansara","type":"route","route":"bus","name:en":"780: Pasar Seni - Kota Damansara","name:ms":"780: Pasar Seni - Kota Damansara","network":"Rapid KL","operator":"Prasarana Malaysia","network:wikidata":"Q3271384","operator:wikidata":"Q4209298","public_transport:version":"2"},"12980590":{"to":"Kranji Station","fee":"yes","ref":"170X","from":"JB Sentral Bus Terminal","name":"Svc 170X (JB Sentral Bus Terminal → Kranji Station)","type":"route","route":"bus","network":"Land Transport Authority","website":"https://www.sbstransit.com.sg/","operator":"SBS Transit","direction":"2","network:wikidata":"Q3299279","network:wikipedia":"en:Land Transport Authority","operator:wikidata":"Q2661305","operator:wikipedia":"en:SBS Transit","public_transport:version":"1"},"13334975":{"to":"Terminal Komtar","ref":"CAT","from":"Jetty","name":"Bus CAT: Pengkalan Weld => Terminal Komtar","type":"route","route":"bus","network":"Rapid Penang","operator":"Rapid Penang","public_transport:version":"2"},"13334980":{"to":"Jetty","ref":"CAT","from":"Terminal Komtar","name":"Bus CAT: Terminal Komtar => Pengkalan Weld","type":"route","route":"bus","network":"Rapid Penang","operator":"Rapid Penang","public_transport:version":"2"},"13337050":{"to":"Hospital Lam Wah Ee","ref":"11","from":"Jetty","name":"Bus 11: Jeti => Batu Lanchang","type":"route","route":"bus","network":"Rapid Penang","operator":"Rapid Penang","public_transport:version":"2"},"13344409":{"to":"Jetty","ref":"11","from":"Hospital Lam Wah Ee","name":"Bus 11: Batu Lanchang => Jeti","type":"route","route":"bus","network":"Rapid Penang","operator":"Rapid Penang","public_transport:version":"2"},"13362293":{"to":"Terminal Bas MBKT","fee":"yes","ref":"C03","from":"Terminal Bas MBKT","name":"Kuala Nerus","type":"route","route":"bus","website":"http://www.casligas.com.my","operator":"Casligas","roundtrip":"yes","reservation":"no","public_transport:version":"2"},"13402062":{"to":"LRT Bandar Tasik Selatan","ref":"T410","from":"MRT Taman Connaught","name":"T410: MRT Taman Connaught ↺ LRT Bandar Tasik Selatan","type":"route","route":"bus","network":"MRT Feeder Bus","operator":"Rapid KL","public_transport:version":"2"},"13780986":{"to":"Terminal Bas MBKT","fee":"yes","ref":"C01","via":"Masjid Kristal","from":"Terminal Bas MBKT","name":"Masjid Kristal","type":"route","route":"bus","operator":"Casligas","roundtrip":"yes","opening_hours":"Su-Mo 7:30;14:00;16:30","public_transport:version":"2"},"13839670":{"to":"LRT Taman Jaya","ref":"T640","from":"LRT Taman Jaya","name":"T640: Stesen LRT Taman Jaya - Taman Sri Sentosa","type":"route","route":"bus","name:ms":"T640: Stesen LRT Taman Jaya - Taman Sri Sentosa","network":"Rapid KL","operator":"Prasarana Malaysia","frequency":"15-20min","roundtrip":"yes","network:wikidata":"Q3271384","operator:wikidata":"Q4209298","public_transport:version":"2"},"14143356":{"to":"Terminal Sentral Kuantan","fee":"yes","ref":"303","from":"Hentian Bandar","name":"303: Terminal Sentral","type":"route","route":"bus","website":"https://myrapid.com.my/bus-train/rapid-kuantan/","interval":"01:30","operator":"Rapid Kuantan","opening_hours":"Mo-Su 07:00-20:30","public_transport:version":"2"},"14144260":{"to":"Hentian Bandar","fee":"yes","ref":"303","from":"Terminal Sentral Kuantan","name":"303: Hentian Bas Bandar","type":"route","route":"bus","website":"https://myrapid.com.my/bus-train/rapid-kuantan/","operator":"Rapid Kuantan","public_transport:version":"2"},"14165148":{"to":"Tuas Link","fee":"yes","ref":"CW7","from":"Sultan Abu Bakar Custom","name":"Svc CW7 (Sultan Abu Bakar Custom → Tuas Link)","type":"route","route":"bus","network":"Causeway Link","website":"https://www.causewaylink.com.my/","operator":"Causeway Link","direction":"1","network:wikidata":"Q5054648","network:wikipedia":"en:Causeway Link","operator:wikidata":"Q5054648","operator:wikipedia":"en:Causeway Link","public_transport:version":"1"},"14165149":{"to":"Newton Circus","fee":"yes","ref":"CW5","from":"JB Custom","name":"Svc CW5 (JB Custom → Newton Circus)","type":"route","route":"bus","network":"Causeway Link","website":"https://www.causewaylink.com.my/","operator":"Causeway Link","direction":"1","network:wikidata":"Q5054648","network:wikipedia":"en:Causeway Link","operator:wikidata":"Q5054648","operator:wikipedia":"en:Causeway Link","public_transport:version":"1"},"14165152":{"to":"Queen Street Terminal","fee":"yes","ref":"CW2","from":"JB Custom","name":"Svc CW2 (JB Custom → Queen Street Terminal)","type":"route","route":"bus","network":"Causeway Link","website":"https://www.causewaylink.com.my/","operator":"Causeway Link","direction":"1","network:wikidata":"Q5054648","network:wikipedia":"en:Causeway Link","operator:wikidata":"Q5054648","operator:wikipedia":"en:Causeway Link","public_transport:version":"1"},"14165154":{"to":"Kranji MRT","fee":"yes","ref":"CW1","from":"JB Custom","name":"Svc CW1 (JB Custom → Kranji MRT)","type":"route","route":"bus","network":"Causeway Link","website":"https://www.causewaylink.com.my/","operator":"Causeway Link","direction":"1","network:wikidata":"Q5054648","network:wikipedia":"en:Causeway Link","operator:wikidata":"Q5054648","operator:wikipedia":"en:Causeway Link","public_transport:version":"1"},"14168857":{"to":"Econsave Senai","fee":"no","ref":"P402","from":"Econsave Senai","name":"Svc P402 (Roundtrip from Econsave Senai)","type":"route","route":"bus","network":"Bas Muafakat Johor","website":"https://www.causewaylink.com.my/","operator":"Causeway Link","direction":"1","public_transport:version":"1"},"14168858":{"to":"Terminal Kulai","fee":"no","ref":"P401","from":"IOI Mall","name":"Svc P401 (IOI Mall → Terminal Kulai)","type":"route","route":"bus","network":"Causeway Link","website":"https://www.causewaylink.com.my/","operator":"Causeway Link","direction":"1","network:wikidata":"Q5054648","public_transport:version":"1"},"14168859":{"to":"IOI Mall","fee":"no","ref":"P401","from":"Terminal Kulai","name":"Svc P401 (Terminal Kulai → IOI Mall)","type":"route","route":"bus","network":"Causeway Link","website":"https://www.causewaylink.com.my/","operator":"Causeway Link","direction":"1","network:wikidata":"Q5054648","public_transport:version":"1"},"14168860":{"to":"Econsave Senai","fee":"no","ref":"P403","from":"Econsave Senai","name":"Svc P403 (Roundtrip from Econsave Senai)","type":"route","route":"bus","network":"Bas Muafakat Johor","website":"https://www.causewaylink.com.my/","operator":"Causeway Link","direction":"1","public_transport:version":"1"},"14168861":{"to":"Terminal Kulai","fee":"no","ref":"P411","from":"Larkin Sentral","name":"Svc P411 (Larkin Sentral → Terminal Kulai)","type":"route","route":"bus","network":"Causeway Link","website":"https://www.causewaylink.com.my/","operator":"Causeway Link","direction":"1","network:wikidata":"Q5054648","public_transport:version":"1"},"14168862":{"to":"Larkin Sentral","fee":"no","ref":"P411","from":"Terminal Kulai","name":"Svc P411 (Terminal Kulai → Larkin Sentral)","type":"route","route":"bus","network":"Causeway Link","website":"https://www.causewaylink.com.my/","operator":"Causeway Link","direction":"1","network:wikidata":"Q5054648","public_transport:version":"1"},"14168863":{"to":"Terminal Kulai","fee":"no","ref":"P412","from":"Hab Taman Scientex","name":"Svc P412 (Hab Taman Scientex → Terminal Kulai)","type":"route","route":"bus","network":"Causeway Link","website":"https://www.causewaylink.com.my/","operator":"Causeway Link","direction":"1","network:wikidata":"Q5054648","public_transport:version":"1"},"14168864":{"to":"Hab Taman Scientex","fee":"no","ref":"P412","from":"Terminal Kulai","name":"Svc P412 (Terminal Kulai → Hab Taman Scientex)","type":"route","route":"bus","network":"Causeway Link","website":"https://www.causewaylink.com.my/","operator":"Causeway Link","direction":"2","network:wikidata":"Q5054648","public_transport:version":"1"},"14169235":{"to":"Terminal Taman Universiti","fee":"no","ref":"P213","from":"Terminal Taman Gelang Patah","name":"Svc P213 (Terminal Taman Gelang Patah → Terminal Taman Universiti)","type":"route","route":"bus","network":"Bas Muafakat Johor","website":"https://www.causewaylink.com.my/","operator":"Causeway Link","direction":"1","public_transport:version":"1"},"14169236":{"to":"Terminal Taman Gelang Patah","fee":"no","ref":"P213","from":"Terminal Taman Universiti","name":"Svc P213 (Terminal Taman Universiti → Terminal Taman Gelang Patah)","type":"route","route":"bus","network":"Bas Muafakat Johor","website":"https://www.causewaylink.com.my/","operator":"Causeway Link","direction":"1","public_transport:version":"1"},"14169237":{"to":"Terminal Taman Universiti","fee":"no","ref":"P214","from":"JPN Setia Tropika","name":"Svc P214 (JPN Setia Tropika → Terminal Taman Universiti)","type":"route","route":"bus","name:ms":"Svc P214 (JPN Setia Tropika → Terminal Taman Universiti)","network":"Causeway Link","website":"https://www.causewaylink.com.my/","operator":"Causeway Link","direction":"1","network:wikidata":"Q5054648","public_transport:version":"1"},"14169238":{"to":"JPN Setia Tropika","fee":"no","ref":"P214","from":"Terminal Taman Universiti","name":"Svc P214 (Terminal Taman Universiti → JPN Setia Tropika)","type":"route","route":"bus","name:ms":"Svc P214 (Terminal Taman Universiti → JPN Setia Tropika)","network":"Causeway Link","website":"https://www.causewaylink.com.my/","operator":"Causeway Link","direction":"1","network:wikidata":"Q5054648","public_transport:version":"1"},"14169265":{"to":"Terminal Bas MBKT","fee":"yes","ref":"T301","from":"Hentian Bas Marang","name":"T301: Terminal MBKT","type":"route","route":"bus","operator":"Casligas","public_transport:version":"2"},"14174126":{"to":"Taman Johor","fee":"no","ref":"P104","from":"Larkin Sentral","name":"Svc P104 (Larkin Sentral → Taman Johor)","type":"route","route":"bus","network":"Bas Muafakat Johor","website":"https://paj.com.my/bmj-route-schedules-mbjb/","direction":"1","public_transport:version":"1"},"14174127":{"to":"Larkin Sentral","fee":"no","ref":"P103","from":"PPR Stulang","name":"Svc P103 (PPR Stulang → Larkin Sentral)","type":"route","route":"bus","network":"Causeway Link","website":"https://www.causewaylink.com.my/","operator":"Causeway Link","direction":"1","network:wikidata":"Q5054648","public_transport:version":"1"},"14174128":{"to":"JB Sentral","fee":"no","ref":"P102","from":"PPR Stulang","name":"Svc P102 (PPR Stulang → JB Sentral)","type":"route","route":"bus","network":"Bas Muafakat Johor","website":"https://www.causewaylink.com.my/","operator":"Causeway Link","direction":"1","public_transport:version":"1"},"14174129":{"to":"PPR Stulang","fee":"no","ref":"P102","from":"JB Sentral","name":"Svc P102 (JB Sentral → PPR Stulang)","type":"route","route":"bus","network":"Bas Muafakat Johor","website":"https://www.causewaylink.com.my/","operator":"Causeway Link","direction":"2","public_transport:version":"1"},"14174130":{"to":"JB Sentral","fee":"no","ref":"P101","from":"Larkin Sentral","name":"Svc P101 (Larkin Sentral → JB Sentral)","type":"route","route":"bus","network":"Bas Muafakat Johor","website":"https://www.causewaylink.com.my/","operator":"Causeway Link","direction":"2","public_transport:version":"1"},"14174131":{"to":"Larkin Sentral","fee":"no","ref":"P101","from":"JB Sentral","name":"Svc P101 (JB Sentral → Larkin Sentral)","type":"route","route":"bus","network":"Bas Muafakat Johor","website":"https://www.causewaylink.com.my/","operator":"Causeway Link","direction":"1","public_transport:version":"1"},"14174132":{"to":"Perling Mall","fee":"no","ref":"P212","from":"McDonald's/KFC Mutiara Rini","name":"Svc P212 (McDonald's/KFC Mutiara Rini → Perling Mall)","type":"route","route":"bus","network":"Bas Muafakat Johor","website":"https://www.causewaylink.com.my/","operator":"Causeway Link","direction":"1","public_transport:version":"1"},"14174133":{"to":"Kipmart Tampoi","fee":"no","ref":"P203","from":"PPR Melana Indah","name":"Svc P203 (PPR Melana Indah → Kipmart Tampoi)","type":"route","route":"bus","network":"Bas Muafakat Johor","website":"https://www.causewaylink.com.my/","operator":"Causeway Link","direction":"1","public_transport:version":"1"},"14174134":{"to":"PPR Melana Indah","fee":"no","ref":"P203","from":"Kipmart Tampoi","name":"Svc P203 (Kipmart Tampoi → PPR Melana Indah)","type":"route","route":"bus","network":"Bas Muafakat Johor","website":"https://www.causewaylink.com.my/","operator":"Causeway Link","direction":"1","public_transport:version":"1"},"14174141":{"to":"Terminal Taman Universiti","fee":"no","ref":"P202","from":"Terminal Taman Universiti","name":"Svc P202 (Roundtrip from Terminal Taman Universiti)","type":"route","route":"bus","network":"Bas Muafakat Johor","website":"https://www.causewaylink.com.my/","operator":"Causeway Link","direction":"1","public_transport:version":"1"},"14174142":{"to":"Terminal Taman Universiti","fee":"no","ref":"P201","from":"Hab Taman Pulai Indah","name":"Svc P201 (Hab Taman Pulai Indah → Terminal Taman Universiti)","type":"route","route":"bus","network":"Bas Muafakat Johor","website":"https://www.causewaylink.com.my/","operator":"Causeway Link","direction":"1","public_transport:version":"1"},"14215534":{"to":"Sultan Abu Bakar CIQ","fee":"yes","ref":"CW3L","from":"Perling Mall","name":"Svc CW3L (Perling Mall → Sultan Abu Bakar CIQ)","type":"route","route":"bus","network":"Causeway Link","website":"https://www.causewaylink.com.my/","operator":"Causeway Link","network:wikidata":"Q5054648","network:wikipedia":"en:Causeway Link","operator:wikidata":"Q5054648","operator:wikipedia":"en:Causeway Link","public_transport:version":"1"},"14215535":{"to":"Perling Mall","fee":"yes","ref":"CW3L","from":"Sultan Abu Bakar CIQ","name":"Svc CW3L (Sultan Abu Bakar CIQ → Perling Mall)","type":"route","route":"bus","network":"Causeway Link","website":"https://www.causewaylink.com.my/","operator":"Causeway Link","network:wikidata":"Q5054648","network:wikipedia":"en:Causeway Link","operator:wikidata":"Q5054648","operator:wikipedia":"en:Causeway Link","public_transport:version":"1"},"14215536":{"to":"Sultan Abu Bakar Complex","fee":"yes","ref":"CW3S","from":"Terminal Bas TUTA","name":"Svc CW3S (Terminal Bas TUTA → Sultan Abu Bakar Complex)","type":"route","route":"bus","network":"Causeway Link","website":"https://www.causewaylink.com.my/","operator":"Causeway Link","network:wikidata":"Q5054648","network:wikipedia":"en:Causeway Link","operator:wikidata":"Q5054648","operator:wikipedia":"en:Causeway Link","public_transport:version":"1"},"14215537":{"to":"Terminal Bas TUTA","fee":"yes","ref":"CW3S","from":"Sultan Abu Bakar Complex","name":"Svc CW3S (Sultan Abu Bakar Complex → Terminal Bas TUTA)","type":"route","route":"bus","network":"Causeway Link","website":"https://www.causewaylink.com.my/","operator":"Causeway Link","network:wikidata":"Q5054648","network:wikipedia":"en:Causeway Link","operator:wikidata":"Q5054648","operator:wikipedia":"en:Causeway Link","public_transport:version":"1"},"14216645":{"to":"JB Sentral","fee":"yes","ref":"AA1","from":"Senai Airport","name":"Svc AA1 (Senai Airport → JB Sentral)","type":"route","route":"bus","network":"Causeway Link","website":"https://www.causewaylink.com.my/","operator":"Causeway Link","direction":"2","network:wikidata":"Q5054648","network:wikipedia":"en:Causeway Link","operator:wikidata":"Q5054648","operator:wikipedia":"en:Causeway Link","public_transport:version":"1"},"14216646":{"to":"Senai Airport","fee":"yes","ref":"AA1","from":"JB Sentral","name":"Svc AA1 (JB Sentral → Senai Airport)","type":"route","route":"bus","network":"Causeway Link","website":"https://www.causewaylink.com.my/","operator":"Causeway Link","direction":"1","network:wikidata":"Q5054648","network:wikipedia":"en:Causeway Link","operator:wikidata":"Q5054648","operator:wikipedia":"en:Causeway Link","public_transport:version":"1"},"14216785":{"to":"JB Sentral","fee":"yes","ref":"T11","from":"Setia Indah","name":"Svc T11 (Setia Indah → JB Sentral)","type":"route","route":"bus","network":"Causeway Link","website":"https://www.causewaylink.com.my/","operator":"Causeway Link","direction":"2","network:wikidata":"Q5054648","network:wikipedia":"en:Causeway Link","operator:wikidata":"Q5054648","operator:wikipedia":"en:Causeway Link","public_transport:version":"1"},"14216791":{"to":"Setia Indah","fee":"yes","ref":"T11","from":"JB Sentral","name":"Svc T11 (JB Sentral → Seta Indah)","type":"route","route":"bus","network":"Causeway Link","website":"https://www.causewaylink.com.my/","operator":"Causeway Link","direction":"1","network:wikidata":"Q5054648","network:wikipedia":"en:Causeway Link","operator:wikidata":"Q5054648","operator:wikipedia":"en:Causeway Link","public_transport:version":"1"},"14216792":{"to":"JB Sentral","fee":"yes","ref":"F100","via":"KSL City Mall","from":"JB Sentral","name":"Svc F100 (Roundtrip from JB Sentral)","type":"route","route":"bus","network":"Causeway Link","website":"https://www.causewaylink.com.my/","operator":"Causeway Link","direction":"1","network:wikidata":"Q5054648","network:wikipedia":"en:Causeway Link","operator:wikidata":"Q5054648","operator:wikipedia":"en:Causeway Link","public_transport:version":"1"},"14272232":{"to":"Boon Lay","fee":"yes","ref":"CW6","from":"Perling Mall","name":"Svc CW6 (Perling Mall → Boon Lay)","type":"route","route":"bus","network":"Causeway Link","website":"https://www.causewaylink.com.my/","operator":"Causeway Link","network:wikidata":"Q5054648","network:wikipedia":"en:Causeway Link","operator:wikidata":"Q5054648","operator:wikipedia":"en:Causeway Link","public_transport:version":"1"},"14272236":{"to":"Kampung Pendas Baru","fee":"yes","ref":"T42","from":"Terminal Gelang Patah","name":"Svc T42 (Terminal Gelang Patah → Kampung Pendas Baru)","type":"route","route":"bus","network":"Causeway Link","website":"https://www.causewaylink.com.my/","operator":"Causeway Link","direction":"1","network:wikidata":"Q5054648","network:wikipedia":"en:Causeway Link","operator:wikidata":"Q5054648","operator:wikipedia":"en:Causeway Link","public_transport:version":"1"},"14272238":{"to":"Terminal Ferry Puteri Harbour","fee":"yes","ref":"T41","from":"Larkin Sentral","name":"Svc T41 (Larkin Sentral → Terminal Ferry Puteri Harbour)","type":"route","route":"bus","network":"Causeway Link","website":"https://www.causewaylink.com.my/","operator":"Causeway Link","direction":"1","network:wikidata":"Q5054648","network:wikipedia":"en:Causeway Link","operator:wikidata":"Q5054648","operator:wikipedia":"en:Causeway Link","public_transport:version":"1"},"14272239":{"to":"Larkin Sentral","fee":"yes","ref":"T40","from":"GP Sentral","name":"Svc T40 (GP Sentral → Larkin Sentral)","type":"route","route":"bus","network":"Causeway Link","website":"https://www.causewaylink.com.my/","operator":"Causeway Link","direction":"2","network:wikidata":"Q5054648","network:wikipedia":"en:Causeway Link","operator:wikidata":"Q5054648","operator:wikipedia":"en:Causeway Link","public_transport:version":"1"},"14272240":{"to":"GP Sentral","fee":"yes","ref":"T40","from":"Larkin Sentral","name":"Svc T40 (Larkin Sentral → GP Central)","type":"route","route":"bus","network":"Causeway Link","website":"https://www.causewaylink.com.my/","operator":"Causeway Link","direction":"1","network:wikidata":"Q5054648","network:wikipedia":"en:Causeway Link","operator:wikidata":"Q5054648","operator:wikipedia":"en:Causeway Link","public_transport:version":"1"},"14272241":{"to":"JB Sentral","fee":"yes","ref":"T31","from":"Pulai Indah","name":"Svc T31 (Pulai Indah → JB Sentral)","type":"route","route":"bus","network":"Causeway Link","website":"https://www.causewaylink.com.my/","operator":"Causeway Link","direction":"1","network:wikidata":"Q5054648","network:wikipedia":"en:Causeway Link","operator:wikidata":"Q5054648","operator:wikipedia":"en:Causeway Link","public_transport:version":"1"},"14272242":{"to":"Pulai Indah","fee":"yes","ref":"T31","from":"JB Sentral","name":"Svc T31 (JB Sentral → Pulai Indah)","type":"route","route":"bus","network":"Causeway Link","website":"https://www.causewaylink.com.my/","operator":"Causeway Link","direction":"1","network:wikidata":"Q5054648","network:wikipedia":"en:Causeway Link","operator:wikidata":"Q5054648","operator:wikipedia":"en:Causeway Link","public_transport:version":"1"},"14286220":{"to":"Terminal Kota Masai","fee":"no","ref":"P313","from":"Terminal Kota Masai","name":"Svc P314 (Roundtrip from Terminal Kota Masai)","type":"route","route":"bus","network":"Bas Muafakat Johor","direction":"1","public_transport:version":"1"},"14286221":{"to":"Terminal Ulu Tiram","fee":"no","ref":"P313","from":"Kampung Felda Sungai Tiram","name":"Svc P313 (Kampung Felda Sungai Tiram → Terminal Ulu Tiram)","type":"route","route":"bus","network":"Bas Muafakat Johor","direction":"1","public_transport:version":"1"},"14286222":{"to":"Kampung Felda Sungai Tiram","fee":"no","ref":"P313","from":"Terminal Pasir Gudang","name":"Svc P313 (Terminal Ulu Tiram → Kampung Felda Sungai Tiram)","type":"route","route":"bus","network":"Bas Muafakat Johor","direction":"1","public_transport:version":"1"},"14286223":{"to":"Terminal Masai","fee":"no","ref":"P312","via":"Terminal Pasir Gudang","from":"Terminal Masai","name":"Svc P312 (Roundtrip from Terminal Masai)","type":"route","route":"bus","network":"Bas Muafakat Johor","direction":"1","public_transport:version":"1"},"14286224":{"to":"Terminal Pasir Gudang","fee":"no","ref":"P311","from":"JB Sentral","name":"Svc P311 (JB Sentral → Terminal Pasir Gudang)","type":"route","route":"bus","network":"Bas Muafakat Johor","direction":"2","public_transport:version":"1"},"14286225":{"to":"JB Sentral","fee":"no","ref":"P311","from":"Terminal Pasir Gudang","name":"Svc P311 (Terminal Pasir Gudang → JB Sentral)","type":"route","route":"bus","network":"Bas Muafakat Johor","direction":"1","public_transport:version":"1"},"14286226":{"to":"Terminal Pasir Gudang","fee":"no","ref":"P303","from":"Terminal Kota Masai","name":"Svc P303 (Terminal Kota Masai → Terminal Pasir Gudang)","type":"route","route":"bus","network":"Bas Muafakat Johor","direction":"1","public_transport:version":"1"},"14286227":{"to":"Terminal Kota Masai","fee":"no","ref":"P303","from":"Terminal Pasir Gudang","name":"Svc P303 (Terminal Pasir Gudang → Terminal Kota Masai)","type":"route","route":"bus","network":"Bas Muafakat Johor","direction":"1","public_transport:version":"1"},"14286237":{"to":"Terminal Pasir Gudang","fee":"no","ref":"P302","from":"Hub Desa Rakyat","name":"Svc P302 (Hub Desa Rakyat → Terminal Pasir Gudang)","type":"route","route":"bus","network":"Bas Muafakat Johor","direction":"1","public_transport:version":"1"},"14286238":{"to":"Lotus Plentong","fee":"no","ref":"P301","from":"Terminal Pasir Gudang","name":"Svc P301 (Terminal Pasir Gudang → Lotus Plentong)","type":"route","route":"bus","network":"Bas Muafakat Johor","direction":"2","public_transport:version":"1"},"14286239":{"to":"Terminal Pasir Gudang","fee":"no","ref":"P301","from":"Lotus Plentong","name":"Svc P301 (Lotus Plentong → Terminal Pasir Gudang)","type":"route","route":"bus","network":"Bas Muafakat Johor","direction":"1","public_transport:version":"1"},"14286240":{"to":"Taman Universiti","fee":"no","ref":"P211","from":"Larkin Sentral","name":"Svc P211 (Larkin Sentral → Taman Universiti)","type":"route","route":"bus","network":"Bas Muafakat Johor","website":"https://www.causewaylink.com.my/","direction":"2","public_transport:version":"1"},"14286241":{"to":"Larkin Sentral","fee":"no","ref":"P211","from":"Taman Universiti","name":"Svc P211 (Taman Universiti → Larkin Sentral)","type":"route","route":"bus","network":"Bas Muafakat Johor","website":"https://www.causewaylink.com.my/","direction":"1","public_transport:version":"1"},"14286244":{"to":"JB Sentral","fee":"yes","ref":"T33","from":"PPR Uda Utama","name":"Svc T33 (PPR Uda Utama → JB Sentral)","type":"route","route":"bus","network":"Causeway Link","website":"https://www.causewaylink.com.my/","operator":"Causeway Link","direction":"1","network:wikidata":"Q5054648","network:wikipedia":"en:Causeway Link","operator:wikidata":"Q5054648","operator:wikipedia":"en:Causeway Link","public_transport:version":"1"},"14286245":{"to":"JB Sentral","fee":"yes","ref":"T20","from":"Kota Masai","name":"Svc T20 (Kota Masai → JB Sentral)","type":"route","route":"bus","network":"Causeway Link","website":"https://www.causewaylink.com.my/","operator":"Causeway Link","direction":"2","network:wikidata":"Q5054648","network:wikipedia":"en:Causeway Link","operator:wikidata":"Q5054648","operator:wikipedia":"en:Causeway Link","public_transport:version":"1"},"14286248":{"to":"Kota Masai","fee":"yes","ref":"T20","from":"JB Sentral","name":"Svc T20 (JB Sentral → Kota Masai)","type":"route","route":"bus","network":"Causeway Link","website":"https://www.causewaylink.com.my/","operator":"Causeway Link","direction":"1","network:wikidata":"Q5054648","network:wikipedia":"en:Causeway Link","operator:wikidata":"Q5054648","operator:wikipedia":"en:Causeway Link","public_transport:version":"1"},"14292657":{"to":"Pekan Nenas","fee":"yes","ref":"PN002","from":"Kampung Sri Menanti","name":"Svc PN002 (Kampung Sri Menanti → Pekan Nenas)","type":"route","route":"bus","direction":"2","public_transport:version":"1"},"14292658":{"to":"Kampung Sri Menanti","fee":"yes","ref":"PN002","from":"Pekan Nenas","name":"Svc PN002 (Pekan Nenas → Kampung Sri Menanti)","type":"route","route":"bus","direction":"1","public_transport:version":"1"},"14292660":{"to":"Terminal Pontian","fee":"yes","ref":"T50","from":"Larkin Sentral","name":"Svc T50 (Larkin Sentral → Terminal Pontian)","type":"route","route":"bus","network":"Causeway Link","website":"https://www.causewaylink.com.my/","operator":"Causeway Link","direction":"1","network:wikidata":"Q5054648","network:wikipedia":"en:Causeway Link","operator:wikidata":"Q5054648","operator:wikipedia":"en:Causeway Link","public_transport:version":"1"},"14293911":{"to":"Larkin Sentral","ref":"KT001","from":"Terminal Kota Tinggi","name":"Svc KT001 (Roundtrip from Terminal Kota Tinggi)","type":"route","route":"bus","direction":"1","public_transport:version":"1"},"14306904":{"to":"MRT Sri Damansara Timur","fee":"yes","ref":"T111","via":"Taman Daya;Taman Kepong Indah","from":"MRT Sri Damansara Timur","name":"T111: MRT Sri Damansara Timur ↺ Taman Daya / Taman Kepong Indah","note":"Route map indicate another name","type":"route","route":"bus","charge":"RM1","colour":"#662d91","name:ms":"T111: MRT Sri Damansara Timur ↺ Taman Daya / Taman Kepong Indah","network":"Rapid KL","alt_name":"T111: MRT Sri Damansara Timur ↺ Taman Ehsan / Kepong Ulu","interval":"00:30","operator":"Prasarana Malaysia","roundtrip":"yes","wheelchair":"yes","opening_hours":"Mo-Su 06:00-23:30","network:wikidata":"Q3271384","operator:wikidata":"Q4209298","public_transport:version":"2"},"14307124":{"to":"MRT Sri Damansara Sentral","fee":"yes","ref":"T109","via":"Desa ParkCity","from":"MRT Sri Damansara Sentral","name":"T109: MRT Sri Damansara Sentral ↺ Desa ParkCity","note":"Route map https://drive.google.com/drive/folders/1sr9xFHdmKmSgurXgD1aw2rk1tm1xu9ld?fbclid=IwAR2kYbGdWXYRWGiPGtXW7bpBRhwRiOTS-QsGG581CmMZ-RuZQeO400Vtr1M","type":"route","route":"bus","charge":"RM1","colour":"#662d91","name:en":"T109: MRT Sri Damansara Sentral ↺ Desa ParkCity","name:ms":"T109: MRT Sri Damansara Sentral ↺ Desa ParkCity","network":"Rapid KL","interval":"00:30","operator":"Prasarana Malaysia","roundtrip":"yes","wheelchair":"yes","opening_hours":"Mo-Su 06:00-23:30","network:wikidata":"Q3271384","operator:wikidata":"Q4209298","public_transport:version":"2"},"14602065":{"to":"Bandar Sri Pinang","ref":"12","from":"Jetty","name":"Bus 12: Jeti => Bandar Sri Pinang","type":"route","route":"bus","network":"Rapid Penang","operator":"Rapid Penang","public_transport:version":"2"},"14741929":{"to":"MRT Taman Mutiara","ref":"T409","via":"Taman Supreme;Ketumbar Hill","from":"MRT Taman Mutiara","name":"T409: MRT Taman Mutiara ↺ Taman Supreme / Ketumbar Hill","type":"route","route":"bus","network":"Rapid KL","operator":"Prasarana Malaysia","roundtrip":"yes","network:wikidata":"Q3271384","operator:wikidata":"Q4209298","public_transport:version":"2"},"14757592":{"to":"LRT Dato' Keramat","ref":"TURQUOISE","via":"Kelumpuk Bambu","from":"LRT Dato' Keramat","name":"GOKL Turquoise: LRT Dato' Keramat ↺ Kelumpuk Bambu","type":"route","route":"bus","colour":"turquoise","network":"GOKL City Bus","operator":"DBKL","roundtrip":"yes","public_transport:version":"2"},"14758061":{"to":"LRT Setiawangsa","ref":"T223","via":"AU3;Jentayu;Keramat","from":"LRT Setiawangsa","name":"T223: LRT Setiawangsa ↺ AU3, Jentayu, Keramat","type":"route","route":"bus","network":"LRT Feeder Bus","operator":"Rapid KL","roundtrip":"yes","public_transport:version":"2"},"14878286":{"to":"MRT Sungai Buloh","fee":"yes","ref":"T100","from":"MRT Sungai Buloh","name":"T100: Hospital Sungai Buloh ↺ MRT Sungai Buloh","type":"route","route":"bus","charge":"RM1","colour":"#662d91","source":"https://www.openstreetmap.org/user/nabilersyad/traces/5332692","name:en":"T100: Hospital Sungai Buloh ↺ MRT Sungai Buloh","name:ms":"T100: Hospital Sungai Buloh ↺ MRT Sungai Buloh","network":"Rapid KL","operator":"Prasarana Malaysia","roundtrip":"yes","wheelchair":"yes","opening_hours":"Mo-Su 06:00-23:30","network:wikidata":"Q3271384","operator:wikidata":"Q4209298","public_transport:version":"2"},"14965387":{"to":"Hab Wira Damai","fee":"yes","ref":"170","via":"Stesen LRT Sentul","from":"Hab Wira Damai","name":"170: Hab Wira Damai ↺ Stesen LRT Sentul","type":"route","route":"bus","source":"https://www.openstreetmap.org/user/nabilersyad/traces/5518307","name:ms":"170: Hab Wira Damai ↺ Stesen LRT Sentul","network":"Rapid KL","operator":"Prasarana Malaysia","roundtrip":"yes","wheelchair":"yes","network:wikidata":"Q3271384","operator:wikidata":"Q4209298","public_transport:version":"2"},"15009376":{"to":"MRT Sungai Buloh","ref":"KS02","from":"Bandar Puncak Alam","name":"KS02: Bandar Puncak Alam → MRT Sungai Buloh","type":"route","route":"bus","colour":"#f8ed00","network":"Smart Selangor Bus","operator":"Selangor Omnibus","roundtrip":"no","opening_hours":"Mo-Su 05:00-20:50","public_transport:version":"2"},"15321745":{"to":"Bandar Puncak Alam","ref":"KS02","from":"MRT Sungai Buloh","name":"KS02: MRT Sungai Buloh → Bandar Puncak Alam","type":"route","route":"bus","colour":"#f8ed00","network":"Smart Selangor Bus","operator":"Selangor Omnibus","roundtrip":"no","opening_hours":"Mo-Su 05:00-20:50","public_transport:version":"2"},"15422556":{"to":"Batu Arang","ref":"MPS3","via":"KTM Sungai Buloh","from":"Hospital Sungai Buloh","name":"MPS3: Hospital Sungai Buloh → Batu Arang","type":"route","route":"bus","colour":"#f8ed00","network":"Smart Selangor Bus","interval":"02:00","operator":"Rapid KL","roundtrip":"no","wheelchair":"yes","opening_hours":"Mo-Su 06:00-21:30","source:geometry":"https://www.openstreetmap.org/user/angys/traces/6145277","public_transport:version":"2"},"15632348":{"to":"MRT Taman Mutiara","ref":"T408","via":"Taman Segar Perdana","from":"MRT Taman Mutiara","name":"T408: MRT Taman Mutiara ↺ Taman Segar Perdana","type":"route","route":"bus","network":"Rapid KL","operator":"Prasarana Malaysia","roundtrip":"yes","network:wikidata":"Q3271384","operator:wikidata":"Q4209298","public_transport:version":"2"},"15700517":{"to":"Terminal Bahau","fee":"yes","ref":"T10B","via":"Batu Kikir","from":"Terminal 1","name":"T10B Terminal1 - Terminal Bahau melalui Batu Kikir","type":"route","route":"bus","operator":"Cityliner","reservation":"no","public_transport:version":"2"},"15796232":{"to":"Terminal 1","fee":"yes","ref":"T10A","from":"Terminal Bahau","name":"T10A Terminal1 - Terminal Bahau melalui Batu Kikir","type":"route","route":"bus","operator":"Cityliner","reservation":"no","public_transport:version":"2"},"15817100":{"to":"Terminal Bas Bandar Malawati","fee":"yes","ref":"100","via":"Sungai Buloh","from":"Hab Lebuh Pudu","name":"100: Hab Lebuh Pudu → Kuala Selangor","type":"route","route":"bus","source":"https://www.openstreetmap.org/user/nabilersyad/traces/7342696","name:ms":"100: Hab Lebuh Pudu → Kuala Selangor","network":"Causeway Link","operator":"Causeway Link","roundtrip":"yes","wheelchair":"no","opening_hours":"Mo-Su 06:20-18:00","network:wikidata":"Q5054648","public_transport:version":"2"},"15879898":{"to":"JB Sentral","ref":"T10","from":"Terminal Bas Kota Tinggi","name":"Svc T10 (Terminal Bas Kota Tinggi → JB Sentral)","type":"route","route":"bus","network":"Causeway Link","website":"https://www.causewaylink.com.my/","operator":"Causeway Link","network:wikidata":"Q5054648","network:wikipedia":"en:Causeway Link","operator:wikidata":"Q5054648","operator:wikipedia":"en:Causeway Link","public_transport:version":"1"},"15887422":{"to":"Hub Permas Jaya","fee":"yes","ref":"T21","from":"JB Sentral","name":"Svc T21 (JB Sentral → Hub Permas Jaya)","type":"route","route":"bus","network":"Causeway Link","website":"https://www.causewaylink.com.my/","operator":"Causeway Link","direction":"2","network:wikidata":"Q5054648","network:wikipedia":"en:Causeway Link","operator:wikidata":"Q5054648","operator:wikipedia":"en:Causeway Link","public_transport:version":"1"},"15887423":{"to":"JB Sentral","fee":"yes","ref":"T21","from":"Hub Permas Jaya","name":"Svc T21 (Hub Permas Jaya → JB Sentral)","type":"route","route":"bus","network":"Causeway Link","website":"https://www.causewaylink.com.my/","operator":"Causeway Link","direction":"1","network:wikidata":"Q5054648","network:wikipedia":"en:Causeway Link","operator:wikidata":"Q5054648","operator:wikipedia":"en:Causeway Link","public_transport:version":"1"},"15887424":{"to":"Flat Taman Selesa Jaya","fee":"yes","ref":"T32","from":"JB Sentral","name":"Svc T32 (JB Sentral → Flat Taman Selesa Jaya)","type":"route","route":"bus","network":"Causeway Link","website":"https://www.causewaylink.com.my/","operator":"Causeway Link","direction":"2","network:wikidata":"Q5054648","network:wikipedia":"en:Causeway Link","operator:wikidata":"Q5054648","operator:wikipedia":"en:Causeway Link","public_transport:version":"1"},"15887425":{"to":"JB Sentral","ref":"T13","from":"Larkin Sentral","name":"Svc T13 (Larkin Sentral → JB Sentral)","type":"route","route":"bus","network":"Causeway Link","website":"https://www.causewaylink.com.my/","operator":"Causeway Link","direction":"1","network:wikidata":"Q5054648","network:wikipedia":"en:Causeway Link","operator:wikidata":"Q5054648","operator:wikipedia":"en:Causeway Link","public_transport:version":"1"},"15887426":{"to":"Larkin Sentral","ref":"T13","from":"JB Sentral","name":"Svc T13 (JB Sentral → Larkin Sentral)","type":"route","route":"bus","network":"Causeway Link","website":"https://www.causewaylink.com.my/","operator":"Causeway Link","direction":"2","network:wikidata":"Q5054648","network:wikipedia":"en:Causeway Link","operator:wikidata":"Q5054648","operator:wikipedia":"en:Causeway Link","public_transport:version":"1"},"15887427":{"to":"Perhentian Bas dan Kereta Sewa Ulu Tiram","ref":"T12","from":"AEON Tebrau","name":"Svc T12 (AEON Tebrau → Perhentian Bas dan Kereta Sewa Ulu Tiram)","type":"route","route":"bus","network":"Causeway Link","website":"https://www.causewaylink.com.my/","operator":"Causeway Link","network:wikidata":"Q5054648","network:wikipedia":"en:Causeway Link","operator:wikidata":"Q5054648","operator:wikipedia":"en:Causeway Link","public_transport:version":"1"},"15887429":{"to":"AEON Tebrau","ref":"T12","from":"Perhentian Bas dan Kereta Sewa Ulu Tiram","name":"Svc T12 (Perhentian Bas dan Kereta Sewa Ulu Tiram → AEON Tebrau)","type":"route","route":"bus","network":"Causeway Link","website":"https://www.causewaylink.com.my/","operator":"Causeway Link","network:wikidata":"Q5054648","network:wikipedia":"en:Causeway Link","operator:wikidata":"Q5054648","operator:wikipedia":"en:Causeway Link","public_transport:version":"1"},"15897908":{"to":"Larkin Sentral","fee":"yes","ref":"CWL","from":"JB Custom Out","name":"Svc CWL (JB Custom Out → Larkin Sentral)","type":"route","route":"bus","network":"Causeway Link","website":"https://www.causewaylink.com.my/","operator":"Causeway Link","direction":"2","network:wikidata":"Q5054648","network:wikipedia":"en:Causeway Link","operator:wikidata":"Q5054648","operator:wikipedia":"en:Causeway Link","public_transport:version":"1"},"15897909":{"to":"JB Custom IN","fee":"yes","ref":"CWL","from":"Larkin Sentral","name":"Svc CWL (Larkin Sentral → JB Custom IN)","type":"route","route":"bus","network":"Causeway Link","website":"https://www.causewaylink.com.my/","operator":"Causeway Link","direction":"1","network:wikidata":"Q5054648","network:wikipedia":"en:Causeway Link","operator:wikidata":"Q5054648","operator:wikipedia":"en:Causeway Link","public_transport:version":"1"},"15897910":{"to":"Terminal Bas Masai","fee":"yes","ref":"T22","from":"Larkin Sentral","name":"Svc T22 (Larkin Sentral → Terminal Bas Masai)","type":"route","route":"bus","network":"Causeway Link","website":"https://www.causewaylink.com.my/","operator":"Causeway Link","direction":"2","network:wikidata":"Q5054648","network:wikipedia":"en:Causeway Link","operator:wikidata":"Q5054648","operator:wikipedia":"en:Causeway Link","public_transport:version":"1"},"15897911":{"to":"Larkin Sentral","fee":"yes","ref":"T22","from":"Terminal Bas Masai","name":"Svc T22 (Terminal Bas Masai → Larkin Sentral)","type":"route","route":"bus","network":"Causeway Link","website":"https://www.causewaylink.com.my/","operator":"Causeway Link","direction":"1","network:wikidata":"Q5054648","network:wikipedia":"en:Causeway Link","operator:wikidata":"Q5054648","operator:wikipedia":"en:Causeway Link","public_transport:version":"1"},"15898141":{"to":"Johor Premium Outlet","ref":"JPO1","from":"JB Sentral","name":"Svc JPO1 (JB Sentral → Johor Premium Outlet)","type":"route","route":"bus","network":"Causeway Link","website":"https://www.causewaylink.com.my/","operator":"Causeway Link","network:wikidata":"Q5054648","network:wikipedia":"en:Causeway Link","operator:wikidata":"Q5054648","operator:wikipedia":"en:Causeway Link","public_transport:version":"1"},"15904181":{"to":"Larkin Sentral","fee":"no","ref":"P104","from":"Taman Johor","name":"Svc P104 (Taman Johor → Larkin Sentral)","type":"route","route":"bus","network":"Bas Muafakat Johor","website":"https://paj.com.my/bmj-route-schedules-mbjb/","direction":"2","public_transport:version":"1"},"15906244":{"to":"Puteri Harbour","fee":"yes","ref":"T43","from":"AEON Bukit Indah","name":"Svc T43 (AEON Bukit Indah → Puteri Harbour)","type":"route","route":"bus","network":"Causeway Link","website":"https://www.causewaylink.com.my/","operator":"Causeway Link","direction":"2","network:wikidata":"Q5054648","network:wikipedia":"en:Causeway Link","operator:wikidata":"Q5054648","operator:wikipedia":"en:Causeway Link","public_transport:version":"1"},"15906245":{"to":"AEON Bukit Indah","fee":"yes","ref":"T43","from":"Puteri Harbour","name":"Svc T43 (Puteri Harbour → AEON Bukit Indah)","type":"route","route":"bus","network":"Causeway Link","website":"https://www.causewaylink.com.my/","operator":"Causeway Link","direction":"1","network:wikidata":"Q5054648","network:wikipedia":"en:Causeway Link","operator:wikidata":"Q5054648","operator:wikipedia":"en:Causeway Link","public_transport:version":"1"},"15906804":{"to":"Larkin Sentral","fee":"no","ref":"P112","from":"Taman Johor Raya","name":"Svc P112 (Taman Johor Raya → Larkin Sentral)","type":"route","route":"bus","network":"Bas Muafakat Johor","website":"https://paj.com.my/bmj-route-schedules-mbjb/","direction":"1","public_transport:version":"1"},"15906805":{"to":"Taman Johor Raya","fee":"no","ref":"P112","from":"Larkin Sentral","name":"Svc P112 (Larkin Sentral → Taman Johor Raya)","type":"route","route":"bus","network":"Bas Muafakat Johor","website":"https://paj.com.my/bmj-route-schedules-mbjb/","direction":"1","public_transport:version":"1"},"15906806":{"to":"Desa Mutiara","fee":"no","ref":"P111","from":"AEON Jusco Tebrau","name":"Svc P111 (AEON Jusco Tebrau → Desa Mutiara)","type":"route","route":"bus","network":"Bas Muafakat Johor","website":"https://paj.com.my/bmj-route-schedules-mbjb/","direction":"2","public_transport:version":"1"},"15906807":{"to":"AEON Jusco Tebrau","fee":"no","ref":"P111","from":"Desa Mutiara","name":"Svc P111 (Desa Mutiara → AEON Jusco Tebrau)","type":"route","route":"bus","network":"Bas Muafakat Johor","website":"https://paj.com.my/bmj-route-schedules-mbjb/","direction":"1","public_transport:version":"1"},"15906808":{"to":"Hub Stri Stulang","fee":"no","ref":"P106","from":"Hospital Sultan Ismail","name":"Svc P106 (Hospital Sultan Ismail → Hub Stri Stulang)","type":"route","route":"bus","network":"Bas Muafakat Johor","website":"https://paj.com.my/bmj-route-schedules-mbjb/","direction":"2","public_transport:version":"2"},"15906809":{"to":"Hospital Sultan Ismail","fee":"no","ref":"P106","from":"Hub Stri Stulang","name":"Svc P106 (Hub Stri Stulang → Hospital Sultan Ismail)","type":"route","route":"bus","network":"Bas Muafakat Johor","website":"https://paj.com.my/bmj-route-schedules-mbjb/","direction":"1","public_transport:version":"1"},"15906858":{"to":"Larkin Sentral","fee":"no","ref":"P113","from":"Desa Mutiara","name":"Svc P113 (Desa Mutiara → Larkin Sentral)","type":"route","route":"bus","network":"Bas Muafakat Johor","website":"https://paj.com.my/bmj-route-schedules-mbjb/","direction":"1","public_transport:version":"1"},"15906859":{"to":"Desa Mutiara","fee":"no","ref":"P113","from":"Larkin Sentral","name":"Svc P113 (Larkin Sentral → Desa Mutiara)","type":"route","route":"bus","network":"Bas Muafakat Johor","website":"https://paj.com.my/bmj-route-schedules-mbjb/","direction":"1","public_transport:version":"1"}}