{"3982611":{"ref":"23 Z.C.","name":"Línea 23 - RAMAL ZEVALLOS CUE","type":"route","route":"bus","operator":"Lambare SA"},"3983243":{"ref":"15-1","name":"Línea 15-1","type":"route","route":"bus","operator":"Automotores Guaraní S.A.C.I."},"3983318":{"ref":"133","name":"Línea 133","type":"route","route":"bus","operator":"CONDUBUS LTDA."},"3984378":{"ref":"55","name":"Línea 55 - RAMAL DIRECTO","type":"route","route":"bus","operator":"EL INTER S.R.L."},"3985016":{"ref":"11","name":"Linea 11 - RAMAL DIRECTO","type":"route","route":"bus","operator":"SAN AGUSTIN"},"3992204":{"ref":"23 Limpio","name":"Línea 23 - RAMAL LIMPIO","type":"route","route":"bus","operator":"LAMBARE S.A."},"3994858":{"to":"Asunción","ref":"18 San Lorenzo","from":"Villeta","name":"Línea 18 - RAMAL SAN LORENZO","type":"route","route":"bus","colour":"Amarillo","operator":"Grupo Lince S.R.L.","opening_hours":"24/7"},"3996891":{"to":"Asunción","ref":"18 San Martín","from":"Villeta","name":"Línea 18 - RAMAL: SAN MARTÍN","type":"route","route":"bus","colour":"Amarillo","operator":"Grupo Lince S.R.L.","opening_hours":"24/7"},"3996910":{"ref":"32 IPS","name":"Línea 32 - RAMAL I.P.S.","type":"route","route":"bus","operator":"CIUDAD DE GUARAMBARE S.R.L."},"3998684":{"ref":"32 Guar. - San A.","name":"Línea 32 - RAMAL Guarambare – San Antonio","type":"route","route":"bus","operator":"CIUDAD DE GUARAMBARE S.R.L."},"4000491":{"ref":"2A","name":"Línea 2 y 7 - RAMAL 2 A","type":"route","route":"bus","operator":"TRANSPORTE GUARANI S.R.L."},"5700290":{"to":"Posadas","ref":"64INTERNAC","from":"Encarnación","name":"Línea Internacional: Encarnación (PY) → Posadas (AR)","type":"route","route":"bus","colour":"white","description":"Línea de transporte urbano de pasajeros, Servicio Internacional Paraguay-Argentina","public_transport:version":"2"},"5744210":{"ref":"7 B TERMINAL","name":"Línea - 7B","type":"route","route":"bus","operator":"TRANSPORTE GUARANÍ S.R.L."},"9641936":{"to":"Asunción","ref":"15-2 Salinas","from":"San Antonio","name":"Línea 15-2 Salinas","type":"route","route":"bus","operator":"Automotores Guaraní SRL"},"9641937":{"to":"Asunción","ref":"15-3 Mcal. López","from":"San Antonio","name":"Línea 15-3 Mariscal López","type":"route","route":"bus","colour":"white","interval":"15","operator":"Automotores Guaraní SRL","wheelchair":"yes","opening_hours":"Mo-Su 03:30-21:30"},"9641938":{"to":"Asunción","ref":"15-3 Gral. Santos","from":"San Antonio","name":"Línea 15-3 General Santos","type":"route","route":"bus","colour":"white","interval":"15","operator":"Automotores Guaraní SRL","wheelchair":"yes","opening_hours":"Mo-Su 03:30-21:30"},"9641939":{"to":"Asunción","ref":"15-2 Caaguazú","from":"San Antonio","name":"Línea 15-2 Caaguazú","type":"route","route":"bus","status":"abandoned","operator":"Automotores Guaraní SRL"},"9641940":{"to":"Asunción","ref":"15-4","from":"San Antonio","name":"Línea 15-4","type":"route","route":"bus","operator":"Automotores Guaraní SRL"},"9644636":{"to":"Asunción","ref":"38 Veracruz - B° Obrero","from":"Ypané","name":"Línea 38 Ramal San Antonio - Villa Elisa - Barrio Obrero","type":"route","route":"bus","colour":"red","operator":"Mariscal López SRL"},"9644637":{"ref":"38 Ypatí - B° Obrero","name":"Línea 38 Ramal Las Garzas - Ypatí - Barrio Obrero","type":"route","route":"bus"},"9644638":{"to":"Asunción","ref":"38 Mbocayaty - B° Obrero","from":"San Antonio","name":"Línea 38 Ramal Mbocayaty - Salinas - Barrio Obrero","type":"route","route":"bus","operator":"Mariscal López SRL"},"9649062":{"ref":"38 Ypané Centro - B° Obrero","name":"Línea 38 Ypané Centro - Barrio Obrero","type":"route","route":"bus"},"9649063":{"to":"Asunción","ref":"38 Paso de Oro - B° Obrero","from":"Ypané","name":"Línea 38 Paso de Oro - Barrio Obrero","type":"route","route":"bus","operator":"Mariscal López SRL"},"9649064":{"ref":"38 Liceo - B° Obrero","name":"Línea 38 Liceo - Barrio Obrero","type":"route","route":"bus"},"9660525":{"to":"San Antonio","ref":"C 119","via":"Asunción;San Lorenzo;Ypacaraí;Caacupé","from":"Caacupé","name":"BUS 119. Asunción -> Caacupé","type":"route","route":"bus","name:de":"BUS 119. Asunción -> Caacupé","name:en":"BUS 119. Asunción -> Caacupé","name:es":"BUS 119. Asunción -> Caacupé","name:fr":"BUS 119. Asuncion -> Caacupé","name:it":"AUTOBUS 119. Asunción -> Caacupé","name:ja":"バス 119. アスンシオン -> カアクペ","name:ko":"BUS 119. 아순시온 -> 카쿠페","name:la":"BUS 119. Asunción -> Caacupé","name:pt":"ÔNIBUS 119. Assunção -> Caacupé","website":"https://www.bienvenidoaparaguay.com/buses.php","operator":"Empresa Villa Serrana S.R.L. - La Caacupeña S.A.","wikidata":"Q106490122","wikipedia":"es:Terminal de Ómnibus de Asunción","name:zh-Hant":"119 路公交車。亞松森 -> 卡庫佩"},"11238836":{"to":"zona club deportivo Sajonia","ref":"1A Jara","from":"zona figorificos Guarani","name":"Linea 1 ramal A barrio Jara","type":"route","route":"bus","network":"DiNaTrAM Paraguay","operator":"Ysapy Sociedad Anonima"},"14453078":{"to":"Asunción","ref":"27","from":"Capiatá","name":"Línea 27","type":"route","route":"bus","operator":"San Lorenzo SACI"},"14503664":{"to":"Asunción","ref":"47","from":"Guarambaré","name":"Línea 47 - Ramal IPS","type":"route","route":"bus","operator":"Automotores Guaraní SRL"},"14897156":{"to":"Asunción","ref":"5","from":"Benjamín Aceval","name":"Línea 5","type":"route","route":"bus","network":"Ramal Centro","operator":"La Chaqueña S.A.T.C."},"14965996":{"to":"Terminal de Omnibus del Paraguarí","ref":"P 193","via":"Terminal de Omnibus - Asunción;San Lorenzo;Itá;Yaguarón;Ciudad de Paraguari;Terminal de Omnibus del Paraguarí","name":"BUS 193. Asunción -> Paraguarí","type":"route","route":"bus","name:de":"BUS 193. Asunción -> Paraguarí","name:en":"BUS 193. Asunción -> Paraguarí","name:es":"BUS 193. Asunción -> Paraguarí","name:fr":"BUS 193. Asunción -> Paraguay","name:it":"BUS 193. Asunción -> Paraguarí","name:ja":"バス 193. アスンシオン -> パラグアリ","name:ko":"BUS 193. 아순시온 -> 파라과리","name:la":"BUS 193. Asunción -> Paraguarí","name:pt":"ÔNIBUS 193. Assunção -> Paraguarí","website":"https://www.bienvenidoaparaguay.com/buses.php","wikidata":"Q106490122","wikipedia":"es:Terminal de Ómnibus de Asunción","name:zh-Hant":"193 路公交車。亞松森 -> 巴拉圭"},"14966054":{"to":"Terminal de Ómnibus - Asuncion","ref":"P 193","via":"Ciudad de Paraguarí;Yaguarón;Itá;San Lorenzo;Asunción;Terminal de Omnibus - Asuncion","name":"BUS 193. Paraguarí -> Asunción","type":"route","route":"bus","name:de":"BUS 193. Paraguarí -> Asunción","name:en":"BUS 193. Paraguarí -> Asunción","name:es":"BUS 193. Paraguarí -> Asunción","name:fr":"BUS 193. Paraguay -> Asunción","name:it":"AUTOBUS 193. Paraguarí -> Asunción","name:ja":"バス 193. パラグアリ -> アスンシオン","name:ko":"BUS 193. 파라과리 -> 아순시온","name:la":"BUS 193. Paraguarí -> Asunción","name:pt":"ÔNIBUS 193. Paraguarí -> Assunção","website":"https://www.bienvenidoaparaguay.com/buses.php","wikidata":"Q106490122","wikipedia":"es:Terminal de Ómnibus de Asunción","name:zh-Hant":"193 路公交車。巴拉瓜裡 -> 亞松森"},"14966268":{"ref":"C 119","via":"Caacupé;Ypacaraí;San Lorenzo;Asunción","name":"BUS 119. Caacupé -> Asunción","type":"route","route":"bus","name:de":"BUS 119. Caacupé -> Asunción","name:en":"BUS 119. Caacupé -> Asunción","name:es":"BUS 119. Caacupé -> Asunción","name:fr":"BUS 119. Caacupé -> Asuncion","name:it":"AUTOBUS 119. Caacupé -> Asunción","name:ja":"バス 119. カアクペ -> アスンシオン","name:ko":"BUS 119. 카쿠페 -> 아순시온","name:la":"BUS 119. Caacupé -> Asunción","name:pt":"ÔNIBUS 119. Caacupé -> Assunção","website":"https://www.bienvenidoaparaguay.com/buses.php","wikidata":"Q106490122","wikipedia":"es:Terminal de Ómnibus de Asunción","name:zh-Hant":"119 路公交車。卡庫佩 -> 亞松森"},"15925255":{"to":"Asunción","ref":"26","from":"Ñemby","name":"Línea 26","type":"route","route":"bus","operator":"Lince SRL"},"16009449":{"to":"Azul Aeropuerto 30 (A2) Ida","ref":"30 (A-2)","via":"Distrito.: LUQUE;Departamento.: ASUNCIÓN;Address.: Avenida Aviadores del Chaco;Addrees.: Avenida España;Address.: Presidente Manuel Franco;Address.: Avenida Doctor Eusebio Ayala;Distrito.: LAMBARÉ","from":"SEGUNDO BARRIO","name":"30 A-2 Luque -> Asunción -> Lambaré","type":"route","route":"bus","network":"30 A-2"},"16009477":{"to":"Azul Aeropuerto 30 (A2) vuelta","ref":"30 (A-2)","via":"Distrito.: LAMBARÉ;Departamento.: ASUNCIÓN;Address.: Avenida Doctor Eusebio Ayala;Address.: Avenida Doctor José Gaspar Rodriguez de Francia y Velasco;Address.: Cerro Corá;Address.: Avenida España;Address.: Avenida Aviadores del Chaco;Distrito.: LUQUE","from":"SEGUNDO BARRIO","name":"30 A-2 Lambaré -> Asunción -> Luque","type":"route","route":"bus","network":"30 A-2"},"16260130":{"to":"Asunción","ref":"187","from":"Nueva Italia","name":"Línea 187","type":"route","route":"bus","operator":"San José Obrero SRL"}}