{"195841":{"ref":"24","name":"BTC-Atlantis - Vevče","type":"route","route":"bus","colour":"#ed018c","network":"MPP Ljubljana - Urbana","operator":"Ljubljanski Potniški Promet"},"1992381":{"to":"Zg. Duplek Obračališče","ref":"16","from":"AP Mlinska","name":"Bus 16: AP Mlinska ⇒ Zgornji Duplek","type":"route","route":"bus","colour":"#DCAC66","network":"MPP Maribor","operator":"MARPROM","direction":"Zg. Duplek Obračališče","public_transport:version":"2"},"2004947":{"to":"AP Mlinska","ref":"3","from":"AP Mlinska","name":"Bus 3: AP Mlinska ⇒ Pokopališče Dobrava ⇒ Tezno ⇒ Borova vas ⇒ Koroška vrata ⇒ ŽP Maribor ⇒ AP Mlinska","type":"route","route":"bus","colour":"#2B2E34","network":"MPP Maribor","operator":"MARPROM","direction":"AP Mlinska","public_transport:version":"2"},"2018692":{"ref":"22","name":"Kamna Gorica - Fužine P+R","type":"route","route":"bus","colour":"#f7a73a","network":"MPP Ljubljana - Urbana","operator":"Ljubljanski Potniški Promet"},"2020526":{"to":"Beričevo","fee":"yes","ref":"21","from":"Gameljne","name":"Bus 21: Gameljne => Beričevo","type":"route","route":"bus","charge":"1.30 EUR","colour":"#52B84D","network":"MPP Ljubljana - Urbana","interval":"60","operator":"Ljubljanski Potniški Promet","opening_hours":"Mo-Fr 04:45-21:22; Sa 04:50-21:12; Su,PH off","public_transport:version":"2"},"2022077":{"ref":"25","name":"Medvode - Zadobrova","type":"route","route":"bus","colour":"#1095ca","network":"MPP Ljubljana - Urbana","operator":"Ljubljanski Potniški Promet","public_transport:version":"1"},"2022107":{"ref":"18","name":"Kolodvor - Živalski vrt-ZOO - I.C. Šiška - Center Stožice P+R","type":"route","route":"bus","colour":"#895735","network":"MPP Ljubljana - Urbana","operator":"Ljubljanski Potniški Promet"},"2022750":{"ref":"18L","name":"Kolodvor - Živalski vrt-ZOO - Litostrojska","type":"route","route":"bus","colour":"#895735","network":"MPP Ljubljana - Urbana","operator":"Ljubljanski Potniški Promet"},"2023765":{"to":"BTC-Atlantis","fee":"yes","ref":"27K","from":"Bavarski dvor","name":"Bus 27K: Bavarski dvor => BTC-Atlantis","type":"route","route":"bus","charge":"1.30 EUR","colour":"#4ca391","network":"MPP Ljubljana - Urbana","operator":"Ljubljanski Potniški Promet","public_transport:version":"2"},"2023885":{"ref":"47","name":"Ljubljana - Vrhnika Voljčeva","type":"route","route":"bus","network":"PPP","operator":"Ljubljanski Potniški Promet"},"2024276":{"ref":"43","name":"Notranje Gorice - Preserje","type":"route","route":"bus","network":"PPP - Urbana","operator":"Ljubljanski Potniški Promet"},"2024277":{"ref":"19B","name":"Tomačevo - Barje - Jezero","type":"route","route":"bus","network":"MPP Ljubljana - Urbana","operator":"Ljubljanski Potniški Promet"},"2024278":{"to":"Iška vas","fee":"yes","ref":"19I","via":"Barje","from":"Tomačevo","name":"Bus 19I: Tomačevo => Barje => Iška vas","type":"route","route":"bus","charge":"1.30 EUR","colour":"#ea9eb4","network":"MPP Ljubljana - Urbana","operator":"Ljubljanski Potniški Promet","public_transport:version":"2"},"2024279":{"ref":"44","name":"Notranje Gorice - Preserje - Rakitna","type":"route","route":"bus","network":"PPP - Urbana","operator":"Ljubljanski Potniški Promet"},"2024957":{"ref":"40~šolska","name":"Ig AP - Iška Loka - Tomišelj Anzeljc - Strahomer - Iška - Iška vas - Ig AP","type":"route","route":"bus","network":"PPP - Urbana","operator":"Ljubljanski Potniški Promet"},"2024958":{"ref":"42","name":"Ig - Visoko - Zapotok","type":"route","route":"bus","network":"PPP - Urbana","operator":"Ljubljanski Potniški Promet"},"2025392":{"ref":"26","name":"Mali Lipoglav - ZD Polje - Tuji Grm","type":"route","route":"bus","colour":"#231f20","network":"MPP Ljubljana - Urbana","operator":"Ljubljanski Potniški Promet"},"2025420":{"ref":"8B","name":"Gameljne - Bavarski dvor","type":"route","route":"bus","network":"MPP Ljubljana - Urbana","operator":"Ljubljanski Potniški Promet"},"2025881":{"ref":"40","name":"Ig AP - Iška Loka - Tomišelj - Strahomer - Ig AP","type":"route","route":"bus","network":"PPP - Urbana","operator":"Ljubljanski Potniški Promet"},"2025922":{"ref":"48","name":"Ljubljana - Vrhnika - Logatec - Kalce - (Grčarevec)","note":"This stop seem redundant and confusing.","type":"route","route":"bus","network":"PPP","operator":"Ljubljanski Potniški Promet"},"2025923":{"ref":"54","name":"Ljubljana - Plešivica - Blatna Brezovica","type":"route","route":"bus","network":"PPP","operator":"Ljubljanski Potniški Promet"},"2026232":{"to":"Dupleška cesta 255","ref":"9","from":"AP Mlinska","name":"Bus 9: AP Mlinska ⇒ Dupleška cesta 255","type":"route","route":"bus","colour":"#00FF01","network":"MPP Maribor","operator":"MARPROM","direction":"Dupleška cesta 255","public_transport:version":"2"},"2026233":{"to":"Razvanje","ref":"2","from":"AP Mlinska","name":"Bus 2: AP Mlinska ⇒ Razvanje","type":"route","route":"bus","colour":"#3D985B","network":"MPP Maribor","operator":"MARPROM","direction":"Razvanje","public_transport:version":"2"},"2026234":{"to":"Ribniško selo - obračališče","ref":"17","from":"Studenci - obračališče","name":"Bus 17: Studenci ⇒ Ribniško selo","type":"route","route":"bus","colour":"#333333","network":"MPP Maribor","operator":"MARPROM","direction":"Ribniško selo - obračališče","public_transport:version":"2"},"2026235":{"to":"Terme Fontana","ref":"8","via":"Gregorčičeva","from":"AP Mlinska","name":"Bus 8: AP Mlinska ⇒ Terme Fontana","type":"route","route":"bus","colour":"#AB289C","network":"MPP Maribor","operator":"MARPROM","direction":"Terme Fontana","public_transport:version":"2"},"2026237":{"to":"Metava","ref":"10","from":"AP Mlinska","name":"Bus 10: AP Mlinska ⇒ Metava","type":"route","route":"bus","colour":"#102693","network":"MPP Maribor","operator":"MARPROM","direction":"Metava","opening_hours":"Mo-Fr 06:05-08:05, 13:05-16:05","public_transport:version":"2"},"2026238":{"to":"Vzpenjača","ref":"6","from":"AP Mlinska","name":"Bus 6: AP Mlinska ⇒ Vzpenjača","type":"route","route":"bus","colour":"#FF00FE","network":"MPP Maribor","operator":"MARPROM","direction":"Vzpenjača","public_transport:version":"2"},"2026239":{"to":"Melje","ref":"20","from":"Grušova","name":"Bus 20: Grušova ⇒ Greenwich ⇒ Melje","type":"route","route":"bus","colour":"#9B3F3F","network":"MPP Maribor","operator":"MARPROM","direction":"Melje","opening_hours":"Sa 13:05, 15:05; Su 09:15, 13:05","public_transport:version":"2"},"2026241":{"to":"Tezenska Dobrava","ref":"1","from":"AP Mlinska","name":"Bus 1: AP Mlinska ⇒ Tezenska Dobrava","type":"route","route":"bus","network":"MPP Maribor","operator":"MARPROM","direction":"Tezenska Dobrava","public_transport:version":"2"},"2026242":{"to":"E'Leclerc - obračališče","ref":"21","from":"AP Mlinska","name":"Bus 21: AP Mlinska ⇒ Merkur","type":"route","route":"bus","colour":"#FF9730","network":"MPP Maribor","operator":"MARPROM","direction":"E'Leclerc - obračališče","public_transport:version":"2"},"2026243":{"to":"Poštni center - Tezno","ref":"13","from":"AP Mlinska","name":"Bus 13: AP Mlinska ⇒ Poštni center - Tezno","type":"route","route":"bus","colour":"#9A00FF","network":"MPP Maribor","operator":"MARPROM","direction":"Poštni center - Tezno","public_transport:version":"2"},"2026262":{"to":"AP Mlinska","ref":"12","from":"AP Mlinska","name":"Bus 12: AP Mlinska ⇒ Koroška vrata ⇒ Borova vas ⇒ Tezno ⇒ Pokopališče Dobrava ⇒ Brezje ⇒ AP Mlinska","type":"route","route":"bus","colour":"#99FE00","network":"MPP Maribor","operator":"MARPROM","direction":"AP Mlinska","public_transport:version":"2"},"2026358":{"ref":"45","name":"Ljubljana - Borovnica Mercator","type":"route","route":"bus","network":"PPP","operator":"Ljubljanski Potniški Promet"},"2026628":{"ref":"56","name":"Ljubljana - Podsmreka - Horjul - Vrzdenec - Šentjošt","type":"route","route":"bus","colour":"#943312","network":"MPP Ljubljana - Urbana","operator":"Ljubljanski Potniški Promet"},"2026629":{"ref":"51","name":"Ljubljana - Kozarje - Polhov Gradec","type":"route","route":"bus","colour":"#6c8bc6","network":"MPP Ljubljana - Urbana","operator":"Ljubljanski Potniški Promet"},"2026631":{"ref":"52","name":"Polhov Gradec - Zalog - Črni Vrh","type":"route","route":"bus","colour":"#00575c","network":"MPP Ljubljana - Urbana","operator":"Ljubljanski Potniški Promet"},"2026920":{"ref":"60","name":"Ljubljana - Vodice - Polje","type":"route","route":"bus","colour":"#acbb71","network":"MPP Ljubljana - Urbana","operator":"Ljubljanski Potniški Promet"},"2026921":{"ref":"30","name":"Medvode - Vodice","type":"route","route":"bus","colour":"#9ad2ae","network":"MPP Ljubljana - Urbana","operator":"Ljubljanski Potniški Promet","public_transport:version":"1"},"2026968":{"to":"Letališče Brnik","ref":"64","via":"Mengeš;Komenda","from":"Ljubljana","name":"Ljubljana - Mengeš - Komenda - Letališče Brnik","type":"route","route":"bus","network":"PPP","operator":"Ljubljanski Potniški Promet;Alpetour"},"2027953":{"ref":"49","name":"Vrhnika Jazon - Borovnica - Breg/Borovnici","type":"route","route":"bus","network":"PPP","operator":"Ljubljanski Potniški Promet"},"2027980":{"ref":"46","name":"Ljubljana - Vrhnika Jazon - Smrečje/Vrhniko - Žiri","type":"route","route":"bus","network":"PPP","operator":"Ljubljanski Potniški Promet"},"2027981":{"ref":"50","name":"Vrhnika Jazon - Horjul","type":"route","route":"bus","network":"PPP","operator":"Ljubljanski Potniški Promet"},"2029925":{"ref":"53","name":"Polhov Gradec - Suhi Dol","type":"route","route":"bus","colour":"#a585a9","network":"MPP Ljubljana - Urbana","operator":"Ljubljanski Potniški Promet"},"2030712":{"to":"Rošpoh","ref":"7","from":"AP Mlinska","name":"Bus 7: AP Mlinska ⇒ Rošpoh","type":"route","route":"bus","colour":"#FFFF01","network":"MPP Maribor","operator":"MARPROM","direction":"Rošpoh","public_transport:version":"2"},"2030713":{"to":"Košaški dol","ref":"15","from":"Bresternica","name":"Bus 15: Bresternica ⇒ Košaški dol","type":"route","route":"bus","colour":"#FF6634","network":"MPP Maribor","operator":"MARPROM","direction":"Košaški dol","public_transport:version":"2"},"2030723":{"to":"Gaj nad Mariborom","ref":"151","from":"AP Mlinska","name":"Bus 151: AP Mlinska ⇒ Bresternica ⇒ Gaj nad Mariborom","type":"route","route":"bus","colour":"#6599FF","network":"MPP Maribor","operator":"MARPROM","direction":"Gaj nad Mariborom","public_transport:version":"2"},"2030724":{"to":"Šarhova obračališče","ref":"19","from":"AP Mlinska","name":"Bus 19: AP Mlinska ⇒ Šarhova","type":"route","route":"bus","colour":"#CC5129","network":"MPP Maribor","operator":"MARPROM","direction":"Šarhova obračališče","public_transport:version":"2"},"2032134":{"ref":"76","name":"Ivančna Gorica - Stična - Zagradec - Ambrus","type":"route","route":"bus","network":"PPP","operator":"Ljubljanski Potniški Promet"},"2032135":{"ref":"69","name":"Ljubljana - Grosuplje - Ivančna Gorica - Šentvid/Stični - Temenica","type":"route","route":"bus","network":"PPP","operator":"Ljubljanski Potniški Promet"},"2032136":{"ref":"82","name":"Ljubljana - Škofljica - Želimlje","type":"route","route":"bus","network":"PPP","operator":"Ljubljanski Potniški Promet"},"2032137":{"ref":"78","name":"Ljubljana - Grosuplje - Videm","type":"route","route":"bus","network":"PPP","operator":"Ljubljanski Potniški Promet"},"2032138":{"ref":"68","name":"Ljubljana - Grosuplje - Ivančna Gorica - Šentvid/Stični","type":"route","route":"bus","network":"PPP","operator":"Ljubljanski Potniški Promet"},"2033025":{"ref":"74","name":"Valična vas - Breg pri Zagradcu - Ivančna Gorica ŠC","type":"route","route":"bus","network":"PPP","operator":"Ljubljanski Potniški Promet"},"2033037":{"ref":"75","name":"Brezje - Grosuplje","type":"route","route":"bus","network":"PPP - Urbana","operator":"Ljubljanski Potniški Promet","public_transport":"1"},"2033038":{"ref":"71","name":"Grosuplje - Luče - Grosuplje","type":"route","route":"bus","network":"PPP - Urbana","operator":"Ljubljanski Potniški Promet"},"2033039":{"ref":"72","name":"Grosuplje - Peč - Polica - Truščine - Grosuplje","type":"route","route":"bus","network":"PPP - Urbana","operator":"Ljubljanski Potniški Promet"},"2033040":{"ref":"73","name":"Grosuplje - Sp. Slivnica - Št. Jurij - Škocjan/Turjaku","type":"route","route":"bus","network":"PPP - Urbana","operator":"Ljubljanski Potniški Promet"},"2033076":{"ref":"80","name":"Brezje/Dobrepolju - Kompolje - Hočevje - Ivančna Gorica ŠC","type":"route","route":"bus","network":"PPP","operator":"Ljubljanski Potniški Promet"},"2033894":{"ref":"79","name":"Videm - Turjak - Škofljica - Ljubljana","type":"route","route":"bus","network":"PPP","operator":"Ljubljanski Potniški Promet"},"2034628":{"ref":"7S","name":"Potniški terminal > Kraljeva > Rozmanova > Potniški terminal","type":"route","route":"bus","network":"MPP Koper","operator":"Arriva Dolenjska in Primorska"},"2034629":{"ref":"7","name":"Potniški terminal > Trg Brolo > Kraljeva > Rozmanova > Potniški terminal","type":"route","route":"bus","network":"MPP Koper","operator":"Arriva Dolenjska in Primorska"},"2034637":{"ref":"8S","name":"Potniški terminal > Prisoje > Potniški terminal","type":"route","route":"bus","network":"MPP Koper","operator":"Arriva Dolenjska in Primorska"},"2043859":{"ref":"11A","name":"Predoslje - Planina - Iskra SP - Tov. Planika","type":"route","route":"bus","colour":"#C0C0C0","network":"MPP Kranj","operator":"Alpetour","roundtrip":"no","public_transport:version":"2"},"2044299":{"ref":"Lipica - Podlubnik","name":"Lipica - Podlubnik","type":"route","route":"bus","network":"MPP Škofja Loka / PPP","operator":"Alpetour"},"2044330":{"ref":"15","name":"Kranj Kolodvor - Planina - Primskovo Dolnov - Kranj Kolodvor","type":"route","route":"bus","colour":"#00FFFF","network":"MPP Kranj","operator":"Alpetour","roundtrip":"yes","public_transport:version":"2"},"2080234":{"ref":"76~Bakrc","name":"Ambrus - Bakrc - Ambrus","type":"route","route":"bus","network":"PPP","operator":"Ljubljanski Potniški Promet"},"2082655":{"to":"AP Mlinska","ref":"K1","from":"AP Mlinska","name":"Bus Krožna 1: AP Mlinska ⇒ Ptujska ⇒ Tez. Dobrava obračališče ⇒ Brezje trg. ⇒ AP Mlinska","type":"route","route":"bus","network":"MPP Maribor","operator":"MARPROM","direction":"AP Mlinska","opening_hours":"Mo-Fr 23:00-24:00","public_transport:version":"2"},"2082656":{"to":"AP Mlinska","ref":"K2","from":"AP Mlinska","name":"Bus Krožna 2: AP Mlinska ⇒ Tabor ⇒ Vzpenjača ⇒ Pekre ⇒ Limbuš ⇒ Studenci ⇒ AP Mlinska","type":"route","route":"bus","network":"MPP Maribor","operator":"MARPROM","direction":"AP Mlinska","opening_hours":"Mo-Fr 23:00-24:00","public_transport:version":"2"},"2092781":{"to":"Sv.Peter/Piranu obr.","ref":"Kp. - Sv. Peter","via":"Gažon;Krkavče","from":"Koper","name":"Koper - Gažon - Krkavče - Sv.Peter/Piranu obr.","type":"route","route":"bus","name:it":"Capodistria - Gason - Carcase - San Pietro dell'Amata","network":"PPP","operator":"Avtobusni prevozi Rižana","public_transport:version":"1"},"2093238":{"ref":"Izola - Medoši","name":"Izola - Malija - Korte - Medoši","type":"route","route":"bus","name:it":"Isola - Malio - Corte - Medossi","network":"PPP","operator":"Arriva Dolenjska in Primorska"},"2095385":{"ref":"48~avtocesta","name":"Ljubljana - AC - Vrhnika - Logatec - Kalce - (Grčarevec)","type":"route","route":"bus","network":"PPP","operator":"Ljubljanski Potniški Promet"},"2095422":{"to":"Lazaret meja","ref":"Kp. - Lazaret m.","via":"Ankaran","from":"Koper","name":"Koper - Ankaran - Lazaret meja","type":"route","route":"bus","network":"PPP","operator":"Arriva Dolenjska in Primorska","public_transport:version":"1"},"2096464":{"to":"Elerji","ref":"Kp. - Elerji","via":"Škofije","from":"Koper","name":"Koper - Škofije - Elerji","type":"route","route":"bus","network":"PPP","operator":"Avtobusni prevozi Rižana","public_transport:version":"1"},"2096788":{"to":"Trsek","ref":"Kp. - Marezige - zaledje","via":"Marezige;Labor","from":"Koper","name":"Koper - Marezige - Labor - Trsek","type":"route","route":"bus","network":"PPP","operator":"Avrigo","public_transport:version":"1"},"2100109":{"to":"Podgorje","ref":"Kp. - Podgorje","via":"Osp","from":"Koper","name":"Koper - Osp - Podgorje","type":"route","route":"bus","network":"PPP","operator":"Avtobusni prevozi Rižana","public_transport:version":"1"},"2100110":{"to":"Dvori M - Sočerga","ref":"Kp. - Gračišče - zaledje","via":"Gračišče;Belvedur;Hrvoji;Movraž;Dvori M","from":"Koper","name":"Koper - Gračišče - Belvedur - Hrvoji - Movraž - Dvori M - Sočerga","type":"route","route":"bus","network":"PPP","operator":"Avrigo","public_transport:version":"1"},"2100111":{"to":"Rakitovec","ref":"Kp. - Rakitovec","via":"Podpeč","from":"Koper","name":"Koper - Podpeč - Rakitovec","type":"route","route":"bus","network":"PPP","operator":"Avtobusni prevozi Rižana","public_transport:version":"1"},"2100112":{"to":"Dol","ref":"Kp. - Dol","via":"Hrastovlje","from":"Koper","name":"Koper - Hrastovlje - Dol","type":"route","route":"bus","network":"PPP","operator":"Avtobusni prevozi Rižana","public_transport:version":"1"},"2100568":{"to":"Dvori","ref":"Kp. - Dvori","via":"Bertoki;Dolani","from":"Koper","name":"Koper - Bertoki - Dolani - Dvori","type":"route","route":"bus","network":"PPP","operator":"Avtobusni prevozi Rižana","public_transport:version":"1"},"2153933":{"ref":"Sobočanec 1","name":"Gaj - Avtobusna postaja - BTC - Nemčavci","type":"route","route":"bus","network":"MPP Murska Sobota","operator":"Avtobusni promet Murska Sobota"},"2156513":{"ref":"CPŠ - AP - Rakičan Bol.","name":"Kupšinci - Avtobusna postaja - Rakičan Bolnica","type":"route","route":"bus","network":"MPP Murska Sobota / PPP","operator":"Avtobusni promet Murska Sobota"},"2193333":{"ref":"1","name":"Solkan - Nova Gorica - Šempeter - Vrtojba","type":"route","route":"bus","network":"MPP Nova Gorica","operator":"Avrigo"},"2193334":{"ref":"2","name":"Solkan - Nova Gorica - Šempeter - Vrtojba","type":"route","route":"bus","network":"MPP Nova Gorica","operator":"Avrigo"},"2193345":{"to":"Gorizia CIP","ref":"INT","from":"Nova Gorica","name":"INT : Nova Gorica (SLO) - Gorizia CIP (IT)","type":"route","route":"bus","network":"Mednarodna mestna linija / Linea urbana internazionale","operator":"NOMAGO & APT","public_transport:version":"2"},"2193346":{"ref":"4","name":"Loke - Nova Gorica - Šempeter - Vrtojba","type":"route","route":"bus","network":"MPP Nova Gorica","operator":"Avrigo"},"2193376":{"ref":"N.G. - S.G. pok.","name":"Nova Gorica - Stara Gora pokopališče","type":"route","route":"bus","network":"MPP Nova gorica","operator":"Avrigo"},"2194619":{"ref":"1A","name":"Mali Slatnik - Pokopališče Srebrniče","type":"route","route":"bus","network":"MPP Novo mesto","operator":"Arriva Dolenjska in Primorska"},"2203172":{"to":"Bad Radkersburg Schulzentrum","ref":"600","from":"Mureck Busbahnhof","name":"Bus 600: Mureck Busbahnhof => Bad Radkersburg Schulzentrum","type":"route","route":"bus","alternate":"yes","note:time":"Mo-Fr 07:05 (S)","public_transport:version":"2"},"2230687":{"ref":"1B","name":"Gotna vas - Bršljin","type":"route","route":"bus","network":"MPP Novo mesto","operator":"Arriva Dolenjska in Primorska"},"2230717":{"ref":"4","name":"Mačkovec - Velika Bučna vas","type":"route","route":"bus","network":"MPP Novo mesto","operator":"Arriva Dolenjska in Primorska"},"2230718":{"ref":"2","name":"Sevno - Pokopališče Srebrniče","type":"route","route":"bus","network":"MPP Novo mesto","operator":"Arriva Dolenjska in Primorska"},"2230724":{"ref":"5","name":"Glavni trg - Regrča vas","type":"route","route":"bus","network":"MPP Novo mesto","operator":"Arriva Dolenjska in Primorska"},"2326827":{"name":"Maribor-Kidričevo","type":"route","route":"bus","operator":"Veolia Transport Štajerska"},"2379952":{"ref":"61","name":"Vodice - Polje - Vodice","type":"route","route":"bus","colour":"#f9a64a","network":"MPP Ljubljana - Urbana","operator":"Ljubljanski Potniški Promet"},"2512141":{"name":"Solkan - Žogica","type":"route","route":"bus","operator":"Avrigo d.d."},"2660842":{"to":"Mettersdorf am Saßbach Ort","ref":"500","from":"Mureck Busbahnhof","name":"Bus 500: Mureck Busbahnhof => Mettersdorf am Saßbach Ort","type":"route","route":"bus","alternate":"yes","note:time":"Mo-Fr 16:35 (S)","public_transport:version":"2"},"2660843":{"to":"Ungerdorf bei Jagerberg","ref":"500","from":"Mureck Busbahnhof","name":"Bus 500: Mureck Busbahnhof => Ungerdorf bei Jagerberg","type":"route","route":"bus","alternate":"yes","note:time":"Mo-Fr 17:30 (S)","public_transport:version":"2"},"2660844":{"to":"Weinburg am Saßbach Abzweigung","ref":"500","from":"Mureck Busbahnhof","name":"Bus 500: Mureck Busbahnhof => Weinburg am Saßbach Abzweigung","type":"route","route":"bus","alternate":"yes","note:time":"Mo-Fr 11:50 (S)","public_transport:version":"2"},"2660845":{"to":"Kirchbach Postamt","ref":"500","from":"Mureck Schule","name":"Bus 500: Mureck Schule => Kirchbach Postamt","type":"route","route":"bus","alternate":"yes","note:time":"Mo-Fr 13:50 (S)","public_transport:version":"2"},"2660846":{"to":"Mettersdorf am Saßbach Ort","ref":"500","from":"Mureck Schule","name":"Bus 500: Mureck Schule => Mettersburg am Saßbach Ort","type":"route","route":"bus","alternate":"yes","note:time":"Mo-Fr 12:45 (S)","public_transport:version":"2"},"2867724":{"ref":"Želimlje - Kompolje","name":"Kompolje/Dobrepolju - Velike Lašče - Turjak - Pijava Gorica - Želimlje","type":"route","route":"bus","network":"PPP","operator":"Ljubljanski Potniški Promet"},"3091793":{"to":"Bad Radkersburg Busbahnhof","ref":"600","from":"Mureck Busbahnhof","name":"Bus 600: Mureck Busbahnhof => Bad Radkersburg Busbahnhof (not via Helfbrunn Ort)","note":"not via Helfbrunn Ort","type":"route","route":"bus","alternate":"yes","note:time":"Mo-Fr 15:50 (S)","public_transport:version":"2"},"3091794":{"to":"Bad Radkersburg Busbahnhof","ref":"600","from":"Mureck Busbahnhof","name":"Bus 600: Mureck Busbahnhof => Bad Radkersburg Busbahnhof","type":"route","route":"bus","alternate":"yes","note:time":"Mo-Fr 08:10, 12:50 (S)","public_transport:version":"2"},"3091861":{"to":"Graz Andreas-Hofer-Platz/Joanneumsviertel","ref":"600","from":"Bad Radkersburg Busbahnhof","name":"Bus 600: Bad Radkersburg Busbahnhof => Graz Andreas-Hofer-Platz/Joanneumsviertel","type":"route","route":"bus","alternate":"no","note:time":"Mo-Fr 11:05","public_transport:version":"2"},"3095287":{"to":"Graz Griesplatz","ref":"600","from":"Bad Radkersburg Busbahnhof","name":"Bus 600: Bad Radkersburg Busbahnhof => Graz Griesplatz (via Bad Radkersburg Therme)","note":"via Bad Radkersburg Therme","type":"route","route":"bus","alternate":"yes","note:time":"Mo-Fr 17:05 (F)","public_transport:version":"2"},"3095288":{"to":"Graz Hauptbahnhof","ref":"600","from":"Bad Radkersburg Busbahnhof","name":"Bus 600: Bad Radkersburg Busbahnhof => Graz Griesplatz (via Bad Radkersburg Volksschule)","note":"via Bad Radkersburg Volksschule","type":"route","route":"bus","alternate":"yes","note:time":"Mo-Fr 12:40 (S)","public_transport:version":"2"},"3095289":{"to":"Graz Hauptbahnhof","ref":"600","from":"Bad Radkersburg Busbahnhof","name":"Bus 600: Bad Radkersburg Busbahnhof => Graz Griesplatz","type":"route","route":"bus","alternate":"yes","note:time":"Mo-Fr 13:35 (S)","public_transport:version":"2"},"3095291":{"to":"Leibnitz Postamt","ref":"600","from":"Bad Radkersburg Busbahnhof","name":"Bus 600: Bad Radkersburg Busbahnhof => Leibnitz Postamt (via Leibnitz Gymnasium)","note":"via Leibnitz Gymnasium","type":"route","route":"bus","alternate":"yes","note:time":"Mo-Fr 06:15 (S)","public_transport:version":"2"},"3095292":{"to":"Leibnitz Postamt","ref":"600","from":"Bad Radkersburg Busbahnhof","name":"Bus 600: Bad Radkersburg Busbahnhof => Leibnitz Postamt","type":"route","route":"bus","alternate":"yes","note:time":"Mo-Fr 06:55 (S)","public_transport:version":"2"},"3095293":{"to":"Mureck Busbahnhof","ref":"600","from":"Bad Radkersburg Busbahnhof","name":"Bus 600: Bad Radkersburg Busbahnhof => Mureck Busbahnhof (via Bad Radkersburg Schulzentrum)","note":"via Bad Radkersburg Schulzentrum","type":"route","route":"bus","alternate":"yes","note:time":"Mo-Fr 14:45 (S)","public_transport:version":"2"},"3095294":{"to":"Mureck Busbahnhof","ref":"600","from":"Bad Radkersburg Busbahnhof","name":"Bus 600: Bad Radkersburg Busbahnhof => Mureck Busbahnhof (via Bad Radkersburg Therme)","note":"via Bad Radkersburg Therme","type":"route","route":"bus","alternate":"yes","note:time":"Mo-Fr 15:45 (S)","public_transport:version":"2"},"3095295":{"to":"Mureck Busbahnhof","ref":"600","from":"Bad Radkersburg Busbahnhof","name":"Bus 600: Bad Radkersburg Busbahnhof => Mureck Busbahnhof (via Gosdorf Kollerkreuz)","note":"via Gosdorf Kollerkreuz","type":"route","route":"bus","alternate":"yes","note:time":"Mo-Fr 06:40","public_transport:version":"2"},"3095296":{"to":"Mureck Busbahnhof","ref":"600","from":"Bad Radkersburg Busbahnhof","name":"Bus 600: Bad Radkersburg Busbahnhof => Mureck Busbahnhof","type":"route","route":"bus","alternate":"yes","note:time":"Mo-Fr 09:45 (S)","public_transport:version":"2"},"3095297":{"to":"Straß Kaserne","ref":"600","from":"Bad Radkersburg Busbahnhof","name":"Bus 600: Bad Radkersburg Busbahnhof => Straß Kaserne (via Bad Radkersburg Therme)","note":"via Bad Radkersburg Therme","type":"route","route":"bus","alternate":"yes","note:time":"Mo-Fr 17:10 (S)","public_transport:version":"2"},"3095298":{"to":"Straß Kaserne","ref":"600","from":"Bad Radkersburg Busbahnhof","name":"Bus 600: Bad Radkersburg Busbahnhof => Straß Kaserne (via Bad Radkersburg Volksschule)","note":"via Bad Radkersburg Volksschule","type":"route","route":"bus","alternate":"yes","note:time":"Mo-Fr 11:50 (S)","public_transport:version":"2"},"3095299":{"to":"Donnersdorf Ort","ref":"600","from":"Bad Radkersburg Schulzentrum","name":"Bus 600: Bad Radkersburg Schulzentrum => Donnersdorf Ort","type":"route","route":"bus","alternate":"yes","note:time":"Mo-Fr 13:30","public_transport:version":"2"},"3095303":{"to":"Graz Don Bosco Bahnhof","ref":"600","from":"Mureck Busbahnhof","name":"Bus 600: Mureck Busbahnhof => Graz Don Bosco Bahnhof","type":"route","route":"bus","alternate":"yes","note:time":"Mo-Fr 07:14","public_transport:version":"2"},"3095304":{"to":"Graz Griesplatz","ref":"600","from":"Mureck Busbahnhof","name":"Bus 600: Mureck Busbahnhof => Graz Griesplatz","type":"route","route":"bus","alternate":"yes","note:time":"Mo-Fr 14:25 (F), 16:30 (S)","public_transport:version":"2"},"3095305":{"to":"Leibnitz Postamt","ref":"600","from":"Mureck Busbahnhof","name":"Bus 600: Mureck Busbahnhof => Leibnitz Postamt","type":"route","route":"bus","alternate":"yes","note:time":"Mo-Fr 14:50 (S)","public_transport:version":"2"},"3095306":{"to":"Straß Kaserne","ref":"600","from":"Mureck Busbahnhof","name":"Bus 600: Mureck Busbahnhof => Straß Kaserne","type":"route","route":"bus","alternate":"yes","note:time":"Mo-Fr 17:10 (S)","public_transport:version":"2"},"3170231":{"ref":"83","name":"Škofljica - Pijava Gorica - Smrjene - Gradišče - Vrh nad Želimljami - Škofljica","type":"route","route":"bus","network":"PPP - Urbana","operator":"Ljubljanski Potniški Promet"},"3170248":{"ref":"84","name":"Škofljica - Drenik - Gorenje Blato - Gumnišče - Škofljica","type":"route","route":"bus","network":"PPP - Urbana","operator":"Ljubljanski Potniški Promet"},"3170249":{"ref":"85","name":"Škofljica - Gumnišče - Gornje Blato - Drenik - Smrjene - Gradišče - Vrh nad Želimljami - Škofljica","type":"route","route":"bus","network":"PPP - Urbana","operator":"Ljubljanski Potniški Pormet"},"3170264":{"ref":"86","name":"Orle - Lavrica - Škofljica","type":"route","route":"bus","operator":"Ljubljanski Potniški Promet"},"3172017":{"ref":"76","name":"Grosuplje - Čušperk - Ilova Gora - Prilesje","type":"route","route":"bus","network":"PPP - Urbana","operator":"Ljubljanski Potniški Promet"},"3172262":{"ref":"74","name":"Grosuplje - Spodnje Blato - Spodnje Duplice - Grosuplje","type":"route","route":"bus","network":"PPP - Urbana","operator":"Ljubljanski Potniški Promet"},"3234731":{"ref":"77","name":"Ambrus - Krka - Ivančna Gorica ŠC","type":"route","route":"bus","network":"PPP","operator":"Ljubljanski Potniški Promet"},"3372491":{"ref":"-","name":"Dragomer-Plešivica-Bevke-Blatna Brezovica-Vrhnika voljčeva","type":"route","route":"bus","network":"PPP","operator":"Ljubljanski potniški promet"},"3372492":{"ref":"-","name":"Dragomer-Plešivica-Bevke-Blatna Brezovica-Vrhnika voljčeva","type":"route","route":"bus","network":"PPP","operator":"Ljubljanski potniški promet"},"3381361":{"to":"Tarcento","from":"Uccea","name":"Uccea - Tarcento","type":"route","route":"bus","network":"C03 Tarcentino","ref:SAF":"260","operator":"TPL FVG","old_operator":"SAF","not:network:wikidata":"Q3601116","public_transport:version":"2"},"3425419":{"to":"Pichla bei Mureck Ort","ref":"500","from":"Mureck Schule","name":"Bus 500: Mureck Schule => Pichla bei Mureck Ort","type":"route","route":"bus","alternate":"yes","note:time":"Mo-Fr 13:25 (S)","public_transport:version":"2"},"3519264":{"to":"Arnfels Postamt","ref":"605","from":"Langegg","name":"Bus 605: Langegg -> Arnfels","type":"route","route":"bus","network":"Verkehrsverbund Steiermark","operator":"ÖBB-Postbus","network:short":"VVSt","network:wikidata":"Q2341954","network:wikipedia":"de:Steirischer Verkehrsverbund","public_transport:version":"2"},"3556789":{"to":"AP Mlinska","ref":"16","from":"Zg. Duplek Obračališče","name":"Bus 16: Zgornji Duplek ⇒ AP Mlinska","type":"route","route":"bus","colour":"#DCAC66","network":"MPP Maribor","operator":"MARPROM","direction":"AP Mlinska","public_transport:version":"2"},"3567056":{"to":"AP Mlinska","ref":"8","from":"Terme Fontana","name":"Bus 8: Terme Fontana ⇒ AP Mlinska","type":"route","route":"bus","colour":"#AB289C","network":"MPP Maribor","operator":"MARPROM","opening_hours":"Sa 07:00-13:00; SH off","public_transport:version":"2"},"3580679":{"to":"AP Mlinska","ref":"10","from":"Metava","name":"Bus 10: Metava ⇒ AP Mlinska","type":"route","route":"bus","colour":"#102693","network":"MPP Maribor","operator":"MARPROM","direction":"AP Mlinska","public_transport:version":"2"},"3715693":{"to":"Bresternica","ref":"15","from":"Košaški dol","name":"Bus 15: Košaški dol ⇒ Bresternica","type":"route","route":"bus","colour":"#FF6634","network":"MPP Maribor","operator":"MARPROM","direction":"Bresternica","public_transport:version":"2"},"3717674":{"to":"AP Mlinska","ref":"19","from":"Šarhova obračališče","name":"Bus 19: Šarhova ⇒ AP Mlinska","type":"route","route":"bus","colour":"#CC5129","network":"MPP Maribor","operator":"MARPROM","direction":"AP Mlinska","public_transport:version":"2"},"3717737":{"to":"Tezenska Dobrava","ref":"1","from":"Melje","name":"Bus 1: Melje ⇒ Tezenska Dobrava","type":"route","route":"bus","network":"MPP Maribor","operator":"MARPROM","direction":"Tezenska Dobrava","public_transport:version":"2"},"3717738":{"to":"AP Mlinska","ref":"1","from":"Tezenska Dobrava","name":"Bus 1: Tezenska Dobrava ⇒ AP Mlinska","type":"route","route":"bus","network":"MPP Maribor","operator":"MARPROM","direction":"AP Mlinska","public_transport:version":"2"},"3717739":{"to":"Melje","ref":"1","from":"Tezenska Dobrava","name":"Bus 1: Tezenska Dobrava ⇒ Melje","type":"route","route":"bus","network":"MPP Maribor","operator":"MARPROM","direction":"Melje","public_transport:version":"2"},"3717803":{"to":"Vzpenjača","ref":"6","from":"Melje","name":"Bus 6: Melje ⇒ AP Mlinska ⇒ Vzpenjača","type":"route","route":"bus","colour":"#FF00FE","network":"MPP Maribor","operator":"MARPROM","direction":"Vzpenjača","public_transport:version":"2"},"3717804":{"to":"AP Mlinska","ref":"6","from":"Vzpenjača","name":"Bus 6: Vzpenjača ⇒ AP Mlinska","type":"route","route":"bus","colour":"#FF00FE","network":"MPP Maribor","operator":"MARPROM","direction":"AP Mlinska","public_transport:version":"2"},"3717805":{"to":"Melje","ref":"6","from":"Vzpenjača","name":"Bus 6: Vzpenjača ⇒ Melje","type":"route","route":"bus","colour":"#FF00FE","network":"MPP Maribor","operator":"MARPROM","direction":"Melje","public_transport:version":"2"},"3717961":{"to":"Brezje","ref":"9","from":"AP Mlinska","name":"Bus 9: AP Mlinska ⇒ Brezje","type":"route","route":"bus","colour":"#00FF01","network":"MPP Maribor","operator":"MARPROM","direction":"Brezje","public_transport:version":"2"},"3717962":{"to":"AP Mlinska","ref":"9","from":"Dupleška cesta 255","name":"Bus 9: Dupleška cesta 255 ⇒ AP Mlinska","type":"route","route":"bus","colour":"#00FF01","network":"MPP Maribor","operator":"MARPROM","direction":"AP Mlinska","public_transport:version":"2"},"3717963":{"to":"AP Mlinska","ref":"9","from":"Brezje","name":"Bus 9: Brezje ⇒ AP Mlinska","type":"route","route":"bus","colour":"#00FF01","network":"MPP Maribor","operator":"MARPROM","direction":"AP Mlinska","public_transport:version":"2"},"3718166":{"to":"Studenci","ref":"17","from":"AP Mlinska","name":"Bus 17: AP Mlinska ⇒ Studenci","type":"route","route":"bus","colour":"#333333","network":"MPP Maribor","operator":"MARPROM","direction":"Studenci","public_transport:version":"2"},"3718167":{"to":"Studenci","ref":"17","from":"Ribniško selo","name":"Bus 17: Ribniško selo ⇒ Studenci","type":"route","route":"bus","colour":"#333333","network":"MPP Maribor","operator":"MARPROM","direction":"Studenci","public_transport:version":"2"},"3718168":{"to":"AP Mlinska","ref":"17","from":"Studenci - obračališče","name":"Bus 17: Studenci ⇒ AP Mlinska","type":"route","route":"bus","colour":"#333333","network":"MPP Maribor","operator":"MARPROM","direction":"AP Mlinska","public_transport:version":"2"},"3718563":{"to":"Pekre samopostrežna","ref":"18","from":"Gosposvetska - STŠ","name":"Bus 18: Gosposvetska - STŠ ⇒ Pekre samopostrežna","type":"route","route":"bus","colour":"#FFCB05","network":"MPP Maribor","operator":"MARPROM","direction":"Pekre samopostrežna","public_transport:version":"2"},"3718564":{"to":"Gosposvetska - STŠ","ref":"18","from":"Pekre samopostrežna","name":"Bus 18: Pekre samopostrežna ⇒ Gosposvetska - STŠ","type":"route","route":"bus","colour":"#FFCB05","network":"MPP Maribor","operator":"MARPROM","direction":"AP Mlinska","public_transport:version":"2"},"3720810":{"to":"Kamnica - pošta","ref":"7","from":"AP Mlinska","name":"Bus 7: AP Mlinska ⇒ Kamnica - pošta","type":"route","route":"bus","colour":"#FFFF01","network":"MPP Maribor","operator":"MARPROM","direction":"Kamnica - pošta","public_transport:version":"2"},"3720811":{"to":"AP Mlinska","ref":"7","from":"Kamnica - pošta","name":"Bus 7: Kamnica - pošta ⇒ AP Mlinska","type":"route","route":"bus","colour":"#FFFF01","network":"MPP Maribor","operator":"MARPROM","direction":"AP Mlinska","public_transport:version":"2"},"3720812":{"to":"Morski jarek - Rošpoh","ref":"7","from":"Melje","name":"Bus 7: Melje ⇒ AP Mlinska ⇒ Morski jarek - Rošpoh","type":"route","route":"bus","colour":"#FFFF01","network":"MPP Maribor","operator":"MARPROM","direction":"Morski jarek - Rošpoh","public_transport:version":"2"},"3720813":{"to":"AP Mlinska","ref":"7","from":"Rošpoh","name":"Bus 7: Rošpoh ⇒ AP Mlinska","type":"route","route":"bus","colour":"#FFFF01","network":"MPP Maribor","operator":"MARPROM","direction":"AP Mlinska","public_transport:version":"2"},"3720814":{"to":"Melje","ref":"7","from":"Morski jarek - Rošpoh","name":"Bus 7: Morski jarek - Rošpoh ⇒ Melje","type":"route","route":"bus","colour":"#FFFF01","network":"MPP Maribor","operator":"MARPROM","direction":"Melje","public_transport:version":"2"},"3723412":{"to":"Kardeljeva - Borštnikova","ref":"2","from":"AP Mlinska","name":"Bus 2: AP Mlinska ⇒ Kardeljeva - Borštnikova","type":"route","route":"bus","colour":"#3D985B","network":"MPP Maribor","operator":"MARPROM","direction":"Kardeljeva - Borštnikova","public_transport:version":"2"},"3723413":{"to":"AP Mlinska","ref":"2","from":"Kardeljeva - Borštnikova","name":"Bus 2: Kardeljeva - Borštnikova ⇒ AP Mlinska","type":"route","route":"bus","colour":"#3D985B","network":"MPP Maribor","operator":"MARPROM","direction":"AP Mlinska","public_transport:version":"2"},"3723414":{"to":"Melje","ref":"2","from":"Kardeljeva - Borštnikova","name":"Bus 2: Kardeljeva - Borštnikova ⇒ Melje","type":"route","route":"bus","colour":"#3D985B","network":"MPP Maribor","operator":"MARPROM","direction":"Melje","public_transport:version":"2"},"3723415":{"to":"Kardeljeva - Borštnikova","ref":"2","from":"Melje","name":"Bus 2: Melje ⇒ AP Mlinska ⇒ Kardeljeva - Borštnikova","type":"route","route":"bus","colour":"#3D985B","network":"MPP Maribor","operator":"MARPROM","direction":"Kardeljeva - Borštnikova","public_transport:version":"2"},"3723416":{"to":"Razvanje","ref":"2","from":"Melje","name":"Bus 2: Melje ⇒ AP Mlinska ⇒ Razvanje","type":"route","route":"bus","colour":"#3D985B","network":"MPP Maribor","operator":"MARPROM","direction":"Razvanje","public_transport:version":"2"},"3723417":{"to":"AP Mlinska","ref":"2","from":"Razvanje","name":"Bus 2: Razvanje ⇒ AP Mlinska","type":"route","route":"bus","colour":"#3D985B","network":"MPP Maribor","operator":"MARPROM","direction":"AP Mlinska","public_transport:version":"2"},"3723418":{"to":"Melje","ref":"2","from":"Razvanje","name":"Bus 2: Razvanje ⇒ Melje","type":"route","route":"bus","colour":"#3D985B","network":"MPP Maribor","operator":"MARPROM","direction":"Melje","public_transport:version":"2"},"3723723":{"to":"Ljubljanska 140","ref":"21","from":"AP Mlinska","name":"Bus 21: AP Mlinska ⇒ Ljubljanska 140","type":"route","route":"bus","colour":"#FF9730","network":"MPP Maribor","operator":"MARPROM","direction":"Ljubljanska 140","public_transport:version":"2"},"3723724":{"to":"AP Mlinska","ref":"21","from":"E'Leclerc - obračališče","name":"Bus 21: Merkur ⇒ AP Mlinska","type":"route","route":"bus","colour":"#FF9730","network":"MPP Maribor","operator":"MARPROM","direction":"AP Mlinska","public_transport:version":"2"},"3723725":{"to":"AP Mlinska","ref":"21","from":"Ljubljanska 140","name":"Bus 21: Ljubljanska 140 ⇒ AP Mlinska","type":"route","route":"bus","colour":"#FF9730","network":"MPP Maribor","operator":"MARPROM","direction":"AP Mlinska","public_transport:version":"2"},"3723726":{"to":"Melje","ref":"21","from":"Ljubljanska 140","name":"Bus 21: Ljubljanska 140 ⇒ Melje","type":"route","route":"bus","colour":"#FF9730","network":"MPP Maribor","operator":"MARPROM","direction":"Melje","public_transport:version":"2"},"3723727":{"to":"Ljubljanska 140","ref":"21","from":"Melje","name":"Bus 21: Melje ⇒ AP Mlinska ⇒ Ljubljanska 140","type":"route","route":"bus","colour":"#FF9730","network":"MPP Maribor","operator":"MARPROM","direction":"Ljubljanska 140","public_transport:version":"2"},"3724226":{"to":"AP Mlinska","ref":"151","from":"Gaj nad Mariborom","name":"Bus 151: Gaj nad Mariborom ⇒ Bresternica ⇒ AP Mlinska","type":"route","route":"bus","colour":"#6599FF","network":"MPP Maribor","operator":"MARPROM","direction":"AP Mlinska","public_transport:version":"2"},"3726090":{"to":"TC QLandia","ref":"4","via":"Lesarska šola","from":"AP Mlinska","name":"Bus 4: AP Mlinska ⇒ Lesarska šola ⇒ TC QLandia","type":"route","route":"bus","colour":"#01FFFF","network":"MPP Maribor","operator":"MARPROM","direction":"TC QLandia","public_transport:version":"2"},"3726093":{"to":"TC QLandia","ref":"4","from":"AP Mlinska","name":"Bus 4: AP Mlinska ⇒ TC QLandia","type":"route","route":"bus","colour":"#01FFFF","network":"MPP Maribor","operator":"MARPROM","direction":"TC QLandia","public_transport:version":"2"},"3726096":{"to":"AP Mlinska","ref":"4","via":"Marles","from":"TC QLandia","name":"Bus 4: TC QLandia ⇒ AP Mlinska","type":"route","route":"bus","colour":"#01FFFF","network":"MPP Maribor","operator":"MARPROM","direction":"AP Mlinska","public_transport:version":"2"},"3726097":{"to":"AP Mlinska","ref":"4","via":"Lesarska šola","from":"TC QLandia","name":"Bus 4: TC QLandia ⇒ Lesarska šola ⇒ AP Mlinska","type":"route","route":"bus","colour":"#01FFFF","network":"MPP Maribor","operator":"MARPROM","direction":"AP Mlinska","public_transport:version":"2"},"3726198":{"to":"Belokranjska ulica","ref":"13","from":"AP Mlinska","name":"Bus 13: AP Mlinska ⇒ Belokranjska ulica","type":"route","route":"bus","colour":"#9A00FF","network":"MPP Maribor","operator":"MARPROM","direction":"Belokranjska ulica","public_transport:version":"2"},"3726199":{"to":"AP Mlinska","ref":"13","from":"Belokranjska ulica","name":"Bus 13: Belokranjska ulica ⇒ AP Mlinska","type":"route","route":"bus","colour":"#9A00FF","network":"MPP Maribor","operator":"MARPROM","direction":"AP Mlinska","public_transport:version":"2"},"3726200":{"to":"AP Mlinska","ref":"13","from":"Poštni center - Tezno","name":"Bus 13: Poštni center - Tezno ⇒ AP Mlinska","type":"route","route":"bus","colour":"#9A00FF","network":"MPP Maribor","operator":"MARPROM","direction":"AP Mlinska","public_transport:version":"2"},"3798639":{"to":"Melje","ref":"20","via":"Metava","from":"Grušova","name":"Bus 20: Grušova ⇒ (Metava ⇒ ) Trčova - Griček ⇒ Greenwich ⇒ Melje","type":"route","route":"bus","colour":"#9B3F3F","network":"MPP Maribor","operator":"MARPROM","direction":"Melje","opening_hours":"Sa 04:45, 06:00, 09:15, 11:30, 18:50, 20:50; via Metava: Sa 07:15","public_transport:version":"2"},"3798641":{"to":"Grušova","ref":"20","via":"Trčova - Griček","from":"Melje","name":"Bus 20: Melje ⇒ Oreško nabrežje ⇒ Trčova - Griček ⇒ (Metava ⇒ ) Grušova","type":"route","route":"bus","colour":"#9B3F3F","network":"MPP Maribor","operator":"MARPROM","direction":"Grušova","opening_hours":"Mo-Fr 06:14, 09:14, 10:14, 11:14, 12:14, 14:14, 17:14, 18:14, 19:14; via Metava: Mo-Fr 22:05","public_transport:version":"2"},"3798643":{"to":"Grušova","ref":"20","from":"Melje","name":"Bus 20: Melje ⇒ Oreško nabrežje ⇒ Grušova","type":"route","route":"bus","colour":"#9B3F3F","network":"MPP Maribor","operator":"MARPROM","direction":"Grušova","opening_hours":"Mo-Fr 05:11, 07:14, 08:14, 13:14, 15:14, 16:14","public_transport:version":"2"},"3860934":{"to":"Melje","ref":"6","via":"AP Mlinska","from":"Vzpenjača","name":"Bus 6: Vzpenjača ⇒ AP Mlinska ⇒ Melje","type":"route","route":"bus","colour":"#FF00FE","network":"MPP Maribor","operator":"MARPROM","direction":"Melje","public_transport:version":"2"},"4053970":{"to":"Grušova","ref":"20","via":"Zrkovci, Metava","from":"Melje","name":"Bus 20: Melje ⇒ Zrkovci ⇒ Trčova - Griček ⇒ (Metava ⇒ ) Grušova","type":"route","route":"bus","colour":"#9B3F3F","network":"MPP Maribor","operator":"MARPROM","direction":"Grušova","public_transport:version":"2"},"4056876":{"to":"Log obračališče","ref":"PR A22 0522 1","from":"Ruše Šola","name":"Ruše šola => Log obračališče","note":"Stop Ruše after Ruše Šola is missing","type":"route","fixme":"Find location of stop Ruše","route":"bus","operator":"Arriva Štajerska","direction":"Log obračališče"},"4057144":{"to":"Smolnik obračališče","ref":"PR A22 0620 20","from":"Maribor AP","name":"Maribor => Smolnik obračališče","type":"route","route":"bus","operator":"Arriva Štajerska","direction":"Smolnik obračališče"},"4057161":{"to":"Lovrenc na Pohorju","ref":"PR A22 0620 20","from":"Maribor AP","name":"Maribor => Smolnik obračališče => Činžat => Lovrenc na Pohorju","type":"route","route":"bus","operator":"Arriva Štajerska","direction":"Lovrenc na Pohorju"},"4195534":{"ref":"Sobočanec 2","name":"Rakičan - Avtobusna postaja - Maximus - Černelavci","type":"route","route":"bus","network":"MPP Murska Sobota","operator":"Avtobusni promet Murska Sobota"},"5820833":{"to":"Avtobusna postaja Ptuj","ref":"Mestno jedro","from":"Avtobusna postaja Ptuj","name":"Mestno jedro","type":"route","route":"bus","network":"Arriva","operator":"Arriva","wheelchair":"yes","network:wikidata":"Q680991","public_transport:version":"2"},"6014967":{"to":"Feldbach Bahnhof","ref":"413","via":"Sankt Stefan im Rosental Schulen","from":"Mureck Busbahnhof","name":"Bus 413: Mureck Busbahnhof => Feldbach Bahnhof (via Sankt Stefan im Rosental Schulen)","type":"route","route":"bus","state":"alternate","network":"Verkehrsverbund Steiermark","network:short":"VVSt","opening_hours":"Mo-Fr 06:28, SH off","network:wikidata":"Q2341954","network:wikipedia":"de:Steirischer Verkehrsverbund","public_transport:version":"2"},"6018293":{"to":"Feldbach Bahnhof","ref":"416","via":"Bad Radkersburg Schulzentrum","from":"Bad Radkersburg Busbahnhof","name":"Bus 416: Bad Radkersburg Busbahnhof => Feldbach Bahnhof (via Bad Radkersburg Schulzentrum)","type":"route","route":"bus","state":"alternate","network":"Verkehrsverbund Steiermark","network:short":"VVSt","opening_hours":"Mo-Fr 17:05, SH off","network:wikidata":"Q2341954","network:wikipedia":"de:Steirischer Verkehrsverbund","public_transport:version":"2"},"6125196":{"to":"Tarvisio Autostaziione","ref":"203","from":"Valico di Fusine","name":"SAF Linea 203 : Valico di Fusine => Tarvisio","type":"route","route":"bus","network":"Arriva Udine","operator":"TPL FVG","old_operator":"SAF","network:wikidata":"Q3943391","network:wikipedia":"it:SAF (Udine)","public_transport:version":"2"},"6125211":{"to":"Tarvisio Autostazione","ref":"203","via":"Lago Superiore di Fusine","from":"Valico di Fusine","name":"SAF Linea 203 : Valico di Fusine => Lago Superiore di Fusine => Tarvisio","type":"route","route":"bus","network":"Arriva Udine","operator":"TPL FVG","old_operator":"SAF","network:wikidata":"Q3943391","network:wikipedia":"it:SAF (Udine)","public_transport:version":"2"},"6327772":{"to":"Ajdovščina","from":"Sežana","name":"Sežana - Ajdovščina","type":"route","route":"bus","operator":"Avrigo","public_transport:version":"2"},"6374535":{"to":"Sant'Andrea","ref":"1","from":"Montesanto","name":"Bus 1: Montesanto → Sant'Andrea","type":"route","route":"bus","network":"APT","operator":"TPL FVG","network:wikidata":"Q3601116","public_transport:version":"2"},"6377718":{"to":"Mossa","ref":"2","from":"Posta Centrale","name":"CIRCOLARE ROSSA ESTERNA : Posta Centrale - Mossa","type":"route","route":"bus","network":"APT","operator":"TPL FVG","network:wikidata":"Q3601116","public_transport:version":"2"},"6377897":{"to":"C.so Verdi, 12 (Posta Centrale)","ref":"3","from":"C.so Verdi, 12 (Posta Centrale)","name":"CIRCOLARE ROSSA INTERNA : Posta Centrale - Straccis - Ospedale - Posta Centrale","type":"route","route":"bus","network":"APT","operator":"TPL FVG","network:wikidata":"Q3601116","public_transport:version":"2"},"6383820":{"to":"Posta Centrale","ref":"5","from":"Posta Centrale","name":"Linea 5 : CIRCOLARE NERA INTERNA : Posta Centrale - Ospedale - Straccis - Posta Centrale","type":"route","route":"bus","network":"APT","operator":"TPL FVG","network:wikidata":"Q3601116","public_transport:version":"2"},"6384604":{"to":"Zona Industriale","ref":"6","from":"Posta Centrale","name":"Posta Centrale - Ospedale - Sant'Anna - Zona Industriale","type":"route","route":"bus","network":"APT","operator":"TPL FVG","network:wikidata":"Q3601116","public_transport:version":"1"},"6384605":{"to":"Posta Centrale","ref":"6","from":"Zona Industriale","name":"Zona Industriale - Cimitero - Sant'Anna - Ospedale - Posta Centrale","type":"route","route":"bus","network":"APT","operator":"TPL FVG","network:wikidata":"Q3601116","public_transport:version":"1"},"6385193":{"to":"Zona Industriale","ref":"6","from":"Posta Centrale","name":"Posta Centrale - Ospedale - Sant'Anna - Zona Industriale","type":"route","route":"bus","network":"APT","operator":"TPL FVG","network:wikidata":"Q3601116","public_transport:version":"1"},"6572547":{"ref":"23","name":"Kamna Gorica - Podutik","type":"route","route":"bus","network":"MPP Ljubljana - Urbana","operator":"Ljubljanski Potniški Promet"},"6594296":{"ref":"3","name":"Podbreznik - Sevno","type":"route","route":"bus"},"6698809":{"to":"Nova Gorica","via":"Sežana","from":"Piran","name":"Piran - Sežana - Nova Gorica","note":"Incomplete and partly unorderd","type":"route","route":"bus","operator":"Avrigo d.o.o.","public_transport:version":"2"},"6815900":{"to":"Mestna hiša","fee":"yes","ref":"Urban","via":"Ljubljanski grad","from":"Mestna hiša","name":"Urban","type":"route","route":"bus","charge":"10 EUR","tourism":"yes","website":"https://www.lpp.si/urban","duration":"01:30:00","operator":"Ljubljanski Potniški Promet","roundtrip":"yes","payment:cash":"yes","payment:urbana":"yes","payment:credit_cards":"yes","public_transport:version":"2"},"7211763":{"ref":"5","name":"Kranj Globus - Primskovo - Britof - Kokrica - Kranj Globus","type":"route","route":"bus","colour":"#000000","network":"MPP Kranj","operator":"Alpetour","roundtrip":"yes","public_transport:version":"2"},"7212610":{"ref":"6","name":"Kranj Globus - Kokrica - Britof - Primskovo - Kranj Globus","type":"route","route":"bus","colour":"#008000","network":"MPP Kranj","operator":"Alpetour","roundtrip":"yes","public_transport:version":"2"},"7212698":{"ref":"1","name":"Kranj Kolodvor - Kranj Globus - Primskovo - Planina - Hrastje","type":"route","route":"bus","colour":"#0000FF","network":"MPP Kranj","operator":"Alpetour","roundtrip":"no","public_transport:version":"2"},"7212808":{"ref":"2","name":"Plinarna - Zg. Bitnje - Kranj AP","type":"route","route":"bus","network":"MPP Kranj","operator":"Alpetour","public_transport:version":"2"},"7212850":{"ref":"2","name":"Kranj Globus - Primskovo - Planina - Stražišče - Kranj Globus","type":"route","route":"bus","colour":"#FFFF00","network":"MPP Kranj","operator":"Alpetour","roundtrip":"yes","public_transport:version":"2"},"7212918":{"ref":"3","name":"Kranj AP - Stražišče - Planina - Primskovo - Kranj AP","type":"route","route":"bus","colour":"#800080","network":"MPP Kranj","operator":"Alpetour","roundtrip":"yes","public_transport:version":"2"},"7212994":{"ref":"11B","name":"Kranj AP - Iskra SP - Tov. Planika","type":"route","route":"bus","colour":"#4169E1","network":"MPP Kranj","operator":"Alpetour","public_transport:version":"2"},"7213204":{"ref":"12","name":"Kranj AP - Stražišče - Besnica","type":"route","route":"bus","colour":"#000080","network":"MPP Kranj","operator":"Alpetour","roundtrip":"no","public_transport:version":"2"},"7213395":{"ref":"8","name":"Kranj AP - Drulovka - Breg - Mavčiče - Podreča","type":"route","route":"bus","colour":"#D2B48C","network":"MPP Kranj","operator":"Alpetour","roundtrip":"no","public_transport:version":"2"},"7213535":{"ref":"7","name":"Kranj Globus - Kokrica - Bobovek - Mlaka - Kranj Globus","type":"route","route":"bus","colour":"#FFA500","network":"MPP Kranj","operator":"Alpetour","roundtrip":"yes","public_transport:version":"2"},"7213622":{"ref":"14","name":"Kranj Globus - Svarje - Povlje - Tatinec - Kranj Globus","type":"route","route":"bus","colour":"#FF0000","network":"MPP Kranj","operator":"Alpetour","roundtrip":"yes","public_transport:version":"2"},"7213769":{"ref":"4","name":"Žabnica - Sp. Bitnje - Stražišče - Kranj Globus - Struževo","type":"route","route":"bus","colour":"#FF00FF","network":"MPP Kranj","operator":"Alpetour","roundtrip":"no","public_transport:version":"2"},"7215213":{"to":"Kranj Globus","ref":"3","from":"Kranj Globus","name":"Kranj Globus - Stražišče - Planina - Primskovo - Kranj Globus","type":"route","route":"bus","colour":"#800080","network":"MPP Kranj","operator":"Alpetour","roundtrip":"yes","public_transport:version":"2"},"7225724":{"to":"Bolnica","via":"Blej. Dobrava trgovina","from":"Kočna","name":"Kočna - Blej. Dobrava trgovina - Bolnica","type":"route","route":"bus","colour":"#000000","network":"MPP Jesenice","operator":"Alpetour","public_transport:version":"2"},"7225725":{"to":"Javornik","via":"Blej. Dobrava Iskra;Kor. Bela trgovina","from":"Kočna","name":"Kočna - Blej. Dobrava Iskra - Kor. Bela trgovina - Javornik","type":"route","route":"bus","colour":"#000000","network":"MPP Jesenice","operator":"Alpetour","public_transport:version":"2"},"7225726":{"to":"Hrušica Belo Polje","via":"Blej. Dobrava trgovina;Kor. Bela trgovina","from":"Kočna","name":"Kočna - Blej. Dobrava trgovina - Kor. Bela trgovina - Hrušica Belo Polje","type":"route","route":"bus","colour":"#000000","network":"MPP Jesenice","operator":"Alpetour","public_transport:version":"2"},"7225731":{"to":"Bolnica","via":"Blej. Dobrava trgovina;Kor. Bela trgovina","from":"Kočna","name":"Kočna - Blej. Dobrava trgovina - Kor. Bela trgovina - Bolnica","type":"route","route":"bus","colour":"#000000","network":"MPP Jesenice","operator":"Alpetour","public_transport:version":"2"},"7225732":{"to":"Kočna","via":"Blej. Dobrava trgovina","from":"Hrušica Belo Polje","name":"Hrušica Belo Polje - Blej. Dobrava trgovina - Kočna","type":"route","route":"bus","colour":"#000000","network":"MPP Jesenice","operator":"Alpetour","public_transport:version":"2"},"7225733":{"to":"Kočna","via":"Kor. Bela trgovina;Blej. Dobrava trgovina","from":"Hrušica Belo Polje","name":"Hrušica Belo Polje - Kor. Bela trgovina - Blej. Dobrava trgovina - Kočna","type":"route","route":"bus","colour":"#000000","network":"MPP Jesenice","operator":"Alpetour","public_transport:version":"2"},"7225734":{"to":"Kočna","via":"Kor. Bela trgovina;Blej. Dobrava trgovina","from":"Bolnica","name":"Bolnica - Kor. Bela trgovina - Blej. Dobrava trgovina - Kočna","type":"route","route":"bus","colour":"#000000","network":"MPP Jesenice","operator":"Alpetour","public_transport:version":"2"},"7225735":{"to":"Kor. Bela K","via":"Gimnazija","from":"Hrušica","name":"Hrušica - Gimnazija - Kor. Bela K","type":"route","route":"bus","colour":"#000000","network":"MPP Jesenice","operator":"Alpetour","public_transport:version":"2"},"7225736":{"to":"Bolnica","via":"Kor. Bela trgovina","from":"Blej. Dobrava Iskra","name":"Blej. Dobrava Iskra - Kor. Bela trgovina - Bolnica","type":"route","route":"bus","colour":"#000000","network":"MPP Jesenice","operator":"Alpetour","public_transport:version":"2"},"7225738":{"to":"Bolnica","from":"Javornik","name":"Javornik - Bolnica","type":"route","route":"bus","colour":"#000000","network":"MPP Jesenice","operator":"Alpetour","public_transport:version":"2"},"7225739":{"to":"Gimnazija","from":"Bolnica","name":"Bolnica - Gimnazija","type":"route","route":"bus","colour":"#000000","network":"MPP Jesenice","operator":"Alpetour","public_transport:version":"2"},"7225740":{"to":"Hrušica K","from":"Občina","name":"Občina - Hrušica K","type":"route","route":"bus","colour":"#000000","network":"MPP Jesenice","operator":"Alpetour","public_transport:version":"2"},"7225741":{"to":"Javornik","from":"Hrušica","name":"Hrušica - Javornik","type":"route","route":"bus","colour":"#000000","network":"MPP Jesenice","operator":"Alpetour","public_transport:version":"2"},"7225742":{"to":"Hrušica Belo Polje","from":"Kor. Bela K","name":"Kor. Bela K - Hrušica Belo Polje","type":"route","route":"bus","colour":"#000000","network":"MPP Jesenice","operator":"Alpetour","public_transport:version":"2"},"7225743":{"to":"Občina","from":"Hrušica Belo Polje","name":"Hrušica Belo Polje - Občina","type":"route","route":"bus","colour":"#000000","network":"MPP Jesenice","operator":"Alpetour","public_transport:version":"2"},"7225744":{"to":"Bolnica","from":"Kor. Bela K","name":"Kor. Bela K - Bolnica","type":"route","route":"bus","colour":"#000000","network":"MPP Jesenice","operator":"Alpetour","public_transport:version":"2"},"7225745":{"to":"Kor. Bela K","from":"Bolnica","name":"Bolnica - Kor. Bela K","type":"route","route":"bus","colour":"#000000","network":"MPP Jesenice","operator":"Alpetour","public_transport:version":"2"},"7225746":{"to":"Hrušica Belo Polje","via":"Kor. Bela trgovina","from":"Blej. Dobrava pokopališče","name":"Blej. Dobrava pokopališče - Kor. Bela trgovina - Hrušica Belo Polje","type":"route","route":"bus","colour":"#000000","network":"MPP Jesenice","operator":"Alpetour","public_transport:version":"2"},"7225747":{"to":"Blej. Dobrava pokopališče","via":"Kor. Bela trgovina","from":"Hrušica Belo Polje","name":"Hrušica Belo Polje - Kor. Bela trgovina - Blej. Dobrava pokopališče","type":"route","route":"bus","colour":"#000000","network":"MPP Jesenice","operator":"Alpetour","public_transport:version":"2"},"7225750":{"to":"Blej. Dobrava Iskra","via":"Kor. Bela trgovina","from":"Hrušica Belo Polje","name":"Hrušica Belo Polje - Kor. Bela trgovina - Blej. Dobrava Iskra","type":"route","route":"bus","colour":"#000000","network":"MPP Jesenice","operator":"Alpetour","public_transport:version":"2"},"7225752":{"to":"Hrušica Belo Polje","via":"Kor. Bela trgovina","from":"Blej. Dobrava Iskra","name":"Blej. Dobrava Iskra - Kor. Bela trgovina - Hrušica Belo Polje","type":"route","route":"bus","colour":"#000000","network":"MPP Jesenice","operator":"Alpetour","public_transport:version":"2"},"7225753":{"to":"Kor. Bela trgovina","from":"Hrušica Belo Polje","name":"Kor. Bela trgovina - Hrušica Belo Polje","type":"route","route":"bus","colour":"#000000","network":"MPP Jesenice","operator":"Alpetour","public_transport:version":"2"},"7225754":{"to":"Kor. Bela trgovina","from":"Hrušica Belo Polje","name":"Hrušica Belo Polje - Kor. Bela trgovina","type":"route","route":"bus","colour":"#000000","network":"MPP Jesenice","operator":"Alpetour","public_transport:version":"2"},"7225756":{"to":"Bolnica","from":"Kor. Bela trgovina","name":"Kor. Bela trgovina - Bolnica","type":"route","route":"bus","colour":"#000000","network":"MPP Jesenice","operator":"Alpetour","public_transport:version":"2"},"7225757":{"to":"Kor. Bela trgovina","from":"Bolnica","name":"Bolnica - Kor. Bela trgovina","type":"route","route":"bus","colour":"#000000","network":"MPP Jesenice","operator":"Alpetour","public_transport:version":"2"},"7227583":{"to":"Kor. Bela vratar","via":"Hermanov most","from":"Bolnica","name":"Bolnica - Hermanov most - Kor. Bela vratar","type":"route","route":"bus","colour":"#008000","network":"MPP Jesenice","operator":"Alpetour","roundtrip":"no","opening_hours":"sh off","public_transport:version":"2"},"7227584":{"to":"Občina","via":"Hermanov most","from":"Občina","name":"Občina - Hermanov most - Občina","type":"route","route":"bus","colour":"#008000","network":"MPP Jesenice","operator":"Alpetour","roundtrip":"yes","opening_hours":"sh off","public_transport:version":"2"},"7227585":{"to":"Kor. Bela vratar","via":"Jesenice ŽP;Hermanov most","from":"Kor. Bela vratar","name":"Kor. Bela vratar - Jesenice ŽP - Hermanov most - Kor. Bela vratar","type":"route","route":"bus","colour":"#008000","network":"MPP Jesenice","operator":"Alpetour","roundtrip":"yes","opening_hours":"sh off","public_transport:version":"2"},"7227586":{"to":"Bolnica","from":"Straža","name":"Straža - Bolnica","type":"route","route":"bus","colour":"#FFFF00","network":"MPP Jesenice","operator":"Alpetour","public_transport:version":"2"},"7227587":{"to":"Straža","from":"Bolnica","name":"Bolnica - Straža","type":"route","route":"bus","colour":"#FFFF00","network":"MPP Jesenice","operator":"Alpetour","public_transport:version":"2"},"7227588":{"to":"Zdravstveni dom","from":"Planina pod Golico","name":"Planina pod Golico - Zdravstveni dom","type":"route","route":"bus","colour":"#FF0000","network":"MPP Jesenice","operator":"Alpetour","opening_hours":"sh off","public_transport:version":"2"},"7227589":{"to":"Gimnazija","from":"Planina pod Golico","name":"Planina pod Golico - Gimnazija","type":"route","route":"bus","colour":"#FF0000","network":"MPP Jesenice","operator":"Alpetour","opening_hours":"sh off","public_transport:version":"2"},"7227590":{"to":"Občina","from":"Planina pod Golico","name":"Planina pod Golico - Občina","type":"route","route":"bus","colour":"#FF0000","network":"MPP Jesenice","operator":"Alpetour","opening_hours":"sh off","public_transport:version":"2"},"7227591":{"to":"Planina pod Golico","from":"Javornik","name":"Javornik - Planina pod Golico","type":"route","route":"bus","colour":"#FF0000","network":"MPP Jesenice","operator":"Alpetour","opening_hours":"sh off","public_transport:version":"2"},"7227592":{"to":"Planina pod Golico","from":"Kor. Bela trgovina","name":"Kor. Bela trgovina - Planina pod Golico","type":"route","route":"bus","colour":"#FF0000","network":"MPP Jesenice","operator":"Alpetour","opening_hours":"sh off","public_transport:version":"2"},"7227593":{"to":"Kor. Bela trgovina","from":"Pristava","name":"Pristava - Kor. Bela trgovina","type":"route","route":"bus","colour":"#FFFFFF","network":"MPP Jesenice","operator":"Alpetour","opening_hours":"sh off","public_transport:version":"2"},"7227594":{"to":"Gimnazija","via":"Kor. Bela trgovina","from":"Pristava","name":"Pristava - Kor. Bela trgovina - Gimnazija","type":"route","route":"bus","colour":"#FFFFFF","network":"MPP Jesenice","operator":"Alpetour","opening_hours":"sh off","public_transport:version":"2"},"7227595":{"to":"Bolnica","via":"Kor. Bela trgovina","from":"Pristava","name":"Pristava - Kor. Bela trgovina - Bolnica","type":"route","route":"bus","colour":"#FFFFFF","network":"MPP Jesenice","operator":"Alpetour","opening_hours":"sh off","public_transport:version":"2"},"7227596":{"to":"Pristava","via":"Kor. Bela trgovina","from":"Bolnica","name":"Bolnica - Kor. Bela trgovina - Pristava","type":"route","route":"bus","colour":"#FFFFFF","network":"MPP Jesenice","operator":"Alpetour","opening_hours":"sh off","public_transport:version":"2"},"7227597":{"to":"Pristava","from":"Kor. Bela trgovina","name":"Kor. Bela trgovina - Pristava","type":"route","route":"bus","colour":"#FFFFFF","network":"MPP Jesenice","operator":"Alpetour","opening_hours":"sh off","public_transport:version":"2"},"7227598":{"to":"Bolnica","via":"Kor. Bela trgovina","from":"Blej. Dobrava trgovina","name":"Blej. Dobrava trgovina - Kor. Bela trgovina - Bolnica","type":"route","route":"bus","colour":"#000000","network":"MPP Jesenice","operator":"Alpetour","public_transport:version":"2"},"7227599":{"to":"Bolnica","via":"Kor. Bela trgovina","from":"Blej. Dobrava pokopališče","name":"Blej. Dobrava pokopališče - Kor. Bela trgovina - Bolnica","type":"route","route":"bus","colour":"#000000","network":"MPP Jesenice","operator":"Alpetour","public_transport:version":"2"},"7227600":{"to":"Bolnica","from":"Blej. Dobrava pokopališče","name":"Blej. Dobrava pokopališče - Bolnica","type":"route","route":"bus","colour":"#000000","network":"MPP Jesenice","operator":"Alpetour","public_transport:version":"2"},"7227601":{"to":"Hrušica Belo Polje","from":"Turist","name":"Turist - Hrušica Belo Polje","type":"route","route":"bus","colour":"#000000","network":"MPP Jesenice","operator":"Alpetour","public_transport:version":"2"},"7227602":{"to":"Bolnica","from":"Turist","name":"Turist - Bolnica","type":"route","route":"bus","colour":"#000000","network":"MPP Jesenice","operator":"Alpetour","public_transport:version":"2"},"7227603":{"to":"Bolnica","from":"Blej. Dobrava trgovina","name":"Blej. Dobrava trgovina - Bolnica","type":"route","route":"bus","colour":"#000000","network":"MPP Jesenice","operator":"Alpetour","public_transport:version":"2"},"7227604":{"to":"Bolnica","from":"Občina","name":"Občina - Bolnica","type":"route","route":"bus","colour":"#000000","network":"MPP Jesenice","operator":"Alpetour","public_transport:version":"2"},"7227605":{"to":"Bolnica","from":"Gimnazija","name":"Gimnazija - Bolnica","type":"route","route":"bus","colour":"#000000","network":"MPP Jesenice","operator":"Alpetour","public_transport:version":"2"},"7227607":{"to":"Bolnica","from":"Železniška postaja","name":"Železniška postaja - Bolnica","type":"route","route":"bus","colour":"#000000","network":"MPP Jesenice","operator":"Alpetour","public_transport:version":"2"},"7227612":{"to":"Občina","from":"Zdravstveni dom","name":"Zdravstveni dom - Občina","type":"route","route":"bus","colour":"#000000","network":"MPP Jesenice","operator":"Alpetour","public_transport:version":"2"},"7227615":{"to":"Gimnazija","from":"Hrušica","name":"Hrušica - Gimnazija","type":"route","route":"bus","colour":"#000000","network":"MPP Jesenice","operator":"Alpetour","public_transport:version":"2"},"7227616":{"to":"Občina","from":"Hrušica","name":"Hrušica - Občina","type":"route","route":"bus","colour":"#000000","network":"MPP Jesenice","operator":"Alpetour","public_transport:version":"2"},"7227617":{"to":"Kor. Bela K","from":"Hrušica","name":"Hrušica - Kor. Bela K","type":"route","route":"bus","colour":"#000000","network":"MPP Jesenice","operator":"Alpetour","public_transport:version":"2"},"7227618":{"to":"Kor. Bela trgovina","from":"Hrušica","name":"Hrušica - Kor. Bela trgovina","type":"route","route":"bus","colour":"#000000","network":"MPP Jesenice","operator":"Alpetour","public_transport:version":"2"},"7227619":{"to":"Senožeti","from":"Bolnica","name":"Bolnica - Senožeti","type":"route","route":"bus","colour":"#000000","network":"MPP Jesenice","operator":"Alpetour","public_transport:version":"2"},"7227620":{"to":"Turist","from":"Bolnica","name":"Bolnica - Turist","type":"route","route":"bus","colour":"#000000","network":"MPP Jesenice","operator":"Alpetour","public_transport:version":"2"},"7227621":{"to":"Kočna","via":"Kor. Bela trgovina","from":"Bolnica","name":"Bolnica - Kor. Bela trgovina - Blej. Dobrava pokopališče","type":"route","route":"bus","colour":"#000000","network":"MPP Jesenice","operator":"Alpetour","public_transport:version":"2"},"7227622":{"to":"Javornik","from":"Bolnica","name":"Bolnica - Javornik","type":"route","route":"bus","colour":"#000000","network":"MPP Jesenice","operator":"Alpetour","public_transport:version":"2"},"7227623":{"to":"Kočna","via":"Kor. Bela trgovina","from":"Bolnica","name":"Bolnica - Kor. Bela trgovina - Blej. Dobrava trgovina","type":"route","route":"bus","colour":"#000000","network":"MPP Jesenice","operator":"Alpetour","public_transport:version":"2"},"7227624":{"to":"Blej. Dobrava pokopališče","via":"Kor. Bela trgovina;Blej.Dobrava Iskra","from":"Hrušica Belo Polje","name":"Hrušica Belo Polje - Kor. Bela trgovina - Blej.Dobrava Iskra - Blej. Dobrava pokopališče","type":"route","route":"bus","colour":"#000000","network":"MPP Jesenice","operator":"Alpetour","public_transport:version":"2"},"7227625":{"to":"Blej. Dobrava trgovina","via":"Kor. Bela trgovina","from":"Hrušica Belo Polje","name":"Hrušica Belo Polje - Kor. Bela trgovina - Blej. Dobrava trgovina","type":"route","route":"bus","colour":"#000000","network":"MPP Jesenice","operator":"Alpetour","public_transport:version":"2"},"7227626":{"to":"Kočna","via":"Kor. Bela K;Blej. Dobrava trgovina","from":"Hrušica Belo Polje","name":"Hrušica Belo Polje - Kor. Bela K - Blej. Dobrava trgovina - Kočna","type":"route","route":"bus","colour":"#000000","network":"MPP Jesenice","operator":"Alpetour","public_transport:version":"2"},"7227627":{"to":"Kočna","via":"Kor. Bela trgovina;Blej. Dobrava pokopališče","from":"Hrušica Belo Polje","name":"Hrušica Belo Polje - Kor. Bela trgovina - Blej. Dobrava pokopališče - Kočna","type":"route","route":"bus","colour":"#000000","network":"MPP Jesenice","operator":"Alpetour","public_transport:version":"2"},"7227628":{"to":"Kočna","via":"Kor. Bela trgovina","from":"Bolnica","name":"Bolnica - Kor. Bela trgovina - Kočna","type":"route","route":"bus","colour":"#000000","network":"MPP Jesenice","operator":"Alpetour","public_transport:version":"2"},"7227629":{"to":"Kočna","via":"Blej. Dobrava trgovina","from":"Hrušica","name":"Hrušica - Blej. Dobrava trgovina - Kočna","type":"route","route":"bus","colour":"#000000","network":"MPP Jesenice","operator":"Alpetour","public_transport:version":"2"},"7227630":{"to":"Kočna","via":"Blej. Dobrava trgovina","from":"Bolnica","name":"Bolnica - Blej. Dobrava trgovina - Kočna","type":"route","route":"bus","colour":"#000000","network":"MPP Jesenice","operator":"Alpetour","public_transport:version":"2"},"7227631":{"to":"Hrušica Belo Polje","via":"Blej. Dobrava trgovina","from":"Kočna","name":"Kočna - Blej. Dobrava trgovina - Hrušica Belo Polje","type":"route","route":"bus","colour":"#000000","network":"MPP Jesenice","operator":"Alpetour","public_transport:version":"2"},"7227632":{"to":"Bolnica","via":"Blej. Dobrava Iskra;Kor. Bela trgovina","from":"Kočna","name":"Kočna - Blej. Dobrava Iskra - Kor. Bela trgovina - Bolnica","type":"route","route":"bus","colour":"#000000","network":"MPP Jesenice","operator":"Alpetour","public_transport:version":"2"},"7367901":{"ref":"31","name":"Avtobusna postaja - Zdravstveni dom","type":"route","route":"bus","network":"PPP - Urbana","operator":"Ljubljanski Potniški Promet"},"7444073":{"to":"Kor. Bela trgovina","via":"Stara Sava","from":"Bolnica","name":"Bolnica - Stara Sava - Kor. Bela trgovina","type":"route","route":"bus","colour":"#000000","network":"MPP Jesenice","operator":"Alpetour","public_transport:version":"2"},"7444074":{"to":"Blej. Dobrava pokopališče","via":"Stara Sava;Kor. Bela trgovina","from":"Hrušica Belo Polje","name":"Hrušica Belo Polje - Stara Sava - Kor. Bela trgovina - Blej. Dobrava pokopališče","type":"route","route":"bus","colour":"#000000","network":"MPP Jesenice","operator":"Alpetour","public_transport:version":"2"},"7444075":{"to":"Kor. Bela trgovina","via":"Stara Sava","from":"Hrušica Belo Polje","name":"Hrušica Belo Polje - Stara Sava - Kor. Bela trgovina","type":"route","route":"bus","colour":"#000000","network":"MPP Jesenice","operator":"Alpetour","public_transport:version":"2"},"7444076":{"to":"Kor. Bela trgovina","via":"Stara Sava","from":"Hrušica Belo Polje","name":"Kor. Bela trgovina - Stara Sava - Hrušica Belo Polje","type":"route","route":"bus","colour":"#000000","network":"MPP Jesenice","operator":"Alpetour","public_transport:version":"2"},"7487049":{"ref":"Alpetour","name":"Škofja Loka - Žiri","type":"route","route":"bus","operator":"Alpetour Potovalna agencija"},"7489855":{"ref":"Alpetour","name":"Ljubljana - Kranj - Bled - Bohinj Zlatorog","type":"route","route":"bus","operator":"Alpetour Potovalna agencija","public_transport:version":"2"},"7489856":{"ref":"Alpetour","name":"Ljubljana - Škofja Loka","type":"route","route":"bus","operator":"Alpetour Potovalna agencija"},"7489857":{"ref":"Alpetour","name":"Ljubljana - Kranj - Tržič","type":"route","route":"bus","operator":"Alpetour Potovalna agencija","public_transport:version":"2"},"7489858":{"ref":"Alpetour","name":"Ljubljana - Kranj - Jesenice - Rateče Planica","type":"route","route":"bus","operator":"Alpetour Potovalna agencija","public_transport:version":"2"},"7506039":{"ref":"Alpetour","name":"Škofja Loka - Železniki","type":"route","route":"bus","operator":"Alpetour Potovalna agencija"},"7506378":{"ref":"Alpetour","name":"Škofja Loka - Kranj","type":"route","route":"bus","operator":"Alpetour Potovalna agencija"},"8903443":{"to":"Brežice - avtobusna postaja","from":"Brežice - avtobusna postaja","name":"\\\"Modra linija\\\"","note":"Intricate relation - do not auto-sort","type":"route","route":"bus","colour":"blue","network":"Brežiški mestni avtobus","operator":"Integral Brežice","public_transport:version":"2"},"8967921":{"to":"Brežice - Intermarket","from":"Brežice - Intermarket","name":"Zelena linija","note":"Intricate relation - do not auto-sort","type":"route","route":"bus","network":"Brežiški mestni avtobus","operator":"Integral Brežice","public_transport:version":"2"},"8973633":{"to":"Krško - avtobusna postaja","from":"Krško - avtobusna postaja","name":"Krško - Krško ob. - Leskovec pri Krškem - Krško š. - Krško","type":"route","route":"bus","operator":"Nomago","public_transport:version":"2"},"8973653":{"to":"Krško - avtobusna postaja","from":"Krško - avtobusna postaja","name":"Krško - V. Vas pri Krškem - Leskovec pri Krškem - Krško","type":"route","route":"bus","operator":"Nomago","public_transport:version":"2"},"8973677":{"to":"Krško - avtobusna postaja","from":"Krško - avtobusna postaja","name":"Krško - Krško š.- Krško Hoč. trg - Krško","type":"route","route":"bus","operator":"Nomago","public_transport:version":"2"},"9333762":{"to":"Krakau, Busbahnhof MDA","ref":"917","from":"Ljubljana, Busbahnhof","name":"Flixbus 917: Ljubljana, Busbahnhof => Krakau, Busbahnhof MDA","type":"route","route":"bus","name:de":"Flixbus 917: Ljubljana, Busbahnhof => Krakau, Busbahnhof MDA","name:pl":"Flixbus 917: Ljubljana, dworzec autobusowy => Kraków, dworzec autobusowy MDA","name:sk":"Flixbus 917: Ľubľana, autobusová stanica => Krakov, autobusová stanica MDA","name:sl":"Flixbus 917: Ljubljana, avtobusna postaja => Krakov, avtobusna postaja MDA","network":"Flixbus","website":"https://meinfernbus.de/unser-angebot/linien/917.html","operator":"Vincek","network:wikidata":"Q15712258","network:wikipedia":"en:Flixbus","public_transport:version":"2"},"9359708":{"ref":"1","name":"Celje ŽP - Ostrožno - Lokrovec - Nova vas - Celje ŽP","type":"route","route":"bus","network":"Celebus","operator":"Nomago"},"9359756":{"ref":"2","name":"Celje ŽP - Nova vas - Lokrovec - Ostrožno - Celje ŽP","type":"route","route":"bus","network":"Celebus","operator":"Nomago"},"9362291":{"ref":"3","name":"Celje ŽP - Hudinja - Škofja vas","type":"route","route":"bus","network":"Celebus","operator":"Nomago"},"9364875":{"ref":"4","name":"Nakupovalna","type":"route","route":"bus","network":"Celebus","operator":"Nomago"},"9367465":{"to":"Genf, Internationaler Busbahnhof","ref":"405","from":"Ljubljana, Busbahnhof","name":"Flixbus 405: Ljubljana, stazione degli autobus => Ginevra, stazione degli autobus internazionale","type":"route","route":"bus","name:de":"Flixbus 405: Ljubljana, Busbahnhof => Genf, Internationaler Busbahnhof","name:fr":"Flixbus 405: Ljubljana, Gare routière => Genève, Gare routière internationale","name:it":"Flixbus 405: Ljubljana, stazione degli autobus => Ginevra, stazione degli autobus internazionale","name:sl":"Flixbus 405: Ljubljana, Avtobusna postaja => Ženeva, Mednarodna avtobusna postaja","network":"Flixbus","website":"https://meinfernbus.de/unser-angebot/linien/405.html","operator":"Flixbus","network:wikidata":"Q15712258","network:wikipedia":"en:Flixbus","public_transport:version":"2"},"9425819":{"to":"Mossa","ref":"4","from":"Posta Centrale","name":"CIRCOLARE NERA ESTERNA : Posta Centrale - Ospedale - Mossa","type":"route","route":"bus","network":"APT","operator":"TPL FVG","network:wikidata":"Q3601116","public_transport:version":"2"},"9426440":{"to":"Mossa","ref":"4","from":"Posta Centrale","name":"CIRCOLARE NERA ESTERNA : Posta Centrale - Ospedale - S.Lorenzo Is. - Mossa","type":"route","route":"bus","network":"APT","operator":"TPL FVG","network:wikidata":"Q3601116","public_transport:version":"2"},"9441025":{"to":"Treviso Airport, Parking E","ref":"K803","from":"Ljubljana, Busbahnhof","name":"Flixbus K803: Ljubljana, Busbahnhof => Treviso Airport, Parking E","type":"route","route":"bus","name:de":"Flixbus K803: Ljubljana, Busbahnhof => Treviso Airport, Parking E","name:it":"Flixbus K803: Lubiana, Stazione degli autobus => Aeroporto di Treviso, parcheggio E","name:sl":"Ljubljana, avtobusna postaja => Letališče Treviso, Parkirišče E","network":"Flixbus","website":"https://meinfernbus.de/staedte/bus-ab-ljubljana#!timetable u.a.","operator":"Nomago","network:wikidata":"Q15712258","network:wikipedia":"en:Flixbus","public_transport:version":"2"},"9818570":{"to":"Budapest, Népliget","ref":"987","from":"Bled, Nationalpark, Triglav","name":"Flixbus 987: Bled, Nationalpark, Triglav => Budapest, Népliget","type":"route","route":"bus","name:de":"Flixbus 987: Bled, Nationalpark, Triglav => Budapest, Népliget","name:hu":"Flixbus 987: Bled, Nemzeti Park, Triglav => Budapest, Népliget","name:sl":"Flixbus 987: Bled, Narodni park, Triglav => Budimpešta, Népliget","network":"Flixbus","operator":"Flixbus","network:wikidata":"Q15712258","network:wikipedia":"en:Flixbus","public_transport:version":"2"},"9869317":{"to":"Bavarski dvor","fee":"yes","ref":"27K","from":"BTC-Atlantis","name":"Bus 27K: BTC-Atlantis => Bavarski dvor","type":"route","route":"bus","charge":"1.30 EUR","colour":"#4ca391","network":"MPP Ljubljana - Urbana","operator":"Ljubljanski Potniški Promet","public_transport:version":"2"},"9904610":{"to":"Београдска аутобуска станица","ref":"1900","from":"Flixbus (peron 29, 30)","name":"Flixbus 1900: Ljubljana, Busbahnhof => Belgrad, Busbahnhof","type":"route","route":"bus","name:de":"Flixbus 1900: Ljubljana, Busbahnhof => Belgrad, Busbahnhof","name:hr":"Flixbus 1900: Ljubljana, autobusni kolodvor => Beograd, autobusni kolodvor","name:sl":"Flixbus 1900: Ljubljana, avtobusna postaja => Beograd, avtobusna postaja","name:sr":"Фликбус 1900: Љубљана, аутобуска станица => Београд, аутобуска станица","network":"Flixbus","service":"long_distance","operator":"Flixbus","network:wikidata":"Q15712258","network:wikipedia":"en:Flixbus","public_transport:version":"2"},"9904651":{"to":"Београдска аутобуска станица","ref":"N1900","from":"Flixbus (peron 29, 30)","name":"Flixbus N1900: Ljubljana, Busbahnhof => Belgrad, Busbahnhof","type":"route","route":"bus","name:de":"Flixbus N1900: Ljubljana, Busbahnhof => Belgrad, Busbahnhof","name:hr":"Flixbus N1900: Ljubljana, autobusni kolodvor => Beograd, autobusni kolodvor","name:sl":"Flixbus N1900: Ljubljana, avtobusna postaja => Beograd, avtobusna postaja","name:sr":"Фликбус H1900: Љубљана, аутобуска станица => Београд, аутобуска станица","network":"Flixbus","service":"long_distance","operator":"Flixbus","network:wikidata":"Q15712258","network:wikipedia":"en:Flixbus","public_transport:version":"2"},"10303896":{"ref":"5","name":"Celje ŽP - Stari grad","type":"route","route":"bus"},"10304025":{"ref":"6","name":"Celje ŽP - Polule - Zagrad","type":"route","route":"bus"},"11801335":{"to":"Bleiburg Bahnhof","ref":"5426","from":"St. Georgen ob Bleiburg ÖBB-Garage","name":"Bus 5426: St. Georgen ob Bleiburg => Bleiburg Bahnhof","type":"route","route":"bus","network":"Kärntner Linien","operator":"ÖBB-Postbus","network:short":"VKG","network:wikidata":"Q2516465","network:wikipedia":"de:Verkehrsverbund Kärnten","public_transport:version":"2"},"11801336":{"to":"Bleiburg Stadt Bahnhaltestelle","ref":"5426","from":"St. Georgen ob Bleiburg ÖBB-Garage","name":"Bus 5426: St. Georgen ob Bleiburg => Bleiburg Stadt Bahnhaltestelle (direkt mit Halt in Marin)","type":"route","route":"bus","network":"Kärntner Linien","operator":"ÖBB-Postbus","network:short":"VKG","network:wikidata":"Q2516465","network:wikipedia":"de:Verkehrsverbund Kärnten","public_transport:version":"2"},"11801337":{"to":"Bleiburg Stadt Bahnhaltestelle","ref":"5426","from":"St. Georgen ob Bleiburg ÖBB-Garage","name":"Bus 5426: St. Georgen ob Bleiburg => Bleiburg Stadt Bahnhaltestelle (direkt)","type":"route","route":"bus","network":"Kärntner Linien","operator":"ÖBB-Postbus","network:short":"VKG","network:wikidata":"Q2516465","network:wikipedia":"de:Verkehrsverbund Kärnten","public_transport:version":"2"},"11801338":{"to":"Bleiburg Stadt Bahnhaltestelle","ref":"5426","from":"St. Georgen ob Bleiburg ÖBB-Garage","name":"Bus 5426: St. Georgen ob Bleiburg => Bleiburg Stadt Bahnhaltestelle","type":"route","route":"bus","network":"Kärntner Linien","operator":"ÖBB-Postbus","network:short":"VKG","network:wikidata":"Q2516465","network:wikipedia":"de:Verkehrsverbund Kärnten","public_transport:version":"2"},"12590887":{"to":"Tomačevo","fee":"yes","ref":"19I","via":"Barje","from":"Iška vas","name":"Bus 19I: Iška vas => Barje => Tomačevo","type":"route","route":"bus","charge":"1.30 EUR","colour":"#ea9eb4","network":"MPP Ljubljana - Urbana","operator":"Ljubljanski Potniški Promet","public_transport:version":"2"},"12903503":{"to":"Stanežiče P+R","fee":"yes","ref":"1","from":"Dolgi most P+R","name":"Bus 1: Dolgi most P+R => Stanežiče P+R","type":"route","route":"bus","charge":"1.30 EUR","colour":"#c93337","network":"MPP Ljubljana - Urbana","operator":"Ljubljanski Potniški Promet","public_transport:version":"2"},"13108526":{"to":"Barje P+R","fee":"yes","ref":"9","from":"Štepanjsko naselje","name":"Bus 9: Štepanjsko naselje => Barje P+R","type":"route","route":"bus","charge":"1.30 EUR","colour":"#86aacd","network":"MPP Ljubljana - Urbana","operator":"Ljubljanski Potniški Promet","public_transport:version":"2"},"13108527":{"to":"Štepanjsko naselje","fee":"yes","ref":"9","from":"Barje P+R","name":"Bus 9: Barje P+R => Štepanjsko naselje","type":"route","route":"bus","charge":"1.30 EUR","colour":"#86aacd","network":"MPP Ljubljana - Urbana","operator":"Ljubljanski Potniški Promet","public_transport:version":"2"},"13110116":{"to":"Dolgi most P+R","fee":"yes","ref":"1","from":"Stanežiče P+R","name":"Bus 1: Stanežiče P+R => Dolgi most P+R","type":"route","route":"bus","charge":"1.30 EUR","colour":"#c93337","network":"MPP Ljubljana - Urbana","operator":"Ljubljanski Potniški Promet","public_transport:version":"2"},"13111069":{"to":"Rudnik","fee":"yes","ref":"3","from":"Litostroj","name":"Bus 3: Litostroj => Rudnik","type":"route","route":"bus","charge":"1.30 EUR","colour":"#ec593a","network":"MPP Ljubljana - Urbana","duration":"0:27","interval":"15","operator":"Ljubljanski Potniški Promet","opening_hours":"Mo-Sa 05:00-20:45; Su 06:00-20:30","public_transport:version":"2"},"13111070":{"to":"Litostroj","fee":"yes","ref":"3","from":"Rudnik","name":"Bus 3: Rudnik => Litostroj","type":"route","route":"bus","charge":"1.30 EUR","colour":"#ec593a","network":"MPP Ljubljana - Urbana","duration":"27","interval":"15","operator":"Ljubljanski Potniški Promet","opening_hours":"Mo-Sa 05:00-20:45; Su 06:00-20:30","public_transport:version":"2"},"13133202":{"to":"Center Stožice P+R","fee":"yes","ref":"13","from":"Sostro","name":"Bus 13: Sostro => Center Stožice P+R","type":"route","route":"bus","charge":"1.30 EUR","colour":"#BAD05A","network":"MPP Ljubljana - Urbana","website":"https://www.lpp.si","operator":"Ljubljanski Potniški Promet","public_transport:version":"2"},"13133223":{"to":"Sostro","fee":"yes","ref":"13","from":"Center Stožice P+R","name":"Bus 13: Center Stožice P+R => Sostro","type":"route","route":"bus","charge":"1.30 EUR","colour":"#BAD05A","network":"MPP Ljubljana - Urbana","website":"https://www.lpp.si/","operator":"Ljubljanski Potniški Promet","public_transport:version":"2"},"13207746":{"to":"Podutik","fee":"yes","ref":"5","from":"Štepanjsko naselje","name":"Bus 5: Štepanjsko naselje => Podutik","type":"route","route":"bus","charge":"1.30 EUR","colour":"#9f539e","network":"MPP Ljubljana - Urbana","operator":"Ljubljanski Potniški Promet","public_transport:version":"2"},"13207769":{"to":"Štepanjsko naselje","fee":"yes","ref":"5","from":"Podutik","name":"Bus 5: Podutik => Štepanjsko naselje","type":"route","route":"bus","charge":"1.30 EUR","colour":"#9f539e","network":"MPP Ljubljana - Urbana","operator":"Ljubljanski Potniški Promet","public_transport:version":"2"},"13272092":{"to":"Letališka","fee":"yes","ref":"27","via":"BTC","from":"NS Rudnik","name":"Bus 27: NS Rudnik => BTC => Letališka","type":"route","route":"bus","charge":"1.30 EUR","colour":"#4ca391","network":"MPP Ljubljana - Urbana","operator":"Ljubljanski Potniški Promet","opening_hours":"Mo-Sa 05:10-22:09","public_transport:version":"2"},"13272125":{"to":"NS Rudnik","fee":"yes","ref":"27","via":"BTC","from":"Letališka","name":"Bus 27: Letališka => BTC => NS Rudnik","type":"route","route":"bus","charge":"1.30 EUR","colour":"#4ca391","network":"MPP Ljubljana - Urbana","operator":"Ljubljanski Potniški Promet","opening_hours":"Mo-Sa 05:10-21:52","public_transport:version":"2"},"13324295":{"to":"Bad Gleichenberg Villa d'Orsay","ref":"409","from":"Bad Radkersburg Busbahnhof","name":"Bus 409: Bad Radkersburg Busbahnhof => Bad Gleichenberg Villa d'Orsay","type":"route","route":"bus","state":"alternate","network":"Verkehrsverbund Steiermark","network:short":"VVSt","opening_hours":"Mo-Fr,SH 10:15, 13:40, 17:10; Mo-Fr 6:10, 10:15, 11:55, SH off","network:wikidata":"Q2341954","network:wikipedia":"de:Steirischer Verkehrsverbund","public_transport:version":"2"},"13324296":{"to":"Bad Gleichenberg Villa d'Orsay","ref":"409","via":"Bad Radkersburg Schulzentrum","from":"Bad Radkersburg Busbahnhof","name":"Bus 409: Bad Radkersburg Busbahnhof => Bad Gleichenberg Villa d'Orsay (über Bad Radkersburg Schulzentrum)","type":"route","route":"bus","state":"alternate","network":"Verkehrsverbund Steiermark","network:short":"VVSt","opening_hours":"Mo-Fr 13:42, 15:40, 17:07, SH off","network:wikidata":"Q2341954","network:wikipedia":"de:Steirischer Verkehrsverbund","public_transport:version":"2"},"13331108":{"to":"Feldbach Bahnhof","ref":"413","via":"Hainsdorf bei Mureck","from":"Mureck Busbahnhof","name":"Bus 413: Mureck Busbahnhof => Feldbach Bahnhof (via Hainsdorf bei Mureck)","type":"route","route":"bus","state":"alternate","network":"Verkehrsverbund Steiermark","network:short":"VVSt","opening_hours":"Mo-Fr 15:20, SH off","network:wikidata":"Q2341954","network:wikipedia":"de:Steirischer Verkehrsverbund","public_transport:version":"2"},"13331114":{"to":"Feldbach Bahnhof","ref":"413","from":"Mureck Busbahnhof","name":"Bus 413: Mureck Busbahnhof => Feldbach Bahnhof","type":"route","route":"bus","state":"alternate","network":"Verkehrsverbund Steiermark","network:short":"VVSt","opening_hours":"Mo-Fr,SH 06:28","network:wikidata":"Q2341954","network:wikipedia":"de:Steirischer Verkehrsverbund","public_transport:version":"2"},"13333352":{"to":"St.Peter/Ottersbach Ortsmitte","ref":"414","from":"Mureck Busbahnhof","name":"Bus 414: Mureck Busbahnhof => St.Peter/Ottersbach Ortsmitte","type":"route","route":"bus","state":"alternate","network":"Verkehrsverbund Steiermark","network:short":"VVSt","opening_hours":"Mo-Fr 11:50, SH off","network:wikidata":"Q2341954","network:wikipedia":"de:Steirischer Verkehrsverbund","public_transport:version":"2"},"13333355":{"to":"Gnas Volksschule","ref":"414","from":"Mureck Mittelschule","name":"Bus 414: Mureck Mittelschule => Gnas Volksschule","type":"route","route":"bus","state":"alternate","network":"Verkehrsverbund Steiermark","network:short":"VVSt","opening_hours":"Mo-Fr 13:48, SH off","network:wikidata":"Q2341954","network:wikipedia":"de:Steirischer Verkehrsverbund","public_transport:version":"2"},"13340255":{"to":"Feldbach Bahnhof","ref":"416","from":"Bad Radkersburg Schulzentrum","name":"Bus 416: Bad Radkersburg Schulzentrum => Feldbach Bahnhof","type":"route","route":"bus","state":"alternate","network":"Verkehrsverbund Steiermark","network:short":"VVSt","opening_hours":"Mo-Fr 13:38, 15:38, SH off","network:wikidata":"Q2341954","network:wikipedia":"de:Steirischer Verkehrsverbund","public_transport:version":"2"},"13340256":{"to":"Feldbach Bahnhof","ref":"416","via":"Feldbach Ringstraße/Schulzentrum","from":"Bad Radkersburg Busbahnhof","name":"Bus 416: Bad Radkersburg Busbahnhof => Feldbach Bahnhof (via Feldbach Ringstraße/Schulzentrum)","type":"route","route":"bus","state":"alternate","network":"Verkehrsverbund Steiermark","network:short":"VVSt","opening_hours":"Mo-Fr 06:25, SH off","network:wikidata":"Q2341954","network:wikipedia":"de:Steirischer Verkehrsverbund","public_transport:version":"2"},"13340257":{"to":"Feldbach Bahnhof","ref":"416","from":"Bad Radkersburg Busbahnhof","name":"Bus 416: Bad Radkersburg Busbahnhof => Feldbach Bahnhof","type":"route","route":"bus","state":"alternate","network":"Verkehrsverbund Steiermark","network:short":"VVSt","opening_hours":"Mo-Fr,SH 06:25, 13:35, 17:10; Mo-Fr 08:35","network:wikidata":"Q2341954","network:wikipedia":"de:Steirischer Verkehrsverbund","public_transport:version":"2"},"13412101":{"to":"Zalog","fee":"yes","ref":"20Z","via":"Fužine P+R","from":"Nove Stožice P+R","name":"Bus 20Z: Nove Stožice P+R => Fužine P+R => Zalog","type":"route","route":"bus","charge":"1.30 EUR","colour":"#1f8751","network":"MPP Ljubljana - Urbana","operator":"Ljubljanski Potniški Promet","public_transport:version":"2"},"13412112":{"to":"Stožice P+R","fee":"yes","ref":"20Z","via":"Fužine P+R","from":"Zalog","name":"Bus 20Z: Zalog => Fužine P+R => Stožice P+R","type":"route","route":"bus","charge":"1.30 EUR","colour":"#1f8751","network":"MPP Ljubljana - Urbana","operator":"Ljubljanski Potniški Promet","public_transport:version":"2"},"13412118":{"to":"Fužine P+R","fee":"yes","ref":"20","from":"Nove Stožice P+R","name":"Bus 20: Nove Stožice P+R => Fužine P+R","type":"route","route":"bus","charge":"1.30 EUR","colour":"#1f8751","network":"MPP Ljubljana - Urbana","operator":"Ljubljanski Potniški Promet","public_transport:version":"2"},"13412126":{"to":"Stožice P+R","fee":"yes","ref":"20","from":"Fužine P+R","name":"Bus 20: Fužine P+R => Stožice P+R","type":"route","route":"bus","charge":"1.30 EUR","colour":"#1f8751","network":"MPP Ljubljana - Urbana","operator":"Ljubljanski Potniški Promet","public_transport:version":"2"},"13485983":{"to":"Dolgi most P+R","fee":"yes","ref":"1B","via":"Stanežiče P+R","from":"Gameljne","name":"Bus 1B: Gameljne => Stanežiče P+R => Dolgi most P+R","type":"route","route":"bus","charge":"1.30 EUR","colour":"#c93337","network":"MPP Ljubljana - Urbana","website":"https://www.lpp.si/sites/default/files/lpp_vozniredi/iskalnik/index.php?stop=0&l=1B","duration":"0:51","interval":"10","operator":"Ljubljanski Potniški Promet","public_transport:version":"2"},"13486007":{"to":"Gameljne","fee":"yes","ref":"1B","via":"Stanežiče P+R","from":"Dolgi most P+R","name":"Bus 1B: Dolgi most P+R => Stanežiče P+R => Gameljne","type":"route","route":"bus","charge":"1.30 EUR","colour":"#c93337","network":"MPP Ljubljana - Urbana","website":"https://www.lpp.si/sites/default/files/lpp_vozniredi/iskalnik/index.php?stop=0&line=1080","duration":"51","interval":"10","operator":"Ljubljanski Potniški Promet","public_transport:version":"2"},"13612234":{"to":"Nove Jarše","fee":"yes","ref":"2","from":"Zelena Jama","name":"Bus 2: Zelena Jama => Nove Jarše","type":"route","route":"bus","charge":"1.30 EUR","colour":"#8b8742","network":"MPP Ljubljana - Urbana","duration":"0:41","interval":"20","operator":"Ljubljanski Potniški Promet","opening_hours":"Mo-Sa 04:00-23:00; Su 05:00-23:00","public_transport:version":"2"},"13612343":{"to":"Zelena Jama","fee":"yes","ref":"2","from":"Nove Jarše","name":"Bus 2: Nove Jarše => Zelena Jama","type":"route","route":"bus","charge":"1.30 EUR","colour":"#8b8742","network":"MPP Ljubljana - Urbana","duration":"0:42","interval":"20","operator":"Ljubljanski Potniški Promet","opening_hours":"Mo-Sa 04:00-23:00; Su 05:00-23:00","public_transport:version":"2"},"13628039":{"to":"Muggia","ref":"31","from":"Cerei","name":"Bus 31: Cerei → Muggia","type":"route","route":"bus","bicycle":"no","network":"Trieste Trasporti","website":"https://www.triestetrasporti.it;https://tplfvg.it/it/","operator":"TPL FVG","wheelchair":"yes","old_operator":"Trieste Trasporti","network:wikidata":"Q3539115","network:wikipedia":"it:Trieste Trasporti"},"13674802":{"to":"Črnuče","fee":"yes","ref":"6","from":"Dolgi most P+R","name":"Bus 6: Dolgi most P+R => Črnuče","type":"route","route":"bus","charge":"1.30 EUR","colour":"#939598","network":"MPP Ljubljana - Urbana","interval":"12","operator":"Ljubljanski Potniški Promet","opening_hours":"Mo-Sa 04:15-00:20; Su 05:15-00:20","public_transport:version":"2"},"13674840":{"to":"Dolgi most P+R","fee":"yes","ref":"6","from":"Črnuče","name":"Bus 6: Črnuče => Dolgi most P+R","type":"route","route":"bus","charge":"1.30 EUR","colour":"#939598","network":"MPP Ljubljana - Urbana","interval":"12","operator":"Ljubljanski Potniški Promet","opening_hours":"Mo-Sa 04:15-00:20; Su 05:15-00:20","public_transport:version":"2"},"13721484":{"to":"Pržan","fee":"yes","ref":"7","from":"Nove Jarše","name":"Bus 7: Nove Jarše => Pržan","type":"route","route":"bus","charge":"1.30 EUR","colour":"#1ebadc","network":"MPP Ljubljana - Urbana","duration":"0:33","interval":"20","operator":"Ljubljanski Potniški Promet","opening_hours":"Mo-Sa 05:00-06:00,8:45-12:45,16:45-21:30; Su 06:30-21:30","public_transport:version":"2"},"13721747":{"to":"Nove Jarše","fee":"yes","ref":"7","from":"Pržan","name":"Bus 7: Pržan => Nove Jarše","type":"route","route":"bus","charge":"1.30 EUR","colour":"#1ebadc","network":"MPP Ljubljana - Urbana","duration":"0:32","interval":"20","operator":"Ljubljanski Potniški Promet","opening_hours":"Mo-Sa 05:00-06:00,8:45-12:45,16:45-21:30; Su 06:30-21:30","public_transport:version":"2"},"13746879":{"to":"Trnovo","fee":"yes","ref":"16","from":"Črni log","name":"Bus 16: Črni log => Trnovo","type":"route","route":"bus","charge":"1,30 EUR","colour":"#582C81","network":"MPP Ljubljana - Urbana","alt_name":"Ljubljana Dolgi most Gruda","duration":"16","operator":"Ljubljanski Potniški Promet","opening_hours":"Mo-Fr 04:52-22:20","public_transport:version":"2"},"13831219":{"to":"Savlje","fee":"yes","ref":"14","from":"Bokalce","name":"Bus 14: Bokalce => Savlje","type":"route","route":"bus","charge":"1.30 EUR","colour":"#ef5aa2","network":"MPP Ljubljana - Urbana","operator":"Ljubljanski Potniški Promet","public_transport:version":"2"},"13831237":{"to":"Bokalce","fee":"yes","ref":"14","from":"Savlje","name":"Bus 14: Savlje => Bokalce","type":"route","route":"bus","charge":"1.30 EUR","colour":"#ef5aa2","network":"MPP Ljubljana - Urbana","operator":"Ljubljanski Potniški Promet","public_transport:version":"2"},"13912002":{"to":"Muggia","ref":"32","from":"Santa Barbara","name":"Bus 32: Santa Barbara → Piazza I Maggio → Muggia","type":"route","route":"bus","bicycle":"no","network":"Trieste Trasporti","website":"https://www.triestetrasporti.it;https://tplfvg.it/it/","operator":"TPL FVG","wheelchair":"yes","old_operator":"Trieste Trasporti","network:wikidata":"Q3539115","network:wikipedia":"it:Trieste Trasporti"},"13921345":{"to":"Brnčičeva","fee":"yes","ref":"8","from":"Gameljne","name":"Bus 8: Gameljne => Brnčičeva","type":"route","route":"bus","charge":"1.30 EUR","colour":"#136ab0","network":"MPP Ljubljana - Urbana","website":"https://www.lpp.si/sites/default/files/lpp_vozniredi/iskalnik/index.php?stop=0&l=1B","duration":"0:48","interval":"20","operator":"LPP","public_transport:version":"2"},"13921422":{"to":"Gameljne","fee":"yes","ref":"8","from":"Brnčičeva","name":"Bus 8: Brnčičeva => Gameljne","type":"route","route":"bus","charge":"1.30 EUR","colour":"#136ab0","network":"MPP Ljubljana - Urbana","website":"https://www.lpp.si/sites/default/files/lpp_vozniredi/iskalnik/index.php?stop=0&l=1B","duration":"0:48","interval":"20","operator":"LPP","public_transport:version":"2"},"13934220":{"to":"Zalog","fee":"yes","ref":"11","from":"Ježica P+R","name":"Bus 11: Ježica P+R => Zalog","type":"route","route":"bus","charge":"1.30 EUR","colour":"#edc23b","network":"MPP Ljubljana - Urbana","duration":"56","interval":"20","operator":"Ljubljanski Potniški Promet","opening_hours":"Mo-Fr 05:40-20:30","public_transport:version":"2"},"13934244":{"to":"Ježica P+R","fee":"yes","ref":"11","from":"Zalog","name":"Bus 11: Zalog => Ježica P+R","type":"route","route":"bus","charge":"1.30 EUR","colour":"#edc23b","network":"MPP Ljubljana - Urbana","duration":"54","interval":"20","operator":"Ljubljanski Potniški Promet","opening_hours":"Mo-Fr 05:40-20:30","public_transport:version":"2"},"13934287":{"to":"Zalog","fee":"yes","ref":"11B","from":"Železna","name":"Bus 11B: Železna => Zalog","type":"route","route":"bus","charge":"1.30 EUR","colour":"#edc23b","network":"MPP Ljubljana - Urbana","duration":"38","interval":"30","operator":"Ljubljanski Potniški Promet","opening_hours":"Mo-Fr 04:23-04:53,21:08-23:53; Sa 04:23-23:53; Su 23:08-23:53","public_transport:version":"2"},"13934309":{"to":"Železna","fee":"yes","ref":"11B","from":"Zalog","name":"Bus 11B: Zalog => Železna","type":"route","route":"bus","charge":"1.30 EUR","colour":"#edc23b","network":"MPP Ljubljana - Urbana","duration":"34","interval":"30","operator":"Ljubljanski Potniški Promet","opening_hours":"Mo-Fr 03:50-5:35,20:20-23:15; Sa 03:50-23:15; Su,PH 22:30-23:15","public_transport:version":"2"},"14083885":{"to":"Bavarski dvor","fee":"yes","ref":"27B","via":"BTC","from":"Letališka","name":"Bus 27B: Letališka => BTC => Bavarski dvor","type":"route","route":"bus","charge":"1.30 EUR","network":"MPP Ljubljana - Urbana","operator":"Ljubljanski Potniški Promet","opening_hours":"Su 14:09","public_transport:version":"2"},"14083886":{"to":"Letališka","fee":"yes","ref":"27B","via":"BTC","from":"Bavarski dvor","name":"Bus 27B: Bavarski dvor => BTC => Letališka","type":"route","route":"bus","charge":"1.30 EUR","network":"MPP Ljubljana - Urbana","interval":"60","operator":"Ljubljanski Potniški Promet","opening_hours":"Su 08:50-22:00","public_transport:version":"2"},"14596424":{"to":"Permani","ref":"30","from":"Brdce","name":"Bus 30: Brdce => Permani","type":"route","route":"bus","network":"Autotrolej","operator":"Autotrolej","network:wikidata":"Q12627396","public_transport:version":"2"},"14939778":{"to":"Koper ZP","ref":"1","from":"Kampel","name":"Bus 1: Kampel → Koper ZP","type":"route","route":"bus","network":"Arriva","operator":"Koper","network:wikidata":"Q680991","public_transport:version":"1"},"14939779":{"to":"Kampel","ref":"1","from":"Koper ZP","name":"Bus 1: Koper ZP → Kampel","type":"route","route":"bus","network":"Arriva","operator":"Koper","network:wikidata":"Q680991","public_transport:version":"1"},"14939799":{"to":"Koper ZP","ref":"2","from":"Bolnišnica","name":"Bus 2: Bolnišnica → Koper ZP","type":"route","route":"bus","network":"Arriva","operator":"Koper","network:wikidata":"Q680991","public_transport:version":"1"},"14939800":{"to":"Bolnišnica","ref":"2","from":"Koper ZP","name":"Bus 2: Koper ZP → Bolnišnica","type":"route","route":"bus","network":"Arriva","operator":"Koper","network:wikidata":"Q680991","public_transport:version":"1"},"14939812":{"to":"Bolnišnica","ref":"2A","via":"Markovec","from":"Koper ZP","name":"Bus 2A: Koper ZP → Markovec → Bolnišnica","type":"route","route":"bus","network":"Arriva","operator":"Koper","network:wikidata":"Q680991","public_transport:version":"1"},"14939813":{"to":"Koper ZP","ref":"2A","via":"Markovec","from":"Bolnišnica","name":"Bus 2A: Bolnišnica → Markovec → Koper ZP","type":"route","route":"bus","network":"Arriva","operator":"Koper","network:wikidata":"Q680991","public_transport:version":"1"},"14940050":{"to":"Bolnišnica","ref":"3","from":"Nad Dolinsko","name":"Bus 3: Nad Dolinsko → Bolnišnica","type":"route","route":"bus","network":"Arriva","operator":"Koper","network:wikidata":"Q680991"},"14940051":{"to":"Nad Dolinsko","ref":"3","from":"Bolnišnica","name":"Bus 3: Bolnišnica → Nad Dolinsko","type":"route","route":"bus","network":"Arriva","operator":"Koper","network:wikidata":"Q680991"},"14940057":{"to":"Zusterna","ref":"4","from":"Partizanska ulica","name":"Bus 4: Partizanska ulica → Zusterna","type":"route","route":"bus","network":"Arriva","operator":"Koper","network:wikidata":"Q680991"},"14940058":{"to":"Partizanska ulica","ref":"4","from":"Zusterna","name":"Bus 4: Zusterna → Partizanska ulica","type":"route","route":"bus","network":"Arriva","operator":"Koper","network:wikidata":"Q680991"},"14940065":{"to":"Markovec","ref":"5","from":"Trg Brolo","name":"Bus 5: Trg Brolo → Markovec","type":"route","route":"bus","network":"Arriva","operator":"Koper","network:wikidata":"Q680991"},"14940066":{"to":"Trg Brolo","ref":"5","from":"Markovec","name":"Bus 5: Markovec → Trg Brolo","type":"route","route":"bus","network":"Arriva","operator":"Koper","network:wikidata":"Q680991"},"14941178":{"to":"Markovec","ref":"6","from":"Potniski terminal","name":"Bus 6: Potniski terminal → Markovec","type":"route","route":"bus","network":"Arriva","operator":"Koper","network:wikidata":"Q680991"},"14941179":{"to":"Potniski terminal","ref":"6","from":"Markovec","name":"Bus 6: Markovec → Potniski terminal","type":"route","route":"bus","network":"Arriva","operator":"Koper","network:wikidata":"Q680991"},"14941220":{"to":"Potniski terminal","ref":"8","via":"Trg Brolo","from":"Potniski terminal","name":"Bus 8: Potniski terminal → Trg Brolo → Potniski terminal","type":"route","route":"bus","network":"Arriva","operator":"Koper","network:wikidata":"Q680991"},"14941221":{"to":"Potniski terminal","ref":"8","from":"Potniski terminal","name":"Bus 8S: Potniski terminal → Potniski terminal","type":"route","route":"bus","network":"Arriva","operator":"Koper","network:wikidata":"Q680991"},"14946538":{"to":"Muggia","ref":"32","from":"Santa Barbara","name":"Bus 32: Santa Barbara → Muggia","type":"route","route":"bus","bicycle":"no","network":"Trieste Trasporti","website":"https://www.triestetrasporti.it;https://tplfvg.it/it/","operator":"TPL FVG","wheelchair":"yes","old_operator":"Trieste Trasporti","network:wikidata":"Q3539115","network:wikipedia":"it:Trieste Trasporti"},"14968673":{"to":"Zadobrova","fee":"yes","ref":"10","via":"Podgrad","from":"Besnica obračališče","name":"Bus 10: Besnica obračališče => Zadobrova","type":"route","route":"bus","colour":"#58574a","network":"MPP Ljubljana - Urbana","operator":"Ljubljanski Potniški Promet","public_transport:version":"2"},"14968725":{"to":"Besnica obračališče","fee":"yes","ref":"10","via":"Podgrad","from":"Zadobrova","name":"Bus 10: Zadobrova => Besnica obračališče","type":"route","route":"bus","colour":"#58574a","network":"MPP Ljubljana - Urbana","operator":"Ljubljanski Potniški Promet","public_transport:version":"2"},"14975327":{"to":"Stazione ferroviaria","ref":"51g","from":"Grozzana","name":"Bus 51: Grozzana → Stazione ferroviaria","type":"route","route":"bus","bicycle":"no","network":"Trieste Trasporti","website":"https://www.triestetrasporti.it;https://tplfvg.it/it/","operator":"TPL FVG","wheelchair":"yes","old_operator":"Trieste Trasporti","network:wikidata":"Q3539115","network:wikipedia":"it:Trieste Trasporti","public_transport:version":"1"},"15045259":{"to":"Brod","fee":"yes","ref":"N1","via":"Stanežiče P+R","from":"Bavarski Dvor (Kozolec)","name":"Bus N1: Bavarski Dvor (Kozolec) => Stanežiče P+R => Brod","type":"route","route":"bus","charge":"1.30 EUR","colour":"#c93337","network":"MPP Ljubljana - Urbana","website":"https://www.lpp.si/sites/default/files/lpp_vozniredi/iskalnik/index.php?stop=0&l=N1","operator":"Ljubljanski Potniški Promet","public_transport:version":"2"},"15045305":{"to":"Bavarski Dvor (Kozolec)","fee":"yes","ref":"N1","via":"Stanežiče P+R","from":"Brod","name":"Bus N1: Brod => Stanežiče P+R => Bavarski Dvor (Kozolec)","type":"route","route":"bus","charge":"1.30 EUR","colour":"#c93337","network":"MPP Ljubljana - Urbana","website":"https://www.lpp.si/sites/default/files/lpp_vozniredi/iskalnik/index.php?stop=0&l=N1","operator":"Ljubljanski Potniški Promet","public_transport:version":"2"},"15045471":{"to":"Škofljica","fee":"yes","ref":"3B","via":"Rudnik","from":"Litostroj","name":"Bus 3B: Litostroj => Rudnik => Škofljica","type":"route","route":"bus","charge":"1.30 EUR","colour":"#ec593a","network":"MPP Ljubljana - Urbana","website":"https://www.lpp.si/sites/default/files/lpp_vozniredi/iskalnik/index.php?stop=0&l=3B","operator":"Ljubljanski Potniški Promet","public_transport:version":"2"},"15045472":{"to":"Litostroj","fee":"yes","ref":"3B","via":"Rudnik","from":"Škofljica","name":"Bus 3B: Škofljica => Rudnik => Litostroj","type":"route","route":"bus","charge":"1.30 EUR","colour":"#ec593a","network":"MPP Ljubljana - Urbana","interval":"15","operator":"Ljubljanski Potniški Promet","public_transport:version":"2"},"15057729":{"to":"Tieschen Marktplatz","ref":"503","from":"Mureck Mittelschule","name":"Bus 503: Mureck => Tieschen","type":"route","route":"bus","network":"Verkehrsverbund Steiermark","network:short":"VVSt","network:wikidata":"Q2341954","network:wikipedia":"de:Steirischer Verkehrsverbund","public_transport:version":"2"},"15060433":{"to":"Hof bei Straden Abzweigung Laasen","ref":"577","from":"Bad Radkersburg Schulzentrum","name":"Bus 577: Bad Radkersburg Schulzentrum => Hof bei Straden Abzweigung Laasen","type":"route","route":"bus","network":"Verkehrsverbund Steiermark","operator":"Karl Hütter GmbH","gtfs:feed":"AT-VVSt","ref_trips":"5.T0.2-577-j23-1.5.R","network:guid":"AT-VVSt","gtfs:route_id":"2-577-j23-1","gtfs:shape_id":"2-577-j23-1.5.R","network:short":"VVSt","gtfs:trip_id:like":"%2-577-j23-1.5.R","gtfs:trip_id:sample":"5.T0.2-577-j23-1.5.R","public_transport:version":"2"},"15267613":{"to":"Grosuplje","fee":"yes","ref":"3G","from":"Bežigrad","name":"Bus 3G: Bežigrad => Grosuplje","type":"route","route":"bus","charge":"1.30 EUR","colour":"#f58345","network":"MPP Ljubljana - Urbana","website":"https://www.lpp.si/sites/default/files/lpp_vozniredi/iskalnik/index.php?stop=0&line=1303","duration":"48","interval":"30","operator":"Ljubljanski Potniški Promet","roundtrip":"no","opening_hours":"Mo-Fr 05:15-23:40; Sa,Su,PH 05:50-23:45","public_transport:version":"2"},"15267741":{"to":"Bežigrad","fee":"yes","ref":"3G","from":"Grosuplje","name":"Bus 3G: Grosuplje => Bežigrad","type":"route","route":"bus","charge":"1.30 EUR","colour":"#f58345","network":"MPP Ljubljana - Urbana","website":"https://www.lpp.si/sites/default/files/lpp_vozniredi/iskalnik/index.php?stop=0&line=1303","duration":"50","interval":"30","operator":"Ljubljanski Potniški Promet","roundtrip":"no","opening_hours":"Mo-Fr 04:15-22:40; Sa,Su,PH 04:49-22:29","public_transport:version":"2"},"15331402":{"to":"AP Mlinska","ref":"7","from":"Morski jarek - Rošpoh","name":"Bus 7: Morski jarek - Rošpoh ⇒ AP Mlinska","type":"route","route":"bus","colour":"#FFFF01","network":"MPP Maribor","operator":"MARPROM","direction":"AP Mlinska","public_transport:version":"2"},"15331403":{"to":"Morski jarek - Rošpoh","ref":"7","from":"AP Mlinska","name":"Bus 7: AP Mlinska ⇒ Morski jarek - Rošpoh","type":"route","route":"bus","colour":"#FFFF01","network":"MPP Maribor","operator":"MARPROM","direction":"Rošpoh","public_transport:version":"2"},"15336260":{"to":"AP Mlinska","ref":"2","from":"Botanični vrt","name":"Bus 2: Botanični vrt ⇒ AP Mlinska","type":"route","route":"bus","colour":"#3D985B","network":"MPP Maribor","operator":"MARPROM","direction":"AP Mlinska","public_transport:version":"2"},"15336261":{"to":"Botanični vrt","ref":"2","from":"AP Mlinska","name":"Bus 2: AP Mlinska ⇒ Botanični vrt","type":"route","route":"bus","colour":"#3D985B","network":"MPP Maribor","operator":"MARPROM","direction":"Botanični vrt","public_transport:version":"2"},"15347886":{"to":"Grušova","ref":"20","via":"Trčova - Griček","from":"Melje","name":"Bus 20: Melje ⇒ Trčova - Griček ⇒ Grušova","type":"route","route":"bus","colour":"#9B3F3F","network":"MPP Maribor","operator":"MARPROM","direction":"Grušova","opening_hours":"Sa 06:40, 08:30, 10:40, 12:15, 14:20, 15:40; Su 08:30, 12:15","public_transport:version":"2"},"15348081":{"to":"Melje","ref":"20","via":"Trčova - Griček","from":"Grušova","name":"Bus 20: Grušova ⇒ (Metava ⇒ ) Trčova - Griček ⇒ Galerija Meljski hrib ⇒ Melje","type":"route","route":"bus","colour":"#9B3F3F","network":"MPP Maribor","operator":"MARPROM","direction":"Melje","opening_hours":"Mo-Fr 12:55, 14:55; via Metava: Mo-Fr 04:45, 21:00","public_transport:version":"2"},"15348082":{"to":"Melje","ref":"20","from":"Grušova","name":"Bus 20: Grušova ⇒ Galerija Meljski hrib ⇒ Melje","type":"route","route":"bus","colour":"#9B3F3F","network":"MPP Maribor","operator":"MARPROM","direction":"Melje","opening_hours":"Mo-Fr 06:00,07:00, 08:00, 09:00,10:00, 11:00, 12:00, 14:00, 16:00, 17:00, 18:00, 19:00","public_transport:version":"2"},"15348083":{"to":"Grušova","ref":"20","via":"Trčova - Griček","from":"Melje","name":"Bus 20: Melje ⇒ Grušova","type":"route","route":"bus","colour":"#9B3F3F","network":"MPP Maribor","operator":"MARPROM","direction":"Grušova","opening_hours":"Sa 05:25","public_transport:version":"2"},"15429040":{"to":"Rudnik","fee":"yes","ref":"N3","from":"Bavarski Dvor (Kozolec)","name":"Bus N3: Bavarski Dvor (Kozolec) => Rudnik","type":"route","route":"bus","charge":"1.30 EUR","colour":"#ec593a","network":"MPP Ljubljana - Urbana","duration":"0:14","interval":"15","operator":"Ljubljanski Potniški Promet","public_transport:version":"2"},"15429063":{"to":"Bavarski Dvor (Kozolec)","fee":"yes","ref":"N3","from":"Rudnik","name":"Bus N3: Rudnik => Bavarski Dvor (Kozolec)","type":"route","route":"bus","colour":"#ec593a","network":"MPP Ljubljana - Urbana","duration":"14","interval":"15","operator":"Ljubljanski Potniški Promet","opening_hours":"Mo-Sa 05:00-20:45; Su 06:00-20:30","public_transport:version":"2"},"15459685":{"to":"Trieste","ref":"TS/KP","from":"Koper","name":"Bus TS/KP: Koper/Capodistria → Trieste/Trst","type":"route","route":"bus","network":"Arriva","network:wikidata":"Q680991"},"15550697":{"to":"Pržan","fee":"yes","ref":"7L","from":"Letališka","name":"Bus 7L: Letališka => Pržan","type":"route","route":"bus","charge":"1.30 EUR","colour":"#1ebadc","network":"MPP Ljubljana - Urbana","duration":"0:40","interval":"20","operator":"Ljubljanski Potniški Promet","public_transport:version":"2"},"15550702":{"to":"Letališka","fee":"yes","ref":"7L","from":"Pržan","name":"Bus 7L: Pržan => Letališka","type":"route","route":"bus","charge":"1.30 EUR","colour":"#1ebadc","network":"MPP Ljubljana - Urbana","duration":"0:40","interval":"20","operator":"Ljubljanski Potniški Promet","public_transport:version":"2"},"15579235":{"to":"Gameljne","fee":"yes","ref":"21","from":"Beričevo","name":"Bus 21: Beričevo => Gameljne","type":"route","route":"bus","charge":"1.30 EUR","colour":"#52B84D","network":"MPP Ljubljana - Urbana","interval":"60","operator":"Ljubljanski Potniški Promet","opening_hours":"Mo-Fr 04:45-21:22; Sa 04:50-21:12; Su,PH off","public_transport:version":"2"},"15579907":{"to":"Vevče","fee":"yes","ref":"12","from":"Bežigrad","name":"Bus 12: Bežigrad => Vevče","type":"route","route":"bus","charge":"1.30 EUR","colour":"#224aa0","network":"MPP Ljubljana - Urbana","duration":"0:29","interval":"45","operator":"Ljubljanski Potniški Promet","opening_hours":"Mo-Fr 05:00-22:00; Sa-Su 06:00-22:00","public_transport:version":"2"},"15579922":{"to":"Bežigrad","fee":"yes","ref":"12","from":"Vevče","name":"Bus 12: Vevče => Bežigrad","type":"route","route":"bus","charge":"1.30 EUR","colour":"#224aa0","network":"MPP Ljubljana - Urbana","duration":"0:26","interval":"45","operator":"Ljubljanski Potniški Promet","opening_hours":"Mo-Fr 05:00-22:00; Sa-Su 06:00-22:00","public_transport:version":"2"},"15582673":{"to":"Črni log","fee":"yes","ref":"16","from":"Trnovo","name":"Bus 16: Trnovo => Črni log","type":"route","route":"bus","colour":"#582C81","network":"MPP Ljubljana - Urbana","duration":"15","interval":"60","operator":"Ljubljanski Potniški Promet","opening_hours":"Mo-Fr 05:12-22:40","public_transport:version":"2"},"15589533":{"to":"Trieste/Trst","ref":"TS/SZ","from":"Sezana/Sesana","name":"Bus TS/SZ: Sezana/Sesana → Trieste Trst","type":"route","route":"bus","network":"Arriva","operator":"Arriva","network:wikidata":"Q680991"},"15617164":{"to":"Škofljica","fee":"yes","ref":"N3B","via":"Rudnik","from":"Bavarsk Dvor","name":"Bus N3B: Bavarski Dvor => Rudnik => Škofljica","type":"route","route":"bus","charge":"1.30 EUR","colour":"#ec593a","network":"MPP Ljubljana - Urbana","website":"https://www.lpp.si/sites/default/files/lpp_vozniredi/iskalnik/index.php?stop=0&l=N3B","operator":"Ljubljanski Potniški Promet","public_transport:version":"2"},"15617197":{"to":"Bavarski Dvor","fee":"yes","ref":"N3B","via":"Rudnik","from":"Škofljica","name":"Bus N3B: Škofljica => Rudnik => Bavarski Dvor","type":"route","route":"bus","charge":"1.30 EUR","colour":"#ec593a","network":"MPP Ljubljana - Urbana","website":"https://www.lpp.si/sites/default/files/lpp_vozniredi/iskalnik/index.php?stop=0&l=N3B","operator":"Ljubljanski Potniški Promet","public_transport:version":"2"},"15617214":{"to":"Štepanjsko naselje","fee":"yes","ref":"N5","via":"Bavarski Dvor","from":"Podutik","name":"Bus N5: Podutik => Bavarski Dvor => Štepanjsko naselje","type":"route","route":"bus","charge":"1.30 EUR","colour":"#9f539e","network":"MPP Ljubljana - Urbana","website":"https://www.lpp.si/sites/default/files/lpp_vozniredi/iskalnik/index.php?stop=804221-1&ref=1353","operator":"Ljubljanski Potniški Promet","public_transport:version":"2"},"15617224":{"to":"Podutik","fee":"yes","ref":"N5","via":"Bavarski Dvor","from":"Štepanjsko naselje","name":"Bus N5: Štepanjsko naselje => Bavarski Dvor => Podutik","type":"route","route":"bus","charge":"1.30 EUR","colour":"#9f539e","network":"MPP Ljubljana - Urbana","website":"https://www.lpp.si/sites/default/files/lpp_vozniredi/iskalnik/index.php?stop=804221-1&ref=1353","operator":"Ljubljanski Potniški Promet","public_transport:version":"2"},"15617262":{"to":"Dragomelj","fee":"yes","ref":"12D","from":"Bežigrad","name":"Bus 12D: Bežigrad => Dragomelj","type":"route","route":"bus","charge":"1.30 EUR","colour":"#224aa0","network":"MPP Ljubljana - Urbana","website":"https://www.lpp.si/sites/default/files/lpp_vozniredi/iskalnik/index.php?stop=204231-2&ref=1333","duration":"0:26","interval":"45","operator":"Ljubljanski Potniški Promet","opening_hours":"Mo-Su 06:00-22:30","public_transport:version":"2"},"15617274":{"to":"Bežigrad","fee":"yes","ref":"12D","from":"Dragomelj","name":"Bus 12D: Dragomelj => Bežigrad","type":"route","route":"bus","charge":"1.30 EUR","colour":"#224aa0","network":"MPP Ljubljana - Urbana","website":"https://www.lpp.si/sites/default/files/lpp_vozniredi/iskalnik/index.php?stop=204231-2&ref=1333","duration":"0:24","interval":"45","operator":"Ljubljanski Potniški Promet","opening_hours":"Mo-Su 05:00-22:00","public_transport:version":"2"},"15617321":{"to":"Jezero","fee":"yes","ref":"6B","via":"Dolgi most","from":"Bežigrad","name":"Bus 6B: Bežigrad => Dolgi most => Jezero","type":"route","route":"bus","charge":"1.30 EUR","colour":"#afb0b0","network":"MPP Ljubljana - Urbana","duration":"38","interval":"20","operator":"Ljubljanski Potniški Promet","opening_hours":"Mo-Su 05:30-22:30","public_transport:version":"2"},"15617366":{"to":"Bežigrad","fee":"yes","ref":"6B","via":"Dolgi most","from":"Jezero","name":"Bus 6B: Jezero => Dolgi most => Bežigrad","type":"route","route":"bus","charge":"1.30 EUR","colour":"#afb0b0","network":"MPP Ljubljana - Urbana","duration":"0:39","interval":"120","operator":"Ljubljanski Potniški Promet","opening_hours":"Sa,Su,PH 05:30-23:30","public_transport:version":"2"},"15667798":{"to":"Sora obračališče","fee":"yes","ref":"15","from":"Stanežiče","name":"Bus 15: Stanežiče => Sora obračališče","type":"route","route":"bus","colour":"#a2238e","network":"MPP Ljubljana - Urbana","website":"https://www.lpp.si/sites/default/files/lpp_vozniredi/iskalnik/index.php?line=1336","operator":"Ljubljanski Potniški Promet","roundtrip":"no","public_transport:version":"2"},"15667910":{"to":"Stanežiče","fee":"yes","ref":"15","from":"Sora obračališče","name":"Bus 15: Sora obračališče => Stanežiče","type":"route","route":"bus","colour":"#a2238e","network":"MPP Ljubljana - Urbana","website":"https://www.lpp.si/sites/default/files/lpp_vozniredi/iskalnik/index.php?line=1336","operator":"Ljubljanski Potniški Promet","roundtrip":"no","public_transport:version":"2"}}