{"1994588":{"name":"Dijle Tour","type":"route","route":"bus","network":"Hasake- Qamislo"},"2091247":{"name":"Zana","type":"route","route":"bus","network":"Qamislo-Hasake"},"4108101":{"to":"Karajat","ref":"Mezzeh Jabal - Karajat","from":"Mezzeh Jabal","name":"مزة جبل - كراجات","type":"route","route":"bus","colour":"red","name:ar":"مزة جبل - كراجات","name:en":"Mezzeh Jabal - Karajat","public_transport:version":"2"},"4108338":{"to":"Mezzeh Jabal","ref":"Karajat - Mezzeh Jabal","from":"Karajat","name":"Karajat - Mezzeh Jabal","type":"route","route":"bus","colour":"red","name:en":"Karajat - Mezzeh Jabal","public_transport:version":"2"},"4110300":{"to":"Bab Touma","ref":"مشفى - باب توما","from":"Mashfa","name":"مستشفى - باب توما","type":"route","route":"bus","colour":"blue","name:ar":"مستشفى - باب توما","name:en":"Mustachfa - Bab Touma","name:fr":"Hôpital - Bab Touma","public_transport:version":"2"},"4110558":{"to":"Midan","ref":"Souq al-Hamidiyya - Midan","from":"Souq al-Hamidiyya","name":"Souq al-Hamidiyya - Midan","type":"route","route":"bus","colour":"green","name:en":"Souq al-Hamidiyya - Midan","public_transport:version":"2"},"4110592":{"to":"Souq al-Hamidiyya","ref":"Midan - Souq al-Hamidiyya","from":"Midan","name":"Midan - Souq al-Hamidiyya","type":"route","route":"bus","colour":"green","name:en":"Midan - Souq al-Hamidiyya","public_transport:version":"2"},"4111623":{"to":"مطار دمشق الدولي","ref":"حافلة المطار إلى مطار دمشق الدولي","from":"البرامكة","name":"حافلة المطار إلى مطار دمشق الدولي","type":"route","route":"bus","colour":"orange","name:ar":"حافلة المطار إلى مطار دمشق الدولي","name:en":"Airport Bus to Damascus International Airport","public_transport:version":"2"},"4111655":{"to":"Baramkeh","ref":"حافلة المطار إلى البرامكة","from":"Damascus International Airport","name":"حافلة المطار إلى البرامكة","type":"route","route":"bus","colour":"orange","name:ar":"حافلة المطار إلى البرامكة","name:en":"Airport Bus to Baramkeh","public_transport:version":"2"},"4113584":{"to":"Thaura","ref":"Somaria - Thaura","from":"Somaria","name":"Somaria - Thaura","type":"route","route":"bus","colour":"brown","name:en":"Somaria - Thaura","public_transport:version":"2"},"4113624":{"to":"Somaria","ref":"Thaura - Somaria","from":"Thaura","name":"Thaura - Somaria","type":"route","route":"bus","colour":"brown","name:en":"Thaura - Somaria","public_transport:version":"2"},"4217617":{"ref":"2 الدائري الشمالي","name":"خط رقم 2: الدائري شمالي باتجاه الجامعة","type":"route","route":"bus","network":"الشركة العامة للنقل الداخلي بحلب","operator":"الدائري الشمالي"},"4217646":{"ref":"2 الدائري الشمالي","name":"خط رقم 2: الدائري شمالي باتجاه قاضي عسكر","type":"route","route":"bus","operator":"الدائري الشمالي"},"4217701":{"ref":"حلب الجديدة شمالي","name":"خط حلب الجديدة شمالي باتجاه حلب الجديدة","type":"route","route":"bus","network":"الشركة العامة للنقل الداخلي","operator":"مشاعل النور"},"4217721":{"ref":"حلب الجديدة شمالي","name":"خط حلب الجديدة شمالي باتجاه مركز المدينة","type":"route","route":"bus","network":"الشركة العامة للنفل الداخلي بحلب","operator":"مشاعل النور"},"4217796":{"ref":"1 الدائري الجنوبي","name":"خط رقم 1: الدائري الجنوبي باتجاه الصاخور","type":"route","route":"bus","network":"الشركة العامة للنقل الداخلي بحلب","operator":"الشركة العامة للنقل الداخلي بحلب"},"4217802":{"ref":"1 الدائري الجنوبي","name":"خط رقم 1: الدائري الجنوبي باتجاه الجامعة","type":"route","route":"bus","network":"الشركة العامة للنقل الداخلي بحلب","operator":"الشركة العامة للنقل الداخلي بحلب"},"4217911":{"ref":"3","name":"الخط رقم 3: الراموسة باتجاه الراموسة","type":"route","route":"bus","network":"الشركة العامة للنقل الداخلي بحلب","operator":"شركة الأوائل"},"4217912":{"ref":"3","name":"الخط رقم3: الراموسة باتجاه مركز المدينة","type":"route","route":"bus","network":"الشركة العامة للنقل الداخلي بحلب","operator":"الأوائل"},"4217922":{"ref":"سيف الدولة","name":"خط سيف الدولة: باتجاه مركز المدينة","type":"route","route":"bus","network":"الشركة العامة للنقل الداخلي بحلب","operator":"الشركة العامة للنقل الداخلي بحلب"},"4217945":{"ref":"سيف الدولة","name":"خط سيف الدولة: باتجاه سيف الدولة","type":"route","route":"bus","network":"الشركة العامة للنقل الداخلي بحلب","operator":"الشركة العامة للنقل الداخلي بحلب"},"4217982":{"ref":"مدينة هنانو","name":"خط مدينة هنانو: باتجاه مساكن هنانو","type":"route","route":"bus","network":"الشركة العامة للنقل الداخلي بحلب","operator":"شركة المدينة"},"4217994":{"ref":"مدينة هنانو","name":"خط مدينة هنانو: باتجاه مركز المدينة","type":"route","route":"bus","network":"الشركة العامة للنقل الداخلي بحلب","operator":"شركة المدينة"},"4218010":{"ref":"البلليرمون الصاخور","name":"خط البلليرمون الصاخور: باتجاه الصاخور","type":"route","route":"bus","network":"الشركة العامة للنقل الداخلي بحلب","operator":"شركة الصقر"},"4218024":{"ref":"البلليرمون الصاخور","name":"خط البلليرمون الصاخور: باتجاه البلليرمون","type":"route","route":"bus","network":"الشركة العامة للنقل الداخلي بحلب","operator":"شركة الصقر"},"4218053":{"ref":"الحمدانية غربي","name":"خط الحمدانية غربي: باتجاه الحمدانية","type":"route","route":"bus","network":"الشركة العامة للنقل الداخلي بحلب","operator":"شركة الاكسبريس"},"4218120":{"ref":"الحمدانية غربي","name":"خط الحمدانية غربي: باتجاه مركز المدينة","type":"route","route":"bus","network":"الشركة العامة للنقل الداخلي بحلب","operator":"شركة الاكسبريس"},"4218141":{"ref":"جمعية المهندسين","name":"خط جمعية المهندسين: باتجاه الزهراء","type":"route","route":"bus","network":"الشركة العامة للنقل الداخلي بحلب"},"4218154":{"ref":"جمعية المهندسين","name":"خط جمعية المهندسين: باتجاه مركز المدينة","type":"route","route":"bus","network":"الشركة العامة للنقل الداخلي بحلب"},"4218187":{"ref":"شارع النيل","name":"خط شارع النيل: باتجاه جمعية الزهراء - المالية","type":"route","route":"bus","network":"الشركة العامة للنقل الداخلي بحلب"},"4222122":{"ref":"البلليرمون","name":"خط البلليرمون: باتجاه كراج البلليرمون","type":"route","route":"bus","network":"الشركة العامة للنقل الداخلي بحلب","operator":"الشركة العامة للنقل الداخلي بحلب"},"4222123":{"ref":"البلليرمون","name":"خط البلليرمون: باتجاه مركز المدينة","type":"route","route":"bus","network":"الشركة العامة للنقل الداخلي بحلب","operator":"الشركة العامة للنقل الداخلي بحلب"},"4222126":{"ref":"طريق الباب","name":"خط طريق الباب: باتجاه المقبرة الاسلامية","type":"route","route":"bus","network":"الشركة العامة للنقل الداخلي بحلب","operator":"هرشو"},"4222133":{"ref":"طريق الباب","name":"خط طريق الباب: باتجاه مركز المدينة","type":"route","route":"bus","network":"الشركة العامة للنقل الداخلي بحلب","operator":"هرشو"},"4222138":{"ref":"كراج البولمان","name":"خط كراج البولمان: باتجاه كراج البولمان","type":"route","route":"bus","network":"الشركة العامة للنقل الداخلي بحلب","operator":"الشركة العامة للنقل الداخلي بحلب"},"4222140":{"ref":"كراج البولمان","name":"خط كراج البولمان: باتجاه مركز المدينة","type":"route","route":"bus","network":"الشركة العامة للنقل الداخلي بحلب","operator":"الشركة العامة للنقل الداخلي بحلب"},"4222143":{"ref":"الأشرفية","name":"خط الأشرفية: باتجاه الأشرفية","type":"route","route":"bus","network":"الشركة العامة للنقل الداخلي بحلب","operator":"الشركة العامة للنقل الداخلي بحلب"},"4222145":{"ref":"الأشرفية","name":"خط الأشرفية: باتجاه مركز المدينة","type":"route","route":"bus","network":"الشركة العامة للنقل الداخلي بحلب","operator":"الشركة العامة للنقل الداخلي بحلب"},"4222153":{"ref":"حلب - مران","name":"خط حلب - مران: باتجاه مران","type":"route","route":"bus","network":"محافظة حلب","operator":"الشركة العامة للنقل الداخلي"},"4222154":{"ref":"حلب - مران","name":"خط حلب - مران: باتجاه حلب","type":"route","route":"bus","network":"محافظة حلب","operator":"الشركة العامة للنقل الداخلي"},"14469961":{"to":"شارع الثورة","bus":"minibus","ref":"سيرفيس مساكن برزة مسبق الصنع - شارع الثورة","from":"مساكن برزة مسبق الصنع","name":"سيرفيس مساكن برزة مسبق الصنع - شارع الثورة","type":"route","route":"bus","name:ar":"سيرفيس مساكن برزة مسبق الصنع - شارع الثورة","name:en":"Masakin Barza, Prefab buildings - Al Thawra Street Minibus"},"14995426":{"to":"مساكن برزة مسبق الصنع","bus":"minibus","from":"شارع الثورة","name":"سيرفيس شارع الثورة - مساكن برزة مسبق الصنع","type":"route","route":"bus","name:ar":"سيرفيس شارع الثورة - مساكن برزة مسبق الصنع","name:en":"Al Thawra - Masakin Barza, Prefab buildings Minibus"}}