{"1714964":{"ref":"19E","name":"Ligne 19E","type":"route","route":"bus","network":"TRANSTU","operator":"TRANSTU"},"1714965":{"ref":"19","name":"Ligne 19","type":"route","route":"bus","network":"TRANSTU","operator":"TRANSTU"},"3315935":{"ref":"1","name":"1 البستان","type":"route","route":"bus","colour":"#008800","name:ar":"1 البستان","operator":"الشركة الجهوية للنقل بصفاقس"},"3316457":{"to":"Bouassida","ref":"2","from":"Jardin Dakar","name":"2 حشاد","type":"route","route":"bus","to:fr":"Bouassida","from:fr":"Jardin Dakar","name:ar":"2 حشاد","name:fr":"Hached 2","operator":"soretras"},"3349176":{"to":"سيدي صالح","ref":"6","from":"باب الجبلي","name":"تونس 6 : باب الجبلي -> سيدي صالح","type":"route","route":"bus","name:ar":"تونس 6 : باب الجبلي -> سيدي صالح","operator":"soretras"},"5926679":{"ref":"19 ت","name":"19 ت","type":"route","route":"bus","name:ar":"19 ت","name:en":"19 C","name:fr":"19 C","network":"19ت","operator":"شركة النقل بتونس"},"7743162":{"to":"Tunis","ref":"Bus 52B","from":"Gammarth Village","name":"Bus 52B","type":"route","route":"bus","network":"Bus Jaunes","operator":"Transtu","public_transport:version":"2"}}