{"7715409":{"to":"Cư Jút","ref":"01","from":"Đạt Lý","name":"Tuyến số 1: Đạt Lý => Cư Jút","type":"route","route":"bus","operator":"Công ty Cổ phần xe khách Đắk Lắk","public_transport:version":"2"},"7715509":{"to":"Đạt Lý","ref":"01","from":"Cư Jút","name":"Tuyến số 1: Cư Jút => Đạt Lý","type":"route","route":"bus","operator":"Công ty Cổ phần xe khách Đắk Lắk","public_transport:version":"2"},"7715640":{"to":"Eakao","ref":"04","from":"Bến xe phía Bắc Buôn Ma Thuột","name":"Tuyến số 4: Bến xe phía Bắc Buôn Ma Thuột => Eakao","type":"route","route":"bus","public_transport:version":"2"},"7715641":{"to":"Bến xe phía Bắc Buôn Ma Thuột","ref":"04","from":"Eakao","name":"Tuyến số 4: Eakao => Bến xe phía Bắc Buôn Ma Thuột","type":"route","route":"bus","public_transport:version":"2"},"7715830":{"to":"Buôn Ma Thuột","ref":"06","from":"Xã Ea Kiết","name":"Tuyến số 6: Xã Ea Kiết => Buôn Ma Thuột","type":"route","route":"bus","public_transport:version":"2"},"7715831":{"to":"Xã Ea Kiết","ref":"06","from":"Buôn Ma Thuột","name":"Tuyến số 6: Buôn Ma Thuột => Xã Ea Kiết","type":"route","route":"bus","public_transport:version":"2"},"7715884":{"to":"Krông Pắc","ref":"07","from":"Buôn Ma Thuột","name":"Tuyến số 7: Buôn Ma Thuột => Krông Pắc","type":"route","route":"bus","public_transport:version":"2"},"7715885":{"to":"Buôn Ma Thuột","ref":"07","from":"Krông Pắc","name":"Tuyến số 7: Krông Pắc => Buôn Ma Thuột","type":"route","route":"bus","public_transport:version":"2"},"7737066":{"to":"shuttle destination","bus":"shuttle","ref":"Shuttle My Son","from":"shuttle starting point","name":"Shuttle My Son","note":"My Son","type":"route","route":"bus","colour":"aqua","network":"local"},"11167654":{"to":"Bến xe Mỹ Đình","ref":"44","from":"Trần Khánh Dư","name":"Trần Khánh Dư - Bến xe Mỹ Đình","type":"route","route":"bus","charge":"7000 VND","network":"Chi nhánh công ty TNHH Bắc Hà","interval":"00:10-00:15","operator":"TRANSERCO","opening_hours":"Mo-Su 05:00-21:00","public_transport:version":"2"},"11183589":{"ref":"23","name":"Nguyễn Công Trứ - Vân Hồ - Nguyễn Công Trứ","type":"route","route":"bus","operator":"Xí nghiệp Xe buýt Hà Nội"},"11506554":{"to":"Vũng Thùng","ref":"12","from":"Công viên 29/3","name":"Công viên 29/3 - Vũng Thùng","type":"route","route":"bus","network":"DanaBus"},"11506628":{"to":"Công viên Biển Đông","ref":"05","via":"Cầu Rồng","from":"Nguyễn Tất Thành","name":"Nguyễn Tất Thành - CV Biển Đông","type":"route","route":"bus","network":"DanaBus","public_transport:version":"2"},"12031903":{"to":"Kim Mã","fee":"yes","ref":"BRT01","from":"Bến xe Yên Nghĩa","name":"Bến xe Yên Nghĩa - Kim Mã","type":"route","route":"bus","charge":"7000 VND","network":"Hanoi BRT","distance":"14.7","operator":"Hanoi BRT","opening_hours":"Mo-Su 05:00-22:00","public_transport:version":"2"},"12031904":{"to":"Bến xe Yên Nghĩa","fee":"yes","ref":"BRT01","from":"Kim Mã","name":"Kim Mã - Bến xe Yên Nghĩa","type":"route","route":"bus","charge":"7000 VND","network":"Hanoi BRT","distance":"14.7","operator":"Hanoi BRT","opening_hours":"Mo-Su 05:00-22:00"},"12724269":{"to":"Học viện Nông nghiệp Việt Nam","ref":"11","from":"Công viên Thống Nhất","name":"Công viên Thống Nhất - Học viện Nông nghiệp Việt Nam","type":"route","route":"bus","network":"Hanoibus","distance":"18.1","duration":"00:45","interval":"00:10","operator":"Xí Nghiệp Xe Buýt Hà Nội","public_transport:version":"2"},"12724270":{"to":"Công viên Thống Nhất","ref":"11","from":"Học viện Nông nghiệp Việt Nam","name":"Học viện Nông nghiệp Việt Nam - Công viên Thống Nhất","type":"route","route":"bus","network":"Hanoibus","operator":"Xí Nghiệp Xe Buýt Hà Nội","public_transport:version":"2"},"12725863":{"to":"Bệnh viện Nội tiết Trung ương cơ sở 2","fee":"yes","ref":"04","from":"Long Biên","name":"Long Biên - Bệnh viện Nội tiết Trung ương cơ sở 2","type":"route","route":"bus","charge":"7000 VND","network":"Hanoibus","interval":"00:20","operator":"Xí Nghiệp Xe Khách Nam","opening_hours":"Mo-Su 05:00-20:45","public_transport:version":"2"},"12725864":{"to":"Long Biên","fee":"yes","ref":"04","from":"Bệnh viện Nội tiết Trung ương cơ sở 2","name":"Bệnh viện Nội tiết Trung ương cơ sở 2 - Long Biên","type":"route","route":"bus","charge":"7000 VND","network":"Hanoibus","interval":"00:20","operator":"Xí Nghiệp Xe Khách Nam","opening_hours":"Mo-Su 05:00-21:00","public_transport:version":"2"},"12726060":{"to":"Khu liên cơ quan Sở ngành Hà Nội","fee":"yes","ref":"09A","from":"Bờ Hồ","name":"Bờ Hồ - Cầu Giấy - Khu liên cơ quan Sở ngành Hà Nội","type":"route","route":"bus","charge":"7000 VND","network":"Hanoibus","interval":"00:15","operator":"Công ty Cổ phần Vận tải & Dịch vụ Liên Ninh","opening_hours":"Mo-Fr 05:05-21:05","public_transport:version":"2"},"12726061":{"to":"Bờ Hồ","fee":"yes","ref":"09A","from":"Khu liên cơ quan Sở ngành Hà Nội","name":"Khu liên cơ quan Sở ngành Hà Nội - Cầu Giấy - Bờ Hồ","type":"route","route":"bus","charge":"7000 VND","network":"Hanoibus","interval":"00:20","operator":"Công ty Cổ phần Vận tải & Dịch vụ Liên Ninh","opening_hours":"Mo-Th 05:05-21:05; Fr 05:05-22:05","public_transport:version":"2"},"12738568":{"to":"Ngũ Hiệp","fee":"yes","ref":"99","from":"Kim Mã","name":"Kim Mã - Ngũ Hiệp","type":"route","route":"bus","charge":"7000 VND","network":"Hanoibus","interval":"00:20","operator":"Xí Nghiệp Xe Khách Nam","opening_hours":"Mo-Su 05:00-21:10","public_transport:version":"2"},"12738569":{"to":"Kim Mã","fee":"yes","ref":"99","from":"Ngũ Hiệp","name":"Ngũ Hiệp - Kim Mã","type":"route","route":"bus","charge":"7000 VND","network":"Hanoibus","interval":"00:20","operator":"Xí Nghiệp Xe Khách Nam","opening_hours":"Mo-Su 05:00-21:10","public_transport:version":"2"},"12744117":{"to":"Phú Diễn","fee":"yes","ref":"05","from":"Linh Đàm","name":"Khu đô thị Linh Đàm - Phú Diễn","type":"route","route":"bus","charge":"7000 VND","network":"Hanoibus","interval":"00:15","operator":"Xí Nghiệp Buýt 10-10","opening_hours":"Mo-Su 05:00-21:05","public_transport:version":"2"},"12744118":{"to":"Linh Đàm","fee":"yes","ref":"05","from":"Phú Diễn","name":"Phú Diễn - Khu đô thị Linh Đàm","type":"route","route":"bus","charge":"7000 VND","network":"TRANSERCO","interval":"00:15","operator":"Xí Nghiệp Buýt 10-10","opening_hours":"Mo-Su 05:00-21:05","public_transport:version":"2"},"12746734":{"to":"Đại học Kinh tế Quốc dân","fee":"yes","ref":"18","from":"Đại học Kinh tế Quốc dân","name":"Đại học Kinh tế Quốc dân - Đại học Kinh tế Quốc dân (Chiều đi)","type":"route","route":"bus","charge":"7000 VND","network":"Hanoibus","interval":"00:15","operator":"Xí Nghiệp Xe Buýt Thăng Long","roundtrip":"yes","opening_hours":"Mo-Su 05:00-21:00","public_transport:version":"2"},"12746735":{"to":"Đại học Kinh tế Quốc dân","fee":"yes","ref":"18","from":"Đại học Kinh tế Quốc dân","name":"Đại học Kinh tế Quốc dân - Đại học Kinh tế Quốc dân (Chiều về)","type":"route","route":"bus","charge":"7000 VND","network":"Hanoibus","interval":"00:15","operator":"Xí Nghiệp Xe Buýt Thăng Long","roundtrip":"yes","opening_hours":"Mo-Su 05:00-21:00","public_transport:version":"2"},"12756324":{"to":"Sân vận động Quốc gia","fee":"yes","ref":"26","from":"Mai Động","name":"Mai Động - Sân vận động Quốc gia","type":"route","route":"bus","charge":"7000 VND","network":"Hanoibus","interval":"00:05","operator":"Xí Nghiệp Xe Buýt Thăng Long","opening_hours":"Mo-Su 05:00-22:30","public_transport:version":"2"},"12756325":{"to":"Mai Động","fee":"yes","ref":"26","from":"Sân vận động Quốc gia","name":"Sân vận động Quốc gia - Mai Động","type":"route","route":"bus","charge":"7000 VND","network":"Hanoibus","interval":"00:05","operator":"Xí Nghiệp Xe Buýt Thăng Long","opening_hours":"Mo-Su 05:00-22:30","public_transport:version":"2"},"12764282":{"to":"Đức Giang","ref":"42","from":"Bến xe Giáp Bát","name":"Bến xe Giáp Bát - Đức Giang","type":"route","route":"bus","network":"Hanoibus","operator":"Công ty TNHH Bắc Hà - chi nhánh Hà Nội","public_transport:version":"2"},"12766145":{"to":"Bến xe Giáp Bát","ref":"42","from":"Đức Giang","name":"Đức Giang - Bến xe Giáp Bát","type":"route","route":"bus","network":"Hanoibus","operator":"Công ty TNHH Bắc Hà - chi nhánh Hà Nội"},"12768120":{"to":"Trần Khánh Dư","ref":"44","from":"Bến xe Mỹ Đình","name":"Bến xe Mỹ Đình - Trần Khánh Dư","type":"route","route":"bus","charge":"7000 VND","network":"TRANSERCO","interval":"00:10-00:15","operator":"Công ty TNNH Bắc Hà - chi nhánh Hà Nội","opening_hours":"Mo-Su 05:00-21:00","public_transport:version":"2"},"12812221":{"to":"Khu đô thị Times City","fee":"yes","ref":"CNG03","from":"Bệnh viện Bệnh nhiệt đới Trung ương cơ sở 2","name":"Bệnh viện Bệnh nhiệt đới Trung ương cơ sở 2 - Khu đô thị Times City","type":"route","route":"bus","charge":"8000 VND","network":"Bảo Yến","interval":"00:15","operator":"Công ty TNHH Du lịch - Dịch vụ - Xây dựng Bảo Yến","public_transport:version":"2"},"12812222":{"to":"Bệnh viện Bệnh nhiệt đới Trung ương cơ sở 2","fee":"yes","ref":"CNG03","from":"Khu đô thị Times City","name":"Khu đô thị Times City - Bệnh viện Bệnh nhiệt đới Trung ương cơ sở 2","type":"route","route":"bus","charge":"8000 VND","network":"Hanoibus","interval":"00:15","operator":"Công ty TNHH Du lịch - Dịch vụ - Xây dựng Bảo Yến","public_transport:version":"2"},"12815002":{"to":"Bến xe Sơn Tây","ref":"CNG01","from":"Bến xe Mỹ Đình","name":"Bến xe Mỹ Đình - Bến xe Sơn Tây","type":"route","route":"bus","charge":"9000 VND","network":"Bảo Yến","interval":"00:15-00:20","operator":"Công ty TNHH Du lịch dịch vụ xây dựng Bảo Yến","opening_hours":"Mo-Su 05:00-20:00","public_transport:version":"2"},"12815003":{"to":"Bến xe Mỹ Đình","ref":"CNG01","from":"Bến xe Sơn Tây","name":"Bến xe Sơn Tây - Bến xe Mỹ Đình","type":"route","route":"bus","charge":"9000 VND","network":"Bảo Yến","interval":"00:15-00:20","operator":"Công ty TNHH Du lịch dịch vụ xây dựng Bảo Yến","opening_hours":"Mo-Su 05:00-20:00","public_transport:version":"2"},"12822101":{"to":"Bến xe Nước Ngầm","fee":"yes","ref":"16","from":"Bến xe Mỹ Đình","name":"Bến xe Mỹ Đình - Bến xe Nước Ngầm","type":"route","route":"bus","charge":"7000 VND","network":"Hanoibus","interval":"00:10","operator":"Xí Nghiệp Xe Buýt Thăng Long","opening_hours":"Mo-Su 04:40-21:20","public_transport:version":"2"},"12822102":{"to":"Bến xe Mỹ Đình","fee":"yes","ref":"16","from":"Bến xe Nước Ngầm","name":"Bến xe Nước Ngầm - Bến xe Mỹ Đình","type":"route","route":"bus","charge":"7000 VND","network":"Hanoibus","interval":"00:10","operator":"Xí Nghiệp Xe Buýt Thăng Long","opening_hours":"Mo-Su 04:40-21:20","public_transport:version":"2"},"12834879":{"to":"Bệnh viện nhiệt đới TW CS2","fee":"yes","ref":"60B","from":"Bến xe Nước Ngầm","name":"Bến xe Nước Ngầm - BV Bệnh nhiệt đới TƯ (CS2)","type":"route","route":"bus","charge":"8000 VND","network":"Bảo Yến","interval":"00:10-00:15","operator":"Công ty TNHH Du lịch dịch vụ xây dựng Bảo Yến","opening_hours":"Mo-Su 05:00-21:00","public_transport:version":"2"},"12835458":{"to":"Đại học Mỏ","fee":"yes","ref":"31","from":"Đại học Bách Khoa","name":"Bách Khoa - Chèm (Đại học Mỏ)","type":"route","route":"bus","charge":"7000 VND","network":"Hanoibus","interval":"00:10","operator":"Xí Nghiệp Xe Buýt Hà Nội","opening_hours":"Mo-Su 05:05-21:00","public_transport:version":"2"},"12835459":{"to":"Đại học Bách Khoa","fee":"yes","ref":"31","from":"Đại học Mỏ","name":"Chèm (Đại học Mỏ) - Bách Khoa","type":"route","route":"bus","charge":"7000 VND","network":"Hanoibus","operator":"Xí Nghiệp Xe Buýt Hà Nội","opening_hours":"Mo-Su 05:05-21:00","public_transport:version":"2"},"12845913":{"to":"Bến xe Nước Ngầm","fee":"yes","ref":"60B","from":"Bệnh viện nhiệt đới TW CS2","name":"BV Bệnh nhiệt đới TƯ (CS2) - Bến xe Nước Ngầm","type":"route","route":"bus","charge":"8000 VND","network":"Bảo Yến","interval":"00:10-00:15","operator":"Công ty TNHH Du lịch dịch vụ xây dựng Bảo Yến","opening_hours":"Mo-Su 05:00-20:30","public_transport:version":"2"},"12846290":{"to":"Nội Bài","fee":"yes","ref":"07","from":"Cầu Giấy","name":"Cầu Giấy - Nội Bài","type":"route","route":"bus","charge":"8000 VND","network":"TRANSERCO","interval":"00:10-00:15","operator":"Công ty cổ phần xe điện","opening_hours":"Mo-Su 05:00-21:00","public_transport:version":"2"},"12846291":{"to":"Cầu Giấy","fee":"yes","ref":"07","from":"Nội Bài","name":"Nội Bài - Cầu Giấy","type":"route","route":"bus","charge":"8000 VND","network":"TRANSERCO","interval":"00:10-00:15","operator":"Công ty cổ phần xe điện","opening_hours":"Mo-Su 05:05-22:05","public_transport:version":"2"},"12846900":{"to":"Bến xe Yên Nghĩa","ref":"01","from":"Bến xe Gia Lâm","name":"Bến xe Gia Lâm - Bến xe Yên Nghĩa","type":"route","route":"bus","charge":"7000 VND","network":"Xí Nghiệp Xe Buýt Hà Nội","interval":"00:10-00:15","operator":"TRANSERCO","opening_hours":"Mo-Su 05:00-21:00","public_transport:version":"2"},"12849886":{"to":"Cầu Giấy","fee":"yes","ref":"24","via":"Ngã Tư Sở","from":"Long Biên","name":"Long Biên - Ngã Tư Sở - Cầu Giấy","type":"route","route":"bus","charge":"7000 VND","network":"Hanoibus","interval":"00:12","operator":"Xí Nghiệp Xe Khách Nam","opening_hours":"Mo-Su 05:00-22:00","public_transport:version":"2"},"12849887":{"to":"Long Biên","fee":"yes","ref":"24","via":"Ngã Tư Sở","from":"Cầu Giấy","name":"Cầu Giấy - Ngã Tư Sở - Long Biên","type":"route","route":"bus","charge":"7000 VND","network":"Hanoibus","interval":"00:12","operator":"Xí Nghiệp Xe Khách Nam","opening_hours":"Mo-Su 05:00-22:00","public_transport:version":"2"},"12851814":{"to":"Bến xe Gia Lâm","ref":"01","from":"Bến xe Yên Nghĩa","name":"Bến xe Yên Nghĩa - Bến xe Gia Lâm","type":"route","route":"bus","charge":"7000 VND","network":"Xí Nghiệp Xe Buýt Hà Nội","interval":"00:10-00:15","operator":"TRANSERCO","opening_hours":"Mo-Su 05:05-21:00","public_transport:version":"2"},"12851968":{"to":"Bến xe Yên Nghĩa","ref":"02","from":"Bác Cổ","name":"Bác Cổ - Bến xe Yên Nghĩa","type":"route","route":"bus","charge":"7000 VND","network":"Xí nghiệp Xe buýt nhanh BRT Hà Nội","interval":"00:05-00:15","operator":"TRANSERCO","opening_hours":"Mo-Su 05:02-22:30","public_transport:version":"2"},"12853381":{"to":"Bác Cổ","ref":"02","from":"Bến xe Yên Nghĩa","name":"Bến xe Yên Nghĩa - Bác Cổ","type":"route","route":"bus","charge":"7000 VND","network":"Xí nghiệp Xe buýt nhanh BRT Hà Nội","interval":"00:05-00:15","operator":"TRANSERCO","opening_hours":"Mo-Su 05:00-22:31","public_transport:version":"2"},"12853752":{"to":"Mỹ Đình","ref":"104","from":"Bến xe Nước Ngầm","name":"Bến xe Nước Ngầm - Mỹ Đình","type":"route","route":"bus","charge":"7000 VND","network":"TRANSERCO","interval":"00:20-00:30","operator":"Trung tâm Tân Đạt","opening_hours":"Mo-Su 05:05-20:35","public_transport:version":"2"},"12857158":{"to":"Bến xe Nước Ngầm","ref":"104","from":"Mỹ Đình (Sân vận động Quốc gia Mỹ Đình)","name":"Bến xe Mỹ Đình - Bến xe Nước Ngầm","type":"route","route":"bus","charge":"7000 VND","network":"Trung tâm Tân Đạt","interval":"00:20-00:30","operator":"TRANSERCO","opening_hours":"Mo-Su 05:05-21:05","public_transport:version":"2"},"12861474":{"to":"Khu đô thị Dương Nội","fee":"yes","ref":"22C","from":"Bến xe Giáp Bát","name":"Bến xe Giáp Bát - Khu đô thị Dương Nội","type":"route","route":"bus","charge":"7000 VND","network":"Xí nghiệp xe Buýt Cầu Bươu","interval":"00:20-00:30","operator":"TRANSERCO","opening_hours":"Mo-Su 05:00-21:34","public_transport:version":"2"},"12862576":{"to":"AEON Mall Long Biên","fee":"yes","ref":"106","from":"Khu đô thị Mỗ Lao","name":"Khu đô thị Mỗ Lao - Trung tâm thương mại AEON Mall Long Biên","type":"route","route":"bus","charge":"7000 VND","network":"Hanoibus","interval":"00:20","operator":"Xí Nghiệp Xe Buýt Thăng Long","opening_hours":"Mo-Su 05:00-21:00","public_transport:version":"2"},"12862577":{"to":"Khu đô thị Mỗ Lao","fee":"yes","ref":"106","from":"AEON Mall Long Biên","name":"Trung tâm thương mại AEON Mall Long Biên - Khu đô thị Mỗ Lao","type":"route","route":"bus","charge":"7000 VND","network":"Hanoibus","interval":"00:20","operator":"Xí Nghiệp Xe Buýt Thăng Long","opening_hours":"Mo-Su 05:00-21:00","public_transport:version":"2"},"12863076":{"to":"Bến xe Giáp Bát","fee":"yes","ref":"22C","from":"Khu đô thị Dương Nội","name":"Khu đô thị Dương Nội - Bến xe Giáp Bát","type":"route","route":"bus","charge":"7000 VND","network":"Xí nghiệp xe Buýt Cầu Bươu","interval":"00:20-00:30","operator":"TRANSERCO","opening_hours":"Mo-Su 05:12-21:30","public_transport:version":"2"},"12864936":{"to":"Công viên nước Hồ Tây","fee":"yes","ref":"60A","from":"KĐT Pháp Vân Tứ Hiệp","name":"KĐT Pháp Vân, Tứ Hiệp - Công Viên Nước Hồ Tây","type":"route","route":"bus","charge":"8000 VND","network":"Bảo Yến","interval":"00:15-00:20","operator":"Công ty TNHH Du lịch dịch vụ xây dựng Bảo Yến","opening_hours":"Mo-Su 05:00-20:30","public_transport:version":"2"},"12868384":{"to":"KĐT Pháp Vân Tứ Hiệp","fee":"yes","ref":"60A","from":"CV Nước Hồ Tây","name":"Công Viên Nước Hồ Tây - KĐT Pháp Vân, Tứ Hiệp","type":"route","route":"bus","charge":"8000 VND","network":"Bảo Yến","interval":"00:15-00:20","operator":"Công ty TNHH Du lịch dịch vụ xây dựng Bảo Yến","opening_hours":"Mo-Su 05:00-21:00","public_transport:version":"2"},"12870761":{"to":"Đại Áng","ref":"12","from":"Công viên Nghĩa Đô","name":"Công viên Nghĩa Đô - Đại Áng","type":"route","route":"bus","charge":"7000 VND","network":"Trung tâm Tân Đạt","interval":"00:12-00:20","operator":"TRANSERCO","opening_hours":"Mo-Su 05:05-21:00","public_transport:version":"2"},"12872025":{"to":"Công viên Nghĩa Đô","ref":"12","from":"Đại Áng","name":"Đại Áng - Công viên Nghĩa Đô","type":"route","route":"bus","charge":"7000 VND","network":"Trung tâm Tân Đạt","interval":"00:12-00:20","operator":"TRANSERCO","opening_hours":"Mo-Su 05:05-21:00","public_transport:version":"2"},"12873873":{"to":"Đối diện Vincom Mega Mall Ocean Park","ref":"OCP01","from":"Đối diện điểm đỗ xe Ocean Park","name":"Ocean Park 01 (chiều đi)","type":"route","route":"bus","network":"VinBus","distance":"6","operator":"VinBus","opening_hours":"Mo-Su 05:30-22:00","public_transport:version":"2"},"12873874":{"to":"Đối diện nhà để xe Hải Âu","ref":"OCP01","from":"Điểm đỗ xe Ocean Park","name":"Ocean Park 01 (chiều về)","type":"route","route":"bus","network":"VinBus","operator":"VinBus","opening_hours":"Mo-Su 05:30-22:00","public_transport:version":"2"},"12876230":{"to":"Đối diện Vincom Mega Mall Ocean Park","ref":"OCP02","from":"Đối diện điểm đỗ xe Ocean Park","name":"Ocean Park 02 (chiều đi)","type":"route","route":"bus","network":"VinBus","distance":"6","operator":"VinBus","opening_hours":"Mo-Su 05:20-21:50","public_transport:version":"2"},"12876231":{"to":"Đối diện nhà để xe Hải Âu","ref":"OCP02","from":"Điểm đỗ xe Ocean Park","name":"Ocean Park 02 (chiều về)","type":"route","route":"bus","network":"VinBus","distance":"6","operator":"VinBus","opening_hours":"Mo-Su 05:20-21:50","public_transport:version":"2"},"12886475":{"to":"Công viên Nghĩa Đô","fee":"yes","ref":"97","from":"Hoài Đức","name":"Hoài Đức - Công viên Nghĩa Đô","type":"route","route":"bus","charge":"7000 VND","network":"Hanoibus","interval":"00:20","operator":"Xí Nghiệp Buýt 10-10","opening_hours":"Mo-Su 05:00-21:00","public_transport:version":"2"},"12886476":{"to":"Hoài Đức","fee":"yes","ref":"97","from":"Công viên Nghĩa Đô","name":"Công viên Nghĩa Đô - Hoài Đức","type":"route","route":"bus","charge":"7000 VND","network":"Hanoibus","interval":"00:20","operator":"Xí Nghiệp Buýt 10-10","opening_hours":"Mo-Su 05:00-21:00","public_transport:version":"2"},"12921723":{"to":"Bến xe Mỹ Đình","ref":"09B","from":"Bờ Hồ","name":"Bờ Hồ - Công viên Thống Nhất - Bến xe Mỹ Đình","type":"route","route":"bus","charge":"7000 VND","network":"Công ty CPVT & DV Liên Ninh","interval":"00:16","operator":"TRANSERCO","opening_hours":"Mo-Fr 05:00-20:00; Sa-Su 05:03-22:05","public_transport:version":"2"},"12921749":{"to":"Bến xe Gia Lâm","fee":"yes","ref":"03A","from":"Bến xe Giáp Bát","name":"Bến xe Giáp Bát - Bến xe Gia Lâm","type":"route","route":"bus","charge":"7000 VND","network":"Hanoibus","interval":"00:10","operator":"Xí nghiệp Xe buýt Hà Nội","opening_hours":"Mo-Su 05:03-21:03","public_transport:version":"2"},"12921750":{"to":"Bến xe Giáp Bát","fee":"yes","ref":"03A","from":"Bến xe Gia Lâm","name":"Bến xe Gia Lâm - Bến xe Giáp Bát","type":"route","route":"bus","charge":"7000 VND","network":"Hanoibus","interval":"00:10","operator":"Xí nghiệp Xe buýt Hà Nội","opening_hours":"Mo-Su 05:03-21:03","public_transport:version":"2"},"12921752":{"to":"Giang Biên","fee":"yes","ref":"03B","from":"Bến xe Nước Ngầm","name":"Bến xe Nước Ngầm - Giang Biên (Long Biên)","type":"route","route":"bus","charge":"7000 VND","network":"Hanoibus","interval":"00:20","operator":"Xí nghiệp Xe buýt Hà Nội","opening_hours":"Mo-Su 05:00-20:00","public_transport:version":"2"},"12921753":{"to":"Bến xe Nước Ngầm","fee":"yes","ref":"03B","from":"Giang Biên","name":"Giang Biên (Long Biên) - Bến xe Nước Ngầm","type":"route","route":"bus","charge":"7000 VND","network":"Hanoibus","interval":"00:20","operator":"Xí nghiệp Xe buýt Hà Nội","opening_hours":"Mo-Su 05:00-20:00","public_transport:version":"2"},"12921963":{"to":"Bờ Hồ","ref":"09B","from":"Bến xe Mỹ Đình","name":"Bến xe Mỹ Đình - Công viên Thống Nhất - Bờ Hồ","type":"route","route":"bus","charge":"7000 VND","network":"Công ty CPVT & DV Liên Ninh","interval":"00:16","operator":"TRANSERCO","opening_hours":"Mo-Fr 05:00-20:00; Sa-Su 05:01-22:05","public_transport:version":"2"},"12923435":{"to":"Điểm đỗ xe buýt xã Tam Hiệp","fee":"yes","ref":"161","from":"Bãi đỗ xe Cầu Giấy","name":"Cầu Giấy - Tam Hiệp","type":"route","route":"bus","charge":"7000 VND","network":"Bảo Yến","interval":"00:15-00:20","operator":"Công ty TNHH Du lịch dịch vụ xây dựng Bảo Yến","opening_hours":"Mo-Su 05:00-20:00","public_transport:version":"2"},"12923437":{"to":"Bãi Đỗ Xe Cầu Giấy","fee":"yes","ref":"161","from":"Điểm Đỗ Xe Buýt Xã Tam Hiệp","name":"Tam Hiệp - Cầu Giấy","type":"route","route":"bus","charge":"7000 VND","network":"Bảo Yến","interval":"00:15-00:20","operator":"Công ty TNHH Du lịch dịch vụ xây dựng Bảo Yến","opening_hours":"Mo-Su 05:00-20:00","public_transport:version":"2"},"12925243":{"to":"Bến xe Nam Thăng Long","ref":"27","from":"Bến xe Yên Nghĩa","name":"Bến xe Yên Nghĩa - Bến xe Nam Thăng Long","type":"route","route":"bus","charge":"7000 VND","network":"Công ty cổ phần xe điện","interval":"00:07-00:10","operator":"TRANSERCO","opening_hours":"Mo-Sa 05:30-21:14; Su 05:30-20:30","public_transport:version":"2"},"12926540":{"to":"Bát Tràng","fee":"yes","ref":"47A","from":"Long Biên","name":"Long Biên - Bát Tràng","type":"route","route":"bus","charge":"7000 VND","network":"Hanoibus","interval":"00:20","operator":"Công ty CPVT Newway","opening_hours":"Mo-Su 05:00-21:00","public_transport:version":"2"},"12926541":{"to":"Long Biên","fee":"yes","ref":"47A","from":"Bát Tràng","name":"Bát Tràng - Long Biên","type":"route","route":"bus","charge":"7000 VND","network":"Hanoibus","interval":"00:20","operator":"Công ty CPVT Newway","opening_hours":"Mo-Su 05:00-21:00","public_transport:version":"2"},"12926543":{"to":"Bến xe Giáp Bát","fee":"yes","ref":"25","from":"Bệnh viện Nhiệt đới Trung ương cơ sở 2","name":"Bệnh viện Nhiệt đới Trung ương cơ sở 2 - Bến xe Giáp Bát","type":"route","route":"bus","charge":"8000 VND","network":"Hanoibus","interval":"00:11","operator":"Công ty cổ phần xe điện","opening_hours":"Mo-Su 05:09-21:00","public_transport:version":"2"},"12926544":{"to":"Bệnh viện Nhiệt đới Trung ương cơ sở 2","fee":"yes","ref":"25","from":"Bến xe Giáp Bát","name":"Bến xe Giáp Bát - Bệnh viện Nhiệt đới Trung ương cơ sở 2","type":"route","route":"bus","charge":"8000 VND","network":"Hanoibus","interval":"00:11","operator":"Công ty cổ phần xe điện","opening_hours":"Mo-Su 05:09-21:00","public_transport:version":"2"},"12926933":{"to":"Bến xe Yên Nghĩa","ref":"27","from":"Bến xe Nam Thăng Long","name":"Bến xe Nam Thăng Long - Bến xe Yên Nghĩa","type":"route","route":"bus","charge":"7000 VND","network":"Công ty cổ phần xe điện","interval":"00:07-00:10","operator":"TRANSERCO","opening_hours":"Mo-Sa 05:30-21:00; Su 05:30-20:30","public_transport:version":"2"},"12928807":{"to":"Tân Lập","fee":"yes","ref":"29","from":"Bến xe Giáp Bát","name":"Bến xe Giáp Bát - Tân Lập","type":"route","route":"bus","charge":"7000 VND","network":"Xí Nghiệp Buýt 10-10","interval":"00:12","operator":"TRANSERCO","opening_hours":"Mo-Su 05:05-21:00","public_transport:version":"2"},"12930077":{"to":"Khu đô thị Vân Canh","fee":"yes","ref":"50","from":"Long Biên","name":"Long Biên - Khu đô thị Vân Canh","type":"route","route":"bus","charge":"7000 VND","network":"Hanoibus","interval":"00:17","operator":"Xí Nghiệp Buýt 10-10","opening_hours":"Mo-Su 05:00-21:00","public_transport:version":"2"},"12930078":{"to":"Long Biên","fee":"yes","ref":"50","from":"Khu đô thị Vân Canh","name":"Khu đô thị Vân Canh - Long Biên","type":"route","route":"bus","charge":"7000 VND","network":"Hanoibus","interval":"00:17","operator":"Xí Nghiệp Buýt 10-10","opening_hours":"Mo-Su 05:00-21:00","public_transport:version":"2"},"12940938":{"to":"Bến xe Giáp Bát","fee":"yes","ref":"29","from":"Tân Lập","name":"Tân Lập - Bến xe Giáp Bát","type":"route","route":"bus","charge":"7000 VND","network":"Xí Nghiệp Buýt 10-10","interval":"00:12","operator":"TRANSERCO","opening_hours":"Mo-Su 05:05-21:05","public_transport:version":"2"},"12955649":{"to":"Kiêu Kỵ","fee":"yes","ref":"47B","from":"Đại học Kinh tế Quốc dân","name":"Đại học Kinh tế Quốc dân - Kiêu Kỵ","type":"route","route":"bus","charge":"8000 VND","network":"Hanoibus","interval":"00:20","operator":"Công ty CPVT Newway","opening_hours":"Mo-Su 05:00-21:10","public_transport:version":"2"},"12955650":{"to":"Đại học Kinh tế Quốc dân","fee":"yes","ref":"47B","from":"Kiêu Kỵ","name":"Kiêu Kỵ - Đại học Kinh tế Quốc dân","type":"route","route":"bus","charge":"8000 VND","network":"Hanoibus","interval":"00:20","operator":"Công ty CPVT Newway","opening_hours":"Mo-Su 05:00-21:10","public_transport:version":"2"},"12966142":{"to":"Cổ Nhuế","fee":"yes","ref":"14","from":"Bờ Hồ","name":"Bờ Hồ - Cổ Nhuế","type":"route","route":"bus","charge":"7000 VND","network":"Hanoibus","interval":"00:10","operator":"Xí nghiệp Xe buýt Thăng Long","opening_hours":"Mo-Su 05:00-21:00","public_transport:version":"2"},"12966143":{"to":"Bờ Hồ","fee":"yes","ref":"14","from":"Cổ Nhuế","name":"Cổ Nhuế - Bờ Hồ","type":"route","route":"bus","charge":"7000 VND","network":"Hanoibus","interval":"00:10","operator":"Xí nghiệp Xe buýt Thăng Long","opening_hours":"Mo-Su 05:00-21:00","public_transport:version":"2"},"12969815":{"to":"Nhổn","ref":"49","from":"Trần Khánh Dư","name":"Trần Khánh Dư - Nhổn","type":"route","route":"bus","charge":"7000 VND","network":"Công ty Cổ phẩn xe khách","interval":"00:10-00:20","operator":"TRANSERCO","opening_hours":"Mo-Su 05:00-20:30","public_transport:version":"2"},"12978619":{"to":"Trần Khánh Dư","ref":"49","from":"Nhổn","name":"Nhổn - Trần Khánh Dư","type":"route","route":"bus","charge":"7000 VND","network":"Công ty Cổ phẩn xe khách","interval":"00:10-00:20","operator":"TRANSERCO","opening_hours":"Mo-Su 05:10-20:20","public_transport:version":"2"},"12978666":{"to":"Khu đô thị Đặng Xá","fee":"yes","ref":"100","from":"Long Biên","name":"Long Biên - Khu đô thị Đặng Xá","type":"route","route":"bus","charge":"7000 VND","network":"Hanoibus","interval":"00:20","operator":"Xí nghiệp Xe buýt Hà Nội","opening_hours":"Mo-Su 05:00-21:00","public_transport:version":"2"},"12978667":{"to":"Long Biên","fee":"yes","ref":"100","from":"Khu đô thị Đặng Xá","name":"Khu đô thị Đặng Xá - Long Biên","type":"route","route":"bus","charge":"7000 VND","network":"Hanoibus","interval":"00:20","operator":"Xí nghiệp Xe buýt Hà Nội","opening_hours":"Mo-Su 05:00-21:00","public_transport:version":"2"},"12981172":{"to":"Sân bay Nội Bài","ref":"86","from":"Ga Hà Nội","name":"Ga Hà Nội - Sân bay Nội Bài","type":"route","route":"bus","charge":"35000 VND","network":"Xí Nghiệp Xe Buýt Yên Viên","interval":"00:45-00:50","operator":"TRANSERCO","opening_hours":"Mo-Su 05:05-20:50","public_transport:version":"2"},"12981412":{"to":"Ga Hà Nội","ref":"86","from":"Sân bay Nội Bài","name":"Sân bay Nội Bài - Ga Hà Nội","type":"route","route":"bus","charge":"35000 VND","network":"Xí Nghiệp Xe Buýt Yên Viên","interval":"00:45-00:50","operator":"TRANSERCO","opening_hours":"Mo-Su 06:30-22:15","public_transport:version":"2"},"12989441":{"to":"Đông Mỹ","fee":"yes","ref":"08A","from":"Long Biên","name":"Long Biên - Đông Mỹ","type":"route","route":"bus","charge":"7000 VND","network":"TRANSERCO","operator":"Công ty Cổ phần Vận tải và Dịch vụ Liên Ninh","public_transport:version":"2"},"12991032":{"to":"Sân bay Nội Bài","fee":"yes","ref":"68","from":"Hà Đông","name":"Hà Đông - Sân bay Nội Bài","type":"route","route":"bus","charge":"40000 VND","network":"TRANSERCO","interval":"00:30","operator":"Xí nghiệp Xe khách Nam","opening_hours":"Mo-Su 05:00-21:30","public_transport:version":"2"},"12992621":{"to":"Hà Đông","fee":"yes","ref":"68","from":"Sân bay Nội Bài","name":"Sân bay Nội Bài - Hà Đông","type":"route","route":"bus","charge":"40000 VND","network":"Hanoibus","interval":"00:30","operator":"Xí nghiệp Xe khách Nam","opening_hours":"Mo-Su 06:32-23:02","public_transport:version":"2"},"12992973":{"to":"Long Biên","ref":"08A","from":"Đông Mỹ","name":"Đông Mỹ - Long Biên","type":"route","route":"bus","network":"Hanoibus","operator":"Công ty Cổ phần Vận tải và Dịch vụ Liên Ninh"},"12993137":{"to":"Vạn Phúc","ref":"08B","from":"Long Biên","name":"Long Biên - Vạn Phúc","type":"route","route":"bus","network":"Hanoibus","operator":"Công ty Cổ phần Vận tải và Dịch vụ Liên Ninh","public_transport:version":"2"},"12993848":{"to":"Khu công nghiệp Bắc Thăng Long","fee":"yes","ref":"122","from":"Bến xe Gia Lâm","name":"Bến xe Gia Lâm - Khu công nghiệp Bắc Thăng Long","type":"route","route":"bus","charge":"9000 VND","network":"Hanoibus","interval":"00:20","operator":"Công ty Cổ phẩn xe khách","opening_hours":"Mo-Su 05:00-21:00","public_transport:version":"2"},"12993849":{"to":"Bến xe Gia Lâm","fee":"yes","ref":"122","from":"Khu công nghiệp Bắc Thăng Long","name":"Khu công nghiệp Bắc Thăng Long - Bến xe Gia Lâm","type":"route","route":"bus","charge":"9000 VND","network":"Hanoibus","interval":"00:20","operator":"Công ty Cổ phẩn xe khách","opening_hours":"Mo-Su 05:00-21:00","public_transport:version":"2"},"12994669":{"to":"Sân bay Nội Bài","ref":"109","from":"Bến xe Mỹ Đình","name":"Mỹ Đình - Nội Bài","type":"route","route":"bus","charge":"8000 VND","network":"Công ty cổ phần xe điện","interval":"00:20-00:30","operator":"TRANSERCO","opening_hours":"Mo-Su 05:00-21:00","public_transport:version":"2"},"12996764":{"to":"Bến xe Mỹ Đình","ref":"109","from":"Sân Bay Nội Bài","name":"Nội Bài - Mỹ Đình","type":"route","route":"bus","charge":"8000 VND","network":"Công ty cổ phần xe điện","interval":"00:20-00:30","operator":"TRANSERCO","opening_hours":"Mo-Su 05:00-21:30","public_transport:version":"2"},"12997216":{"to":"Long Biên","ref":"08B","from":"Vạn Phúc","name":"Vạn Phúc - Long Biên","type":"route","route":"bus","network":"Hanoibus","operator":"Công ty Cổ phần Vận tải và Dịch vụ Liên Ninh","public_transport:version":"2"},"12997261":{"to":"Cổ Nhuế (học viện Cảnh sát Nhân dân)","ref":"13","from":"Công viên Nước Hồ Tây","name":"Công viên Nước Hồ Tây - Cổ Nhuế (học viện Cảnh sát Nhân dân)","type":"route","route":"bus","network":"Hanoibus","operator":"Xí nghiệp Buýt 10-10"},"12999023":{"to":"Sân bay Nội Bài","ref":"90","from":"Hào Nam","name":"Hào Nam - Cầu Nhật Tân - Sân bay Nội Bài","type":"route","route":"bus","charge":"9000 VND","network":"Xí Nghiệp Xe Buýt Yên Viên","interval":"00:20","operator":"TRANSERCO","opening_hours":"Mo-Su 05:30-19:30","public_transport:version":"2"},"13002700":{"to":"Hào Nam","ref":"90","via":"Cầu Nhật Tân","from":"Sân bay Nội Bài","name":"Sân bay Nội Bài - Cầu Nhật Tân - Hào Nam","type":"route","route":"bus","charge":"9000 VND","network":"Xí Nghiệp Xe Buýt Yên Viên","interval":"00:20","operator":"TRANSERCO","opening_hours":"Mo-Su 06:40-20:40","public_transport:version":"2"},"13004747":{"to":"Bến xe Yên Nghĩa","fee":"yes","ref":"21A","from":"Bến xe Giáp Bát","name":"Bến xe Giáp Bát - Bến xe Yên Nghĩa","type":"route","route":"bus","charge":"7000 VND","network":"Hanoibus","interval":"00:07","operator":"Công ty CPVT & DV Liên Ninh","opening_hours":"Mo-Su 05:00-21:00","public_transport:version":"2"},"13004748":{"to":"Bến xe Giáp Bát","fee":"yes","ref":"21A","from":"Bến xe Yên Nghĩa","name":"Bến xe Yên Nghĩa - Bến xe Giáp Bát","type":"route","route":"bus","charge":"7000 VND","network":"Hanoibus","interval":"00:07","operator":"Công ty CPVT & DV Liên Ninh","opening_hours":"Mo-Su 05:00-21:00","public_transport:version":"2"},"13004750":{"to":"Bến xe Mỹ Đình","fee":"yes","ref":"21B","from":"Khu đô thị Pháp Vân","name":"Khu đô thị Pháp Vân - Bến xe Mỹ Đình","type":"route","route":"bus","charge":"7000 VND","network":"Hanoibus","interval":"00:10","operator":"Công ty CPVT & DV Liên Ninh","opening_hours":"Mo-Su 05:02-21:05","public_transport:version":"2"},"13004751":{"to":"Khu đô thị Pháp Vân","fee":"yes","ref":"21B","from":"Bến xe Mỹ Đình","name":"Bến xe Mỹ Đình - Khu đô thị Pháp Vân","type":"route","route":"bus","charge":"7000 VND","network":"Hanoibus","interval":"00:10","operator":"Công ty CPVT & DV Liên Ninh","opening_hours":"Mo-Su 05:02-21:05","public_transport:version":"2"},"13009891":{"to":"Khu đô thị Trung Văn","fee":"yes","ref":"22A","from":"Bến xe Gia Lâm","name":"Bến xe Gia Lâm - Khu đô thị Trung Văn","type":"route","route":"bus","charge":"7000 VND","network":"Hanoibus","interval":"00:09","operator":"Xí nghiệp xe Buýt Cầu Bươu","opening_hours":"Mo-Su 05:00-22:00","public_transport:version":"2"},"13009892":{"to":"Bến xe Gia Lâm","fee":"yes","ref":"22A","from":"Khu đô thị Trung Văn","name":"Khu đô thị Trung Văn - Bến xe Gia Lâm","type":"route","route":"bus","charge":"7000 VND","network":"Hanoibus","interval":"00:09","operator":"Xí nghiệp xe Buýt Cầu Bươu","opening_hours":"Mo-Su 05:00-22:00","public_transport:version":"2"},"13009894":{"to":"Khu đô thị Kiến Hưng","fee":"yes","ref":"22B","from":"Bến xe Mỹ Đình","name":"Bến xe Mỹ Đình - Khu đô thị Kiến Hưng","type":"route","route":"bus","charge":"7000 VND","network":"Hanoibus","interval":"00:12","operator":"Xí nghiệp xe Buýt Cầu Bươu","opening_hours":"Mo-Su 05:00-22:30","public_transport:version":"2"},"13009895":{"to":"Bến xe Mỹ Đình","fee":"yes","ref":"22B","from":"Khu đô thị Kiến Hưng","name":"Khu đô thị Kiến Hưng - Bến xe Mỹ Đình","type":"route","route":"bus","charge":"7000 VND","network":"Hanoibus","interval":"00:12","operator":"Xí nghiệp xe Buýt Cầu Bươu","opening_hours":"Mo-Su 05:00-22:30","public_transport:version":"2"},"13012866":{"to":"Xuân Mai","fee":"yes","ref":"88","via":"Hòa Lạc","from":"Bến xe Mỹ Đình","name":"Bến xe Mỹ Đình - Hòa Lạc - Xuân Mai","type":"route","route":"bus","charge":"9000 VND","network":"Hanoibus","interval":"00:15","operator":"Xí nghiệp Xe khách Nam","opening_hours":"Mo-Su 05:05-18:30","public_transport:version":"2"},"13013860":{"to":"Bến xe Mỹ Đình","fee":"yes","ref":"88","via":"Hòa Lạc","from":"Xuân Mai","name":"Xuân Mai - Hòa Lạc - Bến xe Mỹ Đình","type":"route","route":"bus","charge":"9000 VND","network":"Hanoibus","interval":"00:15","operator":"Xí nghiệp Xe khách Nam","opening_hours":"Mo-Su 05:00-20:10","public_transport:version":"2"},"13015478":{"to":"Xuân Mai","fee":"yes","ref":"72","from":"Bến xe Yên Nghĩa","name":"Bến xe Yên Nghĩa - Xuân Mai","type":"route","route":"bus","charge":"7000 VND","network":"Hanoibus","interval":"00:15","operator":"Công ty cổ phần ô tô vận tải Hà Tây","opening_hours":"Mo-Su 05:00-21:00","public_transport:version":"2"},"13015479":{"to":"Bến xe Yên Nghĩa","fee":"yes","ref":"72","from":"Xuân Mai","name":"Xuân Mai - Bến xe Yên Nghĩa","type":"route","route":"bus","charge":"7000 VND","network":"Hanoibus","interval":"00:15","operator":"Công ty cổ phần ô tô vận tải Hà Tây","opening_hours":"Mo-Su 05:00-21:00","public_transport:version":"2"},"13025124":{"to":"Đại học Mỏ","fee":"yes","ref":"28","via":"Đông Ngạc","from":"Bến xe Nước Ngầm","name":"Bến xe Nước Ngầm - Đông Ngạc - Đại học Mỏ","type":"route","route":"bus","charge":"7000 VND","network":"Hanoibus","interval":"00:11","operator":"Xí Nghiệp Buýt 10-10","opening_hours":"Mo-Su 05:00-21:07","public_transport:version":"2"},"13025125":{"to":"Bến xe Nước Ngầm","fee":"yes","ref":"28","via":"Đông Ngạc","from":"Đại học Mỏ","name":"Đại học Mỏ - Đông Ngạc - Bến xe Nước Ngầm","type":"route","route":"bus","charge":"7000 VND","network":"Hanoibus","interval":"00:11","operator":"Xí Nghiệp Buýt 10-10","opening_hours":"Mo-Su 05:00-21:07","public_transport:version":"2"},"13030124":{"to":"Bến xe Hoài Đức","ref":"163","from":"Bến xe Yên Nghĩa","name":"Bến xe Yên Nghĩa - Hoài Đức","type":"route","route":"bus","charge":"9000 VND","network":"Bảo Yến","interval":"00:20-00:30","operator":"Công ty TNHH Du lịch dịch vụ xây dựng Bảo Yến","opening_hours":"Mo-Su 05:30-19:30","public_transport:version":"2"},"13030563":{"to":"Bến xe Yên Nghĩa","ref":"163","from":"Bến xe Hoài Đức","name":"Hoài Đức - Bến xe Yên Nghĩa","type":"route","route":"bus","charge":"9000 VND","network":"Bảo Yến","interval":"00:20-00:30","operator":"Công ty TNHH Du lịch dịch vụ xây dựng Bảo Yến","opening_hours":"Mo-Su 05:00-19:00","public_transport:version":"2"},"13042556":{"to":"Bến xe Sơn Tây","fee":"yes","ref":"20A","from":"Cầu Giấy","name":"Cầu Giấy - Bến xe Sơn Tây","type":"route","route":"bus","charge":"9000 VND","network":"Hanoibus","interval":"00:14","operator":"Xí Nghiệp Buýt 10-10","opening_hours":"Mo-Su 05:00-20:47","public_transport:version":"2"},"13042557":{"to":"Cầu Giấy","fee":"yes","ref":"20A","from":"Bến xe Sơn Tây","name":"Bến xe Sơn Tây - Cầu Giấy","type":"route","route":"bus","charge":"9000 VND","network":"Hanoibus","interval":"00:14","operator":"Xí Nghiệp Buýt 10-10","opening_hours":"Mo-Su 04:35-20:37","public_transport:version":"2"},"13069525":{"to":"Lệ Chi","ref":"52A","from":"Công viên Thống nhất","name":"Công viên Thống nhất - Lệ Chi","type":"route","route":"bus","charge":"8000 VND","network":"Xí Nghiệp Xe Buýt Hà Nội","interval":"00:17-00:25","operator":"TRANSERCO","opening_hours":"Mo-Su 05:00-21:00","public_transport:version":"2"},"13074271":{"to":"Dương Quang","fee":"yes","ref":"69","from":"Bác Cổ","name":"Bác Cổ - Dương Quang (Gia Lâm)","type":"route","route":"bus","charge":"8000 VND","network":"Hanoibus","interval":"00:20","operator":"Công ty CPVT Newway","opening_hours":"Mo-Su 05:00-20:00","public_transport:version":"2"},"13074272":{"to":"Bác Cổ","fee":"yes","ref":"69","from":"Dương Quang","name":"Dương Quang (Gia Lâm) - Bác Cổ","type":"route","route":"bus","charge":"8000 VND","network":"Hanoibus","interval":"00:20","operator":"Công ty CPVT Newway","opening_hours":"Mo-Su 05:00-20:00","public_transport:version":"2"},"13077850":{"to":"Thị trấn Đông Anh","fee":"yes","ref":"43","from":"Công viên Thống Nhất","name":"Công viên Thống Nhất - Thị trấn Đông Anh","type":"route","route":"bus","charge":"8000 VND","network":"Hanoibus","interval":"00:10","operator":"Chi nhánh công ty TNHH Bắc Hà","opening_hours":"Mo-Su 05:00-20:00","public_transport:version":"2"},"13077851":{"to":"Công viên Thống Nhất","fee":"yes","ref":"43","from":"Thị trấn Đông Anh","name":"Thị trấn Đông Anh - Công viên Thống Nhất","type":"route","route":"bus","charge":"8000 VND","network":"Hanoibus","interval":"00:10","operator":"Chi nhánh công ty TNHH Bắc Hà","opening_hours":"Mo-Su 05:00-20:00","public_transport:version":"2"},"13081171":{"to":"Bến xe Sơn Tây","fee":"yes","ref":"20B","from":"Nhổn","name":"Nhổn - Bến xe Sơn Tây","type":"route","route":"bus","charge":"9000 VND","network":"Hanoibus","interval":"00:22","operator":"Xí Nghiệp Buýt 10-10","opening_hours":"Mo-Su 05:00-20:04","public_transport:version":"2"},"13081172":{"to":"Nhổn","fee":"yes","ref":"20B","from":"Bến xe Sơn Tây","name":"Bến xe Sơn Tây - Nhổn","type":"route","route":"bus","charge":"9000 VND","network":"Hanoibus","interval":"00:22","operator":"Xí Nghiệp Buýt 10-10","opening_hours":"Mo-Su 05:00-20:04","public_transport:version":"2"},"13084716":{"to":"AEON Mall Long Biên","fee":"yes","ref":"98","via":"Gia Thụy","from":"Yên Phụ","name":"Yên Phụ - Gia Thụy - AEON Mall Long Biên","type":"route","route":"bus","charge":"7000 VND","network":"Hanoibus","interval":"00:20","operator":"Xí nghiệp Xe khách Nam","opening_hours":"Mo-Su 05:00-21:00","public_transport:version":"2"},"13084717":{"to":"Yên Phụ","fee":"yes","ref":"98","via":"Gia Thụy","from":"AEON Mall Long Biên","name":"AEON Mall Long Biên - Gia Thụy - Yên Phụ","type":"route","route":"bus","charge":"7000 VND","network":"Hanoibus","interval":"00:20","operator":"Xí nghiệp Xe khách Nam","opening_hours":"Mo-Su 05:00-21:00","public_transport:version":"2"},"13087477":{"to":"Bến xe Sơn Tây","fee":"yes","ref":"89","via":"Thạch Thất","from":"Bến xe Yên Nghĩa","name":"Bến xe Yên Nghĩa - Thạch Thất - Bến xe Sơn Tây","type":"route","route":"bus","charge":"9000 VND","network":"Hanoibus","interval":"00:20","operator":"Xí nghiệp Xe buýt nhanh BRT Hà Nội","opening_hours":"Mo-Su 05:00-20:46","public_transport:version":"2"},"13087478":{"to":"Bến xe Yên Nghĩa","fee":"yes","ref":"89","via":"Thạch Thất","from":"Bến xe Sơn Tây","name":"Bến xe Sơn Tây - Thạch Thất - Bến xe Yên Nghĩa","type":"route","route":"bus","charge":"9000 VND","network":"Hanoibus","interval":"00:20","operator":"Xí nghiệp Xe buýt nhanh BRT Hà Nội","opening_hours":"Mo-Su 05:00-20:46","public_transport:version":"2"},"13088554":{"to":"Cầu Giấy","ref":"105","from":"Đô Nghĩa","name":"Đô Nghĩa - Cầu Giấy","type":"route","route":"bus","network":"HanoiBus","operator":"Xí nghiệp Xe buýt nhanh BRT Hà Nội","opening_hours":"Mo-Su 05:00-21:00"},"13088869":{"to":"Xuân Mai","fee":"yes","ref":"115","from":"Thị trấn Vân Đình","name":"Thị trấn Vân Đình - Xuân Mai","type":"route","route":"bus","charge":"9000 VND","network":"Hanoibus","interval":"00:20","operator":"Trung tâm Tân Đạt","opening_hours":"Mo-Su 05:30-20:30","public_transport:version":"2"},"13088870":{"to":"Thị trấn Vân Đình","fee":"yes","ref":"115","from":"Xuân Mai","name":"Xuân Mai - Thị trấn Vân Đình","type":"route","route":"bus","charge":"9000 VND","network":"Hanoibus","interval":"00:20","operator":"Trung tâm Tân Đạt","opening_hours":"Mo-Su 05:30-20:30","public_transport:version":"2"},"13089093":{"to":"Miếu Môn","fee":"yes","ref":"114","from":"Bến xe Yên Nghĩa","name":"Bến xe Yên Nghĩa - Miếu Môn","type":"route","route":"bus","charge":"7000 VND","network":"Hanoibus","interval":"00:20","operator":"Xí nghiệp Xe buýt nhanh BRT Hà Nội","opening_hours":"Mo-Su 05:00-20:30","public_transport:version":"2"},"13089845":{"to":"Bến xe Yên Nghĩa","fee":"yes","ref":"114","from":"Miếu Môn","name":"Miếu Môn - Bến xe Yên Nghĩa","type":"route","route":"bus","charge":"7000 VND","network":"Hanoibus","interval":"00:20","operator":"Xí nghiệp Xe buýt nhanh BRT Hà Nội","opening_hours":"Mo-Su 05:00-21:00","public_transport:version":"2"},"13089847":{"to":"Thanh Lâm","fee":"yes","ref":"35B","from":"Nam Thăng Long","name":"Nam Thăng Long - Thanh Lâm","type":"route","route":"bus","charge":"7000 VND","network":"Hanoibus","interval":"00:15","operator":"Công ty cổ phần xe điện","opening_hours":"Mo-Su 05:05-20:00","public_transport:version":"2"},"13089848":{"to":"Nam Thăng Long","fee":"yes","ref":"35B","from":"Thanh Lâm","name":"Thanh Lâm - Nam Thăng Long","type":"route","route":"bus","charge":"7000 VND","network":"Hanoibus","interval":"00:15","operator":"Công ty cổ phần xe điện","opening_hours":"Mo-Su 05:05-20:00","public_transport:version":"2"},"13091198":{"to":"Phú Túc","fee":"yes","ref":"91","via":"Kim Bài","from":"Bến xe Yên Nghĩa","name":"Bến xe Yên Nghĩa - Kim Bài - Phú Túc","type":"route","route":"bus","charge":"8000 VND","network":"Hanoibus","interval":"00:13","operator":"Xí nghiệp Xe buýt nhanh BRT Hà Nội","opening_hours":"Mo-Su 05:00-20:40","public_transport:version":"2"},"13091199":{"to":"Bến xe Yên Nghĩa","fee":"yes","ref":"91","via":"Kim Bài","from":"Phú Túc","name":"Phú Túc - Kim Bài - Bến xe Yên Nghĩa","type":"route","route":"bus","charge":"8000 VND","network":"Hanoibus","interval":"00:13","operator":"Xí nghiệp Xe buýt nhanh BRT Hà Nội","opening_hours":"Mo-Su 05:00-21:30","public_transport:version":"2"},"13091438":{"to":"Đô Nghĩa","ref":"105","from":"Cầu Giấy","name":"Cầu Giấy - Đô Nghĩa","type":"route","route":"bus","network":"HanoiBus","operator":"Xí nghiệp Xe buýt nhanh BRT Hà Nội","opening_hours":"Mo-Su 05:00-21:00"},"13094893":{"to":"Thạch Đà (Mê Linh)","fee":"yes","ref":"112","from":"Nam Thăng Long","name":"Nam Thăng Long - Thạch Đà (Mê Linh)","type":"route","route":"bus","charge":"7000 VND","network":"Hanoibus","interval":"00:20","operator":"Xí nghiệp Xe buýt Yên Viên","opening_hours":"Mo-Su 04:45-19:42","public_transport:version":"2"},"13094894":{"to":"Nam Thăng Long","fee":"yes","ref":"112","from":"Thạch Đà (Mê Linh)","name":"Thạch Đà (Mê Linh) - Nam Thăng Long","type":"route","route":"bus","charge":"7000 VND","network":"Hanoibus","interval":"00:20","operator":"Xí nghiệp Xe buýt Yên Viên","opening_hours":"Mo-Su 05:19-20:16","public_transport:version":"2"},"13096087":{"to":"Bất Bạt (Ba Vì)","fee":"yes","ref":"119","from":"Hòa Lạc","name":"Hòa Lạc - Bất Bạt (Ba Vì)","type":"route","route":"bus","charge":"9000 VND","network":"Hanoibus","interval":"00:20","operator":"Xí nghiệp xe Buýt Cầu Bươu","opening_hours":"Mo-Su 05:30-20:30","public_transport:version":"2"},"13096088":{"to":"Hòa Lạc","fee":"yes","ref":"119","from":"Bất Bạt (Ba Vì)","name":"Bất Bạt (Ba Vì) - Hòa Lạc","type":"route","route":"bus","charge":"9000 VND","network":"Hanoibus","interval":"00:20","operator":"Xí nghiệp xe Buýt Cầu Bươu","opening_hours":"Mo-Su 05:00-19:50","public_transport:version":"2"},"13098265":{"to":"Làng văn hóa du lịch các dân tộc Việt Nam","fee":"yes","ref":"107","from":"Kim Mã","name":"Kim Mã - Làng văn hóa du lịch các dân tộc Việt Nam","type":"route","route":"bus","charge":"9000 VND","network":"Hanoibus","interval":"00:15","operator":"Xí nghiệp Xe buýt Thăng Long","opening_hours":"Mo-Su 05:00-20:50","public_transport:version":"2"},"13098266":{"to":"Kim Mã","fee":"yes","ref":"107","from":"Làng văn hóa du lịch các dân tộc Việt Nam","name":"Làng văn hóa du lịch các dân tộc Việt Nam - Kim Mã","type":"route","route":"bus","charge":"9000 VND","network":"Hanoibus","interval":"00:15","operator":"Xí nghiệp Xe buýt Thăng Long","opening_hours":"Mo-Su 05:00-20:50","public_transport:version":"2"},"13101149":{"to":"Phùng","fee":"yes","ref":"66","from":"Bến xe Yên Nghĩa","name":"Bến xe Yên Nghĩa - Phùng","type":"route","route":"bus","charge":"8000 VND","network":"Hanoibus","interval":"00:20","operator":"Xí nghiệp Xe buýt nhanh BRT Hà Nội","opening_hours":"Mo-Su 05:00-20:30","public_transport:version":"2"},"13101150":{"to":"Bến xe Yên Nghĩa","fee":"yes","ref":"66","from":"Phùng","name":"Phùng - Bến xe Yên Nghĩa","type":"route","route":"bus","charge":"8000 VND","network":"Hanoibus","interval":"00:20","operator":"Xí nghiệp Xe buýt nhanh BRT Hà Nội","opening_hours":"Mo-Su 05:00-20:30","public_transport:version":"2"},"13104206":{"to":"Tây Đằng","fee":"yes","ref":"92","via":"Sơn Tây","from":"Nhổn","name":"Nhổn - Sơn Tây - Tây Đằng","type":"route","route":"bus","charge":"9000 VND","network":"Hanoibus","interval":"00:10","operator":"Xí nghiệp Buýt 10-10","opening_hours":"Mo-Su 05:00-20:30","public_transport:version":"2"},"13104207":{"to":"Nhổn","fee":"yes","ref":"92","via":"Sơn Tây","from":"Tây Đằng","name":"Tây Đằng - Sơn Tây - Nhổn","type":"route","route":"bus","charge":"9000 VND","network":"Hanoibus","interval":"00:10","operator":"Xí nghiệp Buýt 10-10","opening_hours":"Mo-Su 04:30-20:35","public_transport:version":"2"},"13106487":{"to":"Hương Sơn","fee":"yes","ref":"103A","from":"Bến xe Mỹ Đình","name":"Bến xe Mỹ Đình - Hương Sơn","type":"route","route":"bus","charge":"9000 VND","network":"Hanoibus","interval":"00:15","operator":"Xí nghiệp xe Buýt Cầu Bươu","opening_hours":"Mo-Su 05:02-20:00","public_transport:version":"2"},"13106488":{"to":"Bến xe Mỹ Đình","fee":"yes","ref":"103A","from":"Hương Sơn","name":"Hương Sơn - Bến xe Mỹ Đình","type":"route","route":"bus","charge":"9000 VND","network":"Hanoibus","interval":"00:15","operator":"Xí nghiệp xe Buýt Cầu Bươu","opening_hours":"Mo-Su 05:02-20:00","public_transport:version":"2"},"13112002":{"to":"Cầu Giẽ","fee":"yes","ref":"06A","from":"Bến xe Giáp Bát","name":"Bến xe Giáp Bát - Cầu Giẽ","type":"route","route":"bus","charge":"9000 VND","network":"Hanoibus","interval":"00:10","operator":"Trung tâm Tân Đạt","opening_hours":"Mo-Su 05:00-21:00","public_transport:version":"2"},"13112003":{"to":"Bến xe Giáp Bát","fee":"yes","ref":"06A","from":"Cầu Giẽ","name":"Cầu Giẽ - Bến xe Giáp Bát","type":"route","route":"bus","charge":"9000 VND","network":"Hanoibus","interval":"00:10","operator":"Trung tâm Tân Đạt","opening_hours":"Mo-Su 05:00-21:00","public_transport:version":"2"},"13113492":{"to":"Núi Đôi","fee":"yes","ref":"56A","from":"Bến xe Nam Thăng Long","name":"Bến xe Nam Thăng Long - Núi Đôi","type":"route","route":"bus","charge":"8000 VND","network":"Hanoibus","interval":"00:15","operator":"Công ty cổ phần xe điện","opening_hours":"Mo-Su 04:35-21:35","public_transport:version":"2"},"13113493":{"to":"Bến xe Nam Thăng Long","fee":"yes","ref":"56A","from":"Núi Đôi","name":"Núi Đôi - Bến xe Nam Thăng Long","type":"route","route":"bus","charge":"8000 VND","network":"Hanoibus","interval":"00:15","operator":"Công ty cổ phần xe điện","opening_hours":"Mo-Su 04:35-21:35","public_transport:version":"2"},"13113495":{"to":"Xuân Khanh","fee":"yes","ref":"74","from":"Bến xe Mỹ Đình","name":"Bến xe Mỹ Đình - Xuân Khanh","type":"route","route":"bus","charge":"9000 VND","network":"Hanoibus","interval":"00:10","operator":"Chi nhánh công ty LD vận chuyển quốc tế Hải Vân","opening_hours":"Mo-Su 05:00-20:30","public_transport:version":"2"},"13113496":{"to":"Bến xe Mỹ Đình","fee":"yes","ref":"74","from":"Xuân Khanh","name":"Xuân Khanh - Bến xe Mỹ Đình","type":"route","route":"bus","charge":"9000 VND","network":"Hanoibus","interval":"00:10","operator":"Chi nhánh công ty LD vận chuyển quốc tế Hải Vân","opening_hours":"Mo-Su 05:00-20:30","public_transport:version":"2"},"13114783":{"to":"Học viện Phật giáo Việt Nam","fee":"yes","ref":"56B","from":"Học viện Phật giáo Việt Nam","name":"Học viện Phật giáo Việt Nam - Xuân Giang - Bắc Phú - Học viện Phật giáo Việt Nam","type":"route","route":"bus","charge":"8000 VND","network":"Hanoibus","interval":"00:20","operator":"Công ty cổ phần xe điện","roundtrip":"yes","opening_hours":"Mo-Su 04:50-18:40","public_transport:version":"2"},"13114784":{"to":"Học viện Phật giáo Việt Nam","fee":"yes","ref":"56B","from":"Học viện Phật giáo Việt Nam","name":"Học viện Phật giáo Việt Nam - Bắc Phú - Xuân Giang - Học viện Phật giáo Việt Nam","type":"route","route":"bus","charge":"8000 VND","network":"Hanoibus","interval":"00:20","operator":"Công ty cổ phần xe điện","roundtrip":"yes","opening_hours":"Mo-Su 04:50-18:40","public_transport:version":"2"},"13123383":{"to":"Hồng Vân","fee":"yes","ref":"06B","from":"Bến xe Giáp Bát","name":"Bến xe Giáp Bát - Hồng Vân","type":"route","route":"bus","charge":"7000 VND","network":"Hanoibus","interval":"00:40","operator":"Trung tâm Tân Đạt","opening_hours":"Mo-Su 05:00-21:00","public_transport:version":"2"},"13123384":{"to":"Bến xe Giáp Bát","fee":"yes","ref":"06B","from":"Hồng Vân","name":"Hồng Vân - Bến xe Giáp Bát","type":"route","route":"bus","charge":"7000 VND","network":"Hanoibus","interval":"00:40","operator":"Trung tâm Tân Đạt","opening_hours":"Mo-Su 05:00-21:00","public_transport:version":"2"},"13123386":{"to":"Phú Minh","fee":"yes","ref":"06C","from":"Bến xe Giáp Bát","name":"Bến xe Giáp Bát - Phú Minh","type":"route","route":"bus","charge":"8000 VND","network":"Hanoibus","interval":"00:30","operator":"Trung tâm Tân Đạt","opening_hours":"Mo-Su 05:00-21:00","public_transport:version":"2"},"13123387":{"to":"Bến xe Giáp Bát","fee":"yes","ref":"06C","from":"Phú Minh","name":"Phú Minh - Bến xe Giáp Bát","type":"route","route":"bus","charge":"8000 VND","network":"Hanoibus","interval":"00:30","operator":"Trung tâm Tân Đạt","opening_hours":"Mo-Su 05:00-21:00","public_transport:version":"2"},"13123897":{"to":"Trung Mầu","fee":"yes","ref":"10B","from":"Long Biên","name":"Long Biên - Trung Mầu","type":"route","route":"bus","charge":"7000 VND","network":"Hanoibus","interval":"00:25","operator":"Xí nghiệp Xe buýt Yên Viên","opening_hours":"Mo-Su 05:00-20:20","public_transport:version":"2"},"13123898":{"to":"Long Biên","fee":"yes","ref":"10B","from":"Trung Mầu","name":"Trung Mầu - Long Biên","type":"route","route":"bus","charge":"7000 VND","network":"Hanoibus","interval":"00:25","operator":"Xí nghiệp Xe buýt Yên Viên","opening_hours":"Mo-Su 05:00-20:20","public_transport:version":"2"},"13224090":{"to":"Tân Dân","fee":"yes","ref":"06D","from":"Bến xe Giáp Bát","name":"Bến xe Giáp Bát - Tân Dân","type":"route","route":"bus","charge":"9000 VND","network":"Hanoibus","interval":"00:40","operator":"Xí nghiệp xe Buýt Cầu Bươu","opening_hours":"Mo-Su 05:25-20:00","public_transport:version":"2"},"13224091":{"to":"Bến xe Giáp Bát","fee":"yes","ref":"06D","from":"Tân Dân","name":"Tân Dân - Bến xe Giáp Bát","type":"route","route":"bus","charge":"9000 VND","network":"Hanoibus","interval":"00:40","operator":"Xí nghiệp xe Buýt Cầu Bươu","opening_hours":"Mo-Su 05:25-20:00","public_transport:version":"2"},"13224093":{"to":"Phú Túc","fee":"yes","ref":"06E","from":"Bến xe Giáp Bát","name":"Bến xe Giáp Bát - Phú Túc","type":"route","route":"bus","charge":"9000 VND","network":"Hanoibus","interval":"00:25","operator":"Xí nghiệp xe Buýt Cầu Bươu","opening_hours":"Mo-Su 05:15-19:45","public_transport:version":"2"},"13224094":{"to":"Bến xe Giáp Bát","fee":"yes","ref":"06E","from":"Phú Túc","name":"Phú Túc - Bến xe Giáp Bát","type":"route","route":"bus","charge":"9000 VND","network":"Hanoibus","interval":"00:25","operator":"Xí nghiệp xe Buýt Cầu Bươu","opening_hours":"Mo-Su 05:15-19:45","public_transport:version":"2"},"13509466":{"to":"Khu đô thị Ocean Park","fee":"yes","ref":"E03","from":"Mỹ Đình","name":"Mỹ Đình (Hàm Nghi) - Khu đô thị Ocean Park","type":"route","route":"bus","charge":"9000 VND","network":"Hanoibus","distance":"31","duration":"02:00","interval":"00:25","operator":"VinBus","opening_hours":"Mo-Su 05:30-21:00","public_transport:version":"2"},"13509467":{"to":"Mỹ Đình","fee":"yes","ref":"E03","from":"Khu đô thị Ocean Park","name":"Khu đô thị Ocean Park - Mỹ Đình (Hàm Nghi)","type":"route","route":"bus","charge":"9000 VND","network":"Hanoibus","distance":"31","duration":"02:00","interval":"00:25","operator":"VinBus","opening_hours":"Mo-Su 05:30-21:00"},"13527812":{"to":"Nhà xe Parking Zone 1","fee":"no","ref":"SMC01","from":"Điểm đỗ xe buýt Smart City","name":"Smart City 01","type":"route","route":"bus","network":"VinBus","distance":"7","duration":"00:22","interval":"00:11","operator":"VinBus","roundtrip":"yes","opening_hours":"Mo-Su 05:30-22:00","public_transport:version":"2"},"13531139":{"to":"Vân Đình","fee":"yes","ref":"102","from":"Bến xe Yên Nghĩa","name":"Bến xe Yên Nghĩa - Vân Đình","type":"route","route":"bus","charge":"9000 VND","network":"Hanoibus","interval":"00:20","operator":"Xí nghiệp Xe buýt nhanh BRT Hà Nội","opening_hours":"Mo-Su 05:00-21:20","public_transport:version":"2"},"13531140":{"to":"Bến xe Yên Nghĩa","fee":"yes","ref":"102","from":"Vân Đình","name":"Vân Đình - Bến xe Yên Nghĩa","type":"route","route":"bus","charge":"9000 VND","network":"Hanoibus","interval":"00:20","operator":"Xí nghiệp Xe buýt nhanh BRT Hà Nội","opening_hours":"Mo-Su 05:00-21:20","public_transport:version":"2"},"13534191":{"to":"Khu đô thị Smart City","fee":"yes","ref":"E05","via":"Cầu Giấy","from":"Long Biên","name":"Long Biên - Cầu Giấy - Khu đô thị Smart City","type":"route","route":"bus","charge":"7000 VND","network":"Hanoibus","distance":"20","interval":"00:30","operator":"VinBus","opening_hours":"Mo-Su 05:30-21:00","public_transport:version":"2"},"13534192":{"to":"Long Biên","fee":"yes","ref":"E05","via":"Cầu Giấy","from":"Khu đô thị Smart City","name":"Khu đô thị Smart City - Cầu Giấy - Long Biên","type":"route","route":"bus","charge":"7000 VND","network":"Hanoibus","distance":"20","interval":"00:30","operator":"VinBus","opening_hours":"Mo-Su 05:30-21:00","public_transport:version":"2"},"13556165":{"to":"Khu đô thị Linh Đàm","fee":"yes","ref":"84","from":"Cầu Diễn","name":"Cầu Diễn - Khu đô thị Linh Đàm","type":"route","route":"bus","charge":"7000 VND","network":"Hanoibus","interval":"00:20","operator":"Xí nghiệp xe Buýt Cầu Bươu","opening_hours":"Mo-Su 05:00-21:00","public_transport:version":"2"},"13556166":{"to":"Cầu Diễn","fee":"yes","ref":"84","from":"Khu đô thị Linh Đàm","name":"Khu đô thị Linh Đàm - Cầu Diễn","type":"route","route":"bus","charge":"7000 VND","network":"Hanoibus","interval":"00:20","operator":"Xí nghiệp xe Buýt Cầu Bươu","opening_hours":"Mo-Su 05:00-21:00","public_transport:version":"2"},"13578721":{"to":"Khu đô thị Ocean Park","fee":"yes","ref":"E01","from":"Bến xe Mỹ Đình","name":"Bến xe Mỹ Đình - Khu đô thị Ocean Park","type":"route","route":"bus","charge":"8000 VND","network":"Hanoibus","distance":"28","interval":"00:30","operator":"VinBus","opening_hours":"Mo-Su 05:30-21:00","public_transport:version":"2"},"13578722":{"to":"Bến xe Mỹ Đình","fee":"yes","ref":"E01","from":"Khu đô thị Ocean Park","name":"Khu đô thị Ocean Park - Bến xe Mỹ Đình","type":"route","route":"bus","charge":"8000 VND","network":"Hanoibus","distance":"28","interval":"00:30","operator":"VinBus","opening_hours":"Mo-Su 05:30-21:00","public_transport:version":"2"},"13640632":{"to":"Bến xe Án Sương","ref":"74","from":"Bến xe Củ Chi","name":"Tuyến xe buýt Thành phố Hồ Chí Minh - Tuyến 74 - Bến xe Củ Chi -> Bến xe An Sương","type":"route","route":"bus","network":"Tuyến xe buýt Thành phố Hồ Chí Minh","operator":"Hợp tác xã vận tải liên tỉnh và du lịch Việt Thắng"},"13753989":{"to":"Bến xe buýt Chợ Lớn","ref":"01","from":"Bến Thành","name":"Bến Thành → Bến xe buýt Chợ Lớn","type":"route","route":"bus","public_transport:version":"2"},"13757955":{"to":"Crescent Mall","fee":"yes","ref":"D2","from":"Sky Garden","name":"Tuyến xe buýt Thành phố Hồ Chí Minh - Tuyến D2 → Crescent Mall","type":"route","route":"bus","charge":"10000đ","network":"Tuyến xe buýt Thành phố Hồ Chí Minh","operator":"Công ty TNHH Thương mại Dịch vụ Công cộng Đô thị mới Phố Cảnh","opening_hours":"08:00-21:30","public_transport:version":"2"},"13757956":{"to":"Sky Garden","ref":"D2","from":"Crescent Mall","name":"Crescent Mall → Sky Garden","type":"route","route":"bus"},"13880267":{"to":"Tòa nhà S4.01","ref":"SMC02","from":"Điểm đỗ xe buýt Smart City","name":"Smart City 02","type":"route","route":"bus","network":"VinBus","distance":"6","interval":"00:10","operator":"VinBus","roundtrip":"yes","opening_hours":"Mo-Su 05:25-22:05"},"13925453":{"to":"Khu đô thị Ocean Park","fee":"yes","ref":"E02","from":"Hào Nam","name":"Hào Nam - Khu đô thị Ocean Park","type":"route","route":"bus","charge":"8000 VND","network":"Hanoibus","distance":"26","interval":"00:20","operator":"VinBus","start_date":"2022-03-15","opening_hours":"Mo-Su 05:00-22:00"},"13929270":{"to":"Hào Nam","fee":"yes","ref":"E02","from":"Khu đô thị Ocean Park","name":"Khu đô thị Ocean Park - Hào Nam","type":"route","route":"bus","charge":"8000 VND","network":"Hanoibus","distance":"26","interval":"00:20","operator":"VinBus","start_date":"2022-03-15","opening_hours":"Mo-Su 05:00-22:00"},"14030404":{"to":"Khu đô thị Smart City","fee":"yes","ref":"E06","from":"Bến xe Giáp Bát","name":"Bến xe Giáp Bát - Khu đô thị Smart City","type":"route","route":"bus","charge":"7000 VND","network":"Hanoibus","interval":"00:20","operator":"VinBus","opening_hours":"Mo-Su 05:00-21:00","public_transport:version":"2"},"14030405":{"to":"Bến xe Giáp Bát","fee":"yes","ref":"E06","from":"Khu đô thị Smart City","name":"Khu đô thị Smart City - Bến xe Giáp Bát","type":"route","route":"bus","charge":"7000 VND","network":"Hanoibus","interval":"00:20","operator":"VinBus","opening_hours":"Mo-Su 05:00-21:00"},"14062704":{"to":"Khu đô thị Smart City","fee":"yes","ref":"E07","via":"Bờ Hồ","from":"Long Biên","name":"Long Biên - Bờ Hồ - Khu đô thị Smart City","type":"route","route":"bus","charge":"7000 VND","network":"Hanoibus","distance":"16","interval":"00:20","operator":"VinBus","opening_hours":"Mo-Su 05:00-21:00"},"14062705":{"to":"Long Biên","fee":"yes","ref":"E07","via":"Bờ Hồ","from":"Khu đô thị Smart City","name":"Khu đô thị Smart City - Bờ Hồ - Long Biên","type":"route","route":"bus","charge":"7000 VND","network":"Hanoibus","distance":"16","interval":"00:20","operator":"VinBus","opening_hours":"Mo-Su 05:00-21:00"},"14125256":{"to":"Khu đô thị Times City","fee":"yes","ref":"E08","via":"Khu Ngoại giao đoàn","from":"Khu liên cơ Sở ngành Hà Nội","name":"Khu liên cơ Sở ngành Hà Nội - Khu Ngoại giao đoàn - Khu đô thị Times City","type":"route","route":"bus","charge":"7000 VND","network":"Hanoibus","distance":"17","interval":"00:20","operator":"VinBus","opening_hours":"Mo-Su 05:00-21:00"},"14125372":{"to":"Khu liên cơ Sở ngành Hà Nội","fee":"yes","ref":"E08","via":"Khu Ngoại giao đoàn","from":"Khu đô thị Times City","name":"Khu đô thị Times City - Khu Ngoại giao đoàn - Khu liên cơ Sở ngành Hà Nội","type":"route","route":"bus","charge":"7000 VND","network":"Hanoibus","distance":"17","interval":"00:20","operator":"VinBus","opening_hours":"Mo-Su 05:00-21:00"},"14218715":{"to":"Công viên nước Hồ Tây","fee":"yes","ref":"E09","via":"Đường Thanh Niên","from":"Khu đô thị Smart City","name":"Khu đô thị Smart City - Đường Thanh Niên - Công viên nước Hồ Tây","type":"route","route":"bus","charge":"7000 VND","network":"Hanoibus","interval":"00:20","operator":"VinBus","opening_hours":"Mo-Su 05:00-21:00"},"14220728":{"to":"Khu đô thị Smart City","fee":"yes","ref":"E09","via":"Đường Thanh Niên","from":"Công viên nước Hồ Tây","name":"Công viên nước Hồ Tây - Đường Thanh Niên - Khu đô thị Smart City","type":"route","route":"bus","charge":"7000 VND","network":"Hanoibus","interval":"00:20","operator":"VinBus","opening_hours":"Mo-Su 05:00-21:00"},"14343665":{"to":"Điểm Đỗ Xe Buýt Hào Nam (B)","ref":"146","from":"Điểm Đỗ Xe Buýt Hào Nam (A)","name":"Hào Nam (ga Cát Linh) - Hào Nam (ga Cát Linh)","type":"route","route":"bus","operator":"Hanoibus - Xe buýt Hà Nội"},"14343675":{"to":"Thị trấn Đông Anh (ngã ba xay sát Đông Quan)","ref":"143","from":"Hào Nam (Ga Cát Linh)","name":"Hào Nam - Thị trấn Đông Anh","type":"route","route":"bus","operator":"Bảo Yến Bus"},"14358972":{"ref":"B2","name":"Tuyến xe buýt B2 TP.Đồng Hới - TT.Kiến Giang","type":"route","route":"bus","distance":"55 km"},"14359073":{"to":"Chợ Ba Đồn","ref":"B1","from":"Nhà Văn Hóa Phường Đồng Sơn","name":"Tuyến xe buýt B1 TP.Đồng Hới - TX. Ba Đồn","type":"route","route":"bus"},"14542111":{"to":"Trung tâm du lịch Phong Nha","ref":"B4","from":"Xã Quang Phú","name":"Tuyến xe buýt B4 Đồng Hới - Phong Nha","type":"route","route":"bus"},"14542373":{"ref":"B2","name":"Tuyến xe buýt B2 TT.Kiến Giang - TP.Đồng Hới","type":"route","route":"bus","distance":"55 km"},"14542374":{"to":"Xã Quang Phú","ref":"B4","from":"Trung tâm du lịch Phong Nha","name":"Tuyến xe buýt B4  Phong Nha - Đồng Hới","type":"route","route":"bus"},"14542375":{"to":"Nhà Văn Hóa Phường Đồng Sơn","ref":"B1","from":"Chợ Ba Đồn","name":"Tuyến xe buýt B1 TX. Ba Đồn - TP.Đồng Hới","type":"route","route":"bus"},"14576830":{"to":"Chương Mỹ","fee":"yes","ref":"37","from":"Bến xe Giáp Bát","name":"Bến xe Giáp Bát - Chương Mỹ","type":"route","route":"bus","charge":"7000 VND","network":"TRANSERCO","interval":"00:10-00:20","operator":"Công ty CPVT & DV Liên Ninh","opening_hours":"Mo-Su 05:06-21:01","public_transport:version":"2"},"14580500":{"to":"Bến xe Giáp Bát","fee":"yes","ref":"37","from":"Chương Mỹ","name":"Chương Mỹ - Bến xe Giáp Bát","type":"route","route":"bus","charge":"7000 VND","network":"TRANSERCO","interval":"00:10-00:20","operator":"Công ty CPVT & DV Liên Ninh","opening_hours":"Mo-Su 05:06-21:02","public_transport:version":"2"},"14587157":{"to":"Vincom Long Biên","fee":"yes","ref":"E04","from":"Khu đô thị Smart City","name":"Khu đô thị Smart City - Vincom Long Biên","type":"route","route":"bus","charge":"8000 VND","network":"Hanoibus","distance":"29","interval":"00:23","operator":"VinBus","wheelchair":"yes","opening_hours":"Mo-Su 05:00-21:00","public_transport:version":"2"},"14587158":{"to":"Khu đô thị Smart City","fee":"yes","ref":"E04","from":"Vincom Long Biên","name":"Vincom Long Biên - Khu đô thị Smart City","type":"route","route":"bus","charge":"8000 VND","network":"Hanoibus","distance":"29","interval":"00:23","operator":"VinBus","wheelchair":"yes","opening_hours":"Mo-Su 05:00-21:00","public_transport:version":"2"},"14716819":{"to":"Học viện chính sách và phát triển","fee":"yes","ref":"19","from":"Trần Khánh Dư","name":"Trần Khánh Dư - Học viện chính sách và phát triển","type":"route","route":"bus","charge":"8000 VND","network":"TRANSERCO","interval":"00:15","operator":"Công ty CPVT & DV Liên Ninh","opening_hours":"Mo-Su 05:00-21:00","public_transport:version":"2"},"14717320":{"to":"Trần Khánh Dư","fee":"yes","ref":"19","from":"Học viện chính sách và phát triển","name":"Học viện chính sách và phát triển - Trần Khánh Dư","type":"route","route":"bus","charge":"8000 VND","network":"TRANSERCO","interval":"00:15","operator":"Công ty CPVT & DV Liên Ninh","opening_hours":"Mo-Su 05:00-21:00","public_transport:version":"2"},"14741388":{"to":"Nghi Tàm","fee":"yes","ref":"41","from":"Bến Xe Giáp Bát","name":"Bến Xe Giáp Bát - Nghi Tàm","type":"route","route":"bus","charge":"7000 VND","network":"TRANSERCO","interval":"00:20","operator":"Chi nhánh công ty TNHH Bắc Hà","opening_hours":"Mo-Su 05:00-21:00","public_transport:version":"2"},"14744609":{"to":"Bến Xe Giáp Bát","fee":"yes","ref":"41","from":"Nghi Tàm","name":"Nghi Tàm - Bến Xe Giáp Bát","type":"route","route":"bus","charge":"7000 VND","network":"TRANSERCO","interval":"00:20","operator":"Chi nhánh công ty TNHH Bắc Hà","opening_hours":"Mo-Su 05:00-19:50","public_transport:version":"2"},"14745461":{"to":"Nhổn","fee":"yes","ref":"32","from":"Bến xe Giáp Bát","name":"Bến xe Giáp Bát - Nhổn","type":"route","route":"bus","charge":"7000 VND","network":"TRANSERCO","interval":"00:20","operator":"Xí nghiệp xe Buýt Cầu Bươu","opening_hours":"05:00-22:30","public_transport:version":"2"},"14745594":{"to":"Bến xe Giáp Bát","fee":"yes","ref":"32","from":"Nhổn","name":"Nhổn - Bến xe Giáp Bát","type":"route","route":"bus","charge":"7000 VND","network":"TRANSERCO","interval":"00:20","operator":"Xí nghiệp xe Buýt Cầu Bươu","opening_hours":"Mo-Su 05:00-22:00","public_transport:version":"2"},"14753102":{"to":"Bến xe Ngã tư Vũng Tàu","ref":"1","from":"Trường đại học Công nghệ Đồng Nai","name":"Trường đại học Công nghệ Đồng Nai -> Bến xe Ngã tư Vũng Tàu","type":"route","route":"bus","network":"Tuyến xe buýt Đồng Nai","opening_hours":"05:30-18:00"},"15796657":{"to":"Vinpearl","ref":"05-2","from":"Hòn Xện","name":"Bus 05-2: Hòn Xện → Vinpearl","type":"route","route":"bus","network":"Xe buýt Phương Trang","interval":"00:20:00","operator":"Futa Bus Lines","opening_hours":"Mo-Su 05:00-19:00","public_transport:version":"2"},"16218812":{"to":"Thọ An (Đan Phượng)","ref":"162","from":"Nhổn","name":"Nhổn - Thọ An (Đan Phượng)","type":"route","route":"bus","network":"Hanoibus","operator":"Công ty Bảo Yến"},"16218813":{"to":"Nhổn","ref":"162","from":"Thọ An (Đan Phượng)","name":"Thọ An (Đan Phượng) - Nhổn","type":"route","route":"bus","network":"Hanoibus","operator":"Công ty Bảo Yến"},"16220967":{"to":"Nam Thăng Long","ref":"160","from":"Kim Nỗ (Sóc Sơn)","name":"Kim Lũ (Sóc Sơn) - Nam Thăng Long","type":"route","route":"bus","network":"Hanoibus","operator":"Công ty Bảo Yến"},"16220974":{"to":"Kim Lũ (Sóc Sơn)","ref":"160","from":"Nam Thăng Long","name":"Nam Thăng Long - Kim Lũ (Sóc Sơn)","type":"route","route":"bus","network":"Hanoibus","operator":"Công ty Bảo Yến"},"16251147":{"to":"Khu đô thị Đặng Xá (Gia Lâm)","ref":"158","from":"Bến xe Yên Nghĩa","name":"Bến xe Yên Nghĩa - Khu đô thị Đặng Xá (Gia Lâm)","type":"route","route":"bus","network":"Hanoibus","operator":"Công ty Bảo Yến"},"16253363":{"to":"Bến xe Yên Nghĩa","ref":"158","from":"Khu đô thị Đặng Xá (Gia Lâm)","name":"Khu đô thị Đặng Xá (Gia Lâm) - Bến xe Yên Nghĩa","type":"route","route":"bus","operator":"Công ty Bảo Yến"},"16278371":{"to":"Hương Sơn","ref":"103B","via":"Hồng Quang","from":"Bến xe Mỹ Đình","name":"Bến xe Mỹ Đình - Hồng Quang - Hương Sơn","type":"route","route":"bus","network":"Hanoibus","operator":"Xí nghiệp Xe buýt Cầu Bươu"},"16453222":{"to":"Học viện Nông nghiệp Việt Nam","fee":"yes","ref":"59","from":"Thị trấn Đông Anh","name":"Đông Anh - Học viện Nông nghiệp Việt Nam","type":"route","route":"bus","charge":"9000 VND","network":"Hanoibus","distance":"33","interval":"15","operator":"Bảo Yến Group","opening_hours":"Mo-Su 05:00-21:30"},"16541225":{"to":"Công viên Thống Nhất","fee":"yes","ref":"52B","from":"Đặng Xá","name":"Đặng Xá - Công viên Thống Nhất","type":"route","route":"bus","charge":"7000 VND","network":"Hanoibus","distance":"22.9","duration":"00:21","operator":"Xí nghiệp Xe Buýt Hà Nội","opening_hours":"Mo-Su 05:10-21:15"},"16541226":{"to":"Đặng Xá","fee":"yes","ref":"52B","from":"Công viên Thống Nhất","name":"Công viên Thống Nhất - Đặng Xá","type":"route","route":"bus","charge":"7000 VND","network":"Hanoibus","distance":"22.9","interval":"00:21","operator":"Xí nghiệp Xe Buýt Hà Nội","opening_hours":"Mo-Su 05:00-21:00"}}