{"2614956":{"ref":"1022, 1024, 1026, 1028, 1030, 1032, 1034, 1036, 1038, 1040, 1042, 1044, 1046, 1050, 1052, 1054, 1056","name":"El Affroun - Alger","type":"route","route":"train","network":"Tran de banlieue","operator":"SNTF"},"2614957":{"ref":"1023, 1025, 1027, 1029, 1031, 1033, 1035, 1037, 1039, 1041, 1045, 1047, 1049, 1051, 1053, 1055, 1057","name":"Algiers - El Affroun","type":"route","route":"train","name:ar":"الجزائر - العفرون","name:fr":"Alger - El Affroun","network":"Train de banlieue","operator":"SNTF"},"2614960":{"ref":"1002, 1004","name":"Oran - Alger","type":"route","route":"train","name:ar":"وهران - الجزائر","network":"Train grande ligne","operator":"SNFT","public_transport:version":"2"},"2908768":{"ref":"1153","name":"(وهران -) تلمسان - مغنية - الغزوات","type":"route","route":"train","name:ar":"(وهران -) تلمسان - مغنية - الغزوات","name:fr":"(Oran - ) Tlemcen - Maghnia - Ghazaouet","network":"SNTF:regional","operator":"الشركة الوطنية للنقل بالسكك الحديدية","public_transport:version":"2"},"6825383":{"to":"بني منصور","ref":"B 134;B 136;B 154;B 162","from":"بجاية","name":"عربة قطار بجاية - بني منصور","type":"route","route":"train","to:ar":"بني منصور","to:fr":"Beni Mansour","ref:ar":"ب 134;ب 136;ب 154;ب 162","from:ar":"بجاية","from:fr":"Béjaïa","name:ar":"عربة قطار بجاية - بني منصور","name:en":"Autorail Béjaïa - Beni Mansour","name:fr":"Autorail Béjaïa - Beni Mansour","network":"DZ:transport","alt_name":"خط قطار بجاية - بني منصور","distance":"88","operator":"الشركة الوطنية للنقل بالسكك الحديدية","wikidata":"Q25383179","start_date":"1889","alt_name:ar":"خط قطار بجاية - بني منصور","operator:ar":"الشركة الوطنية للنقل بالسكك الحديدية","operator:wikidata":"Q1275038","operator:wikipedia":"ar:الشركة الوطنية للنقل بالسكك الحديدية","public_transport:version":"1"},"8669809":{"ref":"1303-1307","name":"Oran - Ain Temouchenet","type":"route","route":"train","name:ar":"وهران - عين تموشنت","operator":"SNTF","public_transport:version":"2"}}