{"1659559":{"to":"Modiin","ref":"Lightgreen","from":"Nahariyya","name":"נהריה => מודיעין","type":"route","route":"train","colour":"#74DF00","name:ar":"نهاريا => موديعين","name:en":"Nahariyya => Modiin","name:he":"נהריה => מודיעין","operator":"Israel Railways","public_transport:version":"2"},"1659560":{"to":"Nahariyya","ref":"Lightgreen","from":"Modiin","name":"מודיעין => נהריה","type":"route","route":"train","colour":"#74DF00","name:ar":"موديعين => نهاريا","name:en":"Modiin => Nahariyya","name:he":"מודיעין => נהריה","operator":"Israel Railways","public_transport:version":"2"},"1659746":{"to":"Beer Sheva","ref":"Darkgreen","from":"Nahariyya","name":"נהריה => באר שבע","type":"route","route":"train","colour":"#0B3B17","name:ar":"نهاريا => بئر السبع","name:en":"Nahariyya => Beer Sheva","name:he":"נהריה => באר שבע","operator":"Israel Railways","wikidata":"Q802822"},"1659747":{"to":"Nahariyya","ref":"Darkgreen","from":"Beer Sheva","name":"באר שבע => נהריה","type":"route","route":"train","colour":"#0B3B17","name:ar":"بئر السبع => نهاريا","name:en":"Beer Sheva => Nahariyya","name:he":"באר שבע => נהריה","operator":"Israel Railways"},"1659754":{"to":"Haifa","ref":"Red","from":"Kiryat Motzkin","name":"קרית מוצקין ⇐ חיפה","type":"route","fixme":"according to rail.co.il, this line starts in Akko","route":"train","colour":"#8A0808","name:en":"Kiryat Motzkin ⇒ Haifa"},"1659755":{"to":"Kiryat Motzkin","ref":"Red","from":"Haifa","name":"חיפה ⇐ קרית מוצקין","type":"route","fixme":"according to rail.co.il, this line ends in Akko","route":"train","colour":"#8A0808","name:en":"Haifa ⇒ Kiryat Motzkin"},"1659773":{"to":"Binyamina","ref":"Blue","from":"Ashkelon","name":"אשקלון => בנימינה","type":"route","route":"train","colour":"#0040FF","name:en":"Ashkelon ⇒ Binyamina","name:he":"אשקלון => בנימינה","operator":"Israel Railways","public_transport:version":"2"},"1659774":{"to":"Ashkelon","ref":"Blue","from":"Binyamina","name":"בנימינה => אשקלון","type":"route","route":"train","colour":"#0040FF","name:en":"Binyamina ⇒ Ashkelon","name:he":"בנימינה => אשקלון","operator":"Israel Railways","public_transport:version":"2"},"1660319":{"to":"Beer Sheva","ref":"Yellow","from":"Dimona","name":"דימונה => באר שבע","type":"route","route":"train","colour":"#FFFF00","name:ar":"ديمونا => بئر السبع","name:en":"Dimona => Beer Sheva","name:he":"דימונה => באר שבע","operator":"Israel Railways"},"1660380":{"to":"Rishon LeTsiyyon HaRishonim","ref":"Darkblue","from":"Hod HaSharon Sokolov","name":"נתניה => ראשון לציון הראשונים","type":"route","route":"train","colour":"#0B2161","name:en":"Netanya=> Rishon LeTsiyyon HaRishonim","name:he":"נתניה => ראשון לציון הראשונים","operator":"Israel Railways"},"1660381":{"to":"Hod HaSharon Sokolov","ref":"Darkblue","from":"Rishon LeTsiyyon HaRishonim","name":"ראשון לציון הראשונים => נתניה","type":"route","route":"train","colour":"#0B2161","name:en":"Rishon LeTsiyyon HaRishonim => Hod HaSharon Sokolov","name:he":"ראשון לציון הראשונים => נתניה","operator":"Israel Railways"},"1660971":{"to":"Tel Aviv Center Savidor","ref":"Blue","from":"Jerusalem Malha","name":"ירושלים מלחה => תל אביב סבידור","type":"route","route":"train","colour":"#0099FF","name:en":"Jerusalem Malha => Tel Aviv Center Savidor","name:he":"ירושלים מלחה => תל אביב סבידור","operator":"Israel Railways","public_transport:version":"2"},"1660972":{"to":"Jerusalem Malha","ref":"Blue","from":"Tel Aviv Center Savidor","name":"תל אביב סבידור => ירושלים מלחה","type":"route","route":"train","colour":"#0099FF","name:en":"Tel Aviv Center Savidor => Jerusalem Malha","name:he":"תל אביב סבידור => ירושלים מלחה","operator":"Israel Railways","wikidata":"Q74951","public_transport:version":"2"},"1660995":{"to":"Dimona","ref":"Yellow","from":"Beer Sheva","name":"באר שבע => דימונה","type":"route","route":"train","colour":"#FFFF00","name:ar":"بئر السبع => ديمونا","name:en":"Beer Sheva => Dimona","name:he":"באר שבע => דימונה","operator":"Israel Railways"}}