{"6094786":{"to":"부산역","ref":"201","from":"서울역","name":"경부선 (부산역 행)","type":"route","route":"train","name:de":"Gyeongbu-Linie","name:en":"Gyeongbu Line","name:es":"Línea Gyeongbu","name:ko":"경부선 (부산역 행)","network":"대한민국 간선철도","operator":"한국철도공사","wikidata":"Q17200","wikipedia":"ko:경부선","public_transport:version":"2"},"7796022":{"to":"백산역","ref":"215","from":"제척역","name":"태백선 백산 방면","type":"route","route":"train","name:en":"Taebaek Line","name:ko":"태백선 백산 방면","network":"대한민국 간선철도","operator":"한국철도공사","wikidata":"Q483684","wikipedia":"en:Taebaek Line","public_transport:version":"2"},"7796215":{"ref":"213","name":"영동선","type":"route","route":"train","name:en":"Yeongdong Line","name:ko":"영동선","operator":"한국철도공사","public_transport:version":"2"},"7798599":{"to":"광주송정역","ref":"경전선","from":"삼랑진역","name":"경전선 광주송정역 방면","type":"route","route":"train","network":"간선철도","operator":"한국철도공사","public_transport:version":"2"},"8226481":{"to":"광주송정역","ref":"경전선","from":"삼랑진역","name":"경전선 삼랑진역 방면","type":"route","route":"train","network":"간선철도","operator":"한국철도공사","public_transport:version":"2"},"8266158":{"to":"서울역","ref":"201","from":"부산역","name":"경부선 (서울역 행)","type":"route","route":"train","name:de":"Gyeongbu-Linie","name:en":"Gyeongbu Line","name:es":"Línea Gyeongbu","name:ja":"京釜線（上り）","name:ko":"경부선 (서울역 행)","network":"대한민국 간선철도","operator":"한국철도공사","public_transport:version":"2"},"8787856":{"to":"영주역","ref":"214","from":"김천역","name":"경북선","type":"route","route":"train","name:en":"Gyeongbuk Line","name:ko":"경북선","network":"대한민국 간선철도","operator":"한국철도공사","public_transport:version":"2"},"11365112":{"to":"광주","ref":"30704","from":"광주송정","name":"광주선 셔틀열차: 광주송정 → 광주","type":"route","route":"train","name:ko":"광주선 셔틀열차: 광주송정 → 광주","operator":"한국철도공사"},"11365115":{"to":"광주송정","ref":"30704","from":"광주","name":"광주선 셔틀열차: 광주 → 광주송정","type":"route","route":"train","name:ko":"광주선 셔틀열차: 광주 → 광주송정","operator":"한국철도공사"},"12428880":{"ref":"무궁화호","name":"무궁화호","type":"route","route":"train","operator":"한국철도공사"},"13272988":{"to":"울산신항","ref":"31109","from":"망양","name":"울산신항선","type":"route","route":"train","name:en":"Ulsansinhang Line","name:ko":"울산신항선","operator":"한국철도공사","wikidata":"Q55732503","wikipedia":"ko:울산신항선","official_name":"동해선 울산신항선"}}