{"1782861":{"to":"Wien","ref":"EC 150","from":"Ljubljana","name":"EC 150: Emona","type":"route","route":"train","network":"EuroCity","network:wikidata":"Q753050","network:wikipedia":"en:EuroCity","public_transport:version":"2"},"1973077":{"to":"Jesenice","ref":"R","from":"Ljubljana","name":"R Ljubljana => Jesenice","type":"route","route":"train","name:de":"R Laibach => Aßling","operator":"SŽ","public_transport:version":"2"},"3437070":{"ref":"R","name":"R Jesenice – Sežana","type":"route","route":"train","name:de":"R Aßling – Zizan","name:sl":"R Jesenice – Sežana","operator":"SŽ","public_transport:version":"2"},"6317331":{"ref":"IC 504;IC 505","name":"IC Koper - Maribor","type":"route","route":"train","name:de":"IC Gafers - Marburg an der Drau","name:sl":"IC Koper - Maribor"},"6317332":{"to":"Ljubljana","ref":"R","from":"Koper","name":"Koper => Ljubjana","type":"route","route":"train","name:de":"Gafers => Laibach","name:sl":"Koper => Ljubjana"},"6317545":{"ref":"R","name":"R Sežana – Jesenice","type":"route","route":"train","name:de":"R Zizan – Aßling","name:sl":"R Sežana – Jesenice","operator":"SŽ","public_transport:version":"2"},"6317569":{"ref":"R","name":"Nova Gorica - Ajdovščina","type":"route","route":"train","name:de":"Neu-Görz - Haidenschaft","name:sl":"Nova Gorica - Ajdovščina"},"15339175":{"to":"Skocjanske Jame","ref":"SJ","from":"Skocjan","name":"Skocjan → Skocjanske jame","type":"route","route":"train","network":"SJ","operator":"Skocjanske Jame"},"15339176":{"to":"Skocjan","ref":"SJ","from":"Skocjanske Jame","name":"Skocjanske Jame → Skocjan","type":"route","route":"train","network":"SJ","operator":"Skocjanske Jame"}}