{"3316983":{"ref":"خط الضاحية الجنوبية لتونس","name":"تونس - برج السدرية، الرياض","type":"route","route":"train","name:ar":"تونس - برج السدرية، الرياض","name:fr":"Tunis - Borj Cedria, Riadh","railway":"rail","website":"https://www.sncft.com.tn/","operator":"الشركة الوطنية للسكك الحديدية التونسية","electrified":"contact_line","operator:ar":"الشركة الوطنية للسكك الحديدية التونسية","operator:website":"http://www.sncft.com.tn/Ar/","operator:wikidata":"Q2297197","operator:wikipedia":"ar:الشركة الوطنية للسكك الحديدية التونسية","operator:wikipedia:ar":"الشركة الوطنية للسكك الحديدية التونسية"},"15654114":{"to":"تونس","ref":"E","from":"بوقطفة-سيدي حسين","name":"خط E : بوقطفة-سيدي حسين - تونس","type":"route","route":"train","name:ar":"خط E : بوقطفة-سيدي حسين - تونس","name:en":"RFR Line E : Bougatfa-Sidi Hassine - Tunis","name:fr":"RFR Ligne E : Bougatfa-Sidi Hassine - Tunis","network":"RFR","service":"commuter","public_transport:version":"2"},"15654115":{"to":"بوقطفة-سيدي حسين","ref":"E","from":"تونس","name":"خط E : تونس - بوقطفة-سيدي حسين","type":"route","route":"train","name:ar":"خط E : تونس - بوڨطفة","name:en":"RFR Line E : Tunis - Bougatfa-Sidi Hassine","name:fr":"RFR Ligne E : Tunis - Bougatfa-Sidi Hassine","network":"RFR","service":"commuter","public_transport:version":"2"}}