{"12989508":{"to":"Cầu Giấy","ref":"3","from":"Nhổn","name":"Tuyến đường sắt đô thị số 3 (Đoạn Nhổn - Ga Hà Nội)","type":"route","gauge":"1435","route":"train","usage":"main","bridge":"yes","colour":"#90403E","name:en":"Hanoi Metro Line 3 (Nhon - Hanoi Station)","name:fr":"ligne 3 : Nhon à Hanoiï","network":"MRT","railway":"subway","voltage":"750","maxspeed":"80","operator":"Hanoi Metro","wikidata":"Q30641320","wikipedia":"vi:Tuyến số 3 (Đường sắt đô thị Hà Nội)","electrified":"rail","construction:route":"subway"},"12989509":{"to":"Cầu Giấy","ref":"3","from":"Nhổn","name":"Tuyến đường sắt đô thị số 3 (Đoạn Nhổn - Ga Hà Nội)","type":"route","gauge":"1435","route":"train","usage":"main","bridge":"yes","colour":"#90403E","name:en":"Hanoi Metro Line 3 (Nhon - Hanoi Station)","name:fr":"ligne 3 : Nhon à Hanoï","network":"MRT","railway":"subway","voltage":"750","maxspeed":"80","operator":"Hanoi Metro","wikidata":"Q30641320","wikipedia":"vi:Tuyến số 3 (Đường sắt đô thị Hà Nội)","electrified":"rail","construction:route":"subway"}}