{"6687063":{"to":"Շորժա","ref":"6532","from":"Ալմաստ","name":"Ալմաստ - Շորժա","type":"route","route":"train","source":"https://www.railway.am/infodocs/almast_shorja_arm.pdf","name:de":"Almast - Schorscha","name:en":"Almast - Shorzha","name:hy":"Ալմաստ - Շորժա","name:ru":"Алмаст - Шоржа","network":"Հարավկովկասյան երկաթուղի","website":"https://www.railway.am","duration":"02:58","operator":"Հարավկովկասյան երկաթուղի","passenger":"regional","operator:wikidata":"Q20795233","public_transport:version":"2"},"7584180":{"to":"Երասխ","ref":"6517","from":"Երևան","name":"Երևան - Երասխ","type":"route","route":"train","source":"https://www.railway.am/infodocs/yerevan_erasx_arm.pdf","name:en":"Yerevan - Yeraskh","name:hy":"Երևան - Երասխ","name:ru":"Ереван - Ерасх","network":"Հարավկովկասյան երկաթուղի","website":"https://www.railway.am","duration":"01:32","operator":"Հարավկովկասյան երկաթուղի","passenger":"regional","operator:wikidata":"Q20795233","public_transport:version":"2"},"11149011":{"to":"Թբիլիսի / თბილისი","ref":"372","from":"Երևան / ერევანი","name":"Գնացք №372: Երևան → Թբիլիսի / მატარებელი #372: ერევანი → თბილისი","type":"route","route":"train","source":"https://www.railway.am/infodocs/yerevan-tbilisi_rasp_arm.pdf","name:en":"Train #372: Yerevan → Tbilisi","name:hy":"Գնացք №372: Երևան → Թբիլիսի","name:ka":"მატარებელი #372: ერევანი → თბილისი","name:ru":"Поезд №372: Ереван → Тбилиси","network":"Հարավկովկասյան երկաթուղի / სს \\\"საქართველოს რკინიგზა\\\"","website":"https://www.railway.am","duration":"10:05","operator":"Հարավկովկասյան երկաթուղի / სს \\\"საქართველოს რკინიგზა\\\"","passenger":"international","operator:wikidata":"Q20795233","public_transport:version":"2"},"15644632":{"to":"Արաքս","ref":"7010","from":"Երևան","name":"Երևան - Արաքս","type":"route","route":"train","source":"https://www.railway.am/infodocs/yerevan_araks_arm.pdf","name:en":"Yerevan - Araks","name:hy":"Երևան - Արաքս","name:ru":"Ереван - Аракс","network":"Հարավկովկասյան երկաթուղի","website":"https://www.railway.am","duration":"01:06","operator":"Հարավկովկասյան երկաթուղի","passenger":"regional","operator:wikidata":"Q20795233","public_transport:version":"2"},"15644704":{"to":"Երևան","ref":"7011","from":"Արաքս","name":"Արաքս - Երևան","type":"route","route":"train","source":"https://www.railway.am/infodocs/yerevan_araks_arm.pdf","name:en":"Araks - Yerevan","name:hy":"Արաքս - Երևան","name:ru":"Аракс - Ереван","network":"Հարավկովկասյան երկաթուղի","website":"https://www.railway.am","duration":"01:17","operator":"Հարավկովկասյան երկաթուղի","passenger":"regional","operator:wikidata":"Q20795233","public_transport:version":"2"},"15644705":{"to":"Երևան","ref":"6512","from":"Երասխ","name":"Երասխ - Երևան","type":"route","route":"train","source":"https://www.railway.am/infodocs/yerevan_erasx_arm.pdf","name:en":"Yeraskh - Yerevan","name:hy":"Երասխ - Երևան","name:ru":"Ерасх - Ереван","network":"Հարավկովկասյան երկաթուղի","website":"https://www.railway.am","duration":"01:47","operator":"Հարավկովկասյան երկաթուղի","passenger":"regional","operator:wikidata":"Q20795233","public_transport:version":"2"},"15671077":{"to":"Ալմաստ","ref":"6532","from":"Շորժա","name":"Շորժա - Ալմաստ","type":"route","route":"train","source":"https://www.railway.am/infodocs/almast_shorja_arm.pdf","name:de":"Schorscha - Almast","name:en":"Shorzha - Almast","name:hy":"Շորժա - Ալմաստ","name:ru":"Шоржа - Алмаст","network":"Հարավկովկասյան երկաթուղի","website":"https://www.railway.am/","duration":"03:00","operator":"Հարավկովկասյան երկաթուղի","passenger":"regional","operator:wikidata":"Q20795233","public_transport:version":"2"},"15671078":{"to":"Երևան","ref":"681","from":"Գյումրի","name":"Գյումրի - Երևան","type":"route","route":"train","source":"https://www.railway.am/infodocs/yerevan_gyumri_arm.pdf","name:en":"Gyumri - Yerevan","name:hy":"Գյումրի - Երևան","name:ka":"გიუმრი - ერევანი","name:ru":"Гюмри - Ереван","network":"Հարավկովկասյան երկաթուղի","website":"https://www.railway.am","duration":"03:12","operator":"Հարավկովկասյան երկաթուղի","passenger":"regional","operator:wikidata":"Q20795233","public_transport:version":"2"},"15671079":{"to":"Գյումրի","ref":"682","from":"Երևան","name":"Երևան - Գյումրի","type":"route","route":"train","source":"https://www.railway.am/infodocs/yerevan_gyumri_arm.pdf","name:en":"Yerevan - Gyumri","name:hy":"Երևան - Գյումրի","name:ka":"ერევანი - გიუმრი","name:ru":"Ереван - Гюмри","network":"Հարավկովկասյան երկաթուղի","website":"https://www.railway.am","duration":"03:21","operator":"Հարավկովկասյան երկաթուղի","passenger":"regional","operator:wikidata":"Q20795233","public_transport:version":"2"},"15680758":{"to":"Երևան","ref":"101","from":"Գյումրի","name":"Գյումրի - Երևան արագաընթաց","type":"route","route":"train","source":"https://www.railway.am/infodocs/yerevan_gyumri_skor_arm.pdf","name:en":"Gyumri - Yerevan express","name:hy":"Գյումրի - Երևան արագաընթաց","name:ka":"გიუმრი - ერევანი","name:ru":"Гюмри - Ереван экспресс","network":"Հարավկովկասյան երկաթուղի","website":"https://www.railway.am","duration":"02:10","operator":"Հարավկովկասյան երկաթուղի","passenger":"regional","operator:wikidata":"Q20795233","public_transport:version":"2"},"15680759":{"to":"Գյումրի","ref":"100","from":"Երևան","name":"Երևան - Գյումրի արագաընթաց","type":"route","route":"train","source":"https://www.railway.am/infodocs/yerevan_gyumri_skor_arm.pdf","name:en":"Yerevan - Gyumri express","name:hy":"Երևան - Գյումրի արագաընթաց","name:ka":"ერევანი - გიუმრი","name:ru":"Ереван - Гюмри экспресс","network":"Հարավկովկասյան երկաթուղի","website":"https://www.railway.am","duration":"02:10","operator":"Հարավկովկասյան երկաթուղի","passenger":"regional","operator:wikidata":"Q20795233","public_transport:version":"2"},"16104503":{"to":"Շորժա","ref":"6530","from":"Երևան","name":"Երևան - Շորժա","type":"route","route":"train","name:de":"Jerewan - Schorscha","name:en":"Yerevan - Shorzha","name:hy":"Երևան - Շորժա","name:ru":"Ереван - Шоржа","network":"Հարավկովկասյան երկաթուղի","website":"https://www.railway.am","duration":"03:14","operator":"Հարավկովկասյան երկաթուղի","passenger":"regional","operator:wikidata":"Q20795233","public_transport:version":"2"},"16104504":{"to":"Երևան","ref":"6531","from":"Շորժա","name":"Շորժա - Երևան","type":"route","route":"train","name:de":"Schorscha - Jerewan","name:en":"Shorzha - Yerevan","name:hy":"Շորժա - Երևան","name:ru":"Щоржа - Ереван","network":"Հարավկովկասյան երկաթուղի","website":"https://www.railway.am","duration":"03:45","operator":"Հարավկովկասյան երկաթուղի","passenger":"regional","operator:wikidata":"Q20795233","public_transport:version":"2"}}