{"9128774":{"to":"Sumqayıt","ref":"ADY","via":"Pirşağı","from":"Bakı","name":"Abşeron dairəvi dəmir yolu: Bakı-Pirşağı-Sumqayıt","type":"route","route":"train","old_name":"Şəhərətrafı Dəmir Yolu","operator":"ADY","network:wikidata":"Q64216226","public_transport:version":"2"},"17070263":{"to":"Дербент","ref":"2454 км => Дербент","from":"2454 км","name":"Пригородный электропоезд: 2454 км => Дербент","type":"route","route":"train","service":"regional","operator":"АО «СКППК»","public_transport:version":"2"},"17217383":{"to":"Bakı","ref":"ADY","via":"Pirşağı","from":"Sumqayıt","name":"Abşeron dairəvi dəmir yolu: Sumqayıt-Pirşağı-Bakı","type":"route","route":"train","old_name":"Şəhərətrafı Dəmir Yolu","operator":"ADY","network:wikidata":"Q64216226","public_transport:version":"2"},"17217384":{"to":"Bakı","ref":"ADY","via":"Xırdalan","from":"Sumqayıt","name":"Abşeron dairəvi dəmir yolu: Sumqayıt-Xırdalan-Bakı","type":"route","route":"train","operator":"ADY","public_transport:version":"2"},"17217385":{"to":"Sumqayıt","ref":"ADY","via":"Xırdalan","from":"Bakı","name":"Abşeron dairəvi dəmir yolu: Bakı-Xırdalan-Sumqayıt","type":"route","route":"train","operator":"ADY","public_transport:version":"2"},"17506847":{"to":"Bakı","ref":"709","from":"Qəbələ","name":"Qatar №709: Qəbələ → Bakı","type":"route","route":"train","name:en":"Train #709: Gabala → Baku","name:ru":"Поезд №709: Габала → Баку","network":"Azərbaycan Dəmir Yolları","operator":"Azərbaycan Dəmir Yolları","passenger":"regional","reservation":"required","network:wikidata":"Q617956","operator:wikidata":"Q617956","public_transport:version":"2"},"17506848":{"to":"Qəbələ","ref":"710","from":"Bakı","name":"Qatar №710: Bakı → Qəbələ","type":"route","route":"train","name:en":"Train #710: Baku → Gabala","name:ru":"Поезд №710: Баку → Габала","network":"Azərbaycan Dəmir Yolları","operator":"Azərbaycan Dəmir Yolları","passenger":"regional","reservation":"required","network:wikidata":"Q617956","operator:wikidata":"Q617956","public_transport:version":"2"},"17506963":{"to":"Bakı","ref":"705","from":"Ağstafa","name":"Qatar №705: Ağstafa → Bakı","type":"route","route":"train","name:en":"Train #705: Akstafa → Baku","name:ru":"Поезд №705: Акстафа → Баку","network":"Azərbaycan Dəmir Yolları","operator":"Azərbaycan Dəmir Yolları","passenger":"regional","reservation":"required","network:wikidata":"Q617956","operator:wikidata":"Q617956","public_transport:version":"2"},"17506964":{"to":"Ağstafa","ref":"706","from":"Bakı","name":"Qatar №706: Bakı → Ağstafa","type":"route","route":"train","name:en":"Train #706: Baku → Akstafa","name:ru":"Поезд №706: Баку → Акстафа","network":"Azərbaycan Dəmir Yolları","operator":"Azərbaycan Dəmir Yolları","passenger":"regional","reservation":"required","network:wikidata":"Q617956","operator:wikidata":"Q617956","public_transport:version":"2"}}