{"1368954":{"ref":"ПВ20160","from":"Варна","name":"Варна-Шумен","type":"route","route":"train","network":"БДЖ"},"2571567":{"name":"Пловдив - Панагюрище","type":"route","route":"train","network":"БДЖ","operator":"БДЖ"},"3371339":{"name":"Русе-Русе Разпределителна","type":"route","route":"train","colour":"gray","network":"БДЖ","operator":"БДЖ"},"7083624":{"ref":"R9621","name":"Влак 9621: Русе -> Варна","type":"route","route":"train","name:en":"Train 9621: Ruse -> Varna","passenger":"national","description":"Бърз влак","public_transport:version":"2"},"15466954":{"to":"Slatina","ref":"R 9062","via":"Caracal","from":"Corabia","name":"Train R 9062: Corabia - Slatina","type":"route","route":"train","name:ro":"Tren R 9062: Corabia - Slatina","public_transport:version":"2"},"16005729":{"to":"Златна Панега","from":"Червен Бряг","name":"Червен Бряг - Златна Панега","type":"route","route":"train","name:de":"Bahnstrecke Tscherwen Brjag - Zlatna Panega (Anschlussbahn)","name:en":"Cherven Brjag - Zlatna Panega railway (branch)"},"16009047":{"to":"Пловдив","from":"София","name":"София - Пловдив (2nd track ЖП 1)","type":"route","route":"train","name:bg":"София - Пловдив (2nd track ЖП 1)","name:de":"Sofia - Plowdiw (zweites Gleis von Strecke ЖП 1)","name:en":"Sofia - Plovdiv (second track of route ЖП 1)"},"16011218":{"to":"Елхово","from":"Ямбол","name":"Ямбол - Елхово","type":"route","route":"train","name:bg":"Ямбол - Елхово","name:de":"Jambol - Elchowo","name:en":"Yambol - Elhovo"}}