{"317825":{"ref":"эл. Минск - Барановичи","name":"эл. Мінск - Баранавічы","type":"route","route":"train","name:be":"эл. Мінск - Баранавічы","name:pl":"el. Mińsk - Baranowicze","name:ru":"эл. Минск - Барановичи","name:uk":"Ел. Мінськ - Барановичі","int_name":"el. Minsk - Baranavičy"},"317847":{"ref":"эл. Брест - Барановичи - Минск","name":"эл. Брэст - Баранавічы - Мінск","type":"route","route":"train","name:be":"эл. Брэст - Баранавічы - Мінск","name:pl":"el. Brześć - Baranowicze","name:ru":"эл. Брест - Барановичи - Минск","name:uk":"Ел. Брест - Барановичі - Мінськ","int_name":"el. Brest - Baranavičy - Minsk"},"317885":{"ref":"Гродно — Барановичи","name":"Гродна — Баранавічы","type":"route","route":"train","name:be":"Гродна — Баранавічы","name:lt":"Gardinas — Baranovičiai","name:pl":"Grodno — Baranowicze","name:ru":"Гродно — Барановичи","name:uk":"Гродно - Барановичі","int_name":"Hrodna — Baranavičy","public_transport:version":"2"},"317887":{"ref":"Гродно — Лида","name":"Гродна — Ліда","type":"route","route":"train","name:be":"Гродна — Ліда","name:pl":"Grodno — Lida","name:ru":"Гродно — Лида","name:uk":"Гродно - Ліда","int_name":"Hrodna — Lida","public_transport:version":"2"},"1164815":{"ref":"Praha - Moskva","name":"Praha — Moskva","type":"route","route":"train","name:be":"Прага — Масква","name:ru":"Прага — Москва","name:uk":"Прага - Москва"},"1636400":{"to":"Minsk","ref":"Rīga - Minsk","from":"Rīga","name":"Rīga - Minsk","type":"route","fixme":"references should be set correct, now ref:118 isn't obvious and two time used, probably should set ref=B388 and remove ref:118, also official Riga-Minsk and Minsk-Riga routes is 088B, 088R, 087B, 087R","route":"train","name:be":"Рыга — Мінск","name:de":"Riga - Minsk","name:lv":"Rīga - Minska","name:ru":"Рига — Минск","name:uk":"Рига - Мінськ","ref:118":"B388","opening_hours:covid19":"restricted","public_transport:version":"2"},"1636417":{"ref":"Полацк - Мінск","name":"Полацк - Мінск","type":"route","route":"train","name:be":"Полацк - Мінск","name:ru":"Полоцк - Минск","name:uk":"Полоцьк - Мінськ"},"1636423":{"ref":"Віцебск - Лынтупы","name":"Віцебск - Лынтупы","type":"route","route":"train","name:be":"Віцебск - Лынтупы","name:lt":"Vitebskas - Lentupis","name:ru":"Витебск - Лынтупы","name:uk":"Вітебськ - Линтупи"},"1642853":{"ref":"Друя - Варапаева","name":"Друя - Варапаева","type":"route","route":"train","name:be":"Друя - Варапаева","name:pl":"Druja - Woropajewo","name:ru":"Друя - Воропаево","name:uk":"Друя - Воропаєво","int_name":"Druja - Varapajeva"},"1757307":{"ref":"Витебск – Полоцк","name":"Віцебск – Полацк","type":"route","route":"train","name:be":"Віцебск – Полацк","name:ru":"Витебск – Полоцк","name:uk":"Вітебськ – Полоцьк","public_transport:version":"1"},"1757314":{"to":"Москва-Пассажирская-Смоленская","ref":"718Б","from":"Мінск-Пасажырскі","name":"Цягнік «Ластаўка»: Мінск → Масква / Поезд № 718Б «Ласточка»: Минск => Москва","type":"route","route":"train","to:be":"Масква–Пасажырская–Смаленская","to:ru":"Москва-Пассажирская-Смоленская","from:be":"Мінск–Пасажырскі","from:ru":"Минск–Пассажирский","name:be":"Цягнік «Ластаўка»: Мінск → Масква","name:ru":"Поезд № 718Б «Ласточка»: Минск => Москва","name:uk":"Потяг № 718Б «Ластівка»: Мінськ => Москва","network":"РЖД","duration":"06:55:00","operator":"АО «Федеральная пассажирская компания»","network:en":"RZD","network:ru":"РЖД","network:wikidata":"Q660770","public_transport:version":"2"},"3640250":{"to":"Свіслач","ref":"Волковыск-Город — Свислочь","from":"Ваўкавыск-Горад","name":"Ваўкавыск-Горад — Свіслач","type":"route","route":"train","name:be":"Ваўкавыск-Горад — Свіслач","name:ru":"Волковыск-Город — Свислочь","name:uk":"Волковиськ-Місто — Свислоч.","public_transport:version":"2"},"5952185":{"ref":"Осиповичи - Солигорск","name":"Асіповічы — Салігорск","type":"route","route":"train","name:be":"Асіповічы — Салігорск","name:ru":"Осиповичи — Солигорск","name:uk":"Осиповичі - Солігорськ","operator":"БЧ"},"7501098":{"ref":"Брест - Влодава","name":"Брэст - Валодава","type":"route","route":"train","name:be":"Брэст - Валодава","name:de":"Brest - Wolodawa","name:pl":"Brześć - Włodawa","name:ru":"Брест — Влодава","name:uk":"Брест — Влодава"},"7501564":{"ref":"Барановичи — Слуцк","name":"Баранавічы — Слуцк","type":"route","route":"train","name:be":"Баранавічы — Слуцк","name:de":"Baranawitschi — Sluzk","name:pl":"Baranowicze — Słuck","name:ru":"Барановичи — Слуцк","name:uk":"Барановичі - Слуцьк"},"7505408":{"ref":"Ковель - Хотислав","name":"Ковель - Хаціслаў","type":"route","route":"train","name:be":"Ковель - Хаціслаў","name:ru":"Ковель - Хотислав","name:uk":"Ковель - Хотислав"},"9983667":{"to":"Полацк","ref":"6628","via":"Круляўшчызна","from":"Паставы","name":"Поезд №6628: Паставы — Полацк","type":"route","route":"train","bicycle":"yes","name:be":"Поезд №6628: Паставы — Полацк","name:ru":"Поезд №6628: Поставы — Полоцк","name:uk":"Потяг №6628: Постави — Полоцьк","duration":"3:38","interval":"12:00","operator":"Белорусская железная дорога","passenger":"regional","public_transport:version":"2"},"9983668":{"to":"Паставы","ref":"6623","via":"Круляўшчызна","from":"Полацк","name":"Поезд №6623: Полацк — Паставы","type":"route","route":"train","bicycle":"yes","name:be":"Поезд №6623: Полацк — Паставы","name:ru":"Поезд №6623: Полоцк — Поставы","name:uk":"Потяг №6623: Полоцьк — Постави.","duration":"3:33","operator":"Белорусская железная дорога","passenger":"regional","public_transport:version":"2"},"15540610":{"to":"Москва-Пассажирская-Смоленская","ref":"722Б","from":"Мінск-Пасажырскі","name":"Цягнік «Ластаўка»: Мінск → Масква / Поезд № 722Б «Ласточка»: Минск => Москва","type":"route","route":"train","to:be":"Масква–Пасажырская–Смаленская","to:ru":"Москва-Пассажирская-Смоленская","from:be":"Мінск–Пасажырскі","from:ru":"Минск–Пассажирский","name:be":"Цягнік «Ластаўка»: Мінск → Масква","name:ru":"Поезд № 722Б «Ласточка»: Минск => Москва","name:uk":"Потяг № 722Б «Ластівка»: Мінськ => Москва","network":"РЖД","duration":"06:50:00","operator":"АО «Федеральная пассажирская компания»","network:en":"RZD","network:ru":"РЖД","network:wikidata":"Q660770","public_transport:version":"2"}}