{"1408080":{"to":"Puerto","from":"Limache","name":"Tren Limache – Puerto: Limache → Puerto","type":"route","route":"train","colour":"blue","network":"Metro Valparaíso","service":"commuter","alt_name":"Merval","interval":"6","old_name":"Metro Valparaíso","operator":"EFE Valparaíso","wikidata":"Q1320531","passenger":"suburban","public_transport:version":"2"},"2170415":{"to":"Hualqui","ref":"L1","from":"Mercado","name":"Biotren Línea 1: dirección Hualqui","type":"route","image":"https://upload.wikimedia.org/wikipedia/commons/2/23/BioL1lo.png","route":"train","colour":"#FF6600","network":"Red Concepción de Movilidad","service":"commuter","website":"http://www.fesur.cl/","interval":"15","operator":"Ferrocarriles del Sur S.A.","wikidata":"Q5985914","wikipedia":"es:Línea 1 del Biotrén","start_date":"1999-01","interval:source":"http://www.fesur.cl/horarios-servicio-biotren-2019-2/","network:wikidata":"Q64158439","public_transport:version":"2"},"2170438":{"to":"Coronel","ref":"L2","from":"Concepción","name":"Biotren Línea 2: dirección Coronel","type":"route","image":"https://upload.wikimedia.org/wikipedia/commons/c/cb/BioL2lo.png","route":"train","colour":"#FF6600","network":"Red Concepción de Movilidad","service":"commuter","website":"http://www.fesur.cl/","interval":"30","operator":"Ferrocarriles del Sur S.A.","wikidata":"Q5986175","wikipedia":"es:Línea 2 del Biotrén","start_date":"2005-11-24","interval:source":"http://www.fesur.cl/horarios-servicio-biotren-2019-2/","network:wikidata":"Q64158439","public_transport:version":"2"},"6738372":{"to":"Mercado","ref":"L1","from":"Hualqui","name":"Biotren Línea 1: dirección Mercado","type":"route","image":"https://upload.wikimedia.org/wikipedia/commons/2/23/BioL1lo.png","route":"train","colour":"#FF6600","network":"Red Concepción de Movilidad","service":"commuter","website":"http://www.fesur.cl/","interval":"15","operator":"Ferrocarriles del Sur S.A.","wikidata":"Q5985914","wikipedia":"es:Línea 1 del Biotrén","start_date":"1999-01","interval:source":"http://www.fesur.cl/horarios-servicio-biotren-2019-2/","network:wikidata":"Q64158439","public_transport:version":"2"},"6757914":{"to":"Mercado de Talcahuano","from":"Laja","name":"Tren Laja – Talcahuano: Laja → Mercado de Talcahuano","type":"route","route":"train","service":"commuter","old_name":"Corto Laja","operator":"EFE Sur","passenger":"suburban","public_transport:version":"2"},"6757915":{"to":"Laja","from":"Mercado de Talcahuano","name":"Tren Laja – Talcahuano: Mercado de Talcahuano → Laja","type":"route","route":"train","service":"commuter","old_name":"Corto Laja","operator":"EFE Sur","passenger":"suburban","public_transport:version":"2"},"6852288":{"to":"Concepción","ref":"L2","from":"Coronel","name":"Biotren Línea 2: dirección Concepción","type":"route","image":"https://upload.wikimedia.org/wikipedia/commons/c/cb/BioL2lo.png","route":"train","colour":"#FF6600","network":"Red Concepción de Movilidad","service":"commuter","website":"http://www.fesur.cl/","interval":"30","operator":"Ferrocarriles del Sur S.A.","wikidata":"Q5986175","wikipedia":"es:Línea 2 del Biotrén","start_date":"2005-11-24","interval:source":"http://www.fesur.cl/horarios-servicio-biotren-2019-2/","network:wikidata":"Q64158439","public_transport:version":"2"},"6855721":{"to":"Constitución","from":"Talca","name":"Tren Talca – Constitución: Talca → Constitución","type":"route","route":"train","service":"regional","old_name":"Buscarril","operator":"EFE Central","public_transport:version":"1"},"6855722":{"to":"Talca","from":"Constitución","name":"Tren Talca – Constitución: Constitución → Talca","type":"route","route":"train","service":"regional","old_name":"Buscarril","operator":"EFE Central","public_transport:version":"1"},"7106130":{"to":"Chinchorro","from":"Poconchile","name":"Tren Arica – Poconchile: Poconchile → Chinchorro","type":"route","route":"train","service":"regional","operator":"EFE Arica","public_transport:version":"2"},"7106131":{"to":"Poconchile","from":"Chinchorro","name":"Tren Arica – Poconchile: Chinchorro → Poconchile","type":"route","route":"train","service":"regional","operator":"EFE Arica","public_transport:version":"2"},"7106218":{"to":"Nos","ref":"MTN","from":"Alameda","name":"Tren Nos – Estación Central: Alameda → Nos","type":"route","route":"train","colour":"#151CF3","network":"Central","maxspeed":"120","operator":"EFE Central","wikidata":"Q24960835","passenger":"local","gtfs:route_id":"MTN","network:metro":"Red Metropolitana de Movilidad","public_transport:version":"2"},"7106219":{"to":"Alameda","ref":"MTN","from":"Nos","name":"Tren Nos – Estación Central: Nos → Alameda","type":"route","route":"train","colour":"#151CF3","network":"Central","service":"commuter","maxspeed":"120","operator":"EFE Central","wikidata":"Q24960835","passenger":"local","gtfs:route_id":"MTN","network:metro":"Red Metropolitana de Movilidad","public_transport:version":"2"},"7114437":{"to":"Limache","from":"Puerto","name":"Tren Limache – Puerto: Puerto → Limache","type":"route","route":"train","colour":"blue","network":"Metro Valparaíso","service":"commuter","alt_name":"Merval","interval":"6","old_name":"Metro Valparaíso","operator":"EFE Valparaíso","wikidata":"Q1320531","passenger":"suburban","public_transport:version":"2"},"8264359":{"to":"Alameda","from":"Chillán","name":"Tren Chillán – Estación Central: Chillán → Alameda","type":"route","route":"train","network":"Central","service":"national","duration":"03:40","maxspeed":"160","operator":"EFE Central","passenger":"regional","public_transport:version":"2"},"8272464":{"to":"Temuco","from":"Victoria","name":"Tren Victoria – Temuco: Victoria → Temuco","type":"route","route":"train","service":"regional","operator":"EFE Sur","wikidata":"Q6103957","passenger":"suburban","public_transport:version":"2"},"8272495":{"name":"Tren El Valdiviano","type":"route","route":"train","service":"tourism","operator":"EFE/Fesur","public_transport:version":"2"},"8276910":{"name":"Góndola Carril","type":"route","route":"train","service":"tourism","operator":"EFE/Corporación Patrimonio Ferroviario","public_transport:version":"2"},"12840625":{"to":"Temuco","from":"Pitrufquén","name":"Tren Pitrufquén – Temuco: Pitrufquén → Temuco","type":"route","route":"train","colour":"#141cff","service":"commuter","operator":"EFE","wikidata":"Q95294080","wikipedia":"es:Tren Temuco-Pitrufquén","public_transport:version":"2"},"14217248":{"to":"Rancagua","ref":"MTR","from":"Alameda","name":"Tren Rancagua – Estación Central: Alameda → Rancagua","type":"route","route":"train","colour":"#F3B015","network":"EFE Trenes de Chile","service":"commuter","duration":"01:10","maxspeed":"120","operator":"EFE Central","wikidata":"Q17628181","passenger":"suburban","public_transport:version":"2"},"14219794":{"to":"Alameda","ref":"MTR","from":"Rancagua","name":"Tren Rancagua – Estación Central: Rancagua → Alameda","type":"route","route":"train","colour":"#F3B015","network":"EFE Trenes de Chile","service":"commuter","duration":"01:10","maxspeed":"120","operator":"EFE Central","wikidata":"Q17628181","passenger":"suburban","public_transport:version":"2"},"14240669":{"to":"Chillán","from":"Alameda","name":"Tren Chillán – Estación Central: Alameda → Chillán","type":"route","route":"train","network":"Central","service":"national","duration":"03:40","maxspeed":"160","operator":"EFE Central","passenger":"regional","public_transport:version":"2"},"15816038":{"to":"Melipilla","from":"Alameda","name":"Tren Alameda-Melipilla (en construcción)","type":"route","route":"train","colour":"#5e32d9","source":"https://www.efe.cl/proyectos/alameda-melipilla/","network":"EFE Central","service":"commuter","website":"https://www.efe.cl/proyectos/alameda-melipilla/","distance":"61","duration":"01:12","interval":"00:20","old_name":"Melitren","operator":"EFE","wikidata":"Q16302025","roundtrip":"no","wikipedia":"es:Tren Melipilla-Estación Central","check_date":"2024-05-26","short_name":"TAM","start_date":"2029"},"15824023":{"to":"Batuco","from":"Quinta Normal","name":"Tren Santiago-Batuco (proyectado)","type":"route","route":"train","network":"Metrotren Batuco","service":"commuter","website":"https://www.efe.cl/proyectos/santiago-batuco/","distance":"26","duration":"00:23","operator":"EFE","wikidata":"Q63980739","roundtrip":"no","wikipedia":"es:Tren Santiago-Batuco","check_date":"2023-05-07","start_date":"2028"},"15951637":{"to":"Victoria","from":"Temuco","name":"Tren Victoria – Temuco: Temuco → Victoria","type":"route","route":"train","service":"regional","operator":"EFE Sur","wikidata":"Q6103957","passenger":"suburban","public_transport:version":"2"},"16064569":{"to":"Pitrufquén","from":"Temuco","name":"Tren Pitrufquén – Temuco: Temuco → Pitrufquén","type":"route","route":"train","colour":"#141cff","service":"commuter","operator":"EFE SUR","wikidata":"Q95294080","wheelchair":"yes","public_transport:version":"2"},"17627011":{"to":"Alameda","from":"San Fernando","name":"Tren San Fernando – Estación Central: San Fernando → Alameda","type":"route","route":"train","colour":"#F3B015","network":"EFE Trenes de Chile","service":"commuter","maxspeed":"120","operator":"EFE Central","passenger":"suburban","public_transport:version":"2"},"17627012":{"to":"San Fernando","from":"Alameda","name":"Tren San Fernando – Estación Central: Alameda → San Fernando","type":"route","route":"train","colour":"#F3B015","network":"EFE Trenes de Chile","service":"commuter","maxspeed":"120","operator":"EFE Central","passenger":"suburban","public_transport:version":"2"}}