{"2452622":{"url":"http://www.7moy.com/en/train/k9792/","name":"K9792 北屯镇(Beitunzhen)-乌鲁木齐 (Wulumuqi)(空调快速)","type":"route","route":"train","public_transport:version":"2"},"3086909":{"name":"京港高铁","type":"route","route":"train","source":"www.12306.cn","network":"中国铁路总公司","operator":"广州铁路集团","wheelchair":"yes"},"3134885":{"to":"Алматы","ref":"13/14","from":"乌鲁木齐","name":"13/14 乌鲁木齐<=>Алматы","type":"route","route":"train","name:de":"13/14 Urumchi<=>Almaty","name:ru":"13/14 Урумчи<=>Алматы","network":"unknown","description":"13 Ürümqi -> Almaty / 14 Almaty -> Ürümqi","public_transport:version":"1"},"3302486":{"name":"京沪高铁蚌埠联络线","type":"route","route":"train","network":"CN-railway"},"4421075":{"name":"兰渝铁路","type":"route","route":"train","name:en":"Chongqing – Lanzhou Railway","alt_name":"渝兰高速铁路","wikipedia":"zh:兰渝铁路"},"5558605":{"name":"宁波轨道交通2号线","type":"route","route":"train"},"7348708":{"to":"清城","from":"白云机场北","name":"广清城际-广州东环城际（白云机场北→清城）","type":"route","route":"train","operator":"广东城际铁路运营","operator:en":"Guangdong Intercity Railway","public_transport:version":"2"},"7348709":{"to":"白云机场北","from":"清城","name":"广清城际-广州东环城际（清城→白云机场北）","type":"route","route":"train","operator":"广东城际铁路运营","operator:en":"Guangdong Intercity Railway","public_transport:version":"2"},"8019732":{"to":"上海南","ref":"金山(Jinshan)","from":"金山卫","name":"CR 金山线: 金山卫 → 上海南","type":"route","route":"train","to:en":"Shanghai South","colour":"#11385B","from:en":"Jinshanwei","name:en":"CR Jinshan Line: Jinshanwei → Shanghai South","name:zh":"CR 金山线: 金山卫 → 上海南","network":"CN-railway","operator":"上海金山铁路发展有限公司","wikidata":"Q3338133","passenger":"不实行实名制","start_date":"2012-09-28","wheelchair":"limited","network:metro":"上海市域轨道交通","public_transport:version":"2"},"8019733":{"to":"金山卫","ref":"金山(Jinshan)","from":"上海南","name":"CR 金山线: 上海南 → 金山卫","type":"route","route":"train","to:en":"Jinshanwei","colour":"#11385B","from:en":"Shanghai South","name:en":"CR Jinshan Line: Shanghai South → Jinshanwei","name:zh":"CR 金山线: 上海南 → 金山卫","network":"CN-railway","operator":"上海金山铁路发展有限公司","wikidata":"Q3338133","passenger":"不实行实名制","start_date":"2012-09-28","wheelchair":"limited","network:metro":"上海市域轨道交通","public_transport:version":"2"},"8110609":{"name":"广州地铁11号线","type":"route","route":"train","colour":"#470A68"},"8347487":{"name":"宁西铁路二线","type":"route","route":"train"},"8387814":{"name":"余干物流专线","type":"route","route":"train"},"9050813":{"name":"Longmenshan Tunnels","type":"route","route":"train"},"9133436":{"name":"贵昆铁路","type":"route","route":"train","name:en":"Old Guikun Railway","railway":"abandoned"},"9314076":{"name":"Side Route","type":"route","route":"train"},"10603188":{"to":"良乡/北京西","ref":"S1","from":"乔庄东/通州","name":"城市副中心线","type":"route","route":"train","colour":"#11385B","name:en":"Sub-Central line (Southwestbound)","name:es":"Línea Sub-Central (hacia suroeste)","name:zh":"城市副中心线","network":"北京市郊铁路","operator":"中国铁路北京局集团有限公司","wikidata":"Q43285793","passenger":"suburban","wikipedia":"zh:北京市郊铁路城市副中心线","network:en":"Beijing Suburban Railway","network:zh":"北京市郊铁路","alt_name:en":"Fuzhongxin Line","operator:en":"China Railway Beijing Group","operator:zh":"中国铁路北京局集团有限公司","operator:short":"京局","network:wikidata":"Q4881191","network:wikipedia":"zh:北京市郊铁路","operator:wikidata":"Q4881184","operator:wikipedia":"zh:中国铁路北京局集团","public_transport:version":"2"},"10649268":{"to":"沙城","ref":"S2","from":"黄土店","name":"北京市郊铁路S2线 (黄土店至沙城方向)","type":"route","route":"train","colour":"#11385B","name:es":"Beijing Suburban Railway Line S2 (hacia noroeste)","name_en":"Beijing Suburban Railway Line S2 (to northwest)","network":"北京市郊铁路","operator":"中国铁路北京局集团有限公司","wikidata":"Q4390966","passenger":"不实行实名制","wikipedia":"zh:北京市郊铁路S2线","network:en":"Beijing Suburban Railway","network:zh":"北京市郊铁路","operator:en":"China Railway Beijing Group","operator:zh":"中国铁路北京局集团有限公司","operator:short":"京局","network:wikidata":"Q4881191","network:wikipedia":"zh:北京市郊铁路","operator:wikidata":"Q4881184","operator:wikipedia":"zh:中国铁路北京局集团","public_transport:version":"2"},"10649677":{"to":"古北口","ref":"S5","from":"清河","name":"市郊铁路 怀密线: 北京北 -> 古北口","type":"route","route":"train","colour":"#FABBCB","name:en":"Huairou–Miyun line (northbound)","name:es":"Línea Huairou–Miyun (hacia norte)","network":"北京市郊铁路","operator":"中国铁路北京局集团有限公司","wikidata":"Q42308711","wikipedia":"zh:北京市郊铁路怀柔－密云线","network:en":"Beijing Suburban Railway","network:zh":"北京市郊铁路","operator:en":"China Railway Beijing Group","operator:zh":"中国铁路北京局集团有限公司","operator:short":"京局","network:wikidata":"Q4881191","network:wikipedia":"zh:北京市郊铁路","operator:wikidata":"Q4881184","operator:wikipedia":"zh:中国铁路北京局集团","public_transport:version":"2"},"10974821":{"name":"白马港铁路支线","type":"route","route":"train"},"11286622":{"to":"怀柔北","ref":"S6","from":"通州西","name":"市郊铁路通密线: 通州西->怀柔北","type":"route","route":"train","colour":"#11385B","name:en":"Tongmi line (Tongzhouxi-Huairoubei)","name:es":"Línea Tongmi (hacia norte)","network":"北京市郊铁路","alt_name":"市郊铁路S6线","operator":"中国铁路北京局集团有限公司","wikipedia":"zh:北京市郊铁路通密线","network:en":"Beijing Suburban Railway","network:zh":"北京市郊铁路","operator:en":"China Railway Beijing Group","operator:zh":"中国铁路北京局集团有限公司","operator:short":"京局","network:wikidata":"Q4881191","operator:wikidata":"Q4881184","public_transport:version":"2"},"11353013":{"ref":"个碧石","name":"个碧石铁路","type":"route","route":"train"},"11353030":{"ref":"嘉阳小火车","name":"嘉阳小火车","type":"route","route":"train"},"11482969":{"to":"乔庄东/通州","ref":"S1","from":"良乡/北京西","name":"城市副中心线","type":"route","route":"train","colour":"#11385B","name:en":"Sub-Central line (Northeastbound)","name:es":"Línea Sub-Central (hacia noreste)","name:zh":"城市副中心线","network":"北京市郊铁路","operator":"中国铁路北京局集团有限公司","wikidata":"Q43285793","passenger":"suburban","wikipedia":"zh:北京市郊铁路城市副中心线","network:en":"Beijing Suburban Railway","network:zh":"北京市郊铁路","alt_name:en":"Fuzhongxin Line","operator:en":"China Railway Beijing Group","operator:zh":"中国铁路北京局集团有限公司","operator:short":"京局","network:wikidata":"Q4881191","network:wikipedia":"zh:北京市郊铁路","operator:wikidata":"Q4881184","operator:wikipedia":"zh:中国铁路北京局集团","public_transport:version":"2"},"11494222":{"to":"延庆","ref":"S2","from":"黄土店","name":"北京市郊铁路S2线 (黄土店至延庆方向)","type":"route","route":"train","colour":"#11385B","name:es":"Beijing Suburban Railway Line S2 (hacia noreste)","name_en":"Beijing Suburban Railway Line S2 (to northeast)","network":"北京市郊铁路","operator":"中国铁路北京局集团有限公司","wikidata":"Q4390966","passenger":"不实行实名制","wikipedia":"zh:北京市郊铁路S2线","network:en":"Beijing Suburban Railway","network:zh":"北京市郊铁路","operator:en":"China Railway Beijing Group","operator:zh":"中国铁路北京局集团有限公司","operator:short":"京局","network:wikidata":"Q4881191","network:wikipedia":"zh:北京市郊铁路","operator:wikidata":"Q4881184","operator:wikipedia":"zh:中国铁路北京局集团","public_transport:version":"2"},"11494223":{"to":"黄土店","ref":"S2","from":"延庆","name":"北京市郊铁路S2线 (延庆至黄土店方向)","type":"route","route":"train","colour":"#11385B","name:en":"Beijing Suburban Railway Line S2 (from noreast)","name:es":"Beijing Suburban Railway Line S2 (desde noreste)","network":"北京市郊铁路","operator":"中国铁路北京局集团有限公司","wikidata":"Q4390966","passenger":"不实行实名制","wikipedia":"zh:北京市郊铁路S2线","network:en":"Beijing Suburban Railway","network:zh":"北京市郊铁路","operator:en":"China Railway Beijing Group","operator:zh":"中国铁路北京局集团有限公司","operator:short":"京局","network:wikidata":"Q4881191","network:wikipedia":"zh:北京市郊铁路","operator:wikidata":"Q4881184","operator:wikipedia":"zh:中国铁路北京局集团","public_transport:version":"2"},"11494224":{"to":"黄土店","ref":"S2","from":"沙城","name":"北京市郊铁路S2线 (沙城至黄土店方向)","type":"route","route":"train","colour":"#11385B","name:en":"Beijing Suburban Railway Line S2 (from northeast)","name:es":"Beijing Suburban Railway Line S2 (desde noroeste)","network":"北京市郊铁路","operator":"中国铁路北京局集团有限公司","wikidata":"Q4390966","passenger":"不实行实名制","wikipedia":"zh:北京市郊铁路S2线","network:en":"Beijing Suburban Railway","network:zh":"北京市郊铁路","operator:en":"China Railway Beijing Group","operator:zh":"中国铁路北京局集团有限公司","operator:short":"京局","network:wikidata":"Q4881191","network:wikipedia":"zh:北京市郊铁路","operator:wikidata":"Q4881184","operator:wikipedia":"zh:中国铁路北京局集团","public_transport:version":"2"},"11494328":{"to":"清河","ref":"S5","from":"古北口","name":"市郊铁路 怀密线: 古北口 -> 北京北","type":"route","route":"train","colour":"#FABBCB","name:en":"Huairou–Miyun line (southbound)","name:es":"Línea Huairou–Miyun (hacia sur)","network":"北京市郊铁路","operator":"中国铁路北京局集团有限公司","wikidata":"Q42308711","wikipedia":"zh:北京市郊铁路怀柔－密云线","network:en":"Beijing Suburban Railway","network:zh":"北京市郊铁路","operator:en":"China Railway Beijing Group","operator:zh":"中国铁路北京局集团有限公司","operator:short":"京局","network:wikidata":"Q4881191","network:wikipedia":"zh:北京市郊铁路","operator:wikidata":"Q4881184","operator:wikipedia":"zh:中国铁路北京局集团","public_transport:version":"2"},"11494394":{"to":"密云北","ref":"S6","from":"通州西","name":"市郊铁路通密线: 通州西->密云北","type":"route","route":"train","colour":"#11385B","name:en":"Tongmi line (Tongzhouxi-Miyunbei)","name:es":"Línea Tongmi (hacia este)","network":"北京市郊铁路","alt_name":"市郊铁路S6线","operator":"中国铁路北京局集团有限公司","wikipedia":"zh:北京市郊铁路通密线","network:en":"Beijing Suburban Railway","network:zh":"北京市郊铁路","operator:en":"China Railway Beijing Group","operator:zh":"中国铁路北京局集团有限公司","operator:short":"京局","network:wikidata":"Q4881191","network:wikipedia":"zh:北京市郊铁路","operator:wikidata":"Q4881184","operator:wikipedia":"zh:中国铁路北京局集团","public_transport:version":"2"},"11494395":{"to":"通州西","ref":"S6","from":"密云北","name":"市郊铁路通密线: 密云北->通州西","type":"route","route":"train","colour":"#11385B","name:en":"Tongmi line (Miyunbei-Tongzhouxi)","name:es":"Línea Tongmi (desde este)","network":"北京市郊铁路","alt_name":"市郊铁路S6线","operator":"中国铁路北京局集团有限公司","wikipedia":"zh:北京市郊铁路通密线","network:en":"Beijing Suburban Railway","network:zh":"北京市郊铁路","operator:en":"China Railway Beijing Group","operator:zh":"中国铁路北京局集团有限公司","operator:short":"京局","network:wikidata":"Q4881191","operator:wikidata":"Q4881184","public_transport:version":"2"},"11494396":{"to":"通州西","ref":"S6","from":"怀柔北","name":"市郊铁路通密线: 怀柔北->通州西","type":"route","route":"train","colour":"#11385B","name:en":"Tongmi line (Huairoubei-Tongzhouxi)","name:es":"Línea Tongmi (desde norte)","network":"北京市郊铁路","alt_name":"市郊铁路S6线","operator":"中国铁路北京局集团有限公司","wikipedia":"zh:北京市郊铁路通密线","network:en":"Beijing Suburban Railway","network:zh":"北京市郊铁路","operator:en":"China Railway Beijing Group","operator:zh":"中国铁路北京局集团有限公司","operator:short":"京局","network:wikidata":"Q4881191","operator:wikidata":"Q4881184","public_transport:version":"2"},"11506580":{"to":"上虞","fare":"8元","from":"绍兴","name":"绍兴城际列车（绍兴→上虞）","type":"route","route":"train","name:en":"Shaoxing Urban Rail Line (Shaoxing->Shangyu)","name:zh":"绍兴城际列车（绍兴→上虞）","distance":"28","duration":"20-24","operator":"上海铁路国际旅游","passenger":"不实行实名制","public_transport:version":"2"},"11530301":{"to":"防城港","from":"北海","name":"北海-防城港动车","type":"route","route":"train","network":"CN-railway","distance":"139","operator":"中国铁路南宁局","start_date":"2021-04-10","public_transport:version":"2"},"11684975":{"to":"余姚","ref":"S1","from":"宁波","name":"宁波至余姚城际铁路 （宁波→余姚）","note":"利用既有萧甬铁路","type":"route","route":"train","colour":"#11385B","name:en":"Ningbo-Yuyao Intercity Railway (Northbound)","name:es":"Tren interurbano Ningbo-Yuyao (hacia norte)","network":"宁波城铁","operator":"中国铁路上海局集团","passenger":"不实行实名制","network:en":"Ningbo Suburban Railway","train_service":"yes","public_transport:version":"2"},"11684976":{"to":"宁波","ref":"S1","from":"余姚","name":"宁波至余姚城际铁路 （余姚→宁波）","note":"利用既有萧甬铁路","type":"route","route":"train","colour":"#11385B","name:en":"Ningbo-Yuyao Intercity Railway (Southbound)","name:es":"Tren interurbano Ningbo-Yuyao (hacia sur)","network":"宁波城铁","operator":"中国铁路上海局集团","passenger":"不实行实名制","network:en":"Ningbo Suburban Railway","train_service":"yes","public_transport:version":"2"},"11775391":{"to":"连云港","from":"连云","name":"连云港市郊铁路","type":"route","route":"train","service":"commuter","public_transport:version":"1"},"11907938":{"to":"上海虹桥","ref":"G7558","from":"杭州东","name":"G7558 杭州东=>上海虹桥","type":"route","route":"train","dinner":"yes","network":"CN-railway","highspeed":"yes","public_transport":"2"},"11910333":{"to":"上海虹桥","ref":"G7560","from":"杭州东","name":"G7560 杭州东=>上海虹桥","type":"route","route":"train","dinner":"yes","network":"CN-railway","highspeed":"yes"},"11910335":{"to":"上海虹桥","ref":"G7556","from":"余杭","name":"G7556 余杭=>上海虹桥","type":"route","route":"train","dinner":"yes","network":"CN-railway","highspeed":"yes"},"11958237":{"to":"绍兴","fare":"20元","from":"宁波","name":"绍兴城际列车（宁波→绍兴）","type":"route","route":"train","name:en":"Shaoxing Urban Rail Line (Ningbo->Shaoxing)","name:zh":"绍兴城际列车（宁波→绍兴）","distance":"108","duration":"80-89","operator":"上海铁路国际旅游","public_transport:version":"2"},"11958238":{"to":"宁波","fare":"20元","from":"绍兴","name":"绍兴城际列车（绍兴→宁波）","type":"route","route":"train","name:en":"Shaoxing Urban Rail Line (Shaoxing->Ningbo)","name:zh":"绍兴城际列车（绍兴→宁波）","distance":"108","duration":"80-89","operator":"上海铁路国际旅游","public_transport:version":"2"},"11958239":{"to":"杭州南","from":"上虞","name":"绍兴城际列车（上虞→杭州南）","type":"route","route":"train","name:en":"Shaoxing Urban Rail Line (Shangyu->Hangzhounan)","name:zh":"绍兴城际列车（上虞→杭州南）","distance":"64","duration":"52-54","operator":"上海铁路国际旅游","public_transport:version":"2"},"11958240":{"to":"上虞","from":"杭州南","name":"绍兴城际列车（杭州南→上虞）","type":"route","route":"train","name:en":"Shaoxing Urban Rail Line (Hangzhounan->Shangyu)","name:zh":"绍兴城际列车（杭州南→上虞）","distance":"64","duration":"52-54","operator":"上海铁路国际旅游","public_transport:version":"2"},"11958241":{"to":"绍兴","fare":"8元","from":"上虞","name":"绍兴城际列车（上虞→绍兴）","type":"route","route":"train","name:en":"Shaoxing Urban Rail Line (Shangyu->Shaoxing)","name:zh":"绍兴城际列车（上虞→绍兴）","distance":"28","duration":"20-24","operator":"上海铁路国际旅游","passenger":"不实行实名制","public_transport:version":"2"},"11958242":{"to":"杭州南","from":"绍兴","name":"绍兴城际列车（绍兴→杭州南）","type":"route","route":"train","name:en":"Shaoxing Urban Rail Line (Shaoxing->Hangzhounan)","name:zh":"绍兴城际列车（绍兴→杭州南）","distance":"36","duration":"31-33","operator":"上海铁路国际旅游","public_transport:version":"2"},"11958245":{"to":"绍兴","from":"杭州南","name":"绍兴城际列车（杭州南→绍兴）","type":"route","route":"train","name:en":"Shaoxing Urban Rail Line (Hangzhounan->Shaoxing)","name:zh":"绍兴城际列车（杭州南→绍兴）","distance":"36","duration":"31-33","operator":"上海铁路国际旅游","public_transport:version":"2"},"12567446":{"to":"北海","from":"防城港北","name":"防城港-北海动车","type":"route","route":"train","network":"CN-railway","distance":"139","operator":"中国铁路南宁局","start_date":"2021-04-10","public_transport:version":"2"},"12627104":{"to":"平凉","ref":"6072","from":"宝鸡","name":"6072：宝鸡 -> 平凉","type":"route","route":"train","duration":"05:25","public_transport:version":"2"},"12712444":{"to":"花都","from":"清城","name":"广清城际直达车（清城→花都）","type":"route","route":"train","name:en":"Guangzhou - Qingyuan Intercity Railway Express Trains (Qingcheng → Huadu)","name:zh":"广清城际直达车（清城→花都）","operator":"广东城际运营"},"12924703":{"to":"兰州","ref":"T358","from":"平凉","name":"T358列车","type":"route","route":"train","duration":"9:15","public_transport:version":"1"},"12924704":{"to":"平凉","ref":"T356","from":"兰州","name":"T356列车","type":"route","route":"train","duration":"9:15","public_transport:version":"1"},"12927652":{"to":"广州莲花山站","from":"琶洲站","name":"穗深城际琶洲支线","type":"route","route":"train"},"12968384":{"to":"宝鸡","ref":"6064","from":"广元","name":"6064：广元 -> 宝鸡","type":"route","route":"train","duration":"9:54","public_transport:version":"2"},"13105327":{"name":"new rail","type":"route","route":"train"},"13807589":{"name":"锦古线","type":"route","route":"train"},"13839363":{"name":"太锡铁路","type":"route","route":"train"},"13871504":{"to":"上海虹桥","ref":"G7504","from":"温州南","name":"G7504: 温州南 => 上海虹桥","type":"route","route":"train","public_transport:version":"2"},"13892973":{"to":"厦门北","ref":"D3211","from":"湖州","name":"D3211: 湖州 => 厦门北","type":"route","route":"train","public_transport:version":"2"},"14011034":{"to":"拉萨","ref":"Z164","from":"上海","name":"Z164：上海 -> 拉萨","type":"route","route":"train","duration":"47:24","public_transport:version":"2"},"14357821":{"to":"Kilju","ref":"101, 102","from":"Kilju","name":"101, 102    Hyesan - Kilju","type":"route","route":"train","operator":"조선민주주의인민공화국 철도성","public_transport:version":"2"},"14524383":{"to":"连云港东","fee":"yes","ref":"1148","from":"宝鸡","name":"1148：宝鸡 -> 连云港东","type":"route","route":"train","operator":"中国铁路西安局集团有限公司西安客运段","public_transport:version":"2"},"14642940":{"to":"武胜关","from":"波尔登森林公园","name":"平汉铁路老火车","type":"route","route":"train"},"14699969":{"to":"贺州站","from":"永州站","name":"K4929/30","type":"route","route":"train","operator":"中国铁路"},"14741168":{"to":"工业园区","from":"祥云西站","name":"祥云财富工业园区铁路专用线","type":"route","route":"train","wikidata":"Q114883939"},"15036863":{"to":"鳳凰等待","from":"鳳凰古城","name":"鳳凰磁浮觀光快線","type":"route","route":"train","name:zh":"鳳凰磁浮觀光快線","start_date":"2022-07-30"},"15394398":{"name":"山南地方铁路新港货运支线","type":"route","route":"train","public_transport:version":"2"},"15476910":{"name":"滇缅铁路炼象关桥隧群","type":"route","route":"train","wikidata":"Q116695093","description":"全国重点文物保护单位，包括长6485米的路基、夕阳庵隧道、上箐隧道、下箐隧道、下箐大桥、下箐2号大桥、赵家村隧道、赵家村大桥、田心大桥、刘家村大桥。部分路段及隧道能通车。"},"15587562":{"name":"湔江河谷旅游观光小火车","type":"route","route":"train"},"16061931":{"to":"唐城墙遗址公园西","from":"大雁塔北广场","name":"曲江轻轨","type":"route","route":"train","alt_name":"曲江旅游环线;曲江观光轻轨","operator":"西安曲江旅游投资（集团）有限公司"}}