{"394430":{"ref":"Gribskovbanen","name":"Gribskov Banen","type":"route","route":"train","service":"regional","description":"Gribskovbanen: Kagerup-Tisvildeleje"},"1982481":{"to":"Skagen","ref":"79","from":"Frederikshavn","name":"Frederikshavn - Skagen","type":"route","route":"train","service":"regional"},"3600899":{"to":"Niebüll","ref":"R8","from":"Nørre Nebel","name":"R8: Nørre Nebel => Niebüll","type":"route","route":"train","service":"regional","operator":"Arriva PLC","public_transport:version":"2"},"3611927":{"to":"Skjern","ref":"51","from":"Esbjerg","line":"rail","name":"ARRIVA Esbjerg - Skjern","type":"route","route":"train","service":"regional","operator":"ARRIVA","public_transport:version":"1"},"3613096":{"to":"Struer","ref":"52","from":"Skjern","line":"rail","name":"ARRIVA Skjern - Struer","type":"route","route":"train","service":"regional","operator":"ARRIVA"},"3614150":{"to":"Thisted","ref":"55","from":"Struer","line":"rail","name":"ARRIVA Struer - Thisted","type":"route","route":"train","service":"regional","operator":"ARRIVA"},"3615195":{"to":"Aarhus","ref":"54","from":"Struer","name":"Train: Struer - Aarhus","type":"route","route":"train","service":"regional","operator":"GoCollective"},"3615291":{"to":"Skjern","ref":"53","from":"Aarhus","line":"rail","name":"ARRIVA Aarhus - Skjern","type":"route","route":"train","service":"regional","operator":"ARRIVA"},"3615297":{"to":"Niebüll","ref":"50","from":"Esbjerg","name":"50: Esbjerg => Niebüll","type":"route","route":"train","service":"regional","operator":"Arriva PLC","public_transport:version":"2"},"3615303":{"to":"Esbjerg","ref":"56","from":"Nørre Nebel","line":"rail","name":"ARRIVA Nørre Nebel - Esbjerg","type":"route","route":"train","service":"regional","operator":"ARRIVA","public_transport:version":"1"},"3712899":{"to":"Skørping","ref":"72","from":"Lindholm","line":"rail","name":"Aalborg Nærbane","type":"route","route":"train","service":"commuter","operator":"DSB"},"3713951":{"to":"Odense","ref":"90","from":"Struer","line":"rail","name":"DSB Struer-Odense","type":"route","route":"train","service":"regional","operator":"DSB"},"3726567":{"to":"Odense","ref":"60","from":"Aarhus","line":"rail","name":"Aarhus - Fredericia - Odense","type":"route","route":"train","service":"regional","operator":"DSB"},"3726573":{"to":"Odense","ref":"62","from":"Fredericia","line":"rail","name":"Fredericia - Odense","type":"route","route":"train","service":"regional","operator":"DSB"},"3726585":{"to":"Odense","ref":"63","from":"Vejle","line":"rail","name":"Vejle - Odense - Nyborg","type":"route","route":"train","service":"regional","operator":"DSB"},"3726738":{"to":"Odense","ref":"80","from":"Esbjerg","line":"rail","name":"Esbjerg - Odense","type":"route","route":"train","service":"regional","operator":"DSB","public_transport:version":"1"},"3726955":{"to":"Østerport","ref":"IC4","from":"Esbjerg","line":"rail","name":"InterCity 4: Esbjerg => København Østerport","type":"route","route":"train","name:de":"InterCity 4: Esbjerg => Kopenhagen Østerport","service":"long_distance","operator":"DSB","public_transport:version":"2"},"3727113":{"to":"København","ref":"4","via":"Fredericia","from":"Esbjerg","line":"rail","name":"Esbjerg => Fredericia => København CPH Lufthavn","note":"Skifte tog i Fredericia","type":"route","route":"train","name:de":"Esbjerg => Fredericia => Kopenhagen Flughafen","service":"regional","operator":"DSB","public_transport:version":"2"},"4088197":{"to":"Svendborg","ref":"RE61","from":"Odense","name":"Regionaltog 61: Odense => Svendborg","type":"route","route":"train","service":"regional","website":"https://gocollective.dk/","operator":"GoCollective","opening_hours":"Sa-Su 05:48-07:55","public_transport:version":"2"},"4088272":{"to":"Næstved","ref":"RE51","from":"Roskilde","name":"Regionaltog 51: Roskilde => Næstved","type":"route","route":"train","network":"Takst Sjælland","service":"regional","website":"https://www.dsb.dk","operator":"DSB","public_transport:version":"2"},"4088291":{"to":"Roskilde","ref":"RE51","via":"Køge","from":"Næstved","name":"Regionaltog 51: Næstved => Roskilde","type":"route","route":"train","network":"Takst Sjælland","service":"regional","website":"https://www.dsb.dk","operator":"DSB","public_transport:version":"2"},"4089653":{"to":"Rødby Færge","ref":"RE54","via":"Roskilde","from":"København","name":"Regionaltog 54: København => Roskilde => Rødby Færge","type":"route","route":"train","name:de":"Regionalzug 54: Kopenhagen => Roskilde => Rödby Fähre","network":"Takst Sjælland","service":"regional","website":"https://www.dsb.dk","operator":"DSB","public_transport:version":"2"},"6357671":{"to":"Hamburg","ref":"IC 76","via":"Flensburg","from":"Aarhus","name":"IC 76: Aarhus => Hamburg","note":"bis 2026 wegen Bauarbeiten eingestellt","route":"train","name:ja":"IC 76:オーフス=>ハンブルク","network":"DB InterCity","service":"long_distance","operator":"DB Fernverkehr","disused:type":"route","network:wikidata":"Q896739","network:wikipedia":"de:Intercity (Deutschland)","operator:wikidata":"Q452140","operator:wikipedia":"de:DB Fernverkehr","public_transport:version":"2"},"6710562":{"to":"Kalundborg","ref":"RE56","from":"København","name":"Regionaltog 56: København => Kalundborg","note":"opening_hour: Det første tog, der afgår fra København H. Det sidste tog, der ankommer til Kalundborg.","type":"route","route":"train","network":"Takst Sjælland","service":"regional","website":"https://www.dsb.dk","operator":"DSB","opening_hours":"Su-Fr 22:26-01:12, Fr-Sa 22:26-02:12","public_transport:version":"2"},"7485248":{"to":"Aalborg","ref":"IC1","via":"Aarhus","from":"CPH Lufthavn","name":"InterCity 1: København => Aalborg","type":"route","route":"train","service":"long_distance","operator":"DSB","public_transport:version":"2"},"8859137":{"to":"Stockholm","ref":"80","from":"København","name":"Tog 80: København => Stockholm","type":"route","route":"train","to:da":"Stockholm","to:en":"Stockholm","to:fi":"Tukholma","to:sv":"Stockholm","from:da":"København","from:en":"Copenhagen","from:fi":"Kööpenhamina","from:sv":"Köpenhamn","name:da":"Tog 80: København => Stockholm","name:en":"Train 80: Copenhagen => Stockholm","name:fi":"Juna 80: Kööpenhamina => Tukholma","name:sv":"Tåg 80: Köpenhamn => Stockholm","network":"SJ","service":"long_distance","operator":"SJ","network:wikidata":"Q8301325","public_transport:version":"2"},"8902045":{"to":"Esbjerg","ref":"IC4","from":"Østerport","name":"InterCity 4: København Østerport => Esbjerg","type":"route","route":"train","service":"long_distance","operator":"DSB","public_transport:version":"2"},"8902192":{"to":"Sønderborg","ref":"ICL5","via":"Fredericia","from":"Københavns Lufthavn","name":"InterCityLyn 5: Københavns Lufthavn => Sønderborg","type":"route","route":"train","service":"long_distance","operator":"DSB","public_transport:version":"2"},"8902781":{"to":"Flensburg","ref":"IC 81","from":"Fredericia","name":"IC 81: Fredericia => Flensburg","type":"route","route":"train","name:ja":"IC 81:フレゼリシア=>フレンスブルク","service":"long_distance","operator":"DSB","public_transport:version":"2"},"10018654":{"to":"Gilleleje","ref":"940R","from":"Helsingør","name":"Lokaltog 940R: Helsingør => Gilleleje","type":"route","route":"train","network":"Takst Sjælland","service":"regional","website":"https://www.lokaltog.dk","operator":"Lokaltog A/S","public_transport:version":"2"},"10020468":{"to":"Helsingør","ref":"940R","from":"Gilleleje","name":"Lokaltog 940R: Gilleleje => Helsingør","type":"route","route":"train","network":"Takst Sjælland","service":"regional","website":"https://www.lokaltog.dk","operator":"Lokaltog A/S","public_transport:version":"2"},"10030715":{"to":"Gilleleje","ref":"950R","from":"Hillerød","name":"Lokaltog 950R: Hillerød => Gilleleje","type":"route","route":"train","network":"Takst Sjælland","service":"regional","website":"https://www.lokaltog.dk","operator":"Lokaltog A/S","public_transport:version":"2"},"10031319":{"to":"Hillerød","ref":"950R","from":"Gilleleje","name":"Lokaltog 950R: Gilleleje => Hillerød","type":"route","route":"train","network":"Takst Sjælland","service":"regional","website":"https://www.lokaltog.dk","operator":"Lokaltog A/S","public_transport:version":"2"},"10038486":{"to":"Tisvildeleje","ref":"960R","from":"Hillerød","name":"Lokaltog 960R: Hillerød => Tisvildeleje","type":"route","route":"train","network":"Takst Sjælland","service":"regional","website":"https://www.lokaltog.dk","operator":"Lokaltog A/S","public_transport:version":"2"},"10040858":{"to":"Hillerød","ref":"960R","from":"Tisvildeleje","name":"Lokaltog 960R: Tisvildeleje => Hillerød","type":"route","route":"train","network":"Takst Sjælland","service":"regional","website":"https://www.lokaltog.dk","operator":"Lokaltog A/S","public_transport:version":"2"},"10043579":{"to":"Hundested","ref":"920R","from":"Hillerød","name":"Lokaltog 920R: Hillerød => Hundested","type":"route","route":"train","network":"Takst Sjælland","service":"regional","website":"https://www.lokaltog.dk","operator":"Lokaltog A/S","public_transport:version":"2"},"10050677":{"to":"Nykøbing Sj.","ref":"510R","from":"Holbæk","name":"Lokaltog 510R: Holbæk => Nykøbing Sj.","type":"route","route":"train","network":"Takst Sjælland","service":"regional","website":"https://www.lokaltog.dk","operator":"Lokaltog A/S","public_transport:version":"2"},"10057399":{"to":"Holbæk","ref":"510R","from":"Nykøbing Sj.","name":"Lokaltog 510R: Nykøbing Sj. => Holbæk","type":"route","route":"train","network":"Takst Sjælland","service":"regional","website":"https://www.lokaltog.dk","operator":"Lokaltog A/S","public_transport:version":"2"},"10060412":{"to":"København","ref":"RE56","from":"Kalundborg","name":"Regionaltog 56: Kalundborg => København","note":"opening_hour: Det første tog, der afgår fra Kalundborg. Det sidste tog, der ankommer til København H.","type":"route","route":"train","network":"Takst Sjælland","service":"regional","website":"https://www.dsb.dk","operator":"DSB","opening_hours":"Mo-Su 22:44-00:39, Mo-Th, Su 21:44-00:39","public_transport:version":"2"},"10062788":{"to":"København H","ref":"RE56","from":"Østerport","name":"Regionaltog 56: Østerport => København H","note":"opening_hour: Det første tog, der afgår fra Østerport. Det sidste tog, der ankommer til København H.","type":"route","route":"train","network":"Takst Sjælland","service":"commuter","website":"https://www.dsb.dk","operator":"DSB","opening_hours":"Mo-Fr 05:14-21:26; Sa-Su 06:14-21:43","public_transport:version":"2"},"10067182":{"to":"Østerport","from":"København H","name":"Regionaltog 56: København H => Østerport","type":"route","route":"train","service":"commuter","website":"https://www.dsb.dk","operator":"DSB","opening_hours":"Mo-Fr 06:05-22:24; Sa-Su 06:35-22:24","public_transport:version":"2","opening_hours:description":"opening_hour: Det første tog, der afgår fra København H. Det sidste tog, der ankommer til Østerport."},"10067813":{"to":"Slagelse","ref":"410","from":"Tølløse","name":"Lokaltog 410: Tølløse => Slagelse","type":"route","route":"train","network":"Takst Sjælland","service":"regional","website":"https://www.lokaltog.dk","operator":"Lokaltog A/S","public_transport:version":"2"},"10075730":{"to":"Tølløse","ref":"410","from":"Slagelse","name":"Lokaltog 410: Slagelse => Tølløse","type":"route","route":"train","network":"Takst Sjælland","service":"regional","website":"https://www.lokaltog.dk","operator":"Lokaltog A/S","public_transport:version":"2"},"10081742":{"to":"Nakskov","ref":"710R","from":"Nykøbing F","name":"Lokaltog 710R: Nykøbing F => Nakskov","type":"route","route":"train","network":"Takst Sjælland","service":"regional","website":"https://www.lokaltog.dk","operator":"Lokaltog A/S","public_transport:version":"2"},"10082664":{"to":"Nykøbing F","from":"Nakskov","name":"Lokaltog 710R: Nakskov => Nykøbing F","type":"route","route":"train","network":"Takst Sjælland","service":"regional","website":"https://www.lokaltog.dk","operator":"Lokaltog A/S","public_transport:version":"2"},"10089250":{"to":"Faxe Ladeplads","ref":"110R","from":"Køge","name":"Lokaltog 110R: Køge => Faxe Ladeplads","type":"route","route":"train","network":"Takst Sjælland","service":"regional","website":"https://www.lokaltog.dk","duration":"00:31","interval":"01:00","operator":"Lokaltog A/S","opening_hours":"Mo-Fr 05:28-23:59; Sa 07:31-00:02, Su 08:31-00:02","public_transport:version":"2"},"10089795":{"to":"Køge","ref":"110R","from":"Faxe Ladeplads","name":"Lokaltog 110R: Faxe Ladeplads => Køge","type":"route","route":"train","network":"Takst Sjælland","service":"regional","website":"https://www.lokaltog.dk","duration":"00:33","interval":"01:00","operator":"Lokaltog A/S","opening_hours":"Mo-Fr 05:33-19:36, 20:03-23:36; Sa 07:06-22:39; Su,PH 08:06-22:39","public_transport:version":"2"},"10092163":{"to":"Rødvig","ref":"210R","via":"Grubberholm","from":"Køge","name":"Lokaltog 210R: Køge => Grubberholm => Rødvig","type":"route","route":"train","network":"Takst Sjælland","service":"regional","website":"https://www.lokaltog.dk","operator":"Lokaltog A/S","opening_hours":"Mo-Fr 21:04-0:38, Sa-Su 08:04-23:38","public_transport:version":"2"},"10092995":{"to":"Køge","ref":"210R","via":"Grubberholm","from":"Rødvig","name":"Lokaltog 210R: Rødvig => Grubberholm => Køge","type":"route","route":"train","network":"Takst Sjælland","service":"regional","website":"https://www.lokaltog.dk","duration":"00:34","interval":"01:00","operator":"Lokaltog A/S","opening_hours":"Mo-Fr 19:48-20:22, 20:42-23:16; Sa-Su,PH 07:42-23:16","public_transport:version":"2"},"10093525":{"to":"Køge","ref":"210R","from":"Rødvig","name":"Lokaltog 210R: Rødvig => Køge","type":"route","route":"train","network":"Takst Sjælland","service":"regional","website":"https://www.lokaltog.dk","duration":"00:34","interval":"00:30","operator":"Lokaltog A/S","opening_hours":"Mo-Fr 05:18-19:22","public_transport:version":"2"},"10093592":{"to":"Rødvig","ref":"210R","from":"Køge","name":"Lokaltog 210R: Køge => Rødvig","type":"route","route":"train","network":"Takst Sjælland","service":"regional","website":"https://www.lokaltog.dk","duration":"00:33","interval":"00:30","operator":"Lokaltog A/S","opening_hours":"Mo-Fr 06:11-20:14","public_transport:version":"2"},"10101268":{"to":"Helsingør","ref":"930R","from":"Hillerød","name":"Lokaltog 930R: Hillerød => Helsingør","type":"route","route":"train","network":"Takst Sjælland","service":"regional","website":"https://www.lokaltog.dk","operator":"Lokaltog A/S","public_transport:version":"2"},"10109544":{"to":"Rødby Færge","ref":"RE54","via":"Køge Nord","from":"København","name":"Regionaltog 54: København => Køge Nord => Rødby Færge","type":"route","route":"train","network":"Takst Sjælland","service":"regional","website":"https://www.dsb.dk","operator":"DSB","public_transport:version":"2"},"10116830":{"to":"Flensborg","ref":"IC5","from":"Fredericia","name":"InterCity 5: Fredericia => Flensborg","type":"route","route":"train","service":"long_distance","operator":"DSB","public_transport:version":"2"},"10124072":{"to":"CPH Lufthavn","ref":"IC1","via":"Aarhus","from":"Aalborg","name":"InterCity 1: Aalborg => København","note":"Ændringer på Sjælland til december 2019.","type":"route","route":"train","service":"long_distance","operator":"DSB","public_transport:version":"2"},"10124977":{"to":"Struer","ref":"ICL3","via":"Herning","from":"København H","name":"InterCityLyn 3: København => Herning => Struer","type":"route","route":"train","service":"long_distance","operator":"DSB","public_transport:version":"2"},"10127313":{"to":"København H","ref":"ICL3","via":"Herning","from":"Struer","name":"InterCityLyn 3: Struer => Herning => København","type":"route","route":"train","service":"long_distance","operator":"DSB","public_transport:version":"2"},"10132352":{"to":"CPH Lufthavn","ref":"RE40","from":"Nivå","name":"Regionaltog 40: Nivå => CPH Lufthavn","type":"route","route":"train","network":"Takst Sjælland","service":"regional","website":"https://www.dsb.dk","operator":"DSB","public_transport:version":"2"},"10132353":{"to":"Nivå","ref":"RE40","from":"CPH Lufthavn","name":"Regionaltog 40: CPH Lufthavn => Nivå","type":"route","route":"train","network":"Takst Sjælland","service":"regional","website":"https://www.dsb.dk","operator":"DSB","public_transport:version":"2"},"10184845":{"to":"Niebüll","ref":"RB 66","from":"Tønder","name":"RB 66: Tønder => Niebüll","type":"route","route":"train","network":"Nahverkehrsverbund Schleswig-Holstein","service":"regional","operator":"Arriva PLC","network:short":"NAH.SH","network:wikidata":"Q15825147","network:wikipedia":"de:Nahverkehrsverbund Schleswig-Holstein","public_transport:version":"2"},"15017265":{"to":"Aalborg Lufthavn","ref":"RE69","from":"Skørping","name":"RE69: Skørping - Aalborg - Aalborg Lufthavn","type":"route","route":"train","service":"regional","operator":"Nordjyske Jernbaner","public_transport:version":"2"},"15017266":{"to":"Skørping","ref":"RE69","from":"Aalborg Lufthavn","name":"RE69: Aalborg Lufthavn - Aalborg - (Skørping)","type":"route","route":"train","service":"regional","operator":"Nordjyske Jernbaner","public_transport:version":"2"},"15474783":{"to":"Slagelse","ref":"RE50","from":"CPH Lufthavn","name":"Regionaltog 50: CPH Lufthavn => København S => Høje Taastrup => Slagelse","type":"route","route":"train","network":"Takst Sjælland","service":"regional","website":"https://www.dsb.dk","operator":"DSB","public_transport:version":"2"},"15474784":{"to":"CPH Lufthavn","ref":"RE50","from":"Slagelse","name":"Regionaltog 50: Slagelse => Høje Taastrup => København S => CPH Lufthavn","type":"route","route":"train","network":"Takst Sjælland","service":"regional","website":"https://www.dsb.dk","operator":"DSB","public_transport:version":"2"}}