{"1431856":{"name":"وهران - بشار","type":"route","route":"train","name:ar":"وهران - بشار","name:en":"Oran - Bechar","name:fr":"Oran - Bechar","operator":"الشركة الوطنية للنقل بالسكك الحديدية","public_transport:version":"2"},"2614956":{"ref":"1022, 1024, 1026, 1028, 1030, 1032, 1034, 1036, 1038, 1040, 1042, 1044, 1046, 1050, 1052, 1054, 1056","name":"El Affroun - Alger","type":"route","route":"train","network":"Tran de banlieue","operator":"SNTF"},"2614957":{"ref":"1023, 1025, 1027, 1029, 1031, 1033, 1035, 1037, 1039, 1041, 1045, 1047, 1049, 1051, 1053, 1055, 1057","name":"Algiers - El Affroun","type":"route","route":"train","name:ar":"الجزائر - العفرون","name:fr":"Alger - El Affroun","network":"Train de banlieue","operator":"SNTF"},"2614960":{"ref":"1002, 1004","name":"Oran - Alger","type":"route","route":"train","name:ar":"وهران - الجزائر","network":"Train grande ligne","operator":"SNFT","public_transport:version":"2"},"2908768":{"ref":"1153","name":"(وهران -) تلمسان - مغنية - الغزوات","type":"route","route":"train","name:ar":"(وهران -) تلمسان - مغنية - الغزوات","name:fr":"(Oran - ) Tlemcen - Maghnia - Ghazaouet","network":"SNTF:regional","operator":"الشركة الوطنية للنقل بالسكك الحديدية","public_transport:version":"2"},"5672793":{"to":"Alger","from":"Batna","name":"Batna - Alger","type":"route","route":"train","name:ar":"باتنة - الجزائر","network":"DZ:réseau_ferroviaire","operator":"SNTF","public_transport:version":"2"},"6780746":{"to":"تبسة","from":"عنابة","name":"عنابة - تبسة","type":"route","route":"train","name:ar":"عنابة - تبسة","name:fr":"Annaba - Tébessa","operator":"الشركة الوطنية للنقل بالسكك الحديدية","operator:ar":"الشركة الوطنية للنقل بالسكك الحديدية","operator:wikidata":"Q1275038","operator:wikipedia":"ar:الشركة الوطنية للنقل بالسكك الحديدية","public_transport:version":"2"},"6783500":{"to":"عنابة","from":"قسنطينة","name":"قسنطينة - عنابة","type":"route","route":"train","name:ar":"قسنطينة - عنابة","name:fr":"Constantine - Annaba","operator":"الشركة الوطنية للنقل بالسكك الحديدية","operator:ar":"الشركة الوطنية للنقل بالسكك الحديدية","operator:wikidata":"Q1275038","operator:wikipedia":"ar:الشركة الوطنية للنقل بالسكك الحديدية","public_transport:version":"2"},"6784115":{"to":"الجزائر","from":"قسنطينة","name":"قسنطينة - الجزائر","type":"route","route":"train","name:ar":"قسنطينة - الجزائر","name:en":"Constantine - Alger","name:fr":"Constantine - Alger","operator":"الشركة الوطنية للنقل بالسكك الحديدية","operator:ar":"الشركة الوطنية للنقل بالسكك الحديدية","operator:wikidata":"Q1275038","operator:wikipedia":"ar:الشركة الوطنية للنقل بالسكك الحديدية","public_transport:version":"2"},"6791320":{"name":"Agha - Zeralda","type":"route","route":"train","name:ar":"آغا - زرالدة","network":"SNTF Alger","operator":"SNTF","wikidata":"Q115597907","public_transport:version":"2"},"6825383":{"to":"بني منصور","ref":"B 134;B 136;B 154;B 162","from":"بجاية","name":"Autorail Béjaïa - Beni Mansour","type":"route","route":"train","to:ar":"بني منصور","to:fr":"Beni Mansour","ref:ar":"ب 134;ب 136;ب 154;ب 162","from:ar":"بجاية","from:fr":"Béjaïa","name:ar":"عربة قطار بجاية - بني منصور","name:en":"Autorail Béjaïa - Beni Mansour","name:fr":"Autorail Béjaïa - Beni Mansour","network":"DZ:transport","alt_name":"خط قطار بجاية - بني منصور","distance":"88","operator":"الشركة الوطنية للنقل بالسكك الحديدية","wikidata":"Q25383179","start_date":"1889","alt_name:ar":"خط قطار بجاية - بني منصور","operator:ar":"الشركة الوطنية للنقل بالسكك الحديدية","operator:wikidata":"Q1275038","operator:wikipedia":"ar:الشركة الوطنية للنقل بالسكك الحديدية","public_transport:version":"1"},"8669807":{"name":"Oran - Arzew","type":"route","route":"train","name:ar":"وهران - أرزيو","operator":"SNTF","public_transport:version":"2"},"8669809":{"ref":"1303-1307","name":"Oran - Ain Temouchenet","type":"route","route":"train","name:ar":"وهران - عين تموشنت","operator":"SNTF","public_transport:version":"2"},"8688078":{"to":"سيدي عمار","from":"عنابة","name":"عنابة - سيدي عمار","type":"route","route":"train","name:ar":"عنابة - سيدي عمار","name:fr":"Annaba - Sidi Amar","operator":"الشركة الوطنية للنقل بالسكك الحديدية","operator:ar":"الشركة الوطنية للنقل بالسكك الحديدية","operator:wikidata":"Q1275038","operator:wikipedia":"ar:الشركة الوطنية للنقل بالسكك الحديدية","public_transport:version":"2"},"8688079":{"name":"Oued Aissi - Alger","type":"route","route":"train","name:ar":"وادي عيسي - الجزائر","operator":"SNTF","wikidata":"Q115597783","public_transport:version":"2"},"8688080":{"name":"Biskra - Touggourt","type":"route","route":"train","operator":"SNTF","public_transport:version":"2"},"8688081":{"to":"بسكرة","from":"قسنطينة","name":"قسنطينة - بسكرة","type":"route","route":"train","name:ar":"قسنطينة - بسكرة","name:en":"Constantine - Biskra","operator":"الشركة الوطنية للنقل بالسكك الحديدية","operator:ar":"الشركة الوطنية للنقل بالسكك الحديدية","operator:wikidata":"Q1275038","operator:wikipedia":"ar:الشركة الوطنية للنقل بالسكك الحديدية","public_transport:version":"2"},"9310407":{"to":"Thenia","from":"Alger","name":"Alger - Thenia","type":"route","route":"train","name:ar":"الجزائر - الثنية","network":"SNTF Alger","operator":"SNFT","wikidata":"Q115597862","public_transport:version":"2"},"9314181":{"to":"Airport","from":"Agha","name":"Agha - Airport","type":"route","route":"train","colour":"green","name:ar":"آغا - المطار","network":"SNFT","operator":"SNFT","wikidata":"Q115597926","public_transport:version":"2"},"15485686":{"to":"محطة القطار سيدي بلعباس","from":"محطة القطار مدريسة","name":"Medrissa Railroad Line → SBA Railroad Line","type":"route","route":"train","name:ar":"خط قطار سيدي بلعباس ← مدريسة","operator":"SNTF","opening_hours":"6:00","public_transport:version":"2"},"15577999":{"to":"Medrissa train station","from":"Sidi BelAbbes train station","name":"SBA Railroad Line → Medrissa Railroad Line","type":"route","route":"train","name:ar":"خط قطار سيدي بلعباس ← مدريسة","operator":"SNTF","opening_hours":"14:30","public_transport:version":"2"}}