{"1191136":{"to":"Narva","ref":"RE33","from":"Tallinn","name":"Elron RE33: Tallinn → Narva","type":"route","route":"train","name:de":"Reval <--> Narwa","name:ru":"Пригородный дизельпоезд RE33: Таллинн => Нарва","network":"Elron","service":"regional","operator":"AS Eesti Liinirongid","network:wikidata":"Q1326458","public_transport:version":"2"},"1404445":{"to":"Viljandi","ref":"RE23","from":"Tallinn","name":"Elron RE23: Tallinn → Viljandi","type":"route","route":"train","name:ru":"Пригородный дизельпоезд RE23: Таллинн => Вильянди","network":"Elron","service":"regional","operator":"AS Eesti Liinirongid","network:wikidata":"Q1326458","public_transport:version":"2"},"1405182":{"to":"Paldiski","ref":"R14","from":"Tallinn","name":"Elron R14: Tallinn → Paldiski","type":"route","route":"train","name:ru":"Пригородный электропоезд R14: Таллинн => Палдиски","network":"Elron","service":"commuter","operator":"AS Eesti Liinirongid","wikidata":"Q8567799","passenger":"regional","network:metro":"Elron tuumikvõrk","network:wikidata":"Q1326458","public_transport:version":"2"},"1405231":{"to":"Tallinn","ref":"R11","from":"Pääsküla","name":"Elron R11: Pääsküla → Tallinn","type":"route","route":"train","name:ru":"Пригородный электропоезд R11: Пяэскюла => Таллинн","network":"Elron","service":"regional","operator":"AS Eesti Liinirongid","network:wikidata":"Q1326458","public_transport:version":"2"},"1405240":{"to":"Aegviidu","ref":"R31","from":"Tallinn","name":"Elron R31: Tallinn → Aegviidu","type":"route","route":"train","name:ru":"Пригородный электропоезд R31: Таллинн => Аэгвийду","network":"Elron","service":"commuter","operator":"AS Eesti Liinirongid","wikidata":"Q11026783","passenger":"regional","network:metro":"Elron tuumikvõrk","network:wikidata":"Q1326458","public_transport:version":"2"},"1405558":{"to":"Kloogaranna","ref":"R13","from":"Tallinn","name":"Elron R13: Tallinn → Kloogaranna","type":"route","route":"train","name:ru":"Пригородный электропоезд R13: Таллинн => Клоогаранна","network":"Elron","service":"commuter","operator":"AS Eesti Liinirongid","wikidata":"Q125882969","passenger":"regional","network:metro":"Elron tuumikvõrk","network:wikidata":"Q1326458","public_transport:version":"2"},"9725779":{"to":"Tallinn","ref":"R16","from":"Turba","name":"Elron R16: Turba → Tallinn","type":"route","route":"train","name:ru":"Пригородный электропоезд R16: Турба => Таллинн","network":"Elron","service":"commuter","operator":"AS Eesti Liinirongid","wikidata":"Q125884567","passenger":"regional","network:metro":"Elron tuumikvõrk","network:wikidata":"Q1326458","public_transport:version":"2"},"9725783":{"to":"Tallinn","ref":"R31","from":"Aegviidu","name":"Elron R31: Aegviidu → Tallinn","type":"route","route":"train","name:ru":"Пригородный электропоезд R31: Аэгвийду => Таллинн","network":"Elron","service":"commuter","operator":"AS Eesti Liinirongid","wikidata":"Q11026783","passenger":"regional","network:metro":"Elron tuumikvõrk","network:wikidata":"Q1326458","public_transport:version":"2"},"9726752":{"to":"Tallinn","ref":"R14","from":"Paldiski","name":"Elron R14: Paldiski → Tallinn","type":"route","route":"train","name:ru":"Пригородный электропоезд R14: Палдиски => Таллинн","network":"Elron","service":"commuter","operator":"AS Eesti Liinirongid","passenger":"regional","network:metro":"Elron tuumikvõrk","network:wikidata":"Q1326458","public_transport:version":"2"},"9726760":{"to":"Tallinn","ref":"R13","from":"Kloogaranna","name":"Elron R13: Kloogaranna → Tallinn","type":"route","route":"train","name:ru":"Пригородный электропоезд R13: Клоогаранна => Таллинн","network":"Elron","service":"commuter","operator":"AS Eesti Liinirongid","wikidata":"Q125882969","passenger":"regional","network:metro":"Elron tuumikvõrk","network:wikidata":"Q1326458","public_transport:version":"2"},"14337417":{"to":"Türi","ref":"R22","from":"Tallinn","name":"Elron R22: Tallinn → Türi","type":"route","route":"train","name:ru":"Пригородный дизельпоезд R22: Таллинн => Тюри","network":"Elron","service":"regional","operator":"AS Eesti Liinirongid","passenger":"regional","network:metro":"Elron tuumikvõrk","network:wikidata":"Q1326458","public_transport:version":"2"},"14337418":{"to":"Tallinn","ref":"R15","from":"Riisipere","name":"Elron R15: Riisipere → Tallinn","type":"route","route":"train","name:ru":"Пригородный электропоезд R15: Рийзипере => Таллинн","network":"Elron","service":"commuter","operator":"AS Eesti Liinirongid","passenger":"regional","network:wikidata":"Q1326458","public_transport:version":"2"},"14337419":{"to":"Riisipere","ref":"R15","from":"Tallinn","name":"Elron R15: Tallinn → Riisipere","type":"route","route":"train","name:ru":"Пригородный электропоезд R15: Таллинн => Рийзипере","network":"Elron","service":"commuter","operator":"AS Eesti Liinirongid","passenger":"regional","network:wikidata":"Q1326458","public_transport:version":"2"},"14337420":{"to":"Pääsküla","ref":"R11","from":"Tallinn","name":"Elron R11: Tallinn → Pääsküla","type":"route","route":"train","name:ru":"Пригородный электропоезд R11: Таллинн => Пяэскюла","network":"Elron","service":"commuter","operator":"AS Eesti Liinirongid","network:wikidata":"Q1326458","public_transport:version":"2"},"14337421":{"to":"Keila","ref":"R12","from":"Tallinn","name":"Elron R12: Tallinn → Keila","type":"route","route":"train","name:ru":"Пригородный электропоезд R12: Таллинн => Кейла","network":"Elron","service":"commuter","operator":"AS Eesti Liinirongid","passenger":"regional","network:metro":"Elron tuumikvõrk","network:wikidata":"Q1326458","public_transport:version":"2"},"14337422":{"to":"Narva","ref":"E33","from":"Tallinn","name":"Elron E33: Talinn → Narva (Eskpress)","type":"route","route":"train","name:de":"Reval <--> Narwa (Express)","name:ru":"Скорый дизельпоезд E33: Таллинн => Нарва","network":"Elron","service":"long_distance","operator":"AS Eesti Liinirongid","network:wikidata":"Q1326458","public_transport:version":"2"},"14337423":{"to":"Viljandi","ref":"E23","from":"Tallinn","name":"Elron E23: Tallinn → Viljandi (Ekspress)","type":"route","route":"train","name:ru":"Скорый дизельпоезд E23: Таллинн => Вильянди","network":"Elron","service":"long_distance","operator":"AS Eesti Liinirongid","network:wikidata":"Q1326458","public_transport:version":"2"},"14338040":{"to":"Tallinn","ref":"RE32","from":"Rakvere","name":"Elron RE32: Rakvere → Tallinn","type":"route","route":"train","name:ru":"Пригородный дизельпоезд RE32: Раквере => Таллинн","network":"Elron","service":"regional","operator":"AS Eesti Liinirongid","network:wikidata":"Q1326458","public_transport:version":"2"},"14338041":{"to":"Rakvere","ref":"RE32","from":"Tallinn","name":"Elron RE32: Tallinn → Rakvere","type":"route","route":"train","name:de":"Reval <--> Wesenberg","name:ru":"Пригородный дизельпоезд RE32: Таллинн => Раквере","network":"Elron","service":"regional","operator":"AS Eesti Liinirongid","network:wikidata":"Q1326458","public_transport:version":"2"},"14338042":{"to":"Tallinn","ref":"R22","from":"Türi","name":"Elron R22: Türi → Tallinn","type":"route","route":"train","name:ru":"Пригородный дизельпоезд R22: Тюри => Таллинн","network":"Elron","service":"regional","operator":"AS Eesti Liinirongid","passenger":"regional","network:metro":"Elron tuumikvõrk","network:wikidata":"Q1326458","public_transport:version":"2"},"14338043":{"to":"Tartu","ref":"R46","from":"Piusa","name":"Elron R46: Piusa/Koidula → Tartu","type":"route","route":"train","name:ru":"Пригородный дизельпоезд R46: Койдула/Пиуза => Тарту","network":"Elron","service":"regional","operator":"AS Eesti Liinirongid","passenger":"regional","network:wikidata":"Q1326458","public_transport:version":"2"},"14338044":{"to":"Piusa","ref":"R46","from":"Tartu","name":"Elron R46: Tartu → Koidula/Piusa","type":"route","route":"train","name:ru":"Пригородный дизельпоезд R46: Тарту => Койдула/Пиуза","network":"Elron","service":"regional","operator":"AS Eesti Liinirongid","passenger":"regional","network:wikidata":"Q1326458","public_transport:version":"2"},"14338045":{"to":"Tartu","ref":"R45","from":"Valga","name":"Elron R45: Valga → Tartu","type":"route","route":"train","name:ru":"Пригородный дизельпоезд R45: Валга => Тарту","network":"Elron","service":"regional","operator":"AS Eesti Liinirongid","network:wikidata":"Q1326458","public_transport:version":"2"},"14338046":{"to":"Tartu","ref":"R44","from":"Jõgeva","name":"Elron R44: Jõgeva → Tartu","type":"route","route":"train","name:ru":"Пригородный дизельпоезд R44: Йыгева => Тарту","network":"Elron","service":"regional","operator":"AS Eesti Liinirongid","network:wikidata":"Q1326458","public_transport:version":"2"},"14338269":{"to":"Tallinn","ref":"RE34","from":"Tartu","name":"Elron RE34: Tartu → Tallinn","type":"route","route":"train","name:ru":"Пригородный дизельпоезд RE34: Тарту => Таллинн","network":"Elron","service":"regional","operator":"AS Eesti Liinirongid","network:wikidata":"Q1326458","public_transport:version":"2"},"14338270":{"to":"Tartu","ref":"RE34","from":"Tallinn","name":"Elron RE34: Tallinn → Tartu","type":"route","route":"train","name:ru":"Пригородный дизельпоезд RE34: Таллинн => Тарту","network":"Elron","service":"regional","operator":"AS Eesti Liinirongid","network:wikidata":"Q1326458","public_transport:version":"2"},"14457151":{"to":"Turba","ref":"R16","from":"Tallinn","name":"Elron R16: Tallinn → Turba","type":"route","route":"train","name:ru":"Пригородный электропоезд R16: Таллинн => Турба","network":"Elron","service":"commuter","operator":"AS Eesti Liinirongid","wikidata":"Q125884567","passenger":"regional","network:metro":"Elron tuumikvõrk","network:wikidata":"Q1326458","public_transport:version":"2"},"14460895":{"to":"Tallinn","ref":"R12","from":"Keila","name":"Elron R12: Keila → Tallinn","type":"route","route":"train","name:ru":"Пригородный электропоезд R12: Кейла => Таллинн","network":"Elron","service":"commuter","operator":"AS Eesti Liinirongid","passenger":"regional","network:metro":"Elron tuumikvõrk","network:wikidata":"Q1326458","public_transport:version":"2"},"16832707":{"to":"Tallinn","ref":"E23","from":"Viljandi","name":"Elron E23: Viljandi → Tallinn (Ekspress)","type":"route","route":"train","name:ru":"Скорый дизельпоезд E23: Вильянди => Таллинн","network":"Elron","service":"long_distance","operator":"AS Eesti Liinirongid","network:wikidata":"Q1326458","public_transport:version":"2"},"16832708":{"to":"Tallinn","ref":"RE23","from":"Viljandi","name":"Elron RE23: Viljandi → Tallinn","type":"route","route":"train","name:ru":"Пригородный дизельпоезд RE23: Вильянди => Таллинн","network":"Elron","service":"regional","operator":"AS Eesti Liinirongid","network:wikidata":"Q1326458","public_transport:version":"2"},"16836489":{"to":"Jõgeva","ref":"R44","from":"Tartu","name":"Elron R44: Tartu → Jõgeva","type":"route","route":"train","name:ru":"Пригородный дизельпоезд R44: Тарту => Йыгева","network":"Elron","service":"regional","operator":"AS Eesti Liinirongid","network:wikidata":"Q1326458","public_transport:version":"2"},"17300959":{"to":"Санкт-Петербург-Балтийский","ref":"814Ч","from":"Печоры-Псковские","name":"Скорый электропоезд 814Ч «Ласточка»: Печоры-Псковские => Санкт-Петербург-Балтийский","type":"route","route":"train","name:de":"Petseri - St Petersburg","name:en":"Pechory - St Petersburg","network":"РЖД","service":"long_distance","operator":"ДОСС","network:en":"RZD","network:ru":"РЖД","network:wikidata":"Q660770","network:wikipedia":"ru:Российские железные дороги","public_transport:version":"2"},"17300960":{"to":"Санкт-Петербург-Балтийский","ref":"812Я","from":"Печоры-Псковские","name":"Скорый электропоезд 812Я «Ласточка»: Печоры-Псковские => Санкт-Петербург-Балтийский","type":"route","route":"train","name:de":"Petseri - St Petersburg","name:en":"Pechory - St Petersburg","network":"РЖД","service":"long_distance","operator":"ДОСС","network:en":"RZD","network:ru":"РЖД","network:wikidata":"Q660770","network:wikipedia":"ru:Российские железные дороги","public_transport:version":"2"},"17481772":{"to":"Tallinn","ref":"R21","from":"Rapla","name":"Elron R21: Rapla → Tallinn","type":"route","route":"train","name:ru":"Пригородный дизельпоезд R21: Рапла => Таллинн","network":"Elron","service":"regional","operator":"AS Eesti Liinirongid","wikidata":"Q125884876","passenger":"regional","network:metro":"Elron tuumikvõrk","network:wikidata":"Q1326458","public_transport:version":"2"},"17481773":{"to":"Rapla","ref":"R21","from":"Tallinn","name":"Elron R21: Tallinn → Rapla","type":"route","route":"train","name:ru":"Пригородный дизельпоезд R21: Таллинн => Рапла","network":"Elron","service":"regional","operator":"AS Eesti Liinirongid","wikidata":"Q125884876","passenger":"regional","network:metro":"Elron tuumikvõrk","network:wikidata":"Q1326458","public_transport:version":"2"},"17481774":{"to":"Valga","ref":"R45","from":"Tartu","name":"Elron R45: Tartu → Valga","type":"route","route":"train","name:ru":"Пригородный дизельпоезд R45: Тарту => Валга","network":"Elron","service":"regional","operator":"AS Eesti Liinirongid","network:wikidata":"Q1326458","public_transport:version":"2"},"17481775":{"to":"Tallinn","ref":"E34","from":"Tartu","name":"Elron E34: Tartu → Tallinn (Ekspress)","type":"route","route":"train","name:ru":"Скорый дизельпоезд E34: Тарту => Таллинн","network":"Elron","service":"long_distance","operator":"AS Eesti Liinirongid","network:wikidata":"Q1326458","public_transport:version":"2"},"17481776":{"to":"Tartu","ref":"E34","from":"Tallinn","name":"Elron E34: Tallinn → Tartu (Ekspress)","type":"route","route":"train","name:ru":"Скорый дизельпоезд E34: Таллинн => Тарту","network":"Elron","service":"long_distance","operator":"AS Eesti Liinirongid","network:wikidata":"Q1326458","public_transport:version":"2"}}