{"280689":{"name":"خط الإسكندرية-أسوان","type":"route","route":"train","name:ar":"خط الإسكندرية-أسوان","name:de":"Alexandria-Assuan-Linie","name:en":"Alexandria-Aswan line","name:fr":"Ligne Alexandrie-Assouan","network":"EG-railway","public_transport:version":"2"},"14350100":{"to":"عدلى منصور","ref":"LRT","from":"مدينة المعارف","name":"القطار الكهربائي الخفيف","type":"route","route":"train","colour":"darkred","name:en":"Cairo Light Rail Transit: Adly Mansour → Knowledge City","name:fr":"Service branche Ramadan (Adly Mansour → Knowledge City)","network":"القطار الكهربائي الخفيف","operator":"RATP Dev","wikidata":"Q125121893","network:wikidata":"Q89843133","public_transport:version":"2"},"14350101":{"to":"مدينة المعارف","ref":"LRT","from":"عدلى منصور","name":"القطار الكهربائي الخفيف","type":"route","route":"train","colour":"darkred","name:en":"Cairo Light Rail Transit: Knowledge City → Adly Mansour","name:fr":"Service branche Ramadan (Knowledge City → Adly Mansour)","network":"القطار الكهربائي الخفيف","operator":"RATP Dev","wikidata":"Q125121893","public_transport:version":"2"},"14350102":{"to":"عدلى منصور","ref":"LRT","from":"مدينة الفنون و الثقافة","name":"القطار الكهربائي الخفيف","type":"route","route":"train","colour":"darkred","name:en":"Cairo Light Rail Transit","name:fr":"branche Nouvelle Capitale Administrative (vers A. Mansour)","network":"القطار الكهربائي الخفيف","duration":"45","operator":"RATP Dev","wikidata":"Q125123069","public_transport:version":"2"},"14350112":{"to":"مدينة الفنون و الثقافة","ref":"LRT","from":"عدلى منصور","name":"القطار الكهربائي الخفيف","type":"route","route":"train","colour":"darkred","name:en":"Cairo Light Rail Transit","name:fr":"branche Nouvelle Capitale Administrative (vers N. Cap. Adm.))","network":"القطار الكهربائي الخفيف","duration":"45","operator":"RATP Dev","wikidata":"Q125123069","public_transport:version":"2"}}