{"357190":{"to":"Leppävaara","ref":"A","from":"Helsinki","name":"A Helsinki–Leppävaara","type":"route","route":"train","colour":"#8C4799","network":"HSL","service":"commuter","interval":"20","operator":"VR","wikidata":"Q118874158","passenger":"urban","description":"Helsinki-Leppävaara","interval:peak":"10","interval:sunday":"30","network:wikidata":"Q473211","interval:saturday":"30","public_transport:version":"2"},"357191":{"to":"Helsinki","ref":"P","via":"Lentoasema","from":"Helsinki","name":"P Helsinki–Huopalahti–Lentoasema–Tikkurila–Helsinki","type":"route","route":"train","colour":"blue","network":"HSL","service":"commuter","operator":"VR","wikidata":"Q118874962","passenger":"urban","wheelchair":"yes","description":"Helsinki-Huopalahti-Lentoasema-Tikkurila-Helsinki","network:wikidata":"Q473211","public_transport:version":"2"},"357220":{"to":"Kauklahti","ref":"E","from":"Helsinki","name":"E Helsinki–Kauklahti","type":"route","route":"train","colour":"green","network":"HSL","operator":"VR","wikidata":"Q118869683","description":"Helsinki-Kauklahti","network:wikidata":"Q473211","public_transport:version":"2"},"357221":{"to":"Kirkkonummi","ref":"U","from":"Helsinki","name":"U Helsinki–Kirkkonummi","type":"route","route":"train","colour":"green","network":"HSL","operator":"VR","wikidata":"Q118869424","description":"Helsinki-Kirkkonummi","network:wikidata":"Q473211","network:wikipedia":"fi:Helsingin seudun liikenne","public_transport:version":"2"},"358111":{"to":"Tampere","ref":"R","via":"Riihimäki","from":"Helsinki","name":"R Helsinki–Riihimäki–Tampere","type":"route","fixme":"incomplete","route":"train","colour":"#357219","name:fi":"R Helsinki–Riihimäki–Tampere","name:sv":"R Helsingfors–Riihimäki–Tammerfors","network":"HSL","operator":"VR","wikidata":"Q118874959","public_transport:version":"2"},"358112":{"to":"Riihimäki","ref":"D","from":"Helsinki","name":"D Helsinki–Riihimäki","type":"route","route":"train","name:fi":"D Helsinki–Riihimäki","name:sv":"D Helsingfors–Riihimäki","network":"HSL","operator":"VR","description":"Helsinki-Riihimäki","public_transport:version":"2"},"358114":{"to":"Kirkkonummi","ref":"L","from":"Helsinki","name":"L Helsinki–Kirkkonummi","type":"route","route":"train","colour":"green","network":"HSL","operator":"VR","wikidata":"Q118869556","description":"Helsinki-Kirkkonummi","network:wikidata":"Q473211","network:wikipedia":"fi:Helsingin seudun liikenne","public_transport:version":"2"},"358115":{"to":"Lahti","ref":"Z","from":"Helsinki","name":"Z Helsinki–Lahti","type":"route","route":"train","name:fi":"Z Helsinki–Lahti","name:sv":"Z Helsingfors–Lahtis","network":"VR","operator":"VR","wikidata":"Q118874964","network:wikidata":"Q913248","network:wikipedia":"fi:VR-Yhtymä","not:network:wikidata":"Q473211","public_transport:version":"2"},"358138":{"to":"Kerava","ref":"K","from":"Helsinki","name":"K Helsinki–Kerava","type":"route","route":"train","network":"HSL","service":"commuter","operator":"VR","wikidata":"Q118874957","passenger":"urban","description":"Helsinki-Kerava","network:wikidata":"Q473211","public_transport:version":"2"},"358139":{"to":"Helsinki","ref":"I","via":"Lentoasema","from":"Helsinki","name":"I Helsinki–Tikkurila–Lentoasema–Huopalahti–Helsinki","type":"route","route":"train","network":"HSL","service":"commuter","operator":"VR","wikidata":"Q118874956","passenger":"urban","wheelchair":"yes","description":"Helsinki-Tikkurila-Lentoasema-Huopalahti-Helsinki","network:wikidata":"Q473211","public_transport:version":"2"},"358140":{"to":"Riihimäki","ref":"T","from":"Helsinki","name":"T Helsinki–Riihimäki","type":"route","route":"train","colour":"#357219","name:fi":"T Helsinki–Riihimäki","name:sv":"T Helsingfors–Riihimäki","network":"HSL","operator":"VR","wikidata":"Q118874961","description":"Helsinki-Riihimäki","public_transport:version":"2"},"358141":{"to":"Kerava","ref":"N","from":"Helsinki","name":"N Helsinki–Kerava","type":"route","route":"train","network":"HSL","operator":"VR","description":"Helsinki-Kerava","public_transport:version":"2"},"375226":{"name":"Laurila–Kemijärvi","type":"route","route":"train"},"375355":{"name":"Oulu–Laurila","type":"route","route":"train","name:fi":"Oulu–Laurila","name:sv":"Uleåborg–Laurila"},"375376":{"to":"Oulu","from":"Kontiomäki","name":"Oulu–Kontiomäki","type":"route","route":"train","name:fi":"Oulu–Kontiomäki","name:sv":"Uleåborg–Kontiomäki","network":"VR","service":"long_distance","operator":"VR","passenger":"national","network:wikidata":"Q913248","network:wikipedia":"fi:VR-Yhtymä"},"1849328":{"to":"Kajaani","ref":"IC65","from":"Helsinki","name":"InterCity 65","note":"Most of route is not marked as one way as it should be with public_transport:version=2","type":"route","route":"train","network":"VR","service":"long_distance","operator":"VR","passenger":"national","network:wikidata":"Q913248","network:wikipedia":"fi:VR-Yhtymä","public_transport:version":"2"},"7433392":{"to":"Helsinki","ref":"D","from":"Riihimäki","name":"D Riihimäki–Helsinki","type":"route","route":"train","network":"HSL","operator":"VR","description":"Riihimäki–Helsinki","public_transport:version":"2"},"7435092":{"to":"Lahti","ref":"G","from":"Riihimäki","name":"G Riihimäki - Lahti","type":"route","route":"train","name:fi":"G Riihimäki - Lahti","name:sv":"G Riihimäki - Lahtis","network":"VR","operator":"VR","wikidata":"Q118923662","network:wikidata":"Q913248","network:wikipedia":"fi:VR-Yhtymä","operator:wikidata":"Q913248","operator:wikipedia":"fi:VR-Yhtymä","not:network:wikidata":"Q473211","public_transport:version":"2"},"7435093":{"to":"Riihimäki","ref":"G","from":"Lahti","name":"G Lahti - Riihimäki","type":"route","route":"train","name:fi":"G Lahti - Riihimäki","name:sv":"G Lahtis - Riihimäki","network":"VR","operator":"VR","wikidata":"Q118923662","network:wikidata":"Q913248","network:wikipedia":"fi:VR-Yhtymä","operator:wikidata":"Q913248","operator:wikipedia":"fi:VR-Yhtymä","not:network:wikidata":"Q473211","public_transport:version":"2"},"7435585":{"to":"Helsinki","ref":"Z","from":"Lahti","name":"Z Lahti–Helsinki","type":"route","route":"train","name:fi":"Z Lahti–Helsinki","name:sv":"Z Lahtis–Helsingfors","network":"VR","operator":"VR","wikidata":"Q118874964","network:wikidata":"Q913248","network:wikipedia":"fi:VR-Yhtymä","not:network:wikidata":"Q473211","public_transport:version":"2"},"7435652":{"to":"Helsinki","ref":"K","from":"Kerava","name":"K Kerava–Helsinki","type":"route","route":"train","network":"HSL","service":"commuter","operator":"VR","wikidata":"Q118874957","passenger":"urban","description":"Helsinki-Kerava","network:wikidata":"Q473211","public_transport:version":"2"},"7438872":{"to":"Helsinki","ref":"N","from":"Kerava","name":"N Kerava–Helsinki","type":"route","route":"train","network":"HSL","operator":"VR","description":"Helsinki-Kerava","public_transport:version":"2"},"7439054":{"to":"Helsinki","ref":"R","via":"Riihimäki","from":"Tampere","name":"R Tampere–Riihimäki–Helsinki","type":"route","fixme":"incomplete","route":"train","colour":"#357219","network":"HSL","operator":"VR","wikidata":"Q118874959","public_transport:version":"2"},"7439174":{"to":"Helsinki","ref":"T","from":"Riihimäki","name":"T Riihimäki–Helsinki","type":"route","route":"train","colour":"#357219","network":"HSL","operator":"VR","wikidata":"Q118874961","description":"Helsinki-Riihimäki","public_transport:version":"2"},"7440363":{"to":"Helsinki","ref":"A","from":"Leppävaara","name":"A Leppävaara–Helsinki","type":"route","route":"train","colour":"#8C4799","network":"HSL","service":"commuter","interval":"20","operator":"VR","wikidata":"Q118874158","passenger":"urban","description":"Helsinki-Leppävaara","interval:peak":"10","interval:sunday":"30","network:wikidata":"Q473211","interval:saturday":"30","public_transport:version":"2"},"7442188":{"to":"Helsinki","ref":"E","from":"Kauklahti","name":"E Kauklahti–Helsinki","type":"route","route":"train","colour":"green","name:fi":"E Kauklahti–Helsinki","name:sv":"E Köklax–Helsingfors","network":"HSL","operator":"VR","wikidata":"Q118869683","description":"Helsinki-Kauklahti","network:wikidata":"Q473211","public_transport:version":"2"},"7442495":{"to":"Helsinki","ref":"U","from":"Kirkkonummi","name":"U Kirkkonummi–Helsinki","type":"route","route":"train","colour":"green","network":"HSL","operator":"VR","wikidata":"Q118869424","description":"Helsinki-Kirkkonummi","network:wikidata":"Q473211","network:wikipedia":"fi:Helsingin seudun liikenne","public_transport:version":"2"},"7442588":{"to":"Helsinki","ref":"L","from":"Kirkkonummi","name":"L Kirkkonummi–Helsinki","type":"route","route":"train","colour":"green","network":"HSL","operator":"VR","wikidata":"Q118869556","description":"Kirkkonummi–Helsinki","network:wikidata":"Q473211","network:wikipedia":"fi:Helsingin seudun liikenne","public_transport:version":"2"},"7442715":{"to":"Helsinki","ref":"Y","from":"Siuntio","name":"Y Siuntio–Helsinki","type":"route","route":"train","colour":"#357219","network":"HSL","operator":"VR","wikidata":"Q118868930","network:wikidata":"Q473211","network:wikipedia":"fi:Helsingin seudun liikenne","public_transport:version":"2"},"7443077":{"to":"Helsinki","ref":"S2","from":"Tampere","name":"S2 Tampere - Helsinki","type":"route","route":"train","name:fi":"S2 Tampere - Helsinki","name:sv":"S2 Tammerfors - Helsingfors","network":"VR","service":"high_speed","operator":"VR","public_transport:version":"2"},"7443078":{"to":"Tampere","ref":"S2","from":"Helsinki","name":"S2 Helsinki - Tampere","type":"route","route":"train","name:fi":"S2 Helsinki - Tampere","name:sv":"S2 Helsingfors - Tammerfors","network":"VR","service":"high_speed","operator":"VR","network:wikidata":"Q913248","network:wikipedia":"fi:VR-Yhtymä","public_transport:version":"2"},"7444971":{"to":"Jyväskylä","ref":"17","from":"Seinäjoki","name":"Train 17: Seinäjoki => Jyväskylä","type":"route","route":"train","network":"VR","service":"regional","operator":"VR","wheelchair":"limited","network:wikidata":"Q913248","network:wikipedia":"fi:VR-Yhtymä","public_transport:version":"2"},"7444972":{"to":"Seinäjoki","ref":"17","from":"Jyväskylä","name":"Train 17: Jyväskylä => Seinäjoki","type":"route","route":"train","network":"VR","service":"regional","operator":"VR","wheelchair":"limited","network:wikidata":"Q913248","network:wikipedia":"fi:VR-Yhtymä","public_transport:version":"2"},"9022117":{"to":"Rovaniemi","ref":"IC 273","from":"Helsinki","name":"Train IC 273: Helsinki => Rovaniemi","type":"route","route":"train","network":"VR","service":"night","operator":"VR","passenger":"national","network:wikidata":"Q913248","network:wikipedia":"fi:VR-Yhtymä","public_transport:version":"2"},"10624903":{"to":"Toijala","ref":"M","from":"Nokia","name":"Train M: Nokia => Toijala","type":"route","route":"train","network":"VR","service":"commuter","operator":"VR","wikidata":"Q118902123","passenger":"regional","network:wikidata":"Q913248","public_transport:version":"2"},"10631586":{"to":"Keuruu","from":"Tampere","name":"Taajamajuna Tampere - Keuruu","type":"route","route":"train","name:fi":"Taajamajuna Tampere - Keuruu","network":"VR","service":"regional","operator":"VR","passenger":"national","network:wikidata":"Q913248","network:wikipedia":"fi:VR-Yhtymä","public_transport:version":"2"},"10993680":{"to":"Helsinki","ref":"U","from":"Kirkkonummi","name":"U Kirkkonummi–Helsinki","type":"route","route":"train","colour":"green","network":"HSL","operator":"VR","wikidata":"Q118869424","description":"Helsinki-Kirkkonummi","network:wikidata":"Q473211","network:wikipedia":"fi:Helsingin seudun liikenne","public_transport:version":"2"},"10993681":{"to":"Helsinki","ref":"U","from":"Kirkkonummi","name":"U Kirkkonummi–Helsinki","type":"route","route":"train","colour":"green","network":"HSL","operator":"VR","wikidata":"Q118869424","description":"Helsinki-Kirkkonummi","network:wikidata":"Q473211","network:wikipedia":"fi:Helsingin seudun liikenne","public_transport:version":"2"},"11772005":{"to":"Nokia","ref":"M","from":"Toijala","name":"Train M: Toijala => Nokia","type":"route","route":"train","network":"VR","service":"commuter","operator":"VR","wikidata":"Q118902123","passenger":"regional","network:wikidata":"Q913248","public_transport:version":"2"},"13438376":{"to":"Helsinki","ref":"Z","via":"Lahti","from":"Kouvola","name":"Z Kouvola - Helsinki","type":"route","route":"train","name:fi":"Z Kouvola - Helsinki","name:fr":"Z : Kouvola > Helsinki","name:sv":"Z Kouvola - Helsingfors","network":"VR","operator":"VR","wikidata":"Q118874964","wheelchair":"limited","network:wikidata":"Q913248","network:wikipedia":"fi:VR-Yhtymä","public_transport:version":"2"},"13438377":{"to":"Kouvola","ref":"Z","via":"Lahti","from":"Helsinki","name":"Z Helsinki - Kouvola","type":"route","route":"train","name:fi":"Z Helsinki–Kouvola","name:fr":"Z : Helsinki > Kouvola","name:sv":"Z Helsingfors–Kouvola","network":"VR","operator":"VR","wikidata":"Q118874964","wheelchair":"limited","network:wikidata":"Q913248","network:wikipedia":"fi:VR-Yhtymä","public_transport:version":"2"},"13793786":{"to":"Kotkan satama","ref":"O","via":"Nastola;Kausala;Kouvola;Myllykoski;Inkeroinen","from":"Lahti","name":"O Lahti-Kotkan satama","type":"route","route":"train","name:fr":"O : Lahti > Port de Kotka","network":"VR","service":"commuter","website":"vr.fi","operator":"VR","wikidata":"Q118924451","passenger":"regional","wheelchair":"no","network:wikidata":"Q913248","network:wikipedia":"fi:VR-Yhtymä"},"13810077":{"to":"Lahti","ref":"O","via":"Inkeroinen;Myllykoski;Kouvola;Kausala;Nastola","from":"Kotkan satama","name":"O Kotkan satama-Lahti","type":"route","route":"train","name:fr":"O : Port de Kotka > Lahti","network":"VR","service":"commuter","operator":"VR","wikidata":"Q118924451","passenger":"regional","wheelchair":"no","network:wikidata":"Q913248","network:wikipedia":"fi:VR-Yhtymä"},"14122169":{"to":"Joensuu","ref":"H723","via":"Varkaus;Heinävesi;Vihtari;Viinijärvi","from":"Pieksämäki","name":"Taajamajuna 723","type":"route","price":"24e","route":"train","duration":"02:11","operator":"Vr"},"14126023":{"to":"Savonlinna","ref":"H751","via":"Punkaharju;Kerimäki","from":"Parikkala","name":"Taajamajuna 751","note":"Junat H741, 743, 745, 747, 749 ottavat myös saman reitin samaan suuntaan.","type":"route","route":"train","name:en":"Regional train 751","name:fi":"Taajamajuna 751","name:sv":"Regionaltåg 751","network":"VR","service":"regional","duration":"00:57","operator":"Vr","passenger":"national","network:wikidata":"Q913248"},"14335383":{"to":"Helsinki","ref":"P276","via":"Kemi;Oulu;Seinäjoki;Tampere","from":"Kolari","name":"Yöpikajuna 276","type":"route","route":"train","name:en":"Night express train 276","name:fi":"Yöpikajuna 276","name:sv":"Nattexpresståg 276","network":"VR","service":"night","duration":"15:03","operator":"VR","passenger":"national","network:wikidata":"Q913248"},"15015719":{"name":"Herttoniemen satamarata","type":"route","route":"train","wikidata":"Q11862468","wikipedia":"fi:Herttoniemen satamarata"},"15932097":{"to":"Hämeenlinna","ref":"D","from":"Helsinki","name":"D Helsinki -> Hämeenlinna","type":"route","route":"train","colour":"035EB9","network":"VR","operator":"VR","wikidata":"Q118874955","network:wikidata":"Q913248"}}