{"534621":{"name":"Tbilisi-Telavi","type":"route","route":"train","operator":"Georgian Railway LLC"},"1198501":{"fee":"yes","ref":"686","name":"მატარებელი #686: თბილისი → ბორჯომი","type":"route","route":"train","name:en":"Train #686: Tbilisi → Borjomi","name:ka":"მატარებელი #686: თბილისი → ბორჯომი","name:ru":"Поезд №686: Тбилиси → Боржоми","network":"სს \\\"საქართველოს რკინიგზა\\\"","website":"https://www.railway.ge","interval":"24:00","operator":"სს \\\"საქართველოს რკინიგზა\\\"","passenger":"regional","roundtrip":"no","reservation":"required","network:wikidata":"Q115880","public_transport:version":"2"},"6409429":{"to":"ზუგდიდი","fee":"yes","ref":"870","from":"თბილისის ცენტრალური სადგური","name":"მატარებელი #870: თბილისი → ზუგდიდი","type":"route","route":"train","name:en":"Train #870: Tbilisi → Zugdidi","name:ka":"მატარებელი #870: თბილისი → ზუგდიდი","name:ru":"Поезд №870: Тбилиси → Зугдиди","network":"სს \\\"საქართველოს რკინიგზა\\\"","website":"https://www.railway.ge","duration":"05:46","interval":"24:00","operator":"სს \\\"საქართველოს რკინიგზა\\\"","passenger":"national","roundtrip":"no","reservation":"required","network:wikidata":"Q115880","public_transport:version":"2"},"14630243":{"to":"ბათუმი-ცენტრალი","fee":"yes","ref":"684","from":"ქუთაისი-1","name":"მატარებელი №684: ქუთაისი → ბათუმი","type":"route","route":"train","name:en":"Train #684: Kutaisi → Batumi","name:ka":"მატარებელი №684: ქუთაისი → ბათუმი","name:ru":"Поезд №684: Кутаиси → Батуми","network":"სს \\\"საქართველოს რკინიგზა\\\"","website":"https://www.railway.ge","duration":"04:12","interval":"24:00","operator":"სს \\\"საქართველოს რკინიგზა\\\"","passenger":"regional","roundtrip":"no","reservation":"required","public_transport:version":"2"},"14631214":{"to":"ბათუმი-ცენტრალი","fee":"yes","ref":"682","from":"ქუთაისი-1","name":"მატარებელი #682: ქუთაისი → ბათუმი","type":"route","route":"train","name:en":"Train #682: Kutaisi → Batumi","name:ka":"მატარებელი #682: ქუთაისი → ბათუმი","name:ru":"Поезд №682: Кутаиси → Батуми","network":"სს \\\"საქართველოს რკინიგზა\\\"","website":"https://www.railway.ge","duration":"04:22","interval":"24:00","operator":"სს \\\"საქართველოს რკინიგზა\\\"","passenger":"regional","roundtrip":"no","reservation":"required","public_transport:version":"2"},"14631215":{"to":"ქუთაისი-1","fee":"yes","ref":"681","from":"ბათუმი-ცენტრალი","name":"მატარებელი #681: ბათუმი → ქუთაისი","type":"route","route":"train","name:en":"Train #681: Batumi → Kutaisi","name:ka":"მატარებელი #681: ბათუმი → ქუთაისი","name:ru":"Поезд №681: Батуми → Кутаиси","network":"სს \\\"საქართველოს რკინიგზა\\\"","website":"https://www.railway.ge","duration":"04:19","interval":"24:00","operator":"სს \\\"საქართველოს რკინიგზა\\\"","passenger":"regional","roundtrip":"no","reservation":"required","public_transport:version":"2"},"14631216":{"to":"ქუთაისი-1","fee":"yes","ref":"683","from":"ბათუმი-ცენტრალი","name":"მატარებელი #683: ბათუმი → ქუთაისი","type":"route","route":"train","name:en":"Train #683: Batumi → Kutaisi","name:ka":"მატარებელი #683: ბათუმი → ქუთაისი","name:ru":"Поезд №683: Батуми → Кутаиси","network":"სს \\\"საქართველოს რკინიგზა\\\"","website":"https://www.railway.ge","duration":"03:55","interval":"24:00","operator":"სს \\\"საქართველოს რკინიგზა\\\"","passenger":"regional","roundtrip":"no","reservation":"required","public_transport:version":"2"},"14669013":{"to":"ბათუმი-ცენტრალი","fee":"yes","ref":"808","from":"თბილისის ცენტრალური სადგური","name":"მატარებელი #808: თბილისი → ბათუმი","type":"route","route":"train","name:en":"Train #808: Tbilisi → Batumi","name:ka":"მატარებელი #808: თბილისი → ბათუმი","name:ru":"Поезд №808: Тбилиси → Батуми","network":"სს \\\"საქართველოს რკინიგზა\\\"","website":"https://www.railway.ge","duration":"05:14","interval":"24:00","operator":"სს \\\"საქართველოს რკინიგზა\\\"","passenger":"national","roundtrip":"no","reservation":"required","network:wikidata":"Q115880","public_transport:version":"2"},"14669014":{"to":"ბათუმი-ცენტრალი","fee":"yes","ref":"804","from":"თბილისის ცენტრალური სადგური","name":"მატარებელი #804: თბილისი → ბათუმი","type":"route","route":"train","name:en":"Train #804: Tbilisi → Batumi","name:ka":"მატარებელი #804: თბილისი → ბათუმი","name:ru":"Поезд №804: Тбилиси → Батуми","network":"სს \\\"საქართველოს რკინიგზა\\\"","website":"https://www.railway.ge","duration":"05:14","interval":"24:00","operator":"სს \\\"საქართველოს რკინიგზა\\\"","passenger":"national","roundtrip":"no","reservation":"required","network:wikidata":"Q115880","public_transport:version":"2"},"14669015":{"to":"ბათუმი-ცენტრალი","fee":"yes","ref":"802","from":"თბილისის ცენტრალური სადგური","name":"მატარებელი #802: თბილისი → ბათუმი","type":"route","route":"train","name:en":"Train #802: Tbilisi → Batumi","name:ka":"მატარებელი #802: თბილისი → ბათუმი","name:ru":"Поезд №802: Тбилиси → Батуми","network":"სს \\\"საქართველოს რკინიგზა\\\"","website":"https://www.railway.ge","duration":"05:08","interval":"24:00","operator":"სს \\\"საქართველოს რკინიგზა\\\"","passenger":"national","roundtrip":"no","reservation":"required","network:wikidata":"Q115880","public_transport:version":"2"},"14669016":{"to":"თბილისის ცენტრალური სადგური","fee":"yes","ref":"807","from":"ბათუმი-ცენტრალი","name":"მატარებელი #807: ბათუმი → თბილისი","type":"route","route":"train","name:en":"Train #807: Batumi → Tbilisi","name:ka":"მატარებელი #807: ბათუმი → თბილისი","name:ru":"Поезд №807: Батуми → Тбилиси","network":"სს \\\"საქართველოს რკინიგზა\\\"","website":"https://www.railway.ge","duration":"05:14","interval":"24:00","operator":"სს \\\"საქართველოს რკინიგზა\\\"","passenger":"national","roundtrip":"no","reservation":"required","network:wikidata":"Q115880","public_transport:version":"2"},"14669017":{"to":"თბილისის ცენტრალური სადგური","fee":"yes","ref":"803","from":"ბათუმი-ცენტრალი","name":"მატარებელი #803: ბათუმი → თბილისი","type":"route","route":"train","name:en":"Train #803: Batumi → Tbilisi","name:ka":"მატარებელი #803: ბათუმი → თბილისი","name:ru":"Поезд №803: Батуми → Тбилиси","network":"სს \\\"საქართველოს რკინიგზა\\\"","website":"https://www.railway.ge","duration":"05:07","interval":"24:00","operator":"სს \\\"საქართველოს რკინიგზა\\\"","passenger":"national","roundtrip":"no","reservation":"required","network:wikidata":"Q115880","public_transport:version":"2"},"14669018":{"to":"თბილისის ცენტრალური სადგური","fee":"yes","ref":"801","from":"ბათუმი-ცენტრალი","name":"მატარებელი #801: ბათუმი → თბილისი","type":"route","route":"train","name:en":"Train #801: Batumi → Tbilisi","name:ka":"მატარებელი #801: ბათუმი → თბილისი","name:ru":"Поезд №801: Батуми → Тбилиси","network":"სს \\\"საქართველოს რკინიგზა\\\"","website":"https://www.railway.ge","duration":"05:08","interval":"24:00","operator":"სს \\\"საქართველოს რკინიგზა\\\"","passenger":"national","roundtrip":"no","reservation":"required","not:network:wikidata":"Q115880","public_transport:version":"2"},"15399325":{"name":"Tbilisi Centrai - Airport","type":"route","route":"train"},"15664273":{"to":"Երևան / ერევანი","ref":"371","from":"Թբիլիսի / თბილისი","name":"Գնացք №371: Թբիլիսի → Երևան / მატარებელი #371: თბილისი → ერევანი","type":"route","route":"train","source":"https://www.railway.am/infodocs/yerevan-tbilisi_rasp_arm.pdf","name:en":"Train #371: Tbilisi → Yerevan","name:hy":"Գնացք №371: Թբիլիսի → Երևան","name:ka":"მატარებელი #371: თბილისი → ერევანი","name:ru":"Поезд №371: Тбилиси → Ереван","network":"Հարավկովկասյան երկաթուղի / სს \\\"საქართველოს რკინიგზა\\\"","website":"https://www.railway.am","duration":"10:35","operator":"Հարավկովկասյան երկաթուղի / სს \\\"საქართველოს რკინიგზა\\\"","passenger":"international","operator:wikidata":"Q20795233","public_transport:version":"2"},"15667577":{"to":"თბილისის ცენტრალური სადგური","fee":"yes","ref":"869","from":"ზუგდიდი","name":"მატარებელი #869: ზუგდიდი → თბილისი","type":"route","route":"train","name:en":"Train #869: Zugdidi → Tbilisi","name:ka":"მატარებელი #869: ზუგდიდი → თბილისი","name:ru":"Поезд №869: Зугдиди → Тбилиси","network":"სს \\\"საქართველოს რკინიგზა\\\"","website":"https://www.railway.ge","duration":"05:51","interval":"24:00","operator":"სს \\\"საქართველოს რკინიგზა\\\"","passenger":"national","roundtrip":"no","reservation":"required","network:wikidata":"Q115880","public_transport:version":"2"},"15675175":{"to":"ბათუმი-ცენტრალი","fee":"yes","ref":"614","from":"ოზურგეთი","name":"მატარებელი #614: ოზურგეთი → ბათუმი","type":"route","route":"train","name:en":"Train #614: Ozurgeti → Batumi","name:ka":"მატარებელი #614: ოზურგეთი → ბათუმი","name:ru":"Поезд №614: Озургети → Батуми","network":"სს \\\"საქართველოს რკინიგზა\\\"","website":"https://www.railway.ge","duration":"02:05","interval":"24:00","operator":"სს \\\"საქართველოს რკინიგზა\\\"","passenger":"national","roundtrip":"no","reservation":"required","public_transport:version":"2"},"15675176":{"to":"ოზურგეთი","fee":"yes","ref":"613","from":"ბათუმი-ცენტრალი","name":"მატარებელი #613: ბათუმი → ოზურგეთი","type":"route","route":"train","name:en":"Train #613: Batumi → Ozurgeti","name:ka":"მატარებელი #613: ბათუმი → ოზურგეთი","name:ru":"Поезд №613: Батуми → Озургети","network":"სს \\\"საქართველოს რკინიგზა\\\"","website":"https://www.railway.ge","duration":"02:05","interval":"24:00","operator":"სს \\\"საქართველოს რკინიგზა\\\"","passenger":"national","roundtrip":"no","reservation":"required","public_transport:version":"2"},"15683666":{"to":"თბილისის ცენტრალური სადგური","fee":"yes","ref":"873","from":"ფოთი","name":"მატარებელი №873: ფოთი → თბილისი","type":"route","route":"train","name:en":"Train #873: Poti → Tbilisi","name:ka":"მატარებელი №873: ფოთი → თბილისი","name:ru":"Поезд №873: Поти → Тбилиси","network":"სს \\\"საქართველოს რკინიგზა\\\"","website":"https://www.railway.ge","duration":"05:24","interval":"24:00","operator":"სს \\\"საქართველოს რკინიგზა\\\"","passenger":"national","roundtrip":"no","reservation":"required","network:wikidata":"Q115880","public_transport:version":"2"},"15683667":{"to":"ფოთი","fee":"yes","ref":"874","from":"თბილისის ცენტრალური სადგური","name":"მატარებელი #874: თბილისი → ფოთი","type":"route","route":"train","name:en":"Train #874: Tbilisi → Poti","name:ka":"მატარებელი #874: თბილისი → ფოთი","name:ru":"Поезд №874: Тбилиси → Поти","network":"სს \\\"საქართველოს რკინიგზა\\\"","website":"https://www.railway.ge","duration":"05:22","interval":"24:00","operator":"სს \\\"საქართველოს რკინიგზა\\\"","passenger":"national","roundtrip":"no","reservation":"required","network:wikidata":"Q115880","public_transport:version":"2"},"15683825":{"to":"ოზურგეთი","fee":"yes","ref":"12","from":"თბილისის ცენტრალური სადგური","name":"მატარებელი #12: თბილისი → ოზურგეთი","type":"route","route":"train","name:en":"Train #12: Tbilisi → Ozurgeti","name:ka":"მატარებელი #12: თბილისი → ოზურგეთი","name:ru":"Поезд №12: Тбилиси → Озургети","network":"სს \\\"საქართველოს რკინიგზა\\\"","website":"https://www.railway.ge","duration":"08:18","interval":"24:00","operator":"სს \\\"საქართველოს რკინიგზა\\\"","passenger":"national","roundtrip":"no","reservation":"required","network:wikidata":"Q115880","public_transport:version":"2"},"15689444":{"to":"ოზურგეთი","fee":"yes","ref":"11","from":"თბილისის ცენტრალური სადგური","name":"მატარებელი #11: ოზურგეთი → თბილისი","type":"route","route":"train","name:en":"Train #11: Ozurgeti → Tbilisi","name:ka":"მატარებელი #11: ოზურგეთი → თბილისი","name:ru":"Поезд №11: Озургети → Тбилиси","network":"სს \\\"საქართველოს რკინიგზა\\\"","website":"https://www.railway.ge","duration":"08:44","interval":"24:00","operator":"სს \\\"საქართველოს რკინიგზა\\\"","passenger":"national","roundtrip":"no","reservation":"required","network:wikidata":"Q115880","public_transport:version":"2"},"15689520":{"fee":"yes","ref":"618","name":"მატარებელი #618: თბილისი → ბორჯომი","type":"route","route":"train","name:en":"Train #618: Tbilisi → Borjomi","name:ka":"მატარებელი #618: თბილისი → ბორჯომი","name:ru":"Поезд №618: Тбилиси → Боржоми","network":"სს \\\"საქართველოს რკინიგზა\\\"","website":"https://www.railway.ge","interval":"24:00","operator":"სს \\\"საქართველოს რკინიგზა\\\"","passenger":"regional","roundtrip":"no","reservation":"required","network:wikidata":"Q115880","public_transport:version":"2"},"15689521":{"fee":"yes","ref":"617","name":"მატარებელი #617: ბორჯომი → თბილისი","type":"route","route":"train","name:en":"Train #617: Borjomi → Tbilisi","name:ka":"მატარებელი #617: ბორჯომი → თბილისი","name:ru":"Поезд №617: Боржоми → Тбилиси","network":"სს \\\"საქართველოს რკინიგზა\\\"","website":"https://www.railway.ge","interval":"24:00","operator":"სს \\\"საქართველოს რკინიგზა\\\"","passenger":"regional","roundtrip":"no","reservation":"required","network:wikidata":"Q115880","public_transport:version":"2"},"15689522":{"fee":"yes","ref":"685","name":"მატარებელი #685: ბორჯომი → თბილისი","type":"route","route":"train","name:en":"Train #685: Borjomi → Tbilisi","name:ka":"მატარებელი #685: ბორჯომი → თბილისი","name:ru":"Поезд №685: Боржоми → Тбилиси","network":"სს \\\"საქართველოს რკინიგზა\\\"","website":"https://www.railway.ge","interval":"24:00","operator":"სს \\\"საქართველოს რკინიგზა\\\"","passenger":"regional","roundtrip":"no","reservation":"required","network:wikidata":"Q115880","public_transport:version":"2"},"15820548":{"to":"Сочи / Шәача","ref":"928Э","from":"Гагра / Гагра","name":"Поезд 928Э «Сочи»: Гагра → Сочи / Адәыӷба 928Е: Гагра → Шәача","type":"route","route":"train","name:ab":"Адәыӷба 928Е: Гагра → Шәача","name:en":"Train 928E: Gagra → Sochi","name:ru":"Поезд 928Э «Сочи»: Гагра → Сочи","website":"https://www.rzd.ru/ru/9319/page/51772?id=287","duration":"03:20","operator":"АО «Федеральная пассажирская компания»","passenger":"international","public_transport:version":"2"},"15962414":{"to":"Сочи / Шәача","ref":"306С","from":"Сухум / Аҟәа","name":"Поезд 306С: Сухум → Сочи / Адәыӷба 306С: Аҟәа → Шәача","type":"route","route":"train","name:ab":"Адәыӷба 306С: Аҟәа → Шәача","name:en":"Train 306S: Sokhumi → Sochi","name:ka":"მატარებელი 306ს: სოხუმი → სოჭი","name:ru":"Поезд 306С: Сухум → Сочи","duration":"06:06","operator":"АО «Федеральная пассажирская компания»","passenger":"international","public_transport:version":"2"},"16010991":{"to":"საჩხერე","fee":"yes","ref":"633","from":"ქუთაისი-1","name":"მატარებელი #633: ქუთაისი → საჩხერე","type":"route","route":"train","name:en":"Train #633: Kutaisi → Sachkhere","name:ka":"მატარებელი #633: ქუთაისი → საჩხერე","name:ru":"Поезд №633: Кутаиси → Сачхере","network":"სს \\\"საქართველოს რკინიგზა\\\"","website":"https://www.railway.ge","duration":"03:22","interval":"24:00","operator":"სს \\\"საქართველოს რკინიგზა\\\"","passenger":"regional","roundtrip":"no","reservation":"required","network:wikidata":"Q115880","public_transport:version":"2"},"16010992":{"to":"ქუთაისი-1","fee":"yes","ref":"636","from":"საჩხერე","name":"მატარებელი #636: საჩხერე → ქუთაისი","type":"route","route":"train","name:en":"Train #636: Sachkhere → Kutaisi","name:ka":"მატარებელი #636: საჩხერე → ქუთაისი","name:ru":"Поезд №636: Сачхере → Кутаиси","network":"სს \\\"საქართველოს რკინიგზა\\\"","website":"https://www.railway.ge","duration":"03:35","interval":"24:00","operator":"სს \\\"საქართველოს რკინიგზა\\\"","passenger":"regional","roundtrip":"no","reservation":"required","network:wikidata":"Q115880","public_transport:version":"2"},"16010993":{"to":"საჩხერე","fee":"yes","ref":"635","from":"ქუთაისი-1","name":"მატარებელი #635: ქუთაისი → საჩხერე","type":"route","route":"train","name:en":"Train #635: Kutaisi → Sachkhere","name:ka":"მატარებელი #635: ქუთაისი → საჩხერე","name:ru":"Поезд №635: Кутаиси → Сачхере","network":"სს \\\"საქართველოს რკინიგზა\\\"","website":"https://www.railway.ge","duration":"03:25","interval":"24:00","operator":"სს \\\"საქართველოს რკინიგზა\\\"","passenger":"regional","roundtrip":"no","reservation":"required","network:wikidata":"Q115880","public_transport:version":"2"},"16010994":{"to":"ქუთაისი-1","fee":"yes","ref":"634","from":"საჩხერე","name":"მატარებელი #634: საჩხერე → ქუთაისი","type":"route","route":"train","name:en":"Train #634: Sachkhere → Kutaisi","name:ka":"მატარებელი #634: საჩხერე → ქუთაისი","name:ru":"Поезд №634: Сачхере → Кутаиси","network":"სს \\\"საქართველოს რკინიგზა\\\"","website":"https://www.railway.ge","duration":"03:23","interval":"24:00","operator":"სს \\\"საქართველოს რკინიგზა\\\"","passenger":"regional","roundtrip":"no","reservation":"required","network:wikidata":"Q115880","public_transport:version":"2"},"16011098":{"to":"თბილისის ცენტრალური სადგური","fee":"yes","ref":"6416","from":"გარდაბანი","name":"მატარებელი #6416: გარდაბანი → თბილისი","type":"route","route":"train","name:en":"Train #6416: Gardabani → Tbilisi","name:ka":"მატარებელი #6416: გარდაბანი → თბილისი","name:ru":"Поезд №6416: Гардабани → Тбилиси","network":"სს \\\"საქართველოს რკინიგზა\\\"","website":"https://www.railway.ge","duration":"01:06","interval":"24:00","operator":"სს \\\"საქართველოს რკინიგზა\\\"","passenger":"suburban","roundtrip":"no","reservation":"required","public_transport:version":"2"},"16011099":{"to":"თბილისის ცენტრალური სადგური","fee":"yes","ref":"6414","from":"გარდაბანი","name":"მატარებელი #6414: გარდაბანი → თბილისი","type":"route","route":"train","name:en":"Train #6414: Gardabani → Tbilisi","name:ka":"მატარებელი #6414: გარდაბანი → თბილისი","name:ru":"Поезд №6414: Гардабани → Тбилиси","network":"სს \\\"საქართველოს რკინიგზა\\\"","website":"https://www.railway.ge","duration":"01:07","interval":"24:00","operator":"სს \\\"საქართველოს რკინიგზა\\\"","passenger":"suburban","roundtrip":"no","reservation":"required","public_transport:version":"2"},"16011186":{"to":"გარდაბანი","fee":"yes","ref":"6415","from":"თბილისის ცენტრალური სადგური","name":"მატარებელი #6415: თბილისი → გარდაბანი","type":"route","route":"train","name:en":"Train #6415: Tbilisi → Gardabani","name:ka":"მატარებელი #6415: თბილისი → გარდაბანი","name:ru":"Поезд №6415: Тбилиси → Гардабани","network":"სს \\\"საქართველოს რკინიგზა\\\"","website":"https://www.railway.ge","duration":"01:05","interval":"24:00","operator":"სს \\\"საქართველოს რკინიგზა\\\"","passenger":"suburban","roundtrip":"no","reservation":"required","public_transport:version":"2"},"16011187":{"to":"გარდაბანი","fee":"yes","ref":"6413","from":"თბილისის ცენტრალური სადგური","name":"მატარებელი #6413: თბილისი → გარდაბანი","type":"route","route":"train","name:en":"Train #6413: Tbilisi → Gardabani","name:ka":"მატარებელი #6413: თბილისი → გარდაბანი","name:ru":"Поезд №6413: Тбилиси → Гардабани","network":"სს \\\"საქართველოს რკინიგზა\\\"","website":"https://www.railway.ge","duration":"01:03","interval":"24:00","operator":"სს \\\"საქართველოს რკინიგზა\\\"","passenger":"suburban","roundtrip":"no","reservation":"required","public_transport:version":"2"},"16024298":{"to":"ზესტაფონი","fee":"yes","ref":"6446","from":"ხაშური","name":"მატარებელი #6446: ხაშური → ზესტაფონი","type":"route","route":"train","name:en":"Train #6446: Khashuri → Zestafoni","name:ka":"მატარებელი #6446: ხაშური → ზესტაფონი","name:ru":"Поезд №6446: Хашури → Зестафони","network":"სს \\\"საქართველოს რკინიგზა\\\"","website":"https://www.railway.ge","duration":"02:18","interval":"24:00","operator":"სს \\\"საქართველოს რკინიგზა\\\"","passenger":"national","roundtrip":"no","reservation":"required","network:wikidata":"Q115880","public_transport:version":"2"},"16024299":{"to":"ზესტაფონი","fee":"yes","ref":"6418","from":"ხაშური","name":"მატარებელი #6418: ხაშური → ზესტაფონი","type":"route","route":"train","name:en":"Train #6418: Khashuri → Zestafoni","name:ka":"მატარებელი #6418: ხაშური → ზესტაფონი","name:ru":"Поезд №6418: Хашури → Зестафони","network":"სს \\\"საქართველოს რკინიგზა\\\"","website":"https://www.railway.ge","duration":"02:17","interval":"24:00","operator":"სს \\\"საქართველოს რკინიგზა\\\"","passenger":"national","roundtrip":"no","reservation":"required","network:wikidata":"Q115880","public_transport:version":"2"},"16024300":{"to":"ხაშური","fee":"yes","ref":"6447","from":"ზესტაფონი","name":"მატარებელი #6447: ზესტაფონი → ხაშური","type":"route","route":"train","name:en":"Train #6447: Zestafoni → Khashuri","name:ka":"მატარებელი #6447: ზესტაფონი → ხაშური","name:ru":"Поезд №6447: Зестафони → Хашури","network":"სს \\\"საქართველოს რკინიგზა\\\"","service":"regional","website":"https://www.railway.ge","duration":"02:12","interval":"24:00","operator":"სს \\\"საქართველოს რკინიგზა\\\"","passenger":"suburban","roundtrip":"no","reservation":"required","network:wikidata":"Q115880","public_transport:version":"2"},"16024301":{"to":"ხაშური","fee":"yes","ref":"6417","from":"ზესტაფონი","name":"მატარებელი #6417: ზესტაფონი → ხაშური","type":"route","route":"train","name:en":"Train #6417: Zestafoni → Khashuri","name:ka":"მატარებელი #6417: ზესტაფონი → ხაშური","name:ru":"Поезд №6417: Зестафони → Хашури","network":"სს \\\"საქართველოს რკინიგზა\\\"","website":"https://www.railway.ge","duration":"02:12","interval":"24:00","operator":"სს \\\"საქართველოს რკინიგზა\\\"","passenger":"suburban","roundtrip":"no","reservation":"required","network:wikidata":"Q115880","public_transport:version":"2"},"16236589":{"to":"თბილისის ცენტრალური სადგური","fee":"yes","ref":"17","from":"ქუთაისი-1","name":"მატარებელი #17: ქუთაისი → თბილისი","type":"route","route":"train","name:en":"Train #17: Kutaisi → Tbilisi","name:ka":"მატარებელი #17: ქუთაისი → თბილისი","name:ru":"Поезд №17: Кутаиси → Тбилиси","network":"სს \\\"საქართველოს რკინიგზა\\\"","website":"https://www.railway.ge","duration":"05:19","interval":"24:00","operator":"სს \\\"საქართველოს რკინიგზა\\\"","passenger":"national","roundtrip":"no","reservation":"required","network:wikidata":"Q115880","public_transport:version":"2"},"16236590":{"to":"ქუთაისი-1","fee":"yes","ref":"18","from":"თბილისის ცენტრალური სადგური","name":"მატარებელი #18: თბილისი → ქუთაისი","type":"route","route":"train","name:en":"Train #18: Tbilisi → Kutaisi","name:ka":"მატარებელი #18: თბილისი → ქუთაისი","name:ru":"Поезд №802: Тбилиси → Кутаиси","network":"სს \\\"საქართველოს რკინიგზა\\\"","website":"https://www.railway.ge","duration":"05:40","interval":"24:00","operator":"სს \\\"საქართველოს რკინიგზა\\\"","passenger":"national","roundtrip":"no","reservation":"required","network:wikidata":"Q115880","public_transport:version":"2"},"16242895":{"to":"Туапсе-Пассажирская","ref":"928С","from":"Гагра","name":"Поезд 928С: Гагра → Туапсе","type":"route","route":"train","name:en":"Train 928S: Gagra → Tuapse","name:ka":"მატარებელი 928ს: გაგრა → ტუაფსე","name:ru":"Поезд 928С: Гагра → Туапсе","duration":"06:06","operator":"АО «Федеральная пассажирская компания»","passenger":"international","public_transport:version":"2"},"16243889":{"fee":"yes","name":"მატარებელი ბაკურიანი → ბორჯომი","type":"route","route":"train","name:en":"Train Bakuriani → Borjomi","name:ru":"Поезд Бакуриани → Боржоми","network":"სს \\\"საქართველოს რკინიგზა\\\"","website":"https://www.railway.ge","operator":"სს \\\"საქართველოს რკინიგზა\\\"","roundtrip":"no","network:wikidata":"Q115880","public_transport:version":"2"},"16243890":{"fee":"yes","name":"მატარებელი ბორჯომი → ბაკურიანი","type":"route","route":"train","name:en":"Train Borjomi → Bakuriani","name:ru":"Поезд Боржоми → Бакуриани","network":"სს \\\"საქართველოს რკინიგზა\\\"","website":"https://www.railway.ge","operator":"სს \\\"საქართველოს რკინიგზა\\\"","roundtrip":"no","network:wikidata":"Q115880","public_transport:version":"2"}}