{"1606729":{"name":"Pythio-Edirne-Svilengrad","type":"route","route":"train","wikidata":"Q18335671","wikipedia":"de:Bahnstrecke Alexandroupoli–Swilengrad"},"1769849":{"to":"Ρίο","ref":"Π1","from":"Άγιος Ανδρέας","name":"Προαστιακός Π1: Άγιος Ανδρέας → Ρίο","type":"route","route":"train","colour":"#BD0D2E","name:ca":"Rodalies Π1: Sant Andreu → Rio","name:el":"Προαστιακός Π1: Άγιος Ανδρέας → Ρίο","name:en":"Train Π1: Agios Andreas → Rio","name:fr":"Train Π1: Saint-André → Rio","network":"Προαστιακός Πάτρας","service":"commuter","operator":"Hellenic Train","wikidata":"Q3536559","wikipedia":"el:Προαστιακός σιδηρόδρομος Πάτρας","start_date":"2010-07-09","contact:website":"https://www.hellenictrain.gr/en/patras-suburban-railway","network:wikidata":"Q3536559","network:wikipedia":"el:Προαστιακός σιδηρόδρομος Πάτρας","operator:wikidata":"Q7832852","operator:wikipedia":"el:Hellenic Train","public_transport:version":"2"},"2302495":{"name":"Σιδηροδρομική Γραμμή Θεσσαλονίκης-Φλώρινας","type":"route","route":"train","name:el":"Σιδηροδρομική Γραμμή Θεσσαλονίκης-Φλώρινας","name:mk":"Железница Солун - Лерин","network":"OSE","operator":"OSE","wheelchair":"limited","public_transport:version":"1"},"6720512":{"ref":"360;361","name":"Sofia - Thessaloniki","type":"route","route":"train","public_transport:version":"1"},"7363387":{"to":"Θεσσαλονίκη","ref":"IC","from":"Αθήνα","name":"Τρένο IC: Αθήνα → Θεσσαλονίκη","type":"route","route":"train","name:ca":"Tren IC: Atenes → Tessalònica","name:el":"Τρένο IC: Αθήνα → Θεσσαλονίκη","name:en":"Train IC: Athens → Thessaloniki","name:fr":"Train IC: Athènes → Thessalonique","network":"InterCity","service":"long_distance","duration":"04:13","operator":"Hellenic Train","operator:wikidata":"Q7832852","operator:wikipedia":"el:Hellenic Train","public_transport:version":"2"},"7363413":{"to":"Αθήνα","ref":"IC","from":"Θεσσαλονίκη","name":"Τρένο IC: Θεσσαλονίκη → Αθήνα","type":"route","route":"train","name:ca":"Tren IC: Tessalònica → Atenes","name:el":"Τρένο IC: Θεσσαλονίκη → Αθήνα","name:en":"Train IC: Thessaloniki → Athens","name:fr":"Train IC: Thessalonique → Athènes","network":"InterCity","service":"long_distance","duration":"04:07","operator":"Hellenic Train","operator:wikidata":"Q7832852","operator:wikipedia":"el:Hellenic Train","public_transport:version":"2"},"7930041":{"name":"Uzunköprü - Pythion","type":"route","route":"train"},"8279886":{"to":"Στυλίδα","ref":"ΑΠ","from":"Λειανοκλάδι","name":"Τρένο ΑΠ: Λειανοκλάδι → Στυλίδα","type":"route","route":"train","name:ca":"Tren ΑΠ: Lianokladi → Stylida","name:el":"Τρένο ΑΠ: Λειανοκλάδι → Στυλίδα","name:en":"Train ΑΠ: Lianokladi → Stylida","network":"Τοπική","service":"regional","duration":"00:35","operator":"Hellenic Train","operator:wikidata":"Q7832852","operator:wikipedia":"el:Hellenic Train","public_transport:version":"2"},"8467442":{"to":"Χαλκίδα","ref":"Π3","via":"ΣΚΑ","from":"Αθήνα","name":"Προαστιακός Π3: Αθήνα → Χαλκίδα","note":"Line 3 skips Pyrgos Vasilissis and Kato Acharnai.","type":"route","route":"train","colour":"#78BE20","name:ca":"Rodalies Π3: Atenes → Calcis","name:el":"Προαστιακός Π3: Αθήνα → Χαλκίδα","name:en":"Train Π3: Athènes → Chalcis","name:fr":"Train Π3: Athènes → Chalcis","network":"Προαστιακός Αθήνας","service":"commuter","operator":"Hellenic Train","wikidata":"Q47477355","wikipedia":"el:Γραμμή 3 (Προαστιακός Αθήνας)","network:en":"Proastiakos","start_date":"2017-07-30","network:wikidata":"Q18176333","network:wikipedia":"el:Προαστιακός σιδηρόδρομος Αθήνας","operator:wikidata":"Q7832852","operator:wikipedia":"el:Hellenic Train","public_transport:version":"2"},"8467443":{"to":"Αεροδρόμιο","ref":"Π4","via":"Μεταμόρφωση","from":"Άνω Λιόσια","name":"Προαστιακός Π4: Άνω Λιόσια → Αεροδρόμιο","type":"route","route":"train","colour":"#666","name:ca":"Rodalies Π4: Ano Liosia → Aeroport","name:el":"Προαστιακός Π4: Άνω Λιόσια → Αεροδρόμιο","name:en":"Train Π4: Ano Liosia → Airport","name:fr":"Train Π4: Ano Liosia → Aéroport","network":"Προαστιακός Αθήνας","service":"commuter","operator":"Hellenic Train","wikidata":"Q17853551","wikipedia":"el:Γραμμή 4 (Προαστιακός Αθήνας)","network:en":"Proastiakos","start_date":"2017-07-30","network:wikidata":"Q18176333","network:wikipedia":"el:Προαστιακός σιδηρόδρομος Αθήνας","operator:wikidata":"Q7832852","operator:wikipedia":"el:Hellenic Train","public_transport:version":"2"},"8467445":{"to":"Αεροδρόμιο","ref":"Π1","via":"Αθήνα","from":"Πειραιά","name":"Προαστιακός Π1: Πειραιά → Αεροδρόμιο","type":"route","route":"train","colour":"#FFCD00","name:ca":"Rodalies Π1: El Pireu → Aeroport","name:el":"Προαστιακός Π1: Πειραιά → Αεροδρόμιο","name:en":"Train Π1: Piraeus → Airport","name:fr":"Train Π1: Le Pirée → Aéroport","network":"Προαστιακός Αθήνας","service":"commuter","operator":"Hellenic Train","wikidata":"Q47477364","wikipedia":"el:Γραμμή 1 (Προαστιακός Αθήνας)","network:en":"Proastiakos","start_date":"2004-07-30","network:wikidata":"Q18176333","network:wikipedia":"el:Προαστιακός σιδηρόδρομος Αθήνας","operator:wikidata":"Q7832852","operator:wikipedia":"el:Hellenic Train","public_transport:version":"2"},"8467514":{"to":"Πειραιά","ref":"Π2","via":"Αθήνα","from":"Κιάτο","name":"Προαστιακός Π2: Κιάτο → Πειραιά","type":"route","route":"train","colour":"#00A3E0","name:ca":"Rodalies Π2: Kiato → El Pireu","name:el":"Προαστιακός Π2: Κιάτο → Πειραιά","name:en":"Train Π2: Kiato → Piraeus","name:fr":"Train Π2: Kiato → Le Pirée","network":"Προαστιακός Αθήνας","service":"commuter","operator":"Hellenic Train","wikidata":"Q20552930","wikipedia":"el:Γραμμή 2 (Προαστιακός Αθήνας)","network:en":"Proastiakos","start_date":"2005-09-27","network:wikidata":"Q18176333","network:wikipedia":"el:Προαστιακός σιδηρόδρομος Αθήνας","operator:wikidata":"Q7832852","operator:wikipedia":"el:Hellenic Train","public_transport:version":"2"},"8467515":{"to":"Κιάτο","ref":"Π2","via":"Αθήνα","from":"Πειραιά","name":"Προαστιακός Π2: Πειραιά → Κιάτο","type":"route","route":"train","colour":"#00A3E0","name:ca":"Rodalies Π2: El Pireu → Kiato","name:el":"Προαστιακός Π2: Πειραιά → Κιάτο","name:en":"Train Π2: Piraeus → Kiato","name:fr":"Train Π2: Le Pirée → Kiato","network":"Προαστιακός Αθήνας","service":"commuter","operator":"Hellenic Train","wikidata":"Q20552930","wikipedia":"el:Γραμμή 2 (Προαστιακός Αθήνας)","network:en":"Proastiakos","start_date":"2005-09-27","network:wikidata":"Q18176333","network:wikipedia":"el:Προαστιακός σιδηρόδρομος Αθήνας","operator:wikidata":"Q7832852","operator:wikipedia":"el:Hellenic Train","public_transport:version":"2"},"11279623":{"to":"Φλώρινα","via":"Έδεσσα","from":"Θεσσαλονίκη","name":"Thessaloniki Suburban Railway Line 2: Thessaloniki → Florina","type":"route","route":"train","network":"Προαστιακός Θεσσαλονίκης","public_transport:version":"2"},"11279626":{"to":"Θεσσαλονίκη","via":"Έδεσσα","from":"Φλώρινα","name":"Thessaloniki Suburban Railway Line 2: Florina → Thessaloniki","type":"route","route":"train","network":"Προαστιακός Θεσσαλονίκης","public_transport:version":"2"},"11282315":{"to":"Θεσσαλονίκη","ref":"Π1","from":"Λάρισα","name":"Thessaloniki Suburban Railway Line 1: Larissa → Thessaloniki","type":"route","route":"train","network":"Προαστιακός Θεσσαλονίκης","public_transport:version":"2"},"11282320":{"to":"Λάρισα","ref":"Π1","from":"Θεσσαλονίκη","name":"Thessaloniki Suburban Railway Line 1: Thessaloniki → Larissa","type":"route","route":"train","network":"Προαστιακός Θεσσαλονίκης","public_transport:version":"2"},"11748537":{"to":"Άγιος Ανδρέας","ref":"Π2","from":"Κάτω Αχαΐα","name":"Προαστιακός Π2: Κάτω Αχαΐα → Άγιος Ανδρέας","type":"route","route":"train","colour":"#27509B","name:ca":"Rodalies Π2: Kato Achaia → Sant Andreu","name:el":"Προαστιακός Π2: Κάτω Αχαΐα → Άγιος Ανδρέας","name:en":"Train Π2: Kato Achaia → Agios Andreas","name:fr":"Train Π2: Kato Achaïe → Saint-André","network":"Προαστιακός Πάτρας","service":"commuter","operator":"Hellenic Train","wikidata":"Q3536559","wikipedia":"el:Προαστιακός σιδηρόδρομος Πάτρας","start_date":"2020-02-29","contact:website":"https://www.hellenictrain.gr/en/patras-suburban-railway","network:wikidata":"Q3536559","network:wikipedia":"el:Προαστιακός σιδηρόδρομος Πάτρας","operator:wikidata":"Q7832852","operator:wikipedia":"el:Hellenic Train","public_transport:version":"2"},"11748538":{"to":"Κάτω Αχαΐα","ref":"Π2","from":"Άγιος Ανδρέας","name":"Προαστιακός Π2: Άγιος Ανδρέας → Κάτω Αχαΐα","type":"route","route":"train","colour":"#27509B","name:ca":"Rodalies Π2: Sant Andreu → Kato Achaia","name:el":"Προαστιακός Π2: Άγιος Ανδρέας → Κάτω Αχαΐα","name:en":"Train Π2: Agios Andreas → Kato Achaia","name:fr":"Train Π2: Saint-André → Kato Achaïe","network":"Προαστιακός Πάτρας","service":"commuter","operator":"Hellenic Train","wikidata":"Q3536559","wikipedia":"el:Προαστιακός σιδηρόδρομος Πάτρας","start_date":"2020-02-29","contact:website":"https://www.hellenictrain.gr/en/patras-suburban-railway","network:wikidata":"Q3536559","network:wikipedia":"el:Προαστιακός σιδηρόδρομος Πάτρας","operator:wikidata":"Q7832852","operator:wikipedia":"el:Hellenic Train","public_transport:version":"2"},"11748539":{"to":"Άγιος Ανδρέας","ref":"Π1","from":"Ρίο","name":"Προαστιακός Π1: Ρίο → Άγιος Ανδρέας","type":"route","route":"train","colour":"#BD0D2E","name:ca":"Rodalies Π1: Rio → Sant Andreu","name:el":"Προαστιακός Π1: Ρίο → Άγιος Ανδρέας","name:en":"Train Π1: Rio → Agios Andreas","name:fr":"Train Π1: Rio → Saint-André","network":"Προαστιακός Πάτρας","service":"commuter","operator":"Hellenic Train","wikidata":"Q3536559","wikipedia":"el:Προαστιακός σιδηρόδρομος Πάτρας","start_date":"2010-07-09","contact:website":"https://www.hellenictrain.gr/en/patras-suburban-railway","network:wikidata":"Q3536559","network:wikipedia":"el:Προαστιακός σιδηρόδρομος Πάτρας","operator:wikidata":"Q7832852","operator:wikipedia":"el:Hellenic Train","public_transport:version":"2"},"12423296":{"to":"Κιάτο","ref":"3xx","from":"Αίγιο","name":"Τρένο 3xx: Αίγιο → Κιάτο","type":"route","route":"train","name:ca":"Tren 3xx: Egi → Kiato","name:el":"Τρένο 3xx: Αίγιο → Κιάτο","name:en":"Train 3xx: Aegion → Kiato","name:fr":"Train 3xx: Aigion → Kiato","network":"Τοπικά Πελοποννήσου","duration":"0:52","operator":"Hellenic Train","passenger":"regional","network:en":"Peloponnese Local","start_date":"2020-06-22","operator:wikidata":"Q7832852","operator:wikipedia":"el:Hellenic Train","public_transport:version":"2"},"12423298":{"to":"Αίγιο","ref":"3xx","from":"Κιάτο","name":"Τρένο 3xx: Κιάτο → Αίγιο","type":"route","route":"train","name:ca":"Tren 3xx: Kiato → Egi","name:el":"Τρένο 3xx: Κιάτο → Αίγιο","name:en":"Train 3xx: Kiato → Aegion","name:fr":"Train 3xx: Kiato → Aigion","network":"Τοπικά Πελοποννήσου","duration":"0:52","operator":"Hellenic Train","passenger":"regional","network:en":"Peloponnese Local","start_date":"2020-06-22","operator:wikidata":"Q7832852","operator:wikipedia":"el:Hellenic Train","public_transport:version":"2"},"14005081":{"to":"Λειανοκλάδι","ref":"ΑΠ","from":"Στυλίδα","name":"Τρένο ΑΠ: Στυλίδα → Λειανοκλάδι","type":"route","route":"train","name:ca":"Tren ΑΠ: Stylida → Lianokladi","name:el":"Τρένο ΑΠ: Στυλίδα → Λειανοκλάδι","name:en":"Train ΑΠ: Stylida → Lianokladi","network":"Τοπική","service":"regional","duration":"00:35","operator":"Hellenic Train","operator:wikidata":"Q7832852","operator:wikipedia":"el:Hellenic Train","public_transport:version":"2"},"14006995":{"to":"Λάρισα","ref":"ΑΠ","from":"Βόλος","name":"Τρένο ΑΠ: Βόλος → Λάρισα","type":"route","route":"train","name:ca":"Tren ΑΠ: Volos → Làrissa","name:el":"Τρένο ΑΠ: Βόλος → Λάρισα","name:en":"Train ΑΠ: Volos → Larissa","network":"Τοπική","service":"regional","duration":"00:48","operator":"Hellenic Train","operator:wikidata":"Q7832852","operator:wikipedia":"el:Hellenic Train","public_transport:version":"2"},"14006996":{"to":"Βόλος","ref":"ΑΠ","from":"Λάρισα","name":"Τρένο ΑΠ: Λάρισα → Βόλος","type":"route","route":"train","name:ca":"Tren ΑΠ: Làrissa → Volos","name:el":"Τρένο ΑΠ: Λάρισα → Βόλος","name:en":"Train ΑΠ: Larissa → Volos","network":"Τοπική","service":"regional","duration":"00:48","operator":"Hellenic Train","operator:wikidata":"Q7832852","operator:wikipedia":"el:Hellenic Train","public_transport:version":"2"},"14007293":{"to":"Παλαιοφάρσαλος","ref":"ΑΠ","from":"Καλαμπάκα","name":"Τρένο ΑΠ: Καλαμπάκα → Παλαιοφάρσαλος","type":"route","route":"train","name:ca":"Tren ΑΠ: Kalambaka → Palaeofarsalos","name:el":"Τρένο ΑΠ: Καλαμπάκα → Παλαιοφάρσαλος","name:en":"Train ΑΠ: Kalambaka → Palaeofarsalos","network":"Τοπική","service":"regional","duration":"00:57","operator":"Hellenic Train","operator:wikidata":"Q7832852","operator:wikipedia":"el:Hellenic Train","public_transport:version":"2"},"14007294":{"to":"Καλαμπάκα","ref":"ΑΠ","from":"Παλαιοφάρσαλος","name":"Τρένο ΑΠ: Παλαιοφάρσαλος → Καλαμπάκα","type":"route","route":"train","name:ca":"Tren ΑΠ: Palaeofarsalos → Kalambaka","name:el":"Τρένο ΑΠ: Παλαιοφάρσαλος → Καλαμπάκα","name:en":"Train ΑΠ: Palaeofarsalos → Kalambaka","network":"Τοπική","service":"regional","duration":"00:57","operator":"Hellenic Train","operator:wikidata":"Q7832852","operator:wikipedia":"el:Hellenic Train","public_transport:version":"2"},"14008390":{"to":"Καλαμπάκα","ref":"IC","from":"Αθήνα","name":"Τρένο IC: Αθήνα → Καλαμπάκα","type":"route","route":"train","name:ca":"Tren IC: Atenes → Kalambaka","name:el":"Τρένο IC: Αθήνα → Καλαμπάκα","name:en":"Train IC: Athens → Kalambaka","network":"InterCity","service":"long_distance","duration":"04:05","operator":"Hellenic Train","check_date":"2022-11-26","operator:wikidata":"Q7832852","operator:wikipedia":"el:Hellenic Train","public_transport:version":"2"},"14008391":{"to":"Αθήνα","ref":"IC","from":"Καλαμπάκα","name":"Τρένο IC: Καλαμπάκα → Αθήνα","type":"route","route":"train","name:ca":"Tren IC: Kalambaka → Atenes","name:el":"Τρένο IC: Καλαμπάκα → Αθήνα","name:en":"Train IC: Kalambaka → Athens","network":"InterCity","service":"long_distance","duration":"04:05","operator":"Hellenic Train","check_date":"2022-11-26","operator:wikidata":"Q7832852","operator:wikipedia":"el:Hellenic Train","public_transport:version":"2"},"14046165":{"to":"Θεσσαλονίκη","ref":"ΑΠ","from":"Δράμα","name":"Τρένο ΑΠ: Δράμα → Θεσσαλονίκη","type":"route","route":"train","name:ca":"Tren ΑΠ: Drama → Tessalònica","name:el":"Τρένο ΑΠ: Δράμα → Θεσσαλονίκη","name:en":"Train ΑΠ: Drama → Thessaloniki","name:fr":"Train ΑΠ: Drama → Thessalonique","network":"Τοπική","service":"long_distance","duration":"04:11","operator":"Hellenic Train","check_date":"2022-11-26","operator:wikidata":"Q7832852","operator:wikipedia":"el:Hellenic Train","public_transport:version":"2"},"14046166":{"to":"Δράμα","ref":"ΑΠ","from":"Θεσσαλονίκη","name":"Τρένο ΑΠ: Θεσσαλονίκη → Δράμα","type":"route","route":"train","name:ca":"Tren ΑΠ: Tessalònica → Drama","name:el":"Τρένο ΑΠ: Θεσσαλονίκη → Δράμα","name:en":"Train ΑΠ: Thessaloniki → Drama","name:fr":"Train ΑΠ: Thessalonique → Drama","network":"Τοπική","service":"long_distance","duration":"04:12","operator":"Hellenic Train","check_date":"2022-11-26","operator:wikidata":"Q7832852","operator:wikipedia":"el:Hellenic Train","public_transport:version":"2"},"14122315":{"to":"Αλεξανδρούπολη Λιμάνι","ref":"ΑΠ","from":"Ορμένιο","name":"Τρένο ΑΠ: Ορμένιο → Αλεξανδρούπολη Λιμάνι","type":"route","route":"train","name:ca":"Tren ΑΠ: Ormenio → Port d'Alexandrúpoli","name:el":"Τρένο ΑΠ: Ορμένιο → Αλεξανδρούπολη Λιμάνι","name:en":"Train ΑΠ: Ormenio → Alexandroupoli Port","name:fr":"Train ΑΠ: Orménio → Port d'Alexandroupoli","network":"Τοπική","service":"regional","duration":"2:32","operator":"Hellenic Train","operator:wikidata":"Q7832852","operator:wikipedia":"el:Hellenic Train","public_transport:version":"2"},"14134130":{"to":"Θεσσαλονίκη","ref":"ICE","from":"Αθήνα","name":"Τρένο ICE: Αθήνα → Θεσσαλονίκη","type":"route","route":"train","name:ca":"Tren ICE: Atenes → Tessalònica","name:el":"Τρένο ICE: Αθήνα → Θεσσαλονίκη","name:en":"Train ICE: Athens → Thessaloniki","name:fr":"Train ICE: Athènes → Thessalonique","network":"InterCity ETR","service":"long_distance","duration":"03:59","operator":"Hellenic Train","operator:wikidata":"Q7832852","operator:wikipedia":"el:Hellenic Train","public_transport:version":"2"},"14134131":{"to":"Αθήνα","ref":"ICE","from":"Θεσσαλονίκη","name":"Τρένο ICE: Θεσσαλονίκη → Αθήνα","type":"route","route":"train","name:ca":"Tren ICE: Tessalònica → Atenes","name:el":"Τρένο ICE: Θεσσαλονίκη → Αθήνα","name:en":"Train ICE: Thessaloniki → Athens","name:fr":"Train ICE: Thessalonique → Athènes","network":"InterCity ETR","service":"long_distance","duration":"03:56","operator":"Hellenic Train","operator:wikidata":"Q7832852","operator:wikipedia":"el:Hellenic Train","public_transport:version":"2"},"14939622":{"to":"Σέρρες","ref":"IC","from":"Θεσσαλονίκη","name":"Τρένο IC: Θεσσαλονίκη → Σέρρες","type":"route","route":"train","name:ca":"Tren IC: Tessalònica → Serres","name:el":"Τρένο IC: Θεσσαλονίκη → Σέρρες","name:en":"Train IC: Thessaloniki → Serres","name:fr":"Train IC: Thessalonique → Serrès","network":"InterCity","service":"long_distance","duration":"02:43","operator":"Hellenic Train","check_date":"2022-11-26","operator:wikidata":"Q7832852","operator:wikipedia":"el:Hellenic Train","public_transport:version":"2"},"14939623":{"to":"Θεσσαλονίκη","ref":"IC","from":"Σέρρες","name":"Τρένο IC: Σέρρες → Θεσσαλονίκη","type":"route","route":"train","name:ca":"Tren IC: Serres → Tessalònica","name:el":"Τρένο IC: Σέρρες → Θεσσαλονίκη","name:en":"Train IC: Serres → Thessaloniki","name:fr":"Train IC: Serrès → Thessalonique","network":"InterCity","service":"long_distance","duration":"02:41","operator":"Hellenic Train","check_date":"2022-11-26","operator:wikidata":"Q7832852","operator:wikipedia":"el:Hellenic Train","public_transport:version":"2"},"16276918":{"to":"Διακοπτό","ref":"Οδοντωτός","from":"Καλάβρυτα","name":"Τρένο Οδοντωτός: Καλάβρυτα → Διακοπτό","type":"route","route":"train","name:el":"Τρένο Οδοντωτός: Καλάβρυτα → Διακοπτό","name:en":"Train Odontotos: Kalavryta → Diakopto","name:fr":"Train Odontotos: Kalavryta → Diakofto","network":"Οδοντωτός","duration":"01:11","operator":"Hellenic Train","passenger":"local","network:en":"Odontotos","operator:wikidata":"Q7832852","operator:wikipedia":"el:Hellenic Train","public_transport:version":"2"},"16276919":{"to":"Καλάβρυτα","ref":"Οδοντωτός","from":"Διακοπτό","name":"Τρένο Οδοντωτός: Διακοπτό → Καλάβρυτα","type":"route","route":"train","name:el":"Τρένο Οδοντωτός: Διακοπτό → Καλάβρυτα","name:en":"Train Odontotos: Diakopto → Kalavryta","name:fr":"Train Odontotos: Diakofto → Kalavryta","network":"Οδοντωτός","duration":"01:11","operator":"Hellenic Train","passenger":"local","network:en":"Odontotos","operator:wikidata":"Q7832852","operator:wikipedia":"el:Hellenic Train","public_transport:version":"2"}}