{"1755218":{"to":"Márianosztra","ref":"318a","from":"Szob","name":"Szobi Erdei Vasút","type":"route","route":"train","operator":"Börzsöny Kisvasút Nonprofit Kft."},"1803951":{"to":"Hortobágy-Halastó","from":"Festetics Antal","name":"Hortobágyi Öreg-tavi kisvasút","type":"route","route":"train"},"1803953":{"to":"Festetics Antal","from":"Hortobágy-Halastó","name":"Hortobágyi Öreg-tavi kisvasút","type":"route","route":"train"},"1804277":{"to":"Gyöngyös","ref":"325","from":"Mátrafüred","name":"Mátravasút (Mátrafüred -> Gyöngyös)","type":"route","route":"train","service":"tourism","duration":"21","operator":"Egererdő Zrt.","schedule":"https://www.gyongyos-matra.hu/media///2018/01/M%C3%A1travas%C3%BAt-menetrend-2020.pdf","public_transport:version":"2"},"1804278":{"to":"Mátrafüred","ref":"325","from":"Gyöngyös","name":"Mátravasút (Gyöngyös -> Mátrafüred)","type":"route","route":"train","service":"tourism","website":"https://www.kisvasut.hu/view_cikk.php?id=881&rfa=159","duration":"22","operator":"Egererdő Zrt.","schedule":"https://www.gyongyos-matra.hu/media///2018/01/M%C3%A1travas%C3%BAt-menetrend-2020.pdf","public_transport:version":"2"},"2243630":{"to":"Szalajkaház","ref":"324","via":"Lajosháza","from":"Gyöngyös","name":"Mátravasút (Gyöngyös -> Szalajkaház)","type":"route","route":"train","service":"tourism","duration":"50","public_transport:version":"2"},"2243631":{"to":"Gyöngyös","ref":"324","via":"Lajosháza","from":"Szalajkaház","name":"Mátravasút (Szalajakház -> Gyöngyös)","type":"route","route":"train","service":"tourism","duration":"47","public_transport:version":"2"},"2870694":{"to":"Budapest-Nyugati","ref":"S20","from":"Szeged","name":"S20: Szeged => Budapest-Nyugati","type":"route","route":"train","colour":"#00AFF0","service":"commuter","operator":"MÁV-Start","wikidata":"Q103835740","wikipedia":"hu:S20-as személyvonat","description":"\\\"B\\\" v","public_transport:version":"2"},"2909667":{"to":"Wiener Neustadt Hbf","ref":"R93","from":"Sopron","name":"R93 Sopron – Wr. Neustadt","type":"route","route":"train","network":"VOR","service":"regional","operator":"ÖBB-Personenverkehr AG","network:wikidata":"Q2516485","public_transport:version":"2"},"3663544":{"to":"Hármashegyalja","fee":"yes","ref":"ZSUZSI","from":"Debrecen-Fatelep","name":"Train ZSUZSI: Debrecen-Fatelep => Hármashegyalja","type":"route","gauge":"760","route":"train","usage":"tourism","charge":"900 HUF","colour":"#00390F","network":"HU:regional","railway":"narrow_gauge","duration":"00:55","operator":"ZSUZSI Erdei Vasút Nonprofit Kft.","wikidata":"Q1468307","wikipedia":"hu:Zsuzsi Erdei Vasút","start_date":"1882-07-16","contact:email":"info@zsuzsivasut.hu","contact:phone":"+36 52 417 212; +36 30 210 0545; +36 30 490 8212","contact:website":"https://zsuzsivasut.hu","public_transport:version":"2"},"3779841":{"to":"Hamburg-Altona","ref":"EC 172","from":"Budapest-Nyugati","name":"EC 172: Budapest => Hamburg","type":"route","route":"train","colour":"#9D9D9D","network":"EuroCity","note:de":"laut DB Dokument ist ref EC27","service":"long_distance","operator":"ČD;DB;START;ZSSK","network:wikidata":"Q753050","network:wikipedia":"en:EuroCity","public_transport:version":"2"},"3779842":{"to":"Terespol","ref":"EC 130","via":"Warszawa Wschodnia","from":"Budapest-Nyugati","name":"EC 130: Budapest => Terespol","type":"route","fixme":"Warsaw-Trespol missing","route":"train","name:de":"EC 130: Budapest => Terespol","name:hu":"EC 130: Budapest => Terespol","name:pl":"EC 130: Budapeszt => Terespol","network":"EuroCity","service":"long_distance","operator":"ČD;PKPIC;START;ZSSK","network:wikidata":"Q753050","public_transport:version":"2"},"3995952":{"name":"331","type":"route","route":"train","network":"Lillafüredi Állami Eredei Vasút"},"4498854":{"to":"Almásfüzitő","ref":"S74","via":"Lábatlan -> Süttő","from":"Esztergom","name":"S74: Esztergom => Lábatlan => Süttő => Almásfüzitő","type":"route","route":"train","colour":"#00AFF0","service":"commuter","operator":"MÁV-Start","wikidata":"Q115171353","description":"\\\"B\\\"","public_transport:version":"2"},"4498855":{"to":"Lábatlan","ref":"S74","from":"Esztergom","name":"S74: Esztergom => Lábatlan","type":"route","route":"train","colour":"#00AFF0","service":"commuter","operator":"MÁV-Start","wikidata":"Q115171353","description":"\\\"D\\\"","public_transport:version":"2"},"4500814":{"to":"Vác","ref":"S70","via":"Göd","from":"Budapest-Nyugati","name":"S70: Budapest-Nyugati => Vác","type":"route","route":"train","colour":"#00AFF0","service":"commuter","operator":"MÁV-Start","wikidata":"Q109333249","wikipedia":"hu:S70-es személyvonat","description":"\\\"B\\\"","public_transport:version":"2"},"4500815":{"to":"Budapest-Nyugati","ref":"S70","via":"Göd","from":"Vác","name":"S70: Vác => Budapest-Nyugati","type":"route","route":"train","colour":"#00AFF0","service":"commuter","operator":"MÁV-Start","wikidata":"Q109333249","wikipedia":"hu:S70-es személyvonat","description":"\\\"B\\\" v","public_transport:version":"2"},"4500816":{"to":"Vác","ref":"S71","via":"Veresegyház","from":"Budapest-Nyugati","name":"S71: Budapest-Nyugati => Vác","type":"route","route":"train","colour":"#00AFF0","network":"rwn","service":"commuter","operator":"MÁV-Start","wikidata":"Q109333250","wikipedia":"hu:S71-es személyvonat","description":"\\\"A\\\"","public_transport:version":"2"},"4500817":{"to":"Budapest-Nyugati","ref":"S71","via":"Veresegyház","from":"Vác","name":"S71: Vác => Budapest-Nyugati","type":"route","route":"train","colour":"#00AFF0","service":"commuter","operator":"MÁV-Start","wikidata":"Q109333250","wikipedia":"hu:S71-es személyvonat","description":"\\\"A\\\" v","public_transport:version":"2"},"4508156":{"to":"Monor","ref":"S50","from":"Budapest-Nyugati","name":"S50: Budapest-Nyugati => Monor","type":"route","route":"train","colour":"#00AFF0","service":"commuter","operator":"MÁV-Start","wikidata":"Q104161828","wikipedia":"hu:S50-es személyvonat","description":"\\\"C\\\"","public_transport:version":"2"},"4508157":{"to":"Budapest-Nyugati","ref":"S50","from":"Monor","name":"S50: Monor => Budapest-Nyugati","type":"route","route":"train","colour":"#00AFF0","service":"commuter","operator":"MÁV-Start","wikidata":"Q104161828","wikipedia":"hu:S50-es személyvonat","description":"\\\"C\\\" v","public_transport:version":"2"},"4517109":{"to":"Lajosmizse","ref":"S21","via":"Ócsa -> Dabas -> Táborfalva","from":"Budapest-Nyugati","name":"S21: Budapest-Nyugati => Ócsa => Dabas => Táborfalva => Lajosmizse","type":"route","route":"train","colour":"#00AFF0","service":"commuter","operator":"MÁV-Start","wikidata":"Q101148856","wikipedia":"hu:S21-es személyvonat","description":"\\\"B\\\"","public_transport:version":"2"},"4517110":{"to":"Budapest-Nyugati","ref":"S21","via":"Táborfalva -> Dabas -> Ócsa -> Kőbánya-Kispest","from":"Lajosmizse","name":"S21: Lajosmizse => Táborfalva => Dabas => Ócsa => Kőbánya-Kispest => Budapest-Nyugati","type":"route","route":"train","colour":"#00AFF0","service":"commuter","operator":"MÁV-Start","wikidata":"Q101148856","wikipedia":"hu:S21-es személyvonat","description":"\\\"B\\\" v","public_transport:version":"2"},"4522096":{"to":"Lajosmizse","ref":"S210","via":"Hetényegyháza","from":"Kecskemét","name":"S210: Kecskemét => Hetényegyháza => Lajosmizse","type":"route","route":"train","colour":"#00AFF0","operator":"MÁV-Start","wikidata":"Q109333255","wikipedia":"hu:S210-es személyvonat","description":"\\\"B\\\" v","public_transport:version":"2"},"4522097":{"to":"Kecskemét","ref":"S210","via":"Hetényegyháza","from":"Lajosmizse","name":"S210: Lajosmizse => Hetényegyháza => Kecskemét","type":"route","route":"train","colour":"#00AFF0","operator":"MÁV-Start","wikidata":"Q109333255","passenger":"local","wikipedia":"hu:S210-es személyvonat","description":"\\\"B\\\"","public_transport:version":"2"},"4522196":{"to":"Vác","ref":"S750","via":"Drégelypalánk -> Sáferkút -> Diósjenő","from":"Balassagyarmat","name":"S750: Balassagyarmat => Drégelypalánk => Sáferkút => Diósjenő => Vác","type":"route","route":"train","colour":"#00AFF0","service":"regional","operator":"MÁV-Start","wikidata":"Q101112032","wikipedia":"hu:S750-es személyvonat","description":"\\\"A\\\" v","public_transport:version":"2"},"4522197":{"to":"Balassagyarmat","ref":"S750","via":"Diósjenő -> Sáferkút -> Drégelypalánk","from":"Vác","name":"S750: Vác => Diósjenő => Sáferkút => Drégelypalánk => Balassagyarmat","type":"route","route":"train","colour":"#00AFF0","service":"regional","operator":"MÁV-Start","wikidata":"Q101112032","wikipedia":"hu:S750-es személyvonat","description":"\\\"A\\\"","public_transport:version":"2"},"4537669":{"to":"Cegléd","ref":"Z50","from":"Budapest-Nyugati","name":"Z50: Budapest-Nyugati => Cegléd","type":"route","route":"train","colour":"#FFCD28","service":"commuter","operator":"MÁV-Start","wikidata":"Q104170252","wikipedia":"hu:Z50-es zónázó személyvonat","description":"\\\"B\\\"","public_transport:version":"2"},"4537670":{"to":"Budapest-Nyugati","ref":"Z50","from":"Cegléd","name":"Z50: Cegléd => Budapest-Nyugati","type":"route","route":"train","colour":"#FFCD28","service":"commuter","operator":"MÁV-Start","wikidata":"Q104170252","wikipedia":"hu:Z50-es zónázó személyvonat","description":"\\\"B\\\" v","public_transport:version":"2"},"4543847":{"to":"Komárom","ref":"S10","via":"Tatabánya","from":"Budapest-Déli","name":"S10: Budapest-Déli => Tatabánya => Komárom","type":"route","route":"train","colour":"#00AFF0","name:de":"S10: Budapest-Süd => Totiserkolonie => Komorn","service":"commuter","operator":"MÁV-Start","wikidata":"Q103726127","wikipedia":"hu:S10-es személyvonat","description":"\\\"C\\\"","public_transport:version":"2"},"4543848":{"to":"Budapest-Déli","ref":"S10","via":"Tatabánya","from":"Komárom","name":"S10: Komárom => Tatabánya => Budapest-Déli","type":"route","route":"train","colour":"#00AFF0","name:de":"S10: Komorn => Totiserkolonie => Budapest-Süd","service":"commuter","operator":"MÁV-Start","wikidata":"Q103726127","wikipedia":"hu:S10-es személyvonat","description":"\\\"C\\\" v","public_transport:version":"2"},"4546116":{"to":"Székesfehérvár","ref":"Z30","via":"Érd alsó -> Martonvásár","from":"Budapest-Déli","name":"Z30: Budapest-Déli => Martonvásár => Székesfehérvár","type":"route","route":"train","colour":"#FFCD28","name:de":"Z30: Budapest-Süd => Martinsmarkt => Stuhlweißenburg","service":"commuter","operator":"MÁV-Start","wikidata":"Q109333259","wikipedia":"hu:Z30-as zónázó személyvonat","description":"\\\"A\\\"","public_transport:version":"2"},"4546117":{"to":"Budapest-Déli","ref":"Z30","via":"Martonvásár -> Érd alsó","from":"Székesfehérvár","name":"Z30: Székesfehérvár => Martonvásár => Budapest-Déli","type":"route","route":"train","colour":"#FFCD28","name:de":"Z30: Stuhlweißenburg => Martinsmarkt => Budapest-Süd","service":"commuter","operator":"MÁV-Start","wikidata":"Q109333259","wikipedia":"hu:Z30-as zónázó személyvonat","description":"\\\"A\\\" v","public_transport:version":"2"},"4662210":{"to":"Esztergom","ref":"S74","via":"Almásfüzitő -> Süttő -> Lábatlan","from":"Komárom","name":"S74: Komárom => Almásfüzitő => Süttő => Lábatlan => Esztergom","type":"route","route":"train","colour":"#00AFF0","name:de":"S74: Komorn => Gran","name:hu":"S74: Komárom => Almásfüzitő => Süttő => Lábatlan => Esztergom","service":"commuter","operator":"MÁV-Start","wikidata":"Q115171353","description":"\\\"A\\\" v","public_transport:version":"2"},"4662212":{"to":"Komárom","ref":"S150","from":"Székesfehérvár","name":"S150: Székesfehérvár → Komárom","type":"route","route":"train","colour":"#00AFF0","name:de":"S150: Stuhlweißenburg → Komorn","name:hu":"S150: Székesfehérvár → Komárom","service":"commuter","operator":"MÁV-Start","wikidata":"Q101110277","wikipedia":"hu:S150-es személyvonat","description":"\\\"A\\\" v","public_transport:version":"2"},"4721738":{"to":"Tatabánya","ref":"S12","from":"Oroszlány","name":"S12: Oroszlány => Tatabánya","type":"route","route":"train","colour":"#00AFF0","name:de":"S12: Ohreslahn => Totiserkolonie","name:hu":"S12: Oroszlány => Tatabánya","operator":"MÁV-Start","wikidata":"Q103770328","wikipedia":"hu:S12-es személyvonat","description":"\\\"B\\\" v","public_transport:version":"2"},"4721739":{"to":"Oroszlány","ref":"S12","from":"Tatabánya","name":"S12: Tatabánya => Oroszlány","type":"route","route":"train","colour":"#00AFF0","name:de":"S12: Totiserkolonie => Ohreslahn","name:hu":"S12: Tatabánya => Oroszlány","operator":"MÁV-Start","wikidata":"Q103770328","wikipedia":"hu:S12-es személyvonat","description":"\\\"B\\\"","public_transport:version":"2"},"4770516":{"to":"Dunaújváros","ref":"Z42","from":"Budapest-Déli","name":"Z42: Budapest-Déli => Dunaújváros","type":"route","route":"train","colour":"#FFCD28","service":"commuter","operator":"MÁV-Start","wikidata":"Q112225437","wikipedia":"hu:Z42-es zónázó személyvonat","description":"\\\"C\\\"","public_transport:version":"2"},"5189455":{"to":"Székesfehérvár","ref":"G43","via":"Érd felső","from":"Kőbánya-Kispest","name":"G43: Kőbánya-Kispest => Székesfehérvár","type":"route","route":"train","colour":"#AACD46","service":"commuter","operator":"MÁV-Start","wikidata":"Q109333264","wikipedia":"hu:G43-as gyorsított személyvonat","description":"\\\"C\\\"","public_transport:version":"2"},"5189456":{"to":"Kőbánya-Kispest","ref":"G43","via":"Dinnyés -> Velencefürdő -> Pettend","from":"Székesfehérvár","name":"G43: Székesfehérvár => Dinnyés => Velencefürdő => Pettend => Kőbánya-Kispest","type":"route","route":"train","colour":"#AACD46","service":"commuter","operator":"MÁV-Start","wikidata":"Q109333264","wikipedia":"hu:G43-as gyorsított személyvonat","description":"\\\"B\\\" v","public_transport:version":"2"},"5189457":{"to":"Nagykáta","ref":"S60","via":"Sülysáp","from":"Budapest-Keleti","name":"S60: Budapest-Keleti => Sülysáp => Nagykáta","type":"route","route":"train","colour":"#00AFF0","operator":"MÁV-Start","wikidata":"Q109333246","wikipedia":"hu:S60-as személyvonat","description":"\\\"C\\\"","public_transport:version":"2"},"5189458":{"to":"Nagykáta","ref":"G60","from":"Budapest-Keleti","name":"G60: Budapest-Keleti => Nagykáta","type":"route","route":"train","colour":"#AACD46","operator":"MÁV-Start","wikidata":"Q101147966","wikipedia":"hu:G60-as gyorsított személyvonat","description":"\\\"C\\\"","public_transport:version":"2"},"5189459":{"to":"Budapest-Keleti","ref":"G60","via":"Nagykáta","from":"Szolnok","name":"G60: Szolnok => Nagykáta => Budapest-Keleti","type":"route","route":"train","colour":"#AACD46","operator":"MÁV-Start","wikidata":"Q101147966","wikipedia":"hu:G60-as gyorsított személyvonat","description":"\\\"B\\\" v","public_transport:version":"2"},"5189460":{"to":"Szob","ref":"G70","from":"Budapest-Nyugati","name":"G70: Budapest-Nyugati => Szob","type":"route","route":"train","colour":"#AACD46","service":"commuter","operator":"MÁV-Start","wikidata":"Q109333266","wikipedia":"hu:G70-es gyorsított személyvonat","description":"\\\"C\\\"","public_transport:version":"2"},"5189461":{"to":"Budapest-Nyugati","ref":"G70","via":"Göd","from":"Szob","name":"G70: Szob => Budapest-Nyugati","type":"route","route":"train","colour":"#AACD46","service":"commuter","operator":"MÁV-Start","wikidata":"Q109333266","wikipedia":"hu:G70-es gyorsított személyvonat","description":"\\\"C\\\" v","public_transport:version":"2"},"5189463":{"to":"Budapest-Nyugati","ref":"G71","via":"Veresegyház","from":"Vác","name":"G71: Vác => Budapest-Nyugati","type":"route","route":"train","colour":"#AACD46","service":"commuter","operator":"MÁV-Start","wikidata":"Q109333268","wikipedia":"hu:G71-es gyorsított személyvonat","description":"\\\"A\\\" v","public_transport:version":"2"},"5189464":{"to":"Győr","ref":"S10","via":"Tatabánya -> Komárom","from":"Budapest-Déli","name":"S10: Budapest-Déli => Tatabánya => Komárom => Győr","type":"route","route":"train","colour":"#00AFF0","name:de":"S10: Budapest-Süd => Totiserkolonie => Komorn => Raab","name:hu":"S10: Budapest-Déli => Tatabánya => Komárom => Győr","service":"commuter","operator":"MÁV-Start","wikidata":"Q103726127","wikipedia":"hu:S10-es személyvonat","description":"\\\"A\\\"","public_transport:version":"2"},"5189466":{"to":"Budapest-Déli","ref":"S10","via":"Komárom -> Tatabánya","from":"Győr","name":"S10: Győr => Komárom => Tatabánya => Budapest-Déli","type":"route","route":"train","colour":"#00AFF0","name:de":"S10: Raab => Komorn => Totiserkolonie => Budapest-Süd","service":"commuter","operator":"MÁV-Start","wikidata":"Q103726127","wikipedia":"hu:S10-es személyvonat","description":"\\\"B\\\" v","public_transport:version":"2"},"5189467":{"to":"Budapest-Déli","ref":"S10","via":"Komárom -> Tatabánya","from":"Győr","name":"S10: Győr => Komárom => Tatabánya => Budapest-Déli","type":"route","route":"train","colour":"#00AFF0","name:de":"S10: Raab => Komorn => Totiserkolonie => Budapest-Süd","service":"commuter","operator":"MÁV-Start","wikidata":"Q103726127","wikipedia":"hu:S10-es személyvonat","description":"\\\"A\\\" v","public_transport:version":"2"},"5189468":{"to":"Budapest-Déli","ref":"S10","from":"Tatabánya","name":"S10: Tatabánya => Budapest-Déli","type":"route","route":"train","colour":"#00AFF0","name:de":"S10: Totiserkolonie => Budapest-Süd","service":"commuter","operator":"MÁV-Start","wikidata":"Q103726127","wikipedia":"hu:S10-es személyvonat","description":"\\\"D\\\" v","public_transport:version":"2"},"5189469":{"to":"Győr","ref":"S10","via":"Komárom","from":"Tatabánya","name":"S10: Tatabánya => Komárom => Győr","type":"route","route":"train","colour":"#00AFF0","name:de":"S10: Totiserkolonie => Komorn => Raab","service":"commuter","operator":"MÁV-Start","wikidata":"Q103726127","wikipedia":"hu:S10-es személyvonat","description":"\\\"E\\\"","public_transport:version":"2"},"5189470":{"to":"Szeged","ref":"S20","from":"Budapest-Nyugati","name":"S20: Budapest-Nyugati => Szeged","type":"route","route":"train","colour":"#00AFF0","service":"commuter","operator":"MÁV-Start","wikidata":"Q103835740","wikipedia":"hu:S20-as személyvonat","description":"\\\"A\\\"","public_transport:version":"2"},"5189471":{"to":"Kőbánya-Kispest","ref":"S21","via":"Táborfalva -> Dabas -> Ócsa","from":"Lajosmizse","name":"S21: Lajosmizse => Táborfalva => Dabas => Ócsa => Kőbánya-Kispest","type":"route","route":"train","colour":"#00AFF0","service":"commuter","operator":"MÁV-Start","wikidata":"Q101148856","wikipedia":"hu:S21-es személyvonat","description":"\\\"E\\\" v","public_transport:version":"2"},"5189472":{"to":"Kőbánya-Kispest","ref":"S21","from":"Ócsa","name":"S21: Ócsa => Kőbánya-Kispest","type":"route","route":"train","colour":"#00AFF0","service":"commuter","operator":"MÁV-Start","wikidata":"Q101148856","wikipedia":"hu:S21-es személyvonat","description":"\\\"G\\\" v","public_transport:version":"2"},"5189473":{"to":"Lajosmizse","ref":"S21","via":"Dabas -> Táborfalva","from":"Ócsa","name":"S21: Ócsa => Dabas => Táborfalva => Lajosmizse","type":"route","route":"train","colour":"#00AFF0","service":"commuter","operator":"MÁV-Start","wikidata":"Q101148856","wikipedia":"hu:S21-es személyvonat","description":"\\\"F\\\"","public_transport:version":"2"},"5189474":{"to":"Szolnok","ref":"S220","via":"Lakitelek -> Tiszakécske -> Tiszavárkony -> Piroska","from":"Kecskemét","name":"S220: Kecskemét => Lakitelek => Tiszakécske => Tiszavárkony => Piroska => Szolnok","type":"route","route":"train","colour":"#00AFF0","operator":"MÁV-Start","wikidata":"Q112963797","description":"\\\"A\\\" v","public_transport:version":"2"},"5189475":{"to":"Szolnok","ref":"S220","via":"Lakitelek -> Tiszakécske","from":"Kecskemét","name":"S220: Kecskemét => Lakitelek => Tiszakécske => Szolnok","type":"route","route":"train","colour":"#00AFF0","operator":"MÁV-Start","wikidata":"Q112963797","description":"\\\"B\\\" v","public_transport:version":"2"},"5189477":{"to":"Szolnok","ref":"S220","via":"Tiszakécske -> Tiszavárkony -> Piroska","from":"Lakitelek","name":"S220: Lakitelek => Tiszakécske => Tiszavárkony => Piroska => Szolnok","type":"route","route":"train","colour":"#00AFF0","operator":"MÁV-Start","wikidata":"Q112963797","description":"\\\"D\\\" v","public_transport:version":"2"},"5189478":{"to":"Kecskemét","ref":"S220","via":"Piroska -> Tiszavárkony -> Tiszakécske -> Lakitelek","from":"Szolnok","name":"S220: Szolnok => Piroska => Tiszavárkony => Tiszakécske => Lakitelek => Kecskemét","type":"route","route":"train","colour":"#00AFF0","operator":"MÁV-Start","wikidata":"Q112963797","description":"\\\"A\\\"","public_transport:version":"2"},"5189479":{"to":"Kecskemét","ref":"S220","via":"Tiszakécske -> Lakitelek","from":"Szolnok","name":"S220: Szolnok => Tiszakécske => Lakitelek => Kecskemét","type":"route","route":"train","colour":"#00AFF0","operator":"MÁV-Start","wikidata":"Q112963797","description":"\\\"B\\\"","public_transport:version":"2"},"5189480":{"to":"Lakitelek","ref":"S220","via":"Piroska -> Tiszavárkony -> Tiszakécske","from":"Szolnok","name":"S220: Szolnok => Piroska => Tiszavárkony => Tiszakécske => Lakitelek","type":"route","route":"train","colour":"#00AFF0","operator":"MÁV-Start","wikidata":"Q112963797","description":"\\\"D\\\"","public_transport:version":"2"},"5189481":{"to":"Kecskemét","ref":"S220","via":"Lakitelek","from":"Tiszakécske","name":"S220: Tiszakécske => Lakitelek => Kecskemét","type":"route","route":"train","colour":"#00AFF0","operator":"MÁV-Start","wikidata":"Q112963797","description":"\\\"C\\\"","public_transport:version":"2"},"5189482":{"to":"Szolnok","ref":"S220","via":"Tiszakécske","from":"Lakitelek","name":"S220: Lakitelek => Tiszakécske => Szolnok","type":"route","route":"train","colour":"#00AFF0","operator":"MÁV-Start","wikidata":"Q112963797","description":"\\\"E\\\" v","public_transport:version":"2"},"5189492":{"to":"Fonyód","ref":"S30","via":"Érd alsó -> Martonvásár -> Székesfehérvár -> Kiscséripuszta -> Polgárdi-Tekerespuszta","from":"Budapest-Déli","name":"S30: Budapest-Déli → Martonvásár → Székesfehérvár → Kiscséripuszta → Polgárdi-Tekerespuszta → Fonyód","type":"route","route":"train","colour":"#00AFF0","name:de":"S30: Budapest-Süd → Martinsmarkt → Stuhlweißenburg → Fonjod","service":"commuter","operator":"MÁV-Start","wikidata":"Q101095853","wikipedia":"hu:S30-as személyvonat","description":"\\\"D\\\"","public_transport:version":"2"},"5189493":{"to":"Fonyód","ref":"S30","via":"Érd alsó -> Martonvásár -> Székesfehérvár","from":"Budapest-Déli","name":"S30: Budapest-Déli → Martonvásár → Székesfehérvár → Fonyód","type":"route","route":"train","colour":"#00AFF0","service":"commuter","operator":"MÁV-Start","wikidata":"Q101095853","wikipedia":"hu:S30-as személyvonat","description":"\\\"A\\\"","public_transport:version":"2"},"5189494":{"to":"Székesfehérvár","ref":"S30","via":"Érd alsó -> Martonvásár","from":"Budapest-Déli","name":"S30: Budapest-Déli → Martonvásár → Székesfehérvár","type":"route","route":"train","colour":"#00AFF0","name:de":"S30: Budapest-Süd → Martinsmarkt → Stuhlweißenburg","service":"commuter","operator":"MÁV-Start","wikidata":"Q101095853","wikipedia":"hu:S30-as személyvonat","description":"\\\"E\\\"","public_transport:version":"2"},"5189495":{"to":"Budapest-Déli","ref":"S30","via":"Érd alsó","from":"Székesfehérvár","name":"S30: Székesfehérvár → Budapest-Déli","type":"route","route":"train","colour":"#00AFF0","name:de":"S30: Stuhlweißenburg → Budapest-Süd","service":"commuter","operator":"MÁV-Start","wikidata":"Q101095853","wikipedia":"hu:S30-as személyvonat","description":"\\\"E\\\" v","public_transport:version":"2"},"5189496":{"to":"Keszthely","ref":"S34","via":"Érd alsó","from":"Budapest-Déli","name":"S34: Budapest-Déli → Keszthely","type":"route","route":"train","colour":"#00AFF0","name:de":"S34: Budapest-Süd → Kesthell","service":"commuter","operator":"MÁV-Start","wikidata":"Q104433012","wikipedia":"hu:S34-es személyvonat","description":"\\\"A\\\"","public_transport:version":"2"},"5189497":{"to":"Budapest-Déli","ref":"S34","via":"Érd alsó","from":"Keszthely","name":"S34: Keszthely → Budapest-Déli","type":"route","route":"train","colour":"#00AFF0","name:de":"S34: Kesthell → Budapest-Süd","service":"commuter","operator":"MÁV-Start","wikidata":"Q104433012","wikipedia":"hu:S34-es személyvonat","description":"\\\"B\\\" v","public_transport:version":"2"},"5189498":{"to":"Nagykanizsa","ref":"S35","via":"Érd alsó","from":"Budapest-Déli","name":"S35: Budapest-Déli → Nagykanizsa","type":"route","route":"train","colour":"#00AFF0","name:de":"S35: Budapest-Süd → Großkirchen","service":"commuter","operator":"MÁV-Start","wikidata":"Q109333241","wikipedia":"hu:S35-ös személyvonat","description":"\\\"A\\\"","public_transport:version":"2"},"5189499":{"to":"Budapest-Déli","ref":"S30","via":"Polgárdi-Tekerespuszta -> Kiscséripuszta -> Szabadbattyán -> Székesfehérvár -> Martonvsár -> Érd alsó","from":"Fonyód","name":"S30: Fonyód → Polgárdi-Tekerespuszta → Kiscséripuszta → Szabadbattyán → Székesfehérvár → Martonvásár → Budapest-Déli","type":"route","route":"train","colour":"#00AFF0","name:de":"S30: Fonjod → Stuhlweißenburg → Martinsmarkt → Budapest-Süd","service":"commuter","operator":"MÁV-Start","wikidata":"Q101095853","wikipedia":"hu:S30-as személyvonat","description":"\\\"C\\\" v","public_transport:version":"2"},"5189500":{"to":"Tárnok","ref":"S36","via":"Érd alsó","from":"Kőbánya-Kispest","name":"S36: Kőbánya-Kispest => Tárnok","type":"route","route":"train","colour":"#00AFF0","service":"commuter","operator":"MÁV-Start","wikidata":"Q109333242","wikipedia":"hu:S36-os személyvonat","description":"\\\"E\\\"","public_transport:version":"2"},"5189501":{"to":"Kőbánya-Kispest","ref":"S36","via":"Érd alsó","from":"Tárnok","name":"S36: Tárnok => Kőbánya-Kispest","type":"route","route":"train","colour":"#00AFF0","service":"commuter","operator":"MÁV-Start","wikidata":"Q109333242","wikipedia":"hu:S36-os személyvonat","description":"\\\"E\\\" v","public_transport:version":"2"},"5189502":{"to":"Dombóvár","ref":"S40","via":"Érd felső -> Százhalombatta -> Pusztaszabolcs","from":"Budapest-Déli","name":"S40: Budapest-Déli => Százhalombatta => Pusztaszabolcs => Dombóvár","type":"route","route":"train","colour":"#00AFF0","service":"commuter","operator":"MÁV-Start","wikidata":"Q112963108","wikipedia":"hu:S40-es személyvonat","description":"\\\"A\\\"","public_transport:version":"2"},"5189503":{"to":"Pusztaszabolcs","ref":"S40","via":"Érd felső -> Százhalombatta","from":"Budapest-Déli","name":"S40: Budapest-Déli => Százhalombatta => Pusztaszabolcs","type":"route","route":"train","colour":"#00AFF0","service":"commuter","operator":"MÁV-Start","wikidata":"Q112963108","wikipedia":"hu:S40-es személyvonat","description":"\\\"D\\\"","public_transport:version":"2"},"5189504":{"to":"Százhalombatta","ref":"S40","via":"Érd felső","from":"Budapest-Déli","name":"S40: Budapest-Déli => Százhalombatta","type":"route","route":"train","colour":"#00AFF0","service":"commuter","operator":"MÁV-Start","wikidata":"Q112963108","wikipedia":"hu:S40-es személyvonat","description":"\\\"G\\\"","public_transport:version":"2"},"5189505":{"to":"Budapest-Déli","ref":"S40","via":"Pusztaszabolcs -> Százhalombatta -> Érd felső","from":"Dombóvár","name":"S40: Dombóvár => Pusztaszabolcs => Százhalombatta => Budapest-Déli","type":"route","route":"train","colour":"#00AFF0","operator":"MÁV-Start","wikidata":"Q112963108","wikipedia":"hu:S40-es személyvonat","description":"\\\"A\\\" v","public_transport:version":"2"},"5189506":{"to":"Budapest-Déli","ref":"S40","via":"Százhalombatta -> Érd felső","from":"Pusztaszabolcs","name":"S40: Pusztaszabolcs => Százhalombatta => Budapest-Déli","type":"route","route":"train","colour":"#00AFF0","operator":"MÁV-Start","wikidata":"Q112963108","wikipedia":"hu:S40-es személyvonat","description":"\\\"D\\\" v","public_transport:version":"2"},"5189507":{"to":"Budapest-Déli","ref":"S40","via":"Érd felső","from":"Százhalombatta","name":"S40: Százhalombatta => Budapest-Déli","type":"route","route":"train","colour":"#00AFF0","operator":"MÁV-Start","wikidata":"Q112963108","wikipedia":"hu:S40-es személyvonat","description":"\\\"G\\\" v","public_transport:version":"2"},"5189508":{"to":"Dunaújváros","ref":"S42","via":"Érd felső -> Adony -> Kulcs -> Rácalmás -> Dunaújváros külső","from":"Budapest-Déli","name":"S42: Budapest-Déli => Adony => Kulcs => Rácalmás => Dunaújváros külső => Dunaújváros","type":"route","route":"train","colour":"#00AFF0","service":"commuter","operator":"MÁV-Start","wikidata":"Q112963134","wikipedia":"hu:S42-es személyvonat","description":"\\\"A\\\"","public_transport:version":"2"},"5189509":{"to":"Dunaújváros","ref":"S42","via":"Érd felső","from":"Budapest-Déli","name":"S42: Budapest-Déli => Dunaújváros","type":"route","route":"train","colour":"#00AFF0","name:de":"S42: Budapest-Süd => Neustadt an der Donau","service":"commuter","operator":"MÁV-Start","wikidata":"Q112963134","wikipedia":"hu:S42-es személyvonat","description":"\\\"C\\\"","public_transport:version":"2"},"5189510":{"to":"Budapest-Déli","ref":"S42","via":"Érd felső","from":"Dunaújváros","name":"S42: Dunaújváros => Budapest-Déli","type":"route","route":"train","colour":"#00AFF0","name:de":"S42: Neustadt an der Donau => Budapest-Süd","operator":"MÁV-Start","wikidata":"Q112963134","wikipedia":"hu:S42-es személyvonat","description":"\\\"C\\\" v","public_transport:version":"2"},"5189511":{"to":"Budapest-Déli","ref":"S42","via":"Dunaújváros külső -> Rácalmás -> Kulcs -> Adony -> Érd felső","from":"Dunaújváros","name":"S42: Dunaújváros => Dunaújváros külső => Rácalmás => Kulcs => Adony => Budapest-Déli","type":"route","route":"train","colour":"#00AFF0","operator":"MÁV-Start","wikidata":"Q112963134","wikipedia":"hu:S42-es személyvonat","description":"\\\"A\\\" v","public_transport:version":"2"},"5189512":{"to":"Simontornya","ref":"S431","via":"Újvenyim","from":"Dunaújváros","name":"S431: Dunaújváros => Újvenyim => Simontornya","type":"route","route":"train","colour":"#00AFF0","operator":"MÁV-Start","description":"\\\"A\\\"","public_transport:version":"2"},"5189513":{"to":"Dunaújváros","ref":"S431","via":"Újvenyim","from":"Simontornya","name":"S431: Simontornya => Újvenyim => Dunaújváros","type":"route","route":"train","colour":"#00AFF0","operator":"MÁV-Start","description":"\\\"A\\\" v","public_transport:version":"2"},"5189516":{"to":"Székesfehérvár","ref":"S440","via":"Börgönd","from":"Pusztaszabolcs","name":"S440: Pusztaszabolcs => Börgönd => Székesfehérvár","type":"route","route":"train","colour":"#00AFF0","operator":"MÁV-Start","wikidata":"Q112963842","wikipedia":"hu:S440-es személyvonat","description":"\\\"A\\\"","public_transport:version":"2"},"5189517":{"to":"Székesfehérvár","ref":"S440","from":"Pusztaszabolcs","name":"S440: Pusztaszabolcs => Székesfehérvár","type":"route","route":"train","colour":"#00AFF0","operator":"MÁV-Start","wikidata":"Q112963842","wikipedia":"hu:S440-es személyvonat","description":"\\\"B\\\"","public_transport:version":"2"},"5189518":{"to":"Pusztaszabolcs","ref":"S440","via":"Börgönd","from":"Székesfehérvár","name":"S440: Székesfehérvár => Börgönd => Pusztaszabolcs","type":"route","route":"train","colour":"#00AFF0","operator":"MÁV-Start","wikidata":"Q112963842","wikipedia":"hu:S440-es személyvonat","description":"\\\"A\\\" v","public_transport:version":"2"},"5189519":{"to":"Pusztaszabolcs","ref":"S440","from":"Székesfehérvár","name":"S440: Székesfehérvár => Pusztaszabolcs","type":"route","route":"train","colour":"#00AFF0","operator":"MÁV-Start","wikidata":"Q112963842","wikipedia":"hu:S440-es személyvonat","description":"\\\"B\\\" v","public_transport:version":"2"},"5189520":{"to":"Sárbogárd","ref":"GEMENC","from":"Székesfehérvár","name":"GEMENC IR: Székesfehérvár => Sárbogárd => Bátaszék","type":"route","route":"train","operator":"MÁV-Start","description":"\\\"B\\\"","public_transport:version":"2"},"5189523":{"to":"Szolnok","ref":"S50","via":"Monor -> Cegléd","from":"Budapest-Nyugati","name":"S50: Budapest-Nyugati => Monor => Cegléd => Szolnok","type":"route","route":"train","colour":"#00AFF0","service":"commuter","operator":"MÁV-Start","wikidata":"Q104161828","wikipedia":"hu:S50-es személyvonat","description":"\\\"A\\\"","public_transport:version":"2"},"5189525":{"to":"Budapest-Nyugati","ref":"S50","via":"Monor","from":"Cegléd","name":"S50: Cegléd => Monor => Budapest-Nyugati","type":"route","route":"train","colour":"#00AFF0","service":"commuter","operator":"MÁV-Start","wikidata":"Q104161828","wikipedia":"hu:S50-es személyvonat","description":"\\\"B\\\" v","public_transport:version":"2"},"5189526":{"to":"Szolnok","ref":"S50","from":"Cegléd","name":"S50: Cegléd => Szolnok","type":"route","route":"train","colour":"#00AFF0","service":"commuter","operator":"MÁV-Start","wikidata":"Q104161828","wikipedia":"hu:S50-es személyvonat","description":"\\\"D\\\"","public_transport:version":"2"},"5189527":{"to":"Budapest-Nyugati","ref":"S50","via":"Cegléd -> Monor","from":"Szolnok","name":"S50: Szolnok => Cegléd => Monor => Budapest-Nyugati","type":"route","route":"train","colour":"#00AFF0","service":"commuter","operator":"MÁV-Start","wikidata":"Q104161828","wikipedia":"hu:S50-es személyvonat","description":"\\\"A\\\" v","public_transport:version":"2"},"5189528":{"to":"Cegléd","ref":"S50","from":"Szolnok","name":"S50: Szolnok => Cegléd","type":"route","route":"train","colour":"#00AFF0","service":"commuter","operator":"MÁV-Start","wikidata":"Q104161828","wikipedia":"hu:S50-es személyvonat","description":"\\\"D\\\" v","public_transport:version":"2"},"5189529":{"to":"Dunaújváros","ref":"Z42","via":"Adony -> Kulcs -> Rácalmás -> Dunaújváros külső","from":"Budapest-Déli","name":"Z42: Budapest-Déli => Adony => Kulcs => Rácalmás => Dunaújváros külső => Dunaújváros","type":"route","route":"train","colour":"#FFCD28","service":"commuter","operator":"MÁV-Start","wikidata":"Q112225437","wikipedia":"hu:Z42-es zónázó személyvonat","description":"\\\"A\\\"","public_transport:version":"2"},"5189530":{"to":"Dunaújváros","ref":"Z42","from":"Budapest-Déli","name":"Z42: Budapest-Déli => Adony => Kulcs => Rácalmás => Dunaújváros","type":"route","route":"train","colour":"#FFCD28","service":"commuter","operator":"MÁV-Start","wikidata":"Q112225437","wikipedia":"hu:Z42-es zónázó személyvonat","description":"\\\"B\\\"","public_transport:version":"2"},"5189531":{"to":"Szolnok","ref":"S60","via":"Sülysáp -> Nagykáta","from":"Budapest-Keleti","name":"S60: Budapest-Keleti => Sülysáp => Nagykáta => Szolnok","type":"route","route":"train","colour":"#00AFF0","operator":"MÁV-Start","wikidata":"Q109333246","wikipedia":"hu:S60-as személyvonat","description":"\\\"A\\\"","public_transport:version":"2"},"5189532":{"to":"Sülysáp","ref":"S60","from":"Budapest-Keleti","name":"S60: Budapest-Keleti => Sülysáp","type":"route","route":"train","colour":"#00AFF0","operator":"MÁV-Start","wikidata":"Q109333246","wikipedia":"hu:S60-as személyvonat","description":"\\\"D\\\"","public_transport:version":"2"},"5189533":{"to":"Szolnok","ref":"S60","from":"Nagykáta","name":"S60: Nagykáta => Szolnok","type":"route","route":"train","colour":"#00AFF0","operator":"MÁV-Start","wikidata":"Q109333246","wikipedia":"hu:S60-as személyvonat","description":"\\\"E\\\"","public_transport:version":"2"},"5189534":{"to":"Budapest-Keleti","ref":"S60","via":"Sülysáp","from":"Nagykáta","name":"S60: Nagykáta => Sülysáp => Budapest-Keleti","type":"route","route":"train","colour":"#00AFF0","operator":"MÁV-Start","wikidata":"Q109333246","wikipedia":"hu:S60-as személyvonat","description":"\\\"B\\\" v","public_transport:version":"2"},"5189535":{"to":"Nagykáta","ref":"S60","from":"Szolnok","name":"S60: Szolnok => Nagykáta","type":"route","route":"train","colour":"#00AFF0","operator":"MÁV-Start","wikidata":"Q109333246","wikipedia":"hu:S60-as személyvonat","description":"\\\"E\\\" v","public_transport:version":"2"},"5189536":{"to":"Budapest-Keleti","ref":"S60","via":"Nagykáta -> Sülysáp","from":"Szolnok","name":"S60: Szolnok => Nagykáta => Sülysáp => Budapest-Keleti","type":"route","route":"train","colour":"#00AFF0","operator":"MÁV-Start","wikidata":"Q109333246","wikipedia":"hu:S60-as személyvonat","description":"\\\"A\\\" v","public_transport:version":"2"},"5189537":{"to":"Budapest-Keleti","ref":"S60","from":"Sülysáp","name":"S60: Sülysáp => Budapest-Keleti","type":"route","route":"train","colour":"#00AFF0","operator":"MÁV-Start","wikidata":"Q109333246","wikipedia":"hu:S60-as személyvonat","description":"\\\"D\\\" v","public_transport:version":"2"},"5189538":{"to":"Esztergom","ref":"S74","via":"Süttő -> Lábatlan","from":"Almásfüzitő","name":"S74: Almásfüzitő => Süttő => Lábatlan => Esztergom","type":"route","route":"train","colour":"#00AFF0","service":"commuter","operator":"MÁV-Start","wikidata":"Q115171353","description":"\\\"B\\\" v","public_transport:version":"2"},"5189539":{"to":"Szob","ref":"S70","via":"Göd -> Vác","from":"Budapest-Nyugati","name":"S70: Budapest-Nyugati => Vác => Szob","type":"route","route":"train","colour":"#00AFF0","service":"commuter","operator":"MÁV-Start","wikidata":"Q109333249","wikipedia":"hu:S70-es személyvonat","description":"\\\"A\\\"","public_transport:version":"2"},"5189540":{"to":"Budapest-Nyugati","ref":"G70","via":"Göd","from":"Szob","name":"G70: Szob => Göd => Budapest-Nyugati","type":"route","route":"train","colour":"#AACD46","service":"commuter","operator":"MÁV-Start","wikidata":"Q109333266","wikipedia":"hu:G70-es gyorsított személyvonat","description":"\\\"B\\\" v","public_transport:version":"2"},"5189541":{"to":"Budapest-Nyugati","ref":"S70","via":"Vác -> Göd","from":"Szob","name":"S70: Szob => Vác => Budapest-Nyugati","type":"route","route":"train","colour":"#00AFF0","service":"commuter","operator":"MÁV-Start","wikidata":"Q109333249","wikipedia":"hu:S70-es személyvonat","description":"\\\"A\\\" v","public_transport:version":"2"},"5189542":{"to":"Budapest-Nyugati","ref":"Z72","via":"Piliscsév -> Vasútmúzeum","from":"Esztergom","name":"Z72: Esztergom => Piliscsév => Vasútmúzeum => Budapest-Nyugati","type":"route","route":"train","colour":"#FFCD28","operator":"MÁV-Start","wikidata":"Q101321651","wikipedia":"hu:Z72-es zónázó személyvonat","description":"\\\"C\\\" v","public_transport:version":"2"},"5189544":{"to":"Vác","ref":"S750","via":"Drégelypaánk -> Diósjenő","from":"Balassagyarmat","name":"S750: Balassagyarmat => Drégelypalánk => Diósjenő => Vác","type":"route","route":"train","colour":"#00AFF0","service":"regional","operator":"MÁV-Start","wikidata":"Q101112032","wikipedia":"hu:S750-es személyvonat","description":"\\\"B\\\" v","public_transport:version":"2"},"5189545":{"to":"Vác","ref":"S750","from":"Diósjenő","name":"S750: Diósjenő => Vác","type":"route","route":"train","colour":"#00AFF0","service":"regional","operator":"MÁV-Start","wikidata":"Q101112032","wikipedia":"hu:S750-es személyvonat","description":"\\\"E\\\" v","public_transport:version":"2"},"5189547":{"to":"Balassagyarmat","ref":"S750","via":"Diósjenő -> Drégelypalánk","from":"Vác","name":"S750: Vác => Diósjenő => Drégelypalánk => Balassagyarmat","type":"route","route":"train","colour":"#00AFF0","service":"regional","operator":"MÁV-Start","wikidata":"Q101112032","wikipedia":"hu:S750-es személyvonat","description":"\\\"B\\\"","public_transport:version":"2"},"5189548":{"to":"Drégelypalánk","ref":"S750","via":"Diósjenő","from":"Vác","name":"S750: Vác => Diósjenő => Drégelypalánk","type":"route","route":"train","colour":"#00AFF0","service":"regional","operator":"MÁV-Start","wikidata":"Q101112032","wikipedia":"hu:S750-es személyvonat","description":"\\\"D\\\"","public_transport:version":"2"},"5189549":{"to":"Drégelypalánk","ref":"S750","via":"Diósjenő -> Sáferkút","from":"Vác","name":"S750: Vác => Diósjenő => Sáferkút => Drégelypalánk","type":"route","route":"train","colour":"#00AFF0","service":"regional","operator":"MÁV-Start","wikidata":"Q101112032","wikipedia":"hu:S750-es személyvonat","description":"\\\"C\\\"","public_transport:version":"2"},"5189550":{"to":"Diósjenő","ref":"S750","from":"Vác","name":"S750: Vác => Diósjenő","type":"route","route":"train","colour":"#00AFF0","service":"regional","operator":"MÁV-Start","wikidata":"Q101112032","wikipedia":"hu:S750-es személyvonat","description":"\\\"E\\\"","public_transport:version":"2"},"5189551":{"to":"Balassagyarmat","ref":"S780","from":"Aszód","name":"S780: Aszód => Balassagyarmat","type":"route","route":"train","colour":"#00AFF0","operator":"MÁV-Start","wikidata":"Q101111780","wikipedia":"hu:S780-as személyvonat","description":"\\\"D\\\"","public_transport:version":"2"},"5189552":{"to":"Balassagyarmat","ref":"S780","via":"Becske alsó","from":"Aszód","name":"S780: Aszód => Becske alsó => Balassagyarmat","type":"route","route":"train","colour":"#00AFF0","operator":"MÁV-Start","wikidata":"Q101111780","wikipedia":"hu:S780-as személyvonat","description":"\\\"C\\\"","public_transport:version":"2"},"5189553":{"to":"Aszód","ref":"S780","from":"Balassagyarmat","name":"S780: Balassagyarmat => Aszód","type":"route","route":"train","colour":"#00AFF0","operator":"MÁV-Start","wikidata":"Q101111780","wikipedia":"hu:S780-as személyvonat","description":"\\\"D\\\" v","public_transport:version":"2"},"5189554":{"to":"Aszód","ref":"S780","via":"Becske alsó","from":"Balassagyarmat","name":"S780: Balassagyarmat => Becske alsó => Aszód","type":"route","route":"train","colour":"#00AFF0","operator":"MÁV-Start","wikidata":"Q101111780","wikipedia":"hu:S780-as személyvonat","description":"\\\"C\\\" v","public_transport:version":"2"},"5189555":{"to":"Ipolytarnóc","ref":"S790","from":"Balassagyarmat","name":"S790: Balassagyarmat => Ipolytarnóc","type":"route","route":"train","colour":"#00AFF0","operator":"MÁV-Start","wikidata":"Q101112031","wikipedia":"hu:S790-es személyvonat","description":"\\\"A\\\"","public_transport:version":"2"},"5189557":{"to":"Hatvan","ref":"S80","via":"Gödöllő","from":"Budapest-Keleti","name":"S80: Budapest-Keleti => Gödöllő => Hatvan","type":"route","route":"train","colour":"#00AFF0","operator":"MÁV-Start","wikidata":"Q101142569","wikipedia":"hu:S80-as személyvonat","description":"\\\"D\\\"","public_transport:version":"2"},"5189558":{"to":"Gödöllő","ref":"S80","from":"Budapest-Keleti","name":"S80: Budapest-Keleti => Gödöllő","type":"route","route":"train","colour":"#00AFF0","operator":"MÁV-Start","wikidata":"Q101142569","wikipedia":"hu:S80-as személyvonat","description":"\\\"H\\\"","public_transport:version":"2"},"5189559":{"to":"Aszód","ref":"S80","via":"Gödöllő-Állami telepek -> Gödöllő","from":"Budapest-Keleti","name":"S80: Budapest-Keleti => Gödöllő-Állami telepek => Gödöllő => Aszód","type":"route","route":"train","colour":"#00AFF0","operator":"MÁV-Start","wikidata":"Q101142569","wikipedia":"hu:S80-as személyvonat","description":"\\\"F\\\"","public_transport:version":"2"},"5189560":{"to":"Budapest-Keleti","ref":"S80","from":"Gödöllő","name":"S80: Gödöllő => Budapest-Keleti","type":"route","route":"train","colour":"#00AFF0","operator":"MÁV-Start","wikidata":"Q101142569","wikipedia":"hu:S80-as személyvonat","description":"\\\"H\\\" v","disused:route":"train","public_transport:version":"2"},"5189561":{"to":"Budapest-Keleti","ref":"S80","via":"Galgahévíz -> Hévízgyörk -> Gödöllő -> Gödöllő-Állami telepek","from":"Hatvan","name":"S80: Hatvan => Galgahévíz => Hévízgyörgk => Aszód => Gödöllő => Gödöllő-Állami telepek => Budapest-Keleti","type":"route","route":"train","colour":"#00AFF0","operator":"MÁV-Start","wikidata":"Q101142569","wikipedia":"hu:S80-as személyvonat","description":"\\\"C\\\" v","public_transport:version":"2"},"5189562":{"to":"Szolnok","ref":"S820","via":"Meggyespele -> Portelek","from":"Hatvan","name":"S820: Hatvan => Meggyespele => Portelek => Szolnok","type":"route","route":"train","colour":"#00AFF0","operator":"MÁV-Start","wikidata":"Q109333257","wikipedia":"hu:S820-as személyvonat","description":"\\\"B\\\"","public_transport:version":"2"},"5189563":{"to":"Szolnok","ref":"S820","via":"Meggyespele -> Portelek -> Zagyvarékas","from":"Hatvan","name":"S820: Hatvan => Meggyespele => Portelek => Zagyvarékas => Szolnok","type":"route","route":"train","colour":"#00AFF0","operator":"MÁV-Start","wikidata":"Q109333257","wikipedia":"hu:S820-as személyvonat","description":"\\\"A\\\"","public_transport:version":"2"},"5189564":{"to":"Szolnok","ref":"S820","from":"Hatvan","name":"S820: Hatvan => Szolnok","type":"route","route":"train","colour":"#00AFF0","operator":"MÁV-Start","wikidata":"Q109333257","wikipedia":"hu:S820-as személyvonat","description":"\\\"F\\\"","public_transport:version":"2"},"5189565":{"to":"Szolnok","ref":"S820","via":"Zagyvarékas","from":"Hatvan","name":"S820: Hatvan => Zagyvarékas => Szolnok","type":"route","route":"train","colour":"#00AFF0","operator":"MÁV-Start","wikidata":"Q109333257","wikipedia":"hu:S820-as személyvonat","description":"\\\"E\\\"","public_transport:version":"2"},"5189566":{"to":"Hatvan","ref":"S820","from":"Szolnok","name":"S820: Szolnok => Hatvan","type":"route","route":"train","colour":"#00AFF0","operator":"MÁV-Start","wikidata":"Q109333257","wikipedia":"hu:S820-as személyvonat","description":"\\\"F\\\" v","public_transport:version":"2"},"5189567":{"to":"Hatvan","ref":"S820","via":"Portelek -> Meggyespele","from":"Szolnok","name":"S820: Szolnok => Portelek => Meggyespele => Hatvan","type":"route","route":"train","colour":"#00AFF0","operator":"MÁV-Start","wikidata":"Q109333257","wikipedia":"hu:S820-as személyvonat","description":"\\\"B\\\" v","public_transport:version":"2"},"5189568":{"to":"Hatvan","ref":"S820","via":"Zagyvarékas","from":"Szolnok","name":"S820: Szolnok => Zagyvarékas => Hatvan","type":"route","route":"train","colour":"#00AFF0","operator":"MÁV-Start","wikidata":"Q109333257","wikipedia":"hu:S820-as személyvonat","description":"\\\"E\\\" v","public_transport:version":"2"},"5189569":{"to":"Hatvan","ref":"S820","via":"Zagyvarékas -> Portelek -> Meggyespele","from":"Szolnok","name":"S820: Szolnok => Zagyvarékas => Portelek => Meggyespele => Hatvan","type":"route","route":"train","colour":"#00AFF0","operator":"MÁV-Start","wikidata":"Q109333257","wikipedia":"hu:S820-as személyvonat","description":"\\\"A\\\" v","public_transport:version":"2"},"5189572":{"to":"Győr","ref":"G10","via":"Tatabánya -> Komárom","from":"Budapest-Keleti","name":"G10: Budapest-Keleti => Tatabánya => Komárom => Győr","type":"route","route":"train","colour":"#AACD46","name:de":"G10: Budapest-Ost => Totiserkolonie => Komorn => Raab","service":"commuter","operator":"MÁV-Start","wikidata":"Q103834888","wikipedia":"hu:G10-es gyorsított személyvonat","description":"\\\"B\\\"","public_transport:version":"2"},"5189573":{"to":"Martonvásár","ref":"Z30","via":"Érd alsó","from":"Budapest-Déli","name":"Z30: Budapest-Déli => Martonvásár","type":"route","route":"train","colour":"#FFCD28","name:de":"Z30: Budapest-Süd => Martinsmarkt","service":"commuter","operator":"MÁV-Start","wikidata":"Q109333259","wikipedia":"hu:Z30-as zónázó személyvonat","description":"\\\"B\\\"","public_transport:version":"2"},"5189574":{"to":"Budapest-Déli","ref":"Z30","via":"Martonvásár -> Érd alsó","from":"Martonvásár","name":"Z30: Martonvásár => Budapest-Déli","type":"route","route":"train","colour":"#FFCD28","name:de":"Z30: Martinsmarkt => Budapest-Süd","service":"commuter","operator":"MÁV-Start","wikidata":"Q109333259","wikipedia":"hu:Z30-as zónázó személyvonat","description":"\\\"B\\\" v","public_transport:version":"2"},"5189575":{"to":"Szolnok","ref":"Z50","via":"Cegléd","from":"Budapest-Nyugati","name":"Z50: Budapest-Nyugati => Cegléd => Szolnok","type":"route","route":"train","colour":"#FFCD28","service":"commuter","operator":"MÁV-Start","wikidata":"Q104170252","wikipedia":"hu:Z50-es zónázó személyvonat","description":"\\\"A\\\"","public_transport:version":"2"},"5189576":{"to":"Budapest-Nyugati","ref":"Z50","via":"Cegléd","from":"Szolnok","name":"Z50: Szolnok => Cegléd => Budapest-Nyugati","type":"route","route":"train","colour":"#FFCD28","service":"commuter","operator":"MÁV-Start","wikidata":"Q104170252","wikipedia":"hu:Z50-es zónázó személyvonat","description":"\\\"A\\\" v","public_transport:version":"2"},"5189577":{"to":"Szolnok","ref":"Z60","from":"Budapest-Keleti","name":"Z60: Budapest-Keleti => Szolnok","type":"route","route":"train","colour":"#FFCD28","operator":"MÁV-Start","wikidata":"Q101147976","wikipedia":"hu:Z60-as zónázó személyvonat","description":"\\\"A\\\"","public_transport:version":"2"},"5189578":{"to":"Budapest-Keleti","ref":"Z60","from":"Szolnok","name":"Z60: Szolnok => Budapest-Keleti","type":"route","route":"train","colour":"#FFCD28","operator":"MÁV-Start","wikidata":"Q101147976","wikipedia":"hu:Z60-as zónázó személyvonat","description":"\\\"A\\\" v","public_transport:version":"2"},"5189579":{"to":"Szob","ref":"Z70","from":"Budapest-Nyugati","name":"Z70: Budapest-Nyugati => Szob","type":"route","route":"train","colour":"#FFCD28","service":"commuter","operator":"MÁV-Start","wikidata":"Q109333261","wikipedia":"hu:Z70-es zónázó személyvonat","description":"\\\"A\\\"","public_transport:version":"2"},"5189580":{"to":"Budapest-Nyugati","ref":"Z70","from":"Szob","name":"Z70: Szob => Budapest-Nyugati","type":"route","route":"train","colour":"#FFCD28","service":"commuter","operator":"MÁV-Start","wikidata":"Q109333261","wikipedia":"hu:Z70-es zónázó személyvonat","description":"\\\"A\\\" v","public_transport:version":"2"},"5280632":{"to":"Rostalló","ref":"PÁEV","via":"Kishuta","from":"Pálháza","name":"Pálházai Állami Erdei Vasút (Pálháza => Rostalló)","type":"route","route":"train","network":"local","operator":"Észeakerdő Zrt.","public_transport:version":"2"},"5280633":{"to":"Pálháza","ref":"PÁEV","via":"Kishuta","from":"Rostalló","name":"Pálházai Állami Erdei Vasút (Rostalló => Pálháza)","type":"route","route":"train","network":"local","operator":"Észeakerdő Zrt.","public_transport:version":"2"},"5313478":{"to":"Vác","ref":"G71","via":"Veresegyház","from":"Budapest-Nyugati","name":"G71: Budapest-Nyugati => Vác","type":"route","route":"train","colour":"#AACD46","network":"rwn","service":"commuter","operator":"MÁV-Start","wikidata":"Q109333268","wikipedia":"hu:G71-es gyorsított személyvonat","description":"\\\"A\\\"","public_transport:version":"2"},"5484664":{"to":"Esztergom","ref":"Z72","via":"Vasútmúzeum -> Solymár -> Piliscsév","from":"Budapest-Nyugati","name":"Z72: Budapest-Nyugati => Vasútmúzeum => Solymár => Piliscsév => Esztergom","type":"route","route":"train","colour":"#FFCD28","operator":"MÁV-Start","wikidata":"Q101321651","wikipedia":"hu:Z72-es zónázó személyvonat","description":"\\\"C\\\"","public_transport:version":"2"},"5484667":{"to":"Budapest-Nyugati","ref":"Z72","via":"Piliscsév -> Magdolnavölgy","from":"Esztergom","name":"Z72: Esztergom => Piliscsév => Magdolnavölgy => Budapest-Nyugati","type":"route","route":"train","colour":"#FFCD28","operator":"MÁV-Start","wikidata":"Q101321651","wikipedia":"hu:Z72-es zónázó személyvonat","description":"\\\"A\\\" v","public_transport:version":"2"},"5484668":{"to":"Vác","ref":"S77","from":"Aszód","name":"S77: Aszód => Vác","type":"route","route":"train","colour":"#00AFF0","operator":"MÁV-Start","wikidata":"Q115175464","wikipedia":"hu:S77-es személyvonat","start_date":"2022-12-11","description":"\\\"A\\\" v","public_transport:version":"2"},"5484669":{"to":"Esztergom","ref":"S72","from":"Budapest-Nyugati","name":"S72: Budapest-Nyugati => Esztergom","type":"route","route":"train","colour":"#00AFF0","operator":"MÁV-Start","wikidata":"Q101252443","wikipedia":"hu:S72-es személyvonat","description":"\\\"A\\\"","public_transport:version":"2"},"5484670":{"to":"Esztergom","ref":"S74","from":"Lábatlan","name":"S74: Lábatlan => Esztergom","type":"route","route":"train","colour":"#00AFF0","service":"commuter","operator":"MÁV-Start","wikidata":"Q115171353","description":"\\\"D\\\" v","public_transport:version":"2"},"5875710":{"to":"Komárom","ref":"S10","via":"Komárom -> Tatabánya","from":"Győr","name":"S10: Győr => Komárom","type":"route","route":"train","colour":"#00AFF0","name:de":"S10: Raab => Komorn","service":"commuter","operator":"MÁV-Start","wikidata":"Q103726127","wikipedia":"hu:S10-es személyvonat","description":"\\\"F\\\" v","public_transport:version":"2"},"5875711":{"to":"Budapest-Nyugati","ref":"G70","via":"Dunakeszi","from":"Szob","name":"G70: Szob => Dunakeszi => Budapest-Nyugati","type":"route","route":"train","colour":"#AACD46","operator":"MÁV-Start","wikidata":"Q109333266","wikipedia":"hu:G70-es gyorsított személyvonat","description":"\\\"A\\\" v","public_transport:version":"2"},"5875713":{"to":"Budapest-Nyugati","ref":"S72","from":"Esztergom","name":"S72: Esztergom => Budapest-Nyugati","type":"route","route":"train","colour":"#00AFF0","operator":"MÁV-Start","wikidata":"Q101252443","wikipedia":"hu:S72-es személyvonat","description":"\\\"A\\\" v","public_transport:version":"2"},"6682078":{"to":"Márianosztra","ref":"318","from":"Nagyirtás","name":"Börzsöny Kisvasút: Márianosztra - Nagyirtás","type":"route","route":"train","network":"lcn","operator":"Ipoly Erdő Zrt.","public_transport:version":"2"},"6702280":{"to":"Kál-Kápolna","ref":"365xx","via":"Kisköre","from":"Kisújszállás","name":"102 -> Kál-Kápolna","type":"route","route":"train","operator":"MÁV-Start","public_transport:version":"2"},"6702281":{"to":"Kisújszállás","ref":"365xx","via":"Kisköre","from":"Kál-Kápolna","name":"102 -> Kisújszállás","type":"route","route":"train","operator":"MÁV-Start","public_transport:version":"2"},"6702285":{"to":"Karcag","ref":"369xx","via":"Kunmadaras","from":"Tiszafüred","name":"103 -> Karcag","type":"route","route":"train","network":"MÁV","operator":"MÁV-Start","public_transport:version":"2"},"6702286":{"to":"Tiszafüred","ref":"369xx","via":"Kunmadaras","from":"Karcag","name":"103 -> Tiszafüred","type":"route","route":"train","network":"MÁV","operator":"MÁV-Start","public_transport:version":"2"},"6845794":{"to":"Oroszlány","ref":"S12","from":"Tatabánya","name":"S12: Budapest-Déli => Tatabánya => Oroszlány","type":"route","route":"train","colour":"#00AFF0","name:de":"S12: Budapest-Süd => Totiserkolonie => Ohreslahn","name:hu":"S12: Budapest-Déli => Tatabánya => Oroszlány","operator":"MÁV-Start","wikidata":"Q103770328","wikipedia":"hu:S12-es személyvonat","description":"\\\"A\\\"","public_transport:version":"2"},"6845795":{"to":"Budapest-Déli","ref":"S12","via":"Tatabánya","from":"Oroszlány","name":"S12: Oroszlány => Tatabánya => Budapest-Déli","type":"route","route":"train","colour":"#00AFF0","name:de":"S12: Ohreslahn => Totiserkolonie => Budapest-Süd","name:hu":"S12: Oroszlány => Tatabánya => Budapest- Déli","operator":"MÁV-Start","wikidata":"Q103770328","wikipedia":"hu:S12-es személyvonat","description":"\\\"A\\\" v","public_transport:version":"2"},"7697158":{"to":"Budapest-Déli","ref":"Z42","via":"Dunaújváros külső -> Rácalmás -> Kulcs -> Adony","from":"Dunaújváros","name":"Z42: Dunaújváros => Dunaújváros külső => Rácalmás => Kulcs => Adony => Budapest-Déli","type":"route","route":"train","colour":"#FFCD28","service":"commuter","operator":"MÁV-Start","wikidata":"Q112225437","wikipedia":"hu:Z42-es zónázó személyvonat","description":"\\\"A\\\" v","public_transport:version":"2"},"7697159":{"to":"Komárom","ref":"S74","via":"Lábatlan -> Süttő -> Almásfüzitő","from":"Esztergom","name":"S74: Esztergom => Lábatlan => Süttő => Almásfüzitő => Komárom","type":"route","route":"train","colour":"#00AFF0","name:de":"S74: Gran => Komorn","name:hu":"S74: Esztergom => Lábatlan => Süttő => Almásfüzitő => Komárom","service":"commuter","operator":"MÁV-Start","wikidata":"Q115171353","description":"\\\"A\\\"","public_transport:version":"2"},"7948874":{"to":"Neusiedl am See","ref":"REX63","from":"Fertőszentmiklós","name":"Fertőszentmiklós – Neusiedl","type":"route","route":"train","name:hu":"Fertőszentmiklós – Nezsider","network":"VOR","service":"regional","network:wikidata":"Q2516485","public_transport:version":"2"},"8021072":{"to":"Szolnok","ref":"S820","via":"Portelek","from":"Hatvan","name":"S820: Hatvan => Portelek => Szolnok","type":"route","route":"train","colour":"#00AFF0","operator":"MÁV-Start","wikidata":"Q109333257","wikipedia":"hu:S820-as személyvonat","description":"\\\"D\\\"","public_transport:version":"2"},"8021074":{"to":"Debrecen","ref":"S506","via":"Konyár","from":"Nagykereki","name":"S506: Nagykereki => Konyár => Debrecen","type":"route","route":"train","train":"yes","colour":"#00AFF0","service":"commuter","operator":"MÁV-Start","wikidata":"Q111752752","wikipedia":"hu:S506-os személyvonat","description":"\\\"A\\\" v","public_transport:version":"2"},"8021076":{"to":"Nagykereki","ref":"S506","via":"Konyár","from":"Debrecen","name":"S506: Debrecen => Konyár => Nagykereki","type":"route","route":"train","colour":"#00AFF0","service":"commuter","operator":"MÁV-Start","wikidata":"Q111752752","wikipedia":"hu:S506-os személyvonat","description":"\\\"A\\\"","public_transport:version":"2"},"8021077":{"to":"Székesfehérvár","ref":"GEMENC","via":"Bátaszék -> Sárbogárd","from":"Baja","name":"GEMENC IR: Baja => Bátaszék => Sárbogárd => Székesfehérvár","type":"route","route":"train","operator":"MÁV-Start","description":"\\\"A\\\" v","public_transport:version":"2"},"8021078":{"to":"Baja","ref":"GEMENC","via":"Sárbogárd -> Bátaszék","from":"Székesfehérvár","name":"GEMENC IR: Székesfehérvár => Sárbogárd => Bátaszék => Baja","type":"route","route":"train","operator":"MÁV-Start","description":"\\\"A\\\"","public_transport:version":"2"},"8021079":{"to":"Simontornya","ref":"S431","from":"Dunaújváros","name":"S431: Dunaújváros => Simontornya","type":"route","route":"train","colour":"#00AFF0","operator":"MÁV-Start","description":"\\\"B\\\"","public_transport:version":"2"},"8021080":{"to":"Dunaújváros","ref":"S431","from":"Simontornya","name":"S431: Simontornya => Dunaújváros","type":"route","route":"train","colour":"#00AFF0","operator":"MÁV-Start","description":"\\\"B\\\" v","public_transport:version":"2"},"8021081":{"to":"Budapest-Keleti","ref":"G80","from":"Isaszeg","name":"G80: Isaszeg => Budapest-Keleti","type":"route","route":"train","colour":"#AACD46","operator":"MÁV-Start","wikidata":"Q101147264","wikipedia":"hu:G80-as gyorsított személyvonat","description":"\\\"A\\\"","public_transport:version":"2"},"8021082":{"to":"Budapest-Keleti","ref":"IR87","via":"Andornaktálya -> Nagyút -> Ludas -> Karácsond -> Adács","from":"Eger","name":"IR87 AGRIA IR: Eger => Andornaktálya => Nagyút => Ludas => Karácsond => Adács => Budapest-Keleti","type":"route","route":"train","colour":"#008000","operator":"MÁV-Start","description":"\\\"A\\\" v","public_transport:version":"2"},"8021083":{"to":"Budapest-Keleti","ref":"S80","via":"Hatvan -> Gödöllő","from":"Füzesabony","name":"S80: Füzesabony => Hatvan => Aszód => Gödöllő => Budapest-Keleti","type":"route","route":"train","colour":"#00AFF0","operator":"MÁV-Start","wikidata":"Q101142569","wikipedia":"hu:S80-as személyvonat","description":"\\\"B\\\" v","public_transport:version":"2"},"8021084":{"to":"Füzesabony","ref":"S80","via":"Gödöllő-Állami telepek -> Gödöllő -> Hévízgyörk -> Galgahévíz -> Aszód -> Hatvan","from":"Budapest-Keleti","name":"S80: Budapest-Keleti => Gödöllő-Állami telepek => Gödöllő => Hévízgyörgyk => Galgahévíz => Aszód => Hatvan => Füzesabony","type":"route","route":"train","colour":"#00AFF0","operator":"MÁV-Start","wikidata":"Q101142569","wikipedia":"hu:S80-as személyvonat","description":"\\\"A\\\"","public_transport:version":"2"},"8021085":{"to":"Pilisvörösvár","ref":"S76","via":"Óbuda","from":"Rákos","name":"S76: Rákos => Óbuda => Pilisvörösvár","type":"route","route":"train","colour":"#00AFF0","operator":"MÁV-Start","wikidata":"Q100707374","wikipedia":"hu:S76-os személyvonat","description":"\\\"A\\\"","public_transport:version":"2"},"8021086":{"to":"Budapest-Nyugati","ref":"G71","via":"Veresegyház","from":"Vácrátót","name":"G71: Vácrátót => Budapest-Nyugati","type":"route","route":"train","colour":"#AACD46","service":"commuter","operator":"MÁV-Start","wikidata":"Q109333268","wikipedia":"hu:G71-es gyorsított személyvonat","description":"\\\"B\\\" v","public_transport:version":"2"},"8021087":{"to":"Budapest-Nyugati","ref":"S71","via":"Veresegyház","from":"Vác","name":"S71: Vác => Budapest-Nyugati","type":"route","route":"train","colour":"#00AFF0","service":"commuter","operator":"MÁV-Start","wikidata":"Q109333250","wikipedia":"hu:S71-es személyvonat","description":"\\\"B\\\" v","public_transport:version":"2"},"8021088":{"to":"Szolnok","ref":"G60","via":"Nagykáta","from":"Budapest-Keleti","name":"G60: Budapest-Keleti => Nagykáta => Szolnok","type":"route","route":"train","colour":"#AACD46","operator":"MÁV-Start","wikidata":"Q101147966","wikipedia":"hu:G60-as gyorsított személyvonat","description":"\\\"A\\\"","public_transport:version":"2"},"8021089":{"to":"Nagykáta","ref":"S60","via":"Sülysáp","from":"Budapest-Keleti","name":"S60: Budapest-Keleti => Sülysáp => Nagykáta","type":"route","route":"train","colour":"#00AFF0","operator":"MÁV-Start","wikidata":"Q109333246","wikipedia":"hu:S60-as személyvonat","description":"\\\"B\\\"","public_transport:version":"2"},"8021091":{"to":"Kőbánya-Kispest","ref":"G43","via":"Érd felső","from":"Székesfehérvár","name":"G43: Székesfehérvár => Kőbánya-Kispest","type":"route","route":"train","colour":"#AACD46","service":"commuter","operator":"MÁV-Start","wikidata":"Q109333264","wikipedia":"hu:G43-as gyorsított személyvonat","description":"\\\"C\\\" v","public_transport:version":"2"},"8021092":{"to":"Budapest-Déli","ref":"G44","via":"Érd felső","from":"Tárnok","name":"G44: Tárnok => Budapest-Déli","type":"route","route":"train","colour":"#AACD46","service":"commuter","operator":"MÁV-Start","wikidata":"Q101110571","wikipedia":"hu:G44-es gyorsított személyvonat","public_transport:version":"2"},"8021093":{"to":"Budapest-Déli","ref":"S42","via":"Rácalmás -> Kulcs -> Adony -> Érd felső","from":"Dunaújváros","name":"S42: Dunaújváros => Rácalmás => Kulcs => Adony => Budapest-Déli","type":"route","route":"train","colour":"#00AFF0","operator":"MÁV-Start","wikidata":"Q112963134","wikipedia":"hu:S42-es személyvonat","description":"\\\"B\\\" v","public_transport:version":"2"},"8021094":{"to":"Dunaújváros","ref":"S42","via":"Érd felső -> Adony -> Kulcs -> Rácalmás -> Dunaújváros külső","from":"Pusztaszabolcs","name":"S42: Pusztaszabolcs => Adony => Kulcs => Rácalmás => Dunaújváros külső => Dunaújváros","type":"route","route":"train","colour":"#00AFF0","service":"commuter","operator":"MÁV-Start","wikidata":"Q112963134","wikipedia":"hu:S42-es személyvonat","description":"\\\"D\\\"","public_transport:version":"2"},"8021095":{"to":"Dunaújváros","ref":"S42","via":"Érd felső -> Adony -> Kulcs -> Rácalmás","from":"Budapest-Déli","name":"S42: Budapest-Déli => Adony => Kulcs => Rácalmás => Dunaújváros","type":"route","route":"train","colour":"#00AFF0","service":"commuter","operator":"MÁV-Start","wikidata":"Q112963134","wikipedia":"hu:S42-es személyvonat","description":"\\\"B\\\"","public_transport:version":"2"},"8021096":{"to":"Budapest-Déli","ref":"S40","via":"Sárbogárd -> Pusztaszabolcs -> Százhalombatta -> Érd felső","from":"Pincehely","name":"S40: Pincehely => Sárbogárd => Pusztaszabolcs => Százhalombatta => Budapest-Déli","type":"route","route":"train","colour":"#00AFF0","operator":"MÁV-Start","wikidata":"Q112963108","wikipedia":"hu:S40-es személyvonat","description":"\\\"B\\\" v","public_transport:version":"2"},"8021097":{"to":"Budapest-Déli","ref":"G40","via":"Pusztaszabolcs -> Százhalombatta -> Érd felső","from":"Sárbogárd","name":"G40: Sárbogárd => Pusztaszabolcs => Százhalombatta => Budapest-Déli","type":"route","route":"train","colour":"#AACD46","operator":"MÁV-Start","wikidata":"Q112963120","wikipedia":"hu:G40-es gyorsított személyvonat","description":"\\\"B\\\" v","public_transport:version":"2"},"8021098":{"to":"Dombóvár","ref":"S40","from":"Sárbogárd","name":"S40: Sárbogárd => Dombóvár","type":"route","route":"train","colour":"#00AFF0","service":"commuter","operator":"MÁV-Start","wikidata":"Q112963108","wikipedia":"hu:S40-es személyvonat","description":"\\\"I\\\"","public_transport:version":"2"},"8021099":{"to":"Pusztaszabolcs","ref":"S40","via":"Érd felső -> Százhalombatta","from":"Budapest-Déli","name":"S40: Budapest-Déli => Százhalombatta => Pusztaszabolcs","type":"route","route":"train","colour":"#00AFF0","service":"commuter","operator":"MÁV-Start","wikidata":"Q112963108","wikipedia":"hu:S40-es személyvonat","description":"\\\"F\\\"","public_transport:version":"2"},"8021100":{"to":"Szob","ref":"G70","via":"Dunakeszi","from":"Budapest-Nyugati","name":"G70: Budapest-Nyugati => Dunakeszi => Szob","type":"route","route":"train","colour":"#AACD46","service":"commuter","operator":"MÁV-Start","wikidata":"Q109333266","wikipedia":"hu:G70-es gyorsított személyvonat","description":"\\\"A\\\"","public_transport:version":"2"},"8021101":{"to":"Sárbogárd","ref":"S40","via":"Érd alsó -> Tárnok -> Érd felső -> Százhalombatta -> Pusztaszabolcs","from":"Budapest-Déli","name":"S40: Budapest-Déli => Százhalombatta => Pusztaszabolcs => Sárbogárd","type":"route","route":"train","colour":"#00AFF0","service":"commuter","operator":"MÁV-Start","wikidata":"Q112963108","wikipedia":"hu:S40-es személyvonat","description":"\\\"C\\\"","public_transport:version":"2"},"8021102":{"to":"Kőbánya-Kispest","ref":"S36","via":"Martonvásár -> Tárnok -> Érd alsó","from":"Kápolnásnyék","name":"S36: Kápolnásnyék => Martonvásár => Tárnok => Kőbánya-Kispest","type":"route","route":"train","colour":"#00AFF0","service":"commuter","operator":"MÁV-Start","wikidata":"Q109333242","wikipedia":"hu:S36-os személyvonat","description":"\\\"C\\\" v","public_transport:version":"2"},"8021103":{"to":"Kápolnásnyék","ref":"S36","via":"Kőbánya-Kispest -> Érd alsó -> Tárnok -> Martonvásár","from":"Üllő","name":"S36: Üllő => Kőbánya-Kispest => Tárnok => Martonvásár => Kápolnásnyék","type":"route","route":"train","colour":"#00AFF0","service":"commuter","operator":"MÁV-Start","wikidata":"Q109333242","wikipedia":"hu:S36-os személyvonat","description":"\\\"A\\\"","public_transport:version":"2"},"8021104":{"to":"Kőbánya-Kispest","ref":"S36","via":"Tárnok -> Érd alsó","from":"Martonvásár","name":"S36: Martonvásár => Tárnok => Kőbánya-Kispest","type":"route","route":"train","colour":"#00AFF0","service":"commuter","operator":"MÁV-Start","wikidata":"Q109333242","wikipedia":"hu:S36-os személyvonat","description":"\\\"D\\\" v","public_transport:version":"2"},"8021105":{"to":"Martonvásár","ref":"S36","via":"Érd alsó -> Tárnok","from":"Kőbánya-Kispest","name":"S36: Kőbánya-Kispest => Tárnok => Martonvásár","type":"route","route":"train","colour":"#00AFF0","service":"commuter","operator":"MÁV-Start","wikidata":"Q109333242","wikipedia":"hu:S36-os személyvonat","description":"\\\"D\\\"","public_transport:version":"2"},"8021106":{"to":"Budapest-Nyugati","ref":"S21","via":"Ócsa -> Kőbánya-Kispest","from":"Lajosmizse","name":"S21: Dabas => Ócsa => Kőbánya-Kispest => Budapest-Nyugati","type":"route","route":"train","colour":"#00AFF0","service":"commuter","operator":"MÁV-Start","wikidata":"Q101148856","wikipedia":"hu:S21-es személyvonat","description":"\\\"D\\\" v","public_transport:version":"2"},"8021107":{"to":"Dabas","ref":"S21","via":"Ócsa","from":"Budapest-Nyugati","name":"S21: Budapest-Nyugati => Ócsa => Dabas","type":"route","route":"train","colour":"#00AFF0","service":"commuter","operator":"MÁV-Start","wikidata":"Q101148856","wikipedia":"hu:S21-es személyvonat","description":"\\\"D\\\"","public_transport:version":"2"},"8021108":{"to":"Budapest-Déli","ref":"S30","from":"Martonvásár","name":"S30: Martonvásár → Budapest-Déli","type":"route","route":"train","colour":"#00AFF0","name:de":"S30: Martinsmarkt → Budapest-Süd","service":"commuter","operator":"MÁV-Start","wikidata":"Q101095853","wikipedia":"hu:S30-as személyvonat","description":"\\\"F\\\" v","public_transport:version":"2"},"8021109":{"to":"Budapest-Déli","ref":"S30","from":"Tárnok","name":"S30: Tárnok → Budapest-Déli","type":"route","route":"train","colour":"#00AFF0","name:de":"S30: Tarnok → Budapest-Süd","name:hu":"S30: Tárnok → Budapest-Déli","service":"commuter","operator":"MÁV-Start","wikidata":"Q101095853","wikipedia":"hu:S30-as személyvonat","description":"\\\"G\\\" v","public_transport:version":"2"},"8059886":{"to":"Székesfehérvár","ref":"Z30","via":"Érd alsó","from":"Budapest-Déli","name":"Z30: Tárnok => Budapest-Déli","type":"route","route":"train","colour":"#FFCD28","service":"commuter","operator":"MÁV-Start","wikidata":"Q109333259","wikipedia":"hu:Z30-as zónázó személyvonat","description":"\\\"C\\\" v","public_transport:version":"2"},"8059889":{"to":"Székesfehérvár","ref":"G43","via":"Kőbánya-Kispest","from":"Üllő","name":"G43: Üllő => Kőbánya-Kispest => Székesfehérvár","type":"route","route":"train","colour":"#AACD46","service":"commuter","operator":"MÁV-Start","wikidata":"Q109333264","wikipedia":"hu:G43-as gyorsított személyvonat","description":"\\\"A\\\"","public_transport:version":"2"},"8833906":{"to":"München Hbf","ref":"EN 462","from":"Budapest-Keleti pu.","name":"EN 462: Budapest => München","type":"route","route":"train","network":"EuroNight","service":"long_distance","by_night":"only","couchette":"yes","sleeping_car":"yes","network:wikidata":"Q257307","network:wikipedia":"en:EuroNight","public_transport:version":"2"},"8834319":{"to":"Zürich Hauptbahnhof","ref":"EN 40462","from":"Budapest-Keleti pu.","name":"EN 40462: Budapest => Zürich","type":"route","route":"train","network":"EuroNight","service":"night","by_night":"only","couchette":"yes","passenger":"international","sleeping_car":"yes","network:wikidata":"Q257307","network:wikipedia":"en:EuroNight","public_transport:version":"2"},"8841286":{"to":"Praha hlavní nádraží","ref":"EN 476","from":"Budapest-Nyugati","name":"EN 476: Budapest - Praha","type":"route","route":"train","network":"EuroNight","service":"long_distance","by_night":"only","couchette":"yes","sleeping_car":"yes","network:wikidata":"Q257307","network:wikipedia":"en:EuroNight","public_transport:version":"2"},"9174324":{"to":"Keszthely","from":"Balatonszentgyörgy","name":"Balatonszentgyörgy-Keszthely vasútvonal (1888-1903)","type":"route","route":"train"},"9448541":{"to":"Pilisvörösvár","ref":"S76","from":"Rákos","name":"S76: Rákos => Pilisvörösvár","type":"route","route":"train","colour":"#00AFF0","operator":"MÁV-Start","wikidata":"Q100707374","wikipedia":"hu:S76-os személyvonat","description":"\\\"B\\\"","public_transport:version":"2"},"9448542":{"to":"Rákos","ref":"S76","from":"Pilisvörösvár","name":"S76: Pilisvörösvár => Rákos","type":"route","route":"train","colour":"#00AFF0","operator":"MÁV-Start","wikidata":"Q100707374","wikipedia":"hu:S76-os személyvonat","description":"\\\"B\\\" v","public_transport:version":"2"},"9470081":{"to":"Esztergom","ref":"Z72","via":"Aranyvölgy -> Piliscsév","from":"Budapest-Nyugati","name":"Z72: Budapest-Nyugati => Aranyvölgy => Piliscsév => Esztergom","type":"route","route":"train","colour":"#FFCD28","service":"commuter","operator":"MÁV-Start","wikidata":"Q101321651","wikipedia":"hu:Z72-es zónázó személyvonat","description":"\\\"E\\\"","public_transport:version":"2"},"9470082":{"to":"Budapest-Keleti","ref":"S80","via":"Gödöllő-Állami telepek","from":"Gödöllő","name":"S80: Gödöllő => Gödöllő-Állami telepek => Budapest-Keleti","type":"route","route":"train","colour":"#00AFF0","operator":"MÁV-Start","wikidata":"Q101142569","wikipedia":"hu:S80-as személyvonat","description":"\\\"G\\\" v","public_transport:version":"2"},"9470083":{"to":"Budapest-Déli","ref":"S40","via":"Százhalombatta -> Érd felső","from":"Pusztaszabolcs","name":"S40: Pusztaszabolcs => Százhalombatta => Budapest-Déli","type":"route","route":"train","colour":"#00AFF0","operator":"MÁV-Start","wikidata":"Q112963108","wikipedia":"hu:S40-es személyvonat","description":"\\\"E\\\" v","public_transport:version":"2"},"9470084":{"to":"Gödöllő","ref":"S80","via":"Gödöllő-Állami telepek","from":"Budapest-Keleti","name":"S80: Budapest-Keleti => Gödöllő-Állami telepek => Gödöllő","type":"route","route":"train","colour":"#00AFF0","operator":"MÁV-Start","wikidata":"Q101142569","wikipedia":"hu:S80-as személyvonat","description":"\\\"G\\\"","public_transport:version":"2"},"9470085":{"to":"Pincehely","ref":"S40","via":"Érd felső -> Százhalombatta -> Pusztaszabolcs","from":"Budapest-Déli","name":"S40: Budapest-Déli => Százhalombatta => Pusztaszabolcs => Pincehely","type":"route","route":"train","colour":"#00AFF0","service":"commuter","operator":"MÁV-Start","wikidata":"Q112963108","wikipedia":"hu:S40-es személyvonat","description":"\\\"B\\\"","public_transport:version":"2"},"9502661":{"to":"Dombóvár","ref":"Z40","via":"Sárbogárd","from":"Budapest-Déli","name":"Z40: Budapest-Déli => Sárbogárd => Dombóvár","type":"route","route":"train","colour":"#FFCD28","service":"commuter","operator":"MÁV-Start","wikidata":"Q112225436","wikipedia":"hu:Z40-es zónázó személyvonat","description":"\\\"A\\\"","public_transport:version":"2"},"9502662":{"to":"Budapest-Déli","ref":"G30","from":"Székesfehérvár","name":"G30: Székesfehérvár => Budapest-Déli","type":"route","route":"train","colour":"#AACD46","name:de":"G30: Stuhlweißenburg => Budapest-Süd","service":"commuter","operator":"MÁV-Start","wikidata":"Q104161605","wikipedia":"hu:G30-as gyorsított személyvonat","description":"\\\"A\\\" v","public_transport:version":"2"},"9502663":{"to":"Budapest-Déli","ref":"G30","from":"Székesfehérvár","name":"G30: Székesfehérvár => Budapest-Déli","type":"route","route":"train","colour":"#AACD46","name:da":"G30: Stuhlweißenburg => Budapest-Süd","service":"commuter","operator":"MÁV-Start","wikidata":"Q104161605","wikipedia":"hu:G30-as gyorsított személyvonat","description":"\\\"B\\\" v","public_transport:version":"2"},"9640059":{"to":"Rákos","ref":"S76","via":"Óbuda","from":"Pilisvörösvár","name":"S76: Pilisvörösvár => Óbuda => Rákos","type":"route","route":"train","colour":"#00AFF0","operator":"MÁV-Start","wikidata":"Q100707374","wikipedia":"hu:S76-os személyvonat","description":"\\\"A\\\" v","public_transport:version":"2"},"9679132":{"name":"Pankaszi Téglagyár vasútja","note":"https://www.kisvasut.hu/vasutlista/view_vasut.php?kat=7283|","type":"route","route":"train","public_transport:version":"1"},"9981164":{"name":"Körmend téglagyári kisvasút","type":"route","route":"train"},"10609767":{"to":"Budapest-Nyugati","ref":"Z72","via":"Piliscsév","from":"Esztergom","name":"Z72: Esztergom => Piliscsév => Budapest-Nyugati","type":"route","route":"train","colour":"#FFCD28","operator":"MÁV-Start","wikidata":"Q101321651","wikipedia":"hu:Z72-es zónázó személyvonat","description":"\\\"D\\\" v","public_transport:version":"2"},"10609768":{"to":"Budapest-Nyugati","ref":"Z72","via":"Magdolnavölgy","from":"Esztergom","name":"Z72: Esztergom => Magdolnavölgy => Budapest-Nyugati","type":"route","route":"train","colour":"#FFCD28","operator":"MÁV-Start","wikidata":"Q101321651","wikipedia":"hu:Z72-es zónázó személyvonat","description":"\\\"B\\\" v","public_transport:version":"2"},"10609770":{"to":"Esztergom","ref":"Z72","via":"Solymár -> Piliscsév","from":"Budapest-Nyugati","name":"Z72: Budapest-Nyugati => Solymár => Piliscsév => Esztergom","type":"route","route":"train","colour":"#FFCD28","service":"commuter","operator":"MÁV-Start","wikidata":"Q101321651","wikipedia":"hu:Z72-es zónázó személyvonat","description":"\\\"D\\\"","public_transport:version":"2"},"10609771":{"to":"Esztergom","ref":"Z72","via":"Solymár -> Magdolnavölgy","from":"Budapest-Nyugati","name":"Z72: Budapest-Nyugati => Solymár => Magdolnavölgy => Esztergom","type":"route","route":"train","colour":"#FFCD28","operator":"MÁV-Start","wikidata":"Q101321651","wikipedia":"hu:Z72-es zónázó személyvonat","description":"\\\"B\\\"","public_transport:version":"2"},"10609773":{"to":"Esztergom","ref":"Z72","via":"Solymár -> Magdolnavölgy -> Piliscsév","from":"Budapest-Nyugati","name":"Z72: Budapest-Nyugati => Solymár => Magdolnavölgy => Piliscsév => Esztergom","type":"route","route":"train","colour":"#FFCD28","operator":"MÁV-Start","wikidata":"Q101321651","wikipedia":"hu:Z72-es zónázó személyvonat","description":"\\\"A\\\"","public_transport:version":"2"},"10609774":{"to":"Budapest-Déli","ref":"G40","from":"Dombóvár","name":"G40: Dombóvár => Sárbogárd => Budapest-Déli","type":"route","route":"train","colour":"#AACD46","service":"commuter","operator":"MÁV-Start","wikidata":"Q112963120","wikipedia":"hu:G40-es gyorsított személyvonat","description":"\\\"A\\\" v","public_transport:version":"2"},"10609775":{"to":"Budapest-Nyugati","ref":"G50","from":"Szolnok","name":"G50: Szolnok => Budapest-Nyugati","type":"route","route":"train","colour":"#AACD46","service":"commuter","operator":"MÁV-Start","wikidata":"Q109333265","wikipedia":"hu:G50-es gyorsított személyvonat","description":"\\\"A\\\" v","public_transport:version":"2"},"10609778":{"to":"Kelenföld","ref":"S36","from":"Kőbánya-Kispest","name":"S36: Kőbánya-Kispest => Kelenföld","type":"route","route":"train","colour":"#00AFF0","service":"commuter","operator":"MÁV-Start","wikidata":"Q109333242","wikipedia":"hu:S36-os személyvonat","description":"\\\"F\\\"","public_transport:version":"2"},"10609779":{"to":"Kápolnásnyék","ref":"S36","via":"Kőbánya-Kispest -> Érd alsó -> Tárnok","from":"Üllő","name":"S36: Üllő => Kőbánya-Kispest => Tárnok => Martonvásár","type":"route","route":"train","colour":"#00AFF0","service":"commuter","operator":"MÁV-Start","wikidata":"Q109333242","wikipedia":"hu:S36-os személyvonat","description":"\\\"B\\\"","public_transport:version":"2"},"10609780":{"to":"Budapest-Déli","ref":"S34","via":"Érd alsó","from":"Keszthely","name":"S34: Keszthely → Budapest-Déli","type":"route","route":"train","colour":"#00AFF0","name:de":"S34: Kesthell → Budapest-Süd","service":"commuter","operator":"MÁV-Start","wikidata":"Q104433012","wikipedia":"hu:S34-es személyvonat","description":"\\\"C\\\" v","public_transport:version":"2"},"10609781":{"to":"Budapest-Déli","ref":"S35","via":"Érd alsó","from":"Nagykanizsa","name":"S35: Nagykanizsa → Budapest-Déli","type":"route","route":"train","colour":"#00AFF0","name:de":"S35: Großkirchen → Budapest-Süd","service":"commuter","operator":"MÁV-Start","wikidata":"Q109333241","wikipedia":"hu:S35-ös személyvonat","description":"\\\"B\\\" v","public_transport:version":"2"},"10609782":{"to":"Martonvásár","ref":"S30","via":"Érd alsó","from":"Budapest-Déli","name":"S30: Budapest-Déli → Martonvásár","type":"route","route":"train","colour":"#00AFF0","name:de":"S30: Budapest-Süd → Martinsmarkt","service":"commuter","operator":"MÁV-Start","wikidata":"Q101095853","wikipedia":"hu:S30-as személyvonat","description":"\\\"F\\\"","public_transport:version":"2"},"10609783":{"to":"Budapest-Kelenföld","ref":"Z30","via":"Érd alsó","from":"Tárnok","name":"Z30: Tárnok => Budapest-Kelenföld","type":"route","route":"train","colour":"#FFCD28","name:de":"Z30: Tárnok => Budapest-Krenfeld","service":"commuter","operator":"MÁV-Start","wikidata":"Q109333259","wikipedia":"hu:Z30-as zónázó személyvonat","description":"\\\"D\\\" v","public_transport:version":"2"},"10609784":{"to":"Keszthely","ref":"S34","from":"Fonyód","name":"S34: Fonyód → Keszthely","type":"route","route":"train","colour":"#00AFF0","name:de":"S34: Fonjod → Kesthell","service":"commuter","operator":"MÁV-Start","wikidata":"Q104433012","wikipedia":"hu:S34-es személyvonat","description":"\\\"E\\\"","public_transport:version":"2"},"10609785":{"to":"Budapest-Déli","ref":"S30","via":"Székesfehérvár -> Martonvsár -> Érd alsó","from":"Fonyód","name":"S30: Fonyód → Székesfehérvár → Martonvásár → Budapest-Déli","type":"route","route":"train","colour":"#00AFF0","name:de":"S30: Fonjod → Stuhlweißenburg → Martinsmarkt → Budapest-Süd","service":"commuter","operator":"MÁV-Start","wikidata":"Q101095853","wikipedia":"hu:S30-as személyvonat","description":"\\\"B\\\" v","public_transport:version":"2"},"10609786":{"to":"Győr","ref":"G10","via":"Tatabánya -> Komárom","from":"Budapest-Keleti","name":"G10: Budapest-Keleti => Tatabánya => Komárom => Győr","type":"route","route":"train","colour":"#AACD46","name:de":"G10: Budapest-Ost => Totiserkolonie => Komorn => Raab","service":"commuter","operator":"MÁV-Start","wikidata":"Q103834888","wikipedia":"hu:G10-es gyorsított személyvonat","description":"\\\"A\\\"","public_transport:version":"2"},"10609787":{"to":"Budapest-Kelenföld","ref":"G10","from":"Bicske","name":"G10: Bicske => Budapest-Kelenföld","type":"route","route":"train","colour":"#AACD46","name:de":"G10: Witschke => Budapest-Krenfeld","service":"commuter","operator":"MÁV-Start","wikidata":"Q103834888","wikipedia":"hu:G10-es gyorsított személyvonat","description":"\\\"C\\\"","public_transport:version":"2"},"10609788":{"to":"Székesfehérvár","ref":"G30","from":"Budapest-Déli","name":"G30: Budapest-Déli => Székesfehérvár","type":"route","route":"train","colour":"#AACD46","name:de":"G30: Budapest-Süd => Stuhlweißenburg","service":"commuter","operator":"MÁV-Start","wikidata":"Q104161605","wikipedia":"hu:G30-as gyorsított személyvonat","description":"\\\"A\\\"","public_transport:version":"2"},"10787682":{"name":"Zsuzsi Erdei vasút régi nyomvonala","type":"route","gauge":"760","route":"train","railway":"abandoned"},"10787790":{"to":"Felnémet","from":"Felsőtárkány","name":"Felnémet-Felsőtárkány vonal","type":"route","gauge":"760","route":"train","network":"Felsőtárkányi Erdei Vasút","railway":"abandoned"},"10787966":{"to":"Felsőtárkány","from":"Határlápa","name":"Oldalvölgyi vonal","type":"route","gauge":"760","route":"train","network":"Felsőtárkányi Erdei Vasút","railway":"abandoned","abandoned:railway":"narrow_gauge"},"10787998":{"to":"Várhegyi kőbánya","from":"Vadaskert","name":"Várhegyi vonal","type":"route","gauge":"760","route":"train","network":"Felsőtárkányi Erdei Vasút","railway":"abandoned"},"10788409":{"to":"Dorottya utca","from":"Ládi rakodó","name":"Ládi vonal","type":"route","gauge":"760","route":"train","network":"Lillafüredi Állami Erdei Vasút","railway":"abandoned"},"10788732":{"to":"Dorottya utca","from":"Szent Anna tér","name":"Szent Anna téri szakasz","type":"route","gauge":"760","route":"train","network":"Lillafüredi Állami Erdei Vasút","railway":"abandoned"},"10788733":{"to":"Kerehegyi rakodó","from":"Lillafüred","name":"Kerekhegyi szárnyvonal","type":"route","gauge":"760","route":"train","railway":"abandoned"},"10788744":{"to":"Farkasgödör-Örvénykő","from":"Mahóca","name":"Mahóca - Farkasgödör-Örvénykő szakasz","type":"route","route":"train","railway":"abandoned"},"10788759":{"name":"Komlósi-völgyi vonak","type":"route","gauge":"760","route":"train","railway":"abandoned"},"10791927":{"to":"Ládi rakodó(-Mexikó-völgy)","ref":"93","from":"Miskolc-Rendező","name":"Vasgyári vonal","type":"route","route":"train"},"10792313":{"name":"Perecesi-bányavasút","type":"route","gauge":"1000","route":"train"},"11327258":{"name":"Meggyespele-Pusztamizse GV","type":"route","gauge":"600","route":"train","railway":"abandoned","end_date":"1964","start_date":"1941"},"11579632":{"to":"Széchenyihegy","from":"Hűvösvölgy","name":"\\\"S7\\\": Hűvösvölgy => Széchenyihegy","note":"\\\"Cf\\\" \\\"odd\\\" \\\"A\\\"","type":"route","route":"train","colour":"#00AFF0","bicycle":"yes","network":"local","service":"tourism","by_night":"no","duration":"45","interval":"60","operator":"MÁV","passenger":"local","wheelchair":"limited","public_transport:version":"2"},"11579633":{"to":"Hűvösvölgy","from":"Széchenyihegy","name":"\\\"S7\\\": Széchenyihegy => Hűvösvölgy","note":"\\\"Cf\\\" \\\"even\\\" \\\"A\\\"","type":"route","route":"train","colour":"#00AFF0","bicycle":"yes","network":"local","service":"tourism","by_night":"no","duration":"47","interval":"60","operator":"MÁV","passenger":"local","wheelchair":"limited","public_transport:version":"2"},"11724936":{"to":"Fehring","ref":"R530","from":"Szentgotthárd","name":"R530: Szentgotthárd => Fehring","type":"route","route":"train","network":"Verkehrsverbund Steiermark","operator":"ÖBB-Personenverkehr AG","public_transport:version":"2"},"11812870":{"ref":"iv","name":"Csömödéri Állami Erdei Vasút","type":"route","route":"train"},"11812871":{"ref":"v","name":"Csömödéri Állami Erdei Vasút","type":"route","route":"train"},"11812892":{"ref":"vii","name":"Csömödéri Állami Erdei Vasút","type":"route","route":"train"},"11982641":{"name":"Sárvár–Répcevis–Felsőlászló-vasútvonal","type":"route","route":"train","abandoned":"yes"},"11983207":{"ref":"919","name":"919 Savaria IC: Szentgotthárd => Budapest-Keleti","type":"route","route":"train","operator":"MÁV","public_transport:version":"2"},"11983208":{"ref":"916","name":"916 Répce IC: Budapest-Keleti => Szentgotthárd","type":"route","route":"train","operator":"MÁV","public_transport:version":"2"},"12031265":{"to":"Hetényegyháza","ref":"S210","from":"Kecskemét","name":"S210: Kecskemét => Hetényegyháza","type":"route","route":"train","colour":"#00AFF0","network":"local","duration":"16","operator":"MÁV-Start","wikidata":"Q109333255","passenger":"local","wikipedia":"hu:S210-es személyvonat","start_date":"2020-12-13","wheelchair":"no","description":"\\\"C\\\" v","public_transport:version":"2"},"12031266":{"to":"Kecskemét","ref":"S210","from":"Hetényegyháza","name":"S210: Hetényegyháza => Kecskemét","type":"route","route":"train","colour":"#00AFF0","network":"local","duration":"18","operator":"MÁV-Start","wikidata":"Q109333255","passenger":"local","wikipedia":"hu:S210-es személyvonat","start_date":"2020-12-13","wheelchair":"no","description":"\\\"C\\\"","public_transport:version":"2"},"12460799":{"to":"Eger","ref":"IR87","from":"Budapest-Keleti","name":"IR87 AGRIA IR: Budapest-Keleti => Eger","type":"route","route":"train","colour":"#008000","service":"commuter","operator":"MÁV-Start","description":"\\\"D\\\"","public_transport:version":"2"},"12460800":{"to":"Budapest-Keleti","ref":"IR87","via":"Nagyút -> Ludas -> Karácsond -> Adács","from":"Eger","name":"IR87 AGRIA IR: Eger => Nagyút => Ludas => Karácsond => Adács => Budapest-Keleti","type":"route","route":"train","colour":"#008000","service":"commuter","operator":"MÁV-Start","description":"\\\"B\\\" v","public_transport:version":"2"},"12460801":{"to":"Budapest-Keleti","ref":"IR87","from":"Eger","name":"IR87 AGRIA IR: Eger => Budapest-Keleti","type":"route","route":"train","colour":"#008000","service":"commuter","operator":"MÁV-Start","description":"\\\"D\\\" v","public_transport:version":"2"},"12460803":{"to":"Eger","ref":"IR87","via":"Andornaktálya","from":"Budapest-Keleti","name":"IR87 AGRIA IR: Budapest-Keleti => Andornaktálya => Eger","type":"route","route":"train","colour":"#008000","service":"commuter","operator":"MÁV-Start","description":"\\\"C\\\"","public_transport:version":"2"},"12483839":{"to":"Székesfehérvár","ref":"S150","from":"Komárom","name":"S150: Komárom → Székesfehérvár","type":"route","route":"train","colour":"#00AFF0","name:de":"S150: Komorn → Stuhlweißenburg","name:hu":"S150: Komárom → Székesfehérvár","service":"commuter","operator":"MÁV-Start","wikidata":"Q101110277","wikipedia":"hu:S150-es személyvonat","description":"\\\"A\\\"","public_transport:version":"2"},"12483845":{"to":"Süttő","ref":"S74","via":"Lábatlan","from":"Esztergom","name":"S74: Esztergom => Lábatlan => Süttő","type":"route","route":"train","colour":"#00AFF0","name:de":"S74: Gran => Schitte","name:hu":"S74: Esztergom => Lábatlan => Süttő","service":"commuter","operator":"MÁV-Start","wikidata":"Q115171353","description":"\\\"C\\\"","public_transport:version":"2"},"12483846":{"to":"Lakitelek","ref":"S220","from":"Kecskemét","name":"S220: Kecskemét => Lakitelek","type":"route","route":"train","colour":"#00AFF0","service":"commuter","operator":"MÁV-Start","wikidata":"Q112963797","description":"\\\"F\\\" v","public_transport:version":"2"},"12702802":{"to":"Baja","ref":"GEMENC","via":"Bátaszék","from":"Sárbogárd","name":"GEMENC IR: Sárbogárd => Bátaszék => Baja","type":"route","route":"train","operator":"MÁV-Start","description":"\\\"C\\\"","public_transport:version":"2"},"12702803":{"to":"Esztergom","ref":"S74","via":"Lábatlan","from":"Süttő","name":"S74: Süttő => Lábatlan => Esztergom","type":"route","route":"train","colour":"#00AFF0","name:de":"S74: Schitte => Gran","name:hu":"S74: Süttő => Lábatlan => Esztergom","service":"commuter","operator":"MÁV-Start","wikidata":"Q115171353","description":"\\\"C\\\" v","public_transport:version":"2"},"12702805":{"to":"Hatvan","ref":"S820","via":"Zagyvarékas -> Portelek","from":"Szolnok","name":"S820: Szolnok => Zagyvarékas => Portelek => Hatvan","type":"route","route":"train","colour":"#00AFF0","service":"commuter","operator":"MÁV-Start","wikidata":"Q109333257","wikipedia":"hu:S820-as személyvonat","description":"\\\"C\\\" v","public_transport:version":"2"},"12702806":{"to":"Eger","ref":"IR87","via":"Adács -> Karácsond -> Ludas -> Nagyút","from":"Budapest-Keleti","name":"IR87 AGRIA IR: Budapest-Keleti => Adács => Karácsond => Ludas => Nagyút => Eger","type":"route","route":"train","colour":"#008000","service":"commuter","operator":"MÁV-Start","description":"\\\"B\\\"","public_transport:version":"2"},"12856602":{"to":"Budapest-Keleti","ref":"S80","via":"Gödöllő","from":"Aszód","name":"S80: Aszód => Gödöllő => Gödöllő-Állami telepek => Budapest-Keleti","type":"route","route":"train","colour":"#00AFF0","operator":"MÁV-Start","wikidata":"Q101142569","wikipedia":"hu:S80-as személyvonat","description":"\\\"E\\\" v","public_transport:version":"2"},"13537652":{"to":"Hatvan","ref":"S780","via":"Becske alsó -> Aszód","from":"Balassagyarmat","name":"S780: Balassagyarmat => Becske alsó => Aszód => Hatvan","type":"route","route":"train","colour":"#00AFF0","operator":"MÁV-Start","wikidata":"Q101111780","wikipedia":"hu:S780-as személyvonat","description":"\\\"A\\\" v","public_transport:version":"2"},"13537653":{"to":"Balassagyarmat","ref":"S780","via":"Aszód","from":"Hatvan","name":"S780: Hatvan => Aszód => Balassagyarmat","type":"route","route":"train","colour":"#00AFF0","operator":"MÁV-Start","wikidata":"Q101111780","wikipedia":"hu:S780-as személyvonat","description":"\\\"B\\\"","public_transport:version":"2"},"13537654":{"to":"Balassagyarmat","ref":"S780","via":"Becske alsó","from":"Hatvan","name":"S780: Hatvan => Aszód => Becske alsó => Balassagyarmat","type":"route","route":"train","colour":"#00AFF0","operator":"MÁV-Start","wikidata":"Q101111780","wikipedia":"hu:S780-as személyvonat","description":"\\\"A\\\"","public_transport:version":"2"},"14300573":{"to":"Budapest-Nyugati","ref":"S21","via":"Lajosmizse -> Táborfalva -> Dabas -> Ócsa -> Kőbánya-Kispest","from":"Kecskemét","name":"S21: Kecskemét => Lajosmizse => Táborfalva => Dabas => Ócsa => Kőbánya-Kispest => Budapest-Nyugati","type":"route","route":"train","colour":"#00AFF0","service":"commuter","operator":"MÁV-Start","wikidata":"Q101148856","wikipedia":"hu:S21-es személyvonat","description":"\\\"A\\\" v","public_transport:version":"2"},"14300574":{"to":"Tárnok","ref":"S30","via":"Érd alsó","from":"Budapest-Déli","name":"S30: Budapest-Déli → Tárnok","type":"route","route":"train","colour":"#00AFF0","service":"commuter","operator":"MÁV-Start","wikidata":"Q101095853","wikipedia":"hu:S30-as személyvonat","description":"\\\"G\\\"","public_transport:version":"2"},"14300575":{"to":"Keszthely","ref":"S34","via":"Érd alsó","from":"Székesfehérvár","name":"S34: Székesfehérvár → Keszthely","type":"route","route":"train","colour":"#00AFF0","name:de":"S34: Stuhlweißenburg → Kesthell","service":"commuter","operator":"MÁV-Start","wikidata":"Q104433012","wikipedia":"hu:S34-es személyvonat","description":"\\\"D\\\"","public_transport:version":"2"},"14300577":{"to":"Budapest-Nyugati","ref":"S21","via":"Dabas -> Ócsa -> Kőbánya-Kispest","from":"Táborfalva","name":"S21: Táborfalva => Dabas => Ócsa => Kőbánya-Kispest => Budapest-Nyugati","type":"route","route":"train","colour":"#00AFF0","service":"commuter","operator":"MÁV-Start","wikidata":"Q101148856","wikipedia":"hu:S21-es személyvonat","description":"\\\"C\\\" v","public_transport:version":"2"},"14311395":{"to":"Tatabánya","ref":"S10","via":"Komárom","from":"Győr","name":"S10: Győr => Komárom => Tatabánya","type":"route","route":"train","colour":"#00AFF0","name:de":"S10: Raab => Komorn => Totiserkolonie","service":"commuter","operator":"MÁV-Start","wikidata":"Q103726127","wikipedia":"hu:S10-es személyvonat","description":"\\\"E\\\" v","public_transport:version":"2"},"14639387":{"to":"Debrecen-Fatelep","fee":"yes","ref":"ZSUZSI","from":"Hármashegyalja","name":"Train ZSUZSI: Hármashegyalja => Debrecen-Fatelep","type":"route","gauge":"760","route":"train","usage":"tourism","charge":"900 HUF","colour":"#00390F","network":"HU:regional","railway":"narrow_gauge","duration":"00:55","operator":"ZSUZSI Erdei Vasút Nonprofit Kft.","wikidata":"Q1468307","wikipedia":"hu:Zsuzsi Erdei Vasút","start_date":"1882-07-16","contact:email":"info@zsuzsivasut.hu","contact:phone":"+36 52 417 212; +36 30 210 0545; +36 30 490 8212","contact:website":"https://zsuzsivasut.hu","public_transport:version":"2"},"14639420":{"name":"Keskeny nyomtávú vasútvonal (ZSUZSI)","type":"route","gauge":"760","route":"train","network":"HU:regional","railway":"narrow_gauge","operator":"ZSUZSI Erdei Vasút Nonprofit Kft.","wikidata":"Q1468307","wikipedia":"hu:Zsuzsi Erdei Vasút","start_date":"1882-07-16","contact:email":"info@zsuzsivasut.hu","contact:phone":"+36 52 417 212; +36 30 210 0545; +36 30 490 8212","contact:website":"https://zsuzsivasut.hu"},"14685102":{"to":"Bratislava-Petržalka","ref":"S8","via":"Rusovce","from":"Rajka","name":"Train S8: Rajka -> Bratislava-Petržalka","type":"route","fixme":"overit na ktorych nastupistiach stoji vlak","route":"train","network":"IDS BK","service":"commuter","website":"www.idsbk.sk","duration":"18","operator":"ZSSK","network:wikidata":"Q4241634","public_transport:version":"2"},"14995078":{"to":"Kecskemét","ref":"S21","via":"Ócsa -> Dabas -> Táborfalva -> Lajosmizse","from":"Budapest-Nyugati","name":"S21: Budapest-Nyugati => Ócsa => Dabas => Táborfalva => Lajosmizse => Kecskemét","type":"route","route":"train","colour":"#00AFF0","service":"commuter","operator":"MÁV-Start","wikidata":"Q101148856","wikipedia":"hu:S21-es személyvonat","description":"\\\"A\\\"","public_transport:version":"2"},"14995080":{"to":"Táborfalva","ref":"S210","via":"Hetényegyháza -> Lajosmizse","from":"Kecskemét","name":"S210: Kecskemét => Hetényegyháza => Lajosmizse => Táborfalva","type":"route","route":"train","colour":"#00AFF0","service":"commuter","operator":"MÁV-Start","wikidata":"Q109333255","wikipedia":"hu:S210-es személyvonat","description":"\\\"A\\\" v","public_transport:version":"2"},"14995081":{"to":"Aszód","ref":"S77","from":"Vác","name":"S77: Vác => Aszód","type":"route","route":"train","colour":"#00AFF0","operator":"MÁV-Start","wikidata":"Q115175464","wikipedia":"hu:S77-es személyvonat","start_date":"2022-12-11","description":"\\\"A\\\" v","public_transport:version":"2"},"15024685":{"to":"Táborfalva","ref":"S21","via":"Ócsa -> Dabas","from":"Budapest-Nyugati","name":"S21: Budapest-Nyugati => Ócsa => Dabas => Táborfalva","type":"route","route":"train","colour":"#00AFF0","service":"commuter","operator":"MÁV-Start","wikidata":"Q101148856","wikipedia":"hu:S21-es személyvonat","description":"\\\"C\\\"","public_transport:version":"2"},"15024686":{"to":"Tatabánya","ref":"S10","from":"Komárom","name":"S10: Komárom => Tatabánya","type":"route","route":"train","colour":"#00AFF0","name:de":"S10: Komorn => Totiserkolonie","service":"commuter","operator":"MÁV-Start","wikidata":"Q103726127","wikipedia":"hu:S10-es személyvonat","description":"\\\"G\\\" v","public_transport:version":"2"},"15024687":{"to":"Kecskemét","ref":"S210","via":"Lajosmizse -> Hetényegyháza","from":"Táborfalva","name":"S210: Táborfalva => Lajosmizse => Hetényegyháza => Kecskemét","type":"route","route":"train","colour":"#00AFF0","service":"commuter","operator":"MÁV-Start","wikidata":"Q109333255","wikipedia":"hu:S210-es személyvonat","description":"\\\"A\\\"","public_transport:version":"2"},"15053279":{"to":"Kecskemét","ref":"148","via":"Orgovány","from":"Kiskőrös","name":"Megszűnt forgalmú kisvasút","type":"route","route":"train","end_date":"2009-12-11","wikipedia":"hu:Kecskeméti kisvasút","public_transport:version":"2"},"15053384":{"to":"Kiskunmajsa","ref":"149","via":"Bugac","from":"Kecskemét","name":"Megszűnt forgalmú kisvasút","type":"route","route":"train","end_date":"2009-12-12","wikipedia":"hu:Kecskeméti kisvasút","public_transport:version":"2"},"15058594":{"to":"Gyöngyös","ref":"IR85","from":"Budapest-Keleti","name":"IR85 MÁTRA IR: Budapest-Keleti => Gyöngyös","type":"route","route":"train","colour":"#008000","service":"commuter","operator":"MÁV-Start","wheelchair":"yes","description":"\\\"B\\\"","public_transport:version":"2"},"15058595":{"to":"Budapest-Keleti","ref":"IR85","from":"Gyöngyös","name":"IR85 MÁTRA IR: Gyöngyös => Budapest-Keleti","type":"route","route":"train","colour":"#008000","service":"commuter","operator":"MÁV-Start","wheelchair":"yes","description":"\\\"B\\\" v","public_transport:version":"2"},"15058596":{"to":"Budapest-Keleti","ref":"IR85","via":"Kitérőgyár","from":"Gyöngyös","name":"IR85 MÁTRA IR: Gyöngyös => Kitérőgyár => Budapest-Keleti","type":"route","route":"train","colour":"#008000","service":"commuter","operator":"MÁV-Start","wheelchair":"yes","description":"\\\"A\\\" v","public_transport:version":"2"},"15058597":{"to":"Gyöngyös","ref":"IR85","via":"Kitérőgyár","from":"Budapest-Keleti","name":"IR85 MÁTRA IR: Budapest-Keleti => Kitérőgyár => Gyöngyös","type":"route","route":"train","colour":"#008000","service":"commuter","operator":"MÁV-Start","wheelchair":"yes","description":"\\\"A\\\"","public_transport:version":"2"},"15608876":{"to":"Balassagyarmat","ref":"S750","from":"Drégelypalánk","name":"S750: Drégelypalánk => Balassagyarmat","type":"route","route":"train","colour":"#00AFF0","service":"regional","operator":"MÁV-Start","wikidata":"Q101112032","wikipedia":"hu:S750-es személyvonat","description":"\\\"F\\\"","public_transport:version":"2"},"15809423":{"to":"Szolnok","ref":"S225","via":"Cegléd","from":"Kecskemét","name":"S225: Kecskemét => Szolnok","type":"route","route":"train","colour":"#00AFF0","service":"commuter","duration":"64","operator":"MÁV-Start","wheelchair":"limited","public_transport:version":"2"},"15809424":{"to":"Kecskemét","ref":"S225","via":"Cegléd","from":"Szolnok","name":"S225: Szolnok => Kecskemét","type":"route","route":"train","colour":"#00AFF0","service":"commuter","duration":"60","operator":"MÁV-Start","wheelchair":"limited","public_transport:version":"2"},"16104367":{"to":"Hatvan","ref":"S77","from":"Vác","name":"S77: Vác => Hatvan","type":"route","route":"train","colour":"#00AFF0","operator":"MÁV-Start","wikidata":"Q115175464","wikipedia":"hu:S77-es személyvonat","start_date":"2023-06-17","public_transport:version":"2"},"16104368":{"to":"Vác","ref":"S77","via":"Iklad-Domony felső","from":"Hatvan","name":"S77: Hatvan => Iklad-Domony felső => Vác","type":"route","route":"train","colour":"#00AFF0","operator":"MÁV-Start","wikidata":"Q115175464","wikipedia":"hu:S77-es személyvonat","start_date":"2023-06-17","public_transport:version":"2"},"16376445":{"to":"Hatvan","ref":"58xx","via":"Pásztó","from":"Somoskőújfalu","name":"81 --> Somoskőújfalu - Hatvan","type":"route","route":"train","network":"MÁV","operator":"MÁV-START","public_transport:version":"2"}}