{"2627983":{"name":"Purwokerto-Yogyakarta","type":"route","route":"train","source":"www.kereta-api.co.id/","network":"Regional","operator":"PT Kereta Api Indonesia","public_transport:version":"1"},"2922163":{"to":"Kampung Bandan","ref":"C","via":"Pasar Senen","from":"Cikarang","name":"Lin Lingkar Cikarang full racket: Cikarang → Kampung Bandan via Pasar Senen → Cikarang","type":"route","route":"train","colour":"blue","name:en":"Cikarang Loop Line full racket: Cikarang → Kampung Bandan via Pasar Senen → Cikarang","network":"KAI Commuter","operator":"KAI Commuter","wikidata":"Q21178607","wikipedia":"id:Lin Lingkar Cikarang","network:wikidata":"Q12501611","public_transport:version":"2"},"2922215":{"to":"Tanah Abang","ref":"R","from":"Rangkasbitung","name":"Lin Rangkasbitung (arah Tanah Abang)","type":"route","route":"train","colour":"green","name:en":"Rangkasbitung Line (to Tanah Abang)","name:es":"Línea Rangkasbitung (dirección Tanah Abang)","name:ja":"ランカスビトゥン線 (タナ・アバン行)","name:ko":"랑카스비퉁선","name:pt":"Linha Rangkasbitung (direção Tanah Abang)","name:zh":"蘭卡斯比通線","network":"KAI Commuter","operator":"KAI Commuter","wikidata":"Q29241169","wikipedia":"id:Lin Rangkasbitung","name:ja-Latn":"Rankasbitun-sen (Tana Aban-kō)","name:ko-Latn":"Rangkaseubitung-seon","name:zh_pinyin":"Lánkǎsībǐtōng xiàn","network:wikidata":"Q12501611","public_transport:version":"2"},"2922235":{"to":"Duri","ref":"T","from":"Tangerang","name":"Lin Tangerang: Tangerang → Duri","type":"route","route":"train","colour":"brown","source":"HOT_InAWARESurvey_2017","name:en":"Tangerang Line: Tangerang → Duri","name:es":"Línea Tangerang: Tangerang → Duri","name:ja":"タンゲラン線 (ドゥリ行)","name:ko":"Tangerang-seon","name:pt":"Linha Tangerang: Tangerang → Duri","network":"KAI Commuter","operator":"KAI Commuter","wikidata":"Q24088940","wikipedia":"id:Lin Tangerang","name:ja-Latn":"Tangeran-sen: Tangerang → Duri","network:wikidata":"Q12501611","public_transport:version":"2"},"2922237":{"ref":"TP","name":"Lin Tanjung Priuk: Tanjung Priuk → Jakarta Kota","type":"route","route":"train","colour":"pink","name:en":"Tanjung Priuk Line: Tanjung Priuk → Jakarta Kota","name:es":"Línea Tanjung Priuk: Tanjung Priuk → Jakarta Kota","name:ja":"タンジュンフリーオックライン線 (ジャカルタ・コタ行)","name:ko":"탄중 프리옥선","name:pt":"Linha Tanjung Priuk: Tanjung Priuk → Jakarta Kota","name:zh":"丹戎不碌線","network":"KAI Commuter","operator":"KAI Commuter","wikidata":"Q24088939","wikipedia":"id:Lin Tanjung Priok","name:ja-Latn":"Tanjun Purīokku-sen: Tanjung Priuk → Jakarta Kota","name:ko-Latn":"Tanjung Peuriuk-seon","name:zh_pinyin":"Dānróng Bùlù xiàn","network:wikidata":"Q12501611","public_transport:version":"2"},"4626672":{"to":"Purwakarta","ref":"B","from":"Cicalengka","name":"Commuter Line Bandung Raya: Cicalengka → Purwakarta","type":"route","route":"train","colour":"#2D398B","name:en":"Greater Bandung Commuter Line: Cicalengka → Purwakarta","network":"KAI Commuter","operator":"KAI Commuter","wikidata":"Q12491123","wikipedia":"id:Kereta api lokal Bandung Raya","wheelchair":"limited","network:wikidata":"Q12501611","public_transport:version":"2"},"4808500":{"to":"Bandung","ref":"Argo Parahyangan","via":"Cimahi","from":"Gambir","name":"Argo Parahyangan: Gambir → Bandung","type":"route","route":"train","colour":"orange","network":"KAI","operator":"Kereta Api Indonesia","wikidata":"Q12491119","wikipedia":"en:Argo Parahyangan","network:wikidata":"Q2745027","public_transport:version":"2"},"4808501":{"to":"Gambir","ref":"Argo Parahyangan","via":"Cimahi","from":"Bandung","name":"Argo Parahyangan: Bandung → Gambir","type":"route","route":"train","colour":"orange","network":"KAI","operator":"Kereta Api Indonesia","wikidata":"Q12491119","wikipedia":"en:Argo Parahyangan","network:wikidata":"Q2745027","public_transport:version":"2"},"7883702":{"name":"Kereta Api Mini","type":"route","route":"train","public_transport:version":"2"},"12150229":{"to":"Halim","via":"Padalarang;Karawang","from":"Tegalluar","name":"Whoosh","type":"route","route":"train","colour":"#8C0023","name:zh":"雅加达 - 万隆高速铁路（雅加达→万隆）","website":"https://kcic.co.id","duration":"00:40","operator":"Kereta Cepat Indonesia China","wikipedia":"id:Kereta cepat Whoosh","start_date":"2023-10-01","name:zh-Hans":"雅加达 - 万隆高速铁路","name:zh-Hant":"雅加達－萬隆高速鐵路","public_transport:version":"2"},"12150230":{"to":"Tegalluar","via":"Karawang;Padalarang","from":"Halim","name":"Whoosh","type":"route","route":"train","name:zh":"雅加达 - 万隆高速铁路（万隆→雅加达）","railway":"#8C0023","duration":"00:40","operator":"Kereta Cepat Indonesia China","wikipedia":"id:Kereta cepat Whoosh","start_date":"2023-10-01","name:zh-Hans":"雅加达 - 万隆高速铁路","name:zh-Hant":"雅加達－萬隆高速鐵路","public_transport:version":"2"},"12997762":{"to":"Surabaya","from":"Bandung","name":"Argo Wilis","type":"route","route":"train","network":"KAI","operator":"Kereta Api Indonesia","wikidata":"Q12491120","wikipedia":"en:Argo Wilis","network:wikidata":"Q2745027"},"13570498":{"to":"Bangil railway station","via":"Stasiun Blitar","from":"Kertosono railway station","name":"Kertosono–Bangil railway","type":"route","route":"train","operator":"Kereta api Indonesia","wikidata":"Q12487105","public_transport:version":"2"},"13574581":{"to":"Bangil railway station","from":"Wonokromo railway station","name":"Wonokromo–Bangil railway","type":"route","route":"train","operator":"Kereta Api Indonesia","wikidata":"Q12487151","wikipedia":"id:Jalur kereta api Wonokromo–Bangil"},"13576926":{"to":"Solo Balapan railway station","ref":"KAI Commuter","from":"Yogyakarta railway station","name":"Yogyakarta Line","type":"route","route":"train","wikidata":"Q105424963","wikipedia":"en:KAI Commuter Yogyakarta Line"},"13576927":{"to":"Solo Balapan railway station","from":"Kutoarjo railway station","name":"Kutoarjo–Purwosari–Solo Balapan railway line","type":"route","route":"train","operator":"Kereta api Indonesia, KAI Commuter","wikidata":"Q12487133","wikipedia":"id:Jalur kereta api Kutoarjo–Purwosari–Solo Balapan"},"13586684":{"to":"Kasugihan railway station","from":"Padalarang railway station","name":"Padalarang–Kasugihan railway","type":"route","route":"train","operator":"Kereta Api Indonesia","wikidata":"Q25630218","wikipedia":"id:Jalur kereta api Padalarang–Kasugihan"},"15094545":{"to":"Kampung Bandan","ref":"C","via":"Manggarai","from":"Cikarang","name":"Lin Lingkar Cikarang full racket: Cikarang → Kampung Bandan via Manggarai → Cikarang","type":"route","route":"train","colour":"blue","name:en":"Cikarang Loop Line full racket: Cikarang → Kampung Bandan via Manggarai → Cikarang","network":"KAI Commuter","operator":"KAI Commuter","wikidata":"Q21178607","roundtrip":"yes","wikipedia":"id:Lin Lingkar Cikarang","network:wikidata":"Q12501611","public_transport:version":"2"},"15094546":{"to":"Tanah Abang","ref":"R","from":"Rangkasbitung","name":"Lin Rangkasbitung (arah Rangkasbitung)","type":"route","route":"train","colour":"green","name:en":"Rangkasbitung Line (to Rangkasbitung)","name:es":"Línea Rangkasbitung (dirección Rangkasbitung)","name:ja":"ランカスビトゥン線 (ランカスビトゥン行)","name:ko":"랑카스비퉁선","name:pt":"Linha Rangkasbitung (direção Rangkasbitung)","name:zh":"蘭卡斯比通線","network":"KAI Commuter","operator":"KAI Commuter","wikidata":"Q29241169","wikipedia":"id:Lin Rangkasbitung","name:ja-Latn":"Rankasbitun-sen (Rankasbitun-kō)","name:ko-Latn":"Rangkaseubitung-seon","name:zh_pinyin":"Lánkǎsībǐtōng xiàn","network:wikidata":"Q12501611","public_transport:version":"2"},"15097496":{"to":"Cikarang","ref":"C","via":"Tanah Abang","from":"Kampung Bandan","name":"Lin Lingkar Cikarang half racket: Kampung Bandan → Bekasi","type":"route","route":"train","colour":"blue","name:en":"Cikarang Loop Line half racket: Kampung Bandan → Bekasi","network":"KAI Commuter","operator":"KAI Commuter","wikidata":"Q21178607","wikipedia":"id:Lin Lingkar Cikarang","network:wikidata":"Q12501611","public_transport:version":"2"},"15097497":{"to":"Kampung Bandan","ref":"C","via":"Tanah Abang","from":"Cikarang","name":"Lin Lingkar Cikarang half racket: Cikarang → Kampung Bandan","type":"route","route":"train","colour":"blue","name:en":"Cikarang Loop Line half racket: Cikarang → Kampung Bandan","network":"KAI Commuter","operator":"KAI Commuter","wikidata":"Q21178607","wikipedia":"id:Lin Lingkar Cikarang","network:wikidata":"Q12501611","public_transport:version":"2"},"15097498":{"to":"Kampung Bandan","ref":"C","via":"Tanah Abang","from":"Bekasi","name":"Lin Lingkar Cikarang half racket: Bekasi → Kampung Bandan","type":"route","route":"train","colour":"blue","name:en":"Cikarang Loop Line half racket: Bekasi → Kampung Bandan","network":"KAI Commuter","operator":"KAI Commuter","wikidata":"Q21178607","wikipedia":"id:Lin Lingkar Cikarang","network:wikidata":"Q12501611","public_transport:version":"2"},"15097499":{"to":"Angke","ref":"C","via":"Tanah Abang","from":"Bekasi","name":"Lin Lingkar Cikarang half racket: Bekasi → Angke","type":"route","route":"train","colour":"blue","name:en":"Cikarang Loop Line half racket: Bekasi → Angke","network":"KAI Commuter","operator":"KAI Commuter","wikidata":"Q21178607","wikipedia":"id:Lin Lingkar Cikarang","network:wikidata":"Q12501611","public_transport:version":"2"},"15097500":{"to":"Bekasi","ref":"C","via":"Tanah Abang","from":"Angke","name":"Lin Lingkar Cikarang half racket: Angke → Bekasi","type":"route","route":"train","colour":"blue","name:en":"Cikarang Loop Line half racket: Angke → Bekasi","network":"KAI Commuter","operator":"KAI Commuter","wikidata":"Q21178607","wikipedia":"id:Lin Lingkar Cikarang","network:wikidata":"Q12501611","public_transport:version":"2"},"15097501":{"to":"Cikarang","ref":"C","via":"Tanah Abang","from":"Kampung Bandan","name":"Lin Lingkar Cikarang half racket: Kampung Bandan → Cikarang","type":"route","route":"train","colour":"blue","name:en":"Cikarang Loop Line half racket: Kampung Bandan → Cikarang","network":"KAI Commuter","operator":"KAI Commuter","wikidata":"Q21178607","wikipedia":"id:Lin Lingkar Cikarang","network:wikidata":"Q12501611","public_transport:version":"2"},"15097502":{"to":"Manggarai","ref":"C","via":"Tanah Abang","from":"Kampung Bandan","name":"Lin Lingkar Cikarang half racket: Kampung Bandan → Manggarai","type":"route","route":"train","colour":"blue","name:en":"Cikarang Loop Line half racket: Kampung Bandan → Manggarai","network":"KAI Commuter","operator":"KAI Commuter","wikidata":"Q21178607","wikipedia":"id:Lin Lingkar Cikarang","network:wikidata":"Q12501611","public_transport:version":"2"},"15097503":{"to":"Angke","ref":"C","via":"Tanah Abang","from":"Manggarai","name":"Lin Lingkar Cikarang half racket: Manggarai → Angke","type":"route","route":"train","colour":"blue","name:en":"Cikarang Loop Line half racket: Manggarai → Angke","network":"KAI Commuter","operator":"KAI Commuter","wikidata":"Q21178607","wikipedia":"id:Lin Lingkar Cikarang","network:wikidata":"Q12501611","public_transport:version":"2"},"15097504":{"to":"Manggarai","ref":"C","via":"Tanah Abang","from":"Angke","name":"Lin Lingkar Cikarang half racket: Angke → Manggarai","type":"route","route":"train","colour":"blue","name:en":"Cikarang Loop Line half racket: Angke → Manggarai","network":"KAI Commuter","operator":"KAI Commuter","wikidata":"Q21178607","wikipedia":"id:Lin Lingkar Cikarang","network:wikidata":"Q12501611","public_transport:version":"2"},"15097505":{"to":"Kampung Bandan","ref":"C","via":"Tanah Abang","from":"Manggarai","name":"Lin Lingkar Cikarang half racket: Manggarai → Kampung Bandan","type":"route","route":"train","colour":"blue","name:en":"Cikarang Loop Line half racket: Manggarai → Kampung Bandan","network":"KAI Commuter","operator":"KAI Commuter","wikidata":"Q21178607","wikipedia":"id:Lin Lingkar Cikarang","network:wikidata":"Q12501611","public_transport:version":"2"},"15097506":{"to":"Cikarang","ref":"C","via":"Tanah Abang","from":"Angke","name":"Lin Lingkar Cikarang half racket: Angke → Cikarang","type":"route","route":"train","colour":"blue","name:en":"Cikarang Loop Line half racket: Angke → Cikarang","network":"KAI Commuter","operator":"KAI Commuter","wikidata":"Q21178607","wikipedia":"id:Lin Lingkar Cikarang","network:wikidata":"Q12501611","public_transport:version":"2"},"15097507":{"to":"Angke","ref":"C","via":"Tanah Abang","from":"Cikarang","name":"Lin Lingkar Cikarang half racket: Cikarang → Angke","type":"route","route":"train","colour":"blue","name:en":"Cikarang Loop Line half racket: Cikarang → Angke","network":"KAI Commuter","operator":"KAI Commuter","wikidata":"Q21178607","wikipedia":"id:Lin Lingkar Cikarang","network:wikidata":"Q12501611","public_transport:version":"2"},"15097646":{"to":"Pasar Senen","ref":"Serayu","via":"Kroya;Tasikmalaya;Kiaracondong","from":"Purwokerto","name":"Serayu: Purwokerto → Kroya → Pasar Senen","type":"route","route":"train","colour":"orange","network":"KAI","website":"http://www.kai.id","operator":"Kereta Api Indonesia","network:wikidata":"Q2745027","public_transport:version":"2"},"15097650":{"to":"Purwokerto","ref":"Serayu","via":"Kiaracondong;Tasikmalaya;Kroya","from":"Pasar Senen","name":"Serayu: Pasar Senen → Kroya → Purwokerto","type":"route","route":"train","colour":"orange","network":"KAI","website":"http://www.kai.id","operator":"Kereta Api Indonesia","network:wikidata":"Q2745027","public_transport:version":"2"},"15534571":{"to":"Purwakarta","ref":"C","via":"Cibatu","from":"Garut","name":"Commuter Line Garut: Purwakarta → Garut","type":"route","route":"train","colour":"#1C75BC","name:en":"Garut Commuter Line: Purwakarta → Garut","network":"KAI Commuter","service":"regional","operator":"KAI Commuter","wikidata":"Q12491195","wikipedia":"id:Kereta api Commuter Line Garut","network:wikidata":"Q12501611","public_transport:version":"2"},"16312234":{"to":"Blitar","ref":"D","via":"Kertosono","from":"Surabaya Kota","name":"Commuter Line Dhoho","type":"route","route":"train","colour":"#6f9e68","network":"KAI Commuter","operator":"KAI Commuter","network:wikidata":"Q12501611"},"16321469":{"to":"Blitar","ref":"P","via":"Malang","from":"Surabaya Kota","name":"Commuter Line Penataran","type":"route","route":"train","network":"KAI Commuter","operator":"KAI Commuter","network:wikidata":"Q12501611"},"16877210":{"to":"Bogor","ref":"B","via":"Depok","from":"Jakarta Kota","name":"Lin Bogor: Jakarta Kota → Bogor","type":"route","route":"train","colour":"#ec2329","name:en":"Bogor Line: Jakarta Kota → Bogor","network":"KAI Commuter","operator":"KAI Commuter","wikidata":"Q24088787","wikipedia":"en:KAI Commuter Bogor Line","network:wikidata":"Q12501611","public_transport:version":"2"},"16877211":{"to":"Nambo","ref":"B","via":"Depok;Citayam","from":"Jakarta Kota","name":"Lin Bogor: Jakarta Kota → Nambo","type":"route","route":"train","colour":"#ec2329","name:en":"Bogor Line: Jakarta Kota → Nambo","network":"KAI Commuter","operator":"KAI Commuter","wikidata":"Q24088787","wikipedia":"en:KAI Commuter Bogor Line","network:wikidata":"Q12501611","public_transport:version":"2"},"16877212":{"to":"Jakarta Kota","ref":"B","via":"Depok","from":"Bogor","name":"Lin Bogor: Bogor → Jakarta Kota","type":"route","route":"train","colour":"#ec2329","name:en":"Bogor Line: Bogor → Jakarta Kota","network":"KAI Commuter","operator":"KAI Commuter","wikidata":"Q24088787","wikipedia":"en:KAI Commuter Bogor Line","network:wikidata":"Q12501611","public_transport:version":"2"},"16877213":{"to":"Jakarta Kota","ref":"B","via":"Citayam;Depok","from":"Nambo","name":"Bogor Line: Nambo → Jakarta Kota","type":"route","route":"train","colour":"#ec2329","network":"KAI Commuter","operator":"KAI Commuter","network:wikidata":"Q12501611","public_transport:version":"2"},"17077466":{"to":"Cicalengka","ref":"B","from":"Padalarang","name":"Commuter Line Bandung Raya: Padalarang → Cicalengka","type":"route","route":"train","colour":"#2D398B","name:en":"Greater Bandung Commuter Line: Padalarang → Cicalengka","network":"KAI Commuter","operator":"KAI Commuter","network:wikidata":"Q12501611","public_transport:version":"2"},"17077467":{"to":"Padalarang","ref":"B","from":"Cicalengka","name":"Commuter Line Bandung Raya: Cicalengka → Padalarang","type":"route","route":"train","colour":"#2D398B","name:en":"Greater Bandung Commuter Line: Cicalengka → Padalarang","network":"KAI Commuter","operator":"KAI Commuter","wikidata":"Q12491123","wikipedia":"en:KAI Commuter Line Bandung","network:wikidata":"Q12501611","public_transport:version":"2"},"17193008":{"to":"Tanjung Priuk","ref":"TP","from":"Jakarta Kota","name":"Lin Tanjung Priuk: Jakarta Kota → Tanjung Priuk","type":"route","route":"train","colour":"Pink","name:en":"Tanjung Priuk Line: Jakarta Kota → Tanjung Priuk","network":"KAI Commuter","operator":"KAI Commuter","wikidata":"Q24088939","wikipedia":"en:KAI Commuter Tanjung Priok Line","network:wikidata":"Q12501611","public_transport:version":"2"},"17193463":{"to":"Tangerang","ref":"T","from":"Duri","name":"Lin Tangerang: Duri → Tangerang","type":"route","route":"train","colour":"brown","name:en":"Tangerang Line: Duri → Tangerang","network":"KAI Commuter","operator":"KAI Commuter","wikidata":"Q24088940","wikipedia":"en:KAI Commuter Tangerang Line","network:wikidata":"Q12501611","public_transport:version":"2"},"17371149":{"to":"Ketapang","ref":"PW","from":"Jember","name":"Pandanwangi: Jember → Ketapang","type":"route","route":"train","network":"KAI","network:wikidata":"Q2745027","public_transport:version":"2"},"17371150":{"to":"Jember","ref":"PW","from":"Ketapang","name":"Pandanwangi: Ketapang → Jember","type":"route","route":"train","network":"KAI","network:wikidata":"Q2745027","public_transport:version":"2"},"17532039":{"to":"Indro","ref":"SI","via":"Surabaya","from":"Sidoarjo","name":"Sindro: Sidoarjo → Indro","type":"route","route":"train","colour":"#20ABD6","network":"KAI Commuter","operator":"KAI Commuter","wikidata":"Q105417917","wikipedia":"id:Kereta api lokal di Jawa Timur","network:wikidata":"Q12501611","public_transport:version":"2"},"17545520":{"to":"Purwakarta","ref":"C","via":"Cibatu","from":"Garut","name":"Commuter Line Garut: Garut → Purwakarta","type":"route","route":"train","colour":"#1C75BC","name:en":"Garut Commuter Line: Garut → Purwakarta","network":"KAI Commuter","operator":"KAI Commuter","wikidata":"Q12491195","wikipedia":"id:Commuter Line Garut","network:wikidata":"Q12501611","public_transport":"2"},"17549391":{"to":"Garut","ref":"Cikuray","via":"Bandung","from":"Pasar Senen","name":"Cikuray: Pasar Senen → Garut","type":"route","route":"train","colour":"orange","network":"KAI","service":"long_distance","operator":"KAI","wikidata":"Q111476172","wikipedia":"id:Kereta api Cikuray","network:wikidata":"Q2745027"},"17549392":{"to":"Pasar Senen","ref":"Cikuray","via":"Bandung","from":"Garut","name":"Cikuray: Garut → Pasar Senen","type":"route","route":"train","colour":"orange","network":"KAI","service":"long_distance","operator":"KAI","wikidata":"Q111476172","wikipedia":"id:Kereta api Cikuray","network:wikidata":"Q2745027"},"17549394":{"to":"Garut","ref":"Papandayan","via":"Bandung","from":"Gambir","name":"Papandayan: Gambir → Garut","type":"route","route":"train","colour":"orange","network":"KAI","service":"long_distance","operator":"KAI","wikidata":"Q124350059","wikipedia":"id:Kereta api Papandayan","network:wikidata":"Q2745027"},"17549396":{"to":"Gambir","ref":"Papandayan","via":"Bandung","from":"Garut","name":"Papandayan: Garut → Gambir","type":"route","route":"train","colour":"orange","network":"KAI","service":"long_distance","operator":"KAI","network:wikidata":"Q2745027"},"17549847":{"to":"Padalarang","ref":"C","from":"Cibatu","name":"Commuter Line Garut: Cibatu → Padalarang","type":"route","route":"train","colour":"#1C75BC","name:en":"Garut Commuter Line: Cibatu → Padalarang","network":"KAI Commuter","operator":"KAI Commuter","wikidata":"Q12491195","wikipedia":"id:Commuter Line Garut","network:wikidata":"Q12501611","public_transport:version":"2"},"17549848":{"to":"Cibatu","ref":"C","from":"Padalarang","name":"Commuter Line Garut: Padalarang → Cibatu","type":"route","route":"train","colour":"#1C75BC","name:en":"Garut Commuter Line: Padalarang → Cibatu","network":"KAI Commuter","operator":"KAI Commuter","wikidata":"Q12491195","wikipedia":"id:Commuter Line Garut","network:wikidata":"Q12501611","public_transport:version":"2"},"17549850":{"to":"Padalarang","ref":"C","from":"Garut","name":"Commuter Line Garut: Garut → Padalarang","type":"route","route":"train","colour":"#1C75BC","name:en":"Garut Commuter Line: Garut → Padalarang","network":"KAI Commuter","operator":"KAI Commuter","wikidata":"Q12491195","wikipedia":"id:Commuter Line Garut","network:wikidata":"Q12501611","public_transport:version":"2"},"17552895":{"to":"Kiaracondong","ref":"B","from":"Cicalengka","name":"Commuter Line Bandung Raya: Cicalengka → Kiaracondong","type":"route","route":"train","colour":"#2D398B","name:en":"Greater Bandung Commuter Line: Cicalengka → Kiaracondong","network":"KAI Commuter","operator":"KAI Commuter","wikidata":"Q12491123","wikipedia":"en:KAI Commuter Line Bandung","network:wikidata":"Q12501611","public_transport:version":"2"},"17552896":{"to":"Cicalengka","ref":"B","from":"Kiaracondong","name":"Commuter Line Bandung Raya: Kiaracondong → Cicalengka","type":"route","route":"train","colour":"#2D398B","name:en":"Greater Bandung Commuter Line: Kiaracondong → Cicalengka","network":"KAI Commuter","operator":"KAI Commuter","wikidata":"Q12491123","wikipedia":"en:KAI Commuter Line Bandung","network:wikidata":"Q12501611","public_transport:version":"2"},"17555073":{"to":"Kiaracondong","ref":"B","from":"Padalarang","name":"Commuter Line Bandung Raya: Padalarang → Kiaracondong","type":"route","route":"train","colour":"#1C75BC","name:en":"Greater Bandung Commuter Line: Padalarang → Kiaracondong","network":"KAI Commuter","operator":"KAI Commuter","wikidata":"Q12491123","wikipedia":"en:KAI Commuter Line Bandung","network:wikidata":"Q12501611","public_transport:version":"2"},"17571079":{"to":"Semarang Tawang","ref":"Ciremai","via":"Cikampek","from":"Bandung","name":"Ciremai: Bandung → Semarang Tawang","type":"route","route":"train","colour":"orange","network":"KAI","operator":"KAI","wikidata":"Q12491172","wikipedia":"id:Kereta api Ciremai","network:wikidata":"Q2745027","public_transport:version":"2"},"17571081":{"to":"Surabaya Pasarturi","ref":"Harina","via":"Cikampek","from":"Bandung","name":"Harina: Bandung → Surabaya Pasarturi","type":"route","route":"train","colour":"orange","network":"KAI","operator":"KAI","wikidata":"Q12491142","wikipedia":"id:Kereta api Harina","network:wikidata":"Q2745027","public_transport:version":"2"},"17571082":{"to":"Bandung","ref":"Harina","via":"Cikampek","from":"Surabaya Pasarturi","name":"Harina: Surabaya Pasarturi → Bandung","type":"route","route":"train","colour":"orange","network":"KAI","operator":"KAI","wikidata":"Q12491142","wikipedia":"id:Kereta api Harina","network:wikidata":"Q2745027","public_transport:version":"2"},"17571084":{"to":"Bandung","ref":"Ciremai","via":"Cikampek","from":"Semarang Tawang","name":"Ciremai: Semarang Tawang → Bandung","type":"route","route":"train","colour":"orange","network":"KAI","operator":"KAI","wikidata":"Q12491172","wikipedia":"id:Kereta api Ciremai","network:wikidata":"Q2745027","public_transport:version":"2"},"17571085":{"to":"Bandung","ref":"KC","via":"Cimahi","from":"Padalarang","name":"Feeder KCJB: Padalarang → Bandung","type":"route","route":"train","colour":"red","network":"KAI","operator":"KAI","wikidata":"Q122193414","wikipedia":"en:KCJB Feeder Train","network:wikidata":"Q2745027","public_transport:version":"2"},"17571086":{"to":"Padalarang","ref":"KC","via":"Cimahi","from":"Bandung","name":"Feeder KCJB: Bandung → Padalarang","type":"route","route":"train","colour":"red","network":"KAI","operator":"KAI","wikidata":"Q122193414","wikipedia":"en:KCJB Feeder Train","network:wikidata":"Q2745027","public_transport:version":"2"}}