{"443301":{"to":"تهران (صادقیه)","ref":"5","from":"شهید قاسم سلیمانی","name":"خط ۵","type":"route","route":"train","name:de":"Linie 5 ostwärts","name:en":"Line 5 eastbound","network":"متروی تهران","operator":"Tehran Urban and Suburban Railway Company","wikidata":"Q20110122","wikipedia":"en:Tehran Metro Line 5","public_transport:version":"2"},"7369740":{"name":"راه آهن مشهد","type":"route","route":"train","network":"شرق"},"7369759":{"name":"حوزه سمنان","type":"route","route":"train","network":"شرق"},"7369760":{"name":"حوزه مرکزی تهران","type":"route","route":"train","network":"مرکزی"},"7735261":{"to":"شهید قاسم سلیمانی","ref":"5","from":"تهران (صادقیه)","name":"خط ۵","type":"route","route":"train","name:de":"Linie 5 westwärts","name:en":"Line 5 westbound","network":"متروی تهران","operator":"Tehran Urban and Suburban Railway Company","wikidata":"Q20110122","wikipedia":"en:Tehran Metro Line 5","public_transport:version":"2"},"11291516":{"to":"Miandasht","from":"Qods","name":"ریل باس شهری اهواز","type":"route","route":"train","name:ar":"ريلباص البلدية الاهوازية","name:en":"Ahvaz City Railbus","network":"South","operator":"RAI"},"11382545":{"to":"Mashhad","from":"Shiraz","name":"شیراز – مشهد","type":"route","route":"train","name:en":"Shiraz – Mashhad","network":"RAI","operator":"RAJA"},"11382546":{"to":"Tehran","from":"Shiraz","name":"شیراز – تهران","type":"route","route":"train","name:en":"Shiraz – Tehran","network":"RAI","operator":"RAJA","passenger":"national"},"12293933":{"to":"تهران","from":"پرند","name":"تهران-پرند","type":"route","route":"train","colour":"green","name:en":"Tehran-Parand Commuter Rail","network":"Commuterrail","website":"https://commuterrail.rai.ir/page-RaiCommuter/fa/2039/form/pId5127","operator":"RAI","passenger":"suburban","public_transport:version":"2"},"12294667":{"to":"هشتگرد","from":"تهران","name":"تهران-هشتگرد","type":"route","route":"train","colour":"pink","network":"RAI","operator":"Commuter","public_transport:version":"2"},"12299357":{"via":"سرخس","from":"مشهد","name":"مشهد-سرخس","type":"route","route":"train","name:en":"Mashhad-Sarakhs","operator":"RAI","public_transport:version":"2"},"12319115":{"to":"گرمسار","from":"تهران","name":"تهران-پرند","type":"route","route":"train","colour":"gold","name:en":"Tehran-Garmsar Commuter Rail","network":"Commuterrail","website":"https://commuterrail.rai.ir/page-RaiCommuter/fa/2039/form/pId5127","operator":"RAI","passenger":"suburban","public_transport:version":"2"},"12319120":{"to":"امامزاده","from":"تهران","name":"تهران-پرند","type":"route","route":"train","colour":"gold","name:en":"Tehran-Emamzadeh Commuter Rail","network":"Commuterrail","website":"https://commuterrail.rai.ir/page-RaiCommuter/fa/2039/form/pId5127","operator":"RAI","passenger":"suburban","public_transport:version":"2"},"12947054":{"to":"Tehran","from":"Kermanshah","name":"کرمانشاه – تهران","type":"route","route":"train","name:en":"Kermanshah – Tehran","network":"RAI","operator":"RAJA","passenger":"national"},"12947420":{"to":"مشهد","from":"همدان","name":"همدان – مشهد","type":"route","route":"train","name:en":"Hamadan – Mashhad","network":"RAI","operator":"RAJA","public_transport:version":"2"},"12947421":{"to":"مشهد","from":"همدان","name":"بن ریل / همدان – مشهد","type":"route","route":"train","name:en":"BonRail / Hamadan – Mashhad","network":"RAI","operator":"BonRail","public_transport:version":"2"},"15974297":{"name":"راه آهن چابهار-زاهدان","type":"route","route":"train","name:de":"Bahnstrecke Zahedan–Chasch","name:en":"Zahedan-Khash","public_transport:version":"2"}}