{"11854":{"to":"Roma Ostiense","ref":"FL3","from":"Viterbo Porta Fiorentina","name":"FL3 (Viterbo Porta Fiorentina => Roma Ostiense)","type":"route","route":"train","colour":"#88aca0","network":"Trenitalia","old_ref":"FR3","service":"light_rail","operator":"Trenitalia","network:short":"TI","operator:short":"TI","network:wikidata":"Q286650","network:wikipedia":"it:Trenitalia","operator:wikidata":"Q286650","operator:wikipedia":"it:Trenitalia","public_transport:version":"2"},"11855":{"to":"Civitavecchia","ref":"FL5","from":"Roma Termini","name":"Treno FL5: Roma Termini → Civitavecchia","type":"route","route":"train","colour":"#dccc00","network":"Trenitalia","old_ref":"FR5","service":"light_rail","operator":"Trenitalia","wikidata":"Q3737292","network:short":"TI","operator:short":"TI","network:wikidata":"Q286650","network:wikipedia":"it:Trenitalia","operator:wikidata":"Q286650","operator:wikipedia":"it:Trenitalia","public_transport:version":"2"},"11856":{"to":"Orte","ref":"FL1","from":"Fiumicino Aeroporto","name":"Treno FL1: Fiumicino Aeroporto → Orte","type":"route","route":"train","colour":"#007663","network":"Trenitalia","old_ref":"FR1","service":"commuter","operator":"Trenitalia","wikidata":"Q3737286","network:short":"TI","operator:short":"TI","network:wikidata":"Q286650","network:wikipedia":"it:Trenitalia","operator:wikidata":"Q286650","operator:wikipedia":"it:Trenitalia","public_transport:version":"2"},"208013":{"to":"Cristoforo Colombo","ref":"FC2","from":"Roma Porta San Paolo","name":"Metromare","note":"folding bikes always allowed, electric bikes with lead batteries not allowed","type":"route","route":"train","colour":"#7EB9E6","service":"commuter","operator":"COTRAL","opening_hours":"Mo-Fr 05:08-23:30; Sa 05:08-24:00; Su 05:40-23:30","bicycle:conditional":"yes @ (Mo-Fr 05:00-9:00, 20:00-23:30; Sa 05:00-24:00; Su 05:40-23:30; PH 05:00-23:30)","public_transport:version":"2"},"255831":{"ref":"R","name":"Treno Regionale Borgo San Lorenzo <=> Pontassieve","type":"route","route":"train","service":"regional","operator":"RFI","public_transport:version":"2"},"385750":{"to":"Roma Tiburtina","ref":"FL2","from":"Tivoli","name":"Treno FL2: Tivoli → Roma Tiburtina","type":"route","route":"train","colour":"#004174","network":"Trenitalia","old_ref":"FR2","service":"commuter","operator":"Trenitalia","wikidata":"Q3737287","network:short":"TI","operator:short":"TI","network:wikidata":"Q286650","network:wikipedia":"it:Trenitalia","operator:wikidata":"Q286650","operator:wikipedia":"it:Trenitalia","public_transport:version":"2"},"387417":{"to":"Montebello","ref":"FC3","from":"Flaminio","name":"FC3 (Montebello)","type":"route","route":"train","colour":"#55b036","service":"commuter","operator":"COTRAL","opening_hours":"Mo-Sa 05:40-22:40; Su 05:50-22:10","public_transport:version":"2"},"392946":{"to":"Fiumicino Aeroporto","ref":"LEX","from":"Roma Termini","name":"Leonardo Express (Fiumicino Aeroporto)","type":"route","route":"train","network":"Trenitalia","service":"commuter","website":"https://www.trenitalia.com/","operator":"Trenitalia","wikidata":"Q1207539","network:metro":"Leonardo Express","network:short":"TI","operator:short":"TI","network:wikidata":"Q286650","network:wikipedia":"it:Trenitalia","operator:wikidata":"Q286650","operator:wikipedia":"it:Trenitalia"},"394393":{"to":"Frascati","ref":"FL4","from":"Roma Termini","name":"FL4 (Frascati)","type":"route","route":"train","colour":"#965b0e","network":"Trenitalia","old_ref":"FR4","service":"commuter","operator":"Trenitalia","wikidata":"Q25064","network:short":"TI","operator:short":"TI","network:wikidata":"Q286650","network:wikipedia":"it:Trenitalia","operator:wikidata":"Q286650","operator:wikipedia":"it:Trenitalia"},"401257":{"to":"Cassino","ref":"FL6","from":"Roma Termini","name":"Treno FL6: Roma Termini → Cassino","type":"route","route":"train","colour":"#d880b4","network":"Ferrovie Laziali","old_ref":"FR6","service":"commuter","operator":"Trenitalia","wikidata":"Q3737295","network:short":"FL","network:wikidata":"Q1408013","network:wikipedia":"de:Ferrovie Laziali","operator:wikidata":"Q286650","operator:wikipedia":"it:Trenitalia","public_transport:version":"2"},"404969":{"to":"Minturno-Scauri","ref":"FL7","from":"Roma Termini","name":"Treno FL7: Roma Termini → Minturno-Scauri","type":"route","route":"train","colour":"#9acc66","network":"Ferrovie Laziali","old_ref":"FR7","service":"commuter","operator":"Trenitalia","wikidata":"Q661786","network:short":"FL","network:wikidata":"Q1408013","network:wikipedia":"de:Ferrovie Laziali","operator:wikidata":"Q286650","operator:wikipedia":"it:Trenitalia","public_transport:version":"2"},"404976":{"to":"Nettuno","ref":"FL8","from":"Roma Termini","name":"Treno FL8: Roma Termin → Nettuno","type":"route","route":"train","colour":"#6cbf68","network":"Trenitalia","old_ref":"FR8","service":"commuter","operator":"Trenitalia","wikidata":"Q3737301","roundtrip":"no","network:short":"TI","operator:short":"TI","network:wikidata":"Q286650","network:wikipedia":"it:Trenitalia","operator:wikidata":"Q286650","operator:wikipedia":"it:Trenitalia","public_transport:version":"2"},"445980":{"to":"Napoli San Giovanni-Barra","ref":"2","from":"Pozzuoli Solfatara","name":"Linea 2 (Pozzuoli Solfatara → San Giovanni-Barra)","type":"route","route":"train","colour":"#025257","network":"Trenitalia","service":"commuter","operator":"Trenitalia","wikidata":"Q2274338","wikipedia":"it:Linea 2 (servizio ferroviario metropolitano di Napoli)","wheelchair":"limited","network:metro":"Metropolitana FS","network:short":"TI","operator:short":"TI","network:wikidata":"Q286650","network:wikipedia":"it:Trenitalia","operator:wikidata":"Q286650","operator:wikipedia":"it:Trenitalia","public_transport:version":"2"},"546320":{"to":"Meran - Merano","ref":"250","from":"Mals - Males","name":"Train 250: Mals - Malles => Meran - Merano","type":"route","fixme":"survey on which platform the train stops in this direction","route":"train","name:de":"Zug 250: Mals => Meran","name:it":"Treno 250: Malles => Merano","network":"TVS","service":"regional","alt_name":"Vinschgerbahn","operator":"SAD","public_transport:version":"2"},"547041":{"to":"Brescia","ref":"R1","from":"Bergamo","name":"Train R1: Bergamo => Brescia","type":"route","route":"train","colour":"#8dc63f","service":"regional","website":"https://www.trenord.it/","duration":"00:57:00","interval":"01:00:00","operator":"Trenord","opening_hours":"Mo-Su 06:25-22:03","public_transport:version":"2"},"557246":{"ref":"RFI L.6 Savigliano - Saluzzo - Cuneo","name":"RFI L.6 - Savigliano - Cuneo","type":"route","route":"train","network":"local","service":"regional","website":"http://isoweb-filenet.rfi.it/cons_discom/","operator":"RFI","public_transport:version":"1"},"561447":{"ref":"Ferrovia Casarsa - Portogruaro","name":"Ferrovia Casarsa - Portogruaro","type":"route","route":"train","network":"local","service":"regional","website":"http://www.ferroviacasarsaportogruaro.it/","operator":"Trenitalia"},"919365":{"to":"Milano Nord Cadorna","ref":"MXP1","via":"Saronno","from":"Malpensa Aeroporto Terminal 2","name":"Train MXP1: Malpensa Aeroporto Terminal 2 => Milano Nord Cadorna","type":"route","route":"train","colour":"#961a54","service":"regional","toilets":"yes","website":"https://www.malpensaexpress.it/","duration":"00:47:00","interval":"01:00:00","operator":"Trenord","wikidata":"Q1858023","wikipedia":"it:Malpensa Express","network:metro":"Malpensa Express","toilets:wheelchair":"yes","public_transport:version":"2"},"919366":{"to":"Malpensa Aeroporto Terminal 2","ref":"MXP","via":"Saronno","from":"Milano Nord Cadorna","name":"Train MXP1: Milano Nord Cadorna => Malpensa Aeroporto Terminal 2","type":"route","route":"train","colour":"#961a54","service":"regional","toilets":"yes","website":"https://www.malpensaexpress.it/","duration":"00:47:00","interval":"01:00:00","operator":"Trenord","wikidata":"Q1858023","wikipedia":"it:Malpensa Express","network:metro":"Malpensa Express","toilets:wheelchair":"yes","public_transport:version":"2"},"919367":{"to":"Saronno","ref":"S3","from":"Milano Cadorna","name":"Treno S3: Milano Cadorna => Saronno","type":"route","route":"train","colour":"#B90042","bicycle":"limited","comment":"http://wiki.openstreetmap.org/wiki/Milano/Trasporti_pubblici","name:en":"Train S3: Milano Cadorna => Saronno","name:it":"Treno S3: Milano Cadorna => Saronno","network":"STIBM","service":"commuter","toilets":"yes","by_night":"no","duration":"00:35:00","interval":"00:30:00","operator":"Trenord","wikidata":"Q600028","wikipedia":"it:Servizio ferroviario suburbano di Milano","wheelchair":"yes","description":"Servizio ferroviario suburbano di Milano","reservation":"no","wikipedia:en":"en:Line S3 (Milan suburban railway service)","network:metro":"Servizio Suburbano","opening_hours":"Mo-Su 06:00-23:30","network:wikidata":"Q65125405","network:wikipedia":"it:STIBM","toilets:wheelchair":"yes","public_transport:version":"2"},"919368":{"to":"Milano Cadorna","ref":"S3","from":"Saronno","name":"Treno S3: Saronno => Milano Cadorna","type":"route","route":"train","colour":"#B90042","bicycle":"limited","comment":"http://wiki.openstreetmap.org/wiki/Milano/Trasporti_pubblici","name:en":"Train S3: Saronno => Milano Cadorna","name:it":"Treno S3: Saronno => Milano Cadorna","network":"STIBM","service":"commuter","toilets":"yes","by_night":"no","duration":"00:35:00","interval":"00:30:00","operator":"Trenord","wikidata":"Q600028","wikipedia":"it:Servizio ferroviario suburbano di Milano","wheelchair":"yes","description":"Servizio ferroviario suburbano di Milano","reservation":"no","wikipedia:en":"en:Line S3 (Milan suburban railway service)","network:metro":"Servizio Suburbano","opening_hours":"Mo-Su 06:00-23:30","network:wikidata":"Q65125405","network:wikipedia":"it:STIBM","toilets:wheelchair":"yes","public_transport:version":"2"},"919412":{"to":"Saronno","ref":"S1","via":"Milano Rogoredo","from":"Lodi","name":"Treno S1: Lodi => Saronno","type":"route","route":"train","colour":"#FD0000","bicycle":"limited","comment":"http://wiki.openstreetmap.org/wiki/Milano/Trasporti_pubblici","name:en":"Train S1: Lodi => Saronno","name:it":"Treno S1: Lodi => Saronno","network":"STIBM","service":"commuter","toilets":"yes","by_night":"no","duration":"01:29:00","interval":"00:30:00","operator":"Trenord","wikidata":"Q46365","wikipedia":"it:Servizio ferroviario suburbano di Milano","wheelchair":"limited","description":"Servizio ferroviario suburbano di Milano","reservation":"no","wikipedia:en":"en:Line S1 (Milan suburban railway service)","network:metro":"Servizio Suburbano","opening_hours":"Mo-Su 06:00-23:59","network:wikidata":"Q65125405","network:wikipedia":"it:STIBM","toilets:wheelchair":"yes","public_transport:version":"2"},"919413":{"to":"Lodi","ref":"S1","via":"Milano Bovisa","from":"Saronno","name":"Treno S1: Saronno => Lodi","type":"route","route":"train","colour":"#FD0000","bicycle":"limited","comment":"http://wiki.openstreetmap.org/wiki/Milano/Trasporti_pubblici","name:en":"Train S1: Saronno => Lodi","name:it":"Treno S1: Saronno => Lodi","network":"STIBM","service":"commuter","toilets":"yes","by_night":"no","duration":"01:29:00","interval":"00:30:00","operator":"Trenord","wikidata":"Q46365","wikipedia":"it:Servizio ferroviario suburbano di Milano","wheelchair":"limited","description":"Servizio ferroviario suburbano di Milano","reservation":"no","wikipedia:en":"en:Line S1 (Milan suburban railway service)","network:metro":"Servizio Suburbano","opening_hours":"Mo-Su 06:00-23:59","network:wikidata":"Q65125405","network:wikipedia":"it:STIBM","toilets:wheelchair":"yes","public_transport:version":"2"},"919471":{"to":"Pavia","ref":"S13","via":"Milano Rogoredo","from":"Milano Bovisa","name":"Treno S13: Milano Bovisa => Pavia","type":"route","route":"train","colour":"#966524","bicycle":"limited","comment":"http://wiki.openstreetmap.org/wiki/Milano/Trasporti_pubblici","name:en":"Train S13: Milano Bovisa => Pavia","name:it":"Treno S13: Milano Bovisa => Pavia","network":"STIBM","service":"commuter","by_night":"no","duration":"00:56:00","interval":"00:30:00","operator":"Trenord","wikidata":"Q1160881","wikipedia":"it:Servizio ferroviario suburbano di Milano","wheelchair":"limited","description":"Servizio ferroviario suburbano di Milano","reservation":"no","wikipedia:en":"en:Line S13 (Milan suburban railway service)","network:metro":"Servizio Suburbano","opening_hours":"Mo-Su 05:30-23:59","network:wikidata":"Q65125405","network:wikipedia":"it:STIBM","public_transport:version":"2"},"919472":{"to":"Milano Bovisa Politecnico","ref":"S13","via":"Milano Passante","from":"Pavia","name":"Treno S13: Pavia => Milano Bovisa","type":"route","route":"train","colour":"#966524","bicycle":"limited","comment":"http://wiki.openstreetmap.org/wiki/Milano/Trasporti_pubblici","name:en":"Train S13: Pavia => Milano Bovisa","name:it":"Treno S13: Pavia => Milano Bovisa","network":"STIBM","service":"commuter","by_night":"no","duration":"00:56:00","interval":"00:30:00","operator":"Trenord","wikidata":"Q1160881","wikipedia":"it:Servizio ferroviario suburbano di Milano","wheelchair":"limited","description":"Servizio ferroviario suburbano di Milano","reservation":"no","wikipedia:en":"en:Line S13 (Milan suburban railway service)","network:metro":"Servizio Suburbano","opening_hours":"Mo-Su 05:30-23:59","network:wikidata":"Q65125405","network:wikipedia":"it:STIBM","public_transport:version":"2"},"921620":{"ref":"R","name":"Sacile - Udine","type":"route","route":"train","service":"regional"},"936755":{"to":"Camnago-Lentate","ref":"S4","from":"Milano Cadorna","name":"Treno S4: Milano Cadorna => Camnago-Lentate","type":"route","route":"train","colour":"#00D133","bicycle":"limited","comment":"http://wiki.openstreetmap.org/wiki/Milano/Trasporti_pubblici","name:en":"Train S4: Milano Cadorna => Camnago-Lentate","name:it":"Treno S4: Milano Cadorna => Camnago-Lentate","network":"STIBM","service":"commuter","by_night":"no","duration":"00:42:00","interval":"00:30:00","operator":"Trenord","wikidata":"Q1160571","wikipedia":"it:Servizio ferroviario suburbano di Milano","wheelchair":"yes","description":"Servizio ferroviario suburbano di Milano","reservation":"no","wikipedia:en":"en:Line S4 (Milan suburban railway service)","network:metro":"Servizio Suburbano","opening_hours":"Mo-Su 05:30-23:30","network:wikidata":"Q65125405","network:wikipedia":"it:STIBM","public_transport:version":"2"},"936756":{"to":"Milano Cadorna","ref":"S4","from":"Camnago-Lentate","name":"Treno S4: Camnago-Lentate => Milano Cadorna","type":"route","route":"train","colour":"#00D133","bicycle":"limited","comment":"http://wiki.openstreetmap.org/wiki/Milano/Trasporti_pubblici","name:en":"Train S4: Camnago-Lentate => Milano Cadorna","name:it":"Treno S4: Camnago-Lentate => Milano Cadorna","network":"STIBM","service":"commuter","by_night":"no","duration":"00:42:00","interval":"00:30:00","operator":"Trenord","wikidata":"Q1160571","wikipedia":"it:Servizio ferroviario suburbano di Milano","wheelchair":"yes","description":"Servizio ferroviario suburbano di Milano","reservation":"no","wikipedia:en":"en:Line S4 (Milan suburban railway service)","network:metro":"Servizio Suburbano","opening_hours":"Mo-Su 05:30-23:30","network:wikidata":"Q65125405","network:wikipedia":"it:STIBM","public_transport:version":"2"},"936757":{"to":"Seveso","ref":"S2","via":"Milano Bovisa","from":"Milano Rogoredo","name":"Treno S2: Milano Rogoredo => Seveso","note":"Alcune corse prolungano a Meda e Mariano Comense","type":"route","route":"train","colour":"#00AD8D","bicycle":"limited","comment":"http://wiki.openstreetmap.org/wiki/Milano/Trasporti_pubblici","name:en":"Train S2: Milano Rogoredo => Seveso","name:it":"Treno S2: Milano Rogoredo => Seveso","network":"STIBM","service":"commuter","by_night":"no","duration":"00:55:00","interval":"00:30:00","operator":"Trenord","wikidata":"Q1160540","wikipedia":"it:Servizio ferroviario suburbano di Milano","wheelchair":"yes","description":"Servizio ferroviario suburbano di Milano","reservation":"no","wikipedia:en":"en:Line S2 (Milan suburban railway service)","network:metro":"Servizio Suburbano","opening_hours":"Mo-Fr 06:30-21:30; PH off","network:wikidata":"Q65125405","network:wikipedia":"it:STIBM","public_transport:version":"2"},"936758":{"to":"Milano Rogoredo","ref":"S2","from":"Seveso","name":"Treno S2: Seveso => Milano Rogoredo","note":"Alcune corse prolungano a Meda e Mariano Comense","type":"route","route":"train","colour":"#00AD8D","bicycle":"limited","comment":"http://wiki.openstreetmap.org/wiki/Milano/Trasporti_pubblici","name:en":"Train S2: Seveso => Milano Rogoredo","name:it":"Treno S2: Seveso => Milano Rogoredo","network":"STIBM","service":"commuter","by_night":"no","duration":"00:55:00","interval":"00:30:00","operator":"Trenord","wikidata":"Q1160540","wikipedia":"it:Servizio ferroviario suburbano di Milano","wheelchair":"yes","description":"Servizio ferroviario suburbano di Milano","reservation":"no","wikipedia:en":"en:Line S2 (Milan suburban railway service)","network:metro":"Servizio Suburbano","opening_hours":"Mo-Fr 06:30-21:30; PH off","network:wikidata":"Q65125405","network:wikipedia":"it:STIBM","public_transport:version":"2"},"1016812":{"to":"Novara","ref":"S6","via":"Milano Certosa","from":"Pioltello-Limito","name":"Treno S6/: Pioltello-Limito => Novara","type":"route","route":"train","colour":"#F0DF00","bicycle":"limited","comment":"http://wiki.openstreetmap.org/wiki/Milano/Trasporti_pubblici","name:en":"Train S6/: Pioltello-Limito => Novara","name:it":"Treno S6/: Pioltello-Limito => Novara","network":"STIBM","service":"commuter","by_night":"no","duration":"01:19:00","interval":"00:30:00","operator":"Trenord","wikidata":"Q1160580","wikipedia":"it:Servizio ferroviario suburbano di Milano","wheelchair":"limited","description":"Servizio ferroviario suburbano di Milano","reservation":"no","wikipedia:en":"en:Line S6 (Milan suburban railway service)","network:metro":"Servizio Suburbano","opening_hours":"Mo-Su 06:30-23:59","network:wikidata":"Q65125405","network:wikipedia":"it:STIBM","public_transport:version":"2"},"1016813":{"to":"Pioltello-Limito","ref":"S6","via":"Milano Forlanini","from":"Novara","name":"Treno S6/: Novara => Pioltello-Limito","type":"route","route":"train","colour":"#F0DF00","bicycle":"limited","comment":"http://wiki.openstreetmap.org/wiki/Milano/Trasporti_pubblici","name:en":"Train S6/: Novara => Pioltello-Limito","name:it":"Treno S6/: Novara => Pioltello-Limito","network":"STIBM","service":"commuter","by_night":"no","duration":"01:19:00","interval":"00:30:00","operator":"Trenord","wikidata":"Q1160580","wikipedia":"it:Servizio ferroviario suburbano di Milano","wheelchair":"limited","description":"Servizio ferroviario suburbano di Milano","reservation":"no","wikipedia:en":"en:Line S6 (Milan suburban railway service)","network:metro":"Servizio Suburbano","opening_hours":"Mo-Su 05:30-23:59","network:wikidata":"Q65125405","network:wikipedia":"it:STIBM","public_transport:version":"2"},"1016814":{"to":"Varese","ref":"S5","via":"Milano Certosa","from":"Treviglio","name":"Treno S5: Treviglio => Varese","type":"route","route":"train","colour":"#FF980D","bicycle":"limited","comment":"http://wiki.openstreetmap.org/wiki/Milano/Trasporti_pubblici","name:en":"Train S5: Treviglio => Varese","name:it":"Treno S5: Treviglio => Varese","network":"STIBM","service":"commuter","by_night":"no","duration":"02:07:00","interval":"00:30:00","operator":"Trenord-ATM","wikidata":"Q1159300","wikipedia":"it:Servizio ferroviario suburbano di Milano","wheelchair":"limited","description":"Servizio ferroviario suburbano di Milano","reservation":"no","wikipedia:en":"en:Line S5 (Milan suburban railway service)","network:metro":"Servizio Suburbano","opening_hours":"Mo-Su 05:30-23:59","network:wikidata":"Q65125405","network:wikipedia":"it:STIBM","bicycle:description":"Sebbene non ci sia uno spazio dove mettere le biciclette sui treni TSR, durante i weekend il trasporto di biciclette sui treni della linea S5 è gratuito.","bicycle:description:en":"Although there is no room to leave bicycles on TSR trains, on weekends you can carry your bicycle for free only on S5 line trains.","public_transport:version":"2"},"1016815":{"to":"Treviglio","ref":"S5","via":"Milano Forlanini","from":"Varese","name":"Treno S5: Varese => Treviglio","type":"route","route":"train","colour":"#FF980D","bicycle":"limited","comment":"http://wiki.openstreetmap.org/wiki/Milano/Trasporti_pubblici","name:en":"Train S5: Varese => Treviglio","name:it":"Treno S5: Varese => Treviglio","network":"STIBM","service":"commuter","by_night":"no","duration":"02:07:00","interval":"00:30:00","operator":"Trenord-ATM","wikidata":"Q1159300","wikipedia":"it:Servizio ferroviario suburbano di Milano","wheelchair":"limited","description":"Servizio ferroviario suburbano di Milano","reservation":"no","wikipedia:en":"en:Line S5 (Milan suburban railway service)","network:metro":"Servizio Suburbano","opening_hours":"Mo-Su 05:30-23:59","network:wikidata":"Q65125405","network:wikipedia":"it:STIBM","bicycle:description":"Sebbene non ci sia uno spazio dove mettere le biciclette sui treni TSR, durante i weekend il trasporto di biciclette sui treni della linea S5 è gratuito.","bicycle:description:en":"Although there is no room to leave bicycles on TSR trains, on weekends you can carry your bicycle for free only on S5 line trains.","public_transport:version":"2"},"1020453":{"to":"Albairate-Vermezzo","ref":"S9","via":"Milano Lambrate","from":"Saronno","name":"Treno S9: Saronno => Albairate-Vermezzo","type":"route","route":"train","colour":"#A0499A","bicycle":"yes","comment":"http://wiki.openstreetmap.org/wiki/Milano/Trasporti_pubblici","name:en":"Train S9: Saronno => Albairate-Vermezzo","name:it":"Treno S9: Saronno => Albairate-Vermezzo","network":"STIBM","service":"commuter","duration":"01:49:00","interval":"00:30:00","operator":"Trenord","wikidata":"Q56920","wikipedia":"it:Servizio ferroviario suburbano di Milano","wheelchair":"limited","description":"Servizio ferroviario suburbano di Milano","reservation":"no","wikipedia:en":"en:Line S9 (Milan suburban railway service)","network:metro":"Servizio Suburbano","opening_hours":"Mo-Su 05:30-23:00","network:wikidata":"Q65125405","network:wikipedia":"it:STIBM","public_transport:version":"2"},"1020454":{"to":"Chiasso","ref":"S11","from":"Milano Porta Garibaldi","name":"Treno S11: Milano Porta Garibaldi => Chiasso","type":"route","route":"train","colour":"#9D91C5","bicycle":"yes","comment":"http://wiki.openstreetmap.org/wiki/Milano/Trasporti_pubblici","name:en":"Train S11: Milano Porta Garibaldi => Chiasso","name:it":"Treno S11: Milano Porta Garibaldi => Chiasso","network":"STIBM","service":"commuter","duration":"01:08:00","interval":"00:30:00","operator":"Trenord","wikidata":"Q1160879","wikipedia":"it:Servizio ferroviario suburbano di Milano","wheelchair":"limited","description":"Servizio ferroviario suburbano di Milano","reservation":"no","wikipedia:en":"en:Line S11 (Milan suburban railway service)","network:metro":"Servizio Suburbano","opening_hours":"Mo-Su 05:30-00:00","network:wikidata":"Q65125405","network:wikipedia":"it:STIBM","public_transport:version":"2"},"1020455":{"to":"Lecco","ref":"S8","via":"Carnate-Usmate","from":"Milano Porta Garibaldi","name":"Treno S8: Milano Porta Garibaldi => Lecco","type":"route","route":"train","colour":"#F8B1B0","bicycle":"yes","comment":"http://wiki.openstreetmap.org/wiki/Milano/Trasporti_pubblici","name:en":"Train S8: Milano Porta Garibaldi => Lecco","name:it":"Treno S8: Milano Porta Garibaldi => Lecco","network":"STIBM","service":"commuter","duration":"01:02:00","interval":"00:30:00","operator":"Trenord","wikidata":"Q1160824","wikipedia":"it:Servizio ferroviario suburbano di Milano","wheelchair":"limited","description":"Servizio ferroviario suburbano di Milano","reservation":"no","wikipedia:en":"en:Line S8 (Milan suburban railway service)","network:metro":"Servizio Suburbano","opening_hours":"Mo-Su 05:00-00:30","network:wikidata":"Q65125405","network:wikipedia":"it:STIBM","public_transport:version":"2"},"1020456":{"to":"Milano Porta Garibaldi","ref":"S11","from":"Chiasso","name":"Treno S11: Chiasso => Milano Porta Garibaldi","type":"route","route":"train","colour":"#9D91C5","bicycle":"yes","comment":"http://wiki.openstreetmap.org/wiki/Milano/Trasporti_pubblici","name:en":"Train S11: Chiasso => Milano Porta Garibaldi","name:it":"Treno S11: Chiasso => Milano Porta Garibaldi","network":"STIBM","service":"commuter","duration":"01:08:00","interval":"00:30:00","operator":"Trenord","wikidata":"Q1160879","wikipedia":"it:Servizio ferroviario suburbano di Milano","wheelchair":"limited","description":"Servizio ferroviario suburbano di Milano","reservation":"no","wikipedia:en":"en:Line S11 (Milan suburban railway service)","network:metro":"Servizio Suburbano","opening_hours":"Mo-Su 05:30-00:00","network:wikidata":"Q65125405","network:wikipedia":"it:STIBM","public_transport:version":"2"},"1020457":{"to":"Milano Porta Garibaldi","ref":"S8","via":"Carnate-Usmate","from":"Lecco","name":"Treno S8: Lecco => Milano Porta Garibaldi)","type":"route","route":"train","colour":"#F8B1B0","bicycle":"yes","comment":"http://wiki.openstreetmap.org/wiki/Milano/Trasporti_pubblici","name:en":"Train S8: Lecco => Milano Porta Garibaldi)","name:it":"Treno S8: Lecco => Milano Porta Garibaldi)","network":"STIBM","service":"commuter","duration":"01:02:00","interval":"00:30:00","operator":"Trenord","wikidata":"Q1160824","wikipedia":"it:Servizio ferroviario suburbano di Milano","wheelchair":"limited","description":"Servizio ferroviario suburbano di Milano","reservation":"no","wikipedia:en":"en:Line S8 (Milan suburban railway service)","network:metro":"Servizio Suburbano","opening_hours":"Mo-Su 05:00-00:30","network:wikidata":"Q65125405","network:wikipedia":"it:STIBM","public_transport:version":"2"},"1020458":{"to":"Saronno","ref":"S9","via":"Milano Lambrate","from":"Albairate-Vermezzo","name":"Treno S9: Albairate-Vermezzo => Saronno","type":"route","route":"train","colour":"#A0499A","bicycle":"yes","comment":"http://wiki.openstreetmap.org/wiki/Milano/Trasporti_pubblici","name:en":"Train S9: Albairate-Vermezzo => Saronno","name:it":"Treno S9: Albairate-Vermezzo => Saronno","network":"STIBM","service":"commuter","duration":"01:49:00","interval":"00:30:00","operator":"Trenord","wikidata":"Q56920","wikipedia":"it:Servizio ferroviario suburbano di Milano","wheelchair":"limited","description":"Servizio ferroviario suburbano di Milano","reservation":"no","wikipedia:en":"en:Line S9 (Milan suburban railway service)","network:metro":"Servizio Suburbano","opening_hours":"Mo-Su 05:30-23:00","network:wikidata":"Q65125405","network:wikipedia":"it:STIBM","public_transport:version":"2"},"1021284":{"to":"Novara","ref":"S6","via":"Milano Certosa","from":"Treviglio","name":"Treno S6: Treviglio => Novara","type":"route","route":"train","colour":"#F0DF00","bicycle":"limited","comment":"http://wiki.openstreetmap.org/wiki/Milano/Trasporti_pubblici","name:en":"Train S6: Treviglio => Novara","name:it":"Treno S6: Treviglio => Novara","network":"STIBM","service":"commuter","by_night":"no","duration":"01:47:00","interval":"00:30:00","operator":"Trenord","wikidata":"Q1160580","wikipedia":"it:Servizio ferroviario suburbano di Milano","wheelchair":"limited","description":"Servizio ferroviario suburbano di Milano","reservation":"no","wikipedia:en":"en:Line S6 (Milan suburban railway service)","network:metro":"Servizio Suburbano","opening_hours":"Mo-Fr 07:00-09:00, 18:00-21:00; PH off","network:wikidata":"Q65125405","network:wikipedia":"it:STIBM","public_transport:version":"2"},"1021285":{"to":"Treviglio","ref":"S6","via":"Milano Forlanini","from":"Novara","name":"Treno S6: Novara => Treviglio","type":"route","route":"train","colour":"#F0DF00","bicycle":"limited","comment":"http://wiki.openstreetmap.org/wiki/Milano/Trasporti_pubblici","name:en":"Train S6: Novara => Treviglio","name:it":"Treno S6: Novara => Treviglio","network":"STIBM","service":"commuter","by_night":"no","duration":"01:47:00","interval":"00:30:00","operator":"Trenord","wikidata":"Q1160580","wikipedia":"it:Servizio ferroviario suburbano di Milano","wheelchair":"limited","description":"Servizio ferroviario suburbano di Milano","reservation":"no","wikipedia:en":"en:Line S6 (Milan suburban railway service)","network:metro":"Servizio Suburbano","opening_hours":"Mo-Fr 06:00-09:00, 16:00-21:00; PH off","network:wikidata":"Q65125405","network:wikipedia":"it:STIBM","public_transport:version":"2"},"1076723":{"to":"Cecilia","ref":"FM1","from":"Bari Centrale","name":"FM1 (Bari Centrale → Cecilia)","type":"route","route":"train","colour":"#FF0000","network":"Bari","service":"commuter","operator":"Ferrovie del Nord Barese","wheelchair":"limited"},"1191141":{"to":"Bolzano - Bozen","ref":"200","from":"Merano - Meran","name":"Train 200: Meran => Bozen","type":"route","fixme":"survey on which platform the train stops in this direction","route":"train","network":"TVS","service":"regional","operator":"SAD;TI","public_transport:version":"2"},"1204872":{"to":"Germagnano","ref":"SFM A","from":"Ciriè","name":"SFM A: Ciriè => Germagnano","note":"Before change check http://wiki.openstreetmap.org/wiki/Torino/Trasporti_pubblici","type":"route","route":"train","colour":"#0065FF","network":"Formula","service":"commuter","operator":"Trenitalia","wikidata":"Q3832760","direction":"NW","not:network:wikidata":"Q286650","public_transport:version":"2"},"1204873":{"to":"Ciriè","ref":"SFM A","from":"Germagnano","name":"SFM A: Germagnano => Ciriè","note":"Before change check http://wiki.openstreetmap.org/wiki/Torino/Trasporti_pubblici","type":"route","route":"train","colour":"#0065FF","network":"Formula","service":"commuter","operator":"Trenitalia","wikidata":"Q3832760","direction":"SE","network:wikidata":"Q893197","network:wikipedia":"it:Servizio_ferroviario_metropolitano_di_Torino","operator:wikidata":"Q286650","operator:wikipedia":"it:Trenitalia","not:network:wikidata":"Q286650","public_transport:version":"2"},"1210497":{"to":"Chivasso","ref":"SFM 2","from":"Pinerolo","name":"SFM 2: Pinerolo => Chivasso","type":"route","route":"train","colour":"#0065FF","network":"Trenitalia","service":"commuter","operator":"Trenitalia","wikidata":"Q3832754","passenger":"suburban","network:short":"TI","operator:short":"TI","network:wikidata":"Q286650","network:wikipedia":"it:Trenitalia","operator:wikidata":"Q286650","operator:wikipedia":"it:Trenitalia","public_transport:version":"2"},"1210498":{"to":"Pinerolo","ref":"SFM 2","from":"Chivasso","name":"SFM 2: Chivasso => Pinerolo","type":"route","route":"train","colour":"#0065FF","network":"Trenitalia","service":"commuter","operator":"Trenitalia","wikidata":"Q3832754","passenger":"suburban","network:short":"TI","operator:short":"TI","network:wikidata":"Q286650","network:wikipedia":"it:Trenitalia","operator:wikidata":"Q286650","operator:wikipedia":"it:Trenitalia","public_transport:version":"2"},"1229467":{"url":"http://www.ferroviagenovacasella.it/","name":"Ferrovia Genova-Casella","type":"route","route":"train","service":"light_rail","operator":"Azienda Mobilità e Trasporti","wikidata":"Q164831","wikipedia":"it:Ferrovia Genova-Casella","start_date":"1929","wikimedia_commons":"Category:Genoa–Casella railway","railway:traffic_mode":"passenger","public_transport:version":"2"},"1245046":{"to":"Treviglio","ref":"RE2 R2","from":"Bergamo","name":"Linea Bergamo-Treviglio","type":"route","route":"train","service":"regional","operator":"Trenord","public_transport:version":"2"},"1245578":{"ref":"48","name":"Mantova-Monselice","type":"route","route":"train","network":"regional","service":"regional","operator":"RFI"},"1251126":{"name":"Padova-Padova Interporto","type":"route","route":"train","network":"local","service":"commuter","operator":"RFI","wheelchair":"no"},"1325236":{"to":"Milano Centrale","fee":"yes","from":"Torino Porta Nuova","name":"Treno RV: Torino Porta Nuova => Milano Centrale","type":"route","route":"train","name:en":"Train RV: Torino Porta Nuova => Milano Centrale","name:it":"Treno RV: Torino Porta Nuova => Milano Centrale","service":"national","public_transport:version":"1"},"1717610":{"to":"Terni","ref":"FCU","from":"Perugia Sant'Anna","name":"FCU (Perugia Sant'Anna => Terni)","type":"route","route":"train","network":"FCU","service":"regional","operator":"Ferrovia Centrale Umbra","wikidata":"Q3743372","public_transport:version":"2"},"1721156":{"to":"Roma Porta San Paolo","ref":"FC2","from":"Cristoforo Colombo","name":"Metromare: Cristoforo Colombo => Roma Porta San Paolo","note":"folding bikes always allowed, electric bikes with lead batteries not allowed","type":"route","route":"train","colour":"#7EB9E6","service":"commuter","operator":"COTRAL","opening_hours":"Mo-Fr 05:08-23:30; Sa 05:08-24:00; Su 05:40-23:30","bicycle:conditional":"yes @ (Mo-Fr 12:00-16:00, 20:00-23:30; Sa-Su 05:08-24:00; PH 05:08-23:30)","public_transport:version":"2"},"1721478":{"to":"Flaminio","ref":"FC3","from":"Montebello","name":"FC3 (Flaminio)","type":"route","route":"train","colour":"#55b036","service":"commuter","operator":"COTRAL","opening_hours":"Mo-Sa 05:40-22:40; Su 05:50-22:10","public_transport:version":"2"},"1721539":{"to":"Viterbo","ref":"VITERBO","via":"Civita Castellana","from":"Flaminio","name":"Roma - Viterbo (servizio extraurbano Viterbo)","type":"route","route":"train","colour":"#55b036","service":"regional","operator":"COTRAL","public_transport:version":"2"},"1721540":{"to":"Flaminio","ref":"VITERBO","via":"Civita Castellana","from":"Viterbo","name":"Roma - Viterbo (servizio extraurbano Flaminio)","type":"route","route":"train","colour":"#55b036","service":"regional","operator":"COTRAL","public_transport:version":"2"},"1722601":{"to":"Albano Laziale","ref":"FL4","from":"Roma Termini","name":"FL4 (Albano Laziale)","type":"route","route":"train","colour":"#965b0e","network":"Trenitalia","old_ref":"FR4","service":"commuter","operator":"Trenitalia","wikidata":"Q25064","network:short":"TI","operator:short":"TI","network:wikidata":"Q286650","network:wikipedia":"it:Trenitalia","operator:wikidata":"Q286650","operator:wikipedia":"it:Trenitalia"},"1722602":{"to":"Velletri","ref":"FL4","from":"Roma Termini","name":"FL4 (Velletri)","type":"route","route":"train","colour":"#965b0e","network":"Trenitalia","old_ref":"FR4","service":"commuter","operator":"Trenitalia","wikidata":"Q25064","network:short":"TI","operator:short":"TI","network:wikidata":"Q286650","network:wikipedia":"it:Trenitalia","operator:wikidata":"Q286650","operator:wikipedia":"it:Trenitalia"},"1722603":{"to":"Roma Termini","ref":"FL4","from":"Velletri","name":"FL4 (Roma Termini)","type":"route","route":"train","colour":"#965b0e","network":"Trenitalia","old_ref":"FR4","service":"commuter","operator":"Trenitalia","wikidata":"Q25064","network:short":"TI","operator:short":"TI","network:wikidata":"Q286650","network:wikipedia":"it:Trenitalia","operator:wikidata":"Q286650","operator:wikipedia":"it:Trenitalia"},"1723987":{"to":"Tivoli","ref":"FL2","from":"Roma Tiburtina","name":"Treno FL2: Roma Tiburtina → Tivoli","type":"route","route":"train","colour":"#004174","network":"Trenitalia","old_ref":"FR2","service":"commuter","operator":"Trenitalia","wikidata":"Q3737287","network:short":"TI","operator:short":"TI","network:wikidata":"Q286650","network:wikipedia":"it:Trenitalia","operator:wikidata":"Q286650","operator:wikipedia":"it:Trenitalia","public_transport:version":"2"},"1724215":{"to":"Fiumicino Aeroporto","ref":"FL1","from":"Orte","name":"Treno FL1:Orte → Fiumicino Aeroporto","type":"route","route":"train","colour":"#007663","network":"Trenitalia","old_ref":"FR1","service":"commuter","operator":"Trenitalia","wikidata":"Q3737286","wikipedia":"it:Servizi ferroviari suburbani di Roma","network:short":"TI","operator:short":"TI","network:wikidata":"Q286650","network:wikipedia":"it:Trenitalia","operator:wikidata":"Q286650","operator:wikipedia":"it:Trenitalia","public_transport:version":"2"},"1724268":{"to":"Roma Termini","ref":"LEX","from":"Fiumicino Aeroporto","name":"Leonardo Express (Roma Termini)","type":"route","route":"train","network":"Trenitalia","service":"commuter","operator":"Trenitalia","wikidata":"Q1207539","network:metro":"Leonardo Express","network:short":"TI","operator:short":"TI","network:wikidata":"Q286650","network:wikipedia":"it:Trenitalia","operator:wikidata":"Q286650","operator:wikipedia":"it:Trenitalia"},"1736444":{"to":"Roma Termini","ref":"FL5","from":"Civitavecchia","name":"FL5 (Roma Termini)","type":"route","route":"train","colour":"#dccc00","network":"Trenitalia","old_ref":"FR5","service":"light_rail","operator":"Trenitalia","wikidata":"Q3737292","network:short":"TI","operator:short":"TI","network:wikidata":"Q286650","network:wikipedia":"it:Trenitalia","operator:wikidata":"Q286650","operator:wikipedia":"it:Trenitalia"},"1772519":{"to":"Bassano del Grappa","ref":"R25","from":"Trento","name":"R25: Trento => Bassano del Grappa","type":"route","route":"train","bicycle":"limited","service":"regional","toilets":"yes","operator":"Trenitalia;Trentino Trasporti","passenger":"regional","wheelchair":"limited","surveillance":"indoor","contact:website":"https://www.trentinotrasporti.it/viaggia-con-noi/ferrovia","toilets:wheelchair":"yes","public_transport:version":"2"},"1774765":{"to":"Innichen - San Candido","ref":"400","via":"Bruneck - Brunico","from":"Franzensfeste - Fortezza","name":"Train 400: Franzensfeste - Fortezza => Lienz","type":"route","route":"train","name:de":"Zug 400: Franzensfeste => Lienz","name:it":"Treno 400: Fortezza => Lienz","network":"TVS","service":"regional","operator":"TI;SAD","public_transport:version":"2"},"1778491":{"ref":"Napoli - Cassino","name":"Napoli - Cassino","type":"route","route":"train","service":"regional","operator":"Rete Ferroviaria Italiana"},"1779702":{"to":"Roma Termini","ref":"Napoli - Aversa - Formia - Roma","via":"Aversa;Formia","from":"Napoli","name":"Napoli - Aversa - Formia - Roma","type":"route","route":"train","network":"Trenitalia","service":"national","operator":"Trenitalia","network:short":"TI","operator:short":"TI","network:wikidata":"Q286650","network:wikipedia":"it:Trenitalia","operator:wikidata":"Q286650","operator:wikipedia":"it:Trenitalia","public_transport:version":"2"},"1798723":{"ref":"RMFI","name":"Frecciarossa Firenze S.M.N. - Roma Termini","type":"route","route":"train","network":"Trenitalia","service":"national","operator":"Trenitalia","highspeed":"yes","network:short":"TI","operator:short":"TI","network:wikidata":"Q286650","network:wikipedia":"it:Trenitalia","operator:wikidata":"Q286650","operator:wikipedia":"it:Trenitalia","public_transport:version":"2"},"1808853":{"to":"Isili","ref":"ARST","from":"San Gottardo","name":"ARST (Isili)","type":"route","route":"train","service":"light_rail","operator":"ARST","public_transport:version":"1"},"1930410":{"to":"Monte Antico","via":"Montalceto;Trequanda;San Giovanni d'Asso;Torrenieri-Montalcino;Monte Amiata;Sant'Angelo-Cinigiano","from":"Asciano","name":"Ferrovia Asciano-Monte Antico","note":"Nel 1982 venne realizzata una variante di tracciato tra le stazioni di Torrenieri e Monte Amiata, in zona \\\"Le Ripe\\\", con il rifacimento quasi totale della galleria Casalta, la cui parte in curva è stata rettificata","type":"route","gauge":"1435","route":"train","source":"https://www.ferrovieabbandonate.it/linea_dismessa.php?id=4","network":"regional","railway":"preserved","distance":"51.211","end_date":"1994","operator":"RFI","wikidata":"Q3743295","short_name":"Asciano-Monte Antico","start_date":"1865-1872","official_name":"Ferrovia Asciano-Monte Antico","end_date:railway":"1994","public_transport:version":"1"},"1988841":{"to":"Susa","ref":"SFM3","from":"Torino Porta Nuova","name":"SFM3: Torino Porta Nuova - Susa","type":"route","route":"train","colour":"#82BF40","network":"Trenitalia","service":"commuter","operator":"Trenitalia","wikidata":"Q3832756","direction":"Susa","network:short":"TI","operator:short":"TI","network:wikidata":"Q286650","operator:wikidata":"Q286650"},"1988842":{"to":"Torino Porta Nuova","ref":"SFM3","from":"Susa","name":"SFM3: Susa - Torino Porta Nuova","type":"route","route":"train","colour":"#82BF40","network":"Trenitalia","service":"commuter","operator":"Trenitalia","wikidata":"Q3832756","direction":"Torino Porta Nuova","network:short":"TI","operator:short":"TI","network:wikidata":"Q286650","operator:wikidata":"Q286650"},"2090542":{"to":"Roma Termini","ref":"FL6","from":"Cassino","name":"Treno FL6: Cassino → Roma Termini","type":"route","route":"train","colour":"#d880b4","network":"Ferrovie Laziali","old_ref":"FR6","service":"commuter","operator":"Trenitalia","wikidata":"Q3737295","network:short":"FL","network:wikidata":"Q1408013","network:wikipedia":"de:Ferrovie Laziali","operator:wikidata":"Q286650","operator:wikipedia":"it:Trenitalia","public_transport:version":"2"},"2090570":{"to":"Roma Termini","ref":"FL7","from":"Minturno-Scauri","name":"Treno FL7: Minturno-Scauri → Roma Termini","type":"route","route":"train","colour":"#9acc66","network":"Ferrovie Laziali","old_ref":"FR7","service":"commuter","operator":"Trenitalia","wikidata":"Q661786","network:short":"FL","network:wikidata":"Q1408013","network:wikipedia":"de:Ferrovie Laziali","operator:wikidata":"Q286650","operator:wikipedia":"it:Trenitalia","public_transport:version":"2"},"2106708":{"to":"Carnia","ref":"R","from":"Udine","name":"Udine - Carnia","type":"route","route":"train","network":"Trenitalia","service":"regional","operator":"Trenitalia","network:short":"TI","operator:short":"TI","network:wikidata":"Q286650","operator:wikidata":"Q286650"},"2142953":{"to":"Roma Ostiense","ref":"FL3","from":"Bracciano","name":"FL3 (Bracciano => Roma Ostiense)","type":"route","route":"train","colour":"#88aca0","network":"Trenitalia","old_ref":"FR3","operator":"Trenitalia","network:short":"TI","operator:short":"TI","network:wikidata":"Q286650","network:wikipedia":"it:Trenitalia","operator:wikidata":"Q286650","operator:wikipedia":"it:Trenitalia","public_transport:version":"2"},"2142954":{"to":"Roma Ostiense","ref":"FL3","from":"Cesano di Roma","name":"FL3 (Cesano di Roma => Roma Ostiense)","type":"route","route":"train","colour":"#88aca0","network":"Trenitalia","old_ref":"FR3","operator":"Trenitalia","network:short":"TI","operator:short":"TI","network:wikidata":"Q286650","network:wikipedia":"it:Trenitalia","operator:wikidata":"Q286650","operator:wikipedia":"it:Trenitalia","public_transport:version":"2"},"2142956":{"to":"Cesano di Roma","ref":"FL3","from":"Roma Tiburtina","name":"FL3 (Roma Tiburtina => Cesano di Roma)","type":"route","route":"train","colour":"#88aca0","network":"Trenitalia","old_ref":"FR3","service":"commuter","operator":"Trenitalia","wikidata":"Q3737289","network:short":"TI","operator:short":"TI","network:wikidata":"Q286650","network:wikipedia":"it:Trenitalia","operator:wikidata":"Q286650","operator:wikipedia":"it:Trenitalia","public_transport:version":"2"},"2151744":{"ref":"6507","name":"Ferrara-Rimini","type":"route","route":"train","service":"regional","distance":"72.62","operator":"RFI","wheelchair":"yes"},"2156758":{"to":"Gravina","ref":"FAL","from":"Bari Centrale","name":"Bari-Gravina","type":"route","route":"train","service":"light_rail","operator":"FAL"},"2156759":{"to":"Bari Centrale","ref":"FAL","from":"Gravina","name":"Gravina-Bari","type":"route","route":"train","service":"light_rail","operator":"FAL"},"2156900":{"to":"Lucera","ref":"FdG","from":"Foggia","name":"Foggia → Lucera","type":"route","route":"train","service":"regional","operator":"FG"},"2156901":{"to":"Foggia","ref":"FdG","from":"Lucera","name":"Lucera → Foggia","type":"route","route":"train","service":"regional","operator":"FG"},"2168103":{"to":"Pozzuoli Solfatara","ref":"2","from":"Napoli San Giovanni-Barra","name":"Linea 2 (San Giovanni-Barra → Pozzuoli Solfatara)","type":"route","route":"train","colour":"#025257","network":"Trenitalia","service":"commuter","operator":"Trenitalia","wikidata":"Q2274338","wikipedia":"it:Linea 2 (servizio ferroviario metropolitano di Napoli)","wheelchair":"limited","network:metro":"Metropolitana FS","network:short":"TI","operator:short":"TI","network:wikidata":"Q286650","network:wikipedia":"it:Trenitalia","operator:wikidata":"Q286650","operator:wikipedia":"it:Trenitalia","public_transport:version":"2"},"2168312":{"to":"Torregaveta","ref":"4","via":"Pozzuoli","from":"Napoli Montesanto","name":"Linea 4 (Montesanto → Torregaveta)","type":"route","route":"train","colour":"#203F7D","network":"EAV","service":"commuter","operator":"EAV","wikidata":"Q1000745","wikipedia":"it:Ferrovia Cumana","network:metro":"Cumana","public_transport:version":"2"},"2168313":{"to":"Napoli Montesanto","ref":"4","via":"Pozzuoli","from":"Torregaveta","name":"Linea 4 (Torregaveta → Montesanto)","type":"route","route":"train","colour":"#203F7D","network":"EAV","service":"commuter","operator":"EAV","wikidata":"Q1000745","wikipedia":"it:Ferrovia Cumana","network:metro":"Cumana","public_transport:version":"2"},"2168318":{"to":"Torregaveta","ref":"5","via":"Licola","from":"Napoli Montesanto","name":"Linea 5 (Montesanto → Torregaveta)","type":"route","route":"train","colour":"#0A9EDA","network":"EAV","service":"commuter","operator":"EAV","wikidata":"Q692803","wikipedia":"it:Ferrovia Circumflegrea","network:metro":"Circumflegrea","public_transport:version":"2"},"2168775":{"to":"Benevento","ref":"15","from":"Napoli Centrale","name":"Linea 15 (Napoli Centrale → Benevento)","type":"route","route":"train","colour":"#009B3E","network":"MCNE","service":"commuter","operator":"MetroCampania NordEst","wikidata":"Q120441391","opening_hours":"Mo-Sa; PH off","public_transport:version":"2"},"2168776":{"to":"Napoli Centrale","ref":"15","from":"Benevento","name":"Linea 15 (Benevento → Napoli Centrale)","type":"route","route":"train","colour":"#009B3E","network":"MCNE","service":"commuter","operator":"MetroCampania NordEst","wikidata":"Q120441391","opening_hours":"Mo-Sa; PH off","public_transport:version":"2"},"2168849":{"to":"Piedimonte Matese","ref":"16","from":"Napoli Centrale","name":"Linea 16 (Napoli Centrale → Piedimonte Matese)","type":"route","route":"train","colour":"#11472C","network":"MCNE","service":"commuter","operator":"MetroCampania NordEst","wikidata":"Q120437141","public_transport:version":"2"},"2168850":{"to":"Napoli Centrale","ref":"16","from":"Piedimonte Matese","name":"Linea 16 (Piedimonte Matese → Napoli Centrale)","type":"route","route":"train","colour":"#11472C","network":"MCNE","service":"commuter","operator":"MetroCampania NordEst","wikidata":"Q120437141","public_transport:version":"2"},"2169424":{"to":"Manfredonia","ref":"Foggia - Manfredonia","from":"Foggia","name":"Foggia → Manfredonia","type":"route","route":"train","network":"Trenitalia","service":"regional","operator":"Trenitalia","network:short":"TI","operator:short":"TI","network:wikidata":"Q286650","operator:wikidata":"Q286650"},"2169425":{"to":"Foggia","ref":"Foggia - Manfredonia","from":"Manfredonia","name":"Manfredonia → Foggia","type":"route","route":"train","network":"Trenitalia","service":"regional","operator":"Trenitalia","network:short":"TI","operator:short":"TI","network:wikidata":"Q286650","operator:wikidata":"Q286650"},"2176186":{"to":"Bari Centrale","ref":"FM1","from":"Cecilia","name":"FM1 (Cecilia → Bari Centrale)","type":"route","route":"train","colour":"#FF0000","network":"Bari","service":"commuter","operator":"Ferrovie del Nord Barese","wheelchair":"limited"},"2176198":{"to":"Decimomannu","from":"Cagliari","name":"Servizio ferroviario metropolitano: Cagliari → Decimomannu","type":"route","route":"train","network":"Trenitalia","service":"regional","operator":"Trenitalia","wikidata":"Q2274335","passenger":"suburban","network:short":"TI","operator:short":"TI","network:wikidata":"Q286650","operator:wikidata":"Q286650","public_transport:version":"2"},"2176199":{"to":"Cagliari","from":"Decimomannu","name":"Servizio ferroviario metropolitano: Decimomannu → Cagliari","type":"route","route":"train","network":"Trenitalia","service":"regional","operator":"Trenitalia","wikidata":"Q2274335","passenger":"suburban","network:short":"TI","operator:short":"TI","network:wikidata":"Q286650","operator:wikidata":"Q286650","public_transport:version":"2"},"2176340":{"to":"Catanzaro Lido","ref":"Servizio ferroviario suburbano","from":"Catanzaro Città","name":"Servizio ferroviario suburbano (Catanzaro Città → Catanzaro Lido)","type":"route","route":"train","network":"Catanzaro","service":"commuter","operator":"Ferrovie della Calabria","wikidata":"Q124153658"},"2176341":{"to":"Catanzaro Città","ref":"Servizio ferroviario suburbano","from":"Catanzaro Lido","name":"Servizio ferroviario suburbano (Catanzaro Lido → Catanzaro Città)","type":"route","route":"train","network":"Catanzaro","service":"commuter","operator":"Ferrovie della Calabria"},"2179065":{"to":"Napoli Centrale","ref":".italo","from":"Milano Porta Garibaldi","name":".italo (Milano Porta Garibaldi → Napoli Centrale)","type":"route","route":"train","colour":"#a70529","network":"NTV","service":"national","operator":"Nuovo Trasporto Viaggiatori","operator:wikidata":"Q580786","public_transport:version":"2"},"2179066":{"to":"Milano Porta Garibaldi","ref":".italo","from":"Napoli Centrale","name":".italo (Napoli Centrale → Milano Porta Garibaldi)","type":"route","route":"train","colour":"#a70529","network":"NTV","service":"national","operator":"Nuovo Trasporto Viaggiatori","operator:wikidata":"Q580786","public_transport:version":"2"},"2179315":{"to":"Napoli Centrale","ref":"Frecciarossa","from":"Milano Centrale","name":"Frecciarossa (Milano Centrale → Napoli Centrale)","type":"route","route":"train","colour":"red","network":"Trenitalia","service":"national","operator":"Trenitalia","network:short":"TI","operator:short":"TI","network:wikidata":"Q286650","network:wikipedia":"it:Trenitalia","operator:wikidata":"Q286650","operator:wikipedia":"it:Trenitalia","public_transport:version":"2"},"2179316":{"to":"Salerno","ref":"Frecciarossa","from":"Milano Centrale","name":"Frecciarossa (Milano Centrale → Salerno)","type":"route","route":"train","colour":"red","network":"Trenitalia","service":"national","operator":"Trenitalia","network:short":"TI","operator:short":"TI","network:wikidata":"Q286650","network:wikipedia":"it:Trenitalia","operator:wikidata":"Q286650","operator:wikipedia":"it:Trenitalia","public_transport:version":"2"},"2179317":{"to":"Milano Centrale","ref":"Frecciarossa","from":"Napoli Centrale","name":"Frecciarossa (Napoli Centrale → Milano Centrale)","type":"route","route":"train","colour":"red","network":"Trenitalia","service":"national","operator":"Trenitalia","network:short":"TI","operator:short":"TI","network:wikidata":"Q286650","network:wikipedia":"it:Trenitalia","operator:wikidata":"Q286650","operator:wikipedia":"it:Trenitalia","public_transport:version":"2"},"2179318":{"to":"Torino Porta Nuova","ref":"Frecciarossa","from":"Napoli Centrale","name":"Frecciarossa (Napoli Centrale → Torino Porta Nuova)","type":"route","route":"train","colour":"red","network":"Trenitalia","service":"long_distance","operator":"Trenitalia","network:short":"TI","operator:short":"TI","network:wikidata":"Q286650","network:wikipedia":"it:Trenitalia","operator:wikidata":"Q286650","operator:wikipedia":"it:Trenitalia","public_transport:version":"2"},"2179319":{"to":"Milano Centrale","ref":"Frecciarossa","from":"Salerno","name":"Frecciarossa (Salerno → Milano Centrale)","type":"route","route":"train","colour":"red","network":"Trenitalia","service":"national","operator":"Trenitalia","network:short":"TI","operator:short":"TI","network:wikidata":"Q286650","network:wikipedia":"it:Trenitalia","operator:wikidata":"Q286650","operator:wikipedia":"it:Trenitalia","public_transport:version":"2"},"2179320":{"to":"Napoli Centrale","ref":"Frecciarossa","from":"Torino Porta Nuova","name":"Frecciarossa (Torino Porta Nuova → Napoli Centrale)","type":"route","route":"train","colour":"red","network":"Trenitalia","service":"national","operator":"Trenitalia","network:short":"TI","operator:short":"TI","network:wikidata":"Q286650","network:wikipedia":"it:Trenitalia","operator:wikidata":"Q286650","operator:wikipedia":"it:Trenitalia","public_transport:version":"2"},"2189097":{"to":"Sansepolcro","ref":"FCU","from":"Perugia Sant'Anna","name":"FCU (Perugia Sant'Anna => Sansepolcro)","type":"route","route":"train","network":"FCU","service":"regional","operator":"Ferrovia Centrale Umbra","wikidata":"Q3743372","public_transport":"2","public_transport:version":"2"},"2189098":{"to":"Perugia Sant'Anna","ref":"FCU","from":"Sansepolcro","name":"FCU (Sansepolcro => Perugia Sant'Anna)","type":"route","route":"train","network":"FCU","service":"regional","operator":"Ferrovia Centrale Umbra","wikidata":"Q3743372","public_transport:version":"2"},"2189099":{"to":"Perugia Sant'Anna","ref":"FCU","from":"Terni","name":"FCU (Terni => Perugia Sant'Anna)","type":"route","route":"train","network":"FCU","service":"regional","operator":"Ferrovia Centrale Umbra","wikidata":"Q3743372","public_transport:version":"2"},"2197165":{"name":"Ferrovia Maglie – Gagliano del Capo","type":"route","route":"train","service":"regional","operator":"FSE","wikipedia":"it:Ferrovia Maglie-Gagliano del Capo"},"2197542":{"to":"Fiumicino Aeroporto","ref":"FL1","from":"Fara Sabina-Montelibretti","name":"Treno FL1: Fara Sabina-Montelibretti → Fiumicino Aeroporto","type":"route","route":"train","colour":"#007663","network":"Trenitalia","old_ref":"FR1","service":"commuter","operator":"Trenitalia","wikidata":"Q3737286","network:short":"TI","operator:short":"TI","network:wikidata":"Q286650","network:wikipedia":"it:Trenitalia","operator:wikidata":"Q286650","operator:wikipedia":"it:Trenitalia","public_transport:version":"2"},"2197543":{"to":"Fara Sabina-Montelibretti","ref":"FL1","from":"Fiumicino Aeroporto","name":"Treno FL1: Fiumicino Aeroporto → Fara Sabina-Montelibretti","type":"route","route":"train","colour":"#007663","network":"Trenitalia","old_ref":"FR1","service":"commuter","operator":"Trenitalia","wikidata":"Q3737286","network:short":"TI","operator:short":"TI","network:wikidata":"Q286650","network:wikipedia":"it:Trenitalia","operator:wikidata":"Q286650","operator:wikipedia":"it:Trenitalia","public_transport:version":"2"},"2197544":{"to":"Poggio Mirteto","ref":"FL1","from":"Fiumicino Aeroporto","name":"Treno FL1: Fiumicino Aeroporto → Poggio Mirteto","type":"route","route":"train","colour":"#007663","network":"Trenitalia","old_ref":"FR1","service":"commuter","operator":"Trenitalia","wikidata":"Q3737286","network:short":"TI","operator:short":"TI","network:wikidata":"Q286650","network:wikipedia":"it:Trenitalia","operator:wikidata":"Q286650","operator:wikipedia":"it:Trenitalia","public_transport:version":"2"},"2197545":{"to":"Fiumicino Aeroporto","ref":"FL1","from":"Poggio Mirteto","name":"Treno FL1: Poggio Mirteto → Fiumicino Aeroporto","type":"route","route":"train","colour":"#007663","network":"Trenitalia","old_ref":"FR1","service":"commuter","operator":"Trenitalia","wikidata":"Q3737286","network:short":"TI","operator:short":"TI","network:wikidata":"Q286650","network:wikipedia":"it:Trenitalia","operator:wikidata":"Q286650","operator:wikipedia":"it:Trenitalia","public_transport:version":"2"},"2199381":{"ref":"4","name":"Ferrovia Gallipoli-Casarano","type":"route","route":"train","service":"regional","operator":"FSE","wikipedia":"it:Ferrovia Gallipoli-Casarano"},"2199382":{"ref":"3","name":"3 Novoli – Gagliano del Capo","type":"route","route":"train","service":"regional","operator":"FSE","wikipedia":"it:Ferrovia Novoli-Gagliano del Capo"},"2204417":{"to":"Putignano","ref":"1 bis","via":"Casamassima","from":"Bari","name":"1bis Bari - Putignano (via Casamassima)","type":"route","phone":"800 07 9090","route":"train","bicycle":"yes","network":"Ferrovie Del Sud Est e Servizi Automobilistici s.r.l","service":"regional","website":"https://www.fseonline.it/","facebook":"https://www.facebook.com/FerroviedelSudEst/","operator":"FSE","wikidata":"Q3743305","wikipedia":"it:Ferrovia Bari-Casamassima-Putignano","wheelchair":"yes","network:type":"regional"},"2204418":{"to":"Taranto","ref":"1","via":"Conversano","from":"Bari","name":"1 Bari - Martina Franca - Taranto","type":"route","phone":"800 07 9090","route":"train","bicycle":"yes","network":"Ferrovie Del Sud Est e Servizi Automobilistici s.r.l","service":"regional","website":"https://www.fseonline.it/","facebook":"https://www.facebook.com/FerroviedelSudEst/","operator":"Ferrovie Del Sud Est e Servizi Automobilistici s.r.l","wikidata":"Q3743306","passenger":"regional","wikipedia":"it:Ferrovia Bari-Martina Franca-Taranto","wheelchair":"yes","network:type":"regional"},"2215519":{"to":"Genova Piazza Principe","ref":"Frecciabianca","from":"Roma Termini","name":"Frecciabianca (Roma Termini → Genova Piazza Principe)","type":"route","route":"train","network":"Trenitalia","service":"long_distance","operator":"Trenitalia","network:short":"TI","operator:short":"TI","network:wikidata":"Q286650","network:wikipedia":"it:Trenitalia","operator:wikidata":"Q286650","operator:wikipedia":"it:Trenitalia","public_transport:version":"1"},"2216863":{"to":"Roma Termini","ref":"Frecciabianca","from":"Genova Piazza Principe","name":"Frecciabianca (Genova Piazza Principe → Roma Termini)","type":"route","route":"train","network":"Trenitalia","service":"long_distance","operator":"Trenitalia","network:short":"TI","operator:short":"TI","network:wikidata":"Q286650","network:wikipedia":"it:Trenitalia","operator:wikidata":"Q286650","operator:wikipedia":"it:Trenitalia","public_transport:version":"1"},"2225210":{"to":"Roma Tiburtina","ref":"FL2","from":"Avezzano","name":"Treno FL2: Avezzano → Roma Tiburtina","type":"route","route":"train","colour":"#004174","network":"Trenitalia","old_ref":"FR2","service":"commuter","operator":"Trenitalia","wikidata":"Q3737287","network:short":"TI","operator:short":"TI","network:wikidata":"Q286650","network:wikipedia":"it:Trenitalia","operator:wikidata":"Q286650","operator:wikipedia":"it:Trenitalia","public_transport:version":"2"},"2225213":{"to":"Roma Tiburtina","ref":"FL2","from":"Lunghezza","name":"Treno FL2: Lunghezza → Roma Tiburtina","type":"route","route":"train","colour":"#004174","network":"Trenitalia","old_ref":"FR2","service":"commuter","operator":"Trenitalia","wikidata":"Q3737287","network:short":"TI","operator:short":"TI","network:wikidata":"Q286650","network:wikipedia":"it:Trenitalia","operator:wikidata":"Q286650","operator:wikipedia":"it:Trenitalia","public_transport:version":"2"},"2225226":{"to":"Lunghezza","ref":"FL2","from":"Roma Tiburtina","name":"Treno FL2: Roma Tiburtina → Lunghezza","type":"route","route":"train","colour":"#004174","network":"Trenitalia","old_ref":"FR2","service":"commuter","operator":"Trenitalia","wikidata":"Q3737287","network:short":"TI","operator:short":"TI","network:wikidata":"Q286650","network:wikipedia":"it:Trenitalia","operator:wikidata":"Q286650","operator:wikipedia":"it:Trenitalia","public_transport:version":"2"},"2232903":{"to":"Roma Ostiense","ref":".italo","from":"Milano Porta Garibaldi","name":".italo (Milano Porta Garibaldi → Roma Ostiense)","type":"route","route":"train","colour":"#a70529","network":"NTV","service":"national","operator":"Nuovo Trasporto Viaggiatori","operator:wikidata":"Q580786","public_transport:version":"2"},"2232904":{"to":"Milano Porta Garibaldi","ref":".italo","from":"Roma Ostiense","name":".italo (Roma Ostiense → Milano Porta Garibaldi)","type":"route","route":"train","colour":"#a70529","network":"NTV","service":"national","operator":"Nuovo Trasporto Viaggiatori","operator:wikidata":"Q580786","public_transport:version":"2"},"2278200":{"name":"Piacenza-Stradella-Broni-Bressana B.-Pavia-Milano","type":"route","route":"train","service":"regional"},"2313032":{"to":"Asso","ref":"R16","from":"Milano Cadorna","name":"Treno R16: Milano Cadorna => Asso","note":"Alcune corse limitano a Erba, sostituite da bus nella tratta Erba-Asso","type":"route","route":"train","bicycle":"limited","name:en":"Train R16: Milano Cadorna => Asso","name:it":"Treno R16: Milano Cadorna => Asso","service":"regional","by_night":"no","duration":"01:21:00","interval":"01:00:00","operator":"Trenord","wheelchair":"limited","reservation":"no","opening_hours":"Mo-Su 06:00-22:00","interval:conditional":"00:30 @ (Mo-Fr 06:00-08:00, 16:00-21:00)","public_transport:version":"2"},"2332919":{"to":"Milano Centrale","ref":"R28","via":"Saronno","from":"Malpensa Aeroporto Terminal 2","name":"Train R28: Malpensa Aeroporto Terminal 2 => Milano Centrale","type":"route","route":"train","colour":"#8dc63f","service":"regional","toilets":"yes","website":"https://www.trenord.it/","duration":"00:58:00","interval":"01:00:00","operator":"Trenord","passenger":"regional","toilets:wheelchair":"yes","public_transport:version":"2"},"2332939":{"to":"Malpensa Aeroporto Terminal 2","ref":"R28","via":"Saronno","from":"Milano Centrale","name":"Train R28: Milano Centrale => Malpensa Aeroporto Terminal 2","type":"route","route":"train","colour":"#8dc63f","service":"regional","toilets":"yes","website":"https://www.trenord.it/","duration":"00:57:00","interval":"01:00:00","operator":"Trenord","passenger":"regional","toilets:wheelchair":"yes","public_transport:version":"2"},"2337759":{"ref":"+39 0961.896262","name":"Catanzaro Lido-Catanzaro Città","type":"route","route":"train","source":"http://ferroviecalabria.altervista.org/files/orari_tratta/tratta_czlido-czcitta.pdf","operator":"Ferrovie della Calabria","wikidata":"Q124153658","wheelchair":"limited"},"2361942":{"ref":"2","name":"2 Martina Franca-Lecce","type":"route","route":"train","service":"regional","operator":"FSE","wikipedia":"it:Ferrovia Martina Franca-Lecce"},"2366861":{"to":"Laveno Mombello Lago","fee":"yes","ref":"R22","via":"Saronno","from":"Milano Nord Cadorna","name":"Treno R22: Milano Nord Cadorna => Laveno Mombello Lago","type":"route","route":"train","colour":"#8dc63f","name:en":"Train R22: Milano Nord Cadorna => Laveno Mombello Lago","network":"FERROVIENORD","service":"regional","website":"https://www.trenord.it/","duration":"01:44:00","operator":"Trenord","public_transport:version":"2"},"2390075":{"name":"Gioia Tauro-Palmi","type":"route","route":"train","operator":"Ferrovie della Calabria"},"2420061":{"to":"Viterbo Porta Fiorentina","ref":"VT.-ATT.-RM","from":"Roma Termini","name":"Ferrovia Viterbo P.F.- Attigliano","type":"route","route":"train","network":"RFI","service":"regional","operator":"RFI","public_transport:version":"2"},"2527264":{"to":"Terracina","ref":"FL7","from":"Roma Termini","name":"Treno FL7: Roma Termini → Terracina","type":"route","route":"train","colour":"#9acc66","network":"Ferrovie Laziali","old_ref":"FR7","service":"commuter","operator":"Trenitalia","wikidata":"Q661786","network:short":"FL","network:wikidata":"Q1408013","network:wikipedia":"de:Ferrovie Laziali","operator:wikidata":"Q286650","operator:wikipedia":"it:Trenitalia","public_transport:version":"2"},"2527265":{"to":"Roma Termini","ref":"FL7","from":"Terracina","name":"Treno FL7: Terracina → Roma Termini","type":"route","route":"train","colour":"#9acc66","network":"Ferrovie Laziali","old_ref":"FR7","service":"commuter","operator":"Trenitalia","wikidata":"Q661786","network:short":"FL","network:wikidata":"Q1408013","network:wikipedia":"de:Ferrovie Laziali","operator:wikidata":"Q286650","operator:wikipedia":"it:Trenitalia","public_transport:version":"2"},"2578063":{"name":"Linea Firenze-Lucca","type":"route","route":"train","network":"Trenitalia","service":"regional","operator":"Trenitalia","network:short":"TI","operator:short":"TI","network:wikidata":"Q286650","network:wikipedia":"it:Trenitalia","operator:wikidata":"Q286650","operator:wikipedia":"it:Trenitalia","public_transport:version":"2"},"2585275":{"to":"Aosta","ref":"RFI 5","via":"Ivrea","from":"Chivasso","name":"Chivasso-Ivrea-Aosta","type":"route","route":"train","name:fr":"Chivas-Ivrée-Aoste","network":"Trenitalia","service":"regional","operator":"Trenitalia","route_master":"train","network:short":"TI","operator:short":"TI","network:wikidata":"Q286650","network:wikipedia":"it:Trenitalia","operator:wikidata":"Q286650","operator:wikipedia":"it:Trenitalia","public_transport:version":"2"},"2590155":{"to":"Como Nord Lago","ref":"RE7","via":"Saronno","from":"Milano Nord Cadorna","name":"Train RE7: Milano Nord Cadorna => Como Nord Lago","type":"route","route":"train","colour":"#ed1c24","service":"regional","toilets":"yes","website":"https://www.trenord.it/","duration":"00:55:00","operator":"Trenord","passenger":"regional","toilets:wheelchair":"yes","public_transport:version":"2"},"2590156":{"to":"Novara Nord","ref":"R27","via":"Saronno","from":"Milano Nord Cadorna","name":"Train R27: Milano Nord Cadorna => Novara Nord","type":"route","route":"train","colour":"#8dc63f","service":"regional","toilets":"yes","website":"https://www.trenord.it/","duration":"01:02:00","interval":"01:00:00","operator":"Trenord","passenger":"regional","opening_hours":"Mo-Su 06:17-21:49","toilets:wheelchair":"yes","public_transport:version":"2"},"2590900":{"to":"Varese Nord","fee":"yes","ref":"R22","via":"Saronno","from":"Milano Nord Cadorna","name":"Treno R22: Milano Nord Cadorna => Varese Nord","type":"route","route":"train","colour":"#8dc63f","name:en":"Train R22: Milano Nord Cadorna => Varese Nord","name:it":"Treno R22: Milano Nord Cadorna => Varese Nord","network":"FERROVIENORD","service":"regional","website":"https://www.trenord.it/","duration":"01:01:00","operator":"Trenord","public_transport:version":"2"},"2597124":{"to":"Bergamo","ref":"29","from":"Treviglio","name":"Linea Treviglio-Bergamo","type":"route","route":"train","service":"regional","wikipedia":"it:Ferrovia Treviglio-Bergamo","public_transport:version":"2"},"2607485":{"name":"Tirano-Sondrio","type":"route","route":"train","service":"regional","operator":"Trenord","wheelchair":"limited","public_transport:version":"1"},"2609214":{"to":"Chiavenna","ref":"R11","from":"Colico","name":"Treno R11: Colico => Chiavenna","type":"route","route":"train","colour":"#91C84B","bicycle":"yes","name:en":"Train R11: Colico => Chiavenna","name:it":"Treno R11: Colico => Chiavenna","service":"regional","duration":"00:32:00","interval":"01:00:00","operator":"Trenord","reservation":"no","opening_hours":"Mo-Su 06:00-21:30","public_transport:version":"2"},"2609217":{"name":"Lecco-Colico","type":"route","route":"train","operator":"Trenord"},"2610264":{"to":"Rivarolo","ref":"SFM 1","from":"Chieri","name":"SFM 1: Chieri => Rivarolo","type":"route","route":"train","colour":"#FF9700","network":"Trenitalia","service":"commuter","operator":"Trenitalia","wikidata":"Q3832755","passenger":"suburban","network:short":"TI","operator:short":"TI","network:wikidata":"Q286650","operator:wikidata":"Q286650","public_transport:version":"2"},"2610265":{"to":"Rivarolo Canavese","ref":"SFM 1","from":"Pont Canavese","name":"SFM 1 (estensione): Pont => Rivarolo","type":"route","route":"train","colour":"#FF9700","network":"Formula","service":"commuter","operator":"Gruppo Torinese Trasporti","passenger":"suburban","public_transport:version":"2"},"2610266":{"to":"Pont Canavese","ref":"SFM 1","from":"Rivarolo Canavese","name":"SFM 1 (estensione): Rivarolo => Pont","type":"route","route":"train","colour":"#FF9700","network":"Formula","service":"commuter","operator":"Gruppo Torinese Trasporti","passenger":"suburban","public_transport:version":"2"},"2610268":{"to":"Torino Porta Nuova","ref":"SFM3","from":"Bardonecchia","name":"SFM3: Bardonecchia - Torino Porta Nuova","type":"route","route":"train","colour":"#82BF40","network":"Trenitalia","service":"commuter","operator":"Trenitalia","wikidata":"Q3832756","network:short":"TI","operator:short":"TI","network:wikidata":"Q286650","operator:wikidata":"Q286650","public_transport:version":"1"},"2610269":{"to":"Bardonecchia","ref":"SFM3","from":"Torino Porta Nuova","name":"SFM3: Torino Porta Nuova - Bardonecchia","type":"route","route":"train","colour":"#82BF40","network":"Trenitalia","service":"commuter","operator":"Trenitalia","wikidata":"Q3832756","direction":"0","network:short":"TI","operator:short":"TI","network:wikidata":"Q286650","operator:wikidata":"Q286650"},"2610270":{"to":"Ciriè","ref":"SFM 4","from":"Alba","name":"SFM 4: Alba => Ciriè","type":"route","route":"train","colour":"#FF0000","network":"Formula","service":"commuter","operator":"Trenitalia","wikidata":"Q3832758","passenger":"suburban","operator:short":"TI","network:wikidata":"Q893197","network:wikipedia":"it:Servizio_ferroviario_metropolitano_di_Torino","operator:wikidata":"Q286650","operator:wikipedia":"it:Trenitalia","not:network:wikidata":"Q286650","public_transport:version":"2"},"2610271":{"to":"Alba","ref":"SFM 4","from":"Ciriè","name":"SFM 4: Ciriè => Alba","type":"route","route":"train","colour":"#FF0000","network":"Formula","service":"commuter","operator":"Trenitalia","wikidata":"Q3832758","passenger":"suburban","operator:short":"TI","network:wikidata":"Q893197","network:wikipedia":"it:Servizio_ferroviario_metropolitano_di_Torino","operator:wikidata":"Q286650","operator:wikipedia":"it:Trenitalia","not:network:wikidata":"Q286650","public_transport:version":"2"},"2611148":{"to":"Frosinone","ref":"FL6","from":"Roma Termini","name":"FR6 (Roma Termini → Frosinone)","type":"route","route":"train","colour":"#d880b4","network":"Trenitalia","old_ref":"FR6","service":"light_rail","operator":"Trenitalia","network:short":"TI","operator:short":"TI","network:wikidata":"Q286650","network:wikipedia":"it:Trenitalia","operator:wikidata":"Q286650","operator:wikipedia":"it:Trenitalia"},"2611150":{"to":"Colleferro - Segni - Paliano","ref":"21989","from":"Roma Tuscolana","name":"Regionale 21989 (Roma Tuscolana → Colleferro - Segni - Paliano)","type":"route","route":"train","colour":"#d880b4","network":"Trenitalia","note:it":"ATTENZIONE! Nell'orario ufficiale Trenitalia è indicato come in partenza da Roma Termini.","operator":"Trenitalia","network:short":"TI","operator:short":"TI","network:wikidata":"Q286650","network:wikipedia":"it:Trenitalia","operator:wikidata":"Q286650","operator:wikipedia":"it:Trenitalia"},"2611227":{"to":"Roma Tiburtina","ref":"34372","from":"Cassino","name":"Treno: Regionale Veloce 34372 Cassino → Roma Tiburtina","type":"route","route":"train","colour":"#d880b4","network":"Trenitalia","service":"regional","operator":"Trenitalia","network:short":"TI","operator:short":"TI","network:wikidata":"Q286650","network:wikipedia":"it:Trenitalia","operator:wikidata":"Q286650","operator:wikipedia":"it:Trenitalia","public_transport:version":"platform"},"2612755":{"to":"Modena","from":"Sassuolo","name":"Linea FER: Sassuolo => Modena","type":"route","route":"train","network":"local","service":"regional","website":"http://www.fer-online.it/","operator":"FER","route:conditional":"no@(Su 00:00 - 24:00)"},"2613237":{"to":"Roma Termini","ref":"FL6","from":"Frosinone","name":"FR6 (Frosinone → Roma Termini)","type":"route","route":"train","colour":"#d880b4","network":"Trenitalia","old_ref":"FR6","service":"light_rail","operator":"Trenitalia","network:short":"TI","operator:short":"TI","network:wikidata":"Q286650","network:wikipedia":"it:Trenitalia","operator:wikidata":"Q286650","operator:wikipedia":"it:Trenitalia"},"2613455":{"to":"Sassuolo","ref":"25101;25103;25105;25107;25111;25113;25115;25117;25119;25121;25125;25127","from":"Modena","name":"Linea FER: Modena => Sassuolo","type":"route","route":"train","network":"local","service":"regional","website":"http://www.fer-online.it/","operator":"FER","route:conditional":"no@(Su 00:00 - 24:00); yes@(06:30; 07:30; 08:30; 09:35; 11:35; 12:35; 13:35; 14:35; 15:35; 16:35; 18:35; 19:35)"},"2614427":{"to":"Sassuolo","ref":"103;25133;25135;25139;25141;25143;25145;25147","from":"Modena","name":"Linea FER: Modena => Sassuolo","type":"route","route":"train","network":"local","service":"regional","website":"http://www.fer-online.it/","operator":"FER","route:conditional":"no@(Su 00:00 - 24:00); yes@(06:00; 07:00; 08:00; 12:05; 13:05; 14:05; 17:05; 18:05)"},"2614428":{"to":"Sassuolo","ref":"101","from":"Modena","name":"Linea FER: Modena piazzale Manzoni => Sassuolo","type":"route","route":"train","network":"local","service":"regional","website":"http://www.fer-online.it/","operator":"FER","route:conditional":"no@(Su 00:00 - 24:00); yes@(05:38)"},"2621424":{"to":"Torino Porta Nuova","ref":"110","from":"Cuneo","name":"(RV) Cuneo-Torino","type":"route","route":"train","network":"Trenitalia","service":"regional","operator":"Trenitalia","network:short":"TI","operator:short":"TI","network:wikidata":"Q286650","operator:wikidata":"Q286650","public_transport:version":"1"},"2621425":{"to":"Cuneo","ref":"110","from":"Torino Porta Nuova","name":"(RV) Torino-Cuneo","type":"route","route":"train","network":"Trenitalia","service":"regional","operator":"Trenitalia","network:short":"TI","operator:short":"TI","network:wikidata":"Q286650","operator:wikidata":"Q286650","public_transport:version":"1"},"2621426":{"to":"Germagnano","ref":"SFMA","from":"Ceres","name":"SFMA: Ceres - Germagnano","type":"route","route":"train","colour":"#0065FF","network":"Formula","service":"commuter","operator":"Gruppo Torinese Trasporti","public_transport:version":"1"},"2621427":{"to":"Ceres","ref":"SFMA","from":"Germagnano","name":"SFMA: Germagnano - Ceres","type":"route","route":"train","colour":"#0065FF","network":"Formula","service":"commuter","operator":"Gruppo Torinese Trasporti","public_transport:version":"1"},"2622307":{"to":"Ventimiglia","ref":"109","from":"Cuneo","name":"(R) Cuneo-Ventimiglia","type":"route","route":"train","network":"Trenitalia","service":"regional","operator":"Trenitalia","wikidata":"Q1642691","wikipedia":"it:Ferrovia Cuneo-Limone-Ventimiglia","network:short":"TI","operator:short":"TI","network:wikidata":"Q286650","operator:wikidata":"Q286650","public_transport:version":"1"},"2622308":{"to":"Limone Piemonte","ref":"110","from":"Fossano","name":"(R) Fossano-Limone Piemonte","type":"route","route":"train","network":"Trenitalia","service":"regional","operator":"Trenitalia","network:short":"TI","operator:short":"TI","network:wikidata":"Q286650","operator:wikidata":"Q286650","public_transport:version":"1"},"2622309":{"to":"Ciriè","ref":"SFM7","from":"Fossano","name":"SFM 7: Fossano => Ciriè","type":"route","route":"train","network":"Formula","service":"commuter","operator":"Trenitalia","wikidata":"Q15077685","passenger":"suburban","opening_hours":"Mo-Sa","operator:short":"TI","network:wikidata":"Q893197","network:wikipedia":"it:Servizio_ferroviario_metropolitano_di_Torino","operator:wikidata":"Q286650","operator:wikipedia":"it:Trenitalia","not:network:wikidata":"Q286650","public_transport:version":"2"},"2622310":{"to":"Fossano","ref":"110","from":"Limone Piemonte","name":"(R) Limone Piemonte-Fossano","type":"route","route":"train","network":"Trenitalia","service":"regional","operator":"Trenitalia","network:short":"TI","operator:short":"TI","network:wikidata":"Q286650","operator:wikidata":"Q286650","public_transport:version":"1"},"2622311":{"to":"Fossano","ref":"SFM7","from":"Ciriè","name":"SFM 7: Ciriè => Fossano","type":"route","route":"train","network":"Formula","service":"commuter","operator":"Trenitalia","passenger":"suburban","wikipedia":"it:Servizio ferroviario metropolitano di Torino#Linea 7","opening_hours":"Mo-Su 05:01-22:08","operator:short":"TI","network:wikidata":"Q893197","network:wikipedia":"it:Servizio_ferroviario_metropolitano_di_Torino","operator:wikidata":"Q286650","not:network:wikidata":"Q286650","public_transport:version":"2"},"2622312":{"to":"Cuneo","ref":"109","from":"Ventimiglia","name":"(R) Ventimiglia-Cuneo","type":"route","route":"train","network":"Trenitalia","service":"regional","operator":"Trenitalia","wikidata":"Q15974579","wikipedia":"it:Ferrovia Cuneo-Limone-Ventimiglia","network:short":"TI","operator:short":"TI","network:wikidata":"Q286650","operator:wikidata":"Q286650","public_transport:version":"1"},"2622313":{"to":"Torino Porta Nuova","ref":"110","from":"Savona","name":"(RV) Savona-Torino","type":"route","route":"train","network":"Trenitalia","service":"regional","operator":"Trenitalia","network:short":"TI","operator:short":"TI","network:wikidata":"Q286650","network:wikipedia":"it:Trenitalia","operator:wikidata":"Q286650","operator:wikipedia":"it:Trenitalia","public_transport:version":"1"},"2622314":{"to":"Savona","ref":"110","from":"Torino Porta Nuova","name":"(RV) Torino-Savona","type":"route","route":"train","network":"Trenitalia","service":"regional","operator":"Trenitalia","network:short":"TI","operator:short":"TI","network:wikidata":"Q286650","network:wikipedia":"it:Trenitalia","operator:wikidata":"Q286650","operator:wikipedia":"it:Trenitalia","public_transport:version":"1"},"2622466":{"to":"San Giuseppe di Cairo","ref":"110","from":"Fossano","name":"(R) Fossano-San Giuseppe di Cairo","type":"route","route":"train","network":"Trenitalia","service":"regional","operator":"Trenitalia","direction":"San Giuseppe di Cairo","network:short":"TI","operator:short":"TI","network:wikidata":"Q286650","operator:wikidata":"Q286650"},"2622467":{"to":"Fossano","ref":"110","from":"San Giuseppe di Cairo","name":"(R) San Giuseppe di Cairo-Fossano","type":"route","route":"train","network":"Trenitalia","service":"regional","operator":"Trenitalia","direction":"Fossano","network:short":"TI","operator:short":"TI","network:wikidata":"Q286650","operator:wikidata":"Q286650"},"2623914":{"to":"Chivasso","from":"Casale Monferrato","name":"(R) Casale Monferrato-Chivasso","type":"route","route":"train","network":"Trenitalia","service":"regional","operator":"Trenitalia","network:short":"TI","operator:short":"TI","network:wikidata":"Q286650","operator:wikidata":"Q286650","public_transport:version":"2"},"2623915":{"to":"Casale Monferrato","from":"Chivasso","name":"(R) Chivasso-Casale Monferrato","type":"route","route":"train","network":"Trenitalia","service":"regional","operator":"Trenitalia","network:short":"TI","operator:short":"TI","network:wikidata":"Q286650","operator:wikidata":"Q286650","public_transport:version":"2"},"2635928":{"to":"Milano Cadorna","ref":"R16","from":"Asso","name":"Treno R16: Asso => Milano Cadorna","note":"Alcune corse originano a Erba, sostituite da bus nella tratta Asso-Erba","type":"route","route":"train","bicycle":"limited","name:en":"Train R16: Asso => Milano Cadorna","name:it":"Treno R16: Asso => Milano Cadorna","service":"regional","by_night":"no","duration":"01:20:00","interval":"01:00:00","operator":"Trenord","wheelchair":"limited","reservation":"no","opening_hours":"Mo-Su 06:00-22:00","interval:conditional":"00:30 @ (Mo-Fr 06:00-08:00, 16:00-21:00)","public_transport:version":"2"},"2812425":{"to":"Viterbo Porta Fiorentina","ref":"FL3","from":"Roma Ostiense","name":"FL3 (Roma Ostiense => Viterbo Porta Fiorentina)","type":"route","route":"train","colour":"#88aca0","network":"Trenitalia","old_ref":"FR3","service":"light_rail","operator":"Trenitalia","wikidata":"Q3737289","network:short":"TI","operator:short":"TI","network:wikidata":"Q286650","network:wikipedia":"it:Trenitalia","operator:wikidata":"Q286650","operator:wikipedia":"it:Trenitalia","public_transport:version":"2"},"2812426":{"to":"Roma Ostiense","ref":"FL3","from":"Viterbo Porta Fiorentina","name":"FL3 (Viterbo Porta Fiorentina => Roma Ostiense)","type":"route","route":"train","colour":"#88aca0","network":"Trenitalia","old_ref":"FR3","service":"light_rail","operator":"Trenitalia","wikidata":"Q3737289","network:short":"TI","operator:short":"TI","network:wikidata":"Q286650","network:wikipedia":"it:Trenitalia","operator:wikidata":"Q286650","operator:wikipedia":"it:Trenitalia","public_transport:version":"2"},"2915093":{"name":"Funicolare Vellone-Sacro Monte","type":"route","route":"train","usage":"tourism","network":"CTPI","railway":"funicular","service":"tourism","operator":"AVT","wikidata":"Q3754428","wikipedia":"it:Funicolare Vellone-Sacro Monte"},"3152297":{"to":"Viareggio","from":"Lucca","name":"Lucca - Viareggio","type":"route","route":"train","service":"regional","operator":"RFI"},"3152298":{"to":"Pisa Centrale","from":"Lucca","name":"Ferrovia Lucca - Pisa","type":"route","route":"train","service":"regional","operator":"RFI","wikidata":"Q638753","wikipedia":"it:Ferrovia Lucca-Pisa"},"3158710":{"to":"Barletta Centrale","ref":"FR1","from":"Bari Centrale","name":"FR1 (Bari Centrale → Barletta Centrale)","type":"route","route":"train","colour":"blue","network":"Bari","service":"regional","operator":"Ferrovie del Nord Barese","wheelchair":"limited"},"3158711":{"to":"Bari Centrale","ref":"FR1","from":"Barletta Centrale","name":"FR1 (Barletta Centrale → Bari Centrale)","type":"route","route":"train","colour":"blue","network":"Bari","service":"regional","operator":"Ferrovie del Nord Barese","wheelchair":"limited"},"3158714":{"to":"Barletta Centrale","ref":"FR2","from":"Bari Centrale","name":"FR2 (Bari Centrale → Barletta Centrale)","type":"route","route":"train","colour":"blue","network":"Bari","service":"regional","operator":"Ferrovie del Nord Barese","wheelchair":"limited"},"3158715":{"to":"Bari Centrale","ref":"FR2","from":"Barletta Centrale","name":"FR2 (Barletta Centrale → Bari Centrale)","type":"route","route":"train","colour":"blue","network":"Bari","service":"regional","operator":"Ferrovie del Nord Barese","wheelchair":"limited"},"3241720":{"to":"Reggio San Lazzaro","ref":"Reggio Emilia - Guastalla","from":"Guastalla","name":"Treno: Guastalla - Reggio San Lazzaro","type":"route","gauge":"1435","route":"train","network":"FER","service":"regional","maxspeed":"70","operator":"Trenitalia Tper Scarl","wikidata":"Q3743582","wikipedia":"it:Ferrovia Reggio Emilia-Guastalla","public_transport:version":"2"},"3297009":{"to":"Villach Hbf","ref":"REX","from":"Udine","name":"REX Villach MICOTRA","type":"route","route":"train","network":"ÖBB","service":"regional","operator":"ÖBB","public_transport:version":"2"},"3579366":{"to":"Roma Tiburtina","ref":"FL3","from":"Cesano di Roma","name":"Treno FL3: Cesano di Roma → Roma Tiburtina","type":"route","route":"train","colour":"#88aca0","network":"Trenitalia","old_ref":"FR3","operator":"Trenitalia","wikidata":"Q3737289","network:short":"TI","operator:short":"TI","network:wikidata":"Q286650","network:wikipedia":"it:Trenitalia","operator:wikidata":"Q286650","operator:wikipedia":"it:Trenitalia","public_transport:version":"2"},"3654989":{"to":"München Hbf","ref":"EC 82","from":"Bologna Centrale","name":"EC 82: Bologna => München","type":"route","route":"train","network":"DB InterCity;EuroCity;ÖBB","service":"long_distance","operator":"DB Fernverkehr AG;ÖBB","public_transport:version":"2"},"3691140":{"to":"Lienz","ref":"S2","from":"San Candido/Innichen","name":"S2 San Candido/Innichen → Lienz","type":"route","route":"train","name:de":"S2 Innichen → Lienz","name:it":"S2 San Candido → Lienz","network":"Verkehrsverbund Tirol","service":"commuter","operator":"ÖBB-Personenverkehr AG","network:short":"VVT","network:wikidata":"Q1668732","subject:wikidata":"Q680235","network:wikipedia":"de:Verkehrsverbund Tirol","subject:wikipedia":"de:S-Bahn Tirol","public_transport:version":"2"},"4144352":{"to":"San Giovanni in Fiore","from":"Pedace","name":"Ferrovia dismessa Pedace-San Giovanni in Fiore","type":"route","gauge":"950","route":"train","source":"https://www.ferrovieabbandonate.it/linea_dismessa.php?id=82","network":"regional","distance":"67.084","operator":"Ferrovie della Calabria","roundtrip":"no","disused:railway":"rail","public_transport:version":"1"},"4277114":{"to":"Torino Stura","ref":"SFM 6","from":"Asti","name":"SFM 6: Asti => Torino Stura","type":"route","route":"train","colour":"#8b231d","network":"Trenitalia","service":"commuter","operator":"Trenitalia","wikidata":"Q15077697","passenger":"suburban","network:short":"TI","operator:short":"TI","network:wikidata":"Q286650","network:wikipedia":"it:Trenitalia","operator:wikidata":"Q286650","operator:wikipedia":"it:Trenitalia","public_transport:version":"2"},"4282833":{"to":"Asti","ref":"SFM 6","from":"Torino Stura","name":"SFM 6: Torino Stura => Asti","type":"route","route":"train","colour":"#8b231d","network":"Trenitalia","service":"commuter","operator":"Trenitalia","wikidata":"Q15077697","passenger":"suburban","network:short":"TI","operator:short":"TI","network:wikidata":"Q286650","operator:wikidata":"Q286650","public_transport:version":"1"},"5617244":{"to":"Spinazzola","from":"Barletta","name":"Ferrovia Barletta-Spinazzola","type":"route","route":"train","service":"regional","public_transport:version":"2"},"5641675":{"to":"Gallipoli","ref":"5","from":"Lecce","name":"Linea 5: Lecce - Gallipoli","type":"route","route":"train","network":"FSE","service":"regional","operator":"FSE"},"5642497":{"to":"Sassuolo Radici","ref":"Reggio Emilia - Sassuolo","from":"Reggio Emilia","name":"Treno: Reggio Emilia - Sassuolo Radici","type":"route","route":"train","network":"FER","service":"regional","operator":"Trenitalia Tper Scarl","operator:wikidata":"Q1077360","public_transport:version":"2"},"5642740":{"to":"Bologna Centrale","ref":"S1A","from":"Porretta Terme","name":"S1A (Bologna Centrale)","type":"route","route":"train","colour":"#ED1D24","network":"RFI","service":"commuter","operator":"Trenitalia Tper","wikidata":"Q56692645","operator:wikidata":"Q80562365","public_transport:version":"2"},"5642741":{"to":"Porretta Terme","ref":"S1A","from":"Bologna Centrale","name":"S1A (Porretta Terme)","type":"route","route":"train","colour":"#ed1d24","network":"RFI","service":"commuter","operator":"Trenitalia-Tper","wikidata":"Q56692645","public_transport:version":"2"},"5643070":{"ref":"FL 205","name":"Reggio Emilia - Ciano d'Enza","type":"route","gauge":"1435","route":"train","service":"regional","maxspeed":"70","operator":"Ferrovie Emilia Romagna","wikidata":"Q3743580","operator:wikidata":"Q1077360"},"5648214":{"to":"Bologna Centrale","ref":"S1B","from":"San Benedetto Sambro - Castiglione Pepoli","name":"S1B (Bologna Centrale)","type":"route","route":"train","colour":"#a02225","network":"RFI","service":"commuter","operator":"Trenitalia-Tper","wikidata":"Q56692647","public_transport:version":"2"},"5648215":{"to":"San Benedetto Sambro - Castiglione Pepoli","ref":"S1B","from":"Bologna Centrale","name":"S1B (San Benedetto Sambro - Castiglione Pepoli)","type":"route","route":"train","colour":"#a02225","network":"RFI","service":"commuter","operator":"Trenitalia-Tper","wikidata":"Q56692647","public_transport:version":"2"},"5648241":{"to":"Bologna Centrale","ref":"S2A","from":"Vignola","name":"S2A (Bologna Centrale)","type":"route","route":"train","colour":"#bed747","network":"FER","service":"commuter","operator":"Trenitalia-Tper","wikidata":"Q56692650","public_transport:version":"2"},"5648242":{"to":"Vignola","ref":"S2A","from":"Bologna Centrale","name":"S2A (Vignola)","type":"route","route":"train","colour":"#bed747","network":"FER","service":"commuter","operator":"Trenitalia-Tper","wikidata":"Q56692650","public_transport:version":"2"},"5648273":{"to":"Bologna Centrale","ref":"S2B","from":"Portomaggiore","name":"S2B (Bologna Centrale)","type":"route","route":"train","colour":"#73a534","network":"FER","service":"commuter","operator":"Trenitalia-Tper","wikidata":"Q56692652","public_transport:version":"2"},"5648274":{"to":"Portomaggiore","ref":"S2B","from":"Bologna Centrale","name":"S2B (Portomaggiore)","type":"route","route":"train","colour":"#73a534","network":"FER","service":"commuter","operator":"Trenitalia-Tper","wikidata":"Q56692652","public_transport:version":"2"},"5648347":{"to":"Bologna Centrale","ref":"S3","from":"Poggio Rusco","name":"S3 (Bologna Centrale)","type":"route","route":"train","colour":"#a50575","network":"RFI","service":"commuter","operator":"Trenitalia-Tper","wikidata":"Q56692654","public_transport:version":"2"},"5648348":{"to":"Poggio Rusco","ref":"S3","from":"Bologna Centrale","name":"S3 (Poggio Rusco)","type":"route","route":"train","colour":"#a50575","network":"RFI","service":"commuter","operator":"Trenitalia-Tper","wikidata":"Q56692654","public_transport:version":"2"},"5648360":{"to":"Bologna Centrale","ref":"S4A","from":"Ferrara","name":"S4A (Ferrara > Bologna Centrale)","type":"route","route":"train","colour":"#0066b3","network":"RFI","service":"commuter","operator":"Trenitalia-Tper","wikidata":"Q56692656","public_transport:version":"2"},"5648361":{"to":"Ferrara","ref":"S4A","from":"Bologna Centrale","name":"S4A (Bologna Centrale > Ferrara)","type":"route","route":"train","colour":"#0066b3","network":"RFI","service":"commuter","operator":"Trenitalia-Tper","wikidata":"Q56692656","public_transport:version":"2"},"5648385":{"to":"Bologna Centrale","ref":"S4B","from":"Imola","name":"S4B (Imola > Bologna Centrale)","type":"route","route":"train","colour":"#2a2a86","network":"RFI","service":"commuter","operator":"Trenitalia-Tper","wikidata":"Q56692658","public_transport:version":"2"},"5648386":{"to":"Imola","ref":"S4B","from":"Bologna Centrale","name":"S4B (Bologna Centrale > Imola)","type":"route","route":"train","colour":"#2a2a86","network":"RFI","service":"commuter","operator":"Trenitalia-Tper","wikidata":"Q56692658","public_transport:version":"2"},"5648391":{"to":"Bologna Centrale","ref":"S5","from":"Modena","name":"S5 (Bologna Centrale)","type":"route","route":"train","colour":"#fdc214","network":"RFI","service":"commuter","operator":"Trenitalia-Tper","wikidata":"Q56692659","public_transport:version":"2"},"5648392":{"to":"Modena","ref":"S5","from":"Bologna Centrale","name":"S5 (Modena)","type":"route","route":"train","colour":"#fdc214","network":"RFI","service":"commuter","operator":"Trenitalia-Tper","wikidata":"Q56692659","public_transport:version":"2"},"5662935":{"to":"San Gottardo","ref":"ARST","from":"Isili","name":"ARST (San Gottardo)","type":"route","route":"train","service":"light_rail","operator":"ARST","public_transport:version":"1"},"5662967":{"to":"Sassari","ref":"ARST","from":"Alghero","name":"ARST (Sassari)","type":"route","route":"train","service":"light_rail","operator":"ARST"},"5663741":{"to":"Macomer","ref":"ARST","from":"Nuoro","name":"ARST (Macomer)","type":"route","route":"train","service":"regional","operator":"ARST"},"5663742":{"to":"Nuoro","ref":"ARST","from":"Macomer","name":"ARST (Nuoro)","type":"route","route":"train","service":"regional","operator":"ARST"},"5663766":{"to":"Sassari","ref":"ARST","from":"Sorso","name":"ARST (Sassari)","type":"route","route":"train","service":"regional","operator":"ARST"},"5663767":{"to":"Sorso","ref":"ARST","from":"Sassari","name":"ARST (Sorso)","type":"route","route":"train","service":"light_rail","operator":"ARST"},"5920901":{"to":"Trieste Centrale","ref":"52","via":"Cervignano Aquileia Grado","from":"Venezia Santa Lucia","name":"RV Venezia -> Trieste","type":"route","route":"train","name:it":"RV Venezia -> Trieste","name:sl":"RV Benetke -> Trst","network":"Trenitalia","service":"regional","operator":"Trenitalia","network:short":"TI","operator:short":"TI","network:wikidata":"Q286650","network:wikipedia":"it:Trenitalia","operator:wikidata":"Q286650","operator:wikipedia":"it:Trenitalia"},"6029828":{"to":"Milano Nord Cadorna","ref":"RE7","via":"Saronno","from":"Como Nord Lago","name":"Train RE7: Como Nord Lago => Milano Nord Cadorna","type":"route","route":"train","colour":"#ed1c24","service":"regional","toilets":"yes","website":"https://www.trenord.it/","duration":"00:55:00","operator":"Trenord","passenger":"regional","toilets:wheelchair":"yes","public_transport:version":"2"},"6313648":{"to":"Belluno","ref":"R225","from":"Conegliano","name":"R Conegliano -> Belluno","type":"route","route":"train","network":"Trenitalia","service":"regional","duration":"00:53","operator":"Trenitalia","wheelchair":"limited","network:short":"TI","opening_hours":"Mo-Su 05:00-22:00","operator:short":"TI","network:wikidata":"Q286650","network:wikipedia":"it:Trenitalia","operator:wikidata":"Q286650","operator:wikipedia":"it:Trenitalia"},"6317459":{"ref":"R","name":"Villa Opicina - Ljubjana","type":"route","route":"train","name:de":"Optschinach - Laibach","name:sl":"Villa Opicina - Ljubjana","service":"regional"},"6320584":{"ref":"R","name":"R Mantova - Verona","type":"route","route":"train","service":"regional"},"6320716":{"to":"Siena","ref":"R","via":"Badesse;Castellina Scalo;Poggibonsi-San Gimignano;Barberino Val d'Elsa;Certaldo;Castelfiorentino;Cambiano;Granaiolo;Ponte a Elsa","from":"Empoli","name":"Treno Regionale Empoli => Siena","type":"route","route":"train","service":"regional","operator":"RFI","public_transport:version":"2"},"6320852":{"to":"Grosseto","ref":"R","via":"Ponte a Tressa;Monteroni d'Arbia;Buonconvento;Murlo;Monte Antico;Civitella Paganico","from":"Siena","name":"Ferrovia Siena-Grosseto","type":"route","route":"train","service":"regional","wikidata":"Q3743625","wikipedia":"en:Siena–Grosseto railway","short_name":"Siena-Grosseto"},"6320853":{"to":"Chiusi","ref":"R","via":"Arbia;Castelnuovo Berardenga;Asciano-Monte Oliveto Maggiore;Asciano;Serre di Rapolano;Rapolano Terme;Rigomagno;Sinalunga;Torrita di Siena;Montepulciano Stazione;Montallese","from":"Siena","name":"Ferrovia Siena-Chiusi-Chianciano Terme","type":"route","route":"train","service":"regional","wikidata":"Q29558146","short_name":"Siena-Chiusi","public_transport:version":"2"},"6332675":{"to":"Firenze Santa Maria Novella","ref":"R","via":"Borgo San Lorenzo","from":"Faenza","name":"Treno R: Faenza => Firenze Santa Maria Novella","type":"route","route":"train","bicycle":"limited","service":"regional","by_night":"no","duration":"02:00","operator":"RFI","couchette":"no","passenger":"regional","wheelchair":"yes","sleeping_car":"no","public_transport:version":"2"},"6332762":{"to":"Lavezzola","ref":"R","from":"Faenza","name":"Treno R: Faenza => Lavezzola","type":"route","route":"train","service":"regional","by_night":"no","duration":"00:50","operator":"RFI","couchette":"no","passenger":"local","sleeping_car":"no","public_transport:version":"2"},"6333346":{"ref":"R","name":"Lucca - Aulla","type":"route","route":"train","service":"regional"},"6333443":{"to":"Piombino Marittima","ref":"R","from":"Campiglia Marittima","name":"train: Campiglia Marittima => Piombino Marittima","type":"route","route":"train","network":"regional","service":"regional","public_transport:version":"2"},"6333488":{"to":"Portogruaro - Caorle","ref":"R220","from":"Treviso Centrale","name":"R Treviso -> Portogruaro","type":"route","route":"train","network":"Trenitalia","service":"regional","operator":"Trenitalia","route_master":"train","network:short":"TI","operator:short":"TI","network:wikidata":"Q286650","network:wikipedia":"it:Trenitalia","operator:wikidata":"Q286650","operator:wikipedia":"it:Trenitalia"},"6334360":{"name":"GTS - Terminal Bari","type":"route","route":"train","network":"GTS"},"6334362":{"name":"Bari Lamasinata - Bari Centrale (indipendente)","type":"route","route":"train","network":"RFI","service":"commuter"},"6334443":{"to":"Bitritto","from":"Bari Centrale","name":"FM3 - Ferrovia Metropolitana Bari → Bitritto","type":"route","route":"train","network":"RFI","service":"commuter","operator":"FT","public_transport:version":"2"},"6335261":{"to":"Udine","ref":"R","from":"Monfalcone","name":"Monfalcone - Udine","type":"route","route":"train","service":"regional","public_transport:version":"2"},"6417484":{"to":"Roma Ostiense","ref":"FL3","from":"Vigna Clara","name":"FL3 (Vigna Clara => Roma Ostiense)","type":"route","route":"train","state":"proposed","colour":"#88aca0","network":"Trenitalia","old_ref":"FR3","service":"commuter","operator":"Trenitalia","network:short":"TI","operator:short":"TI","network:wikidata":"Q286650","network:wikipedia":"it:Trenitalia","operator:wikidata":"Q286650","operator:wikipedia":"it:Trenitalia","public_transport:version":"2"},"6521996":{"ref":"R","name":"Campobasso - Rocca d'Evandro/ Vairano","type":"route","route":"train","service":"regional"},"6601760":{"to":"Bozzolo","ref":"R40","from":"Cremona","name":"Train R40: Cremona => Mantova","note":"Linea chiusa tra Bozzolo e Mantova per lavori","type":"route","route":"train","source":"https://www.trenord.it/raddoppio-bozzolo-mantova/","name:it":"Treno R40: Cremona => Mantova","network":"Servizio ferroviario regionale della Lombardia","service":"regional","duration":"01:10:00","operator":"Trenord","passenger":"regional","wheelchair":"no","public_transport:version":"2"},"6628099":{"ref":"R","name":"Pistoia - Porretta Terme","type":"route","route":"train","service":"regional"},"6628136":{"to":"Cremona","ref":"R39","from":"Codogno","name":"Train R39: Codogno => Cremona","type":"route","route":"train","name:it":"Treno R39: Cogodno => Cremona","network":"Servizio ferroviario regionale della Lombardia","service":"regional","duration":"00:36:00","operator":"Trenord","passenger":"regional","wheelchair":"no","public_transport:version":"2"},"6640576":{"ref":"R","name":"Fidenza - Solsomaggiore Terme","type":"route","route":"train","service":"regional"},"6640577":{"ref":"R","name":"Cremona - Piacenza / Fidenza","type":"route","route":"train","service":"regional"},"6655034":{"ref":"R","name":"Torino - Alessandria","type":"route","route":"train","service":"regional"},"7088804":{"to":"Maglie","ref":"7","from":"Otranto","name":"7 Maglie","type":"route","route":"train","service":"regional","operator":"FSE"},"7088805":{"to":"Otranto","ref":"7","from":"Maglie","name":"7 Otranto","type":"route","route":"train","service":"regional","operator":"FSE"},"7174078":{"to":"L'Aquila","ref":"R","via":"Rieti","from":"Terni","name":"Terni - L'Aquila","type":"route","route":"train","access":"yes","service":"regional"},"7174079":{"to":"Terni","ref":"R","via":"Rieti","from":"L'Aquila","name":"L'Aquila - Terni","type":"route","route":"train","access":"yes","service":"regional"},"7270279":{"ref":"R38","name":"R38 (Piacenza → Milano Greco Pirelli)","type":"route","route":"train","network":"Servizio ferroviario regionale della Lombardia","operator":"Trenord"},"7270280":{"ref":"R38","name":"R38 (Milano Greco Pirelli → Piacenza)","type":"route","route":"train","network":"Servizio ferroviario regionale della Lombardia","operator":"Trenord"},"7270318":{"to":"Codogno","ref":"R39","from":"Cremona","name":"Train R39: Cremona => Codogno","type":"route","route":"train","name:it":"Treno R39: Cremona => Codogno","network":"Servizio ferroviario regionale della Lombardia","service":"regional","website":"https://www.trenord.it/","duration":"00:34:00","operator":"Trenord","passenger":"regional","wheelchair":"no","public_transport:version":"2"},"7270319":{"to":"Bozzolo","ref":"RE11","via":"Codogno","from":"Milano Centrale","name":"Train RE11: Milano Centrale => Mantova","note":"Linea chiusa tra Bozzolo e Mantova per lavori","type":"route","route":"train","source":"https://www.trenord.it/raddoppio-bozzolo-mantova/","bicycle":"yes","name:it":"Treno RE11: Milano Centrale => Mantova","network":"Servizio ferroviario regionale della Lombardia","service":"regional","toilets":"yes","duration":"1:58","interval":"02:00","operator":"Trenord","passenger":"regional","opening_hours":"Mo-Su 06:20-22:18","toilets:wheelchair":"no","public_transport:version":"2"},"7270320":{"to":"Milano Centrale","ref":"RE11","via":"Codogno","from":"Bozzolo","name":"Train RE11: Mantova => Milano Centrale","note":"Linea chiusa tra Bozzolo e Mantova per lavori","type":"route","route":"train","source":"https://www.trenord.it/raddoppio-bozzolo-mantova/","bicycle":"yes","name:it":"Treno RE11: Mantova => Milano Centrale","network":"Servizio ferroviario regionale della Lombardia","service":"regional","toilets":"yes","duration":"1:58","interval":"02:00","operator":"Trenord","passenger":"regional","opening_hours":"Mo-Su 05:18-22:40","toilets:wheelchair":"no","public_transport:version":"2"},"7271761":{"ref":"R37","name":"R37 (Pavia → Codogno)","type":"route","route":"train","network":"Servizio ferroviario regionale della Lombardia","service":"regional","operator":"Trenord"},"7271762":{"ref":"R37","name":"R37 (Codogno → Pavia)","type":"route","route":"train","network":"Servizio ferroviario regionale della Lombardia","service":"regional","operator":"Trenord"},"7284795":{"ref":"Frecciargento","name":"Frecciargento (Genova Piazza Principe -> Roma Termini)","type":"route","route":"train","network":"Trenitalia","operator":"Trenitalia","network:short":"TI","operator:short":"TI","network:wikidata":"Q286650","operator:wikidata":"Q286650"},"7284796":{"ref":"Frecciargento","name":"Frecciargento (Roma Termini -> Genova Piazza Principe)","type":"route","route":"train","network":"Trenitalia","operator":"Trenitalia","network:short":"TI","operator:short":"TI","network:wikidata":"Q286650","operator:wikidata":"Q286650"},"7284797":{"ref":"Intercity","name":"Intercity (La Spezia Centrale -> Milano Centrale)","type":"route","route":"train","network":"Trenitalia","operator":"Trenitalia","network:short":"TI","operator:short":"TI","network:wikidata":"Q286650","operator:wikidata":"Q286650"},"7284798":{"ref":"Intercity","name":"Intercity (Milano Centrale -> La Spezia Centrale)","type":"route","route":"train","network":"Trenitalia","operator":"Trenitalia","network:short":"TI","operator:short":"TI","network:wikidata":"Q286650","operator:wikidata":"Q286650"},"7284799":{"ref":"Intercity","name":"Intercity (Sestri Levante -> Napoli Centrale)","type":"route","route":"train","network":"Trenitalia","operator":"Trenitalia","network:short":"TI","operator:short":"TI","network:wikidata":"Q286650","operator:wikidata":"Q286650"},"7284800":{"ref":"Intercity","name":"Intercity (Napoli Centrale -> Sestri Levante)","type":"route","route":"train","network":"Trenitalia","operator":"Trenitalia","network:short":"TI","operator:short":"TI","network:wikidata":"Q286650","operator:wikidata":"Q286650"},"7284801":{"ref":"Intercity","name":"Intercity (Ventimiglia -> Roma Termini)","type":"route","route":"train","network":"Trenitalia","operator":"Trenitalia","network:short":"TI","operator:short":"TI","network:wikidata":"Q286650","operator:wikidata":"Q286650"},"7284803":{"ref":"Intercity","name":"Intercity (Roma Termini -> Ventimiglia)","type":"route","route":"train","network":"Trenitalia","operator":"Trenitalia","network:short":"TI","operator:short":"TI","network:wikidata":"Q286650","operator:wikidata":"Q286650"},"7284804":{"ref":"Intercity","name":"Intercity (Livorno Centrale -> Milano Centrale)","type":"route","route":"train","network":"Trenitalia","operator":"Trenitalia","network:short":"TI","operator:short":"TI","network:wikidata":"Q286650","operator:wikidata":"Q286650"},"7284805":{"ref":"Intercity","name":"Intercity (Milano Centrale -> Livorno Centrale)","type":"route","route":"train","network":"Trenitalia","operator":"Trenitalia","network:short":"TI","operator:short":"TI","network:wikidata":"Q286650","operator:wikidata":"Q286650"},"7284806":{"ref":"Intercity","name":"Intercity (Grosseto -> Milano Centrale)","type":"route","route":"train","network":"Trenitalia","operator":"Trenitalia","network:short":"TI","operator:short":"TI","network:wikidata":"Q286650","operator:wikidata":"Q286650"},"7284807":{"ref":"Intercity","name":"Intercity (Milano Centrale -> Grosseto)","type":"route","route":"train","network":"Trenitalia","operator":"Trenitalia","network:short":"TI","operator:short":"TI","network:wikidata":"Q286650","operator:wikidata":"Q286650"},"7764598":{"name":"Raccordo Molino Alfieri","type":"route","route":"train"},"7795857":{"to":"Venezia Santa Lucia","ref":"R 14","from":"Udine","name":"R Udine -> Venezia S. L.","type":"route","route":"train","network":"Trenitalia","service":"regional","operator":"Trenitalia","network:short":"TI","operator:short":"TI","network:wikidata":"Q286650","network:wikipedia":"it:Trenitalia","operator:wikidata":"Q286650","operator:wikipedia":"it:Trenitalia"},"8365776":{"to":"Calazo - Pieve di Cadore - Cortina","ref":"R226","from":"Belluno","name":"R Belluno -> Calalzo P.C.C.","type":"route","route":"train","network":"Trenitalia","service":"regional","operator":"Trenitalia","network:short":"TI","operator:short":"TI","network:wikidata":"Q286650","network:wikipedia":"it:Trenitalia","operator:wikidata":"Q286650","operator:wikipedia":"it:Trenitalia"},"8373564":{"to":"Conegliano","ref":"RV","from":"Venezia","name":"Venezia Santa Lucia - Conegliano","type":"route","route":"train","network":"Trenitalia","service":"regional","operator":"Trenitalia","network:short":"TI","operator:short":"TI","network:wikidata":"Q286650","network:wikipedia":"it:Trenitalia","operator:wikidata":"Q286650","operator:wikipedia":"it:Trenitalia"},"8373565":{"to":"Trieste Centrale","ref":"RV 14","via":"Udine","from":"Venezia Santa Lucia","name":"RV Venezia S.L. -> Udine -> Trieste C.le","type":"route","route":"train","network":"Trenitalia","service":"regional","operator":"Trenitalia","network:short":"TI","operator:short":"TI","network:wikidata":"Q286650","network:wikipedia":"it:Trenitalia","operator:wikidata":"Q286650","operator:wikipedia":"it:Trenitalia"},"8375987":{"to":"Treviso","ref":"R","from":"Vicenza","name":"Treno regionale Vicenza - Treviso","type":"route","route":"train","network":"Trenitalia","service":"regional","operator":"Trenitalia","route_master":"train","network:short":"TI","operator:short":"TI","network:wikidata":"Q286650","operator:wikidata":"Q286650"},"8375988":{"to":"Montebelluna","ref":"R","from":"Padova","name":"Treno regionale Padova - Montebelluna","type":"route","route":"train","network":"Trenitalia","service":"regional","operator":"Trenitalia","network:short":"TI","operator:short":"TI","network:wikidata":"Q286650","operator:wikidata":"Q286650"},"8392116":{"to":"Frankfurt (Main) Hbf","fee":"yes","ref":"EC 52","from":"Milano Centrale","name":"EC 52: Milano => Frankfurt","type":"route","route":"train","to:de":"Frankfurt Hauptbahnhof","ref:DB":"ECE 52","from:de":"Mailand","headway":"1440","network":"ch-direct;DB EuroCityExpress","service":"high_speed","operator":"Schweizerische Bundesbahnen","to:short":"Frankfurt Hbf","highspeed":"yes","passenger":"international","description":"EC Milano -> Frankfurt","operator:short":"SBB","public_transport:version":"2"},"8956683":{"to":"Venezia Santa Lucia","ref":"R","from":"Padova","name":"Treno regionale Padova - Venezia","type":"route","route":"train","network":"Trenitalia","service":"regional","operator":"Trenitalia","network:short":"TI","operator:short":"TI","network:wikidata":"Q286650","operator:wikidata":"Q286650"},"8956684":{"to":"Padova","ref":"R","from":"Venezia Santa Lucia","name":"Treno regionale Venezia - Padova","type":"route","route":"train","network":"Trenitalia","service":"regional","operator":"Trenitalia","network:short":"TI","operator:short":"TI","network:wikidata":"Q286650","network:wikipedia":"it:Trenitalia","operator:wikidata":"Q286650","operator:wikipedia":"it:Trenitalia"},"8967296":{"to":"Padova","ref":"R","from":"Treviso","name":"Treno regionale Treviso - Padova","type":"route","route":"train","network":"Trenitalia","service":"regional","operator":"Trenitalia","network:short":"TI","operator:short":"TI","network:wikidata":"Q286650","operator:wikidata":"Q286650"},"9764225":{"to":"Venezia Santa Lucia","ref":"52","from":"Trieste Centrale","name":"RV Trieste -> Venezia","type":"route","route":"train","name:de":"RV Triest -> Venedig","name:it":"RV Trieste -> Venezia","name:sl":"RV Trst -> Benetke","network":"Trenitalia","service":"regional","duration":"2:05","operator":"Trenitalia","network:short":"TI","operator:short":"TI","network:wikidata":"Q286650","network:wikipedia":"it:Trenitalia","operator:wikidata":"Q286650","operator:wikipedia":"it:Trenitalia","public_transport:version":"2"},"9950688":{"to":"Padova","ref":"R","from":"Bassano del Grappa","name":"Treno regionale Bassano - Padova","type":"route","route":"train","network":"Trenitalia","service":"regional","operator":"Trenitalia","network:short":"TI","operator:short":"TI","network:wikidata":"Q286650","operator:wikidata":"Q286650"},"9958855":{"to":"Milano Nord Bovisa-Politecnico","ref":"S12","from":"Melegnano","name":"Train S12: Melegnano => Milano Nord Bovisa-Politecnico","note":"Linea sospesa a tempo indeterminato","type":"route","route":"train","colour":"#293838","bicycle":"limited","comment":"http://wiki.openstreetmap.org/wiki/Milano/Trasporti_pubblici","name:it":"Treno S12: Melegnano => Milano Nord Bovisa-Politecnico","network":"Ferrovie Nord","service":"commuter","toilets":"yes","by_night":"no","duration":"00:46:00","operator":"Trenord","wikidata":"Q26828150","passenger":"suburban","wheelchair":"limited","reservation":"no","network:metro":"Servizio suburbano","toilets:wheelchair":"yes","public_transport:version":"2"},"9958856":{"to":"Melegnano","ref":"S12","from":"Milano Nord Bovisa-Politecnico","name":"Train S12: Milano Nord Bovisa-Politecnico => Melegnano","note":"Linea sospesa a tempo indeterminato","type":"route","route":"train","colour":"#293838","bicycle":"limited","comment":"http://wiki.openstreetmap.org/wiki/Milano/Trasporti_pubblici","name:it":"Treno S12: Milano Nord Bovisa-Politecnico => Melegnano","network":"Ferrovie Nord","service":"commuter","toilets":"yes","by_night":"no","duration":"00:46:00","operator":"Trenord","wikidata":"Q26828150","passenger":"suburban","wheelchair":"limited","reservation":"no","network:metro":"Servizio suburbano","toilets:wheelchair":"yes","public_transport:version":"2"},"10433643":{"to":"Via Porta Mondovì","from":"Corso Guglielmo Marconi","name":"Corso Guglielmo Marconi => Via Porta Mondovì","type":"route","route":"train","bicycle":"yes","public_transport:version":"2"},"10433644":{"to":"Corso Guglielmo Marconi","from":"Via Porta Mondovì","name":"Via Porta Mondovì => Corso Guglielmo Marconi","type":"route","route":"train","bicycle":"yes","public_transport:version":"2"},"10528740":{"to":"Brenner - Brennero","ref":"100","via":"Bolzano - Bozen","from":"Verona Porta Nuova","name":"Train 100: Verona => Bolzano => Brenner","type":"route","route":"train","service":"national","public_transport:version":"2"},"10649629":{"to":"Napoli Centrale","ref":"REG2377","from":"Roma Termini","name":"Roma Termini → Napoli Centrale","type":"route","route":"train","network":"Trenitalia","service":"national","duration":"02:41","operator":"Trenitalia","passenger":"regional","wheelchair":"limited","network:type":"node_network","network:short":"TI","opening_hours":"Mo-Su 05:31-08:12","operator:short":"TI","network:wikidata":"Q286650","network:wikipedia":"it:Trenitalia","operator:wikidata":"Q286650","operator:wikipedia":"it:Trenitalia","public_transport:version":"2"},"10752091":{"to":"Patti-San Piero Patti","ref":"99","via":"Falcone","from":"Messina","name":"99: Messina => Patti-San Piero Patti","note":"Quadri orario di Trenitalia","type":"route","route":"train","network":"Trenitalia","service":"regional","operator":"Trenitalia","network:short":"TI","operator:short":"TI","network:wikidata":"Q286650","operator:wikidata":"Q286650","public_transport:version":"2"},"10786670":{"to":"Messina","ref":"99","via":"Falcone","from":"Patti-San Piero Patti","name":"99: Patti-San Piero Patti => Falcone => Messina (R)","note":"Quadri orario di Trenitalia","type":"route","route":"train","network":"Trenitalia","service":"regional","operator":"Trenitalia","network:short":"TI","operator:short":"TI","network:wikidata":"Q286650","operator:wikidata":"Q286650","public_transport:version":"2"},"10796061":{"to":"Vetta","ref":"FUNV","from":"San Pellegrino Terme","name":"San Pellegrino Terme - Vetta","type":"route","route":"train","network":"Atb","service":"tourism","operator":"Azienda Trasporti Bergamo","wikidata":"Q28669952","wikipedia":"it:Funicolare di San Pellegrino","public_transport:version":"2"},"10969255":{"to":"Paratico-Sarnico","ref":"Trenoblu","from":"Palazzolo sull'Oglio","name":"Palazzolo sull'Oglio - Paratico/Sarnico","type":"route","route":"train","service":"tourism","operator":"RFI"},"10972840":{"to":"Verdello Dalmine","ref":"Tenaris Dalmine","from":"Tenaris Dalmine","name":"Raccordo industriale Tenaris Dalmine","type":"route","route":"train","service":"industrial","operator":"Tenaris Dalmine"},"10973808":{"to":"Iseo","ref":"R3","from":"Brescia","name":"Brescia - Iseo","type":"route","route":"train","service":"regional","operator":"Trenord","public_transport:version":"2"},"10975569":{"ref":"FUNC","name":"Funicolare di Bergamo Alta","type":"route","route":"train","service":"tourism","wikidata":"Q3754437"},"10988020":{"to":"Merano - Meran","ref":"200","from":"Bolzano - Bozen","name":"Train 200: Bozen => Meran","type":"route","fixme":"survey on which platform the train stops in this direction","route":"train","network":"TVS","service":"regional","operator":"SAD;TI","public_transport:version":"2"},"11009862":{"to":"Mals - Males","ref":"250","from":"Meran - Merano","name":"Train 250: Meran - Merano => Mals - Malles","type":"route","fixme":"survey on which platform the train stops in this direction","route":"train","name:de":"Zug 250: Meran => Mals","name:it":"Treno 250: Merano => Malles","network":"TVS","service":"regional","alt_name":"Vinschgerbahn","operator":"SAD","public_transport:version":"2"},"11085633":{"name":"Ferrovia Rolo-Mirandola","type":"route","route":"train","unused":"yes","wikidata":"Q3743590","wikipedia":"it:Ferrovia Rolo-Mirandola"},"11265566":{"to":"Udine","ref":"FUC","from":"Cividale","name":"Cividale - Udine","type":"route","route":"train","service":"regional","name:fur":"Cividât - Udin","operator":"FUC Ferrovia Udine Cividale","wikidata":"Q803363","wikipedia":"it:Ferrovia Udine-Cividale","public_transport:version":"1"},"11265567":{"to":"Cividale","ref":"FUC","from":"Udine","name":"Udine - Cividale","type":"route","route":"train","service":"regional","name:fur":"Udin - Cividât","operator":"FUC Ferrovia Udine Cividale","wikidata":"Q803363","wikipedia":"it:Ferrovia Udine-Cividale","public_transport:version":"1"},"11289374":{"to":"Castel di Sangro","from":"Marina di San Vito","name":"Vecchia Ferrovia Sangritana","type":"route","gauge":"1435","route":"train","network":"TUA","voltage":"3000","end_date":"1973","operator":"FAA/FAS/TUA","wikidata":"Q1301903","wikipedia":"it:Ferrovia Sangritana","start_date":"1912","public_transport:version":"1"},"11479762":{"to":"Lecco","ref":"S7","via":"Molteno","from":"Milano Porta Garibaldi superficie","name":"Treno S7: Milano Porta Garibaldi => Lecco","type":"route","route":"train","colour":"#ED2A81","bicycle":"yes","comment":"http://wiki.openstreetmap.org/wiki/Milano/Trasporti_pubblici","name:en":"Train S7: Milano Porta Garibaldi => Lecco","name:it":"Treno S7: Milano Porta Garibaldi => Lecco","network":"STIBM","service":"commuter","duration":"01:36:00","interval":"01:00:00","operator":"Trenord","wikidata":"Q26878568","wikipedia":"it:Servizio ferroviario suburbano di Milano","wheelchair":"limited","description":"Servizio ferroviario suburbano di Milano","reservation":"no","wikipedia:en":"en:Line S7 (Milan suburban railway service)","network:metro":"Servizio Suburbano","opening_hours":"Mo-Su 05:30-21:30","network:wikidata":"Q65125405","network:wikipedia":"it:STIBM","public_transport:version":"2"},"11479780":{"to":"Milano Porta Garibaldi","ref":"S7","via":"Molteno","from":"Lecco","name":"Treno S7: Lecco => Milano Porta Garibaldi","type":"route","route":"train","colour":"#ED2A81","bicycle":"yes","comment":"http://wiki.openstreetmap.org/wiki/Milano/Trasporti_pubblici","name:en":"Train S7: Lecco => Milano Porta Garibaldi","name:it":"Treno S7: Lecco => Milano Porta Garibaldi","network":"STIBM","service":"commuter","duration":"01:36:00","interval":"01:00:00","operator":"Trenord","wikidata":"Q26878568","wikipedia":"it:Servizio ferroviario suburbano di Milano","wheelchair":"limited","description":"Servizio ferroviario suburbano di Milano","reservation":"no","wikipedia:en":"en:Line S7 (Milan suburban railway service)","network:metro":"Servizio Suburbano","opening_hours":"Mo-Su 05:30-21:30","network:wikidata":"Q65125405","network:wikipedia":"it:STIBM","public_transport:version":"2"},"11493414":{"to":"Rho","ref":"S11","via":"Milano Porta Garibaldi","from":"Como San Giovanni","name":"Treno S11L: Como San Giovanni => Rho","type":"route","route":"train","colour":"#9D91C5","bicycle":"yes","comment":"http://wiki.openstreetmap.org/wiki/Milano/Trasporti_pubblici","name:en":"Train S11L: Como San Giovanni => Rho","name:it":"Treno S11L: Como San Giovanni => Rho","network":"STIBM","service":"commuter","duration":"01:28:00","interval":"01:00:00","operator":"Trenord","wikidata":"Q1160879","wikipedia":"it:Servizio ferroviario suburbano di Milano","wheelchair":"limited","description":"Servizio ferroviario suburbano di Milano","reservation":"no","wikipedia:en":"en:Line S11 (Milan suburban railway service)","network:metro":"Servizio Suburbano","opening_hours":"Mo-Fr 06:00-23:00; PH off","network:wikidata":"Q65125405","network:wikipedia":"it:STIBM","public_transport:version":"2"},"11493446":{"to":"Como San Giovanni","ref":"S11","via":"Milano Porta Garibaldi","from":"Rho","name":"Treno S11L: Rho => Como San Giovanni","type":"route","route":"train","colour":"#9D91C5","bicycle":"yes","comment":"http://wiki.openstreetmap.org/wiki/Milano/Trasporti_pubblici","name:en":"Train S11L: Rho => Como San Giovanni","name:it":"Treno S11L: Rho => Como San Giovanni","network":"STIBM","service":"commuter","duration":"01:28:00","interval":"01:00:00","operator":"Trenord","wikidata":"Q1160879","wikipedia":"it:Servizio ferroviario suburbano di Milano","wheelchair":"limited","description":"Servizio ferroviario suburbano di Milano","reservation":"no","wikipedia:en":"en:Line S11 (Milan suburban railway service)","network:metro":"Servizio Suburbano","opening_hours":"Mo-Fr 06:00-23:00; PH off","network:wikidata":"Q65125405","network:wikipedia":"it:STIBM","public_transport:version":"2"},"11545171":{"to":"Venezia Santa Lucia","ref":"R232","from":"Bassano del Grappa","name":"R Bassano del Grappa -> Venezia S.L.","type":"route","route":"train","network":"Trenitalia","service":"regional","operator":"Trenitalia","route_master":"train","network:short":"TI","operator:short":"TI","network:wikidata":"Q286650","network:wikipedia":"it:Trenitalia","operator:wikidata":"Q286650","operator:wikipedia":"it:Trenitalia"},"11560385":{"name":"Le Grand Tour Alpi Marittime-Mercantour Borgo San-Dalmazzo - Breil sur Roya","type":"route","route":"train","service":"tourism","description":"Les Alpes-Maritimes à vélo - Itinérances n° 1","public_transport:version":"2"},"11612242":{"to":"Bern","ref":"RE","via":"Brig;Goppenstein;Kandersteg;Frutigen;Spiez;Thun","from":"Domodossola","name":"RE: Domodossola => Bern","type":"route","route":"train","network":"ch-integral","service":"regional","operator":"BLS","passenger":"regional","network:wikidata":"Q55503992","network:wikipedia":"de:Ch-integral","public_transport:version":"2"},"11707701":{"name":"Ferrovia Trieste Campo Marzio - Trieste Aquilinia","type":"route","route":"train","network":"RFI","service":"industrial","operator":"RFI"},"11735091":{"to":"Ravenna","ref":"R","from":"Faenza","name":"Treno R: Faenza => Ravenna","type":"route","route":"train","service":"regional","by_night":"no","duration":"00:30","operator":"RFI","couchette":"no","public_transport:version":"2"},"11736105":{"to":"Ravenna","from":"Castelbolognese","name":"Treno R: Castelbolognese => Ravenna","type":"route","route":"train","service":"regional","by_night":"no","duration":"00:42","operator":"RFI","couchette":"no","passenger":"local"},"11760095":{"to":"Schio","ref":"R","from":"Vicenza","name":"Treno regionale Vicenza - Schio","type":"route","route":"train","network":"Trenitalia","service":"regional","operator":"Trenitalia","route_master":"train","network:short":"TI","operator:short":"TI","network:wikidata":"Q286650","network:wikipedia":"it:Trenitalia","operator:wikidata":"Q286650","operator:wikipedia":"it:Trenitalia"},"11760343":{"to":"Belluno","ref":"R226","from":"Treviso Centrale","name":"R Treviso C.le -> Feltre -> Belluno","type":"route","route":"train","network":"Trenitalia","service":"regional","operator":"Trenitalia","route_master":"train","network:short":"TI","operator:short":"TI","network:wikidata":"Q286650","network:wikipedia":"it:Trenitalia","operator:wikidata":"Q286650","operator:wikipedia":"it:Trenitalia","public_transport:version":"2"},"11780981":{"to":"Roma Termini","from":"Firenze Santa Maria Novella","name":"Ferrovia Roma Firenze","type":"route","route":"train","network":"Ferrovie dello Stato","service":"regional","alt_name":"Linea Lenta (LL)","public_transport:version":"1"},"11780982":{"to":"Firenze Santa Maria Novella","from":"Roma Termini","name":"Ferrovia Roma Firenze","type":"route","route":"train","network":"Ferrovie dello Stato","service":"regional","alt_name":"Linea Lenta (LL)","operator":"Ferrovie dello Stato","public_transport:version":"1"},"11874225":{"to":"Paris-Gare-de-Lyon","fee":"yes","ref":"9240","from":"Milano-Porta-Garibaldi","name":"TGV 9240: Milano-Porta-Garibaldi => Paris-Gare-de-Lyon","type":"route","route":"train","colour":"#0075a1","name:fr":"TGV 9240: Milano-Porta-Garibaldi => Paris-Gare-de-Lyon","name:it":"TGV 9240: Milano-Porta-Garibaldi => Parigi-Gare-de-Lione","network":"TGV","service":"international","website":"https://www.oui.sncf/","operator":"SNCF","highspeed":"yes","passenger":"international","reservation":"only","network:wikidata":"Q129337","network:wikipedia":"fr:TGV","operator:wikidata":"Q13646","operator:wikipedia":"fr:Société nationale des chemins de fer français","public_transport:version":"2"},"11899073":{"name":"Circuito Prova Rotabili Bolgna San Donato","type":"route","route":"train","service":"industrial","operator":"RFI"},"12039517":{"to":"Brancolo","from":"Ronchi Sud","name":"Raccordo ferroviario Ronchi Sud-Brancolo","type":"route","route":"train","unused":"yes","operator":"RFI"},"12225715":{"to":"Basel SBB","fee":"yes","ref":"EC","from":"Milano Centrale","name":"EC: Milano Centrale => Basel SBB","type":"route","route":"train","network":"ch-direct","service":"high_speed","operator":"SBB; Trenitalia","passenger":"international","public_transport:version":"2"},"12245983":{"to":"Venezia Santa Lucia","ref":"RV","from":"Sacile","name":"RV Sacile -> Venezia Santa Lucia","type":"route","route":"train","network":"Trenitalia","service":"regional","operator":"Trenitalia","network:short":"TI","operator:short":"TI","network:wikidata":"Q286650","network:wikipedia":"it:Trenitalia","operator:wikidata":"Q286650","operator:wikipedia":"it:Trenitalia"},"12245984":{"to":"Sacile","ref":"RV","from":"Venezia Santa Lucia","name":"RV Venezia Santa Lucia - Sacile","type":"route","route":"train","network":"Trenitalia","service":"regional","operator":"Trenitalia","network:short":"TI","operator:short":"TI","network:wikidata":"Q286650","network:wikipedia":"it:Trenitalia","operator:wikidata":"Q286650","operator:wikipedia":"it:Trenitalia"},"12246201":{"to":"Genève","fee":"yes","ref":"EC","from":"Milano Centrale","name":"EC: Milano Centrale => Genève","type":"route","route":"train","network":"ch-direct","service":"high_speed","operator":"SBB; Trenitalia","passenger":"international","public_transport:version":"2"},"12304568":{"to":"Cremona","ref":"R40","from":"Bozzolo","name":"Train R40: Mantova => Cremona","note":"Linea chiusa tra Bozzolo e Mantova per lavori","type":"route","route":"train","source":"https://www.trenord.it/raddoppio-bozzolo-mantova/","name:it":"Treno R40: Mantova => Cremona","network":"Servizio ferroviario regionale della Lombardia","service":"regional","duration":"01:10:00","operator":"Trenord","passenger":"regional","wheelchair":"no","public_transport:version":"2"},"12316592":{"to":"Como Nord Lago","ref":"R17","via":"Saronno","from":"Milano Nord Cadorna","name":"Train R17: Milano Nord Cadorna => Como Nord Lago","type":"route","route":"train","colour":"#8dc63f","service":"regional","toilets":"yes","website":"https://www.trenord.it/","duration":"01:01:00","interval":"01:00:00","operator":"Trenord","passenger":"regional","opening_hours":"Mo-Su 06:13-23:44","toilets:wheelchair":"yes","public_transport:version":"2"},"12316594":{"to":"Milano Nord Cadorna","ref":"R17","via":"Saronno","from":"Como Nord Lago","name":"Train R17: Como Nord Lago => Milano Nord Cadorna","type":"route","route":"train","colour":"#8dc63f","service":"regional","toilets":"yes","website":"https://www.trenord.it/","duration":"01:01:00","interval":"01:00:00","operator":"Trenord","passenger":"regional","opening_hours":"Mo-Su 05:16-23:17","toilets:wheelchair":"yes","public_transport:version":"2"},"12336233":{"to":"Milano Nord Cadorna","ref":"R27","via":"Saronno","from":"Novara Nord","name":"Train R27: Novara Nord => Milano Nord Cadorna","type":"route","route":"train","colour":"#8dc63f","service":"regional","toilets":"yes","website":"https://www.trenord.it/","duration":"01:02:00","interval":"01:00:00","operator":"Trenord","passenger":"regional","opening_hours":"Mo-Su 06:11-21:13","toilets:wheelchair":"yes","public_transport:version":"2"},"12343015":{"to":"Malpensa Aeroporto Terminal 2","ref":"MXP2","via":"Saronno","from":"Milano Centrale","name":"Train MXP2: Milano Centrale => Malpensa Aeroporto T2","type":"route","route":"train","colour":"#961a54","service":"regional","toilets":"yes","website":"https://www.malpensaexpress.it/","duration":"00:57:00","interval":"01:00:00","operator":"Trenord","wikidata":"Q1858023","wikipedia":"it:Malpensa Express","network:metro":"Malpensa Express","toilets:wheelchair":"yes","public_transport:version":"2"},"12343016":{"to":"Milano Centrale","ref":"MXP2","via":"Saronno","from":"Malpensa Aeroporto Terminal 2","name":"Train MXP2: Malpensa Aeroporto Terminal 2 => Milano Centrale","type":"route","route":"train","colour":"#961a54","service":"regional","toilets":"yes","website":"https://www.malpensaexpress.it/","duration":"00:58:00","interval":"01:00:00","operator":"Trenord","wikidata":"Q1858023","wikipedia":"it:Malpensa Express","network:metro":"Malpensa Express","toilets:wheelchair":"yes","public_transport:version":"2"},"12407672":{"to":"Colico","ref":"R11","from":"Chiavenna","name":"Treno R11: Chiavenna => Colico","type":"route","route":"train","colour":"#91C84B","bicycle":"yes","name:en":"Train R11: Chiavenna => Colico","name:it":"Treno R11: Chiavenna => Colico","service":"regional","duration":"00:32:00","interval":"01:00:00","operator":"Trenord","reservation":"no","opening_hours":"Mo-Su 06:00-21:30","public_transport:version":"2"},"12409568":{"ref":"Napoli-Salerno AV","name":"Ferrovia Napoli-Salerno (alta velocità)","type":"route","route":"train","service":"regional","wikidata":"Q938061","wikipedia":"it:Linea a monte del Vesuvio"},"12491833":{"to":"Pré-Saint-Didier","from":"Aosta","name":"Ferrovia Aosta-Pré-Saint-Didier","type":"route","route":"train","service":"regional","wikidata":"Q3240042","wikipedia":"it:Ferrovia Aosta-Pré-Saint-Didier"},"12554307":{"to":"Bergamo","ref":"R1","from":"Brescia","name":"Train R1: Brescia => Bergamo","type":"route","route":"train","colour":"#8dc63f","service":"regional","website":"https://www.trenord.it/","duration":"00:57:00","interval":"01:00:00","operator":"Trenord","opening_hours":"Mo-Su 04:57-21:54","public_transport:version":"2"},"12590274":{"to":"Milano Centrale","ref":"RE6","via":"Brescia","from":"Verona Porta Nuova","name":"Train RE6: Verona Porta Nuova => Milano Centrale","type":"route","route":"train","colour":"#ed1c24","service":"regional","website":"https://www.trenord.it","duration":"01:50:00","interval":"01:00:00","operator":"Trenord","wikidata":"Q112139494","opening_hours":"Mo-Su 05:45-23:35","public_transport:version":"2"},"12590279":{"to":"Verona Porta Nuova","ref":"RE6","via":"Brescia","from":"Milano Centrale","name":"Train RE6: Milano Centrale => Verona Porta Nuova","type":"route","route":"train","colour":"#ed1c24","service":"regional","website":"https://www.trenord.it","duration":"01:50:00","interval":"01:00:00","operator":"Trenord","wikidata":"Q112139494","opening_hours":"Mo-Su 06:25-01:15","public_transport:version":"2"},"12697280":{"to":"Treviglio","fee":"yes","ref":"R2","from":"Bergamo","name":"Train R2: Bergamo => Treviglio","type":"route","route":"train","colour":"#8dc63f","service":"regional","website":"https://www.trenord.it/","duration":"00:30:00","interval":"01:00:00","operator":"Trenord","opening_hours":"Mo-Fr 05:50-21:50; Su,PH 06:20-21:50","public_transport:version":"2"},"12858009":{"to":"Milano Nord Cadorna","fee":"yes","ref":"RE1","via":"Saronno","from":"Laveno Mombello Lago","name":"Train RE1: Laveno Mombello Lago => Milano Nord Cadorna","type":"route","route":"train","colour":"#ed1c24","name:it":"Treno RE1: Laveno Mombello Lago => Milano Nord Cadorna","network":"FERROVIENORD","service":"regional","website":"https://www.trenord.it","duration":"01:30:00","operator":"Trenord","public_transport:version":"2"},"12858010":{"to":"Laveno Mombello Lago","fee":"yes","ref":"RE1","via":"Saronno","from":"Milano Nord Cadorna","name":"Treno RE1: Milano Nord Cadorna => Laveno Mombello Lago","type":"route","route":"train","colour":"#ed1c24","name:en":"Train RE1: Milano Nord Cadorna => Laveno Mombello Lago","network":"FERROVIENORD","service":"regional","website":"https://www.trenord.it/","duration":"01:31:00","operator":"Trenord","public_transport:version":"2"},"12858013":{"to":"Milano Nord Cadorna","fee":"yes","ref":"R22","via":"Saronno","from":"Varese Nord","name":"Train R22: Varese Nord => Milano Nord Cadorna","type":"route","route":"train","colour":"#8dc63f","name:it":"Treno R22: Varese Nord => Milano Nord Cadorna","network":"FERROVIENORD","service":"regional","website":"https://www.trenord.it/","duration":"01:01:00","operator":"Trenord","public_transport:version":"2"},"12858015":{"to":"Milano Nord Cadorna","fee":"yes","ref":"R22","via":"Saronno","from":"Laveno Mombello Lago","name":"Train R22: Laveno Mombello Lago => Milano Nord Cadorna","type":"route","route":"train","colour":"#8dc63f","name:it":"Treno R22: Laveno Mombello Lago => Milano Nord Cadorna","network":"FERROVIENORD","service":"regional","website":"https://www.trenord.it/","duration":"01:43:00","operator":"Trenord","public_transport:version":"2"},"12914903":{"to":"Roma Temini","ref":"Frecciarossa","from":"Venezia Santa Lucia","name":"Frecciarossa: Venezia => Roma","type":"route","route":"train","colour":"red","network":"Trenitalia","service":"national","operator":"Trenitalia","network:short":"TI","operator:short":"TI","network:wikidata":"Q286650","network:wikipedia":"it:Trenitalia","operator:wikidata":"Q286650","operator:wikipedia":"it:Trenitalia","public_transport:version":"2"},"12914904":{"to":"Venezia Santa Lucia","ref":"Frecciarossa","from":"Roma Temini","name":"Frecciarossa: Roma => Venezia","type":"route","route":"train","colour":"red","network":"Trenitalia","service":"national","operator":"Trenitalia","network:short":"TI","operator:short":"TI","network:wikidata":"Q286650","network:wikipedia":"it:Trenitalia","operator:wikidata":"Q286650","operator:wikipedia":"it:Trenitalia","public_transport:version":"2"},"13059449":{"to":"München Hbf","ref":"EC 88","from":"Bologna Centrale","name":"EC 88: Bologna => München","type":"route","route":"train","network":"DB InterCity;EuroCity;ÖBB","service":"long_distance","operator":"DB Fernverkehr AG;ÖBB","public_transport:version":"2"},"13059451":{"to":"München Hbf","ref":"EC 80","from":"Verona Porta Nuova","name":"EC 80: Verona => München","type":"route","route":"train","colour":"#FFA700","network":"DB InterCity;EuroCity;ÖBB","service":"long_distance","operator":"DB Fernverkehr AG;ÖBB","public_transport:version":"2"},"13059715":{"to":"München Hbf","ref":"EC 86","from":"Venezia Santa Lucia","name":"EC 86: Venedig => München","type":"route","route":"train","network":"DB InterCity;EuroCity;ÖBB","service":"long_distance","operator":"DB Fernverkehr AG;ÖBB","public_transport:version":"2"},"13059861":{"to":"München Hbf","ref":"EC 84","from":"Rimini","name":"EC 84: Rimini => München","note":"Fährt nur in der Sommersaison","type":"route","route":"train","network":"DB InterCity;EuroCity;ÖBB","service":"long_distance","operator":"DB Fernverkehr AG;ÖBB","public_transport:version":"2"},"13065784":{"to":"München Hauptbahnhof","ref":"NJ 294","from":"Roma Temini","name":"NJ 294: Rom => München","type":"route","brand":"ÖBB Nightjet","route":"train","network":"ÖBB Nightjet","service":"long_distance;night","by_night":"only","operator":"ÖBB-Personenverkehr AG","couchette":"yes","sleeping_car":"yes","brand:wikidata":"Q28127371","operator:short":"ÖBB","brand:wikipedia":"de:ÖBB Nightjet","public_transport:version":"2"},"13066214":{"to":"München Hauptbahnhof","ref":"NJ 40235","from":"Milano Porta Garibaldi","name":"NJ 40235: La Spezia => München","type":"route","brand":"ÖBB Nightjet","fixme":"add section of route between Milano and La Spezia (new extension fom 2022-12-11)","route":"train","name:de":"NJ 40235: La Spezia => München","name:en":"NJ 40235: La Spezia => Munich","name:it":"NJ 40235: La Spezia => Monaco","network":"ÖBB Nightjet","service":"long_distance;night","by_night":"only","operator":"ÖBB-Personenverkehr AG","couchette":"yes","sleeping_car":"yes","brand:wikidata":"Q28127371","operator:short":"ÖBB","brand:wikipedia":"de:ÖBB Nightjet","public_transport:version":"2"},"13066368":{"to":"München Hauptbahnhof","ref":"NJ 40236","from":"Venezia Santa Lucia","name":"NJ 40236: Venedig => München","type":"route","brand":"ÖBB Nightjet","route":"train","network":"ÖBB Nightjet","service":"long_distance;night","by_night":"only","operator":"ÖBB-Personenverkehr AG","couchette":"yes","sleeping_car":"yes","brand:wikidata":"Q28127371","operator:short":"ÖBB","brand:wikipedia":"de:ÖBB Nightjet","public_transport:version":"2"},"13096820":{"to":"Milano Centrale","fee":"yes","ref":"RE2","via":"Treviglio Ovest","from":"Bergamo","name":"Train RE2: Bergamo => Milano Centrale","type":"route","route":"train","colour":"#ed1c24","service":"regional","website":"https://www.trenord.it/","duration":"00:48:00","interval":"01:00:00","operator":"Trenord","opening_hours":"Mo-Fr 05:00-22:50; Sa,Su,PH 05:00-23:50","public_transport:version":"2"},"13096821":{"to":"Bergamo","fee":"yes","ref":"RE2","via":"Treviglio Ovest","from":"Milano Porta Garibaldi","name":"Train RE2: Milano Porta Garibaldi => Bergamo","type":"route","route":"train","colour":"#ed1c24","service":"regional","website":"https://www.trenord.it/","duration":"01:03:00","interval":"01:00:00","operator":"Trenord","opening_hours":"Mo-Fr 06:22-09:23,15:22-20:25; Sa,Su,PH off","public_transport:version":"2"},"13096822":{"to":"Milano Porta Garibaldi","fee":"yes","ref":"RE2","via":"Treviglio Ovest","from":"Bergamo","name":"Train RE2: Bergamo => Milano Porta Garibaldi","type":"route","route":"train","colour":"#ed1c24","service":"regional","website":"https://www.trenord.it/","duration":"01:03:00","interval":"01:00:00","operator":"Trenord","opening_hours":"Mo-Fr 06:30-10:33,16:30-19:33; Sa,Su,PH off","public_transport:version":"2"},"13096823":{"to":"Bergamo","fee":"yes","ref":"RE2","via":"Treviglio Ovest","from":"Milano Centrale","name":"Train RE2: Milano Centrale => Bergamo","type":"route","route":"train","colour":"#ed1c24","service":"regional","website":"https://www.trenord.it/","duration":"00:48:00","interval":"01:00:00","operator":"Trenord","opening_hours":"Mo-Su 05:35-22:55","public_transport:version":"2"},"13096824":{"to":"Bergamo","fee":"yes","ref":"R2","from":"Treviglio","name":"Train R2: Treviglio => Bergamo","type":"route","route":"train","colour":"#8dc63f","service":"regional","website":"https://www.trenord.it/","duration":"00:30:00","interval":"01:00:00","operator":"Trenord","opening_hours":"Mo-Su 06:08-22:38","public_transport:version":"2"},"13101451":{"to":"Breno","ref":"R3","from":"Brescia","name":"Brescia-Breno","type":"route","route":"train","service":"regional","operator":"Trenord","public_transport:version":"2"},"13101482":{"to":"Brescia","from":"Edolo","name":"Brescia-Edolo RegioExpress","type":"route","route":"train","network":"regional","service":"regional","operator":"Trenord","public_transport:version":"2"},"13127938":{"to":"Gela","ref":"375","via":"Caltagirone","from":"Catania","name":"375: Catania => Caltagirone (=> Gela)","note":"Quadri orario di Trenitalia. Tratto Gela-Caltagirone servizio temporaneamente sospeso.","type":"route","route":"train","network":"Trenitalia","note:de":"Kursbuchstrecke der Trenitalia. Streckenabschnitt Gela-Caltagirone momentan außer Betrieb.","service":"regional","operator":"Trenitalia","network:short":"TI","operator:short":"TI","network:wikidata":"Q286650","network:wikipedia":"it:Trenitalia","operator:wikidata":"Q286650","operator:wikipedia":"it:Trenitalia","public_transport:version":"2"},"13127940":{"to":"Catania","ref":"375","via":"Caltagirone","from":"Gela","name":"375: (Gela =>) Caltagirone => Catania","note":"Quadri orario di Trenitalia. Tratto Gela-Caltagirone servizio temporaneamente sospeso.","type":"route","route":"train","network":"Trenitalia","note:de":"Kursbuchstrecke der Trenitalia. Streckenabschnitt Gela-Caltagirone momentan außer Betrieb.","service":"regional","operator":"Trenitalia","network:short":"TI","operator:short":"TI","network:wikidata":"Q286650","network:wikipedia":"it:Trenitalia","operator:wikidata":"Q286650","operator:wikipedia":"it:Trenitalia","public_transport:version":"2"},"13128228":{"to":"Siracusa","ref":"R 5381","from":"Messina","name":"Messina => Siracusa","note":"Quadri orario di Trenitalia","type":"route","route":"train","network":"Trenitalia","service":"regional","operator":"Trenitalia","network:short":"TI","operator:short":"TI","operator_short":"TI","network:wikidata":"Q286650","network:wikipedia":"it:Trenitalia","operator:wikidata":"Q286650","operator:wikipedia":"it:Trenitalia","public_transport:version":"2"},"13128229":{"to":"Giampilieri","ref":"97","from":"Messina","name":"97: Messina => Giampilieri","note":"Quadri orario di Trenitalia","type":"route","route":"train","network":"Trenitalia","service":"regional","operator":"Trenitalia","wikidata":"Q124130676","network:short":"TI","operator:short":"TI","operator_short":"TI","network:wikidata":"Q286650","operator:wikidata":"Q286650","public_transport:version":"2"},"13128230":{"to":"Siracusa","ref":"RV 5383","from":"Messina","name":"Messina => Siracusa","note":"Quadri orario di Trenitalia","type":"route","route":"train","network":"Trenitalia","service":"regional","operator":"Trenitalia","network:short":"TI","operator:short":"TI","operator_short":"TI","network:wikidata":"Q286650","network:wikipedia":"it:Trenitalia","operator:wikidata":"Q286650","operator:wikipedia":"it:Trenitalia","public_transport:version":"2"},"13130884":{"to":"Messina","ref":"RV 5386","from":"Siracusa","name":"Siracusa => Messina","note":"Quadri orario di Trenitalia","type":"route","route":"train","network":"Trenitalia","service":"regional","operator":"Trenitalia","network:short":"TI","operator:short":"TI","operator_short":"TI","network:wikidata":"Q286650","network:wikipedia":"it:Trenitalia","operator:wikidata":"Q286650","operator:wikipedia":"it:Trenitalia","public_transport:version":"2"},"13130897":{"to":"Messina","ref":"R 5372","from":"Siracusa","name":"Siracusa => Messina","note":"Quadri orario di Trenitalia","type":"route","route":"train","network":"Trenitalia","service":"regional","operator":"Trenitalia","network:short":"TI","operator:short":"TI","operator_short":"TI","network:wikidata":"Q286650","network:wikipedia":"it:Trenitalia","operator:wikidata":"Q286650","operator:wikipedia":"it:Trenitalia","public_transport:version":"2"},"13135078":{"to":"Gela","ref":"R 12916","from":"Siracusa","name":"Siracusa => Gela","note":"Quadri orario di Trenitalia","type":"route","route":"train","network":"Trenitalia","service":"regional","operator":"Trenitalia","network:short":"TI","operator:short":"TI","network:wikidata":"Q286650","network:wikipedia":"it:Trenitalia","operator:wikidata":"Q286650","operator:wikipedia":"it:Trenitalia","public_transport:version":"2"},"13136877":{"to":"Siracusa","ref":"R 12931","from":"Gela","name":"Gela => Siracusa","note":"Quadri orario di Trenitalia","type":"route","route":"train","network":"Trenitalia","service":"regional","operator":"Trenitalia","network:short":"TI","operator:short":"TI","network:wikidata":"Q286650","network:wikipedia":"it:Trenitalia","operator:wikidata":"Q286650","operator:wikipedia":"it:Trenitalia","public_transport:version":"2"},"13137093":{"to":"Randazzo","ref":"5","from":"Catania Borgo","name":"Catania Borgo => Randazzo","type":"route","route":"train","network":"FCE","service":"light_rail","operator":"FCE","public_transport:version":"2"},"13137094":{"to":"Randazzo","ref":"8","from":"Riposto","name":"Riposto => Randazzo","type":"route","route":"train","network":"FCE","service":"light_rail","operator":"FCE","public_transport:version":"2"},"13137095":{"to":"Catania Borgo","ref":"2","from":"Randazzo","name":"Randazzo => Catania Borgo","type":"route","route":"train","network":"FCE","service":"light_rail","operator":"FCE","public_transport:version":"2"},"13137096":{"to":"Riposto","ref":"3","from":"Randazzo","name":"Randazzo => Riposto","type":"route","route":"train","network":"FCE","service":"light_rail","operator":"FCE","public_transport:version":"2"},"13152854":{"to":"Agrigento Centrale","ref":"385","via":"Termini-Imerese;Aragona-Caldare","from":"Palermo","name":"385: Palermo => Agrigento (R)","note":"Quadri orario di Trenitalia","type":"route","route":"train","network":"Trenitalia","service":"regional","operator":"Trenitalia","network:short":"TI","operator:short":"TI","operator_short":"TI","network:wikidata":"Q286650","network:wikipedia":"it:Trenitalia","operator:wikidata":"Q286650","operator:wikipedia":"it:Trenitalia","public_transport:version":"2"},"13152855":{"to":"Palermo","ref":"382","via":"Caltanissetta","from":"Catania","name":"382: Catania => Palermo (RV)","note":"Quadri orario di Trenitalia","type":"route","route":"train","network":"Trenitalia","service":"regional","operator":"Trenitalia","network:short":"TI","operator:short":"TI","operator_short":"TI","network:wikidata":"Q286650","network:wikipedia":"it:Trenitalia","operator:wikidata":"Q286650","operator:wikipedia":"it:Trenitalia","public_transport:version":"2"},"13155799":{"to":"Catania","ref":"382","via":"Caltanissetta","from":"Caltanissetta Centrale","name":"382: Caltanissetta Centrale => Catania (R)","note":"Quadri orario di Trenitalia","type":"route","route":"train","service":"regional","network:wikipedia":"it:Trenitalia","operator:wikipedia":"it:Trenitalia","public_transport:version":"2"},"13155800":{"to":"Caltanissetta Centrale","ref":"382","via":"Caltanissetta","from":"Catania","name":"382: Catania => Caltanissetta Centrale (R)","note":"Quadri orario di Trenitalia","type":"route","route":"train","service":"regional","network:wikipedia":"it:Trenitalia","operator:wikipedia":"it:Trenitalia","public_transport:version":"2"},"13165007":{"to":"Palermo","ref":"99","via":"Sant'Agata di Militello","from":"Messina","name":"99: Messina => Palermo (R)","note":"Quadri orario di Trenitalia","type":"route","route":"train","network":"Trenitalia","service":"regional","operator":"Trenitalia","network:short":"TI","operator:short":"TI","network:wikidata":"Q286650","network:wikipedia":"it:Trenitalia","operator:wikidata":"Q286650","operator:wikipedia":"it:Trenitalia","public_transport:version":"2"},"13165008":{"to":"Messina","ref":"99","via":"Sant'Agata di Militello","from":"Palermo","name":"99: Palermo => Messina (R)","note":"Quadri orario di Trenitalia","type":"route","route":"train","network":"Trenitalia","service":"regional","operator":"Trenitalia","network:short":"TI","operator:short":"TI","network:wikidata":"Q286650","network:wikipedia":"it:Trenitalia","operator:wikidata":"Q286650","operator:wikipedia":"it:Trenitalia","public_transport:version":"2"},"13165562":{"to":"Palermo Notarbartolo","ref":"M95","from":"Giachery","name":"M95: Giachery => Palermo Notarbartolo","note":"Quadri orario di Trenitalia","type":"route","route":"train","network":"Trenitalia","service":"commuter","operator":"Trenitalia","wikidata":"Q3616618","network:short":"TI","operator:short":"TI","network:wikidata":"Q286650","operator:wikidata":"Q286650","public_transport:version":"2"},"13165563":{"to":"Giachery","ref":"M95","from":"Palermo Notarbartolo","name":"M95: Palermo Notarbartolo => Giachery","note":"Quadri orario di Trenitalia","type":"route","route":"train","network":"Trenitalia","service":"commuter","operator":"Trenitalia","network:short":"TI","operator:short":"TI","network:wikidata":"Q286650","operator:wikidata":"Q286650","public_transport:version":"2"},"13165573":{"to":"Palermo Centrale","ref":"M95","from":"Punta Raisi","name":"M95: Punta Raisi => Palermo Centrale","note":"Quadri orario di Trenitalia","type":"route","route":"train","network":"Trenitalia","service":"commuter","operator":"Trenitalia","wikidata":"Q3897221","network:short":"TI","operator:short":"TI","network:wikidata":"Q286650","network:wikipedia":"it:Trenitalia","operator:wikidata":"Q286650","operator:wikipedia":"it:Trenitalia","public_transport:version":"2"},"13165574":{"to":"Punta Raisi","ref":"M95","from":"Palermo Centrale","name":"M95: Palermo Centrale => Punta Raisi","note":"Quadri orario di Trenitalia","type":"route","route":"train","network":"Trenitalia","service":"commuter","operator":"Trenitalia","network:short":"TI","operator:short":"TI","network:wikidata":"Q286650","operator:wikidata":"Q286650","public_transport:version":"2"},"13167231":{"to":"Palermo","ref":"99","via":"Sant'Agata di Militello","from":"Messina","name":"99: Messina => Palermo (RV)","note":"Quadri orario di Trenitalia","type":"route","route":"train","network":"Trenitalia","service":"regional","operator":"Trenitalia","network:short":"TI","operator:short":"TI","network:wikidata":"Q286650","network:wikipedia":"it:Trenitalia","operator:wikidata":"Q286650","operator:wikipedia":"it:Trenitalia","public_transport:version":"2"},"13167232":{"to":"Messina","ref":"99","via":"Sant'Agata di Militello","from":"Palermo","name":"99: Palermo => Messina (RV)","note":"Quadri orario di Trenitalia","type":"route","route":"train","network":"Trenitalia","service":"regional","operator":"Trenitalia","network:short":"TI","operator:short":"TI","network:wikidata":"Q286650","network:wikipedia":"it:Trenitalia","operator:wikidata":"Q286650","operator:wikipedia":"it:Trenitalia","public_transport:version":"2"},"13236579":{"to":"Belluno","ref":"R226","from":"Calalzo - Pieve di Cadore - Cortina","name":"R Calalzo P.C.C. -> Belluno","type":"route","route":"train","network":"Trenitalia","service":"regional","operator":"Trenitalia","wheelchair":"limited","network:short":"TI","operator:short":"TI","network:wikidata":"Q286650","network:wikipedia":"it:Trenitalia","operator:wikidata":"Q286650","operator:wikipedia":"it:Trenitalia"},"13236580":{"to":"Conegliano","ref":"R225","from":"Belluno","name":"R Belluno -> Conegliano","type":"route","route":"train","network":"Trenitalia","service":"regional","operator":"Trenitalia","network:short":"TI","operator:short":"TI","network:wikidata":"Q286650","network:wikipedia":"it:Trenitalia","operator:wikidata":"Q286650","operator:wikipedia":"it:Trenitalia"},"13236582":{"to":"Venezia Santa Lucia","ref":"R225","from":"Belluno","name":"R Belluno -> Venezia Santa Lucia","type":"route","route":"train","network":"Trenitalia","service":"regional","operator":"Trenitalia","wheelchair":"limited","network:short":"TI","operator:short":"TI","network:wikidata":"Q286650","network:wikipedia":"it:Trenitalia","operator:wikidata":"Q286650","operator:wikipedia":"it:Trenitalia"},"13236583":{"to":"Belluno","ref":"R225","from":"Venezia Santa Lucia","name":"R Venezia Santa Lucia -> Belluno","type":"route","route":"train","network":"Trenitalia","service":"regional","operator":"Trenitalia","network:short":"TI","operator:short":"TI","network:wikidata":"Q286650","network:wikipedia":"it:Trenitalia","operator:wikidata":"Q286650","operator:wikipedia":"it:Trenitalia"},"13268165":{"to":"Trapani","ref":"388","from":"Palermo Centrale","name":"388: Palermo Centrale => Trapani","note":"Quadri orario di Trenitalia","type":"route","route":"train","network":"Trenitalia","service":"regional","operator":"Trenitalia","network:short":"TI","operator:short":"TI","operator_short":"TI","network:wikidata":"Q286650","operator:wikidata":"Q286650","public_transport:version":"2"},"13268181":{"to":"Palermo Centrale","ref":"388","via":"Marsala;Mazara de Vallo;Castelvetrano;Gabellina","from":"Trapani","name":"388: Trapani => Palermo Centrale","note":"Quadri orario di Trenitalia","type":"route","route":"train","network":"Trenitalia","service":"regional","operator":"Trenitalia","network:short":"TI","operator:short":"TI","operator_short":"TI","network:wikidata":"Q286650","operator:wikidata":"Q286650","public_transport:version":"2"},"13271800":{"to":"Termini Imerese","ref":"99","from":"Palermo","name":"99: Palermo => Termini Imerese (R)","note":"Quadri orario di Trenitalia","type":"route","route":"train","network":"Trenitalia","service":"regional","operator":"Trenitalia","network:short":"TI","operator:short":"TI","network:wikidata":"Q286650","network:wikipedia":"it:Trenitalia","operator:wikidata":"Q286650","operator:wikipedia":"it:Trenitalia","public_transport:version":"2"},"13271801":{"to":"Palermo","ref":"99","from":"Termini Imerese","name":"99: Termini Imerese => Palermo (R)","note":"Quadri orario di Trenitalia","type":"route","route":"train","network":"Trenitalia","service":"regional","operator":"Trenitalia","network:short":"TI","operator:short":"TI","network:wikidata":"Q286650","network:wikipedia":"it:Trenitalia","operator:wikidata":"Q286650","operator:wikipedia":"it:Trenitalia","public_transport:version":"2"},"13332958":{"to":"Verona Porta Nuova","ref":"R 12","from":"Venezia Santa Lucia","name":"R Venezia S.L. -> Verona P.N.","type":"route","route":"train","network":"Trenitalia","operator":"Trenitalia","network:short":"TI","operator:short":"TI","network:wikidata":"Q286650","network:wikipedia":"it:Trenitalia","operator:wikidata":"Q286650","operator:wikipedia":"it:Trenitalia"},"13332959":{"to":"Venezia Santa Lucia","ref":"R 12","from":"Verona Porta Nuova","name":"R Verona P.N. -> Venezia S.L.","type":"route","route":"train","network":"Trenitalia","operator":"Trenitalia","network:short":"TI","operator:short":"TI","network:wikidata":"Q286650","network:wikipedia":"it:Trenitalia","operator:wikidata":"Q286650","operator:wikipedia":"it:Trenitalia"},"13332960":{"to":"Bassano del Grappa","ref":"R 232","from":"Venezia Santa Lucia","name":"R Venezia S.L. -> Bassano del Grappa","type":"route","route":"train","network":"Trenitalia","operator":"Trenitalia","network:short":"TI","operator:short":"TI","network:wikidata":"Q286650","network:wikipedia":"it:Trenitalia","operator:wikidata":"Q286650","operator:wikipedia":"it:Trenitalia"},"13332961":{"to":"Venezia Santa Lucia","ref":"R 232","from":"Bassano del Grappa","name":"R Bassano del Grappa -> Venezia S.L.","type":"route","route":"train","network":"Trenitalia","operator":"Trenitalia","network:short":"TI","operator:short":"TI","network:wikidata":"Q286650","network:wikipedia":"it:Trenitalia","operator:wikidata":"Q286650","operator:wikipedia":"it:Trenitalia"},"13333096":{"to":"Venezia Santa Lucia","ref":"R13","from":"Portogruaro - Caorle","name":"R Portogruaro Caorle -> Venezia S.L.","type":"route","route":"train","network":"Trenitalia","operator":"Trenitalia","network:short":"TI","operator:short":"TI","network:wikidata":"Q286650","network:wikipedia":"it:Trenitalia","operator:wikidata":"Q286650","operator:wikipedia":"it:Trenitalia"},"13333097":{"to":"Udine","ref":"R14","from":"Venezia Santa Lucia","name":"R Venezia S.L. -> Udine","type":"route","route":"train","network":"Trenitalia","operator":"Trenitalia","network:short":"TI","operator:short":"TI","network:wikidata":"Q286650","network:wikipedia":"it:Trenitalia","operator:wikidata":"Q286650","operator:wikipedia":"it:Trenitalia"},"13333098":{"to":"Portogruaro Caorle","ref":"R13","from":"Venezia Santa Lucia","name":"R Venezia S.L. -> Portogruaro Caorle","type":"route","route":"train","network":"Trenitalia","service":"regional","operator":"Trenitalia","network:short":"TI","operator:short":"TI","network:wikidata":"Q286650","network:wikipedia":"it:Trenitalia","operator:wikidata":"Q286650","operator:wikipedia":"it:Trenitalia"},"13414425":{"to":"Foggia","ref":"FdG","from":"Lucera","name":"Lucera → Foggia","type":"route","route":"train","service":"regional","operator":"FG"},"13687579":{"to":"Treviglio","fee":"yes","ref":"R6","from":"Cremona","name":"Treno R6: Cremona => Treviglio","type":"route","route":"train","colour":"#8dc63f","name:en":"Train R6: Cremona => Treviglio","name:it":"Treno R6: Cremona => Treviglio","service":"regional","website":"https://www.trenord.it/","duration":"01:12:00","interval":"01:00:00","operator":"Trenord","opening_hours":"Mo-Su 05:41-20:53","public_transport:version":"2"},"13687589":{"to":"Cremona","fee":"yes","ref":"R6","from":"Treviglio","name":"Treno R6: Treviglio => Cremona","type":"route","route":"train","colour":"#8dc63f","name:it":"Treno R6: Treviglio => Cremona","service":"regional","website":"https://www.trenord.it/","duration":"01:12:00","interval":"01:00:00","operator":"Trenord","opening_hours":"Mo-Su 06:07-22:19","public_transport:version":"2"},"13716009":{"to":"Empoli","ref":"R","via":"Badesse;Castellina Scalo;Poggibonsi-San Gimignano;Barberino Val d'Elsa;Certaldo;Castelfiorentino;Cambiano;Granaiolo;Ponte a Elsa","from":"Siena","name":"Treno Regionale Siena => Empoli","type":"route","route":"train","service":"regional","operator":"RFI","public_transport:version":"2"},"13802096":{"to":"Brescia","fee":"yes","ref":"R8","via":"Piadena","from":"Parma","name":"Treno R8: Parma => Brescia","type":"route","route":"train","colour":"#8dc63f","name:en":"Train R8: Parma => Brescia","name:it":"Treno R8: Parma => Brescia","service":"regional","website":"https://www.trenord.it/","duration":"01:55:00","interval":"01:00:00","operator":"Trenord","opening_hours":"Mo-Su 05:12-22:07","public_transport:version":"2"},"13802110":{"to":"Parma","fee":"yes","ref":"R8","via":"Piadena","from":"Brescia","name":"Treno R8: Brescia => Parma","type":"route","route":"train","colour":"#8dc63f","name:en":"Train R8: Brescia => Parma","name:it":"Treno R8: Brescia => Parma","service":"regional","website":"https://www.trenord.it/","duration":"01:58:00","interval":"01:00:00","operator":"Trenord","opening_hours":"Mo-Su 05:49-20:56","public_transport:version":"2"},"14313089":{"to":"Mezzolombardo","ref":"R35","from":"Trento","name":"R35: Trento-Mezzolombardo","type":"route","route":"train","bicycle":"limited","network":"Servizio Ferroviario","service":"light_rail","toilets":"yes","operator":"Trentino Trasporti","passenger":"regional","short_name":"FTM","wheelchair":"limited","toilets:wheelchair":"yes","public_transport:version":"2"},"14432435":{"to":"Locarno","fee":"yes","ref":"RE80","via":"Chiasso","from":"Milano Centrale","name":"Treno RE80: Milano Centrale => Locarno","note":"other half hour: Chiasso-Locarno","type":"route","route":"train","colour":"#ed1c24","network":"Rete celere del Canton Ticino","service":"long_distance","duration":"01:52:00","interval":"01:00:00","operator":"Treni Regionali Ticino Lombardia","wikidata":"Q107263607","opening_hours":"Mo-Fr 06:43-23:35, Sa-Su 06:43-24:35","operator:short":"TiLo","network:wikidata":"Q472259","operator:wikidata":"Q569273","public_transport:version":"2"},"14433201":{"to":"Domodossola","ref":"RE4","via":"Gallarate","from":"Milano Centrale","name":"Train RE4: Milano Centrale => Domodossola","type":"route","route":"train","colour":"#ed1c24","name:it":"Treno RE4: Milano Centrale => Domodossola","service":"regional","duration":"01:39:00","operator":"Trenord","opening_hours":"Mo-Su 07:25-23:04","public_transport:version":"2"},"14433202":{"to":"Milano Centrale","ref":"RE4","via":"Gallarate","from":"Domodossola","name":"Train RE4: Domodossola => Milano Centrale","type":"route","route":"train","colour":"#ed1c24","name:it":"Treno RE4: Domodossola => Milano Centrale","service":"regional","duration":"01:39:00","interval":"02:00:00","operator":"Trenord","opening_hours":"Mo-Su 04:56-22:35","public_transport:version":"2"},"14435096":{"to":"Brescia","ref":"R5","from":"Cremona","name":"Train R5: Cremona => Brescia","type":"route","route":"train","colour":"#8dc63f","name:it":"Treno R5: Cremona => Brescia","service":"regional","duration":"00:58:00","interval":"01:00:00","operator":"Trenord","public_transport:version":"2"},"14435101":{"to":"Cremona","ref":"R5","from":"Brescia","name":"Train R5: Brescia => Cremona","type":"route","route":"train","colour":"#8dc63f","name:it":"Treno R5: Brescia => Cremona","service":"regional","duration":"00:58:00","interval":"01:00:00","operator":"Trenord","public_transport:version":"2"},"14435114":{"to":"Spezzano Albanese Terme","via":"Lagonegro, Lauria, Galdo, Prestieri, Castelluccio Superiore, Castelluccio Inferiore, Laino Borgo, Papasidero, Mormanno, Campotenese, Pavone, Carbonaro, Morano Calabro, Castrovillari, Frascineto, Cassano allo Jonio, Spezzano Albanese","from":"Lagonegro","name":"Ferrovia dismessa Lagonegro-Spezzano Albanese Terme","type":"route","gauge":"950","route":"train","source":"https://www.ferrovieabbandonate.it/linea_dismessa.php?id=109","network":"regional","distance":"104.746","operator":"FCL","roundtrip":"no","wikipedia":"it:Ferrovia Lagonegro-Castrovillari-Spezzano Albanese","disused:railway":"narrow_gauge","public_transport:version":"1"},"14468580":{"to":"Milano Greco Pirelli","fee":"yes","ref":"R4","via":"Treviglio","from":"Brescia","name":"Treno R4: Brescia => Milano Greco Pirelli","type":"route","route":"train","colour":"#8dc63f","name:en":"Train R4: Brescia => Milano Greco Pirelli","name:it":"Treno R4: Brescia => Milano Greco Pirelli","service":"regional","website":"https://www.trenord.it/","duration":"01:20:00","operator":"Trenord","reservation":"no","opening_hours":"Mo-Su 04:38-23:08","public_transport:version":"2"},"14468583":{"to":"Brescia","fee":"yes","ref":"R4","via":"Treviglio","from":"Milano Greco Pirelli","name":"Treno R4: Milano Greco Pirelli => Brescia","type":"route","route":"train","colour":"#8dc63f","name:en":"Train R4: Milano Greco Pirelli => Brescia","name:it":"Treno R4: Milano Greco Pirelli => Brescia","service":"regional","duration":"01:20:00","interval":"01:00:00","operator":"Trenord","opening_hours":"Mo-Su 05:52-23:12","public_transport:version":"2"},"14472838":{"to":"Lecco","ref":"R7","from":"Ponte San Pietro","name":"Train R7: Bergamo => Lecco","note":"Linea chiusa tra Bergamo e Ponte S. Pietro per lavori","type":"route","route":"train","source":"https://www.trenord.it/raddoppio-bergamo-ponte-san-pietro-e-nodo-di-bergamo/","name:it":"Treno R7: Bergamo => Lecco","service":"regional","duration":"01:02:00","interval":"01:00:00","operator":"Trenord","reservation":"no","public_transport:version":"2"},"14472843":{"to":"Ponte San Pietro","ref":"R7","from":"Lecco","name":"Train R7: Lecco => Bergamo","note":"Linea chiusa tra Bergamo e Ponte S. Pietro per lavori","type":"route","route":"train","source":"https://www.trenord.it/raddoppio-bergamo-ponte-san-pietro-e-nodo-di-bergamo/","name:it":"Treno R7: Lecco => Bergamo","service":"regional","duration":"01:02:00","interval":"01:00:00","operator":"Trenord","reservation":"no","public_transport:version":"2"},"14519168":{"name":"Ferrovia Appennino Centrale","type":"route","route":"train","wikidata":"Q3743293","abandoned":"yes","wikipedia":"it:Ferrovia Appennino Centrale"},"14604681":{"to":"Locarno","fee":"yes","ref":"RE80","from":"Chiasso","name":"Treno RE80: Chiasso => Locarno","note":"other half hour: Milano-Locarno","type":"route","route":"train","colour":"#ed1c24","network":"Rete celere del Canton Ticino","service":"long_distance","interval":"01:00:00","operator":"Treni Regionali Ticino Lombardia","wikidata":"Q107263607","operator:short":"TiLo","network:wikidata":"Q472259","operator:wikidata":"Q569273","public_transport:version":"2"},"14604784":{"to":"Biasca","fee":"yes","ref":"S10","from":"Como San Giovanni","name":"Treno S10: Como San Giovanni => Biasca","note":"other half hour: Chiasso-Biasca","type":"route","route":"train","colour":"#ed1c24","network":"Rete celere del Canton Ticino","service":"regional","website":"https://www.tilo.ch/collegamenti/S10.html","interval":"01:00:00","operator":"Treni Regionali Ticino Lombardia","wikidata":"Q3832722","wikipedia":"it:Linea S10 (rete celere del Canton Ticino)","start_date":"2004","operator:short":"TiLo","network:wikidata":"Q472259","operator:wikidata":"Q569273","public_transport:version":"2"},"14604785":{"to":"Biasca","fee":"yes","ref":"S10","from":"Chiasso","name":"Treno S10: Chiasso => Biasca","note":"other half hour: Como-Biasca","type":"route","route":"train","colour":"#ed1c24","network":"Rete celere del Canton Ticino","service":"regional","website":"https://www.tilo.ch/collegamenti/S10.html","interval":"01:00:00","operator":"Treni Regionali Ticino Lombardia","wikidata":"Q3832722","wikipedia":"it:Linea S10 (rete celere del Canton Ticino)","start_date":"2004","operator:short":"TiLo","network:wikidata":"Q472259","operator:wikidata":"Q569273","public_transport:version":"2"},"14604989":{"to":"Cadenazzo","fee":"yes","ref":"S30","from":"Gallarate","name":"Treno S30: Gallarate => Cadenazzo","type":"route","route":"train","colour":"#00a651","network":"Rete celere del Canton Ticino","service":"regional","website":"https://www.tilo.ch/collegamenti/S30.html","operator":"Treni Regionali Ticino Lombardia","wikidata":"Q3832740","wikipedia":"it:Linea S30 (rete celere del Canton Ticino)","start_date":"2004","operator:short":"TiLo","network:wikidata":"Q472259","operator:wikidata":"Q569273","public_transport:version":"2"},"14605486":{"to":"Biasca","fee":"yes","ref":"S50","from":"Malpensa Aeroporto Terminal 2","name":"Treno S50: Malpensa Aeroporto => Biasca","type":"route","route":"train","colour":"#7d4808","network":"Rete celere del Canton Ticino","service":"regional","website":"https://www.tilo.ch/collegamenti/S50.html","operator":"Treni Regionali Ticino Lombardia","wikidata":"Q47219058","wikipedia":"it:Linea S50 (rete celere del Canton Ticino)","start_date":"2014","operator:short":"TiLo","network:wikidata":"Q472259","operator:wikidata":"Q569273","public_transport:version":"2"},"14605487":{"to":"Como San Giovanni","fee":"yes","ref":"S40","from":"Varese","name":"Treno S40: Varese => Como San Giovanni","type":"route","route":"train","colour":"#6cc27f","network":"Rete celere del Canton Ticino","service":"regional","website":"https://www.tilo.ch/collegamenti/S40.html","operator":"Treni Regionali Ticino Lombardia","wikidata":"Q47219003","wikipedia":"it:Linea S40 (rete celere del Canton Ticino)","start_date":"2014","operator:short":"TiLo","network:wikidata":"Q472259","operator:wikidata":"Q569273","public_transport:version":"2"},"14605488":{"to":"Varese","fee":"yes","ref":"S40","from":"Como San Giovanni","name":"Treno S40: Como San Giovanni => Varese","type":"route","route":"train","colour":"#6cc27f","network":"Rete celere del Canton Ticino","service":"regional","website":"https://www.tilo.ch/collegamenti/S40.html","operator":"Treni Regionali Ticino Lombardia","wikidata":"Q47219003","wikipedia":"it:Linea S40 (rete celere del Canton Ticino)","start_date":"2014","operator:short":"TiLo","network:wikidata":"Q472259","operator:wikidata":"Q569273","public_transport:version":"2"},"14655792":{"to":"Novara","ref":"131","from":"Domodossola","name":"R Domodossola - Borgomanero - Novara","type":"route","route":"train","network":"Trenitalia","service":"regional","operator":"Trenitalia","network:short":"TI","operator:short":"TI","network:wikidata":"Q286650","operator:wikidata":"Q286650"},"14745794":{"to":"Montalbano Jonico","via":"Ferrandina, Pisticci","from":"Matera","name":"Ferrovia dismessa Matera-Montalbano Jonico","type":"route","gauge":"950","route":"train","source":"https://www.ferrovieabbandonate.it/linea_dismessa.php?id=116","network":"regional","end_date":"1972-1974","operator":"FCL","start_date":"1928-1932","electrified":"no","disused:railway":"rail","public_transport:version":"1"},"14931235":{"name":"Ferrovia Viterbo P.F.- Attigliano (tratta mancante)","type":"route","route":"train"},"14974808":{"to":"Mezzana","ref":"R35","from":"Trento","name":"R35: Trento-Mezzolombardo-Mezzana","type":"route","route":"train","bicycle":"limited","network":"Servizio Ferroviario","service":"light_rail","toilets":"yes","operator":"Trentino Trasporti","passenger":"regional","short_name":"FTM","wheelchair":"limited","toilets:wheelchair":"yes","public_transport:version":"2"},"15081905":{"to":"Reggio Emilia","ref":"Reggio Emilia - Guastalla","from":"Guastalla","name":"Treno: Guastalla - Reggio Emilia","type":"route","gauge":"1435","route":"train","network":"FER","service":"regional","maxspeed":"70","operator":"Trenitalia Tper Scarl","wikidata":"Q3743582","wikipedia":"it:Ferrovia Reggio Emilia-Guastalla","public_transport:version":"2"},"15081906":{"to":"Guastalla","ref":"Reggio Emilia - Guastalla","from":"Reggio Emilia","name":"Treno: Reggio Emilia - Guastalla","type":"route","gauge":"1435","route":"train","network":"FER","service":"regional","maxspeed":"70","operator":"Trenitalia Tper Scarl","wikidata":"Q3743582","wikipedia":"it:Ferrovia Reggio Emilia-Guastalla","public_transport:version":"2"},"15081907":{"to":"Guastalla","ref":"Reggio Emilia - Guastalla","from":"Reggio San Lazzaro","name":"Treno: Reggio San Lazzaro - Guastalla","type":"route","gauge":"1435","route":"train","network":"FER","service":"regional","maxspeed":"70","operator":"Trenitalia Tper Scarl","wikidata":"Q3743582","wikipedia":"it:Ferrovia Reggio Emilia-Guastalla","public_transport:version":"2"},"15089161":{"to":"Reggio Emilia","ref":"Reggio Emilia - Sassuolo","from":"Sassuolo Radici","name":"Treno: Sassuolo Radici - Reggio Emilia","type":"route","route":"train","network":"FER","service":"regional","operator":"Trenitalia Tper Scarl","operator:wikidata":"Q1077360","public_transport:version":"2"},"15313283":{"to":"Agrigento Centrale","ref":"385","via":"Termini-Imerese;Aragona-Caldare","from":"Palermo","name":"385: Agrigento => Palermo (R)","note":"Quadri orario di Trenitalia","type":"route","route":"train","network":"Trenitalia","service":"regional","operator":"Trenitalia","network:short":"TI","operator:short":"TI","operator_short":"TI","network:wikidata":"Q286650","network:wikipedia":"it:Trenitalia","operator:wikidata":"Q286650","operator:wikipedia":"it:Trenitalia","public_transport:version":"2"},"15313284":{"to":"Catania","ref":"382","via":"Caltanissetta","from":"Palermo","name":"382: Palermo => Catania (RV)","note":"Quadri orario di Trenitalia","type":"route","route":"train","network":"Trenitalia","service":"regional","operator":"Trenitalia","network:short":"TI","operator:short":"TI","operator_short":"TI","network:wikidata":"Q286650","network:wikipedia":"it:Trenitalia","operator:wikidata":"Q286650","operator:wikipedia":"it:Trenitalia","public_transport:version":"2"},"15344579":{"to":"Bari Centrale","from":"Fesca - San Girolamo","name":"Raccordo Fesca - San Girolamo FT - Binario V Ovest RFI Bari Centrale","type":"route","route":"train","operator":"Ferrotramviaria"},"15360569":{"to":"Venezia Santa Lucia","ref":"R","via":"Piove di Sacco;Venezia Mestre","from":"Adria","name":"Adria -> Venezia","type":"route","route":"train","name:de":"Adria -> Venedig","network":"regional","service":"regional","operator":"Sistemi Territoriali"},"15360570":{"to":"Piove di Sacco","ref":"R","from":"Adria","name":"Adria -> Piove di Sacco","type":"route","route":"train","network":"regional","service":"regional","operator":"Sistemi Territoriali"},"15360571":{"to":"Venezia Mestre","ref":"R","via":"Piove di Sacco","from":"Adria","name":"Adria -> Mestre","type":"route","route":"train","network":"regional","service":"regional","operator":"Sistemi Territoriali"},"15360578":{"to":"Venezia Santa Lucia","ref":"R","via":"Venezia Mestre","from":"Piove di Sacco","name":"Piove di Sacco -> Venezia","type":"route","route":"train","name:de":"Piove di Sacco -> Venedig","network":"regional","service":"regional","operator":"Sistemi Territoriali"},"15398029":{"name":"Ex tracciato FCS Isili-Villacidro","type":"route","gauge":"950","route":"train","railway":"abandoned","end_date":"1956","wikidata":"Q802474","abandoned":"yes","wikipedia":"it:Ferrovia Isili-Villacidro","start_date":"1915"},"15515462":{"to":"Piombino Marittima","ref":"RE 18255","via":"Pisa Centrale","from":"Firenze Santa Maria Novella","name":"Firenze → Piombino Marittima","type":"route","route":"train","network":"regional","service":"regional","duration":"02:32:00","maxspeed":"170","operator":"Trenitalia","passenger":"regional","restaurant":"no","wheelchair":"yes","reservation":"no","surveillance":"indoor","air_conditioning":"yes","surveillance:type":"camera","public_transport:version":"1"},"15669219":{"to":"Caltanissetta Xirbi","ref":"378","from":"Agrigento Centrale","name":"378: Agrigento => Caltanissetta Xirbi","type":"route","route":"train","network":"RFI","service":"regional","public_transport:version":"2"},"15669220":{"to":"Agrigento Centrale","ref":"378","from":"Caltanissetta Xirbi","name":"378: Caltanissetta Xirbi => Agrigento","type":"route","route":"train","network":"RFI","service":"regional","public_transport:version":"2"},"15729586":{"to":"Isola della Scala","via":"Castel d'Azzano;Vigasio","from":"Dossobuono","name":"Dossobuono-Isola della Scala","type":"route","gauge":"1435","route":"train","railway":"disused","end_date":"1985","operator":"Ferrovie dello Stato","start_date":"1877","electrified":"no"},"15737274":{"to":"Borgo Valsugana Est","ref":"R26","from":"Trento","name":"R26: Trento => Borgo Valsugana","type":"route","route":"train","bicycle":"limited","service":"regional","toilets":"yes","operator":"Trenitalia;Trentino Trasporti","passenger":"regional","wheelchair":"limited","surveillance":"indoor","contact:website":"https://www.trentinotrasporti.it/viaggia-con-noi/ferrovia","toilets:wheelchair":"yes","public_transport:version":"2"},"15859867":{"to":"Monfalcone","ref":"R","from":"Udine","name":"Udine - Monfalcone","type":"route","route":"train","service":"regional","public_transport:version":"2"},"15985655":{"to":"Civitanova Marche-Montegranaro","ref":"R","via":"Macerata","from":"Fabriano","name":"Train R: Fabriano → Macerata → Civitanova Marche-Montegranaro","type":"route","route":"train","network":"Trenitalia","service":"regional","operator":"Trenitalia","network:short":"TI","operator:short":"TI","network:wikidata":"Q286650","operator:wikidata":"Q286650","public_transport:version":"2"},"15985656":{"to":"Fabriano","ref":"R","via":"Macerata","from":"Civitanova Marche-Montegranaro","name":"Train R: Civitanova Marche-Montegranaro → Macerata → Fabriano","type":"route","route":"train","network":"Trenitalia","service":"regional","operator":"Trenitalia","network:short":"TI","operator:short":"TI","network:wikidata":"Q286650","operator:wikidata":"Q286650","public_transport:version":"2"},"16317511":{"to":"Milano Porta Garibaldi","ref":"R14","via":"Carnate-Usmate","from":"Ponte San Pietro","name":"Treno R14: Bergamo - Carnate – Milano","note":"Linea chiusa tra Bergamo e Ponte S. Pietro per lavori","type":"route","route":"train","source":"https://www.trenord.it/raddoppio-bergamo-ponte-san-pietro-e-nodo-di-bergamo/","name:en":"R14 Train: Bergamo - Carnate – Milano","name:it":"Treno R14: Bergamo - Carnate – Milano","network":"STIBM","service":"commuter","duration":"00:55:00","interval":"01:00:00","operator":"Trenord","opening_hours":"Mo-Su 05:30-22:30","network:wikidata":"Q65125405","operator:wikipedia":"en:Trenord"},"16552450":{"to":"San Pellegrino Terme","ref":"FUNV","from":"Vetta","name":"Vetta - San Pellegrino Terme","type":"route","route":"train","network":"Atb","service":"tourism","operator":"Azienda Trasporti Bergamo","wikidata":"Q28669952","wikipedia":"it:Funicolare di San Pellegrino","public_transport:version":"2"},"16640417":{"to":"Taranto","ref":"RFI","from":"Bari Centrale","name":"Bari-Taranto","type":"route","route":"train","service":"regional","operator":"RFI"},"17004150":{"to":"Bari Centrale","from":"Bitritto","name":"FM3 - Ferrovia Metropolitana Bitritto → Bari","type":"route","route":"train","network":"RFI","service":"commuter","operator":"FT","public_transport:version":"2"},"17373323":{"name":"Ferrovia Trieste-Aquilinia FreeEste","type":"route","route":"train"},"17373338":{"name":"Ferrovia Trieste Aquilinia - Valle Noghere (muggia)","type":"route","route":"train","network":"RFI","operator":"RFI"},"17478504":{"to":"Lecco","ref":"R13","from":"Sondrio","name":"Treno R13: Sondrio => Lecco","type":"route","route":"train","colour":"#91C84B","bicycle":"yes","name:en":"Train R13: Sondrio => Lecco","name:it":"Treno R13: Sondrio => Lecco","service":"regional","duration":"01:55:00","interval":"01:00:00","operator":"Trenord","wheelchair":"limited","reservation":"no","opening_hours":"Mo-Su 06:00-21:30","public_transport:version":"2"},"17478505":{"to":"Sondrio","ref":"R13","from":"Lecco","name":"Treno R13: Lecco => Sondrio","type":"route","route":"train","colour":"#91C84B","bicycle":"yes","name:en":"Train R13: Lecco => Sondrio","name:it":"Treno R13: Lecco => Sondrio","service":"regional","duration":"01:55:00","interval":"01:00:00","operator":"Trenord","wheelchair":"limited","reservation":"no","opening_hours":"Mo-Su 06:00-21:30","public_transport:version":"2"},"17478506":{"to":"Milano Centrale","ref":"RE8","from":"Tirano","name":"Treno RE8: Tirano => Milano Centrale","type":"route","route":"train","colour":"#EE3338","bicycle":"yes","comment":"http://wiki.openstreetmap.org/wiki/Milano/Trasporti_pubblici","name:en":"Train RE8: Tirano => Milano Centrale","name:it":"Treno RE8: Tirano => Milano Centrale","service":"regional","duration":"02:32:00","interval":"01:00:00","operator":"Trenord","wheelchair":"limited","reservation":"no","opening_hours":"Mo-Su 06:00-22:30","public_transport:version":"2"},"17478507":{"to":"Tirano","ref":"RE8","from":"Milano Centrale","name":"Treno RE8: Milano Centrale => Tirano","type":"route","route":"train","colour":"#EE3338","bicycle":"yes","comment":"http://wiki.openstreetmap.org/wiki/Milano/Trasporti_pubblici","name:en":"Train RE8: Milano Centrale => Tirano","name:it":"Treno RE8: Milano Centrale => Tirano","service":"regional","duration":"02:32:00","interval":"01:00:00","operator":"Trenord","wheelchair":"limited","reservation":"no","opening_hours":"Mo-Su 06:00-22:30","public_transport:version":"2"}}