{"1789208":{"name":"Mombasa-Nairobi Railway","type":"route","gauge":"1000","route":"train","usage":"main","network":"Kenya Railways","alt_name":"Uganda Railway","operator":"Kenya Railways","operator:short":"KR","operator:wikidata":"Q1663639"},"7190306":{"name":"Mombasa-Nairobi SGR","type":"route","route":"train","name:en":"Mombasa-Nairobi SGR","name:zh":"蒙巴萨－内罗毕标准轨铁路(蒙内铁路)","wikidata":"Q24088686","wikipedia":"en:Mombasa–Nairobi Standard Gauge Railway","name:zh-Hans":"蒙巴萨－内罗毕标准轨铁路(蒙内铁路)","name:zh-Hant":"蒙巴薩－奈洛比標準軌鐵路(蒙奈鐵路)"},"7329392":{"to":"Mombasa","from":"Nairobi","name":"Madaraka Express : Nairobi - Mombasa","type":"route","route":"train","website":"https://krc.co.ke/","operator":"Kenya Railways","wikidata":"Q24088686","passenger":"national","wikipedia":"en:Mombasa–Nairobi Standard Gauge Railway","public_transport:version":"2"},"8489646":{"to":"Syokimau","ref":"SYK","from":"Nairobi","name":"NCR : Nairobi <-> Syokimau","type":"route","route":"train","train":"yes","network":"Nairobi Commuter Rail Service","operator":"Kenya Railways","wikidata":"Q124521879","passenger":"suburban","public_transport:version":"2"},"8489647":{"to":"Limuru","ref":"KKY","from":"Nairobi","name":"NCR : Nairobi <-> Limuru","type":"route","route":"train","train":"yes","network":"Nairobi Commuter Rail Service","operator":"Kenya Railways","wikidata":"Q124527546","passenger":"suburban","source_ref:name":"https://krc.co.ke/wp-content/uploads/2024/02/Nairobi-Commuter-Rail-Service-Schedule-2024.pdf","public_transport:version":"2"},"8489648":{"to":"Ruiru","ref":"RIU","from":"Nairobi","name":"NCR : Nairobi <-> Ruiru","type":"route","route":"train","train":"yes","network":"Nairobi Commuter Rail Service","operator":"Kenya Railways","wikidata":"Q124536401","passenger":"suburban","public_transport:version":"2"},"10167882":{"to":"Suswa","from":"Nairobi","name":"Madaraka Express : Nairobi - Suswa","type":"route","route":"train","train":"yes","name:en":"Madaraka Express : Nairobi - Suswa","operator":"Kenya Railways","passenger":"national","public_transport:version":"2"},"13180873":{"to":"Embakasi Village","ref":"EKV","from":"Nairobi","name":"NCR : Nairobi <-> Embakasi Village","type":"route","route":"train","train":"yes","network":"Nairobi Commuter Rail Service","operator":"Kenya Railways","wikidata":"Q124522867","passenger":"suburban","public_transport:version":"2"},"13180874":{"name":"Mombasa-Nairobi Railway","type":"route","gauge":"1000","route":"train","usage":"main","network":"Kenya Railways","alt_name":"Uganda Railway","operator":"Kenya Railways","operator:short":"KR","operator:wikidata":"Q1663639"},"13180875":{"to":"Lukenya (Kitengela)","ref":"LKY","from":"Nairobi","name":"NCR : Nairobi <-> Lukenya (Kitengela)","type":"route","route":"train","train":"yes","network":"Nairobi Commuter Rail Service","operator":"Kenya Railways","wikidata":"Q124527576","passenger":"suburban","public_transport:version":"2"}}