{"3838986":{"to":"平壤","ref":"K27/K28","from":"北京","name":"K27/28","type":"route","route":"train","name:ja":"北京–平壌","name:ko":"북경–평양","name:ru":"Пекин — Пхеньян","public_transport:version":"2"},"3839008":{"to":"Sinuiju","ref":"51, 52, 53, 54, 85, 86","from":"Pyongyang","name":"51, 52, 53, 54, 85, 86 평양–신의주","type":"route","route":"train","name:ja":"平壌–新義州","name:ko":"평양–신의주","name:ru":"Пхеньян — Синыйджу","name:zh":"平壤–新义州","network":"조선민주주의인민공화국 철도성","public_transport:version":"2"},"8259408":{"to":"우쑤리스크역","from":"평양역","name":"평양–우쑤리스크","type":"route","route":"train","name:en":"Pyongyang — Ussuriysk","name:ko":"평양–우쑤리스크","name:ru":"Пхеньян — Уссурийск","network":"조선민주주의인민공화국 철도","operator":"조선민주주의인민공화국 철도성","public_transport:version":"1"},"11485462":{"to":"Haeju","ref":"240, 241, 242, 243","from":"Nampo","name":"240, 241, 242, 243 Nampo - Haeju","type":"route","route":"train","operator":"조선민주주의인민공화국 철도성","public_transport:version":"2"},"11485971":{"to":"Kaesong","ref":"222, 223, 224","from":"Pyongyang (Kalli)","name":"222, 223, 224 Pyongyang (Kalli) - Kaesong","type":"route","route":"train","operator":"조선민주주의인민공화국 철도성","public_transport:version":"2"},"11486156":{"to":"Hyesan","ref":"3, 4","from":"Pyongyang","name":"Express Trains 3/4 Pyongyang-Manpo-Hyesan","type":"route","route":"train","operator":"조선민주주의인민공화국 철도성","public_transport:version":"2"},"11486255":{"to":"Tokchon","ref":"231, 232","from":"Pyongyang (Taedonggang station)","name":"231, 232 Pyongyang (Taedonggang station) - Tokchon","type":"route","route":"train","operator":"조선민주주의인민공화국 철도성","public_transport:version":"2"},"11487973":{"to":"Pyonggang","ref":"13, 14, 117, 118","from":"Pyongyang","name":"13, 14, 117, 118 Pyongyang - Pyonggang","type":"route","route":"train","operator":"조선민주주의인민공화국 철도성","public_transport:version":"2"},"11488034":{"to":"Hyesan","ref":"1, 2","from":"Pyongyang","name":"Express trains 1/2 Pyongyang - Hyesan","type":"route","route":"train","operator":"조선민주주의인민공화국 철도성","public_transport:version":"2"},"11882627":{"name":"금강산 청년 선 (金剛山 靑 年 線)","note":"train number unknown","type":"route","route":"train","name:en":"Kumgangsan Chongnyon Line","name:fr":"Ligne Kumgangsan Chongnyon","abandoned":"yes","public_transport:version":"2"},"13746443":{"name":"후주고읍 임산철로","type":"route","route":"train","railway":"narrow_gauge"},"14351044":{"to":"온천","ref":"375","from":"남포","name":"375 남포>온천","type":"route","route":"train","operator":"조선민주주의인민공화국 철도성","public_transport:version":"2"},"14351576":{"to":"장동","ref":"710/711","from":"고원","name":"710/711 고원>장동","type":"route","route":"train","name:en":"710/711 Kowŏn>Changdong","operator":"조선민주주의인민공화국 철도성","public_transport:version":"2"},"14351735":{"to":"Mandok","ref":"931, 932","from":"Hochon","name":"Hochon - Mandok","type":"route","route":"train","operator":"조선민주주의인민공화국 철도성"},"14353763":{"to":"Musan","ref":"9, 10","from":"Pyongyang","name":"9, 10 Pyongyang - Musan","type":"route","route":"train","operator":"조선민주주의인민공화국 철도성","public_transport:version":"2"},"14353764":{"to":"Kumgol","ref":"11, 12","from":"Pyongyang","name":"11, 12 Pyongyang - Kumgol","type":"route","route":"train","operator":"조선민주주의인민공화국 철도성","public_transport:version":"2"},"14356519":{"to":"Hasŏng","ref":"384","from":"Haeju","name":"384 해주>하성","type":"route","route":"train","name:en":"384 Haeju - Hasŏng","operator":"조선민주주의인민공화국 철도성","public_transport:version":"2"},"14356520":{"to":"Cholgwang","ref":"244, 245, 246, 247","from":"Haeju","name":"Haeju-Cholgwang","type":"route","route":"train","operator":"조선민주주의인민공화국 철도성","public_transport:version":"2"},"14356521":{"to":"Manpo","ref":"15, 16, 17, 18","from":"Haeju","name":"Haeju - Manpo","type":"route","route":"train","operator":"조선민주주의인민공화국 철도성","public_transport:version":"2"},"14356522":{"to":"Pyongyang","ref":"68","from":"Haeju","name":"Haeju - Pyongyang","type":"route","route":"train","operator":"조선민주주의인민공화국 철도성","public_transport:version":"2"},"14356523":{"to":"Songdowon","ref":"64, 65, 66, 67","from":"Haeju","name":"64, 65, 66, 67 Haeju - Pyongyang - Songdowon","type":"route","route":"train","operator":"조선민주주의인민공화국 철도성","public_transport:version":"2"},"14356524":{"to":"Haeju","ref":"25, 26, 27, 28","from":"Onsong","name":"Onsong - Haeju","type":"route","route":"train","operator":"조선민주주의인민공화국 철도성","public_transport:version":"2"},"14356525":{"to":"Sinchon","ref":"119, 120, 121, 122","from":"Chongjin","name":"Chongjin - Sinchon","type":"route","route":"train","operator":"조선민주주의인민공화국 철도성","public_transport:version":"2"},"14356526":{"to":"Changyon","ref":"138, 139, 140, 141","from":"Manpo","name":"Manpo - Changyon","type":"route","route":"train","operator":"조선민주주의인민공화국 철도성","public_transport:version":"2"},"14356527":{"to":"Cholgwang","ref":"219, 220","from":"Pyongyang (Taedonggang station)","name":"Pyongyang (Taedonggang station) - Cholgwang","type":"route","route":"train","operator":"조선민주주의인민공화국 철도성","public_transport:version":"2"},"14356528":{"to":"남포","ref":"362","from":"철광","name":"362 철광>남포","type":"route","route":"train","operator":"조선민주주의인민공화국 철도성","public_transport:version":"2"},"14356529":{"to":"Kaesong","ref":"142, 143, 144, 145","from":"Sinuiju","name":"Sinuiju - Kaesong","type":"route","route":"train","operator":"조선민주주의인민공화국 철도성","public_transport:version":"2"},"14356530":{"to":"Kaesong","ref":"142, 143, 144, 145","from":"Sinuiju","name":"142, 143, 144, 145 Sinuiju - Kaesong","type":"route","route":"train","operator":"조선민주주의인민공화국 철도성","public_transport:version":"2"},"14356531":{"to":"Hyesan","ref":"104, 107, 108, 111","from":"Haeju","name":"Haeju - Hyesan","type":"route","route":"train","operator":"조선민주주의인민공화국 철도성","public_transport:version":"2"},"14356539":{"to":"Rajin","ref":"128, 129, 130, 131, 132, 133","from":"Kalma","name":"Kalma - Rajin","type":"route","route":"train","operator":"조선민주주의인민공화국 철도성","public_transport:version":"2"},"14356540":{"to":"Songdowon","ref":"70, 71, 72, 73","from":"Chongjin","name":"Chongjin - Songdowon","type":"route","route":"train","operator":"조선민주주의인민공화국 철도성","public_transport:version":"2"},"14356602":{"to":"Sariwon","ref":"202, 203, 204, 205, 206, 207","from":"Hamhung","name":"Hamhung - Sariwon","type":"route","route":"train","operator":"조선민주주의인민공화국 철도성","public_transport:version":"2"},"14356603":{"to":"Tokchon","ref":"236, 237, 238, 239","from":"Sariwon","name":"236, 237, 238, 239 Sariwon - Tokchon","type":"route","route":"train","operator":"조선민주주의인민공화국 철도성","public_transport:version":"2"},"14356604":{"to":"Sariwon","ref":"34, 35, 36, 37","from":"Sinuiju","name":"34, 35, 36, 37 Sinuiju - Sariwon <Interior division>","type":"route","route":"train","operator":"조선민주주의인민공화국 철도성","public_transport:version":"2"},"14356646":{"to":"Sinuiju","ref":"146, 147, 148, 149","from":"Nampo","name":"146, 147, 148, 149 Nampo - Sinuiju","type":"route","route":"train","operator":"조선민주주의인민공화국 철도성","public_transport:version":"2"},"14356647":{"to":"Nampo","ref":"208, 211","from":"Sinuiju","name":"208, 211 Sinuiju - Nampo","type":"route","route":"train","operator":"조선민주주의인민공화국 철도성","public_transport:version":"2"},"14356653":{"to":"마영","ref":"733","from":"강서","name":"733 강서>마영","type":"route","route":"train","operator":"조선민주주의인민공화국 철도성","public_transport:version":"2"},"14356699":{"to":"Pyongnam Onchon","ref":"225, 230","from":"Pyongyang (Potonggang station)","name":"225, 230 Pyongyang (Potonggang station) - Pyongnam Onchon","type":"route","route":"train","operator":"조선민주주의인민공화국 철도성","public_transport:version":"2"},"14356700":{"to":"Pyongnam Onchon","ref":"226, 227, 228, 229","from":"Tokchon","name":"226, 227, 228, 229 Tokchon - Pyongnam Onchon","type":"route","route":"train","operator":"조선민주주의인민공화국 철도성","public_transport:version":"2"},"14357026":{"to":"Sinuiju","ref":"5, 6","from":"Pyongyang","name":"5, 6 Pyongyang - Sinuiju","type":"route","route":"train","operator":"조선민주주의인민공화국 철도성","public_transport:version":"2"},"14357027":{"to":"Manpo","ref":"19, 20","from":"Pyongyang","name":"19, 20 Pyongyang - Manpo","type":"route","route":"train","operator":"조선민주주의인민공화국 철도성","public_transport:version":"2"},"14357028":{"to":"Myohyangsan","ref":"21, 22","from":"Pyongyang","name":"21, 22 Pyongyang - Myohyangsan","type":"route","route":"train","operator":"조선민주주의인민공화국 철도성","public_transport:version":"2"},"14357029":{"to":"Chongsu","ref":"115, 116","from":"Pyongyang","name":"115, 116 Pyongyang - Chongsu","type":"route","route":"train","operator":"조선민주주의인민공화국 철도성","public_transport:version":"2"},"14357030":{"to":"Chongsu","ref":"200, 201","from":"Pyongyang","name":"200, 201 Pyongyang - Chongsu","type":"route","route":"train","operator":"조선민주주의인민공화국 철도성","public_transport:version":"2"},"14357031":{"to":"Sinuiju","ref":"124, 125, 126, 127","from":"Chongjin","name":"124, 125, 126, 127 Chongjin - Sinuiju","type":"route","route":"train","operator":"조선민주주의인민공화국 철도성","public_transport:version":"2"},"14357032":{"to":"Huichon","ref":"250, 251, 252, 253","from":"Sinuiju","name":"250, 251, 252, 253    Sinuiju - Huichon","type":"route","route":"train","operator":"조선민주주의인민공화국 철도성","public_transport:version":"2"},"14357100":{"to":"Manpo","ref":"15, 16, 17, 18","from":"Haeju","name":"15, 16, 17, 18 Haeju - Manpo","type":"route","route":"train","operator":"조선민주주의인민공화국 철도성","public_transport:version":"2"},"14357101":{"to":"Changyon","ref":"138, 139, 140, 141","from":"Manpo","name":"138, 139, 140, 141 Manpo - Changyon","type":"route","route":"train","operator":"조선민주주의인민공화국 철도성","public_transport:version":"2"},"14357102":{"to":"Onsong","ref":"113, 114","from":"West Pyongyang","name":"113, 114 West Pyongyang - Onsong","type":"route","route":"train","operator":"조선민주주의인민공화국 철도성","public_transport:version":"2"},"14357131":{"to":"Manpo","ref":"134, 135, 136, 137","from":"Hamhung","name":"134, 135, 136, 137      Hamhung - Manpo","type":"route","route":"train","operator":"조선민주주의인민공화국 철도성","public_transport:version":"2"},"14357138":{"to":"구장","ref":"781","from":"덕천","name":"781 덕천>구장","type":"route","route":"train","name:en":"781 Tokchon>Kujang","operator":"조선민주주의인민공화국 철도성","public_transport:version":"2"},"14357264":{"to":"Kangdong","ref":"302, 303, 304, 305","from":"Sunan","name":"302, 303, 304, 305 Sunan - Kangdong","type":"route","route":"train","operator":"조선민주주의인민공화국 철도성"},"14357413":{"to":"Moscow","ref":"7, 8","from":"Pyongyang","name":"7, 8 Pyongyang - Tumangang","type":"route","route":"train","operator":"조선민주주의인민공화국 철도성","public_transport:version":"2"},"14357414":{"to":"Chongjin","ref":"23, 24","from":"Pyongyang","name":"23, 24 Pyongyang - Chongjin","type":"route","route":"train","operator":"조선민주주의인민공화국 철도성","public_transport:version":"2"},"14357415":{"to":"Tumangang (Rajin)","ref":"55, 56","from":"Pyongyang","name":"55, 56 Pyongyang - Tumangang (Rajin) <Interior division>","type":"route","route":"train","operator":"조선민주주의인민공화국 철도성","public_transport:version":"2"},"14357416":{"to":"Chongjin","ref":"69, 74","from":"Pyongyang","name":"69, 74 Pyongyang - Chongjin","type":"route","route":"train","operator":"조선민주주의인민공화국 철도성","public_transport:version":"2"},"14357417":{"to":"Paesanjom","ref":"311, 312, 313, 314","from":"Pyongyang","name":"311, 312, 313, 314 Pyongyang - Paesanjom","type":"route","route":"train","operator":"조선민주주의인민공화국 철도성"},"14580408":{"to":"강서","ref":"734","from":"마영","name":"734 마영>강서","type":"route","route":"train","operator":"조선민주주의인민공화국 철도성","public_transport:version":"2"},"14580517":{"to":"철광","ref":"361","from":"남포","name":"361 남포>철광","type":"route","route":"train","operator":"조선민주주의인민공화국 철도성","public_transport:version":"2"},"14584951":{"to":"고원","ref":"712/713","from":"장동","name":"712/713 장동>고원","type":"route","route":"train","operator":"조선민주주의인민공화국 철도성","public_transport:version":"2"},"14585017":{"to":"해주","ref":"383","from":"하성","name":"383 하성>해주","type":"route","route":"train","operator":"조선민주주의인민공화국 철도성","public_transport:version":"2"},"14585126":{"to":"염주","ref":"418","from":"신의주","name":"418 신의주>염주","type":"route","route":"train","operator":"조선민주주의인민공화국 철도성","public_transport:version":"2"},"14585127":{"to":"신의주","ref":"419","from":"염주","name":"419 염주>신의주","type":"route","route":"train","operator":"조선민주주의인민공화국 철도성","public_transport:version":"2"},"14585690":{"to":"덕천","ref":"782","from":"구장","name":"782 구장>덕천","type":"route","route":"train","operator":"조선민주주의인민공화국 철도성","public_transport:version":"2"},"14585696":{"to":"형봉","ref":"723","from":"덕천","name":"723 덕천>형봉","type":"route","route":"train","operator":"조선민주주의인민공화국 철도성","public_transport:version":"2"},"14585697":{"to":"덕천","ref":"724","from":"형봉","name":"724 형봉>덕천","type":"route","route":"train","operator":"조선민주주의인민공화국 철도성","public_transport:version":"2"},"14595422":{"to":"천성","ref":"335","from":"순천","name":"335 순천>천성","type":"route","route":"train","operator":"조선민주주의인민공화국 철도성철도성","public_transport:version":"2"},"14595423":{"to":"순천","ref":"336","from":"천성","name":"336 천성>순천","type":"route","route":"train","operator":"조선민주주의인민공화국 철도성","public_transport:version":"2"},"14595464":{"to":"은산","from":"순천","name":"331 순천>은산","type":"route","route":"train","operator":"조선민주주의인민공화국 철도성","public_transport:version":"2"},"14595465":{"to":"순천","ref":"332","from":"은산","name":"332 은산>순천","type":"route","route":"train","operator":"조선민주주의인민공화국 철도성","public_transport:version":"2"},"14595587":{"to":"신의주","ref":"463","from":"선천","name":"463 선천>신의주","type":"route","route":"train","operator":"조선민주주의인민공화국 철도성","public_transport:version":"2"},"14595588":{"to":"선천","ref":"462","from":"신의주","name":"462 신의주>선천","type":"route","route":"train","operator":"조선민주주의인민공화국 철도성","public_transport:version":"2"},"14595732":{"to":"남포","ref":"391","from":"강선","name":"391 강선>남포","type":"route","route":"train","operator":"조선민주주의인민공화국 철도성","public_transport:version":"2"},"14595733":{"to":"강선","ref":"392","from":"남포","name":"392 남포>강선","type":"route","route":"train","operator":"조선민주주의인민공화국 철도성","public_transport:version":"2"},"14600004":{"to":"남포","ref":"374","from":"온천","name":"374 온천>남포","type":"route","route":"train","operator":"조선민주주의인민공화국 철도성","public_transport:version":"2"}}