{"2245729":{"name":"동해선","type":"route","route":"train","name:en":"Donghae Line","name:ko":"동해선","network":"광역철도","operator":"한국철도공사"},"2474720":{"name":"경부고속철도","type":"route","route":"train","network":"고속철도","operator":"한국철도공사 (Korail)","wheelchair":"yes"},"3399104":{"name":"운곡길","type":"route","route":"train"},"4730524":{"name":"서울-포항간 고속철도 하행","type":"route","route":"train","operator":"Korail"},"4730525":{"name":"서울-포항간 고속철도 상행","type":"route","route":"train","operator":"Korail"},"6094786":{"to":"부산역","ref":"201","from":"서울역","name":"경부선 (부산역 행)","type":"route","route":"train","name:de":"Gyeongbu-Linie","name:en":"Gyeongbu Line","name:es":"Línea Gyeongbu","name:ko":"경부선 (부산역 행)","network":"대한민국 간선철도","operator":"한국철도공사","wikidata":"Q17200","wikipedia":"ko:경부선","public_transport:version":"2"},"7796022":{"to":"백산역","ref":"215","from":"제척역","name":"태백선 백산 방면","type":"route","route":"train","name:en":"Taebaek Line","name:ko":"태백선 백산 방면","network":"대한민국 간선철도","operator":"한국철도공사","wikidata":"Q483684","wikipedia":"en:Taebaek Line","public_transport:version":"2"},"7796215":{"ref":"213","name":"영동선","type":"route","route":"train","name:en":"Yeongdong Line","name:ko":"영동선","operator":"한국철도공사","public_transport:version":"2"},"7798599":{"to":"광주송정역","ref":"경전선","from":"삼랑진역","name":"경전선 광주송정역 방면","type":"route","route":"train","network":"간선철도","operator":"한국철도공사","public_transport:version":"2"},"8226481":{"to":"광주송정역","ref":"경전선","from":"삼랑진역","name":"경전선 삼랑진역 방면","type":"route","route":"train","network":"간선철도","operator":"한국철도공사","public_transport:version":"2"},"8266158":{"to":"서울역","ref":"201","from":"부산역","name":"경부선 (서울역 행)","type":"route","route":"train","name:de":"Gyeongbu-Linie","name:en":"Gyeongbu Line","name:es":"Línea Gyeongbu","name:ja":"京釜線（上り）","name:ko":"경부선 (서울역 행)","network":"대한민국 간선철도","operator":"한국철도공사","public_transport:version":"2"},"8787856":{"to":"영주역","ref":"214","from":"김천역","name":"경북선","type":"route","route":"train","name:en":"Gyeongbuk Line","name:ko":"경북선","network":"대한민국 간선철도","operator":"한국철도공사","public_transport:version":"2"},"10882384":{"to":"부산역","from":"서울역","name":"KTX 경부선·경부고속선: 서울역 → 부산 (수원경유)","type":"route","route":"train","name:en":"KTX Gyeongbu Line·Gyeongbu HSL: Seoul Station → Busan Station","name:ko":"KTX 경부선·경부고속선: 서울역 → 부산 (수원경유)","service":"high_speed","distance":"430.3km","operator":"한국철도공사","highspeed":"yes","description":"운행구간 서울 - 영등포 - 수원 - 대전 - (고속선 경유) - 부산"},"11208903":{"to":"동대구","from":"서울","name":"KTX 경부고속선·경부선: 서울 → 동대구","type":"route","route":"train","name:en":"KTX Gyeongbu HSL·Gyeongbu Line: Seoul Station → Dongdaegu Station","name:ko":"KTX 경부고속선·경부선: 서울 → 동대구","service":"high_speed","distance":"286.7km","operator":"한국철도공사","description":"서울 - 대전 - 동대구"},"11208904":{"to":"부산","from":"서울","name":"KTX 경부고속선·경부선: 서울 → 부산 (구포경유)","type":"route","route":"train","name:en":"KTX Gyeongbu Line·Gyeongbu HSL: Seoul Station → Busan Station","name:ko":"KTX 경부고속선·경부선: 서울 → 부산 (구포경유)","service":"high_speed","distance":"402.1km","operator":"한국철도공사","highspeed":"yes","description":"운행 노선: 서울 - 광명 - (고속선 경유) - 동대구 - 밀양 - 구포 - 부산"},"11214334":{"to":"부산","from":"서울","name":"KTX 경부선·경부고속선: 서울 → 부산","type":"route","route":"train","name:en":"KTX Gyeongbu Line·Gyeongbu HSL: Seoul Station → Busan Station","name:ko":"KTX 경부선·경부고속선: 서울 → 부산","service":"high_speed","distance":"417.4km","operator":"한국철도공사","highspeed":"yes","description":"운행 노선:서울 - 대전 - 동대구 - 부산"},"11214335":{"to":"대전","from":"서울","name":"KTX 경부고속선·경부선: 서울역 → 대전","type":"route","route":"train","name:en":"KTX Gyeongbu HSL·Gyeongbu Line System: Seoul Station → Daejeon Station","name:ko":"KTX 경부고속선·경부선: 서울 → 대전","service":"high_speed","distance":"159.8km","operator":"한국철도공사","highspeed":"yes"},"11214688":{"to":"부산","from":"수서","name":"SRT 수서평택고속선·경부고속선: 수서 → 부산","type":"route","route":"train","name:ko":"SRT 수서평택고속선·경부고속선: 수서 → 부산","service":"high_speed","distance":"400.1km","operator":"주식회사 SR;한국철도공사","highspeed":"yes","description":"운행 구간: 수서 - 동탄 - 지제 - 천안아산 - 경부고속선 경유 - 부산"},"11214689":{"to":"광주송정역","from":"수서역","name":"SRT 수서평택고속선·경부고속선·호남고속선: 수서 → 광주송정","type":"route","route":"train","name:ko":"SRT 수서평택고속선·경부고속선·호남고속선: 수서 → 광주송정","service":"highspeed","distance":"289.7km","operator":"주식회사 SR;한국철도공사","highspeed":"yes","description":"운행 구간: 수서 - 동탄 - 지제 - 천안아산 - 호남고속선 경유 - 광주송정"},"11214690":{"to":"목포","from":"수서","name":"SRT 수서평택고속선·경부고속선·호남고속선·호남선: 수서 → 목포","type":"route","route":"train","name:ko":"SRT 수서평택고속선·경부고속선·호남고속선·호남선: 수서 → 목포","service":"highspeed","distance":"356.5km","operator":"SR;한국철도공사","highspeed":"yes","description":"운행 구간: 수서 - 동탄 - 지제 - 천안아산 - 호남고속선 경유 - 광주송정 - 호남선 경유 - 나주 -목포"},"11249241":{"to":"수서역","from":"동탄역","name":"SRT 출근열차 수서평택고속선 계통: 동탄역 → 수서역","type":"route","route":"train","name:ko":"SRT 출근열차 수서평택고속선 계통: 동탄역 → 수서역","operator":"주식회사 SR","wikidata":"Q28699180","highspeed":"yes","wikipedia":"ko:수서고속철도","opening_hours":"Mo-Fr"},"11272645":{"to":"광주송정","from":"용산","name":"KTX 경부고속선·호남고속선: 용산 → 광주송정","type":"route","route":"train","name:ja":"KTX 京釜高速線・湖南高速線：龍山→光州松汀","name:ko":"KTX 경부고속선·호남고속선: 용산 → 광주송정","service":"highspeed","distance":"303.8km","operator":"한국철도공사","highspeed":"yes","description":"운행 노선:용산 - 공주 - 익산 - 광주송정"},"11272646":{"to":"목포","from":"용산","name":"KTX 경부고속선·호남고속선·호남선: 용산 → 목포","type":"route","route":"train","name:ja":"KTX 京釜高速線・湖南高速線・湖南線：龍山→木浦","name:ko":"KTX 경부고속선·호남고속선·호남선: 용산 → 목포","distance":"370.6 km","operator":"한국철도공사","highspeed":"yes","description":"운행 노선:용산 - 공주 - 익산 - 광주송정 - 목포"},"11272647":{"to":"여수엑스포","from":"용산","name":"KTX 경부고속선·호남고속선·전라선: 용산 → 여수엑스포","type":"route","route":"train","name:ja":"KTX 京釜高速線・湖南高速線・全羅線：龍山→麗水エキスポ","name:ko":"KTX 경부고속선·호남고속선·전라선: 용산 → 여수엑스포","distance":"391.6Km","operator":"한국철도공사","highspeed":"yes","description":"운행 노선:용산 - 공주 - 익산 - 전주 - 여수엑스포"},"11314591":{"to":"장성","from":"용산","name":"KTX 경부고속선·호남선: 용산 → 장성","type":"route","route":"train","name:ja":"KTX 京釜高速線・湖南線：龍山→長城","name:ko":"KTX 경부고속선·호남선: 용산 → 장성","service":"highspeed","distance":"239.8Km","operator":"한국철도공사","highspeed":"yes","description":"정차역: 용산 - 광명 - 서대전 - 익산 - 김제 - 장성"},"11314592":{"to":"목포","from":"용산","name":"KTX 경부고속선·호남선: 용산 → 목포","type":"route","route":"train","name:ja":"KTX 京釜高速線・湖南線：龍山→木浦","name:ko":"KTX 경부고속선·호남선: 용산 → 목포","distance":"399.3 km","operator":"한국철도공사","description":"정차역:용산 - 광명 - 서대전 - 익산 - 김제 - 장성 - 목포"},"11314593":{"to":"전주","from":"용산","name":"KTX 경부고속선·호남선·전라선: 용산 → 전주","type":"route","route":"train","name:ja":"KTX 京釜高速線・湖南線・全羅線：龍山→全州","name:ko":"KTX 경부고속선·호남선·전라선: 용산 → 전주","service":"highspeed","distance":"265.3Km","operator":"한국철도공사","highspeed":"yes","description":"정차역:용산 - 광명 - 서대전 - 익산 - 전주"},"11314594":{"to":"여수엑스포","from":"용산","name":"KTX 경부고속선·호남선·전라선: 용산 → 여수엑스포 (광명경유)","type":"route","route":"train","name:ja":"KTX 京釜高速線・湖南線・全羅線：龍山→光明→麗水エキスポ","name:ko":"KTX 경부고속선·호남선·전라선: 용산 → 여수엑스포 (광명경유)","service":"highspeed","distance":"420.2km","operator":"한국철도공사","highspeed":"yes","description":"정차역:용산 - 광명 - 서대전 - 익산 - 전주 - 여수엑스포"},"11365112":{"to":"광주","ref":"30704","from":"광주송정","name":"광주선 셔틀열차: 광주송정 → 광주","type":"route","route":"train","name:ko":"광주선 셔틀열차: 광주송정 → 광주","operator":"한국철도공사"},"11365115":{"to":"광주송정","ref":"30704","from":"광주","name":"광주선 셔틀열차: 광주 → 광주송정","type":"route","route":"train","name:ko":"광주선 셔틀열차: 광주 → 광주송정","operator":"한국철도공사"},"12115931":{"name":"송정리 비행장선","type":"route","route":"train","name:ko":"송정리 비행장선","distance":"1.5km"},"12239797":{"to":"강릉역","from":"서울역","name":"KTX 강릉선 경부선·경원선·중앙선·경강선: 서울역 → 강릉","type":"route","route":"train","name:ko":"KTX 강릉선 경부선·경원선·중앙선·경강선: 서울역 → 강릉","alt_name":"강릉선 KTX","operator":"한국철도공사","highspeed":"yes","public_transport:version":"2"},"12428880":{"ref":"무궁화호","name":"무궁화호","type":"route","route":"train","operator":"한국철도공사"},"13272988":{"to":"울산신항","ref":"31109","from":"망양","name":"울산신항선","type":"route","route":"train","name:en":"Ulsansinhang Line","name:ko":"울산신항선","operator":"한국철도공사","wikidata":"Q55732503","wikipedia":"ko:울산신항선","official_name":"동해선 울산신항선"},"13781614":{"to":"부산","from":"서울역","name":"경부선 무궁화호 (필수정차): 서울 → 부산","type":"route","route":"train","name:en":"Mugunghwa-Ho Gyeongbu Line: Seoul → Busan","name:ko":"경부선 무궁화호 (필수정차): 서울 → 부산","operator":"한국철도공사","description":"무궁화호 경부선 필수정차역: 서울 - 영등포 - 수원 - 평택 - 천안 - 조치원 - 대전 - 영동 - 김천 - 구미 - 왜관 - 대구 - 동대구 - 경산 - 청도 - 밀양 - 구포 - 부산"},"13781616":{"to":"부산","from":"서울","name":"경부선 ITX-새마을 (필수정차): 서울 → 부산","type":"route","route":"train","name:en":"ITX-Saemaeul Gyeongbu Line: Seoul → Busan","name:ko":"경부선 ITX-새마을 (필수정차): 서울 → 부산","operator":"한국철도공사","description":"필수정차역: 서울 - 영등포 - 수원 - 천안 - 대전 - 김천 - 구미 - 대구 - 동대구 - 구포 - 부산"},"13781771":{"to":"목포","from":"용산","name":"호남선 ITX-새마을 (필수정차): 용산 → 목포","type":"route","route":"train","name:en":"ITX-Saemaeul Honam Line: Yongsan → Mokpo","name:ja":"湖南線 ITX-セマウル：龍山→木浦","name:ko":"호남선 ITX-새마을 (필수정차): 용산 → 목포","operator":"한국철도공사"},"13781772":{"to":"광주","from":"용산","name":"호남선 무궁화호 (필수정차): 용산 → 광주","type":"route","route":"train","name:en":"Mugunghwa-Ho Honam Line: Yongsan → Gwangju","name:ja":"湖南線 ムグンファ号：龍山→光州","name:ko":"호남선 무궁화호 (필수정차): 용산 → 광주","operator":"한국철도공사"},"13781773":{"to":"광주","from":"용산","name":"호남선 ITX-새마을 (필수정차): 용산 → 광주","type":"route","route":"train","name:en":"ITX-Saemaeul Honam Line: Yongsan → Gwangju","name:ja":"湖南線 ITX-セマウル：龍山→光州","name:ko":"호남선 ITX-새마을 (필수정차): 용산 → 광주","operator":"한국철도공사"},"13781774":{"to":"목포","from":"용산","name":"호남선 무궁화호 (필수정차): 용산 → 목포","type":"route","route":"train","name:en":"Mugunghwa-Ho Honam Line  Yongsan → Mokpo","name:ja":"湖南線 ムグンファ号：龍山→木浦","name:ko":"호남선 무궁화호 (필수정차): 용산 → 목포","operator":"한국철도공사"},"13781775":{"to":"여수엑스포","from":"용산","name":"전라선 무궁화호 (필수정차): 용산 → 여수엑스포","type":"route","route":"train","name:en":"Mugunghwa-Ho Jeolla Line: Yongsan → Yeosu Expo","name:ja":"全羅線 ムグンファ号：龍山→麗水エキスポ","name:ko":"전라선 무궁화호 (필수정차): 용산 → 여수엑스포","operator":"한국철도공사"},"13781776":{"to":"여수엑스포","from":"용산","name":"전라선 ITX-새마을 (필수정차): 용산 → 여수엑스포","type":"route","route":"train","name:en":"ITX-Saemaeul Jeolla Line: Yongsan → Yeosu Expo","name:ja":"全羅線 ITX-セマウル：龍山→麗水エキスポ","name:ko":"전라선 ITX-새마을 (필수정차): 용산 → 여수엑스포","operator":"한국철도공사"},"13799112":{"to":"익산","from":"용산","name":"장항선 새마을호: 용산 → 익산","type":"route","route":"train","name:en":"Saemaeul-Ho Janghang Line: Yongsan → Iksan","name:ja":"長項線 セマウル号：龍山→益山","name:ko":"장항선 새마을호: 용산 → 익산","duration":"03:20","operator":"한국철도공사"},"14115749":{"to":"춘천","from":"용산","name":"ITX-청춘: 용산 → 춘천","type":"route","route":"train","colour":"#37b366","name:en":"ITX-Cheongchun: Yongsan → Chuncheon","name:ko":"ITX-청춘: 용산 → 춘천","operator":"한국철도공사","wikidata":"Q492626","wikipedia":"en:ITX-Cheongchun"},"14115750":{"to":"용산","from":"춘천","name":"ITX-청춘: 춘천 → 용산","type":"route","route":"train","colour":"#37b366","name:en":"ITX-Cheongchun: Chuncheon → Yongsan","name:ko":"ITX-청춘: 춘천 → 용산","operator":"한국철도공사","wikidata":"Q492626","wikipedia":"en:ITX-Cheongchun"},"15746269":{"name":"3군지사선","type":"route","route":"train","name:ko":"3군지사선"},"15746270":{"name":"오류선","type":"route","route":"train","name:ko":"오류선","alt_name":"경기화학선;오류동선"}}