{"1643608":{"ref":"Qarağandı ​​– Semey (312)","name":"Қарағанды ​​– Семей","type":"route","route":"train","name:kk":"Қарағанды ​​– Семей"},"2342229":{"to":"Караганда","ref":"371","from":"Новокузнецк","name":"371 Новокузнецк — Караганда","type":"route","route":"train","operator":"РЖД","public_transport:version":"2"},"3126594":{"to":"Астана","ref":"37","from":"Мангышлак","name":"37 Мангышлак<=>Астана","type":"route","route":"train","source":"reiseauskunft.bahn.de","name:de":"37 Mangyshlak<=>Astana","network":"unknown","alt_name":"Mangyshlak - Astana","public_transport:version":"1"},"3126626":{"to":"Актобе","ref":"87/88","from":"Астана","name":"87/88 Астана<=>Актобе","type":"route","route":"train","source":"reiseauskunft.bahn.de","name:de":"87/88 Astana<=>Aktobe","network":"ҚТЖ","operator":"ҚТЖ","public_transport:version":"1"},"3134884":{"to":"Астана","ref":"1/2","from":"Алматы-2","name":"1/2 Алматы<=>Астана","type":"route","route":"train","name:de":"1/2 Almaty<=>Astana","network":"ҚТЖ","operator":"ҚТЖ","description":"1 Алматы -> Астана / 2 Астана -> Алматы","public_transport:version":"1"},"3135851":{"to":"Кызылорда","ref":"56","from":"Кокшетау","name":"56 Көкшетау=>Қызылорда","type":"route","route":"train","name:kk":"56 Көкшетау=>Қызылорда","name:ru":"56 Кокшетау=>Кзыл-Орда","network":"unknown","int_name":"56 Kökşetaw=>Qızılorda","public_transport:version":"2"},"3150380":{"to":"Атырау","ref":"47","from":"Астана","name":"47 Астана<=>Атырау","type":"route","route":"train","name:de":"47 Astana<=>Atyrau","network":"unknown","old_name":"Kustanay-Kokchetau-Karaganda","public_transport:version":"1"},"3150970":{"to":"Петропавловск","ref":"623/624","from":"Астана","name":"623/624 Астана<=>Петропавловск","type":"route","route":"train","name:de":"623/624 Astana<=>Petropavlovsk","network":"unknown","public_transport:version":"1"},"3150971":{"ref":"Пресногорковская - Павлодар","name":"Presnogorkovskaya - Pavlodar","type":"route","route":"train","source":"reiseauskunft.bahn.de"},"3152919":{"ref":"Астана - Риддер","name":"Астана - Риддер","type":"route","route":"train","alt_name":"Astana - Leninogorsk","addr:street":"улица Темиржолшылар","alt_name:ru":"Астана - Лениногорск"},"3159081":{"to":"Защита","ref":"69","from":"Алматы 2","name":"69 Алматы<=>Защита","type":"route","route":"train","name:de":"69 Almaty<=>Zaschita","network":"ҚТЖ","operator":"ҚТЖ","public_transport:version":"1"},"3159953":{"ref":"Astana - Arkalyk","name":"Astana - Arkalyk","type":"route","route":"train","alt_name":"Astana - Arkalyk"},"3169402":{"ref":"Караганда - Жезказган","name":"Караганда - Жезказган","type":"route","route":"train","alt_name":"Karaganga - Zhezkazgan"},"3371349":{"ref":"Кзыл-Ту - Астана","name":"Ksyl-Tuu - Astana","type":"route","route":"train"},"3442554":{"ref":"Защита-Алтай","name":"Защита-Алтай","type":"route","route":"train","name:ru":"Защита-Алтай","old_name":"Защита-Зыряновск"},"3444220":{"ref":"6923-6926 Кустанай-Джетыгара","name":"Kustanai-Dshetygara","type":"route","route":"train","source":"temirzholy.kz/ru/timetable","alt_name":"Костанай-Житикара"},"3446942":{"ref":"2","name":"1","type":"route","route":"train","source":"railways.kz","name:en":"Osen-Mangyshlak"},"3446943":{"ref":"6993/6994 Узень-Болашак","name":"Узень-Болашак","type":"route","route":"train","source":"railways.kz","name:en":"Osen-Bolashak"},"6096924":{"to":"Астана","ref":"19","from":"Атырау","name":"19 Атырау<=>Астана","type":"route","route":"train","name:de":"19 Atyrau<=>Astana","network":"ҚТЖ","public_transport:version":"1"},"6097263":{"to":"Алматы 2","ref":"49/50","from":"Ақтөбе","name":"49/50 Ақтөбе<=>Алматы","type":"route","route":"train","name:de":"49/50 Aktobe<=>Almaty","name:kk":"49/50 Ақтөбе<=>Алматы","name:ru":"49/50 Актобе<=>Алматы","network":"ҚТЖ","int_name":"49/50 Aqtöbe<=>Almatı","public_transport:version":"1"},"6097264":{"to":"Атырау","ref":"77","from":"Алматы 2","name":"77 Aлматы<=>Атырау","type":"route","route":"train","name:kk":"77 Aлматы<=>Атырау","name:ru":"77 Aлматы<=>Атырау","network":"ҚТЖ","int_name":"77 Almatı<=>Atıraw","public_transport:version":"1"},"6104251":{"to":"Шымкент","ref":"35/36","from":"Алматы 2","name":"35/36 Алматы<=>Шымкент","note":"timetable is missing","type":"route","route":"train","name:de":"35/36 Almaty<=>Schimkent","network":"ҚТЖ","public_transport:version":"1"},"6104252":{"to":"Шымкент","ref":"67/68","from":"Астана","name":"67/68 Астана<=>Шымкент","note":"timetable is missing","type":"route","route":"train","name:de":"67/68 Astana<=>Schimkent","network":"ҚТЖ","public_transport:version":"1"},"6104253":{"to":"Петропавловск","ref":"701/702","from":"Алматы 2","name":"701/702 Алматы<=>Петропавловск","type":"route","route":"train","name:de":"701/702 Almaty<=>Petropavlovsk","network":"ҚТЖ","public_transport:version":"1"},"6104254":{"to":"Қызылорда","ref":"90","from":"Астана","name":"90 Астана<=>Қызылорда","type":"route","route":"train","network":"ҚТЖ","public_transport:version":"1"},"6258027":{"to":"Костанай","ref":"91","from":"Астана","name":"91 Астана<=>Костанай","type":"route","route":"train","name:de":"91 Astana<=>Кustanay","operator":"unknown","public_transport:version":"1"},"13113235":{"to":"Новокузнецк","ref":"372","from":"Караганда","name":"372 Караганда — Новокузнецк","type":"route","route":"train","operator":"РЖД","public_transport:version":"2"}}