{"1204317":{"to":"Turmantas","ref":"Vilnius - Turmantas","from":"Vilnius","name":"Vilnius - Turmantas","type":"route","route":"train","name:lt":"Vilnius - Turmantas","service":"regional","public_transport:version":"1"},"1204328":{"to":"Dūkštas","ref":"Vilnius - Dūkštas","from":"Vilnius","name":"Vilnius - Dūkštas","type":"route","route":"train","name:de":"Wilna - Dukschten","name:lt":"Vilnius - Dūkštas","service":"regional","public_transport:version":"1"},"1204329":{"to":"Ignalina","ref":"Vilnius - Ignalina","from":"Vilnius","name":"Vilnius - Ignalina","type":"route","route":"train","name:lt":"Vilnius - Ignalina","service":"regional","old_name:de":"Wilna - Ingelin","public_transport:version":"1"},"1554161":{"to":"Trakai","ref":"Vilnius - Trakai","from":"Vilnius","name":"Vilnius - Trakai","type":"route","route":"train","service":"commuter","public_transport:version":"1"},"1591375":{"to":"Białystok","ref":"Kaunas - Białystok","from":"Kaunas","name":"Kaunas - Białystok","type":"route","route":"train","name:de":"Kaunas - Bjelostock","name:lt":"Kaunas - Balstogė","name:pl":"Kowno - Białystok","service":"long_distance","public_transport:version":"2"},"1638993":{"to":"Vilnius","ref":"1","from":"Klaipėda","name":"Klaipėda - Vilnius","type":"route","route":"train","name:de":"Memel - Wilna","name:lt":"Klaipėda - Vilnius","service":"long_distance","public_transport:version":"1"},"9813171":{"to":"Marijampolė","ref":"Kaunas - Marijampolė","from":"Kaunas","name":"Kaunas - Marijampolė","type":"route","route":"train","name:de":"Kaunas - Mariampol","name:lt":"Kaunas - Marijampolė","name:pl":"Kowno - Mariampol","service":"commuter","public_transport:version":"2"},"9815785":{"to":"Kaunas","ref":"Kaunas - Marijampolė","from":"Marijampolė","name":"Marijampolė - Kaunas","type":"route","route":"train","name:de":"Mariampol - Kaunas","name:lt":"Marijampolė - Kaunas","name:pl":"Mariampol - Kowno","service":"commuter","public_transport:version":"2"},"14166033":{"to":"Kaunas","from":"Vilnius","name":"Vilnius - Kaunas","type":"route","route":"train","service":"commuter","wikidata":"Q15680844","wikipedia":"en:Vilnius–Kaunas Railway","public_transport:version":"1"},"17229802":{"to":"Калининград-Пассажирский","ref":"Чернышевское => Калининград","from":"Чернышевское","name":"Пригородный дизельпоезд: Чернышевское => Калининград","type":"route","route":"train","service":"regional","operator":"АО «КППК»","public_transport:version":"2"}}