{"1821827":{"to":"مراكش","ref":"FM","from":"فاس","name":"Fes - Marrakech فاس - مراكش","type":"route","route":"train","to:ar":"مراكش","ref:ar":"فم","from:ar":"فاس","name:ar":"فاس - مراكش","name:fr":"Fes - Marrakech","network":"MA:railway","operator":"المكتب الوطني للسكك الحديدية","operator:ar":"المكتب الوطني للسكك الحديدية","operator:website":"https://www.oncf.ma/ar/","operator:wikidata":"Q1815809","operator:wikipedia":"ar:المكتب الوطني للسكك الحديدية (المغرب)","operator:wikipedia:ar":"المكتب الوطني للسكك الحديدية (المغرب)","public_transport:version":"2"},"3375531":{"name":"Fes - Oujda","type":"route","route":"train","network":"réseau des chemins de fer marocain","operator":"ONCF","public_transport:version":"2"},"3395930":{"to":"Taourirt تاوريرت","from":"Beni Nsar بني انصار","name":"Nador الناظور - Taourirt تاوريرت","type":"route","route":"train","train":"regular","name:ar":"الناظور - تاوريرت","name:fr":"Nador - Taourirt","network":"réseau des chemins de fer marocain شبكة السكك الحديدية المغربية","operator":"ONCF المكتب الوطني للسكك الحديدية","electrified":"no","operator:ar":"المكتب الوطني للسكك الحديدية","public_transport:version":"2"},"4497962":{"to":"Mohammédia","ref":"TRAB","from":"Aéroport Mohammed V","name":"Al Bidaoui: Casa-Port, Mohammedia - Aéroport","type":"route","route":"train","network":"réseau des chemins de fer marocain","operator":"ONCF","wikidata":"Q2829306","public_transport:version":"2"},"4508663":{"to":"ابن جرير","from":"أسفي","name":"Safi - Ben Guerir أسفي - ابن جرير","type":"route","route":"train","to:ar":"ابن جرير","from:ar":"أسفي","name:ar":"أسفي - ابن جرير","name:fr":"Safi - Ben Guerir","network":"MA:railway","operator":"المكتب الوطني للسكك الحديدية","operator:ar":"المكتب الوطني للسكك الحديدية","operator:website":"https://www.oncf.ma/ar/","operator:wikidata":"Q1815809","operator:wikipedia":"ar:المكتب الوطني للسكك الحديدية (المغرب)","operator:wikipedia:ar":"المكتب الوطني للسكك الحديدية (المغرب)","public_transport:version":"2"},"4508771":{"name":"طنجة - الدار البيضاء","type":"route","fixme":"train routing","route":"train","name:ar":"طنجة - الدار البيضاء","name:fr":"Tanger - Casablanca","network":"الشبكة السككية المغربية","operator":"المكتب الوطني للسكك الحديدية","public_transport:version":"2"},"4509023":{"to":"وادي زم","ref":"BO","from":"برشيد","name":"Berrechid - Oued Zem برشيد - وادي زم","type":"route","route":"train","to:ar":"وادي زم","ref:ar":"بو","from:ar":"برشيد","name:ar":"برشيد - وادي زم","name:fr":"Berrechid - Oued Zem","network":"MA:railway","operator":"المكتب الوطني للسكك الحديدية","operator:ar":"المكتب الوطني للسكك الحديدية","operator:website":"https://www.oncf.ma/ar/","operator:wikidata":"Q1815809","operator:wikipedia":"ar:المكتب الوطني للسكك الحديدية (المغرب)","operator:wikipedia:ar":"المكتب الوطني للسكك الحديدية (المغرب)","public_transport:version":"2"},"4509064":{"ref":"JC","name":"El Jadida - Casablanca","type":"route","route":"train","network":"réseau des chemins de fer marocain","operator":"ONCF","public_transport:version":"2"},"4509109":{"name":"Tanger - Fes","type":"route","route":"train","network":"réseau des chemins de fer marocain","operator":"ONCF","public_transport:version":"2"},"6026655":{"ref":"TK","name":"LGV Tanger - Kénitra","type":"route","route":"train","network":"ONCF","operator":"ONCF","wikidata":"Q253280"},"10038327":{"ref":"L’Oriental Désert Express","name":"Oujda-Bouarfa","type":"route","route":"train","network":"Oncf","operator":"Oncf"}}