{"2082100":{"to":"KL Sentral (ERL)","ref":"7","from":"KLIA2","name":"KLIA Transit (klia2 --> KL Sentral)","type":"route","route":"train","colour":"#139593","name:zh":"吉隆坡机场支线（第二机场至吉隆坡中央）","network":"ERL","distance":"57 km","operator":"Express Rail Link","wikidata":"Q6151888","wikipedia":"en:KLIA Transit","network:metro":"Klang Valley Rapid Transit","network:wikidata":"Q5421680","public_transport:version":"2"},"2565937":{"to":"KA15 Tanjung Malim","ref":"2","from":"KD19 Pelabuhan Klang","name":"Port Klang Line (northbound)","type":"route","fixme":"please check the platforms and the connectivity of rail around KL Sentral","route":"train","colour":"#ff0000","source":"Wikipedia","name:zh":"巴生港线","network":"KTM Komuter","operator":"Keretapi Tanah Melayu","wikidata":"Q4873303","wikipedia":"en:Port Klang Line","network:metro":"Klang Valley Rapid Transit","network:wikidata":"Q4383987","operator:wikidata":"Q1187590","public_transport:version":"2"},"8119876":{"to":"KLIA2","ref":"7","from":"KL Sentral (ERL)","name":"KLIA Transit (KL Sentral --> klia2)","type":"route","route":"train","colour":"#139593","name:zh":"吉隆坡机场支线（吉隆坡中央至第二机场）","network":"ERL","distance":"57 km","operator":"Express Rail Link","wikidata":"Q6151888","wikipedia":"en:KLIA Transit","network:metro":"Klang Valley Rapid Transit","network:wikidata":"Q5421680","public_transport:version":"2"},"8119878":{"to":"KLIA2","ref":"6","from":"KL Sentral (ERL)","name":"KLIA Ekspres (KL Sentral --> klia2)","type":"route","route":"train","colour":"#800080","name:zh":"吉隆坡机场快铁（吉隆坡中央至第二机场）","network":"ERL","distance":"57 km","operator":"Express Rail Link","wikidata":"Q1431592","wikipedia":"en:KLIA Ekspres","network:metro":"Klang Valley Rapid Transit","network:wikidata":"Q5421680","public_transport:version":"2"},"8119879":{"to":"KL Sentral (ERL)","ref":"6","from":"KLIA2","name":"KLIA Ekspres (klia2 --> KL Sentral)","type":"route","route":"train","colour":"#800080","name:zh":"吉隆坡机场快铁（第二机场至吉隆坡中央）","network":"ERL","distance":"57 km","operator":"Express Rail Link","wikidata":"Q1431592","wikipedia":"en:KLIA Ekspres","network:metro":"Klang Valley Rapid Transit","network:wikidata":"Q5421680","public_transport:version":"2"},"8390976":{"to":"KC05 Batu Caves","ref":"1","from":"KB17 Pulau Sebang/Tampin","name":"Laluan Seremban","type":"route","fixme":"please check the platforms and the connectivity of rail around KL Sentral","route":"train","colour":"#0000FF","source":"Wikipedia","name:en":"Seremban Line (northbound)","name:zh":"芙蓉线","network":"KTM Komuter","operator":"Keretapi Tanah Melayu","wikidata":"Q4207166","wikipedia":"en:Seremban Line","network:metro":"Klang Valley Rapid Transit","network:wikidata":"Q4383987","operator:wikidata":"Q1187590","public_transport:version":"2"},"8391024":{"to":"KL Sentral (KTM)","ref":"10","from":"Terminal Skypark","name":"Skypark Link (Eastbound)","note":"service suspended since 2023-02-15","type":"route","route":"train","colour":"#A52A2A","name:zh":"天空花园线","network":"KTM Komuter","end_date":"2023-02-15","operator":"Keretapi Tanah Melayu","wikidata":"Q51419215","passenger":"no","wikipedia":"en:Skypark Link","start_date":"2018-05-01","network:metro":"Klang Valley Rapid Transit","network:wikidata":"Q4383987","operator:wikidata":"Q1187590","public_transport:version":"2"},"9984969":{"to":"KD19 Pelabuhan Klang","ref":"2","from":"KA15 Tanjung Malim","name":"Port Klang Line (southbound)","type":"route","fixme":"please check the platforms and the connectivity of rail around KL Sentral","route":"train","colour":"#ff0000","source":"Wikipedia","name:zh":"巴生港线","network":"KTM Komuter","operator":"Keretapi Tanah Melayu","wikidata":"Q4873303","wikipedia":"en:Port Klang Line","network:metro":"Klang Valley Rapid Transit","network:wikidata":"Q4383987","operator:wikidata":"Q1187590","public_transport:version":"2"},"9985624":{"to":"KB17 Pulau Sebang/Tampin","ref":"1","from":"KC05 Batu Caves","name":"Laluan Seremban","type":"route","fixme":"please check the platforms and the connectivity of rail around KL Sentral","route":"train","colour":"#0000FF","source":"Wikipedia","name:en":"Seremban Line","name:zh":"芙蓉线","network":"KTM Komuter","operator":"Keretapi Tanah Melayu","wikidata":"Q4207166","wikipedia":"en:Seremban Line","network:metro":"Klang Valley Rapid Transit","network:wikidata":"Q4383987","operator:wikidata":"Q1187590","public_transport:version":"2"},"9985660":{"to":"Terminal Skypark","ref":"10","from":"KL Sentral (KTM)","name":"Skypark Link (Westbound)","note":"service suspended since 2023-02-15","type":"route","route":"train","colour":"#A52A2A","name:zh":"天空花园线","network":"KTM Komuter","end_date":"2023-02-15","operator":"Keretapi Tanah Melayu","wikidata":"Q51419215","passenger":"no","wikipedia":"en:Skypark Link","start_date":"2018-05-01","network:metro":"Klang Valley Rapid Transit","network:wikidata":"Q4383987","operator:wikidata":"Q1187590","public_transport:version":"2"},"14744279":{"to":"Butterworth","ref":"1","from":"Padang Rengas","name":"Butterworth–Padang Rengas (northbound)","type":"route","fixme":"please check the platforms and the connectivity of rail, especially those with more than 2 platforms","route":"train","colour":"#1964b7","source":"Wikipedia","network":"KTM Komuter","operator":"KTMB","wikidata":"Q20977784","wikipedia":"en:KTM Komuter Northern Sector","network:metro":"KTM Komuter Northern Sector","public_transport:version":"2"}}