{"4814":{"to":"Zwolle","ref":"RS23","url":"http://wiki.ovinnederland.nl/wiki/Serie_7900","from":"Enschede","name":"RS23: Enschede - Zwolle","type":"route","brand":"Blauwnet","route":"train","network":"Zwolle - Kampen en Zwolle - Enschede","service":"regional","interval":"30","operator":"Keolis","wikidata":"Q115122315","ref:ProRail":"7900","brand:wikidata":"Q46994823","brand:wikipedia":"nl:Blauwnet","network:wikidata":"Q108742725","public_transport:version":"2"},"4831":{"to":"Oldenzaal","ref":"RS24","url":"http://wiki.ovinnederland.nl/wiki/Serie_31200","from":"Zutphen","name":"RS24: Zutphen - Oldenzaal","type":"route","brand":"Blauwnet","route":"train","network":"Twente","service":"regional","interval":"30","operator":"Syntus Twente","wikidata":"Q115122317","ref:ProRail":"31200","brand:wikidata":"Q46994823","brand:wikipedia":"nl:Blauwnet","network:wikidata":"Q108741255","public_transport:version":"2"},"4864":{"to":"Roosendaal","ref":"3600","url":"http://wiki.ovinnederland.nl/wiki/Serie_3600","from":"Zwolle","name":"3600: Zwolle - Roosendaal","type":"route","brand":"Intercity","route":"train","network":"Hoofdrailnet Nederland","service":"long_distance","interval":"30","operator":"Nederlandse Spoorwegen","ref:ProRail":"3600","network:short":"HRN","network:wikidata":"Q2337464","network:wikipedia":"nl:Hoofdrailnet","public_transport:version":"2"},"4891":{"to":"Enschede","ref":"1700","url":"http://wiki.ovinnederland.nl/wiki/Serie_1700","from":"Den Haag Centraal","name":"1700: Den Haag Centraal - Enschede","type":"route","brand":"Intercity","route":"train","network":"Hoofdrailnet Nederland","service":"long_distance","interval":"60","operator":"Nederlandse Spoorwegen","ref:ProRail":"1700","network:short":"HRN","network:wikidata":"Q2337464","network:wikipedia":"nl:Hoofdrailnet","public_transport:version":"2"},"74068":{"to":"Delfzijl","ref":"RS5","url":"http://wiki.ovinnederland.nl/wiki/Serie_37700","from":"Groningen","name":"RS5: Groningen - Delfzijl","type":"route","brand":"RegioSprinter","route":"train","network":"Regionaal spoorvervoer Fryslân en Groningen","service":"regional","interval":"30","operator":"Arriva","wikidata":"Q115122112","ref:ProRail":"37700","network:wikidata":"Q108742239","public_transport:version":"2"},"74069":{"to":"Eemshaven","ref":"RS4","url":"http://wiki.ovinnederland.nl/wiki/Serie_37600","from":"Groningen","name":"RS4: Groningen - Eemshaven","type":"route","brand":"RegioSprinter","route":"train","network":"Regionaal spoorvervoer Fryslân en Groningen","service":"regional","interval":"30","operator":"Arriva","wikidata":"Q115122113","ref:ProRail":"37600","network:wikidata":"Q108742239","public_transport:version":"2"},"86155":{"to":"Münster (Westf) Hbf","ref":"RB64","from":"Enschede","name":"RB64: Enschede => Münster","type":"route","route":"train","colour":"red","name:de":"RB64: Enschede => Münster","name:nl":"RB64: Enschede => Münster","network":"NRW-Tarif;WestfalenTarif","service":"regional","operator":"DB Regio AG NRW","ref:ProRail":"20200","public_transport:version":"2"},"151920":{"to":"Almere Oostvaarders","ref":"4300","from":"Hoofddorp","name":"4300: Hoofddorp - Almere Oostvaarders","type":"route","brand":"Sprinter","route":"train","network":"Hoofdrailnet Nederland","service":"regional","website":"https://wiki.ovinnederland.nl/wiki/Serie_4300","interval":"30","operator":"Nederlandse Spoorwegen","ref:ProRail":"4300","network:short":"HRN","network:wikidata":"Q2337464","network:wikipedia":"nl:Hoofdrailnet","public_transport:version":"2"},"188598":{"to":"Eindhoven Centraal","ref":"1100","from":"Den Haag Centraal","name":"1100: Den Haag Centraal - Eindhoven Centraal","type":"route","brand":"Intercity","route":"train","network":"Hoofdrailnet Nederland","service":"long_distance","website":"https://wiki.ovinnederland.nl/wiki/Serie_1100","interval":"30","operator":"Nederlandse Spoorwegen","ref:ProRail":"1100","network:short":"HRN","network:wikidata":"Q2337464","network:wikipedia":"nl:Hoofdrailnet","public_transport:version":"2"},"188611":{"to":"Roermond","ref":"RS11","url":"http://wiki.ovinnederland.nl/wiki/Serie_32200","from":"Nijmegen","name":"RS11: Nijmegen - Roermond","type":"route","brand":"RegioSprinter","route":"train","network":"Limburg","service":"regional","interval":"30","operator":"Arriva","wikidata":"Q115122464","ref:ProRail":"32200","network:wikidata":"Q108713758","public_transport:version":"2"},"192036":{"to":"Alkmaar","ref":"800","url":"http://wiki.ovinnederland.nl/wiki/Serie_800","from":"Maastricht","name":"800: Maastricht - Alkmaar","type":"route","brand":"Intercity","route":"train","network":"Hoofdrailnet Nederland","service":"long_distance","interval":"30","operator":"Nederlandse Spoorwegen","ref:ProRail":"800","network:short":"HRN","network:wikidata":"Q2337464","public_transport":"route","network:wikipedia":"nl:Hoofdrailnet","public_transport:version":"2"},"192037":{"to":"Venlo","ref":"3500","url":"http://wiki.ovinnederland.nl/wiki/Serie_3500","from":"Schiphol Airport","name":"3500: Schiphol Airport - Venlo","type":"route","brand":"Intercity","route":"train","network":"Hoofdrailnet Nederland","service":"long_distance","interval":"30","operator":"Nederlandse Spoorwegen","ref:ProRail":"3500","network:short":"HRN","network:wikidata":"Q2337464","network:wikipedia":"nl:Hoofdrailnet","public_transport:version":"2"},"318318":{"to":"Tiel","ref":"RS33","url":"http://wiki.ovinnederland.nl/wiki/Serie_31100","from":"Arnhem Centraal","name":"RS33: Arnhem Centraal - Tiel","type":"route","brand":"RegioSprinter","route":"train","network":"Achterhoek-Rivierenland","service":"regional","interval":"60","operator":"Arriva","wikidata":"Q115122486","ref:ProRail":"31100","interval:peak":"30","network:wikidata":"Q108716027","public_transport:version":"2"},"318557":{"to":"Tiel","ref":"6900","url":"http://wiki.ovinnederland.nl/wiki/Serie_6900","from":"Den Haag Centraal","name":"6900: Den Haag Centraal - Tiel","type":"route","brand":"Sprinter","route":"train","network":"Hoofdrailnet Nederland","service":"regional","interval":"30","operator":"Nederlandse Spoorwegen","ref:ProRail":"6900","network:short":"HRN","network:wikidata":"Q2337464","network:wikipedia":"nl:Hoofdrailnet","public_transport:version":"2"},"319519":{"to":"Geldermalsen","ref":"7200","url":"http://wiki.ovinnederland.nl/wiki/Serie_7200","from":"Dordrecht","name":"7200: Dordrecht - Geldermalsen","type":"route","brand":"R-NET","route":"train","network":"Drechtsteden, Molenlanden en Gorinchem","service":"regional","interval":"30","operator":"Qbuzz","ref:ProRail":"7200","network:wikidata":"Q108716138","public_transport:version":"2"},"320261":{"to":"Driebergen-Zeist","ref":"7400","url":"http://wiki.ovinnederland.nl/wiki/Serie_7400","from":"Uitgeest","name":"7400: Uitgeest - Driebergen-Zeist","type":"route","brand":"Sprinter","route":"train","network":"Hoofdrailnet Nederland","service":"regional","interval":"30","operator":"Nederlandse Spoorwegen","ref:ProRail":"7400","network:short":"HRN","network:wikidata":"Q2337464","network:wikipedia":"nl:Hoofdrailnet","public_transport:version":"2"},"321926":{"to":"Ede-Wageningen","ref":"RS34","url":"http://wiki.ovinnederland.nl/wiki/Serie_31300","from":"Amersfoort Centraal","name":"RS34: Amersfoort Centraal - Ede-Wageningen","type":"route","brand":"Valleilijn","route":"train","network":"Treindienst Amersfoort - Ede-Wageningen","service":"regional","interval":"30","operator":"Connexxion","wikidata":"Q115122490","ref:ProRail":"31300","brand:wikidata":"Q17486325","brand:wikipedia":"nl:Valleilijn","network:wikidata":"Q108742705","public_transport:version":"2"},"324049":{"to":"Arnhem Centraal","ref":"7500","url":"http://wiki.ovinnederland.nl/wiki/Serie_7500","from":"Ede-Wageningen","name":"7500: Ede-Wageningen - Arnhem Centraal","type":"route","brand":"Sprinter","route":"train","network":"Hoofdrailnet Nederland","service":"regional","interval":"30","operator":"Nederlandse Spoorwegen","ref:ProRail":"7500","network:short":"HRN","network:wikidata":"Q2337464","network:wikipedia":"nl:Hoofdrailnet","public_transport:version":"2"},"324092":{"to":"Winterswijk","ref":"RS32","url":"http://wiki.ovinnederland.nl/wiki/Serie_30900","from":"Arnhem Centraal","name":"RS32: Arnhem Centraal - Winterswijk","type":"route","brand":"RegioSprinter","route":"train","name:de":"RS32: Arnheim Centraal - Winterswick","name:nl":"RS32: Arnhem Centraal - Winterswijk","network":"Achterhoek-Rivierenland","service":"regional","interval":"30","operator":"Arriva","wikidata":"Q115122484","ref:ProRail":"30900","network:wikidata":"Q108716027","public_transport:version":"2"},"324119":{"to":"Zutphen","ref":"RS31","url":"http://wiki.ovinnederland.nl/wiki/Serie_30800","from":"Winterswijk","name":"RS31: Winterswijk - Zutphen","type":"route","brand":"RegioSprinter","route":"train","name:de":"RS31: Winterswick - Zütphen","network":"Achterhoek-Rivierenland","service":"regional","interval":"30","operator":"Arriva","wikidata":"Q115122482","ref:ProRail":"30800","network:wikidata":"Q108716027","public_transport:version":"2"},"324121":{"to":"Apeldoorn","ref":"RS30","url":"http://wiki.ovinnederland.nl/wiki/Serie_17800","from":"Zutphen","name":"RS30: Zutphen - Apeldoorn","type":"route","brand":"RegioSprinter","route":"train","network":"Achterhoek-Rivierenland","service":"regional","interval":"30","operator":"Arriva","wikidata":"Q115122480","ref:ProRail":"17800","network:wikidata":"Q108716027","public_transport:version":"2"},"324145":{"to":"Hardenberg","ref":"RS21","from":"Almelo","name":"RS21: Almelo - Hardenberg","type":"route","brand":"Blauwnet;RegioSprinter","route":"train","network":"Vechtdallijnen","service":"regional","interval":"30","operator":"Arriva","wikidata":"Q115122312","ref:ProRail":"31000","brand:wikidata":"Q46994823","brand:wikipedia":"nl:Blauwnet","network:wikidata":"Q108742711","public_transport:version":"2"},"324150":{"to":"Emmen","ref":"RS20","url":"http://wiki.ovinnederland.nl/wiki/Serie_8000","from":"Zwolle","name":"RS20: Zwolle - Emmen","type":"route","brand":"Blauwnet;RegioSprinter","route":"train","network":"Vechtdallijnen","service":"regional","interval":"30","operator":"Arriva","wikidata":"Q115122311","ref:ProRail":"8000","brand:wikidata":"Q46994823","brand:wikipedia":"nl:Blauwnet","network:wikidata":"Q108742711","public_transport:version":"2"},"324434":{"to":"Groningen","ref":"RS1","url":"http://wiki.ovinnederland.nl/wiki/Serie_37400","from":"Leeuwarden","name":"RS1: Leeuwarden - Groningen","type":"route","brand":"RegioSprinter","fixme":"Perron en eindspoor in Leeuwarden nog onduidelijk na herinrichting.","route":"train","network":"Regionaal spoorvervoer Fryslân en Groningen","service":"regional","interval":"30","operator":"Arriva","wikidata":"Q115122095","ref:ProRail":"37400","network:wikidata":"Q108742239","public_transport:version":"2"},"324843":{"to":"Enschede","ref":"1600","from":"Schiphol Airport","name":"1600: Schiphol Airport - Enschede","type":"route","brand":"Intercity","route":"train","network":"Hoofdrailnet Nederland","service":"long_distance","interval":"60","operator":"Nederlandse Spoorwegen","ref:ProRail":"1600","network:short":"HRN","network:wikidata":"Q2337464","network:wikipedia":"nl:Hoofdrailnet","public_transport:version":"2"},"324850":{"to":"Zwolle","ref":"5600","url":"http://wiki.ovinnederland.nl/wiki/Serie_5600","from":"Utrecht Centraal","name":"5600: Utrecht - Zwolle","type":"route","brand":"Sprinter","route":"train","network":"Hoofdrailnet Nederland","service":"regional","interval":"30","operator":"Nederlandse Spoorwegen","ref:ProRail":"5600","network:short":"HRN","network:wikidata":"Q2337464","network:wikipedia":"nl:Hoofdrailnet","public_transport:version":"2"},"324857":{"to":"Kampen","ref":"RS22","url":"http://wiki.ovinnederland.nl/wiki/Serie_8500","from":"Zwolle","name":"RS22: Zwolle - Kampen","type":"route","brand":"Blauwnet","route":"train","network":"Zwolle - Kampen en Zwolle - Enschede","service":"regional","interval":"30","operator":"Keolis","wikidata":"Q115122313","ref:ProRail":"8500","brand:wikidata":"Q46994823","brand:wikipedia":"nl:Blauwnet","network:wikidata":"Q108742725","public_transport:version":"2"},"324887":{"to":"Groningen","ref":"8100","url":"http://wiki.ovinnederland.nl/wiki/Serie_8100","from":"Zwolle","name":"8100: Zwolle - Groningen","type":"route","brand":"Sprinter","route":"train","network":"Hoofdrailnet Nederland","service":"regional","interval":"30","operator":"Nederlandse Spoorwegen","wheelchair":"yes","ref:ProRail":"8100","network:short":"HRN","network:wikidata":"Q2337464","network:wikipedia":"nl:Hoofdrailnet","public_transport:version":"2"},"324888":{"to":"Groningen","ref":"500","url":"http://wiki.ovinnederland.nl/wiki/Serie_500","from":"Rotterdam Centraal","name":"500: Rotterdam - Groningen","type":"route","brand":"Intercity","route":"train","network":"Hoofdrailnet Nederland","service":"long_distance","interval":"60","operator":"Nederlandse Spoorwegen","ref:ProRail":"500","network:short":"HRN","network:wikidata":"Q2337464","network:wikipedia":"nl:Hoofdrailnet","public_transport:version":"2"},"324899":{"to":"Weener","ref":"RS6","url":"http://wiki.ovinnederland.nl/wiki/Serie_20100","from":"Groningen","name":"RS6: Groningen - Weener","type":"route","brand":"RegioSprinter","route":"train","ref:de":"KBS 397","network":"Regionaal spoorvervoer Fryslân en Groningen","service":"regional","alt_name":"Wiederline","interval":"60","operator":"Arriva","wikidata":"Q115122110","ref:ProRail":"20100","network:wikidata":"Q108742239","public_transport:version":"2"},"324930":{"to":"Harlingen Haven","ref":"RS2","url":"http://wiki.ovinnederland.nl/wiki/Serie_37200","from":"Leeuwarden","name":"RS2: Leeuwarden - Harlingen Haven","type":"route","brand":"RegioSprinter","route":"train","network":"Regionaal spoorvervoer Fryslân en Groningen","service":"regional","interval":"25;35","operator":"Arriva","wikidata":"Q115122120","ref:ProRail":"37200","network:wikidata":"Q108742239","public_transport:version":"2"},"324940":{"to":"Leeuwarden","ref":"RS3","url":"http://wiki.ovinnederland.nl/wiki/Serie_37100","from":"Stavoren","name":"RS3: Stavoren - Leeuwarden","type":"route","brand":"RegioSprinter","route":"train","network":"Regionaal spoorvervoer Fryslân en Groningen","service":"regional","interval":"60","operator":"Arriva","wikidata":"Q115122119","ref:ProRail":"37100","interval:peak":"30","network:wikidata":"Q108742239","public_transport:version":"2"},"325008":{"to":"Zandvoort aan Zee","ref":"5400","url":"http://wiki.ovinnederland.nl/wiki/Serie_5400","from":"Amsterdam Centraal","name":"5400: Amsterdam Centraal - Zandvoort aan Zee","type":"route","brand":"Sprinter","route":"train","network":"Hoofdrailnet Nederland","service":"regional","interval":"30","operator":"Nederlandse Spoorwegen","ref:ProRail":"5400","network:short":"HRN","network:wikidata":"Q2337464","network:wikipedia":"nl:Hoofdrailnet","public_transport:version":"2"},"325049":{"to":"Haarlem","ref":"6300","url":"http://wiki.ovinnederland.nl/wiki/Serie_6300","from":"Den Haag Centraal","name":"6300: Den Haag Centraal - Haarlem","type":"route","brand":"Sprinter","route":"train","network":"Hoofdrailnet Nederland","service":"regional","interval":"30","operator":"Nederlandse Spoorwegen","ref:ProRail":"6300","network:short":"HRN","network:wikidata":"Q2337464","network:wikipedia":"nl:Hoofdrailnet","public_transport:version":"2"},"325141":{"to":"Hoorn","ref":"4800","url":"http://wiki.ovinnederland.nl/wiki/Serie_4800","from":"Amsterdam Centraal","name":"4800: Amsterdam Centraal - Hoorn","type":"route","brand":"Sprinter","route":"train","network":"Hoofdrailnet Nederland","service":"regional","interval":"30","operator":"Nederlandse Spoorwegen","ref:ProRail":"4800","network:short":"HRN","network:wikidata":"Q2337464","network:wikipedia":"nl:Hoofdrailnet","public_transport:version":"2"},"325184":{"to":"Hoorn Kersenboogerd","ref":"3300","url":"http://wiki.ovinnederland.nl/wiki/Serie_3300","from":"Den Haag Centraal","name":"3300: Den Haag Centraal - Hoorn Kersenboogerd","note":"route doordeweeks overdag","type":"route","brand":"Sprinter","route":"train","network":"Hoofdrailnet Nederland","service":"regional","interval":"30","operator":"Nederlandse Spoorwegen","ref:ProRail":"3300","network:short":"HRN","interval:evening":"0","interval:weekend":"0","network:wikidata":"Q2337464","network:wikipedia":"nl:Hoofdrailnet","public_transport:version":"2"},"325202":{"to":"Utrecht Centraal","ref":"5700","url":"http://wiki.ovinnederland.nl/wiki/Serie_5700","from":"Hoofddorp","name":"5700: Hoofddorp - Utrecht Centraal","type":"route","brand":"Sprinter","route":"train","network":"Hoofdrailnet Nederland","service":"regional","interval":"30","operator":"Nederlandse Spoorwegen","ref:ProRail":"5700","network:short":"HRN","network:wikidata":"Q2337464","network:wikipedia":"nl:Hoofdrailnet","public_transport:version":"2"},"325211":{"to":"Baarn","ref":"5500","url":"http://wiki.ovinnederland.nl/wiki/Serie_5500","from":"Utrecht Centraal","name":"5500: Utrecht Centraal - Baarn","type":"route","brand":"Sprinter","route":"train","network":"Hoofdrailnet Nederland","service":"regional","interval":"30","operator":"Nederlandse Spoorwegen","ref:ProRail":"5500","network:short":"HRN","network:wikidata":"Q2337464","network:wikipedia":"nl:Hoofdrailnet","public_transport:version":"2"},"325238":{"to":"Utrecht Centraal","ref":"8800","url":"http://wiki.ovinnederland.nl/wiki/Serie_8800","from":"Leiden Centraal","name":"8800: Leiden Centraal - Utrecht Centraal","type":"route","brand":"Intercity","route":"train","network":"Hoofdrailnet Nederland","service":"long_distance","interval":"30","operator":"Nederlandse Spoorwegen","ref:ProRail":"8800","network:short":"HRN","network:wikidata":"Q2337464","network:wikipedia":"nl:Hoofdrailnet","public_transport:version":"2"},"325270":{"to":"Deventer","ref":"1500","url":"http://wiki.ovinnederland.nl/wiki/Serie_1500","from":"Amsterdam Centraal","name":"1500: Amsterdam Centraal - Deventer","type":"route","brand":"Intercity","route":"train","network":"Hoofdrailnet Nederland","service":"long_distance","interval":"30","operator":"Nederlandse Spoorwegen","ref:ProRail":"1500","network:short":"HRN","network:wikidata":"Q2337464","network:wikipedia":"nl:Hoofdrailnet","public_transport:version":"2"},"325274":{"to":"Amsterdam Centraal","ref":"2600","from":"Almere Centrum","name":"2600: Almere Centrum - Amsterdam Centraal","type":"route","brand":"Intercity","route":"train","network":"Hoofdrailnet Nederland","service":"long_distance","website":"https://wiki.ovinnederland.nl/wiki/Serie_2600","interval":"30","operator":"Nederlandse Spoorwegen","ref:ProRail":"2600","network:short":"HRN","network:wikidata":"Q2337464","network:wikipedia":"nl:Hoofdrailnet","public_transport:version":"2"},"325282":{"to":"Enschede","ref":"7000","url":"http://wiki.ovinnederland.nl/wiki/Serie_7000","from":"Apeldoorn","name":"7000: Apeldoorn - Enschede","type":"route","brand":"Sprinter","route":"train","name:de":"7000: Appeldorn - Enscheid","name:nl":"7000: Apeldoorn - Enschede","network":"Hoofdrailnet Nederland","service":"regional","interval":"30","operator":"Nederlandse Spoorwegen","ref:ProRail":"7000","network:short":"HRN","network:wikidata":"Q2337464","network:wikipedia":"nl:Hoofdrailnet","public_transport:version":"2"},"325288":{"to":"Zutphen","ref":"7600","url":"http://wiki.ovinnederland.nl/wiki/Serie_7600","from":"Wijchen","name":"7600: Wijchen - Zutphen","type":"route","brand":"Sprinter","route":"train","network":"Hoofdrailnet Nederland","service":"regional","interval":"30","operator":"Nederlandse Spoorwegen","ref:ProRail":"7600","network:short":"HRN","network:wikidata":"Q2337464","network:wikipedia":"nl:Hoofdrailnet","public_transport:version":"2"},"325469":{"to":"Den Helder","ref":"3000","url":"http://wiki.ovinnederland.nl/wiki/Serie_3000","from":"Nijmegen","name":"3000: Nijmegen - Den Helder","type":"route","brand":"Intercity","route":"train","network":"Hoofdrailnet Nederland","service":"long_distance","interval":"30","operator":"Nederlandse Spoorwegen","ref:ProRail":"3000","network:short":"HRN","network:wikidata":"Q2337464","network:wikipedia":"nl:Hoofdrailnet","public_transport:version":"2"},"325507":{"to":"Dordrecht","ref":"5100","from":"Den Haag Centraal","name":"5100: Den Haag Centraal - Dordrecht","type":"route","brand":"Sprinter","route":"train","network":"Hoofdrailnet Nederland","service":"regional","website":"https://wiki.ovinnederland.nl/wiki/Serie_5100","interval":"30","operator":"Nederlandse Spoorwegen","ref:ProRail":"5100","network:short":"HRN","network:wikidata":"Q2337464","network:wikipedia":"nl:Hoofdrailnet","public_transport:version":"2"},"325817":{"to":"Kerkrade Centrum","ref":"RS18","url":"http://wiki.ovinnederland.nl/wiki/Serie_32000","from":"Maastricht Randwyck","name":"RS18: Maastricht Randwyck - Kerkrade Centrum","type":"route","brand":"RegioSprinter","route":"train","network":"Limburg","service":"regional","interval":"30","operator":"Arriva","wikidata":"Q115122471","ref:ProRail":"32000","network:wikidata":"Q108713758","public_transport:version":"2"},"325829":{"to":"Rotterdam Centraal","ref":"4000","url":"http://wiki.ovinnederland.nl/wiki/Serie_4000","from":"Uitgeest","name":"4000: Uitgeest - Rotterdam Centraal","type":"route","brand":"Sprinter","route":"train","network":"Hoofdrailnet Nederland","service":"regional","interval":"30","operator":"Nederlandse Spoorwegen","ref:ProRail":"4000","network:short":"HRN","network:wikidata":"Q2337464","network:wikipedia":"nl:Hoofdrailnet","public_transport:version":"2"},"325839":{"to":"Almere Centrum","ref":"4900","url":"http://wiki.ovinnederland.nl/wiki/Serie_4900","from":"Utrecht Centraal","name":"4900: Utrecht Centraal - Almere Centrum","type":"route","brand":"Sprinter","route":"train","network":"Hoofdrailnet Nederland","service":"regional","interval":"30","operator":"Nederlandse Spoorwegen","ref:ProRail":"4900","network:short":"HRN","network:wikidata":"Q2337464","network:wikipedia":"nl:Hoofdrailnet","public_transport:version":"2"},"325904":{"to":"Den Haag Centraal","ref":"2100","from":"Amsterdam Centraal","name":"2100: Amsterdam Centraal - Den Haag Centraal","type":"route","brand":"Intercity","route":"train","network":"Hoofdrailnet Nederland","service":"long_distance","website":"https://wiki.ovinnederland.nl/wiki/Serie_2100","interval":"30","operator":"Nederlandse Spoorwegen","ref:ProRail":"2100","network:short":"HRN","network:wikidata":"Q2337464","network:wikipedia":"nl:Hoofdrailnet","public_transport:version":"2"},"325908":{"to":"Groningen","ref":"700","from":"Den Haag Centraal","name":"700: Den Haag Centraal - Groningen","type":"route","brand":"Intercity","route":"train","network":"Hoofdrailnet Nederland","service":"long_distance","website":"https://wiki.ovinnederland.nl/wiki/Serie_700","interval":"60","operator":"Nederlandse Spoorwegen","wheelchair":"yes","ref:ProRail":"700","network:short":"HRN","network:wikidata":"Q2337464","network:wikipedia":"nl:Hoofdrailnet","public_transport:version":"2"},"325938":{"to":"Alphen aan den Rijn","ref":"8600","url":"http://wiki.ovinnederland.nl/wiki/Serie_8600","from":"Gouda","name":"8600: Gouda - Alphen aan den Rijn","type":"route","brand":"R-NET","route":"train","network":"Treindienst Gouda - Alphen aan den Rijn","service":"regional","interval":"30","operator":"Abellio","ref:ProRail":"8600","network:wikidata":"Q108718103","public_transport:version":"2"},"325962":{"to":"Rotterdam Centraal","ref":"900","url":"http://wiki.ovinnederland.nl/wiki/Serie_900","from":"Amsterdam Centraal","name":"900: Amsterdam Centraal - Rotterdam Centraal","type":"route","brand":"Intercity direct","route":"train","network":"Hoofdrailnet Nederland","service":"long_distance","interval":"30","operator":"Nederlandse Spoorwegen","ref:ProRail":"900","network:short":"HRN","network:wikidata":"Q2337464","network:wikipedia":"nl:Hoofdrailnet","public_transport:version":"2"},"363497":{"to":"Lelystad Centrum","ref":"2400","from":"Dordrecht","name":"2400: Dordrecht - Lelystad Centrum","type":"route","brand":"Intercity","route":"train","network":"Hoofdrailnet Nederland","service":"long_distance","website":"https://wiki.ovinnederland.nl/wiki/Serie_2400","interval":"30","operator":"Nederlandse Spoorwegen","ref:ProRail":"2400","network:short":"HRN","network:wikidata":"Q2337464","network:wikipedia":"nl:Hoofdrailnet","public_transport:version":"2"},"363498":{"to":"Rotterdam Centraal","ref":"14000","url":"http://wiki.ovinnederland.nl/wiki/Serie_14000","from":"Utrecht Centraal","name":"14000: Utrecht Centraal - Rotterdam Centraal","type":"route","brand":"Sprinter","route":"train","network":"Hoofdrailnet Nederland","service":"regional","operator":"Nederlandse Spoorwegen","ref:ProRail":"14000","interval:peak":"30","network:short":"HRN","network:wikidata":"Q2337464","network:wikipedia":"nl:Hoofdrailnet","public_transport:version":"2"},"363499":{"to":"Zwolle","ref":"9000","url":"http://wiki.ovinnederland.nl/wiki/Serie_9000","from":"Leeuwarden","name":"9000: Leeuwarden - Zwolle","type":"route","brand":"Sprinter","route":"train","network":"Hoofdrailnet Nederland","service":"regional","interval":"30","operator":"Nederlandse Spoorwegen","ref:ProRail":"9000","network:short":"HRN","network:wikidata":"Q2337464","network:wikipedia":"nl:Hoofdrailnet","public_transport:version":"2"},"363500":{"to":"Leeuwarden","ref":"600","url":"http://wiki.ovinnederland.nl/wiki/Serie_600","from":"Rotterdam Centraal","name":"600: Rotterdam Centraal - Leeuwarden","type":"route","brand":"Intercity","route":"train","headway":"60","network":"Hoofdrailnet Nederland","service":"long_distance","interval":"60","operator":"Nederlandse Spoorwegen","ref:ProRail":"600","network:short":"HRN","network:wikidata":"Q2337464","network:wikipedia":"nl:Hoofdrailnet","public_transport:version":"2"},"374676":{"to":"Berlin Ostbahnhof","ref":"IC 77","from":"Amsterdam Centraal","name":"IC 77: Amsterdam => Berlin","type":"route","route":"train","network":"DB InterCityExpress","service":"long_distance","interval":"02:00","operator":"DB Fernverkehr","ref:ProRail":"140;240","network:wikidata":"Q129172","network:wikipedia":"de:Intercity-Express","operator:wikidata":"Q452140","operator:wikipedia":"de:DB Fernverkehr","public_transport:version":"2"},"379647":{"to":"Frankfurt (Main) Hauptbahnhof","ref":"ICE 78","from":"Amsterdam Centraal","name":"ICE 78: Amsterdam => Frankfurt","type":"route","route":"train","network":"DB InterCityExpress","service":"high_speed","operator":"DB Fernverkehr AG;NS International","ref:ProRail":"200","public_transport:version":"2"},"1311836":{"to":"Düsseldorf","ref":"RE19","from":"Arnhem","name":"RE19: Arnhem => Düsseldorf","type":"route","route":"train","height":"0.76","network":"NRW-Tarif;VRR;WestfalenTarif","service":"regional","toilets":"yes","interval":"60","operator":"VIAS GmbH","wikidata":"Q24355686","ref:ProRail":"20000","power_supply":"cee_7_3","air_conditioning":"yes","operator:wikidata":"Q2521737","toilets:wheelchair":"yes","public_transport:version":"2"},"1323483":{"to":"Veendam","ref":"RS7","url":"http://wiki.ovinnederland.nl/wiki/Serie_37800","from":"Groningen","name":"RS7: Groningen - Veendam","type":"route","brand":"RegioSprinter","route":"train","network":"Regionaal spoorvervoer Fryslân en Groningen","service":"regional","interval":"30","operator":"Arriva","wikidata":"Q115122111","ref:ProRail":"37800","network:wikidata":"Q108742239","public_transport:version":"2"},"1323484":{"to":"Emmen","ref":"RE20","url":"http://wiki.ovinnederland.nl/wiki/Serie_3800","from":"Zwolle","name":"RE20: Zwolle - Emmen","type":"route","brand":"Blauwnet;RegioExpres","route":"train","network":"Vechtdallijnen","service":"long_distance","interval":"30","operator":"Arriva","wikidata":"Q115122310","ref:ProRail":"3800","brand:wikidata":"Q46994823","brand:wikipedia":"nl:Blauwnet","network:wikidata":"Q108742711","public_transport:version":"2"},"1323486":{"to":"Utrecht Centraal","ref":"2800","url":"http://wiki.ovinnederland.nl/wiki/Serie_2800","from":"Rotterdam Centraal","name":"2800: Rotterdam Centraal - Utrecht Centraal","type":"route","brand":"Intercity","route":"train","network":"Hoofdrailnet Nederland","service":"long_distance","interval":"30","operator":"Nederlandse Spoorwegen","ref:ProRail":"2800","network:short":"HRN","network:wikidata":"Q2337464","network:wikipedia":"nl:Hoofdrailnet","public_transport:version":"2"},"1323488":{"to":"Brussel-Zuid/Midi","ref":"9200","from":"Amsterdam Centraal","name":"9200: Amsterdam Centraal - Brussel-Zuid/Midi","type":"route","brand":"Intercity direct","route":"train","name:en":"9200: Amsterdam Central - Bruxelles-South","name:fr":"9200: Amsterdam Centrale - Bruxelles-Midi","name:nl":"9200: Amsterdam Centraal - Brussel-Zuid","network":"Hoofdrailnet Nederland","service":"long_distance","interval":"60","operator":"Nederlandse Spoorwegen","ref:ProRail":"9200","network:short":"HRN","network:wikidata":"Q2337464","network:wikipedia":"nl:Hoofdrailnet","public_transport:version":"2"},"1323489":{"to":"Deurne","ref":"4400","url":"http://wiki.ovinnederland.nl/wiki/Serie_4400","from":"Oss","name":"4400: Oss - Deurne","type":"route","brand":"Sprinter","route":"train","network":"Hoofdrailnet Nederland","service":"regional","interval":"30","operator":"Nederlandse Spoorwegen","ref:ProRail":"4400","network:short":"HRN","network:wikidata":"Q2337464","network:wikipedia":"nl:Hoofdrailnet","public_transport:version":"2"},"1323490":{"to":"Winschoten","ref":"RS6","url":"http://wiki.ovinnederland.nl/wiki/Serie_37500","from":"Groningen","name":"RS6: Groningen - Winschoten","type":"route","brand":"RegioSprinter","route":"train","network":"Regionaal spoorvervoer Fryslân en Groningen","service":"regional","interval":"60","operator":"Arriva","wikidata":"Q115122110","ref:ProRail":"37500","network:wikidata":"Q108742239","public_transport:version":"2"},"1323491":{"to":"Rhenen","ref":"7300","url":"http://wiki.ovinnederland.nl/wiki/Serie_7300","from":"Breukelen","name":"7300: Breukelen - Rhenen","type":"route","brand":"Sprinter","route":"train","network":"Hoofdrailnet Nederland","service":"regional","operator":"Nederlandse Spoorwegen","ref:ProRail":"7300","interval:peak":"30","network:short":"HRN","network:wikidata":"Q2337464","network:wikipedia":"nl:Hoofdrailnet","public_transport:version":"2"},"1323492":{"to":"Utrecht Centraal","ref":"2000","url":"http://wiki.ovinnederland.nl/wiki/Serie_2000","from":"Den Haag Centraal","name":"2000: Den Haag Centraal - Utrecht Centraal","type":"route","brand":"Intercity","route":"train","network":"Hoofdrailnet Nederland","service":"long_distance","interval":"30","operator":"Nederlandse Spoorwegen","ref:ProRail":"2000","network:short":"HRN","network:wikidata":"Q2337464","network:wikipedia":"nl:Hoofdrailnet","public_transport:version":"2"},"1323493":{"to":"Barneveld Zuid","ref":"RS34","url":"http://wiki.ovinnederland.nl/wiki/Serie_31400","from":"Amersfoort Centraal","name":"RS34: Amersfoort Centraal - Barneveld Zuid","type":"route","brand":"Valleilijn","route":"train","network":"Treindienst Amersfoort - Ede-Wageningen","service":"regional","interval":"30","operator":"Connexxion","wikidata":"Q115122490","ref:ProRail":"31400","brand:wikidata":"Q17486325","brand:wikipedia":"nl:Valleilijn","network:wikidata":"Q108742705","public_transport:version":"2"},"1323494":{"to":"Arnhem Centraal","ref":"6600","url":"http://wiki.ovinnederland.nl/wiki/Serie_6600","from":"Dordrecht","name":"6600: Dordrecht - Arnhem Centraal","type":"route","brand":"Sprinter","route":"train","network":"Hoofdrailnet Nederland","service":"regional","interval":"30","operator":"Nederlandse Spoorwegen","ref:ProRail":"6600","network:short":"HRN","network:wikidata":"Q2337464","network:wikipedia":"nl:Hoofdrailnet","public_transport:version":"2"},"1323495":{"to":"Doetinchem","ref":"RS32","url":"http://wiki.ovinnederland.nl/wiki/Serie_30700","from":"Arnhem Centraal","name":"RS32: Arnhem Centraal - Doetinchem","type":"route","brand":"Brengdirect","route":"train","network":"Arnhem-Nijmegen","service":"regional","interval":"30","operator":"Breng","ref:ProRail":"30700","network:wikidata":"Q108716067","public_transport:version":"2"},"1323497":{"to":"Sneek","ref":"RS3","url":"http://wiki.ovinnederland.nl/wiki/Serie_37000","from":"Leeuwarden","name":"RS3: Leeuwarden - Sneek","note":"route buiten spits","type":"route","brand":"RegioSprinter","route":"train","network":"Regionaal spoorvervoer Fryslân en Groningen","service":"regional","interval":"60","operator":"Arriva","wikidata":"Q115122119","ref:ProRail":"37000","interval:peak":"0","network:wikidata":"Q108742239","public_transport:version":"2"},"1323501":{"to":"Amersfoort Vathorst","ref":"5800","url":"http://wiki.ovinnederland.nl/wiki/Serie_5800","from":"Hoofddorp","name":"5800: Hoofddorp - Amersfoort Vathorst","note":"route tijdens spits en in het weekend","type":"route","brand":"Sprinter","route":"train","network":"Hoofdrailnet Nederland","service":"regional","interval":"30","operator":"Nederlandse Spoorwegen","ref:ProRail":"5800","network:short":"HRN","network:wikidata":"Q2337464","network:wikipedia":"nl:Hoofdrailnet","public_transport:version":"2"},"1323502":{"to":"Weert","ref":"6400","url":"http://wiki.ovinnederland.nl/wiki/Serie_6400","from":"Tilburg Universiteit","name":"6400: Tilburg Universiteit - Weert","type":"route","brand":"Sprinter","route":"train","network":"Hoofdrailnet Nederland","service":"regional","interval":"30","operator":"Nederlandse Spoorwegen","ref:ProRail":"6400","network:short":"HRN","network:wikidata":"Q2337464","network:wikipedia":"nl:Hoofdrailnet","public_transport:version":"2"},"1323503":{"to":"Leeuwarden","ref":"1800","from":"Den Haag Centraal","name":"1800: Den Haag Centraal - Leeuwarden","type":"route","brand":"Intercity","route":"train","network":"Hoofdrailnet Nederland","service":"long_distance","website":"https://wiki.ovinnederland.nl/wiki/Serie_1800","interval":"60","operator":"Nederlandse Spoorwegen","ref:ProRail":"1800","network:short":"HRN","network:wikidata":"Q2337464","network:wikipedia":"nl:Hoofdrailnet","public_transport:version":"2"},"1323504":{"to":"Dordrecht","ref":"5000","from":"Den Haag Centraal","name":"5000: Den Haag Centraal - Dordrecht","type":"route","brand":"Sprinter","route":"train","network":"Hoofdrailnet Nederland","service":"regional","website":"https://wiki.ovinnederland.nl/wiki/Serie_5000","interval":"30","operator":"Nederlandse Spoorwegen","ref:ProRail":"5000","network:short":"HRN","network:wikidata":"Q2337464","network:wikipedia":"nl:Hoofdrailnet","public_transport:version":"2"},"1323506":{"to":"Zwolle","ref":"4600","url":"http://wiki.ovinnederland.nl/wiki/Serie_4600","from":"Den Haag Centraal","name":"4600: Den Haag Centraal - Zwolle","note":"route 's avonds en in het weekend","type":"route","brand":"Sprinter","route":"train","network":"Hoofdrailnet Nederland","service":"regional","interval":"0","operator":"Nederlandse Spoorwegen","ref:ProRail":"4600","network:short":"HRN","interval:evening":"30","interval:weekend":"30","network:wikidata":"Q2337464","network:wikipedia":"nl:Hoofdrailnet","public_transport:version":"2"},"1323507":{"to":"Nijmegen","ref":"3100","url":"http://wiki.ovinnederland.nl/wiki/Serie_3100","from":"Schiphol Airport","name":"3100: Schiphol Airport - Nijmegen","type":"route","brand":"Intercity","route":"train","network":"Hoofdrailnet Nederland","service":"long_distance","interval":"30","operator":"Nederlandse Spoorwegen","ref:ProRail":"3100","network:short":"HRN","network:wikidata":"Q2337464","network:wikipedia":"nl:Hoofdrailnet","public_transport:version":"2"},"1323508":{"to":"Groningen","ref":"RE1","url":"http://wiki.ovinnederland.nl/wiki/Serie_37300","via":"Buitenpost","from":"Leeuwarden","name":"RE1: Leeuwarden - Buitenpost - Groningen","type":"route","brand":"RegioExpres","route":"train","network":"Regionaal spoorvervoer Fryslân en Groningen","service":"long_distance","interval":"60","operator":"Arriva","wikidata":"Q115121840","ref:ProRail":"37300","network:wikidata":"Q108742239","public_transport:version":"2"},"1323511":{"to":"Vlissingen","ref":"2200","from":"Amsterdam Centraal","name":"2200: Amsterdam Centraal - Vlissingen","note":"stopt in Zeeland op elk station","type":"route","brand":"Intercity","route":"train","network":"Hoofdrailnet Nederland","service":"long_distance","website":"https://wiki.ovinnederland.nl/wiki/Serie_2200","interval":"60","operator":"Nederlandse Spoorwegen","ref:ProRail":"2200","network:short":"HRN","interval:evening":"30","interval:weekend":"30","network:wikidata":"Q2337464","network:wikipedia":"nl:Hoofdrailnet","public_transport:version":"2"},"1778548":{"to":"Bielefeld","ref":"RB61","from":"Hengelo","name":"RB61: Hengelo => Bielefeld","type":"route","route":"train","network":"NRW-Tarif;WestfalenTarif","service":"regional","alt_name":"Wiehengebirgs-Bahn","operator":"Eurobahn","wikidata":"Q68158483","ref:ProRail":"20350","operator:wikidata":"Q589575","public_transport:version":"2"},"1907415":{"to":"Amersfoort Schothorst","ref":"11600","url":"http://wiki.ovinnederland.nl/wiki/Serie_11600","from":"Schiphol Airport","name":"11600: Schiphol Airport - Amersfoort Schothorst","type":"route","brand":"Intercity","route":"train","network":"Hoofdrailnet Nederland","service":"long_distance","interval":"60","operator":"Nederlandse Spoorwegen","ref:ProRail":"11600","network:short":"HRN","network:wikidata":"Q2337464","network:wikipedia":"nl:Hoofdrailnet","public_transport:version":"2"},"1998597":{"to":"Hamm (Westf)","ref":"RE13","url":"http://wiki.ovinnederland.nl/wiki/RE13_%28Nordrhein-Westfalen%29","via":"Mönchengladbach, Neuss, Düsseldorf, Wuppertal, Hagen","from":"Venlo","name":"RE13: Venlo => Hamm (Westf)","type":"route","route":"train","network":"NRW-Tarif;VRR;WestfalenTarif","service":"regional","interval":"60","operator":"Eurobahn","ref:ProRail":"20050","operator:wikidata":"Q589575","public_transport:version":"2"},"2085588":{"to":"Utrecht Maliebaan","ref":"28300","url":"http://wiki.ovinnederland.nl/wiki/Serie_28300","from":"Utrecht Centraal","name":"28300: Utrecht Centraal - Utrecht Maliebaan","type":"route","brand":"Sprinter","route":"train","network":"Hoofdrailnet Nederland","service":"regional","interval":"60","operator":"Nederlandse Spoorwegen","ref:ProRail":"28300","network:short":"HRN","network:wikidata":"Q2337464","network:wikipedia":"nl:Hoofdrailnet","public_transport:version":"2"},"2444995":{"to":"Dortmund Hbf","ref":"RB51","from":"Enschede","name":"RB51: Enschede => Dortmund","type":"route","route":"train","name:de":"RB51: Enscheid => Dortmund","name:nl":"RB51: Enschede => Dortmund","network":"NRW-Tarif;VRR;WestfalenTarif","service":"regional","operator":"DB Regio AG NRW","ref:ProRail":"20250","public_transport:version":"2"},"2813685":{"to":"Vetschau","ref":"ZLSM","from":"Simpelveld","name":"Railbus ZLSM: Simpelveld - Vetschau","type":"route","route":"train","usage":"tourism","network":"Miljoenenlijn","service":"tourist","website":"https://www.miljoenenlijn.nl/","operator":"Zuid-Limburgse Stoomtrein Maatschappij","public_transport:version":"2"},"2813687":{"to":"Kerkrade ZLSM","ref":"ZLSM","from":"Simpelveld","name":"Trein ZLSM: Simpelveld - Kerkrade ZLSM","type":"route","route":"train","usage":"tourism","network":"Miljoenenlijn","service":"tourist","website":"https://www.miljoenenlijn.nl/","operator":"Zuid-Limburgse Stoomtrein Maatschappij","public_transport:version":"2"},"3000719":{"to":"Zwolle","ref":"RS22","url":"http://wiki.ovinnederland.nl/wiki/Serie_8500","from":"Kampen","name":"RS22: Kampen-Zwolle","type":"route","brand":"Blauwnet","route":"train","network":"Zwolle - Kampen en Zwolle - Enschede","service":"regional","interval":"30","operator":"Keolis","wikidata":"Q115122313","ref:ProRail":"8500","brand:wikidata":"Q46994823","brand:wikipedia":"nl:Blauwnet","network:wikidata":"Q108742725","public_transport:version":"2"},"3017158":{"to":"Gorinchem","ref":"7100","url":"http://wiki.ovinnederland.nl/wiki/Serie_7100","from":"Dordrecht","name":"7100: Dordrecht - Gorinchem","type":"route","brand":"R-NET","route":"train","network":"Drechtsteden, Molenlanden en Gorinchem","service":"regional","interval":"30","operator":"Qbuzz","ref:ProRail":"7100","network:wikidata":"Q108716138","public_transport:version":"2"},"3020872":{"to":"Maastricht Randwyck","ref":"RS12","url":"http://wiki.ovinnederland.nl/wiki/Serie_32400","from":"Roermond","name":"RS12: Roermond - Maastricht Randwyck","type":"route","brand":"RegioSprinter","route":"train","network":"Limburg","service":"regional","interval":"30","operator":"Arriva","wikidata":"Q115122467","ref:ProRail":"32400","network:wikidata":"Q108713758","public_transport:version":"2"},"3020873":{"to":"Venray","ref":"RS11","url":"http://wiki.ovinnederland.nl/wiki/Serie_32300","from":"Nijmegen","name":"RS11: Nijmegen - Venray","type":"route","brand":"RegioSprinter","route":"train","network":"Limburg","service":"regional","interval":"30","operator":"Arriva","wikidata":"Q115122464","ref:ProRail":"32300","network:wikidata":"Q108713758","public_transport:version":"2"},"3045247":{"to":"Hasselt","ref":"S43","url":"http://wiki.ovinnederland.nl/wiki/Serie_L5350","from":"Maastricht","name":"S43 Maastricht - Liège - Hasselt","type":"route","route":"train","network":"S","operator":"NMBS/SNCB","ref:ProRail":"5300","public_transport:version":"2"},"3842767":{"to":"Aachen","ref":"RE18","from":"Maastricht","name":"RE18: Maastricht => Aachen","type":"route","brand":"RegioExpres;Regional Express","route":"train","network":"AVV;Limburg;NRW-Tarif","service":"regional","operator":"Arriva","wikidata":"Q20737324","wikipedia":"de:LIMAX","ref:ProRail":"18900","public_transport:version":"2"},"4062914":{"to":"Gouda Goverwelle","ref":"6800","url":"http://wiki.ovinnederland.nl/wiki/Serie_6800","from":"Den Haag Centraal","name":"6800: Den Haag Centraal - Gouda Goverwelle","type":"route","brand":"Sprinter","route":"train","network":"Hoofdrailnet Nederland","service":"regional","interval":"30","operator":"Nederlandse Spoorwegen","ref:ProRail":"6800","network:short":"HRN","network:wikidata":"Q2337464","network:wikipedia":"nl:Hoofdrailnet","public_transport:version":"2"},"4063021":{"to":"Amersfoort Schothorst","ref":"11700","url":"http://wiki.ovinnederland.nl/wiki/Serie_11700","from":"Den Haag Centraal","name":"11700: Den Haag Centraal - Amersfoort Schothorst","type":"route","brand":"Intercity","route":"train","network":"Hoofdrailnet Nederland","service":"long_distance","interval":"60","operator":"Nederlandse Spoorwegen","ref:ProRail":"11700","network:short":"HRN","network:wikidata":"Q2337464","network:wikipedia":"nl:Hoofdrailnet","public_transport:version":"2"},"4065146":{"to":"Rotterdam Centraal","ref":"1000","url":"http://wiki.ovinnederland.nl/wiki/Serie_1000","from":"Amsterdam Centraal","name":"1000: Amsterdam Centraal - Rotterdam Centraal","type":"route","brand":"Intercity direct","route":"train","network":"Hoofdrailnet Nederland","service":"long_distance","interval":"30","operator":"Nederlandse Spoorwegen","ref:ProRail":"1000","network:short":"HRN","network:wikidata":"Q2337464","network:wikipedia":"nl:Hoofdrailnet","public_transport:version":"2"},"4065394":{"to":"Coevorden","ref":"RE20","url":"http://wiki.ovinnederland.nl/wiki/Serie_13800","from":"Zwolle","name":"RE20: Zwolle - Coevorden","type":"route","brand":"Blauwnet;RegioExpres","route":"train","network":"Vechtdallijnen","service":"long_distance","interval":"0","operator":"Arriva","wikidata":"Q115122310","ref:ProRail":"13800","interval:peak":"30","brand:wikidata":"Q46994823","brand:wikipedia":"nl:Blauwnet","network:wikidata":"Q108742711","public_transport:version":"2"},"4065849":{"to":"Utrecht Centraal","ref":"21400","url":"http://wiki.ovinnederland.nl/wiki/Serie_21400","from":"Eindhoven Centraal","name":"21400: Nachtnet Eindhoven Centraal - Utrecht Centraal","type":"route","brand":"Intercity","route":"train","network":"Hoofdrailnet Nederland","service":"night","operator":"Nederlandse Spoorwegen","ref:ProRail":"21400","network:short":"HRN","interval:night":"60","network:wikidata":"Q2337464","network:wikipedia":"nl:Hoofdrailnet","public_transport:version":"2"},"4065850":{"to":"Utrecht Centraal","ref":"1400","via":"Amsterdam Centraal","from":"Amsterdam Bijlmer ArenA","name":"1400: Nachtnet Amsterdam Bijlmer ArenA - Utrecht Centraal - Amsterdam Centraal - Schiphol Airport","type":"route","brand":"Intercity","route":"train","headway":"60","network":"Hoofdrailnet Nederland","service":"long_distance","website":"https://wiki.ovinnederland.nl/wiki/Serie_1400","operator":"Nederlandse Spoorwegen","ref:ProRail":"1400","network:short":"HRN","network:wikidata":"Q2337464","network:wikipedia":"nl:Hoofdrailnet","public_transport:version":"2"},"4065893":{"to":"Eindhoven Centraal","ref":"21400","url":"http://wiki.ovinnederland.nl/wiki/Serie_21400","from":"Rotterdam Centraal","name":"21400: Nachtnet Rotterdam Centraal - Eindhoven Centraal","type":"route","brand":"Intercity","route":"train","network":"Hoofdrailnet Nederland","service":"night","operator":"Nederlandse Spoorwegen","ref:ProRail":"21400","network:short":"HRN","interval:night":"60","network:wikidata":"Q2337464","network:wikipedia":"nl:Hoofdrailnet","public_transport:version":"2"},"4066017":{"to":"Gouda","ref":"11400","url":"http://wiki.ovinnederland.nl/wiki/Serie_11400","from":"Rotterdam Centraal","name":"11400: Nachtnet Rotterdam Centraal - Gouda","note":"Rijdt in de nacht van woensdag op donderdag en donderdag op vrijdag. Gekoppeld aan serie 1400","type":"route","brand":"Intercity","route":"train","network":"Hoofdrailnet Nederland","service":"night","interval":"60","operator":"Nederlandse Spoorwegen","ref:ProRail":"11400","network:short":"HRN","network:wikidata":"Q2337464","network:wikipedia":"nl:Hoofdrailnet","public_transport:version":"2"},"4066080":{"to":"'s-Hertogenbosch","ref":"21420","url":"http://wiki.ovinnederland.nl/wiki/Serie_21420","from":"Tilburg","name":"Nachtnet Tilburg - 's-Hertogenbosch","note":"lijkt overtollig, geen route_master. Zie relation 7844178","type":"route","route":"train","headway":"30","operator":"Nederlandse Spoorwegen","public_transport:version":"2"},"4066088":{"to":"Amersfoort Centraal","ref":"22400","url":"http://wiki.ovinnederland.nl/wiki/Serie_22400","from":"Utrecht Centraal","name":"22400: Nachtnet Utrecht Centraal - Amersfoort Centraal","type":"route","brand":"Intercity","route":"train","network":"Hoofdrailnet Nederland","service":"night","operator":"Nederlandse Spoorwegen","ref:ProRail":"22400","network:short":"HRN","interval:night":"60","network:wikidata":"Q2337464","network:wikipedia":"nl:Hoofdrailnet","public_transport:version":"2"},"4066117":{"to":"Hoofddorp","ref":"5800","url":"http://wiki.ovinnederland.nl/wiki/Serie_5800","from":"Amersfoort Vathorst","name":"5800: Amersfoort Vathorst - Hoofddorp","note":"route tijdens spits en in het weekend","type":"route","brand":"Sprinter","route":"train","network":"Hoofdrailnet Nederland","service":"regional","interval":"30","operator":"Nederlandse Spoorwegen","ref:ProRail":"5800","network:short":"HRN","network:wikidata":"Q2337464","network:wikipedia":"nl:Hoofdrailnet","public_transport:version":"2"},"4066162":{"to":"Leiden Centraal","ref":"8900","url":"http://wiki.ovinnederland.nl/wiki/Serie_8900","from":"Utrecht Centraal","name":"8900: Utrecht Centraal - Leiden Centraal","note":"route tijdens de spits","type":"route","brand":"Sprinter","route":"train","network":"Hoofdrailnet Nederland","service":"regional","interval":"0","operator":"Nederlandse Spoorwegen","ref:ProRail":"8900","interval:peak":"30","network:short":"HRN","network:wikidata":"Q2337464","network:wikipedia":"nl:Hoofdrailnet","public_transport:version":"2"},"4665447":{"to":"Amsterdam Centraal","ref":"12600","from":"Groningen","name":"12600: Groningen - Amsterdam Centraal","type":"route","brand":"Intercity","route":"train","network":"Hoofdrailnet Nederland","service":"long_distance","website":"https://wiki.ovinnederland.nl/wiki/Serie_12600","operator":"Nederlandse Spoorwegen","ref:ProRail":"12600","interval:peak":"60","network:short":"HRN","network:wikidata":"Q2337464","network:wikipedia":"nl:Hoofdrailnet","public_transport:version":"2"},"4665448":{"to":"Dordrecht","ref":"2400","from":"Lelystad Centrum","name":"2400: Lelystad Centrum - Dordrecht","type":"route","brand":"Intercity","route":"train","network":"Hoofdrailnet Nederland","service":"long_distance","website":"https://wiki.ovinnederland.nl/wiki/Serie_2400","interval":"30","operator":"Nederlandse Spoorwegen","ref:ProRail":"2400","network:short":"HRN","network:wikidata":"Q2337464","network:wikipedia":"nl:Hoofdrailnet","public_transport:version":"2"},"5161577":{"to":"Rotterdam Centraal","ref":"500","url":"http://wiki.ovinnederland.nl/wiki/Serie_500","from":"Groningen","name":"500: Groningen - Rotterdam","type":"route","brand":"Intercity","route":"train","network":"Hoofdrailnet Nederland","service":"long_distance","interval":"60","operator":"Nederlandse Spoorwegen","ref:ProRail":"500","network:short":"HRN","network:wikidata":"Q2337464","network:wikipedia":"nl:Hoofdrailnet","public_transport:version":"2"},"5161578":{"to":"Den Haag Centraal","ref":"700","from":"Groningen","name":"700: Groningen - Den Haag Centraal","type":"route","brand":"Intercity","route":"train","network":"Hoofdrailnet Nederland","service":"long_distance","website":"https://wiki.ovinnederland.nl/wiki/Serie_700","interval":"60","operator":"Nederlandse Spoorwegen","wheelchair":"yes","ref:ProRail":"700","network:short":"HRN","network:wikidata":"Q2337464","network:wikipedia":"nl:Hoofdrailnet","public_transport:version":"2"},"5177901":{"to":"Maastricht","ref":"800","url":"http://wiki.ovinnederland.nl/wiki/Serie_800","from":"Alkmaar","name":"800: Alkmaar - Maastricht","type":"route","brand":"Intercity","route":"train","network":"Hoofdrailnet Nederland","service":"long_distance","interval":"30","operator":"Nederlandse Spoorwegen","ref:ProRail":"800","network:short":"HRN","network:wikidata":"Q2337464","public_transport":"route","network:wikipedia":"nl:Hoofdrailnet","public_transport:version":"2"},"5189985":{"to":"Amsterdam Centraal","ref":"900","url":"http://wiki.ovinnederland.nl/wiki/Serie_900","from":"Rotterdam Centraal","name":"900: Rotterdam Centraal - Amsterdam Centraal","type":"route","brand":"Intercity direct","route":"train","network":"Hoofdrailnet Nederland","service":"long_distance","interval":"30","operator":"Nederlandse Spoorwegen","ref:ProRail":"900","network:short":"HRN","network:wikidata":"Q2337464","network:wikipedia":"nl:Hoofdrailnet","public_transport:version":"2"},"5189986":{"to":"Amsterdam Centraal","ref":"1000","url":"http://wiki.ovinnederland.nl/wiki/Serie_1000","from":"Rotterdam Centraal","name":"1000: Rotterdam Centraal - Amsterdam Centraal","type":"route","brand":"Intercity direct","route":"train","network":"Hoofdrailnet Nederland","service":"long_distance","interval":"30","operator":"Nederlandse Spoorwegen","ref:ProRail":"1000","network:short":"HRN","network:wikidata":"Q2337464","network:wikipedia":"nl:Hoofdrailnet","public_transport:version":"2"},"5189987":{"to":"Marne-la-Vallée Chessy","ref":"Thalys","via":"Bruxelles-Midi","from":"Amsterdam Centraal","name":"Thalys: Amsterdam - Marne-la-Vallée","type":"route","route":"train","colour":"#aa2135","dining":"yes","bicycle":"no","headway":"60","name:fr":"Thalys: Amsterdam - Marne-la-Vallée","name:nl":"Thalys: Amsterdam - Marne-la-Vallée","network":"Thalys","service":"international","by_night":"no","operator":"Thalys International","highspeed":"yes","wheelchair":"limited","reservation":"only","ref:circulation":"9900","public_transport:version":"2"},"5189988":{"to":"Paris - Gare du Nord","ref":"Thalys","via":"Bruxelles-Midi","from":"Amsterdam Centraal","name":"Thalys: Amsterdam - Bruxelles - Paris","type":"route","route":"train","colour":"#aa2135","dining":"yes","bicycle":"no","headway":"60","network":"Thalys","service":"international","by_night":"no","operator":"Thalys International","highspeed":"yes","wheelchair":"limited","reservation":"only","ref:circulation":"9300","public_transport:version":"2"},"5204324":{"to":"Amsterdam Centraal","ref":"1500","url":"http://wiki.ovinnederland.nl/wiki/Serie_1500","from":"Deventer","name":"1500: Deventer - Amsterdam Centraal","type":"route","brand":"Intercity","route":"train","network":"Hoofdrailnet Nederland","service":"long_distance","interval":"30","operator":"Nederlandse Spoorwegen","ref:ProRail":"1500","network:short":"HRN","network:wikidata":"Q2337464","network:wikipedia":"nl:Hoofdrailnet","public_transport:version":"2"},"5204364":{"to":"Schiphol Airport","ref":"1600","from":"Enschede","name":"1600: Enschede - Schiphol Airport","type":"route","brand":"Intercity","route":"train","network":"Hoofdrailnet Nederland","service":"long_distance","interval":"60","operator":"Nederlandse Spoorwegen","ref:ProRail":"1600","network:short":"HRN","network:wikidata":"Q2337464","network:wikipedia":"nl:Hoofdrailnet","public_transport:version":"2"},"5214503":{"to":"Den Haag Centraal","ref":"1700","url":"http://wiki.ovinnederland.nl/wiki/Serie_1700","from":"Enschede","name":"1700: Enschede - Den Haag Centraal","type":"route","brand":"Intercity","route":"train","network":"Hoofdrailnet Nederland","service":"long_distance","interval":"60","operator":"Nederlandse Spoorwegen","ref:ProRail":"1700","network:short":"HRN","network:wikidata":"Q2337464","network:wikipedia":"nl:Hoofdrailnet","public_transport:version":"2"},"5214539":{"to":"Den Haag Centraal","ref":"1100","url":"http://wiki.ovinnederland.nl/wiki/Serie_1100","from":"Eindhoven Centraal","name":"1100: Eindhoven Centraal - Den Haag Centraal","type":"route","brand":"Intercity","route":"train","network":"Hoofdrailnet Nederland","service":"long_distance","interval":"30","operator":"Nederlandse Spoorwegen","ref:ProRail":"1100","network:short":"HRN","network:wikidata":"Q2337464","network:wikipedia":"nl:Hoofdrailnet","public_transport:version":"2"},"5217346":{"to":"Den Haag Centraal","ref":"2000","url":"http://wiki.ovinnederland.nl/wiki/Serie_2000","from":"Utrecht Centraal","name":"2000: Utrecht Centraal - Den Haag Centraal","type":"route","brand":"Intercity","route":"train","network":"Hoofdrailnet Nederland","service":"long_distance","interval":"30","operator":"Nederlandse Spoorwegen","ref:ProRail":"2000","network:short":"HRN","network:wikidata":"Q2337464","network:wikipedia":"nl:Hoofdrailnet","public_transport:version":"2"},"5218713":{"to":"Amsterdam Centraal","ref":"2100","from":"Den Haag Centraal","name":"2100: Den Haag Centraal - Amsterdam Centraal","type":"route","brand":"Intercity","route":"train","network":"Hoofdrailnet Nederland","service":"long_distance","website":"https://wiki.ovinnederland.nl/wiki/Serie_2100","interval":"30","operator":"Nederlandse Spoorwegen","ref:ProRail":"2100","network:short":"HRN","network:wikidata":"Q2337464","network:wikipedia":"nl:Hoofdrailnet","public_transport:version":"2"},"5219520":{"to":"Puurs","ref":"S32","from":"Roosendaal","name":"S32 Roosendaal - Puurs","type":"route","route":"train","network":"S","service":"regional","operator":"NMBS/SNCB","wikidata":"Q87069535","ref:ProRail":"2500","public_transport:version":"2"},"5223045":{"to":"Almere Centrum","ref":"2600","from":"Amsterdam Centraal","name":"2600: Amsterdam Centraal - Almere Centrum","type":"route","brand":"Intercity","route":"train","network":"Hoofdrailnet Nederland","service":"long_distance","website":"https://wiki.ovinnederland.nl/wiki/Serie_2600","interval":"30","operator":"Nederlandse Spoorwegen","ref:ProRail":"2600","network:short":"HRN","network:wikidata":"Q2337464","network:wikipedia":"nl:Hoofdrailnet","public_transport:version":"2"},"5224209":{"to":"Rotterdam Centraal","ref":"2800","url":"http://wiki.ovinnederland.nl/wiki/Serie_2800","from":"Utrecht Centraal","name":"2800: Utrecht Centraal - Rotterdam Centraal","type":"route","brand":"Intercity","route":"train","network":"Hoofdrailnet Nederland","service":"long_distance","interval":"30","operator":"Nederlandse Spoorwegen","ref:ProRail":"2800","network:short":"HRN","network:wikidata":"Q2337464","network:wikipedia":"nl:Hoofdrailnet","public_transport:version":"2"},"5224254":{"to":"Nijmegen","ref":"3000","url":"http://wiki.ovinnederland.nl/wiki/Serie_3000","from":"Den Helder","name":"3000: Den Helder - Nijmegen","type":"route","brand":"Intercity","route":"train","network":"Hoofdrailnet Nederland","service":"long_distance","interval":"30","operator":"Nederlandse Spoorwegen","ref:ProRail":"3000","network:short":"HRN","network:wikidata":"Q2337464","network:wikipedia":"nl:Hoofdrailnet","public_transport:version":"2"},"5224309":{"to":"Schiphol Airport","ref":"3100","url":"http://wiki.ovinnederland.nl/wiki/Serie_3100","from":"Nijmegen","name":"3100: Nijmegen - Schiphol Airport","type":"route","brand":"Intercity","route":"train","network":"Hoofdrailnet Nederland","service":"long_distance","interval":"30","operator":"Nederlandse Spoorwegen","ref:ProRail":"3100","network:short":"HRN","network:wikidata":"Q2337464","network:wikipedia":"nl:Hoofdrailnet","public_transport:version":"2"},"5224418":{"to":"Den Haag Centraal","ref":"3300","url":"http://wiki.ovinnederland.nl/wiki/Serie_3300","from":"Hoorn Kersenboogerd","name":"3300: Hoorn Kersenboogerd - Den Haag Centraal","note":"route doordeweeks overdag","type":"route","brand":"Sprinter","route":"train","network":"Hoofdrailnet Nederland","service":"regional","interval":"30","operator":"Nederlandse Spoorwegen","ref:ProRail":"3300","network:short":"HRN","interval:evening":"0","interval:weekend":"0","network:wikidata":"Q2337464","network:wikipedia":"nl:Hoofdrailnet","public_transport:version":"2"},"5253654":{"to":"Schiphol Airport","ref":"3500","url":"http://wiki.ovinnederland.nl/wiki/Serie_3500","from":"Venlo","name":"3500: Venlo - Schiphol Airport","type":"route","brand":"Intercity","route":"train","network":"Hoofdrailnet Nederland","service":"long_distance","interval":"30","operator":"Nederlandse Spoorwegen","ref:ProRail":"3500","network:short":"HRN","network:wikidata":"Q2337464","network:wikipedia":"nl:Hoofdrailnet","public_transport:version":"2"},"5253691":{"to":"Zwolle","ref":"3600","url":"http://wiki.ovinnederland.nl/wiki/Serie_3600","from":"Roosendaal","name":"3600: Roosendaal - Zwolle","type":"route","brand":"Intercity","route":"train","network":"Hoofdrailnet Nederland","service":"long_distance","interval":"30","operator":"Nederlandse Spoorwegen","ref:ProRail":"3600","network:short":"HRN","network:wikidata":"Q2337464","network:wikipedia":"nl:Hoofdrailnet","public_transport:version":"2"},"5253803":{"to":"Zwolle","ref":"RE20","url":"http://wiki.ovinnederland.nl/wiki/Serie_3800","from":"Emmen","name":"RE20: Emmen - Zwolle","type":"route","brand":"Blauwnet;RegioExpres","route":"train","network":"Vechtdallijnen","service":"long_distance","interval":"30","operator":"Arriva","wikidata":"Q115122310","ref:ProRail":"3800","brand:wikidata":"Q46994823","brand:wikipedia":"nl:Blauwnet","network:wikidata":"Q108742711","public_transport:version":"2"},"5254169":{"to":"Uitgeest","ref":"4000","url":"http://wiki.ovinnederland.nl/wiki/Serie_4000","from":"Rotterdam Centraal","name":"4000: Rotterdam Centraal - Uitgeest","type":"route","brand":"Sprinter","route":"train","network":"Hoofdrailnet Nederland","service":"regional","interval":"30","operator":"Nederlandse Spoorwegen","ref:ProRail":"4000","network:short":"HRN","network:wikidata":"Q2337464","network:wikipedia":"nl:Hoofdrailnet","public_transport:version":"2"},"5260441":{"to":"Hoofddorp","ref":"4300","from":"Almere Oostvaarders","name":"4300: Almere Oostvaarders - Hoofddorp","type":"route","brand":"Sprinter","route":"train","network":"Hoofdrailnet Nederland","service":"regional","website":"https://wiki.ovinnederland.nl/wiki/Serie_4300","interval":"30","operator":"Nederlandse Spoorwegen","ref:ProRail":"4300","network:short":"HRN","network:wikidata":"Q2337464","network:wikipedia":"nl:Hoofdrailnet","public_transport:version":"2"},"5262029":{"to":"Den Haag Centraal","ref":"4600","url":"http://wiki.ovinnederland.nl/wiki/Serie_4600","from":"Zwolle","name":"4600: Zwolle - Den Haag Centraal","note":"route 's avonds en in het weekend","type":"route","brand":"Sprinter","route":"train","network":"Hoofdrailnet Nederland","service":"regional","interval":"0","operator":"Nederlandse Spoorwegen","ref:ProRail":"4600","network:short":"HRN","interval:evening":"30","interval:weekend":"30","network:wikidata":"Q2337464","network:wikipedia":"nl:Hoofdrailnet","public_transport:version":"2"},"5265245":{"to":"Amsterdam Centraal","ref":"4800","url":"http://wiki.ovinnederland.nl/wiki/Serie_4800","from":"Hoorn","name":"4800: Hoorn - Amsterdam Centraal","type":"route","brand":"Sprinter","route":"train","network":"Hoofdrailnet Nederland","service":"regional","interval":"30","operator":"Nederlandse Spoorwegen","ref:ProRail":"4800","network:short":"HRN","network:wikidata":"Q2337464","network:wikipedia":"nl:Hoofdrailnet","public_transport:version":"2"},"5265264":{"to":"Utrecht Centraal","ref":"4900","url":"http://wiki.ovinnederland.nl/wiki/Serie_4900","from":"Almere Centrum","name":"4900: Almere Centrum - Utrecht Centraal","type":"route","brand":"Sprinter","route":"train","network":"Hoofdrailnet Nederland","service":"regional","interval":"30","operator":"Nederlandse Spoorwegen","ref:ProRail":"4900","network:short":"HRN","network:wikidata":"Q2337464","network:wikipedia":"nl:Hoofdrailnet","public_transport:version":"2"},"5268090":{"to":"Den Haag Centraal","ref":"5100","url":"http://wiki.ovinnederland.nl/wiki/Serie_5100","from":"Dordrecht","name":"5100: Dordrecht - Den Haag Centraal","type":"route","brand":"Sprinter","route":"train","network":"Hoofdrailnet Nederland","service":"regional","interval":"30","operator":"Nederlandse Spoorwegen","ref:ProRail":"5100","network:short":"HRN","network:wikidata":"Q2337464","network:wikipedia":"nl:Hoofdrailnet","public_transport:version":"2"},"5268111":{"to":"Den Haag Centraal","ref":"5000","url":"http://wiki.ovinnederland.nl/wiki/Serie_5000","from":"Dordrecht","name":"5000: Dordrecht - Den Haag Centraal","type":"route","brand":"Sprinter","route":"train","network":"Hoofdrailnet Nederland","service":"regional","interval":"30","operator":"Nederlandse Spoorwegen","ref:ProRail":"5000","network:short":"HRN","network:wikidata":"Q2337464","network:wikipedia":"nl:Hoofdrailnet","public_transport:version":"2"},"5274029":{"to":"Amsterdam Centraal","ref":"5400","url":"http://wiki.ovinnederland.nl/wiki/Serie_5400","from":"Zandvoort aan Zee","name":"5400: Zandvoort aan Zee - Amsterdam Centraal","type":"route","brand":"Sprinter","route":"train","network":"Hoofdrailnet Nederland","service":"regional","interval":"30","operator":"Nederlandse Spoorwegen","ref:ProRail":"5400","network:short":"HRN","network:wikidata":"Q2337464","network:wikipedia":"nl:Hoofdrailnet","public_transport:version":"2"},"5274042":{"to":"Utrecht Centraal","ref":"5500","url":"http://wiki.ovinnederland.nl/wiki/Serie_5500","from":"Baarn","name":"5500: Baarn - Utrecht Centraal","type":"route","brand":"Sprinter","route":"train","network":"Hoofdrailnet Nederland","service":"regional","interval":"30","operator":"Nederlandse Spoorwegen","ref:ProRail":"5500","network:short":"HRN","network:wikidata":"Q2337464","network:wikipedia":"nl:Hoofdrailnet","public_transport:version":"2"},"5274209":{"to":"Utrecht Centraal","ref":"5600","url":"http://wiki.ovinnederland.nl/wiki/Serie_5600","from":"Zwolle","name":"5600: Zwolle - Utrecht","type":"route","brand":"Sprinter","route":"train","network":"Hoofdrailnet Nederland","service":"regional","interval":"30","operator":"Nederlandse Spoorwegen","ref:ProRail":"5600","network:short":"HRN","network:wikidata":"Q2337464","network:wikipedia":"nl:Hoofdrailnet","public_transport:version":"2"},"5274335":{"to":"Hoofddorp","ref":"5700","url":"http://wiki.ovinnederland.nl/wiki/Serie_5700","from":"Utrecht Centraal","name":"5700: Utrecht Centraal - Hoofddorp","type":"route","brand":"Sprinter","route":"train","network":"Hoofdrailnet Nederland","service":"regional","interval":"30","operator":"Nederlandse Spoorwegen","ref:ProRail":"5700","network:short":"HRN","network:wikidata":"Q2337464","network:wikipedia":"nl:Hoofdrailnet","public_transport:version":"2"},"5277178":{"to":"Den Haag Centraal","ref":"6300","url":"http://wiki.ovinnederland.nl/wiki/Serie_6300","from":"Haarlem","name":"6300: Haarlem - Den Haag Centraal","type":"route","brand":"Sprinter","route":"train","network":"Hoofdrailnet Nederland","service":"regional","interval":"30","operator":"Nederlandse Spoorwegen","ref:ProRail":"6300","network:short":"HRN","network:wikidata":"Q2337464","network:wikipedia":"nl:Hoofdrailnet","public_transport:version":"2"},"5277241":{"to":"Tilburg Universiteit","ref":"6400","url":"http://wiki.ovinnederland.nl/wiki/Serie_6400","from":"Weert","name":"6400: Weert - Tilburg Universiteit","type":"route","brand":"Sprinter","route":"train","network":"Hoofdrailnet Nederland","service":"regional","interval":"30","operator":"Nederlandse Spoorwegen","ref:ProRail":"6400","network:short":"HRN","network:wikidata":"Q2337464","network:wikipedia":"nl:Hoofdrailnet","public_transport:version":"2"},"5280203":{"to":"Apeldoorn","ref":"7000","url":"http://wiki.ovinnederland.nl/wiki/Serie_7000","from":"Enschede","name":"7000: Enschede - Apeldoorn","type":"route","brand":"Sprinter","route":"train","name:de":"7000: Enscheid - Appeldorn","name:nl":"7000: Enschede - Apeldoorn","network":"Hoofdrailnet Nederland","service":"regional","interval":"30","operator":"Nederlandse Spoorwegen","ref:ProRail":"7000","network:short":"HRN","network:wikidata":"Q2337464","network:wikipedia":"nl:Hoofdrailnet","public_transport:version":"2"},"5280427":{"to":"Breukelen","ref":"7300","url":"http://wiki.ovinnederland.nl/wiki/Serie_7300","from":"Rhenen","name":"7300: Rhenen - Breukelen","type":"route","brand":"Sprinter","route":"train","network":"Hoofdrailnet Nederland","service":"regional","operator":"Nederlandse Spoorwegen","ref:ProRail":"7300","interval:peak":"30","network:short":"HRN","network:wikidata":"Q2337464","network:wikipedia":"nl:Hoofdrailnet","public_transport:version":"2"},"5280428":{"to":"Uitgeest","ref":"7400","url":"http://wiki.ovinnederland.nl/wiki/Serie_7400","from":"Driebergen-Zeist","name":"7400: Driebergen-Zeist - Uitgeest","type":"route","brand":"Sprinter","route":"train","network":"Hoofdrailnet Nederland","service":"regional","interval":"30","operator":"Nederlandse Spoorwegen","ref:ProRail":"7400","network:short":"HRN","network:wikidata":"Q2337464","network:wikipedia":"nl:Hoofdrailnet","public_transport:version":"2"},"5280467":{"to":"Ede-Wageningen","ref":"7500","url":"http://wiki.ovinnederland.nl/wiki/Serie_7500","from":"Arnhem Centraal","name":"7500: Arnhem Centraal - Ede-Wageningen","type":"route","brand":"Sprinter","route":"train","network":"Hoofdrailnet Nederland","service":"regional","interval":"30","operator":"Nederlandse Spoorwegen","ref:ProRail":"7500","network:short":"HRN","network:wikidata":"Q2337464","network:wikipedia":"nl:Hoofdrailnet","public_transport:version":"2"},"5280476":{"to":"Wijchen","ref":"7600","url":"http://wiki.ovinnederland.nl/wiki/Serie_7600","from":"Zutphen","name":"7600: Zutphen - Wijchen","type":"route","brand":"Sprinter","route":"train","network":"Hoofdrailnet Nederland","service":"regional","interval":"30","operator":"Nederlandse Spoorwegen","ref:ProRail":"7600","network:short":"HRN","network:wikidata":"Q2337464","network:wikipedia":"nl:Hoofdrailnet","public_transport:version":"2"},"5280504":{"to":"Enschede","ref":"RS23","url":"http://wiki.ovinnederland.nl/wiki/Serie_7900","from":"Zwolle","name":"RS23: Zwolle - Enschede","type":"route","brand":"Blauwnet","route":"train","network":"Zwolle - Kampen en Zwolle - Enschede","service":"regional","interval":"30","operator":"Keolis","wikidata":"Q115122315","ref:ProRail":"7900","brand:wikidata":"Q46994823","brand:wikipedia":"nl:Blauwnet","network:wikidata":"Q108742725","public_transport:version":"2"},"5280899":{"to":"Zwolle","ref":"RS20","url":"http://wiki.ovinnederland.nl/wiki/Serie_8000","from":"Emmen","name":"RS20: Emmen - Zwolle","type":"route","brand":"Blauwnet;RegioSprinter","route":"train","network":"Vechtdallijnen","service":"regional","interval":"30","operator":"Arriva","wikidata":"Q115122311","ref:ProRail":"8000","brand:wikidata":"Q46994823","brand:wikipedia":"nl:Blauwnet","network:wikidata":"Q108742711","public_transport:version":"2"},"5280924":{"to":"Almelo","ref":"RS21","from":"Hardenberg","name":"RS21: Hardenberg - Almelo","type":"route","brand":"Blauwnet;RegioSprinter","route":"train","network":"Vechtdallijnen","service":"regional","interval":"30","operator":"Arriva","wikidata":"Q115122312","ref:ProRail":"31000","brand:wikidata":"Q46994823","brand:wikipedia":"nl:Blauwnet","network:wikidata":"Q108742711","public_transport:version":"2"},"5280990":{"to":"Leiden Centraal","ref":"8800","url":"http://wiki.ovinnederland.nl/wiki/Serie_8800","from":"Utrecht Centraal","name":"8800: Utrecht Centraal - Leiden Centraal","type":"route","brand":"Intercity","route":"train","network":"Hoofdrailnet Nederland","service":"long_distance","interval":"30","operator":"Nederlandse Spoorwegen","ref:ProRail":"8800","network:short":"HRN","network:wikidata":"Q2337464","network:wikipedia":"nl:Hoofdrailnet","public_transport:version":"2"},"5281140":{"to":"Leeuwarden","ref":"9000","url":"http://wiki.ovinnederland.nl/wiki/Serie_9000","from":"Zwolle","name":"9000: Zwolle - Leeuwarden","type":"route","brand":"Sprinter","route":"train","network":"Hoofdrailnet Nederland","service":"regional","interval":"30","operator":"Nederlandse Spoorwegen","ref:ProRail":"9000","network:short":"HRN","network:wikidata":"Q2337464","network:wikipedia":"nl:Hoofdrailnet","public_transport:version":"2"},"5281294":{"to":"Zwolle","ref":"8100","url":"http://wiki.ovinnederland.nl/wiki/Serie_8100","from":"Groningen","name":"8100: Groningen - Zwolle","type":"route","brand":"Sprinter","route":"train","network":"Hoofdrailnet Nederland","service":"regional","interval":"30","operator":"Nederlandse Spoorwegen","wheelchair":"yes","ref:ProRail":"8100","network:short":"HRN","network:wikidata":"Q2337464","network:wikipedia":"nl:Hoofdrailnet","public_transport:version":"2"},"5281316":{"to":"Gouda","ref":"8600","url":"http://wiki.ovinnederland.nl/wiki/Serie_8600","from":"Alphen aan den Rijn","name":"8600: Alphen aan den Rijn - Gouda","type":"route","brand":"R-NET","route":"train","network":"Treindienst Gouda - Alphen aan den Rijn","service":"regional","interval":"30","operator":"Abellio","ref:ProRail":"8600","network:wikidata":"Q108718103","public_transport:version":"2"},"5281346":{"to":"Oss","ref":"4400","url":"http://wiki.ovinnederland.nl/wiki/Serie_4400","from":"Deurne","name":"4400: Deurne - Oss","type":"route","brand":"Sprinter","route":"train","network":"Hoofdrailnet Nederland","service":"regional","interval":"30","operator":"Nederlandse Spoorwegen","ref:ProRail":"4400","network:short":"HRN","network:wikidata":"Q2337464","network:wikipedia":"nl:Hoofdrailnet","public_transport:version":"2"},"5282351":{"to":"Schiphol Airport","ref":"11600","url":"http://wiki.ovinnederland.nl/wiki/Serie_11600","from":"Amersfoort Schothorst","name":"11600: Amersfoort Schothorst - Schiphol Airport","type":"route","brand":"Intercity","route":"train","network":"Hoofdrailnet Nederland","service":"long_distance","interval":"60","operator":"Nederlandse Spoorwegen","ref:ProRail":"11600","network:short":"HRN","network:wikidata":"Q2337464","network:wikipedia":"nl:Hoofdrailnet","public_transport:version":"2"},"5282372":{"to":"Den Haag Centraal","ref":"11700","url":"http://wiki.ovinnederland.nl/wiki/Serie_11700","from":"Amersfoort Schothorst","name":"11700: Amersfoort Schothorst - Den Haag Centraal","type":"route","brand":"Intercity","route":"train","network":"Hoofdrailnet Nederland","service":"long_distance","interval":"60","operator":"Nederlandse Spoorwegen","ref:ProRail":"11700","network:short":"HRN","network:wikidata":"Q2337464","network:wikipedia":"nl:Hoofdrailnet","public_transport:version":"2"},"5286196":{"to":"Antwerpen Centraal","ref":"IC-10","from":"Hamont","name":"IC-10 Hamont - Antwerpen","type":"route","route":"train","headway":"60","network":"IC","service":"long_distance","operator":"NMBS/SNCB","network:wikidata":"Q1665939","network:wikipedia":"fr:InterCity (Belgique)","public_transport:version":"2"},"5286343":{"to":"Rotterdam Centraal","ref":"600","url":"http://wiki.ovinnederland.nl/wiki/Serie_600","from":"Leeuwarden","name":"600: Leeuwarden - Rotterdam Centraal","type":"route","brand":"Intercity","route":"train","headway":"60","network":"Hoofdrailnet Nederland","service":"long_distance","interval":"60","operator":"Nederlandse Spoorwegen","ref:ProRail":"600","network:short":"HRN","network:wikidata":"Q2337464","network:wikipedia":"nl:Hoofdrailnet","public_transport:version":"2"},"5286432":{"to":"Den Haag Centraal","ref":"1800","from":"Leeuwarden","name":"1800: Leeuwarden - Den Haag Centraal","type":"route","brand":"Intercity","route":"train","network":"Hoofdrailnet Nederland","service":"long_distance","website":"https://wiki.ovinnederland.nl/wiki/Serie_1800","interval":"60","operator":"Nederlandse Spoorwegen","ref:ProRail":"1800","network:short":"HRN","network:wikidata":"Q2337464","network:wikipedia":"nl:Hoofdrailnet","public_transport:version":"2"},"5286546":{"to":"Dordrecht","ref":"6600","url":"http://wiki.ovinnederland.nl/wiki/Serie_6600","from":"Arnhem Centraal","name":"6600: Arnhem Centraal - Dordrecht","type":"route","brand":"Sprinter","route":"train","network":"Hoofdrailnet Nederland","service":"regional","interval":"30","operator":"Nederlandse Spoorwegen","ref:ProRail":"6600","network:short":"HRN","network:wikidata":"Q2337464","network:wikipedia":"nl:Hoofdrailnet","public_transport:version":"2"},"5289086":{"to":"Zwolle","ref":"RE20","url":"http://wiki.ovinnederland.nl/wiki/Serie_13800","from":"Coevorden","name":"RE20: Coevorden - Zwolle","type":"route","brand":"Blauwnet;RegioExpres","route":"train","network":"Vechtdallijnen","service":"long_distance","interval":"0","operator":"Arriva","wikidata":"Q115122310","ref:ProRail":"13800","interval:peak":"30","brand:wikidata":"Q46994823","brand:wikipedia":"nl:Blauwnet","network:wikidata":"Q108742711","public_transport:version":"2"},"5289397":{"to":"Den Haag Centraal","ref":"6900","url":"http://wiki.ovinnederland.nl/wiki/Serie_6900","from":"Tiel","name":"6900: Tiel - Den Haag Centraal","type":"route","brand":"Sprinter","route":"train","network":"Hoofdrailnet Nederland","service":"regional","interval":"30","operator":"Nederlandse Spoorwegen","ref:ProRail":"6900","network:short":"HRN","network:wikidata":"Q2337464","network:wikipedia":"nl:Hoofdrailnet","public_transport:version":"2"},"5290190":{"to":"Utrecht Centraal","ref":"14900","url":"http://wiki.ovinnederland.nl/wiki/Serie_14900","from":"Almere Centrum","name":"14900: Almere Centrum - Utrecht Centraal","type":"route","brand":"Sprinter","route":"train","network":"Hoofdrailnet Nederland","service":"regional","operator":"Nederlandse Spoorwegen","ref:ProRail":"14900","interval:peak":"30","network:short":"HRN","network:wikidata":"Q2337464","network:wikipedia":"nl:Hoofdrailnet","public_transport:version":"2"},"5290191":{"to":"Almere Centrum","ref":"14900","url":"http://wiki.ovinnederland.nl/wiki/Serie_14900","from":"Utrecht Centraal","name":"14900: Utrecht Centraal - Almere Centrum","type":"route","brand":"Sprinter","route":"train","network":"Hoofdrailnet Nederland","service":"regional","operator":"Nederlandse Spoorwegen","ref:ProRail":"14900","interval:peak":"30","network:short":"HRN","network:wikidata":"Q2337464","network:wikipedia":"nl:Hoofdrailnet","public_transport:version":"2"},"5290204":{"to":"Utrecht Centraal","ref":"8900","url":"http://wiki.ovinnederland.nl/wiki/Serie_8900","from":"Leiden Centraal","name":"8900: Leiden Centraal - Utrecht Centraal","note":"route tijdens de spits","type":"route","brand":"Sprinter","route":"train","network":"Hoofdrailnet Nederland","service":"regional","interval":"0","operator":"Nederlandse Spoorwegen","ref:ProRail":"8900","interval:peak":"30","network:short":"HRN","network:wikidata":"Q2337464","network:wikipedia":"nl:Hoofdrailnet","public_transport:version":"2"},"5290226":{"to":"Den Haag Centraal","ref":"6800","url":"http://wiki.ovinnederland.nl/wiki/Serie_6800","from":"Gouda Goverwelle","name":"6800: Gouda Goverwelle - Den Haag Centraal","type":"route","brand":"Sprinter","route":"train","network":"Hoofdrailnet Nederland","service":"regional","interval":"30","operator":"Nederlandse Spoorwegen","ref:ProRail":"6800","network:short":"HRN","network:wikidata":"Q2337464","network:wikipedia":"nl:Hoofdrailnet","public_transport:version":"2"},"5290308":{"to":"Zutphen","ref":"RS30","url":"http://wiki.ovinnederland.nl/wiki/Serie_17800","from":"Apeldoorn","name":"RS30: Apeldoorn - Zutphen","type":"route","brand":"RegioSprinter","route":"train","network":"Achterhoek-Rivierenland","service":"regional","interval":"30","operator":"Arriva","wikidata":"Q115122480","ref:ProRail":"17800","network:wikidata":"Q108716027","public_transport:version":"2"},"5290345":{"to":"Nijmegen","ref":"RS11","url":"http://wiki.ovinnederland.nl/wiki/Serie_32200","from":"Roermond","name":"RS11: Roermond - Nijmegen","type":"route","brand":"RegioSprinter","route":"train","network":"Limburg","service":"regional","interval":"30","operator":"Arriva","wikidata":"Q115122464","ref:ProRail":"32200","network:wikidata":"Q108713758","public_transport:version":"2"},"5290355":{"to":"Nijmegen","ref":"RS11","url":"http://wiki.ovinnederland.nl/wiki/Serie_32300","from":"Venray","name":"RS11: Venray - Nijmegen","type":"route","brand":"RegioSprinter","route":"train","network":"Limburg","service":"regional","interval":"30","operator":"Arriva","wikidata":"Q115122464","ref:ProRail":"32300","network:wikidata":"Q108713758","public_transport:version":"2"},"5290541":{"to":"Roermond","ref":"RS12","url":"http://wiki.ovinnederland.nl/wiki/Serie_32400","from":"Maastricht Randwyck","name":"RS12: Maastricht Randwyck - Roermond","type":"route","brand":"RegioSprinter","route":"train","network":"Limburg","service":"regional","interval":"30","operator":"Arriva","wikidata":"Q115122467","ref:ProRail":"32400","network:wikidata":"Q108713758","public_transport:version":"2"},"5291101":{"to":"Arnhem Centraal","ref":"RS33","url":"http://wiki.ovinnederland.nl/wiki/Treinserie_31100_(2019)","from":"Tiel","name":"RS33: Tiel - Arnhem Centraal","type":"route","brand":"RegioSprinter","route":"train","network":"Achterhoek-Rivierenland","service":"regional","interval":"60","operator":"Arriva","wikidata":"Q115122486","ref:ProRail":"31100","interval:peak":"30","network:wikidata":"Q108716027","public_transport:version":"2"},"5291137":{"to":"Winterswijk","ref":"RS31","url":"http://wiki.ovinnederland.nl/wiki/Serie_30800","from":"Zutphen","name":"RS31: Zutphen - Winterswijk","type":"route","brand":"RegioSprinter","route":"train","name:de":"RS31: Zütphen - Winterswick","network":"Achterhoek-Rivierenland","service":"regional","interval":"30","operator":"Arriva","wikidata":"Q115122482","ref:ProRail":"30800","network:wikidata":"Q108716027","public_transport:version":"2"},"5291187":{"to":"Arnhem Centraal","ref":"RS32","url":"http://wiki.ovinnederland.nl/wiki/Treinserie_30900_(2019)","from":"Winterswijk","name":"RS32: Winterswijk - Arnhem Centraal","type":"route","brand":"RegioSprinter","route":"train","name:de":"RS32: Winterswick - Arnheim Centraal","network":"Achterhoek-Rivierenland","service":"regional","interval":"30","operator":"Arriva","wikidata":"Q115122484","ref:ProRail":"30900","network:wikidata":"Q108716027","public_transport:version":"2"},"5291208":{"to":"Zutphen","ref":"RS24","url":"http://wiki.ovinnederland.nl/wiki/Serie_31200","from":"Oldenzaal","name":"RS24: Oldenzaal - Zutphen","type":"route","brand":"Blauwnet","route":"train","network":"Twente","service":"regional","interval":"30","operator":"Syntus Twente","wikidata":"Q115122317","ref:ProRail":"31200","brand:wikidata":"Q46994823","brand:wikipedia":"nl:Blauwnet","network:wikidata":"Q108741255","public_transport:version":"2"},"5300634":{"to":"Amersfoort Centraal","ref":"RS34","url":"http://wiki.ovinnederland.nl/wiki/Serie_31300","from":"Ede-Wageningen","name":"RS34: Ede-Wageningen - Amersfoort Centraal","type":"route","brand":"Valleilijn","route":"train","network":"Treindienst Amersfoort - Ede-Wageningen","service":"regional","interval":"30","operator":"Connexxion","wikidata":"Q115122490","ref:ProRail":"31300","brand:wikidata":"Q17486325","brand:wikipedia":"nl:Valleilijn","network:wikidata":"Q108742705","public_transport:version":"2"},"5300635":{"to":"Amersfoort Centraal","ref":"RS34","url":"http://wiki.ovinnederland.nl/wiki/Serie_31400","from":"Barneveld Zuid","name":"RS34: Barneveld Zuid - Amersfoort Centraal","type":"route","brand":"Valleilijn","route":"train","network":"Treindienst Amersfoort - Ede-Wageningen","service":"regional","interval":"30","operator":"Connexxion","wikidata":"Q115122490","ref:ProRail":"31400","brand:wikidata":"Q17486325","brand:wikipedia":"nl:Valleilijn","network:wikidata":"Q108742705","public_transport:version":"2"},"5300670":{"to":"Maastricht Randwyck","ref":"RS18","url":"http://wiki.ovinnederland.nl/wiki/Serie_32000","from":"Kerkrade Centrum","name":"RS18: Kerkrade Centrum - Maastricht Randwyck","type":"route","brand":"RegioSprinter","route":"train","network":"Limburg","service":"regional","interval":"30","operator":"Arriva","wikidata":"Q115122471","ref:ProRail":"32000","network:wikidata":"Q108713758","public_transport:version":"2"},"5301520":{"to":"Dordrecht","ref":"7200","url":"http://wiki.ovinnederland.nl/wiki/Serie_7200","from":"Geldermalsen","name":"7200: Geldermalsen - Dordrecht","type":"route","brand":"R-NET","route":"train","network":"Drechtsteden, Molenlanden en Gorinchem","service":"regional","interval":"30","operator":"Qbuzz","ref:ProRail":"7200","network:wikidata":"Q108716138","public_transport:version":"2"},"5301524":{"to":"Dordrecht","ref":"7100","url":"http://wiki.ovinnederland.nl/wiki/Serie_7100","from":"Gorinchem","name":"7100: Gorinchem - Dordrecht","type":"route","brand":"R-NET","route":"train","network":"Drechtsteden, Molenlanden en Gorinchem","service":"regional","interval":"30","operator":"Qbuzz","ref:ProRail":"7100","network:wikidata":"Q108716138","public_transport:version":"2"},"5301535":{"to":"Leeuwarden","ref":"RS3","url":"http://wiki.ovinnederland.nl/wiki/Serie_37000","from":"Sneek","name":"RS3: Sneek - Leeuwarden","note":"route buiten spits","type":"route","brand":"RegioSprinter","route":"train","network":"Regionaal spoorvervoer Fryslân en Groningen","service":"regional","interval":"60","operator":"Arriva","wikidata":"Q115122119","ref:ProRail":"37000","interval:peak":"0","network:wikidata":"Q108742239","public_transport:version":"2"},"5301551":{"to":"Stavoren","ref":"RS3","url":"http://wiki.ovinnederland.nl/wiki/Serie_37100","from":"Leeuwarden","name":"RS3: Leeuwarden - Stavoren","type":"route","brand":"RegioSprinter","route":"train","network":"Regionaal spoorvervoer Fryslân en Groningen","service":"regional","interval":"60","operator":"Arriva","wikidata":"Q115122119","ref:ProRail":"37100","interval:peak":"30","network:wikidata":"Q108742239","public_transport:version":"2"},"5301569":{"to":"Leeuwarden","ref":"RE1","url":"http://wiki.ovinnederland.nl/wiki/Serie_37300","via":"Buitenpost","from":"Groningen","name":"RE1: Groningen - Buitenpost - Leeuwarden","type":"route","brand":"RegioExpres","route":"train","network":"Regionaal spoorvervoer Fryslân en Groningen","service":"long_distance","interval":"60","operator":"Arriva","wikidata":"Q115121840","ref:ProRail":"37300","network:wikidata":"Q108742239","public_transport:version":"2"},"5301598":{"to":"Leeuwarden","ref":"RS1","url":"http://wiki.ovinnederland.nl/wiki/Serie_37400","from":"Groningen","name":"RS1: Groningen - Leeuwarden","type":"route","brand":"RegioSprinter","fixme":"Perron en eindspoor in Leeuwarden nog onduidelijk na herinrichting.","route":"train","network":"Regionaal spoorvervoer Fryslân en Groningen","service":"regional","interval":"30","operator":"Arriva","wikidata":"Q115122095","ref:ProRail":"37400","network:wikidata":"Q108742239","public_transport:version":"2"},"5301733":{"to":"Groningen","ref":"RS6","url":"http://wiki.ovinnederland.nl/wiki/Serie_37500","from":"Winschoten","name":"RS6: Winschoten - Groningen","type":"route","brand":"RegioSprinter","route":"train","network":"Regionaal spoorvervoer Fryslân en Groningen","service":"regional","interval":"60","operator":"Arriva","wikidata":"Q115122110","ref:ProRail":"37500","network:wikidata":"Q108742239","public_transport:version":"2"},"5301762":{"to":"Groningen","ref":"RS5","url":"http://wiki.ovinnederland.nl/wiki/Serie_37700","from":"Delfzijl","name":"RS5: Delfzijl - Groningen","type":"route","brand":"RegioSprinter","route":"train","network":"Regionaal spoorvervoer Fryslân en Groningen","service":"regional","interval":"30","operator":"Arriva","wikidata":"Q115122112","ref:ProRail":"37700","network:wikidata":"Q108742239","public_transport:version":"2"},"5301787":{"to":"Groningen","ref":"RS7","url":"http://wiki.ovinnederland.nl/wiki/Serie_37800","from":"Veendam","name":"RS7: Veendam - Groningen","type":"route","brand":"RegioSprinter","route":"train","network":"Regionaal spoorvervoer Fryslân en Groningen","service":"regional","interval":"30","operator":"Arriva","wikidata":"Q115122111","ref:ProRail":"37800","network:wikidata":"Q108742239","public_transport:version":"2"},"5305529":{"to":"Utrecht Centraal","ref":"28300","url":"http://wiki.ovinnederland.nl/wiki/Serie_28300","from":"Utrecht Maliebaan","name":"28300: Utrecht Maliebaan - Utrecht Centraal","type":"route","brand":"Sprinter","route":"train","network":"Hoofdrailnet Nederland","service":"regional","interval":"60","operator":"Nederlandse Spoorwegen","ref:ProRail":"28300","network:short":"HRN","network:wikidata":"Q2337464","network:wikipedia":"nl:Hoofdrailnet","public_transport:version":"2"},"5305660":{"to":"Utrecht Centraal","ref":"1400","via":"Amsterdam Centraal","from":"Rotterdam Centraal","name":"1400: Nachtnet (Gouda -) Rotterdam Centraal - Schiphol Airport - Amsterdam Centraal - Utrecht Centraal","type":"route","brand":"Intercity","route":"train","network":"Hoofdrailnet Nederland","service":"long_distance","website":"https://wiki.ovinnederland.nl/wiki/Serie_1400","interval":"60","operator":"Nederlandse Spoorwegen","ref:ProRail":"1400","network:short":"HRN","network:wikidata":"Q2337464","network:wikipedia":"nl:Hoofdrailnet","public_transport:version":"2"},"5707488":{"to":"Arnhem Centraal","ref":"RS32","url":"http://wiki.ovinnederland.nl/wiki/Treinserie_30700_(2019)","from":"Doetinchem","name":"RS32: Doetinchem - Arnhem Centraal","type":"route","brand":"Brengdirect","route":"train","network":"Arnhem-Nijmegen","service":"regional","interval":"30","operator":"Breng","ref:ProRail":"30700","network:wikidata":"Q108716067","public_transport:version":"2"},"6165864":{"to":"Eindhoven Centraal","ref":"21400","url":"http://wiki.ovinnederland.nl/wiki/Serie_21400","from":"Utrecht Centraal","name":"21400: Nachtnet Utrecht Centraal - Eindhoven Centraal","type":"route","brand":"Intercity","route":"train","network":"Hoofdrailnet Nederland","service":"night","operator":"Nederlandse Spoorwegen","ref:ProRail":"21400","network:short":"HRN","network:wikidata":"Q2337464","network:wikipedia":"nl:Hoofdrailnet","public_transport:version":"2"},"6781765":{"to":"Heerlen","ref":"RS15","url":"http://wiki.ovinnederland.nl/wiki/Serie_32500","from":"Sittard","name":"RS15: Sittard - Heerlen","type":"route","brand":"RegioSprinter","route":"train","network":"Limburg","service":"regional","interval":"30","operator":"Arriva","wikidata":"Q115122470","ref:ProRail":"32500","network:wikidata":"Q108713758","public_transport:version":"2"},"6781766":{"to":"Sittard","ref":"RS15","url":"http://wiki.ovinnederland.nl/wiki/Serie_32500","from":"Heerlen","name":"RS15: Heerlen - Sittard","type":"route","brand":"RegioSprinter","route":"train","network":"Limburg","service":"regional","interval":"30","operator":"Arriva","wikidata":"Q115122470","ref:ProRail":"32500","network:wikidata":"Q108713758","public_transport:version":"2"},"6794822":{"to":"Venlo","ref":"13500","url":"http://wiki.ovinnederland.nl/wiki/Serie_13500","from":"Eindhoven Centraal","name":"13500: Eindhoven Centraal - Venlo","type":"route","brand":"Intercity","route":"train","network":"Hoofdrailnet Nederland","service":"long_distance","operator":"Nederlandse Spoorwegen","ref:ProRail":"13500","network:short":"HRN","interval:night":"30","network:wikidata":"Q2337464","network:wikipedia":"nl:Hoofdrailnet","public_transport:version":"2"},"6794823":{"to":"Eindhoven Centraal","ref":"13500","url":"http://wiki.ovinnederland.nl/wiki/Serie_13500","from":"Venlo","name":"13500: Venlo - Eindhoven Centraal","type":"route","brand":"Intercity","route":"train","network":"Hoofdrailnet Nederland","service":"long_distance","operator":"Nederlandse Spoorwegen","ref:ProRail":"13500","network:short":"HRN","interval:night":"30","network:wikidata":"Q2337464","network:wikipedia":"nl:Hoofdrailnet","public_transport:version":"2"},"6795124":{"to":"Amsterdam Centraal","ref":"4500","url":"http://wiki.ovinnederland.nl/wiki/Serie_4500","from":"Enkhuizen","name":"4500: Enkhuizen - Amsterdam Centraal","type":"route","brand":"Intercity","route":"train","network":"Hoofdrailnet Nederland","service":"long_distance","operator":"Nederlandse Spoorwegen","ref:ProRail":"4500","interval:peak":"30","network:short":"HRN","network:wikidata":"Q2337464","network:wikipedia":"nl:Hoofdrailnet","public_transport:version":"2"},"6795125":{"to":"Enkhuizen","ref":"4500","url":"http://wiki.ovinnederland.nl/wiki/Serie_4500","from":"Amsterdam Centraal","name":"4500: Amsterdam Centraal - Enkhuizen","type":"route","brand":"Intercity","route":"train","network":"Hoofdrailnet Nederland","service":"long_distance","operator":"Nederlandse Spoorwegen","ref:ProRail":"4500","interval:peak":"30","network:short":"HRN","network:wikidata":"Q2337464","network:wikipedia":"nl:Hoofdrailnet","public_transport:version":"2"},"6795231":{"to":"Dordrecht","ref":"5900","url":"http://wiki.ovinnederland.nl/wiki/Serie_5900","from":"Roosendaal","name":"5900: Roosendaal - Dordrecht","type":"route","brand":"Sprinter","route":"train","network":"Hoofdrailnet Nederland","service":"regional","interval":"30","operator":"Nederlandse Spoorwegen","ref:ProRail":"5900","network:short":"HRN","network:wikidata":"Q2337464","network:wikipedia":"nl:Hoofdrailnet","public_transport:version":"2"},"6795232":{"to":"Roosendaal","ref":"5900","url":"http://wiki.ovinnederland.nl/wiki/Serie_5900","from":"Dordrecht","name":"5900: Dordrecht - Roosendaal","type":"route","brand":"Sprinter","route":"train","network":"Hoofdrailnet Nederland","service":"regional","interval":"30","operator":"Nederlandse Spoorwegen","ref:ProRail":"5900","network:short":"HRN","network:wikidata":"Q2337464","network:wikipedia":"nl:Hoofdrailnet","public_transport:version":"2"},"6797804":{"to":"Amsterdam Centraal","ref":"5800","url":"http://wiki.ovinnederland.nl/wiki/Serie_5800","from":"Amersfoort Vathorst","name":"5800: Amersfoort Vathorst - Amsterdam Centraal","type":"route","brand":"Sprinter","route":"train","network":"Hoofdrailnet Nederland","service":"regional","interval":"30","operator":"Nederlandse Spoorwegen","ref:ProRail":"5800","network:short":"HRN","network:wikidata":"Q2337464","network:wikipedia":"nl:Hoofdrailnet","public_transport:version":"2"},"6844973":{"to":"Leiden Centraal","ref":"24400","url":"http://wiki.ovinnederland.nl/wiki/Serie_24400","from":"Amsterdam Bijlmer ArenA","name":"24400: Nachtnet Amsterdam Bijlmer ArenA - Leiden Centraal","type":"route","brand":"Intercity","route":"train","network":"Hoofdrailnet Nederland","service":"night","operator":"Nederlandse Spoorwegen","ref:ProRail":"24400","network:short":"HRN","interval:night":"60","network:wikidata":"Q2337464","network:wikipedia":"nl:Hoofdrailnet","public_transport:version":"2"},"6844974":{"to":"Amsterdam Bijlmer ArenA","ref":"24400","url":"http://wiki.ovinnederland.nl/wiki/Serie_24400","from":"Leiden Centraal","name":"24400: Nachtnet Leiden Centraal - Amsterdam Bijlmer ArenA","type":"route","brand":"Intercity","route":"train","network":"Hoofdrailnet Nederland","service":"night","operator":"Nederlandse Spoorwegen","ref:ProRail":"24400","network:short":"HRN","interval:night":"60","network:wikidata":"Q2337464","network:wikipedia":"nl:Hoofdrailnet","public_transport:version":"2"},"6845023":{"to":"Haarlem","ref":"22200","url":"http://wiki.ovinnederland.nl/wiki/Serie_22200","from":"Amsterdam Centraal","name":"22200: Nachtnet Amsterdam Centraal - Haarlem","note":"Alleen in de nacht van vrijdag op zaterdag","type":"route","brand":"Intercity","route":"train","network":"Hoofdrailnet Nederland","service":"night","operator":"Nederlandse Spoorwegen","ref:ProRail":"22200","network:short":"HRN","network:wikidata":"Q2337464","network:wikipedia":"nl:Hoofdrailnet","public_transport:version":"2"},"6845025":{"to":"Amsterdam Centraal","ref":"22200","url":"http://wiki.ovinnederland.nl/wiki/Serie_22200","from":"Haarlem","name":"22200: Nachtnet Haarlem - Amsterdam Centraal","note":"Alleen in de nacht van vrijdag op zaterdag","type":"route","brand":"Intercity","route":"train","network":"Hoofdrailnet Nederland","service":"night","operator":"Nederlandse Spoorwegen","ref:ProRail":"22200","network:short":"HRN","network:wikidata":"Q2337464","network:wikipedia":"nl:Hoofdrailnet","public_transport:version":"2"},"6845620":{"to":"Gouda","ref":"1400","via":"Amsterdam Centraal","from":"Utrecht Centraal","name":"1400: Nachtnet Utrecht Centraal - Amsterdam Centraal - Schiphol Airport - Gouda","note":"In de nacht van woensdag op donderdag en donderdag op vrijdag, gekoppeld aan serie 11400","type":"route","brand":"Intercity","route":"train","headway":"60","network":"Hoofdrailnet Nederland","service":"long_distance","website":"https://wiki.ovinnederland.nl/wiki/Serie_1400","operator":"Nederlandse Spoorwegen","ref:ProRail":"1400","network:short":"HRN","network:wikidata":"Q2337464","network:wikipedia":"nl:Hoofdrailnet","public_transport:version":"2"},"6845621":{"to":"Utrecht Centraal","ref":"1400","via":"Amsterdam Centraal","from":"Gouda","name":"1400: Nachtnet Gouda - Den Haag Hollands Spoor - Schiphol Airport - Amsterdam Centraal - Utrecht Centraal","note":"In de nacht van woensdag op donderdag en donderdag op vrijdag, gekoppeld aan serie 11400","type":"route","brand":"Intercity","route":"train","network":"Hoofdrailnet Nederland","service":"long_distance","website":"https://wiki.ovinnederland.nl/wiki/Serie_1400","operator":"Nederlandse Spoorwegen","ref:ProRail":"1400","network:short":"HRN","network:wikidata":"Q2337464","network:wikipedia":"nl:Hoofdrailnet","public_transport:version":"2"},"6845660":{"to":"Rotterdam Centraal","ref":"11400","url":"http://wiki.ovinnederland.nl/wiki/Serie_11400","from":"Gouda","name":"11400: Nachtnet Gouda - Rotterdam Centraal","note":"Rijdt in de nacht van woensdag op donderdag en donderdag op vrijdag. Gekoppeld aan serie 1400","type":"route","brand":"Intercity","route":"train","network":"Hoofdrailnet Nederland","service":"night","interval":"60","operator":"Nederlandse Spoorwegen","ref:ProRail":"11400","network:short":"HRN","network:wikidata":"Q2337464","network:wikipedia":"nl:Hoofdrailnet","public_transport:version":"2"},"7192755":{"to":"Elst","ref":"RS33","url":"http://wiki.ovinnederland.nl/wiki/Serie_31100","from":"Tiel","name":"RS33: Tiel - Elst","type":"route","brand":"RegioSprinter","route":"train","network":"Achterhoek-Rivierenland","service":"regional","interval":"60","operator":"Arriva","wikidata":"Q115122486","ref:ProRail":"31100","network:wikidata":"Q108716027","public_transport:version":"2"},"7192756":{"to":"Tiel","ref":"RS33","url":"http://wiki.ovinnederland.nl/wiki/Serie_31100","from":"Elst","name":"RS33: Elst - Tiel","type":"route","brand":"RegioSprinter","route":"train","network":"Achterhoek-Rivierenland","service":"regional","interval":"60","operator":"Arriva","wikidata":"Q115122486","ref:ProRail":"31100","network:wikidata":"Q108716027","public_transport:version":"2"},"7831439":{"to":"Maastricht","ref":"2900","url":"http://wiki.ovinnederland.nl/wiki/Serie_800","from":"Enkhuizen","name":"2900: Enkhuizen - Maastricht","type":"route","brand":"Intercity","route":"train","network":"Hoofdrailnet Nederland","service":"long_distance","interval":"30","operator":"Nederlandse Spoorwegen","ref:ProRail":"2900","network:short":"HRN","network:wikidata":"Q2337464","network:wikipedia":"nl:Hoofdrailnet","public_transport:version":"2"},"7831440":{"to":"Enkhuizen","ref":"2900","url":"http://wiki.ovinnederland.nl/wiki/Serie_800","from":"Maastricht","name":"2900: Maastricht - Enkhuizen","type":"route","brand":"Intercity","route":"train","network":"Hoofdrailnet Nederland","service":"long_distance","interval":"30","operator":"Nederlandse Spoorwegen","ref:ProRail":"2900","network:short":"HRN","network:wikidata":"Q2337464","network:wikipedia":"nl:Hoofdrailnet","public_transport:version":"2"},"7835609":{"to":"Heerlen","ref":"3900","url":"http://wiki.ovinnederland.nl/wiki/Serie_3900","from":"Enkhuizen","name":"3900: Enkhuizen - Heerlen","type":"route","brand":"Intercity","route":"train","network":"Hoofdrailnet Nederland","service":"long_distance","interval":"30","operator":"Nederlandse Spoorwegen","ref:ProRail":"3900","network:short":"HRN","network:wikidata":"Q2337464","network:wikipedia":"nl:Hoofdrailnet","public_transport:version":"2"},"7835610":{"to":"Enkhuizen","ref":"3900","url":"http://wiki.ovinnederland.nl/wiki/Serie_3900","from":"Heerlen","name":"3900: Heerlen - Enkhuizen","type":"route","brand":"Intercity","route":"train","network":"Hoofdrailnet Nederland","service":"long_distance","interval":"30","operator":"Nederlandse Spoorwegen","ref:ProRail":"3900","network:short":"HRN","network:wikidata":"Q2337464","network:wikipedia":"nl:Hoofdrailnet","public_transport:version":"2"},"7843284":{"to":"Enschede","ref":"IC23","url":"http://wiki.ovinnederland.nl/wiki/Serie_17900","from":"Zwolle","name":"IC23: Zwolle - Enschede","type":"route","brand":"Blauwnet","route":"train","network":"Zwolle - Kampen en Zwolle - Enschede","service":"long_distance","interval":"60","operator":"Keolis","wikidata":"Q115122314","ref:ProRail":"17900","brand:wikidata":"Q46994823","brand:wikipedia":"nl:Blauwnet","network:wikidata":"Q108742725","public_transport:version":"2"},"7843285":{"to":"Zwolle","ref":"IC23","url":"http://wiki.ovinnederland.nl/wiki/Serie_17900","from":"Enschede","name":"IC23: Enschede - Zwolle","type":"route","brand":"Blauwnet","route":"train","network":"Zwolle - Kampen en Zwolle - Enschede","service":"long_distance","interval":"60","operator":"Keolis","wikidata":"Q115122314","ref:ProRail":"17900","brand:wikidata":"Q46994823","brand:wikipedia":"nl:Blauwnet","network:wikidata":"Q108742725","public_transport:version":"2"},"7843400":{"to":"Alphen aan den Rijn","ref":"8700","url":"http://wiki.ovinnederland.nl/wiki/Serie_8700","from":"Gouda","name":"8700: Gouda - Alphen aan den Rijn","type":"route","brand":"R-NET","route":"train","network":"Treindienst Gouda - Alphen aan den Rijn","service":"regional","interval":"30","operator":"Abellio","ref:ProRail":"8700","network:wikidata":"Q108718103","public_transport:version":"2"},"7843401":{"to":"Gouda","ref":"8700","url":"http://wiki.ovinnederland.nl/wiki/Serie_8700","from":"Alphen aan den Rijn","name":"8700: Alphen aan den Rijn - Gouda","type":"route","brand":"R-NET","route":"train","network":"Treindienst Gouda - Alphen aan den Rijn","service":"regional","interval":"30","operator":"Abellio","ref:ProRail":"8700","network:wikidata":"Q108718103","public_transport:version":"2"},"7843642":{"to":"Gouda Goverwelle","ref":"1400","url":"http://wiki.ovinnederland.nl/wiki/Serie_14000","from":"Den Haag Centraal","name":"1400: Nachtnet Den Haag Centraal - Gouda","type":"route","brand":"Intercity","route":"train","network":"Hoofdrailnet Nederland","service":"long_distance","operator":"Nederlandse Spoorwegen","ref:ProRail":"1400","network:short":"HRN","network:wikidata":"Q2337464","network:wikipedia":"nl:Hoofdrailnet","public_transport:version":"2"},"7844176":{"to":"Rotterdam Centraal","ref":"21400","url":"http://wiki.ovinnederland.nl/wiki/Serie_21400","from":"Eindhoven Centraal","name":"21400: Nachtnet Eindhoven Centraal - Rotterdam Centraal","type":"route","brand":"Intercity","route":"train","network":"Hoofdrailnet Nederland","service":"night","operator":"Nederlandse Spoorwegen","ref:ProRail":"21400","network:short":"HRN","interval:night":"60","network:wikidata":"Q2337464","network:wikipedia":"nl:Hoofdrailnet","public_transport:version":"2"},"7844177":{"to":"Tilburg","ref":"21400","url":"http://wiki.ovinnederland.nl/wiki/Serie_21400","from":"'s-Hertogenbosch","name":"21400: 's-Hertogenbosch - Tilburg","type":"route","brand":"Intercity","route":"train","network":"Hoofdrailnet Nederland","service":"night","operator":"Nederlandse Spoorwegen","ref:ProRail":"21400","network:short":"HRN","network:wikidata":"Q2337464","network:wikipedia":"nl:Hoofdrailnet","public_transport:version":"2"},"7844178":{"to":"'s-Hertogenbosch","ref":"21400","url":"http://wiki.ovinnederland.nl/wiki/Serie_21400","from":"Tilburg","name":"21400: Nachtnet Tilburg - 's-Hertogenbosch","type":"route","brand":"Intercity","route":"train","network":"Hoofdrailnet Nederland","service":"night","operator":"Nederlandse Spoorwegen","ref:ProRail":"21400","network:short":"HRN","network:wikidata":"Q2337464","network:wikipedia":"nl:Hoofdrailnet","public_transport:version":"2"},"7844320":{"to":"Amersfoort Vathorst","ref":"5800","url":"http://wiki.ovinnederland.nl/wiki/Serie_5800","from":"Amsterdam Centraal","name":"5800: Amsterdam Centraal - Amersfoort Vathorst","type":"route","brand":"Sprinter","route":"train","network":"Hoofdrailnet Nederland","service":"regional","interval":"30","operator":"Nederlandse Spoorwegen","ref:ProRail":"5800","network:short":"HRN","network:wikidata":"Q2337464","network:wikipedia":"nl:Hoofdrailnet","public_transport:version":"2"},"7845730":{"to":"Utrecht Centraal","ref":"22400","url":"http://wiki.ovinnederland.nl/wiki/Serie_22400","from":"Amersfoort Centraal","name":"22400: Nachtnet Amersfoort Centraal - Utrecht Centraal","type":"route","brand":"Intercity","route":"train","network":"Hoofdrailnet Nederland","service":"night","operator":"Nederlandse Spoorwegen","ref:ProRail":"22400","network:short":"HRN","network:wikidata":"Q2337464","network:wikipedia":"nl:Hoofdrailnet","public_transport:version":"2"},"7845751":{"to":"Utrecht Centraal","ref":"23400","url":"http://wiki.ovinnederland.nl/wiki/Serie_23400","from":"Nijmegen","name":"23400: Nachtnet Nijmegen - Utrecht Centraal","type":"route","brand":"Intercity","route":"train","network":"Hoofdrailnet Nederland","service":"night","operator":"Nederlandse Spoorwegen","ref:ProRail":"23400","network:short":"HRN","interval:night":"60","network:wikidata":"Q2337464","network:wikipedia":"nl:Hoofdrailnet","public_transport:version":"2"},"7845752":{"to":"Nijmegen","ref":"23400","url":"http://wiki.ovinnederland.nl/wiki/Serie_23400","from":"Utrecht Centraal","name":"23400: Nachtnet Utrecht Centraal - Nijmegen","type":"route","brand":"Intercity","route":"train","network":"Hoofdrailnet Nederland","service":"night","operator":"Nederlandse Spoorwegen","ref:ProRail":"23400","network:short":"HRN","network:wikidata":"Q2337464","network:wikipedia":"nl:Hoofdrailnet","public_transport:version":"2"},"11188122":{"to":"Simpelveld","ref":"ZLSM","from":"Schin op Geul","name":"Trein ZLSM: Schin op Geul - Simpelveld","type":"route","route":"train","usage":"tourism","network":"Miljoenenlijn","service":"tourist","website":"https://www.miljoenenlijn.nl/","operator":"Zuid-Limburgse Stoomtrein Maatschappij","public_transport:version":"2"},"11188130":{"to":"Schin op Geul","ref":"ZLSM","from":"Simpelveld","name":"Trein ZLSM: Simpelveld - Schin op Geul","type":"route","route":"train","usage":"tourism","network":"Miljoenenlijn","service":"tourist","website":"https://www.miljoenenlijn.nl/","operator":"Zuid-Limburgse Stoomtrein Maatschappij","public_transport:version":"2"},"11188153":{"to":"Simpelveld","ref":"ZLSM","from":"Kerkrade ZLSM","name":"Trein ZLSM: Kerkrade ZLSM - Simpelveld","type":"route","route":"train","usage":"tourism","network":"Miljoenenlijn","service":"tourist","website":"https://www.miljoenenlijn.nl/","operator":"Zuid-Limburgse Stoomtrein Maatschappij","public_transport:version":"2"},"11188212":{"to":"Dieren","ref":"VSM","from":"Apeldoorn","name":"VSM: Apeldoorn - Dieren","type":"route","route":"train","network":"VSM","service":"tourist","website":"https://www.stoomtrein.org/","operator":"Veluwsche Stoomtrein Maatschappij","public_transport:version":"2"},"11188213":{"to":"Apeldoorn","ref":"VSM","from":"Dieren","name":"VSM: Dieren - Apeldoorn","type":"route","route":"train","network":"VSM","service":"tourist","website":"https://www.stoomtrein.org/","operator":"Veluwsche Stoomtrein Maatschappij","public_transport:version":"2"},"11188253":{"to":"Boekelo","ref":"MBS","from":"Haaksbergen","name":"MBS: Haaksbergen - Boekelo","type":"route","route":"train","service":"tourist","website":"https://www.museumbuurtspoorweg.nl/","operator":"Museum Buurtspoorweg","public_transport:version":"2"},"11188254":{"to":"Haaksbergen","ref":"MBS","from":"Boekelo","name":"MBS: Boekelo - Haaksbergen","type":"route","route":"train","service":"tourist","website":"https://www.museumbuurtspoorweg.nl/","operator":"Museum Buurtspoorweg","public_transport:version":"2"},"11188277":{"to":"Stadskanaal","ref":"STAR","from":"Nieuw Buinen","name":"STAR: Nieuw Buinen - Stadskanaal","type":"route","route":"train","service":"tourist","website":"https://www.stadskanaalrail.nl/","operator":"Stichting Stadskanaal Rail","public_transport:version":"2"},"11188278":{"to":"Nieuw Buinen","ref":"STAR","from":"Stadskanaal","name":"STAR: Stadskanaal - Nieuw Buinen","type":"route","route":"train","service":"tourist","website":"https://www.stadskanaalrail.nl/","operator":"Stichting Stadskanaal Rail","public_transport:version":"2"},"11188293":{"to":"Stadskanaal","ref":"STAR","from":"Veendam","name":"STAR: Veendam - Stadskanaal","type":"route","route":"train","service":"tourist","website":"https://www.stadskanaalrail.nl/","operator":"Stichting Stadskanaal Rail","public_transport:version":"2"},"11188294":{"to":"Veendam","ref":"STAR","from":"Stadskanaal","name":"STAR: Stadskanaal - Veendam","type":"route","route":"train","service":"tourist","website":"https://www.stadskanaalrail.nl/","operator":"Stichting Stadskanaal Rail","public_transport:version":"2"},"11192002":{"to":"Goes","ref":"SGB","from":"Hoedekenskerke","name":"SGB: Hoedekenskerke - Goes","type":"route","route":"train","network":"Stoomtrein Goes - Borsele","service":"tourist","website":"https://www.destoomtrein.nl/","operator":"Stoomtrein Goes - Borsele","description":"historische stoomtrein","public_transport:version":"2"},"11192003":{"to":"Hoedekenskerke","ref":"SGB","from":"Goes","name":"SGB: Goes - Hoedekenskerke","type":"route","route":"train","network":"Stoomtrein Goes - Borsele","service":"tourist","website":"https://www.destoomtrein.nl/","operator":"Stoomtrein Goes - Borsele","description":"historische stoomtrein","public_transport:version":"2"},"11192004":{"to":"Goes","ref":"SGB","from":"Baarland","name":"SGB: Baarland - Goes","type":"route","route":"train","network":"Stoomtrein Goes - Borsele","service":"tourist","website":"https://www.destoomtrein.nl/","operator":"Stoomtrein Goes - Borsele","description":"historische motorwagen","public_transport:version":"2"},"11192005":{"to":"Baarland","ref":"SGB","from":"Goes","name":"SGB: Goes - Baarland","type":"route","route":"train","network":"Stoomtrein Goes - Borsele","service":"tourist","website":"https://www.destoomtrein.nl/","operator":"Stoomtrein Goes - Borsele","description":"historische motorwagen","public_transport:version":"2"},"11193688":{"to":"Venlo","ref":"3700","from":"Dordrecht","name":"3700: Dordrecht - Venlo","note":"avond en zondag","type":"route","brand":"Intercity","route":"train","network":"Hoofdrailnet Nederland","service":"long_distance","website":"https://wiki.ovinnederland.nl/wiki/Serie_3700","interval":"30","operator":"Nederlandse Spoorwegen","ref:ProRail":"3700","network:short":"HRN","network:wikidata":"Q2337464","network:wikipedia":"nl:Hoofdrailnet","public_transport:version":"2"},"11193708":{"to":"Dordrecht","ref":"3700","from":"Venlo","name":"3700: Venlo - Dordrecht","note":"avond en zondag","type":"route","brand":"Intercity","route":"train","network":"Hoofdrailnet Nederland","service":"long_distance","website":"https://wiki.ovinnederland.nl/wiki/Serie_3700","interval":"30","operator":"Nederlandse Spoorwegen","ref:ProRail":"3700","network:short":"HRN","network:wikidata":"Q2337464","network:wikipedia":"nl:Hoofdrailnet","public_transport:version":"2"},"11195089":{"to":"Apeldoorn","ref":"RE31","url":"http://wiki.ovinnederland.nl/wiki/Serie_30400","from":"Zutphen","name":"RE31: Zutphen - Apeldoorn","type":"route","brand":"RegioExpres","route":"train","network":"Achterhoek-Rivierenland","service":"long_distance","interval":"60","operator":"Arriva","wikidata":"Q115122476","ref:ProRail":"30400","network:wikidata":"Q108716027","public_transport:version":"2"},"11195090":{"to":"Winterswijk","ref":"RE31","url":"http://wiki.ovinnederland.nl/wiki/Serie_30400","from":"Apeldoorn","name":"RE31: Apeldoorn - Winterswijk","type":"route","brand":"RegioExpres","route":"train","network":"Achterhoek-Rivierenland","service":"long_distance","interval":"60","operator":"Arriva","wikidata":"Q115122476","ref:ProRail":"30400","network:wikidata":"Q108716027","public_transport:version":"2"},"12012892":{"to":"Groningen","ref":"RE6","url":"https://wiki.ovinnederland.nl/wiki/Serie_37900","from":"Winschoten","name":"RE6: Winschoten - Groningen","type":"route","brand":"RegioExpres","route":"train","network":"Regionaal spoorvervoer Fryslân en Groningen","service":"regional","operator":"Arriva","wikidata":"Q115121899","ref:ProRail":"37900","network:wikidata":"Q108742239","public_transport:version":"2"},"12012893":{"to":"Bad Nieuweschans","ref":"RE6","url":"https://wiki.ovinnederland.nl/wiki/Serie_37900","from":"Groningen","name":"RE6: Groningen - Bad Nieuweschans","note":"één ochtendrit door naar Bad Nieuweschans","type":"route","brand":"RegioExpres","route":"train","network":"Regionaal spoorvervoer Fryslân en Groningen","service":"regional","interval":"daily","operator":"Arriva","wikidata":"Q115121899","ref:ProRail":"37900","network:wikidata":"Q108742239","public_transport:version":"2"},"12013889":{"to":"Leeuwarden","ref":"RE1","url":"http://wiki.ovinnederland.nl/wiki/Serie_37300","via":"Zuidhorn","from":"Groningen","name":"RE1: Groningen - Zuidhorn - Leeuwarden","type":"route","brand":"RegioExpres","route":"train","network":"Regionaal spoorvervoer Fryslân en Groningen","service":"long_distance","interval":"60","operator":"Arriva","wikidata":"Q115121840","ref:ProRail":"37300","network:wikidata":"Q108742239","public_transport:version":"2"},"12013890":{"to":"Groningen","ref":"RE1","url":"http://wiki.ovinnederland.nl/wiki/Serie_37300","via":"Zuidhorn","from":"Leeuwarden","name":"RE1: Leeuwarden - Zuidhorn - Groningen","type":"route","brand":"RegioExpres","route":"train","network":"Regionaal spoorvervoer Fryslân en Groningen","service":"long_distance","interval":"60","operator":"Arriva","wikidata":"Q115121840","ref:ProRail":"37300","network:wikidata":"Q108742239","public_transport:version":"2"},"12013985":{"to":"Leeuwarden","ref":"RE3","url":"http://wiki.ovinnederland.nl/wiki/Serie_38000","from":"Sneek","name":"RE3: Sneek - Leeuwarden","note":"spitstrein","type":"route","brand":"RegioExpres","route":"train","network":"Regionaal spoorvervoer Fryslân en Groningen","service":"regional","interval":"0","operator":"Arriva","wikidata":"Q115121896","ref:ProRail":"38000","interval:peak":"30","network:wikidata":"Q108742239","public_transport:version":"2"},"12013986":{"to":"Sneek","ref":"RE3","url":"http://wiki.ovinnederland.nl/wiki/Serie_38000","from":"Leeuwarden","name":"RE3: Leeuwarden - Sneek","note":"spitstrein","type":"route","brand":"RegioExpres","route":"train","network":"Regionaal spoorvervoer Fryslân en Groningen","service":"regional","interval":"0","operator":"Arriva","wikidata":"Q115121896","ref:ProRail":"38000","interval:peak":"30","network:wikidata":"Q108742239","public_transport:version":"2"},"12109814":{"to":"London St Pancras","ref":"ES","via":"Rotterdam Centraal","from":"Amsterdam Centraal","name":"Eurostar: Amsterdam -> London","type":"route","route":"train","to:de":"London Sankt Pancras","to:fr":"Londres Saint Pancras","to:nl":"Londen Sint Pancras","colour":"#011633","dining":"yes","bicycle":"yes","from:de":"Amsterdam Hbf.","from:fr":"Amsterdam Centre","from:nl":"Amsterdam Centraal","name:de":"Eurostar: Amsterdam -> London","name:fr":"Eurostar: Amsterdam -> Londres","name:nl":"Eurostar: Amsterdam -> Londen","network":"Eurostar","service":"international","by_night":"no","interval":"09:00:00","operator":"Eurostar International Ltd","highspeed":"yes","wheelchair":"limited","ref:ProRail":"9100","reservation":"only","network:wikidata":"Q156013","network:wikipedia":"fr:Eurostar","public_transport:version":"2"},"13060594":{"to":"Woerden","ref":"6000","url":"http://wiki.ovinnederland.nl/wiki/Serie_6000","from":"'s-Hertogenbosch","name":"6000: 's-Hertogenbosch - Utrecht Centraal","note":"maandag t/m vrijdag vanaf 20:00, zaterdag en zondag gehele dag","type":"route","brand":"Sprinter","route":"train","network":"Hoofdrailnet Nederland","service":"regional","interval":"0","operator":"Nederlandse Spoorwegen","ref:ProRail":"6000","network:short":"HRN","interval:evening":"30","interval:weekend":"30","network:wikidata":"Q2337464","network:wikipedia":"nl:Hoofdrailnet","public_transport:version":"2"},"13060595":{"to":"'s-Hertogenbosch","ref":"6000","url":"http://wiki.ovinnederland.nl/wiki/Serie_6000","from":"Woerden","name":"6000: Utrecht Centraal - 's-Hertogenbosch","note":"maandag t/m vrijdag vanaf 20:00, zaterdag en zondag gehele dag","type":"route","brand":"Sprinter","route":"train","network":"Hoofdrailnet Nederland","service":"regional","interval":"0","operator":"Nederlandse Spoorwegen","ref:ProRail":"6000","network:short":"HRN","interval:evening":"30","interval:weekend":"30","network:wikidata":"Q2337464","network:wikipedia":"nl:Hoofdrailnet","public_transport:version":"2"},"13336942":{"to":"Rotterdam Centraal","ref":"3200","url":"http://wiki.ovinnederland.nl/wiki/Serie_3200","from":"Arnhem Centraal","name":"3200: Arnhem Centraal - Rotterdam Centraal","note":"weekdagen overdag","type":"route","brand":"Intercity","route":"train","network":"Hoofdrailnet Nederland","service":"long_distance","interval":"30","operator":"Nederlandse Spoorwegen","ref:ProRail":"3200","network:short":"HRN","interval:evening":"0","interval:weekend":"0","network:wikidata":"Q2337464","network:wikipedia":"nl:Hoofdrailnet","public_transport:version":"2"},"13336946":{"to":"Arnhem Centraal","ref":"3200","url":"http://wiki.ovinnederland.nl/wiki/Serie_3200","from":"Rotterdam Centraal","name":"3200: Rotterdam Centraal - Arnhem Centraal","note":"weekdagen overdag","type":"route","brand":"Intercity","route":"train","network":"Hoofdrailnet Nederland","service":"long_distance","interval":"30","operator":"Nederlandse Spoorwegen","ref:ProRail":"3200","network:short":"HRN","interval:evening":"0","interval:weekend":"0","network:wikidata":"Q2337464","network:wikipedia":"nl:Hoofdrailnet","public_transport:version":"2"},"13340478":{"to":"Winschoten","ref":"RE6","url":"https://wiki.ovinnederland.nl/wiki/Serie_37900","from":"Groningen","name":"RE6: Groningen - Winschoten","type":"route","brand":"RegioExpres","route":"train","network":"Regionaal spoorvervoer Fryslân en Groningen","service":"regional","operator":"Arriva","wikidata":"Q115121899","ref:ProRail":"37900","network:wikidata":"Q108742239","public_transport:version":"2"},"13348084":{"to":"Basel SBB","fee":"yes","ref":"ICE 43","from":"Amsterdam Centraal","name":"ICE 43: Amsterdam => Basel","type":"route","route":"train","network":"DB InterCityExpress","service":"high_speed","interval":"24:00","operator":"DB Fernverkehr AG;NS International","ref:ProRail":"100","public_transport:version":"2"},"13543402":{"to":"Vlissingen","ref":"6100","from":"Roosendaal","name":"6100: Roosendaal - Vlissingen","type":"route","brand":"Sprinter","route":"train","network":"Hoofdrailnet Nederland","service":"regional","website":"https://wiki.ovinnederland.nl/wiki/Serie_6100","interval":"60","operator":"Nederlandse Spoorwegen","ref:ProRail":"6100","network:short":"HRN","interval:evening":"0","interval:weekend":"0","network:wikidata":"Q2337464","network:wikipedia":"nl:Hoofdrailnet","public_transport:version":"2"},"13543404":{"to":"Vlissingen","ref":"2200","from":"Amsterdam Centraal","name":"2200: Amsterdam Centraal - Vlissingen","note":"stopt in Zeeland slechts in Goes, Middelburg en Vlissingen","type":"route","brand":"Intercity","route":"train","network":"Hoofdrailnet Nederland","service":"long_distance","website":"https://wiki.ovinnederland.nl/wiki/Serie_2200","interval":"60","operator":"Nederlandse Spoorwegen","ref:ProRail":"2200","network:short":"HRN","interval:evening":"0","interval:weekend":"0","network:wikidata":"Q2337464","network:wikipedia":"nl:Hoofdrailnet","public_transport:version":"2"},"13546281":{"to":"Hoorn Kersenboogerd","ref":"3300","url":"http://wiki.ovinnederland.nl/wiki/Serie_3300","from":"Hoofddorp","name":"3300: Hoofddorp - Hoorn Kersenboogerd","note":"route 's avonds en in het weekend","type":"route","brand":"Sprinter","route":"train","network":"Hoofdrailnet Nederland","service":"regional","interval":"0","operator":"Nederlandse Spoorwegen","ref:ProRail":"3300","network:short":"HRN","interval:evening":"30","interval:weekend":"30","network:wikidata":"Q2337464","network:wikipedia":"nl:Hoofdrailnet","public_transport:version":"2"},"13546282":{"to":"Hoofddorp","ref":"3300","url":"http://wiki.ovinnederland.nl/wiki/Serie_3300","from":"Hoorn Kersenboogerd","name":"3300: Hoorn Kersenboogerd - Hoofddorp","note":"route 's avonds en in het weekend","type":"route","brand":"Sprinter","route":"train","network":"Hoofdrailnet Nederland","service":"regional","interval":"0","operator":"Nederlandse Spoorwegen","ref:ProRail":"3300","network:short":"HRN","interval:evening":"30","interval:weekend":"30","network:wikidata":"Q2337464","network:wikipedia":"nl:Hoofdrailnet","public_transport:version":"2"},"13546316":{"to":"Zwolle","ref":"4600","url":"http://wiki.ovinnederland.nl/wiki/Serie_4600","from":"Leiden Centraal","name":"4600: Leiden Centraal - Zwolle","note":"route doordeweeks overdag","type":"route","brand":"Sprinter","route":"train","network":"Hoofdrailnet Nederland","service":"regional","interval":"30","operator":"Nederlandse Spoorwegen","ref:ProRail":"4600","network:short":"HRN","interval:evening":"0","interval:weekend":"0","network:wikidata":"Q2337464","network:wikipedia":"nl:Hoofdrailnet","public_transport:version":"2"},"13546317":{"to":"Leiden Centraal","ref":"4600","url":"http://wiki.ovinnederland.nl/wiki/Serie_4600","from":"Zwolle","name":"4600: Zwolle - Leiden Centraal","note":"route doordeweeks overdag","type":"route","brand":"Sprinter","route":"train","network":"Hoofdrailnet Nederland","service":"regional","interval":"30","operator":"Nederlandse Spoorwegen","ref:ProRail":"4600","network:short":"HRN","interval:evening":"0","interval:weekend":"0","network:wikidata":"Q2337464","network:wikipedia":"nl:Hoofdrailnet","public_transport:version":"2"},"13546408":{"to":"Alphen aan den Rijn","ref":"8900","url":"http://wiki.ovinnederland.nl/wiki/Serie_8900","from":"Leiden Centraal","name":"8900: Woerden - Utrecht Centraal","note":"route buiten de spits","type":"route","brand":"Sprinter","route":"train","network":"Hoofdrailnet Nederland","service":"regional","interval":"0","operator":"Nederlandse Spoorwegen","ref:ProRail":"8900","interval:peak":"30","network:short":"HRN","interval:evening":"0","interval:weekend":"0","network:wikidata":"Q2337464","network:wikipedia":"nl:Hoofdrailnet","public_transport:version":"2"},"13546432":{"to":"Woerden","ref":"8900","url":"http://wiki.ovinnederland.nl/wiki/Serie_8900","from":"Utrecht Centraal","name":"8900: Utrecht Centraal - Woerden","note":"route buiten de spits","type":"route","brand":"Sprinter","route":"train","network":"Hoofdrailnet Nederland","service":"regional","interval":"0","operator":"Nederlandse Spoorwegen","ref:ProRail":"8900","interval:peak":"30","network:short":"HRN","interval:evening":"0","interval:weekend":"0","network:wikidata":"Q2337464","network:wikipedia":"nl:Hoofdrailnet","public_transport:version":"2"},"15016073":{"to":"Weert","ref":"16400","url":"http://wiki.ovinnederland.nl/wiki/Serie_16400","from":"Eindhoven Centraal","name":"16400: Eindhoven Centraal - Weert","note":"een rit op woensdagavond en donderdagavond","type":"route","brand":"Sprinter","route":"train","network":"Hoofdrailnet Nederland","service":"regional","interval":"2 per week","operator":"Nederlandse Spoorwegen","ref:ProRail":"16400","network:short":"HRN","network:wikidata":"Q2337464","network:wikipedia":"nl:Hoofdrailnet","public_transport:version":"2"},"15016074":{"to":"Deurne","ref":"14400","url":"http://wiki.ovinnederland.nl/wiki/Serie_14400","from":"Eindhoven Centraal","name":"14400: Eindhoven Centraal - Deurne","note":"3 ritten op woensdagavond en donderdagavond","type":"route","brand":"Sprinter","route":"train","network":"Hoofdrailnet Nederland","service":"regional","interval":"30;60","operator":"Nederlandse Spoorwegen","ref:ProRail":"14400","network:short":"HRN","network:wikidata":"Q2337464","network:wikipedia":"nl:Hoofdrailnet","public_transport:version":"2"},"15016084":{"to":"Eindhoven Centraal","ref":"13900","url":"http://wiki.ovinnederland.nl/wiki/Serie_13900","from":"Heerlen","name":"13900: Heerlen - Eindhoven Centraal","type":"route","brand":"Intercity","route":"train","network":"Hoofdrailnet Nederland","service":"long_distance","interval":"30","operator":"Nederlandse Spoorwegen","ref:ProRail":"13900","network:short":"HRN","network:wikidata":"Q2337464","network:wikipedia":"nl:Hoofdrailnet","public_transport:version":"2"},"15016085":{"to":"Heerlen","ref":"13900","url":"http://wiki.ovinnederland.nl/wiki/Serie_13900","from":"Eindhoven Centraal","name":"13900: Eindhoven Centraal - Heerlen","type":"route","brand":"Intercity","route":"train","network":"Hoofdrailnet Nederland","service":"long_distance","interval":"30","operator":"Nederlandse Spoorwegen","ref:ProRail":"13900","network:short":"HRN","network:wikidata":"Q2337464","network:wikipedia":"nl:Hoofdrailnet","public_transport:version":"2"},"15019416":{"to":"Vlissingen","ref":"12200","from":"Roosendaal","name":"12200: Roosendaal - Vlissingen","type":"route","brand":"Intercity","route":"train","network":"Hoofdrailnet Nederland","service":"long_distance","website":"https://wiki.ovinnederland.nl/wiki/Serie_12200","interval":"daily","operator":"Nederlandse Spoorwegen","ref:ProRail":"12200","network:short":"HRN","network:wikidata":"Q2337464","network:wikipedia":"nl:Hoofdrailnet","public_transport:version":"2"},"15023038":{"to":"Terborg","ref":"RS32","url":"http://wiki.ovinnederland.nl/wiki/Serie_36900","from":"Arnhem Centraal","name":"RS32: Arnhem Centraal - Terborg","note":"alleen op zondagochtend","type":"route","brand":"RegioSprinter","route":"train","network":"Achterhoek-Rivierenland","service":"regional","interval":"60","operator":"Arriva","wikidata":"Q115122484","ref:ProRail":"36900","network:wikidata":"Q108716027","public_transport:version":"2"},"15023097":{"to":"Schiphol Airport","ref":"32700","from":"Maastricht","name":"32700: Maastricht - Schiphol Airport","note":"nachttrein, reservering verplicht","type":"route","route":"train","service":"night","website":"https://www.arriva.nl/nachttrein","interval":"weekly","operator":"Arriva","ref:ProRail":"32700","operator:wikidata":"Q2581356","operator:wikipedia":"nl:Arriva Personenvervoer Nederland","public_transport:version":"2"},"15023098":{"to":"Maastricht","ref":"32700","from":"Schiphol Airport","name":"32700: Schiphol Airport - Maastricht","note":"nachttrein, reservering verplicht","type":"route","route":"train","service":"night","website":"https://www.arriva.nl/nachttrein","interval":"weekly","operator":"Arriva","ref:ProRail":"32700","operator:wikidata":"Q2581356","operator:wikipedia":"nl:Arriva Personenvervoer Nederland","public_transport:version":"2"},"15023453":{"to":"Den Helder","ref":"800","url":"http://wiki.ovinnederland.nl/wiki/Serie_800","from":"Maastricht","name":"800: Maastricht - Den Helder","note":"twee ritten in de avondspits","type":"route","brand":"Intercity","route":"train","network":"Hoofdrailnet Nederland","service":"long_distance","interval":"30","operator":"Nederlandse Spoorwegen","ref:ProRail":"800","network:short":"HRN","network:wikidata":"Q2337464","public_transport":"route","network:wikipedia":"nl:Hoofdrailnet","public_transport:version":"2"},"15023454":{"to":"Maastricht","ref":"800","url":"http://wiki.ovinnederland.nl/wiki/Serie_800","from":"Den Helder","name":"800: Den Helder - Maastricht","note":"twee ritten in de ochtendspits","type":"route","brand":"Intercity","route":"train","network":"Hoofdrailnet Nederland","service":"long_distance","interval":"30","operator":"Nederlandse Spoorwegen","ref:ProRail":"800","network:short":"HRN","network:wikidata":"Q2337464","public_transport":"route","network:wikipedia":"nl:Hoofdrailnet","public_transport:version":"2"},"15346035":{"to":"Schiphol Airport","ref":"32790","from":"Groningen","name":"32790: Groningen - Schiphol Airport","note":"nachttrein, reservering verplicht","type":"route","route":"train","service":"night","website":"https://www.arriva.nl/nachttrein","interval":"weekly","operator":"Arriva","ref:ProRail":"32790","operator:wikidata":"Q2581356","operator:wikipedia":"nl:Arriva Personenvervoer Nederland","public_transport:version":"2"},"15346036":{"to":"Groningen","ref":"32790","from":"Schiphol Airport","name":"32790: Schiphol Airport - Groningen","note":"nachttrein, reservering verplicht","type":"route","route":"train","service":"night","website":"https://www.arriva.nl/nachttrein","interval":"weekly","operator":"Arriva","ref:ProRail":"32790","operator:wikidata":"Q2581356","operator:wikipedia":"nl:Arriva Personenvervoer Nederland","public_transport:version":"2"},"15875078":{"to":"Amsterdam Centraal","ref":"12100","url":"http://wiki.ovinnederland.nl/wiki/Serie_12100","from":"Zandvoort aan Zee","name":"12100: Zandvoort aan Zee - Amsterdam Centraal","note":"alleen in het weekend","type":"route","brand":"Sprinter","route":"train","network":"Hoofdrailnet Nederland","service":"long_distance","interval":"0","operator":"Nederlandse Spoorwegen","ref:ProRail":"12100","network:short":"HRN","interval:weekend":"30","network:wikidata":"Q2337464","network:wikipedia":"nl:Hoofdrailnet","public_transport:version":"2"},"15875079":{"to":"Zandvoort aan Zee","ref":"12100","url":"http://wiki.ovinnederland.nl/wiki/Serie_12100","from":"Amsterdam Centraal","name":"12100: Amsterdam Centraal - Zandvoort aan Zee","note":"alleen in het weekend","type":"route","brand":"Intercity","route":"train","network":"Hoofdrailnet Nederland","service":"long_distance","interval":"0","operator":"Nederlandse Spoorwegen","ref:ProRail":"12100","network:short":"HRN","interval:weekend":"30","network:wikidata":"Q2337464","network:wikipedia":"nl:Hoofdrailnet","public_transport:version":"2"}}