{"3299267":{"to":"Wien Hbf","ref":"EN 346","from":"Gara de Nord","name":"EN 346: Bucuresti - Wien","type":"route","route":"train","name:hu":"D 346: Bukarest - Bécs","name:ro":"IR 346: București - Viena","network":"EuroNight","service":"long_distance","by_night":"only","operator":"CFR;MÁV;ÖBB;","couchette":"yes","sleeping_car":"yes","network:wikidata":"Q257307","network:wikipedia":"en:EuroNight","public_transport:version":"2"},"6762473":{"to":"Calafat","ref":"R9137/9","via":"Segarcea","from":"Craiova","name":"Tren R9137/9: Craiova - Calafat","type":"route","route":"train","name:en":"Train R9137/9: Craiova - Calafat","network":"CFR Călători","service":"regional","operator":"CFR","network:wikidata":"Q856252","network:wikipedia":"ro:CFR Călători","public_transport:version":"2"},"7087293":{"to":"Chișinău","ref":"IR 402","from":"Gara de Nord","name":"Tren Prietenia: București - Chișinău","note":"Suspended due to COVID","type":"route","route":"train","public_transport:version":"2"},"12377686":{"to":"Craiova","ref":"R9132/4","via":"Segarcea","from":"Calafat","name":"Tren R9132/4: Calafat - Craiova","type":"route","route":"train","name:en":"Train R9132/4: Calafat - Craiova","network":"CFR Călători","service":"regional","operator":"CFR Călători","network:wikidata":"Q856252","network:wikipedia":"ro:CFR Călători","public_transport:version":"2"},"12410552":{"to":"Caracal","ref":"R-E 2222","via":"Râmnicu Vâlcea","from":"Sibiu","name":"R-E 2222: Sibiu - Caracal","type":"route","route":"train","old_ref":"IR 1722","public_transport:version":"2"},"12432665":{"to":"Aeroport Henri Coandă","ref":"R-E 10701","from":"Gara de Nord","name":"Tren: Gara de Nord - Aeroport Henri Coandă","type":"route","route":"train","name:en":"Train: Gara de Nord - Aeroport Henri Coanda","operator":"CFR Călători","public_transport:version":"2"},"12432666":{"to":"Gara de Nord","ref":"R-E 10702","from":"Aeroport Henri Coandă","name":"Tren: Aeroport Henri Coandă - Gara de Nord","type":"route","route":"train","name:en":"Train: Aeroport Henri Coanda - Gara de Nord","operator":"CFR Călători","public_transport:version":"2"},"12440299":{"to":"București Obor","ref":"R 8091","from":"Gara de Nord","name":"Tren: București Nord - București Obor","type":"route","route":"train","operator":"CFR Călători","public_transport:version":"2"},"12440300":{"to":"Gara de Nord","ref":"R 8090","from":"București Obor","name":"Tren: București Obor - București Nord","type":"route","route":"train","operator":"CFR Călători","public_transport:version":"2"},"12997277":{"to":"Brețcu","ref":"R 16361","via":"Sfântu Gheorghe","from":"Brașov","name":"Tren R 16361: Brașov => Brețcu","type":"route","route":"train","name:en":"Train R 16361: Brașov => Brețcu","network":"CFR","service":"regional","website":"https://regiocalatori.ro/","operator":"Regio Călători","public_transport:version":"2"},"12999012":{"to":"Brașov","ref":"R 16360","from":"Sfântu Gheorghe","name":"Tren R 16360: Sfântu Gheorghe => Brașov","type":"route","route":"train","name:en":"Train R 16360: Sfântu Gheorghe => Brașov","network":"CFR","website":"https://regiocalatori.ro/","duration":"49","operator":"Regio Călători","public_transport:version":"2"},"15436724":{"to":"Timișoara Nord","ref":"R2602","from":"Arad","name":"Tren R2602: Arad → Timișoara Nord","type":"route","route":"train","name:en":"Train R2602: Arad → Timisoara","operator":"CFR Călători","public_transport:version":"2"},"15436725":{"to":"Arad","ref":"R2603","from":"Timișoara Nord","name":"Tren R2603: Timișoara Nord → Arad","type":"route","route":"train","name:en":"Train R2603: Timisoara → Arad","operator":"CFR Călători","public_transport:version":"2"},"15437084":{"to":"Mediaș","ref":"R2561","from":"Sibiu","name":"Tren R2561: Sibiu → Mediaș","type":"route","route":"train","name:en":"Train R2561: Sibiu → Medias","operator":"CFR Călători","public_transport:version":"2"},"15437085":{"to":"Sibiu","ref":"R2573","from":"Mediaș","name":"Tren R2573: Mediaș → Sibiu","type":"route","route":"train","name:en":"Train R2573: Medias → Sibiu","operator":"CFR Călători","public_transport:version":"2"}}