{"1749720":{"ref":"2400;2402;2404","name":"Београд - Суботица","type":"route","route":"train","name:de":"Belgrad - Subotica","name:en":"Belgrade - Subotica","name:sr":"Београд - Суботица","name:sr-Latn":"Beograd - Subotica"},"1749766":{"to":"Шид","ref":"2202;2206;2208;2210;2212","from":"Београд","name":"Београд => Шид","type":"route","route":"train","name:de":"Belgrad => Schid","name:en":"Belgrade => Sid","name:sr":"Београд => Шид","website":"https://srbijavoz.rs","distance":"132 km","duration":"02:34","operator":"Србија Воз","wheelchair":"limited","name:sr-Latn":"Beograd => Šid","public_transport:version":"2"},"2913470":{"ref":"5900;5901","name":"Ниш - Димитровград","type":"route","route":"train","name:en":"Nis - Dimitrovgrad","name:sr":"Ниш - Димитровград","operator":"Железнице Србије","name:sr-Latn":"Niš - Dimitrovgrad"},"5229278":{"name":"Vrbas - Sombor","type":"route","route":"train"},"9503555":{"to":"Ресник (Железничка станица)","ref":"BG2","from":"Панчевачки мост (Железничка станица)","name":"БГ:Воз 2 Панчевачки мост - Ресник","type":"route","route":"train","colour":"#044cd0","network":"БГ:Воз","operator":"ЈКП Београдски метро и воз","network:en":"BG Voz","to:sr-Latn":"Resnik (Železnička stanica)","description":"једном дневно воз не иде главном трасом него од станице Панчевачки мост","from:sr-Latn":"Pančevački most (Železnička stanica)","network:metro":"BG Voz","public_transport:version":"2"},"9503556":{"to":"Железничка станица Београд центар","ref":"BG2","from":"Панчевачки мост (Железничка станица)","name":"БГ:Воз 2 Панчевачки мост - Београд центар","type":"route","route":"train","colour":"#044cd0","network":"БГ:Воз","operator":"ЈКП Београдски метро и воз","network:en":"BG Voz","to:sr-Latn":"Železnička stanica Beograd centar","description":"једном дневно воз не иде главном трасом него од станице Панчевачки мост до станице Београд центар","from:sr-Latn":"Pančevački most (Železnička stanica)","network:metro":"BG Voz","public_transport:version":"2"},"9503557":{"to":"Ресник (Железничка станица)","ref":"BG2","from":"Овча (Железничка станица)","name":"БГ:Воз 2 Овча - Ресник","type":"route","route":"train","colour":"#044cd0","network":"БГ:Воз","operator":"ЈКП Београдски метро и воз","network:en":"BG Voz","to:sr-Latn":"Resnik (Železnička stanica)","description":"главна траса","from:sr-Latn":"Ovča (Železnička stanica)","network:metro":"BG Voz","public_transport:version":"2"},"9503558":{"to":"Панчевачки мост (Железничка станица)","ref":"BG2","from":"Ресник (Железничка станица)","name":"БГ:Воз 2 Ресник - Панчевачки мост","type":"route","route":"train","colour":"#044cd0","network":"БГ:Воз","operator":"ЈКП Београдски метро и воз","network:en":"BG Voz","to:sr-Latn":"Pančevački most (Železnička stanica)","description":"једном дневно воз не иде главном трасом него до станице Панчевачки мост","from:sr-Latn":"Resnik (Železnička stanica)","network:metro":"BG Voz","public_transport:version":"2"},"9503559":{"to":"Железничка станица Београд центар","ref":"BG2","from":"Ресник (Железничка станица)","name":"БГ:Воз 2 Ресник - Београд центар","type":"route","route":"train","colour":"#044cd0","network":"БГ:Воз","operator":"ЈКП Београдски метро и воз","network:en":"BG Voz","to:sr-Latn":"Železnička stanica Beograd centar","description":"двапут дневно воз не иде пуном трасом него до станице Панчевачки мост","from:sr-Latn":"Resnik (Železnička stanica)","network:metro":"BG Voz","public_transport:version":"2"},"9503560":{"to":"Овча (Железничка станица)","ref":"BG2","from":"Ресник (Железничка станица)","name":"БГ:Воз 2 Ресник - Овча","type":"route","route":"train","colour":"#044cd0","network":"БГ:Воз","operator":"ЈКП Београдски метро и воз","network:en":"BG Voz","to:sr-Latn":"Ovča (Železnička stanica)","description":"главна траса","from:sr-Latn":"Resnik (Železnička stanica)","network:metro":"BG Voz","public_transport:version":"2"},"9503561":{"to":"Овча","ref":"BG1","from":"Београд центар","name":"БГ:Воз 1 Београд центар - Овча","type":"route","route":"train","colour":"#ff0000","network":"БГ:Воз","operator":"ЈКП Београдски метро и воз","network:en":"BG Voz","to:sr-Latn":"Ovča","description":"једном дневно воз не иде пуном трасом него од станице Београд центар","from:sr-Latn":"Beograd centar","network:metro":"BG Voz","public_transport:version":"2"},"9503562":{"to":"Железничка станица Земун","ref":"BG1","from":"Батајница (Железничка станица)","name":"БГ:Воз 1 Батајница - Земун","type":"route","route":"train","network":"БГ:Воз","operator":"Железнице Србије","network:en":"BG Voz","to:sr-Latn":"Železnička stanica Zemun","description":"пет пута дневно воз не иде пуном трасом него до станице Земун","from:sr-Latn":"Batajnica (Železnička stanica)","network:metro":"BG Voz","public_transport:version":"2"},"9503563":{"to":"Железничка станица Земун","ref":"BG1","from":"Овча (Железничка станица)","name":"БГ:Воз 1 Овча - Земун","type":"route","route":"train","colour":"#ff0000","network":"БГ:Воз","operator":"ЈКП Београдски метро и воз","network:en":"BG Voz","to:sr-Latn":"Železnička stanica Zemun","description":"једном дневно воз не иде пуном трасом него до станице Земун","from:sr-Latn":"Ovča (Železnička stanica)","network:metro":"BG Voz","public_transport:version":"2"},"9503564":{"to":"Београд центар","ref":"BG1","from":"Овча","name":"БГ:Воз 1 Овча - Београд центар","type":"route","route":"train","colour":"#ff0000","network":"БГ:Воз","operator":"ЈКП Београдски метро и воз","network:en":"BG Voz","to:sr-Latn":"Beograd centar","description":"двапут дневно воз не иде пуном трасом него до станице Београд центар","from:sr-Latn":"Ovča","network:metro":"BG Voz","public_transport:version":"2"},"9503565":{"to":"Батајница (Железничка станица)","ref":"BG1","from":"Овча (Железничка станица)","name":"БГ:Воз 1 Овча - Батајница","type":"route","route":"train","colour":"#ff0000","network":"БГ:Воз","operator":"ЈКП Београдски метро и воз","network:en":"BG Voz","to:sr-Latn":"Batajnica (Železnička stanica)","description":"главна траса","from:sr-Latn":"Ovča (Železnička stanica)","network:metro":"BG Voz","public_transport:version":"2"},"9503566":{"to":"Панчевачки мост (Железничка станица)","ref":"BG2","from":"Железничка станица Београд центар","name":"БГ:Воз 2 Београд центар - Панчевачки мост","type":"route","route":"train","colour":"#044cd0","network":"БГ:Воз","operator":"ЈКП Београдски метро и воз","network:en":"BG Voz","to:sr-Latn":"Pančevački most (Železnička stanica)","description":"једном дневно воз не иде главном трасом него од станице Београд центар до станице Панчевачки мост","from:sr-Latn":"Železnička stanica Beograd centar","network:metro":"BG Voz","public_transport:version":"2"},"9510692":{"to":"Овча","ref":"BG1","from":"Батајница","name":"БГ:Воз 1 Батајница - Овча","type":"route","route":"train","colour":"#ff0000","network":"БГ:Воз","operator":"ЈКП Београдски метро и воз","network:en":"BG Voz","to:sr-Latn":"Ovča","description":"главна траса","from:sr-Latn":"Batajnica","network:metro":"BG Voz","public_transport:version":"2"},"13666732":{"to":"Ниш","ref":"791;793;2901;2903;2905","from":"Београд Центар","name":"Београд - Ниш","type":"route","route":"train","operator":"Железнице Србије","public_transport:version":"2"},"13666962":{"to":"Ваљево","ref":"2141;2143","from":"Београд Центар","name":"Београд - Ваљево","type":"route","route":"train","operator":"Железнице Србије"},"13666963":{"to":"Ужице","ref":"2131;2135","from":"Београд Центар","name":"Београд - Ужице","type":"route","route":"train","operator":"Железнице Србије"},"13666964":{"to":"Пријепоље Теретна","ref":"2101;2103","from":"Београд Центар","name":"Београд - Пријепоље","type":"route","route":"train","public_transport:version":"2"},"13666965":{"to":"Бар","ref":"433","from":"Земун","name":"Ловћен: Београд => Бар","type":"route","route":"train","name:sr":"Ловћен: Београд => Бар","operator":"Србија Воз;Željeznički prevoz Crne Gore","passenger":"international","name:sr-Latn":"Lovćen: Beograd => Bar","public_transport:version":"2"},"13667238":{"to":"Вршац","ref":"2601;2603;2605;2607;2609;2611","from":"Београд центар","name":"Воз: Београд => Вршац","type":"route","route":"train","operator":"Железнице Србије","public_transport:version":"2"},"13668203":{"to":"Шабац","ref":"5231;5233;5235","from":"Рума","name":"Рума - Шабац","type":"route","route":"train","operator":"Железнице Србије","public_transport:version":"2"},"13668204":{"to":"Зворник","ref":"5221;15621","from":"Рума","name":"Рума - Зворник","type":"route","route":"train","operator":"Железнице Србије","public_transport:version":"2"},"13989148":{"to":"Београд Центар","ref":"30","from":"Нови Сад","name":"Соко: Нови Сад => Београд Центар","type":"route","route":"train","to:sr":"Београд Центар","bicycle":"yes","from:sr":"Нови Сад","name:sr":"Соко: Нови Сад => Београд Центар","network":"Соко","toilets":"yes","duration":"00:36","operator":"Србија Воз","highspeed":"yes","passenger":"regional","to:sr-Latn":"Beograd Centar","wheelchair":"yes","reservation":"required","from:sr-Latn":"Novi Sad","name:sr-Latn":"Soko: Novi Sad => Beograd Centar","power_supply":"yes","socket:schuko":"yes","internet_access":"wlan","operator:wikidata":"Q25459717","operator:wikipedia":"sr:Србија воз","toilets:wheelchair":"yes","internet_access:fee":"no","public_transport:version":"2"},"13989149":{"to":"Нови Сад","ref":"30","from":"Београд Центар","name":"Соко: Београд Центар => Нови Сад","type":"route","route":"train","to:sr":"Нови Сад","bicycle":"yes","from:sr":"Београд Центар","name:sr":"Соко: Београд Центар => Нови Сад","network":"Соко","toilets":"yes","duration":"00:36","operator":"Србија Воз","highspeed":"yes","passenger":"regional","to:sr-Latn":"Novi Sad","wheelchair":"yes","reservation":"required","from:sr-Latn":"Beograd Centar","name:sr-Latn":"Soko: Beograd Centar => Novi Sad","power_supply":"yes","socket:schuko":"yes","internet_access":"wlan","operator:wikidata":"Q25459717","operator:wikipedia":"sr:Србија воз","toilets:wheelchair":"yes","internet_access:fee":"no","public_transport:version":"2"},"14764959":{"to":"Зрењанин","fee":"yes","ref":"2515","via":"Нови Бечеј","from":"Суботица","name":"Србија Воз 2515: Суботица => Зрењанин","type":"route","route":"train","name:en":"Srbija Voz 2515: Subotica => Zrenjanin","name:sr":"Србија Воз 2515: Суботица => Зрењанин","duration":"03:07","operator":"Србија Воз","passenger":"regional","name:sr-Latn":"Srbija Voz 2515: Subotica => Zrenjanin","public_transport:version":"2"},"15344095":{"to":"Панчевачки Мост (Дунавски перон)","ref":"Панвоз","from":"Панчево Војловица","name":"Панвоз: Панчево Bojловица => Панчевачки Мост","type":"route","route":"train","operator":"Србија Воз","operator:wikidata":"Q25459717","operator:wikipedia":"sr:Србија воз","public_transport:version":"2"},"15344096":{"to":"Панчево Војловица","ref":"Панвоз","from":"Панчевачки Мост (Дунавски перон)","name":"Панвоз: Панчевачки Мост => Панчево Bojловица","type":"route","route":"train","operator":"Србија Воз","operator:wikidata":"Q25459717","operator:wikipedia":"sr:Србија воз","public_transport:version":"2"},"15344479":{"to":"Београд центар","ref":"2602;2604;2606;2608;2610;2612","from":"Вршац","name":"Воз: Вршац => Београд","type":"route","route":"train","operator":"Железнице Србије","public_transport:version":"2"},"15445056":{"name":"Носталгија: Мокра Гора – Шарган Витаси – Мокра Гора","type":"route","route":"train","name:en":"Nostalgy: Mokra Gora – Šargan Vitasi – Mokra Gora","name:ru":"Носталгия: Мокра Гора – Шарган Витаси – Мокра Гора","name:sr":"Носталгија: Мокра Гора – Шарган Витаси – Мокра Гора","tourism":"yes","alt_name":"Носталгија","operator":"Србија Воз","roundtrip":"yes","name:sr-Latn":"Nostalgija: Mokra Gora – Šargan Vitasi – Mokra Gora","public_transport:version":"2"},"15462844":{"to":"Craiova","ref":"R9502","from":"Drobeta Turnu Severin","name":"Train R9502: Drobeta Turnu Severin - Craiova","type":"route","route":"train","name:en":"Train: Drobeta Turnu Severin - Craiova","name:ro":"Tren: Drobeta Turnu Severin - Craiova","operator":"CFR Călători","public_transport:version":"2"},"15473666":{"to":"Чачак","ref":"4840","from":"Краљево","name":"Србија Воз 4840: Краљево => Чачак","type":"route","route":"train","name:en":"Srbija Voz 4840: Kraljevo => Čačak","name:sr":"Србија Воз 4840: Краљево => Чачак","operator":"Србија Воз","name:sr-Latn":"Srbija Voz 4840: Kraljevo => Čačak","public_transport:version":"2"},"15477383":{"to":"Јагодина","ref":"4811","from":"Краљево","name":"Србија Воз 4811: Краљево => Јагодина","type":"route","route":"train","name:en":"Srbija Voz 4811: Kraljevo => Jagodina","name:sr":"Србија Воз 4811: Краљево => Јагодина","operator":"Србија Воз","operator:en":"Srbija Voz","operator:sr":"Србија Воз","name:sr-Latn":"Srbija Voz 4811: Kraljevo => Jagodina","operator:sr-Latn":"Srbija Voz","public_transport:version":"2"},"15483356":{"ref":"3831","name":"Србија Воз 3831: Краљево => Рудница","type":"route","route":"train","name:en":"Srbija Voz 3831: Kraljevo => Rudnica","name:sr":"Србија Воз 3831: Краљево => Рудница","operator":"Србија Воз","operator:en":"Srbija Voz","operator:sr":"Србија Воз","name:sr-Latn":"Srbija Voz 3831: Kraljevo => Rudnica","operator:sr-Latn":"Srbija Voz","public_transport:version":"2"},"15483472":{"to":"Лапово","ref":"3810","from":"Краљево","name":"Србија Воз 3810: Краљево => Лапово","type":"route","route":"train","name:en":"Srbija Voz 3810: Kraljevo => Lapovo","name:sr":"Србија Воз 3810: Краљево => Лапово","operator":"Србија Воз","operator:en":"Srbija Voz","operator:sr":"Србија Воз","name:sr-Latn":"Srbija Voz 3810: Kraljevo => Lapovo","operator:sr-Latn":"Srbija Voz","public_transport:version":"2"},"15485707":{"to":"Пожега","ref":"4830","from":"Краљево","name":"Србија Воз 4830: Краљево => Пожега","type":"route","route":"train","name:en":"Srbija Voz 4830: Kraljevo => Požega","name:sr":"Србија Воз 4830: Краљево => Пожега","operator":"Србија Воз","operator:en":"Srbija Voz","operator:sr":"Србија Воз","name:sr-Latn":"Srbija Voz 4830: Kraljevo => Požega","operator:sr-Latn":"Srbija Voz","public_transport:version":"2"},"15487767":{"ref":"2743","name":"Србија Воз 2743: Зајечар => Ниш","type":"route","route":"train","name:en":"Srbija Voz 2743: Zaječar => Niš","name:sr":"Србија Воз 2743: Зајечар => Ниш","operator":"Србија Воз","operator:en":"Srbija Voz","operator:sr":"Србија Воз","name:sr-Latn":"Srbija Voz 2743: Zaječar => Niš","operator:sr-Latn":"Srbija Voz","public_transport:version":"2"},"15488724":{"to":"Суботица","fee":"yes","ref":"2516","via":"Нови Бечеј","from":"Зрењанин","name":"Србија Воз 2516: Зрењанин => Суботица","type":"route","route":"train","name:en":"Srbija Voz 2516: Zrenjanin => Subotica","name:sr":"Србија Воз 2516: Зрењанин => Суботица","duration":"03:07","operator":"Србија Воз","passenger":"regional","name:sr-Latn":"Srbija Voz 2516: Zrenjanin => Subotica","public_transport:version":"2"},"15510004":{"to":"Прахово, пристаниште","fee":"yes","ref":"2770","via":"Неготин","from":"Зајечар","name":"Србија Воз 2770: Зајечар => Прахово, пристаниште","type":"route","route":"train","name:en":"Srbija Voz 2770: Zaječar => Prahovo, harbour","name:sr":"Србија Воз 2770: Зајечар => Прахово, пристаниште","operator":"Србија Воз","operator:en":"Srbija Voz","operator:sr":"Србија Воз","name:sr-Latn":"Srbija Voz 2770: Zaječar => Prahovo, pristanište","operator:sr-Latn":"Srbija Voz","public_transport:version":"2"},"15510160":{"to":"Мајданпек","fee":"yes","ref":"2760","from":"Зајечар","name":"Србија Воз 2760: Зајечар => Мајданпек","type":"route","route":"train","name:en":"Srbija Voz 2760: Zaječar => Majdanpek","name:sr":"Србија Воз 2760: Зајечар => Мајданпек","operator":"Србија Воз","name:sr-Latn":"Srbija Voz 2760: Zaječar => Majdanpek","public_transport:version":"2"},"15516130":{"to":"Нови Сад","fee":"yes","ref":"25431","via":"Оџаци","from":"Сомбор","name":"Србија Воз 25431: Сомбор => Нови Сад","type":"route","route":"train","name:en":"Srbija Voz 25431: Sombor => Novi Sad","name:sr":"Србија Воз 25431: Сомбор => Нови Сад","operator":"Србија Воз","name:sr-Latn":"Srbija Voz 25431: Sombor => Novi Sad","public_transport:version":"2"},"15527604":{"to":"Суботица","fee":"yes","ref":"6432","from":"Сомбор","name":"Србија Воз 6432: Сомбор => Суботица","type":"route","route":"train","name:en":"Srbija Voz 6432: Sombor => Subotica","name:sr":"Србија Воз 6432: Сомбор => Суботица","operator":"Србија Воз","name:sr-Latn":"Srbija Voz 6432: Sombor => Subotica","public_transport:version":"2"},"15531692":{"to":"Кикинда","fee":"yes","ref":"2522","from":"Зрењанин","name":"Србија Воз 2522: Зрењанин => Кикинда","type":"route","route":"train","operator":"Србија Воз","public_transport:version":"2"},"16551807":{"to":"Шид","ref":"2201;2203;2207;2209;2211;2213","from":"Београд","name":"Шид => Београд","type":"route","route":"train","name:de":"Schid => Belgrad","name:en":"Sid => Belgrade","name:sr":"Шид => Београд","website":"https://srbijavoz.rs","distance":"132 km","duration":"02:34","operator":"Србија Воз","wheelchair":"limited","name:sr-Latn":"Šid => Beograd","public_transport:version":"2"}}