{"252453":{"to":"Москва","ref":"037Н","from":"Томск","name":"Поезд 037Н: Томск => Москва","type":"route","route":"train","name:uk":"Потяг 037Н: Томськ => Москва","network":"RU-railway","operator":"Российские железные дороги","public_transport:version":"2"},"300720":{"name":"Электропоезд Адлер → Туапсе","type":"route","route":"train","network":"РЖД","operator":"РЖД","network:en":"RZD","network:ru":"РЖД","network:wikidata":"Q660770","network:wikipedia":"ru:Российские железные дороги","public_transport:version":"2"},"324674":{"name":"Гороховец — Нижний Новгород-Московский","type":"route","route":"train","network":"regional","operator":"ГЖД","route_master":"train"},"324675":{"name":"Дзержинск — Нижний Новгород-Московский","type":"route","route":"train","network":"local","operator":"ГЖД","route_master":"train"},"324678":{"name":"Владимир — Нижний Новгород-Московский","type":"route","route":"train","network":"regional","operator":"ГЖД","route_master":"train"},"324680":{"name":"Вязники — Нижний Новгород-Московский","type":"route","route":"train","network":"regional","operator":"ГЖД","route_master":"train"},"324681":{"name":"Сейма — Нижний Новгород-Московский","type":"route","route":"train","network":"local","operator":"ГЖД","route_master":"train"},"325034":{"name":"Шахунья — Горький-Московский","type":"route","route":"train","network":"local","operator":"ГЖД","route_master":"train","public_transport:version":"2"},"325133":{"name":"Ветлужская — Горький-Московский","type":"route","route":"train","network":"local","operator":"ГЖД","route_master":"train","public_transport:version":"2"},"325134":{"name":"Сухобезводное — Горький-Московский","type":"route","route":"train","network":"local","operator":"ГЖД","route_master":"train","public_transport:version":"2"},"325135":{"name":"Керженец — Горький-Московский","type":"route","route":"train","network":"local","operator":"ГЖД","route_master":"train","public_transport:version":"2"},"325136":{"name":"Семёнов — Горький-Московский","type":"route","route":"train","network":"local","operator":"ГЖД","route_master":"train","public_transport:version":"2"},"325137":{"name":"Линда — Горький-Московский","type":"route","route":"train","network":"local","operator":"ГЖД","route_master":"train","public_transport:version":"2"},"325138":{"name":"Тарасиха — Горький-Московский","type":"route","route":"train","network":"local","operator":"ГЖД","route_master":"train","public_transport:version":"2"},"325295":{"name":"Металлист — Нижний Новгород-Московский","type":"route","route":"train","network":"local","operator":"ГЖД","route_master":"train"},"325444":{"name":"Сергач — Нижний Новгород-Московский","type":"route","route":"train","network":"local","operator":"ГЖД","route_master":"train"},"325456":{"name":"Арзамас 2 — Нижний Новгород-Московский","type":"route","route":"train","network":"local","operator":"ГЖД","route_master":"train"},"325457":{"name":"Серёжа — Нижний Новгород-Московский","type":"route","route":"train","network":"local","operator":"ГЖД","route_master":"train"},"325458":{"name":"Суроватиха — Нижний Новгород-Московский","type":"route","route":"train","network":"local","operator":"ГЖД","route_master":"train"},"325459":{"name":"Ужовка — Нижний Новгород-Московский","type":"route","route":"train","network":"local","operator":"ГЖД","route_master":"train"},"325493":{"name":"Арзамас 2 — пр-т Гагарина","type":"route","route":"train","network":"local","operator":"ГЖД","route_master":"train"},"326734":{"name":"Фролищи — Нижний Новгород-Московский","type":"route","route":"train","network":"local","operator":"ГЖД","route_master":"train"},"326735":{"name":"Фролищи — Ильино","type":"route","route":"train","operator":"ГЖД"},"330871":{"name":"Заволжье-Пассажирский — Нижний Новгород-Московский","type":"route","route":"train","network":"local","operator":"ГЖД","route_master":"train"},"331010":{"name":"Правдинск — Нижний Новгород-Московский","type":"route","route":"train","network":"local","operator":"ГЖД","route_master":"train"},"331011":{"name":"Заволжье-Пассажирский — Нижний Новгород-Московский","type":"route","route":"train","network":"local","operator":"ГЖД","route_master":"train"},"331030":{"name":"Моховые горы — Горький-Московский","type":"route","route":"train","network":"local","operator":"ГЖД","route_master":"train","public_transport:version":"2"},"331050":{"name":"Нижний Новгород-Московский — Мыза","type":"route","route":"train","network":"local","operator":"ГЖД","route_master":"train"},"331054":{"name":"Доскино — Автозавод","type":"route","route":"train","network":"local","operator":"ГЖД","route_master":"train"},"331062":{"name":"Суроватиха — Кустовая","type":"route","route":"train","network":"local","operator":"ГЖД","route_master":"train"},"331068":{"name":"Кустовая — Шониха","type":"route","route":"train","network":"local","operator":"ГЖД","route_master":"train"},"372666":{"to":"Первомайск-Горьковский","ref":"080","via":"Берещино","from":"Москва-Пассажирская-Казанская","name":"Поезд 380Э/379Э Москва => Первомайск","type":"route","route":"train","source":"Bing","name:uk":"Потяг 080: Москва Казанська → Берещино → Первомайськ","network":"РЖД","operator":"ОАО \\\"РЖД\\\"","network:en":"RZD","network:ru":"РЖД","network:wikidata":"Q660770","network:wikipedia":"ru:Российские железные дороги","public_transport:version":"2"},"593745":{"ref":"085Ч","name":"Москва - Климов","type":"route","route":"train","network":"train","wheelchair":"no"},"939832":{"to":"Ростов - Пригородный","ref":"6296/6294/6292/6291","from":"Краснодар-1","name":"Электропоезд 6296/6294/6292/6291: Краснодар → Ростов-на-Дону","type":"route","route":"train","network":"РЖД","duration":"04:37:00","operator":"АО «Северо-Кавказская пригородная пассажирская компания»","network:en":"RZD","network:ru":"РЖД","network:wikidata":"Q660770","public_transport:version":"2"},"1021360":{"to":"Фрязино","from":"Москва (Ярославский вокзал)","name":"Москва — Фрязино","type":"route","route":"train","name:uk":"Москва - Фрязіно"},"1021361":{"to":"Щёлково","from":"Москва (Ярославский вокзал)","name":"Москва — Щёлково","type":"route","route":"train","name:uk":"Москва — Щолкове"},"1021362":{"to":"Монино","ref":"6660-6674","from":"Москва (Ярославский вокзал)","name":"Москва — Монино","type":"route","route":"train","name:uk":"Москва - Моніно"},"1021364":{"to":"Фрязево","ref":"6700;6728","from":"Москва (Ярославский вокзал)","name":"Москва — Фрязево","type":"route","route":"train","name:uk":"Москва - Фрязево","operator":"ЦППК"},"1021423":{"ref":"Москва - Александров","name":"Москва - Александров","type":"route","route":"train","name:uk":"Москва - Олександров","network":"regional","operator":"ЦППК"},"1021424":{"to":"Сергиев Посад","from":"Москва (Ярославский вокзал)","name":"Москва — Сергиев Посад","type":"route","route":"train","name:uk":"Москва — Сергіїв Посад"},"1021429":{"ref":"Москва - Балакирево","name":"Москва - Балакирево","type":"route","route":"train","name:uk":"Москва - Балакірєво","network":"regional","operator":"ЦППК"},"1021430":{"ref":"Москва - Александров (Экспресс)","name":"Москва - Александров (Экспресс)","type":"route","route":"train","name:uk":"Москва - Олександров (Експрес)","network":"regional","operator":"ЦППК"},"1057487":{"to":"Сухум","ref":"306М","from":"Сочи","name":"Поезд 306М: Сочи → Сухум / Адәыӷба 306М: Шәача → Аҟәа","type":"route","route":"train","name:en":"Train 306M: Sochi → Sokhumi","duration":"06:19","operator":"АО «Федеральная пассажирская компания»","passenger":"international","public_transport:version":"2"},"1115319":{"to":"Калийная","ref":"6165","from":"Чусовская","name":"Поезд 6165, Чусовская — Калийная","type":"route","route":"train","network":"Отделение ж/д ПЕРМСКОЕ","operator":"Пермская пригородная компания","public_transport:version":"1"},"1115759":{"ref":"6842/6832","name":"Поезд 6842/6832, Чусовская — Нижний Тагил","type":"route","route":"train","network":"Отделение ж/д ПЕРМСКОЕ","operator":"Пермская пригородная компания","public_transport:version":"1"},"1115790":{"to":"Калийная","ref":"6903","from":"Углеуральская","name":"Поезд 6903, Углеуральская — Калийная","type":"route","route":"train","network":"Отделение ж/д ПЕРМСКОЕ","operator":"Пермская пригородная компания","public_transport:version":"1"},"1144795":{"to":"Пхеньян","ref":"100Щ","from":"Москва Ярославская","name":"Поезд 100Щ: Москва → Пхеньян","type":"route","route":"train","to:en":"Pyongyang","to:ko":"평양","from:de":"Moskau Jaroslavler Bf","from:en":"Moscow","from:ko":"모스코바","name:de":"Moskau → Pjöngjang","name:en":"Moscow → Pyongyang","name:uk":"Потяг 100Щ: Москва → Пхеньян","network":"РЖД","operator":"РЖД","was:route":"train","network:en":"RZD","network:ru":"РЖД","network:wikidata":"Q660770","network:wikipedia":"ru:Российские железные дороги","public_transport:version":"1"},"1155923":{"ref":"323 Neryungri - Tommot","name":"Neryungri - Tommot","type":"route","route":"train","public_transport:version":"1"},"1172216":{"to":"Санкт-Петербург-Ладожский","ref":"009А","from":"Архангельск-Город","name":"Поезд № 009А: Архангельск — Санкт-Петербург","type":"route","route":"train","name:uk":"Потяг № 009А: Архангельськ - Санкт-Петербург","network":"РЖД","network:en":"RZD","network:ru":"РЖД","network:wikidata":"Q660770","network:wikipedia":"ru:Российские железные дороги","public_transport:version":"2"},"1178807":{"ref":"6264","name":"Пермь II - Углеуральская","type":"route","route":"train","network":"Отделение ж/д ПЕРМСКОЕ","public_transport:version":"2"},"1180358":{"ref":"6102/6142;6106;6110/6146","name":"Пермь II - Кунгур - Шаля","type":"route","route":"train","network":"Отделение ж/д ПЕРМСКОЕ"},"1181383":{"to":"Адлер","ref":"104В","from":"Москва-Пассажирская-Казанская","name":"Поезд 104В «Двухэтажный состав»: Москва → Адлер","type":"route","route":"train","name:de":"Zug 104W«Doppeldecker»: Moskau → Adler","name:en":"Train 104V «Double-deck»: Moscow → Adler","name:uk":"Поїзд 104В «Двоповерховий поїзд»: Москва → Адлер","network":"РЖД","duration":"23:34:00","operator":"АО «Федеральная пассажирская компания»","network:en":"RZD","network:ru":"РЖД","network:wikidata":"Q660770","network:wikipedia":"ru:Российские железные дороги","public_transport:version":"2"},"1184474":{"ref":"Калининград - Балтийск","name":"Калининград - Балтийск","type":"route","route":"train","name:lt":"Karaliaučius - Baltijskas","name:pl":"Linia Kaliningrad - Bałtijsk"},"1186666":{"ref":"Мурманск — Адлер","name":"Мурманск — Адлер","type":"route","route":"train","name:de":"Murmansk — Adler","name:en":"Murmansk — Adler","name:ru":"Мурманск — Адлер"},"1186667":{"ref":"Мурманск — Минск","name":"Мурманск — Минск","type":"route","route":"train","name:de":"Murmansk — Minsk","name:en":"Murmansk — Minsk","name:ru":"Мурманск — Минск"},"1186668":{"ref":"Мурманск — Новороссийск","name":"Мурманск — Новороссийск","type":"route","route":"train","name:de":"Murmansk — Noworossijsk","name:en":"Murmansk — Novorossiysk","name:ru":"Мурманск — Новороссийск"},"1186670":{"to":"Санкт-Петербург-Ладожский","ref":"Мурманск — Санкт-Петербург","from":"Мурманск","name":"Мурманск — Санкт-Петербург","type":"route","route":"train","name:de":"Murmansk — Sankt Petersburg","name:en":"Murmansk — Saint Petersburg","name:ru":"Мурманск — Санкт-Петербург","name:uk":"Мурманськ - Санкт-Петербург","network":"national","public_transport:version":"2"},"1186671":{"to":"Москва-Октябрьская","ref":"015А","from":"Мурманск","name":"Поезд 015А «Арктика»: Мурманск → Москва","type":"route","route":"train","name:de":"Murmansk → Moskau","name:en":"Train 015А \\\"Arctica\\\": Murmansk → Moscow","name:uk":"Потяг 015А «Арктика»: Мурманськ → Москва","network":"РЖД","duration":"39:14:00","network:en":"RZD","network:ru":"РЖД","network:wikidata":"Q660770","public_transport:version":"2"},"1191274":{"ref":"Санкт-Петербург - Баку","name":"Санкт-Петербург - Баку","type":"route","route":"train"},"1191275":{"ref":"Санкт-Петербург - Ташкент","name":"Санкт-Петербург - Ташкент","type":"route","route":"train"},"1203025":{"ref":"Петрозаводск - Костомушка","name":"Петрозаводск - Костомушка","type":"route","route":"train"},"1203026":{"name":"Поезд: Санкт-Петербург => Костомукша","type":"route","route":"train","name:uk":"Поїзд: Санкт-Петербург => Костомукша","public_transport:version":"2"},"1203051":{"ref":"Янисъярви - Лодейное Поле","name":"Янисъярви - Лодейное Поле","type":"route","route":"train","name:fi":"Jänisjärvestä Lotinapeltoon","disused:type":"route","disused:route":"train"},"1203713":{"ref":"эл. Калининград - Советск","name":"эл. Калининград - Советск","type":"route","route":"train"},"1206457":{"to":"Светогорск","ref":"Выборг - Светогорск","from":"Выборг","name":"Выборг - Светогорск","type":"disused:route","route":"train","network":"РЖД","network:en":"RZD","network:ru":"РЖД","disused:route":"train","network:wikidata":"Q660770","network:wikipedia":"ru:Российские железные дороги","public_transport:version":"2"},"1207204":{"to":"Зеленогорск","ref":"Выборг - Зеленогорск","from":"Выборг","name":"Поезд: Выборг - Зеленогорск","type":"route","route":"train","name:de":"Wyborg - Selenogorsk","name:en":"Vyborg - Zelenogorsk","name:fi":"Viipuri - Terijoki","operator":"АО \\\"СЗППК\\\"","public_transport:version":"2"},"1207458":{"to":"Хийтола","ref":"Выборг - Хийтола","from":"Выборг","name":"Поезд: Выборг => Хийтола","type":"route","route":"train","public_transport:version":"2"},"1207869":{"ref":"Псков - Луга","name":"Псков - Луга","type":"route","route":"train"},"1207888":{"to":"Луга","ref":"=>Луга","from":"Санкт-Петербург-Балтийский","name":"Пригородный электропоезд: Балтийский вокзал => Луга","type":"route","route":"train","name:de":"St Petersburg - Luga","name:en":"St Petersburg - Luga","name:uk":"Приміський електропоїзд: Балтійський вокзал => Луга","operator":"АО «СЗППК»","public_transport:version":"2"},"1207890":{"to":"Мшинская","ref":"=>Мшинская","from":"Санкт-Петербург-Балтийский","name":"Пригородный электропоезд: Балтийский вокзал => Мшинская","type":"route","route":"train","name:de":"St Petersburg - Mschinskaja","name:en":"St Petersburg - Mshinskaya","name:uk":"Приміський електропоїзд: Балтійський вокзал => Мшинська","operator":"АО «СЗППК»","public_transport:version":"2"},"1207891":{"to":"Санкт-Петербург-Балтийский","ref":"<=Строганово","from":"Строганово","name":"Пригородный электропоезд: Строганово => Балтийский вокзал","type":"route","route":"train","name:de":"Stroganowo - St Petersburg","name:en":"Stroganovo - St Petersburg","name:uk":"Приміський електропоїзд: Строганове => Балтійський вокзал","operator":"АО «СЗППК»","public_transport:version":"2"},"1284882":{"to":"Каринторф","ref":"Каринская УЖД","from":"ТЭЦ","name":"Каринская УЖД","note":"пассажирская УЖД","type":"route","route":"train"},"1284883":{"to":"ТЭЦ","ref":"Каринская УЖД","from":"Каринторф","name":"Каринская УЖД","note":"пассажирская УЖД","type":"route","route":"train"},"1400503":{"to":"Москва (Ярославский вокзал)","from":"Монино","name":"Монино — Москва","type":"route","route":"train","name:uk":"Моніно - Москва"},"1400504":{"to":"Москва (Ярославский вокзал)","from":"Фрязево","name":"Фрязево — Москва","type":"route","route":"train","name:uk":"Фрязево - Москва"},"1400736":{"to":"Москва (Ярославский вокзал)","from":"Щёлково","name":"Щёлково — Москва","type":"route","route":"train","name:uk":"Щілково - Москва"},"1403406":{"to":"Москва (Ярославский вокзал)","from":"Фрязино","name":"Фрязино — Москва","type":"route","route":"train","name:uk":"Фрязіно - Москва"},"1403484":{"to":"Москва (Ярославский вокзал)","from":"Королёв (станция «Болшево»)","name":"Поезд: Спутник Болшево — Москва","type":"route","route":"train","name:uk":"Поїзд Супутник Болшево — Москва"},"1493099":{"ref":"Ржев - Вязьма","name":"Ржев - Вязьма","type":"route","route":"train","name:de":"Rschew - Wjasma","name:ru":"Ржев - Вязьма","operator":"ЦППК"},"1639086":{"ref":"Лабытнанги - Москва","name":"Лабытнанги - Москва","type":"route","route":"train","source":"Bing","name:pl":"Łabytnangi - Moskwa"},"1639087":{"ref":"Лабытнанги - Воркута","name":"Лабытнанги — Воркута","type":"route","route":"train"},"1639192":{"ref":"Адлер - Воркута","name":"Адлер - Воркута","type":"route","route":"train"},"1639255":{"ref":"Baku → Rostov-on-Don","name":"Баку → Ростов-на-Дону","type":"route","route":"train","name:ru":"Баку → Ростов-на-Дону","public_transport:version":"2"},"1647603":{"ref":"Москва — Астана","name":"Москва — Астана","type":"route","route":"train","public_transport:version":"2"},"1657176":{"to":"Южно-Сахалинск","ref":"002Э","from":"Ноглики","name":"Фирменный поезд «Сахалин» № 2: Ноглики — Южно-Сахалинск","type":"route","route":"train","name:de":"Nogliki - Juschno-Sachalinsk","network":"regional","operator":"ПК «Сахалин»","public_transport:version":"2"},"1753879":{"ref":"Свободненская ДЖД","name":"Свободненская ДЖД","type":"route","route":"train"},"1757290":{"ref":"Фаянсовая — Сухиничи","name":"Фаянсовая — Сухиничи","type":"route","route":"train"},"1757291":{"ref":"Фаянсовая - Людиново - Брянск","name":"Фаянсовая - Людиново - Брянск","type":"route","route":"train"},"1757295":{"ref":"Брянск-Орловский - Унеча - Новозыбков","name":"Брянск-Орловский - Унеча - Новозыбков","type":"route","route":"train"},"1757300":{"ref":"Москва - Климов","name":"Москва — Климов","type":"route","route":"train","name:uk":"Москва - Климов","network":"train","operator":"ОАО «РЖД»"},"1757305":{"name":"Брэст - Гомель - Масква","type":"route","route":"train","name:be":"Брэст - Гомель - Масква","name:ru":"Брест - Гомель - Москва","name:uk":"Брест – Гомель – Москва","public_transport:version":"2"},"1757353":{"ref":"Тверь => Торжок","name":"Пригородный электропоезд: Тверь => Торжок","type":"route","fixme":"добавить остановки","route":"train","operator":"АО «МТППК»","public_transport:version":"2"},"1757569":{"to":"Рыбинск-Пассажирский","ref":"602Я","from":"Восточный вокзал","name":"Поезд 602Я: Москва — Рыбинск","type":"route","route":"train","name:uk":"Москва - Рибінськ","network":"РЖД","operator":"ФПК","network:en":"RZD","network:ru":"РЖД","network:wikidata":"Q660770","network:wikipedia":"ru:Российские железные дороги","public_transport:version":"2"},"1757587":{"to":"Сонково","ref":"6696","from":"Бологое-Московское","name":"Пригородный поезд: Бологое => Сонково","type":"route","route":"train","network":"РЖД","operator":"Московско-Тверская пригородная пассажирская компания","network:en":"RZD","network:ru":"РЖД","network:wikidata":"Q660770","network:wikipedia":"ru:Российские железные дороги","public_transport:version":"2"},"1758056":{"ref":"036Э","name":"Поезд № 036Э \\\"Нижегородец\\\": Москва Ярославская - Нижний Новгород","type":"route","route":"train","name:uk":"Потяг № 036Е \\\"Нижегородець\\\": Москва Ярославська - Нижній Новгород"},"1758077":{"ref":"007Е;008Е","name":"Москва Ярославская — Пермь","type":"route","route":"train","name:uk":"Москва Ярославська - Перм"},"1758656":{"ref":"055/056 Москва — Красноярск","name":"055/056 Москва — Красноярск","type":"route","route":"train","name:de":"055/056 Moskau — Krasnojarsk","name:ru":"055/056 Москва — Красноярск","name:uk":"055/056 Москва - Красноярськ","operator":"Российские железные дороги","public_transport:version":"1"},"1758704":{"to":"Абакан","ref":"657 Красноярск - Уяр - Абакан","from":"Красноярск","name":"657 Красноярск - Уяр - Абакан","type":"route","route":"train","name:de":"657 Krasnojarsk - Ujar - Abakan","operator":"Российские железные дороги","public_transport:version":"2"},"1758724":{"ref":"659 Красноярск — Ачинск — Абакан","name":"659 Красноярск — Ачинск — Абакан","type":"route","route":"train","source":"Bing","name:de":"659 Krasnojarsk — Atschinsk — Abakan","name:ru":"659 Красноярск — Ачинск — Абакан","operator":"Российские железные дороги","public_transport:version":"2"},"1762578":{"ref":"Александров - Поварово-3","name":"Александров - Поварово-3","type":"route","route":"train"},"1762765":{"to":"Аэропорт-Домодедово","ref":"A","from":"Москва-Павелецкая","name":"Аэроэкспресс: Москва -> Аэропорт-Домодедово","type":"route","route":"train","colour":"#DC143C","name:en":"Aeroexpress: Moscow -> Domodedovo Airport","name:uk":"Аероекспрес: Москва -> Аеропорт-Домодєдово","network":"Аэроэкспресс","interval":"30","operator":"ОАО «Аэроэкспресс»","wikidata":"Q118587129","network:en":"Aeroexpress","opening_hours":"Mo-Su 05:30-00:10","network:wikidata":"Q4073726","public_transport:version":"2"},"1767813":{"to":"Балашиха","ref":"Курский вокзал => Балашиха","from":"Москва-Курская","name":"Пригородный электропоезд: Москва => Балашиха","type":"route","route":"train","name:uk":"Приміський електропоїзд: Москва => Балашиха","network":"РЖД","not:network:wikidata":"Q660770","public_transport:version":"2"},"1767814":{"to":"Захарово","via":"Фрязево","from":"Москва-Курская","name":"Москва-Курская — Захарово","type":"route","route":"train","name:uk":"Москва-Курська - Захарове","network":"Горьковское направление пригородных поездов","duration":"100:00","operator":"ЦППК"},"1835688":{"to":"Аэропорт Внуково","ref":"A","from":"Москва","name":"Аэроэкспресс: Москва -> Аэропорт Внуково","type":"route","route":"train","colour":"#DC143C","name:en":"Aeroexpress: Moscow -> Vnukovo Airport","name:uk":"Аероекспрес: Москва -> Аеропорт Внуково","network":"Аэроэкспресс","interval":"30","operator":"ОАО «Аэроэкспресс»","wikidata":"Q118577041","network:en":"Aeroexpress","opening_hours":"Mo-Su 05:30-00:10","network:wikidata":"Q4073726","public_transport:version":"2"},"1835763":{"ref":"Детково - Поварово II","name":"Детково - Поварово II","type":"route","route":"train","operator":"ОАО ЦППК / ТЧ-20 Апрелевка"},"1856677":{"ref":"6111, 6115","name":"6111, 6115 Барнаул-Ребриха","type":"route","route":"train"},"1856678":{"ref":"6116, 6114","name":"6116, 6114 Ребриха-Барнаул","type":"route","route":"train"},"1864250":{"ref":"609E/610E","name":"609E/610E Екатеринбург - Устье-аха","type":"route","route":"train","operator":"Российские железные дороги"},"1929256":{"to":"Бусловская","ref":"Выборг=> Бусловская","from":"Выборг","name":"Поезд: Выборг - Бусловская","type":"route","route":"train","operator":"АО \\\"СЗППК\\\"","public_transport:version":"2"},"1955192":{"ref":"6089","name":"Томск - Тайга","type":"route","route":"train","symbol":"Томск 2 - Тайга 1","network":"regional","operator":"ООО \\\"Кузбасспригород\\\"","public_transport:version":"2"},"2023553":{"ref":"Луза - Сусоловка","name":"Луза - Сусоловка","type":"route","route":"train"},"2023568":{"ref":"Пинюг - Подосиновец","name":"Пинюг - Подосиновец","type":"route","route":"train"},"2030747":{"ref":"1","name":"Алапаевск - Санкино","type":"route","route":"train"},"2030748":{"ref":"3","name":"Санкино - Калач","type":"route","route":"train"},"2066074":{"ref":"Шилово — Касимов","name":"дизель-поезд Шилово — Касимов","type":"route","route":"train"},"2122809":{"to":"Чусовская","ref":"6168","from":"Калийная","name":"Поезд 6168, Калийная — Чусовская","type":"route","route":"train","network":"Отделение ж/д ПЕРМСКОЕ","operator":"Пермская пригородная компания","public_transport:version":"1"},"2122810":{"to":"Углеуральская","ref":"6904","from":"Калийная","name":"Поезд 6904, Калийная — Углеуральская","type":"route","route":"train","network":"Отделение ж/д ПЕРМСКОЕ","operator":"Пермская пригородная компания","public_transport:version":"1"},"2123732":{"to":"Соликамск-1","ref":"603Е","from":"Екатеринбург-Пасс.","name":"Поезд 603Е, Екатеринбург — Соликамск","type":"route","route":"train","network":"РЖД","operator":"РЖДСвердловская железная дорога - филиал ОАО «РЖД»","network:en":"RZD","network:ru":"РЖД","network:wikidata":"Q660770","network:wikipedia":"ru:Российские железные дороги","public_transport:version":"2"},"2123735":{"to":"Екатеринбург-Пасс.","ref":"604Е","from":"Соликамск-1","name":"Поезд 604Е, Соликамск - Екатеринбург","type":"route","route":"train","network":"РЖД","operator":"РЖД","network:en":"RZD","network:ru":"РЖД","network:wikidata":"Q660770","network:wikipedia":"ru:Российские железные дороги","public_transport:version":"2"},"2129653":{"to":"평양","from":"우쑤리스크","name":"우쑤리스크–평양","type":"route","route":"train","name:en":"Ussuriysk — Pyongyang","name:ko":"우쑤리스크–평양","name:ru":"Уссурийск — Пхеньян","network":"조선민주주의인민공화국 철도","operator":"조선민주주의인민공화국 철도성","public_transport:version":"1"},"2222091":{"ref":"6367","name":"Мурманск — Апатиты","type":"route","route":"train","operator":"Северо-западная пригородная пассажирская компания"},"2278403":{"to":"Егорьевск","ref":"Жилёво - Куровская","from":"Жилёво","name":"Жилёво — Куровская","type":"route","fixme":"Я уточнить станцию Воскресенск; проверьте плиз корректность марштута - действительно поезд меняет направление движения в Воскресенске и в том ли месте?","route":"train","network":"Московская область","public_transport:version":"2"},"2294487":{"to":"Воронеж","ref":"025Я","via":"Липецк","from":"Москва-Павелецкая","name":"Поезд 025Я: Москва → Воронеж","type":"route","route":"train","name:uk":"Потяг 025Я: Москва → Вороніж","network":"РЖД","network:en":"RZD","network:ru":"РЖД","network:wikidata":"Q660770","network:wikipedia":"ru:Российские железные дороги","public_transport:version":"2"},"2294528":{"to":"Рамонь","ref":"6639","via":"Графская","from":"Воронеж-1","name":"Поезд: Воронеж-1 - Рамонь","type":"route","route":"train","network":"РЖД","operator":"ППК \\\"Черноземье\\\"","public_transport:version":"2"},"2294754":{"ref":"029М","name":"Поезд 029М: Москва → Липецк","type":"route","route":"train","name:uk":"Потяг 029М: Москва → Липецьк","network":"РЖД","duration":"09:18:00","network:en":"RZD","network:ru":"РЖД","network:wikidata":"Q660770","network:wikipedia":"ru:Российские железные дороги","public_transport:version":"2"},"2296177":{"to":"Ярославль-Главный","ref":"Иваново - Ярославль","from":"Иваново","name":"Поезд: Иваново - Ярославль","type":"route","route":"train","network":"РЖД","operator":"Северная пригородная пассажирская компания","network:en":"RZD","network:ru":"РЖД","network:wikidata":"Q660770","network:wikipedia":"ru:Российские железные дороги","public_transport:version":"2"},"2296221":{"to":"Кинешма","ref":"Иваново - Кинешма","from":"Иваново","name":"Поезд: Иваново - Кинешма","type":"route","route":"train","network":"РЖД","operator":"Северная пригородная пассажирская компания","network:en":"RZD","network:ru":"РЖД","network:wikidata":"Q660770","network:wikipedia":"ru:Российские железные дороги","public_transport:version":"2"},"2296279":{"ref":"Иваново - Кинешма","name":"Поезд: Иваново - Ковров","type":"route","route":"train","network":"РЖД","operator":"Северная пригородная пассажирская компания"},"2299834":{"to":"Вихоревка","from":"Лена","name":"Лена — Вихоревка","type":"route","route":"train","network":"РЖД","operator":"ОАО \\\"РЖД\\\"","network:en":"RZD","network:ru":"РЖД","network:wikidata":"Q660770","network:wikipedia":"ru:Российские железные дороги","public_transport:version":"2"},"2302723":{"to":"Кинешма","ref":"Москва - Кинешма","from":"Москва-Ярославская","name":"Поезд № 674: Москва - Кинешма","type":"route","route":"train","name:uk":"Потяг № 674: Москва - Кінешма","network":"РЖД","operator":"ФПК","network:en":"RZD","network:ru":"РЖД","network:wikidata":"Q660770","network:wikipedia":"ru:Российские железные дороги","public_transport:version":"2"},"2302732":{"to":"Александров","ref":"6287","from":"Иваново","name":"Пригородный поезд № 6287: Иваново - Александров","type":"route","route":"train","network":"РЖД","operator":"Северная пригородная пассажирская компания","network:en":"RZD","network:ru":"РЖД","network:wikidata":"Q660770","network:wikipedia":"ru:Российские железные дороги","public_transport:version":"2"},"2308716":{"to":"Жарковский","ref":"6805","from":"Земцы","name":"Пригородный поезд № 6805: Земцы => Жарковский","note":"Самый медленный поезд России. 42 км за 3.5 часа","type":"route","route":"train","operator":"АО «МТППК»","public_transport:version":"2"},"2313086":{"ref":"Грозный - Гудермес","name":"Поезд Грозный - Гудермес","type":"route","route":"train","network":"РЖД","operator":"ФПК","network:en":"RZD","network:ru":"РЖД","network:wikidata":"Q660770","network:wikipedia":"ru:Российские железные дороги"},"2313087":{"to":"Кавказская","ref":"Ставрополь - Кавказская","from":"Ставрополь","name":"Поезд Ставрополь → Кавказская","type":"route","route":"train","network":"РЖД","operator":"ФПК","network:en":"RZD","network:ru":"РЖД","network:wikidata":"Q660770","public_transport:version":"2"},"2313103":{"ref":"Краснодар - Минеральные Воды","name":"Поезд Краснодар → Минеральные Воды","type":"route","route":"train","network":"РЖД","operator":"Кубань Экспресс-Пригород","network:en":"RZD","network:ru":"РЖД","network:wikidata":"Q660770","network:wikipedia":"ru:Российские железные дороги","public_transport:version":"2"},"2313618":{"ref":"Старый Оскол - Котёл","name":"Поезд Старый Оскол - Котёл","type":"route","route":"train","network":"РЖД","operator":"ППК \\\"Черноземье\\\""},"2314303":{"ref":"Окуловка - Неболчи","name":"Поезд Окуловка - Неболчи","type":"route","route":"train","network":"РЖД","operator":"Северо-западная пригородная пассажирская компания","network:en":"RZD","network:ru":"РЖД","network:wikidata":"Q660770","network:wikipedia":"ru:Российские железные дороги"},"2314311":{"ref":"Будогощь — Тихвин","name":"Поезд Будогощь — Тихвин","type":"route","route":"train","network":"РЖД","operator":"Северо-западная пригородная пассажирская компания","public_transport:version":"2"},"2314343":{"to":"Будогощь","ref":"6043/6044","from":"Волховстрой-1","name":"Электопоезд: Волховстрой-1 => Будогощь","type":"route","route":"train","operator":"АО «СЗППК»","public_transport:version":"2"},"2314378":{"to":"Чудово-Московское","ref":"6041/6042","from":"Волховстрой-1","name":"Электропоезд: Волховстрой-1 => Чудово-Московское","type":"route","route":"train","operator":"АО «СЗППК»","description":"Работает по средам, субботам и воскресеньям","public_transport:version":"2"},"2317706":{"ref":"6996","name":"Поезд 6996: Москва → Рязань-1","type":"route","route":"train","name:uk":"Потяг 6996: Москва → Рязань-1","network":"РЖД","operator":"Центральная пригородная пассажирская компания","network:en":"RZD","network:ru":"РЖД","network:wikidata":"Q660770","network:wikipedia":"ru:Российские железные дороги","public_transport:version":"2"},"2320310":{"ref":"Краснодар - Тихорецкая","name":"Поезд Краснодар → Тихорецкая","type":"route","route":"train","network":"РЖД","operator":"Кубань Экспресс-Пригород","network:en":"RZD","network:ru":"РЖД","network:wikidata":"Q660770","public_transport:version":"2"},"2322154":{"to":"Южно-Сахалинск","ref":"6202","from":"Томари","name":"Поезд № 6202: Томари — Южно-Сахалинск","type":"route","route":"train","network":"local","operator":"ПК «Сахалин»","public_transport:version":"2"},"2322192":{"ref":"Холмск - Южно-Сахалинск","name":"Холмск - Южно-Сахалинск","type":"route","route":"train"},"2322416":{"to":"Уссурийск","ref":"Владивосток — Уссурийск","from":"Владивосток","name":"Владивосток — Уссурийск","type":"route","route":"train","network":"РЖД","operator":"Экспресс Приморья"},"2322425":{"ref":"Мыс Чуркин — Раздольное","name":"Поезд: Мыс Чуркин — Раздольное","type":"route","route":"train","network":"РЖД","operator":"Экспресс Приморья","network:en":"RZD","network:ru":"РЖД","network:wikidata":"Q660770"},"2322445":{"to":"Партизанск","ref":"Владивосток — Партизанск","from":"Владивосток","name":"Владивосток — Партизанск","type":"route","route":"train","network":"РЖД","operator":"Экспресс Приморья","network:en":"RZD","network:ru":"РЖД","network:wikidata":"Q660770"},"2322448":{"to":"Тихоокеанская","ref":"Владивосток — Тихоокеанская","from":"Владивосток","name":"Владивосток — Тихоокеанская","type":"route","route":"train","network":"РЖД","operator":"Экспресс Приморья","network:en":"RZD","network:ru":"РЖД","network:wikidata":"Q660770"},"2322449":{"ref":"Партизанск - Мыс Астафьева","name":"Поезд: Партизанск - Мыс Астафьева","type":"route","route":"train","network":"РЖД","operator":"Экспресс Приморья","network:en":"RZD","network:ru":"РЖД","network:wikidata":"Q660770"},"2322520":{"ref":"Гродеково - Суйфынхэ","name":"Поезд: Гродеково - Суйфынхэ","type":"route","route":"train","network":"РЖД","operator":"ФПК"},"2323848":{"to":"Советская Гавань","ref":"351Э","from":"Владивосток","name":"Поезд 351Э: Владивосток → Советская Гавань","type":"route","route":"train","network":"РЖД","operator":"ФПК","network:en":"RZD","network:ru":"РЖД","network:wikidata":"Q660770","public_transport:version":"2"},"2326296":{"name":"Хабаровск - Облучье","type":"route","route":"train"},"2326381":{"name":"Хабаровск — Чегдомын","type":"route","route":"train"},"2326382":{"to":"Благовещенск","ref":"035Э","from":"Хабаровск","name":"Поезд 035Э: Хабаровск → Благовещенск","type":"route","route":"train","name:ru":"Поезд 035Э: Хабаровск → Благовещенск","public_transport:version":"2"},"2326386":{"ref":"363;364","name":"Поезд № 363/364: Комсомольск-на-Амуре — Тында","type":"route","route":"train","network":"РЖД","operator":"ФПК","network:en":"RZD","network:ru":"РЖД","network:wikidata":"Q660770","public_transport:version":"2"},"2326402":{"name":"Тында - Нерюнгри","type":"route","route":"train","network":"РЖД","operator":"ФПК","public_transport:version":"2"},"2326569":{"name":"Тында — Благовещенск","type":"route","route":"train","name:de":"Tynda — Blagoweschtschensk","name:en":"Tynda — Blagoveshchensk","name:ru":"Тында — Благовещенск","network":"РЖД","operator":"ФПК","network:en":"RZD","network:ru":"РЖД","network:wikidata":"Q660770"},"2326665":{"ref":"092И","name":"Москва — Северобайкальск","type":"route","fixme":"Нужны промежуточные остановки","route":"train","name:de":"Moskau — Sewerobaikalsk","name:en":"Moscow — Severobaykalsk","name:ru":"Москва — Северобайкальск","name:uk":"Москва — Північнобайкальськ","operator":"Российские железные дороги","public_transport:version":"2"},"2326735":{"to":"Северобайкальск","ref":"071И","from":"Улан-Удэ","name":"Поезд № 071И: Улан-Удэ — Северобайкальск","type":"route","route":"train","network":"РЖД","operator":"Федеральная пассажирская компания","network:en":"RZD","network:ru":"РЖД","network:wikidata":"Q660770","network:wikipedia":"ru:Российские железные дороги","public_transport:version":"2"},"2328711":{"to":"Чита","ref":"391Ч","from":"Благовещенск","name":"Поезд № 391Ч: Благовещенск — Чита","type":"route","route":"train","name:de":"Blagoweschtschensk — Tschita","name:en":"Blagoveshchensk — Chita","network":"РЖД","operator":"ФПК","network:en":"RZD","network:ru":"РЖД","network:wikidata":"Q660770","network:wikipedia":"ru:Российские железные дороги"},"2333672":{"name":"Тында - Лопча","type":"route","route":"train","network":"РЖД"},"2333967":{"to":"Усть-Илимск","ref":"609/610","from":"Тайшет","name":"609/610 Тайшет — Усть-Илимск","type":"route","route":"train","network":"РЖД","operator":"РЖД","network:en":"RZD","network:ru":"РЖД","network:wikidata":"Q660770","network:wikipedia":"ru:Российские железные дороги","public_transport:version":"2"},"2338202":{"to":"Оренбург","ref":"119","from":"Екатеринбург","name":"119 Екатеринбург — Оренбург","type":"route","route":"train","network":"РЖД","operator":"РЖД","network:en":"RZD","network:ru":"РЖД","network:wikidata":"Q660770","public_transport:version":"2"},"2340993":{"ref":"Красноярская ДЖД","name":"Красноярская детская железная дорога","type":"route","route":"train","state":"seasonal","network":"РЖД","wikidata":"Q4239222","wikipedia":"ru:Красноярская детская железная дорога","not:network:wikidata":"Q660770"},"2341020":{"ref":"117Н;118Е","name":"Поезд Москва Казанская → Новокузнецк","type":"route","fixme":"промежуточные станции","route":"train","name:uk":"Поїзд Москва Казанська → Новокузнецьк","network":"РЖД","operator":"ОАО \\\"РЖД\\\"","network:en":"RZD","network:ru":"РЖД","network:wikidata":"Q660770","network:wikipedia":"ru:Российские железные дороги","public_transport:version":"2"},"2342142":{"ref":"601","name":"Поезд 601: Новосибирск — Барнаул — Бийск","type":"route","route":"train","operator":"ОАО «РЖД»","public_transport:version":"2"},"2342340":{"to":"Уфа","ref":"331Й","from":"Новый Уренгой","name":"Поезд 331Й: Новый Уренгой — Уфа","type":"route","route":"train","network":"РЖД","operator":"ФПК","network:en":"RZD","network:ru":"РЖД","network:wikidata":"Q660770","network:wikipedia":"ru:Российские железные дороги","public_transport:version":"2"},"2342485":{"name":"Нижний Тагил - Егоршино","type":"route","route":"train"},"2342945":{"name":"Сосьва Новая—Егоршино","type":"route","route":"train"},"2342982":{"ref":"6983/6984","name":"Серов—Карпунино","type":"route","route":"train"},"2343825":{"to":"Приобье","ref":"337","from":"Екатеринбург-Пасс.","name":"Поезд 337: Екатеринбург—Приобье","type":"route","route":"train","network":"РЖД","operator":"ФПК","network:en":"RZD","network:ru":"РЖД","network:wikidata":"Q660770","network:wikipedia":"ru:Российские железные дороги"},"2343949":{"to":"Серов","ref":"6865/7430/7429","from":"Нижний Тагил","name":"Нижний Тагил—Серов","type":"route","route":"train","network":"РЖД","operator":"Свердловская пригородная компания","network:en":"RZD","network:ru":"РЖД","network:wikidata":"Q660770","network:wikipedia":"ru:Российские железные дороги"},"2343972":{"to":"Качканар","ref":"6881/6884","from":"Нижний Тагил","name":"Нижний Тагил — Качканар","type":"route","route":"train","network":"РЖД","operator":"Свердловская пригородная компания","network:en":"RZD","network:ru":"РЖД","network:wikidata":"Q660770","network:wikipedia":"ru:Российские железные дороги","public_transport:version":"1"},"2345955":{"to":"Чебоксары","ref":"054Г","from":"Москва-Пассажирская-Казанская","name":"Поезд 054Г \\\"Чувашия\\\": Москва Казанская → Чебоксары","type":"route","route":"train","source":"Bing","name:uk":"Потяг 054Г \\\"Чувашія\\\": Москва Казанська → Чебоксари","network":"РЖД","operator":"ОАО \\\"РЖД\\\"","network:en":"RZD","network:ru":"РЖД","network:wikidata":"Q660770","network:wikipedia":"ru:Российские железные дороги","public_transport:version":"2"},"2345960":{"to":"Йошкар-Ола","ref":"058Г","from":"Москва-Пассажирская-Казанская","name":"Поезд 058Г «Марий-Эл/Двухэтажный состав»: Москва Казанская → Йошкар-Ола","type":"route","route":"train","name:uk":"Потяг 058Г «Марій-Ел/Двоповерховий поїзд»: Москва Казанська → Йошкар-Ола","network":"РЖД","operator":"ОАО \\\"РЖД\\\"","wikidata":"Q4281425","network:en":"RZD","network:ru":"РЖД","network:wikidata":"Q660770","network:wikipedia":"ru:Российские железные дороги","public_transport:version":"2"},"2345961":{"ref":"Йошкар-Ола - Яранск","name":"Яранск","type":"route","route":"train","name:ja":"ヤランスク","network":"РЖД","operator":"ППК \\\"Содружество\\\"","network:en":"RZD","network:ru":"РЖД","network:wikidata":"Q660770","network:wikipedia":"ru:Российские железные дороги"},"2345971":{"to":"Круглое Поле","ref":"111М/112М","from":"Москва-Пассажирская-Казанская","name":"Поезд 111М/112М: Москва → Круглое Поле","type":"route","route":"train","name:uk":"Поїзд 111М/112М: Москва → Кругле Поле","network":"РЖД","operator":"ОАО \\\"РЖД\\\"","network:en":"RZD","network:ru":"РЖД","network:wikidata":"Q660770","network:wikipedia":"ru:Российские железные дороги","public_transport:version":"2"},"2345975":{"to":"Ижевск","ref":"026Г","from":"Москва-Пассажирская-Казанская","name":"Поезд 026Г «Италмас»: Москва Казанская → Ижевск","type":"route","route":"train","name:uk":"Потяг 026Г «Італмас»: Москва Казанська → Іжевськ","network":"РЖД","operator":"ФПК","network:en":"RZD","network:ru":"РЖД","network:wikidata":"Q660770","network:wikipedia":"ru:Российские железные дороги","public_transport:version":"2"},"2349134":{"to":"Жигулёвское море","from":"Самара","name":"Самара - Жигулёвское море","type":"route","route":"train"},"2349253":{"name":"Ульяновск - Сызрань","type":"route","route":"train","network":"РЖД","operator":"Башкирская ППК","public_transport:version":"2"},"2350756":{"ref":"368Г","name":"Поезд 368Г: Киров → Кисловодск","type":"route","route":"train","network":"РЖД","operator":"ОАО \\\"РЖД\\\"","network:en":"RZD","network:ru":"РЖД","network:wikidata":"Q660770","network:wikipedia":"ru:Российские железные дороги","public_transport:version":"2"},"2374560":{"to":"Казань","ref":"6322","from":"Волжск","name":"Поезд 6322: Волжск → Казань","type":"route","route":"train","network":"РЖД","duration":"01:34","operator":"ППК \\\"Содружество\\\"","network:en":"RZD","network:ru":"РЖД","network:wikidata":"Q660770","public_transport:version":"2"},"2374600":{"to":"Волгоград","ref":"605/606","from":"Астрахань","name":"Поезд 605/606: Астрахань → Волгоград","type":"route","route":"train","name:en":"Astrakhan → Volgograd","network":"РЖД","operator":"РЖД","network:en":"RZD","network:ru":"РЖД","network:wikidata":"Q660770","network:wikipedia":"ru:Российские железные дороги","public_transport:version":"2"},"2374628":{"name":"Тракторная-Пассажирская-Южная","type":"route","fixme":"Кто-то скопировал теги из жд путей, вообще вызывыает сомнение наличие этого отношения","route":"train","network":"РЖД","operator":"РЖД","network:en":"RZD","network:ru":"РЖД","network:wikidata":"Q660770","network:wikipedia":"ru:Российские железные дороги"},"2374646":{"to":"Камышин","ref":"379Й","from":"Москва-Павелецкая","name":"Поезд 379Й: Москва → Камышин","type":"route","route":"train","name:uk":"Потяг 379Й: Москва → Камишин","network":"РЖД","network:en":"RZD","network:ru":"РЖД","network:wikidata":"Q660770","network:wikipedia":"ru:Российские железные дороги","public_transport:version":"2"},"2449564":{"to":"Ладожское Озеро","from":"Санкт-Петербург-Финляндский","name":"Пригородный электропоезд: Финляндский вокзал => Ладожское Озеро","type":"route","route":"train","name:uk":"Приміський електропоїзд Фінляндський вокзал => Ладозьке Озеро","public_transport:version":"2"},"2449565":{"to":"Невская Дубровка","from":"Санкт-Петербург-Финляндский","name":"Пригородный электропоезд: Финляндский вокзал => Невская Дубровка","type":"route","route":"train","name:uk":"Приміський електропоїзд Фінляндський вокзал => Невська Дубрівка","public_transport:version":"2"},"2504082":{"to":"Новороссийск","ref":"677C","from":"Владикавказ","name":"Поезд 677С: Владикавказ → Новороссийск","type":"route","route":"train","network":"РЖД","operator":"РЖД","network:en":"RZD","network:ru":"РЖД","network:wikidata":"Q660770","network:wikipedia":"ru:Российские железные дороги","public_transport:version":"2"},"2504110":{"ref":"681/682","name":"Поезд 681/682: Назрань → Минеральные Воды","type":"route","route":"train","network":"РЖД","operator":"РЖД","network:en":"RZD","network:ru":"РЖД","network:wikidata":"Q660770","public_transport:version":"2"},"2504274":{"to":"Анапа","ref":"152М","from":"Москва-Пассажирская-Казанская","name":"Поезд 152М: Москва → Анапа","type":"route","route":"train","name:uk":"Потяг 152М: Москва → Анапа","network":"РЖД","duration":"25:10:00","operator":"АО «Федеральная пассажирская компания»","network:en":"RZD","network:ru":"РЖД","network:wikidata":"Q660770","network:wikipedia":"ru:Российские железные дороги","public_transport:version":"2"},"2527466":{"to":"Тёмкино","ref":"Калуга - Тёмкино","from":"Калуга-1, Калуга","name":"Калуга - Тёмкино","type":"route","route":"train","network":"local"},"2529252":{"to":"Пачелма","from":"Пенза","name":"Пенза — Пачелма","type":"route","route":"train","network":"РЖД","operator":"ОАО \\\"РЖД\\\"","public_transport:version":"2"},"2577545":{"to":"Самара","from":"Жигулёвское море","name":"Жигулёвское море - Самара","type":"route","route":"train"},"2595352":{"to":"Тольятти","from":"Жигулёвское море","name":"Жигулёвское море - Тольятти","type":"route","route":"train"},"2595353":{"to":"Жигулёвское море","from":"Тольятти","name":"Тольятти - Жигулёвское море","type":"route","route":"train"},"2595380":{"to":"Курумоч","from":"Аэропорт \\\"Курумоч\\\"","name":"Аэропорт \\\"Курумоч\\\" - Курумоч","type":"route","route":"train"},"2608376":{"ref":"Екатеринбург - Нейва-рудянская","name":"Екатеринбург - Нейва-рудянская","type":"route","route":"train","network":"regional"},"2618360":{"ref":"Екатеринбург-Каменск-Уральский","name":"Екатеринбург - Каменск-Уральский","type":"route","route":"train","network":"regional","operator":"СПК","description":"RZD"},"2632946":{"ref":"Екатеринбург-Нижняя","name":"Екатеринбург-Нижняя","type":"route","route":"train","network":"regional"},"2636429":{"ref":"Екатеринбург - Аэропорт Кольцово","name":"Екатеринбург - Аэропорт Кольцово","type":"route","route":"train","name:en":"Yekaterinburg-Passenger - Airport Koltsovo","name:ru":"Екатеринбург - Аэропорт Кольцово","network":"local","website":"https://www.svrpk.ru/schedule/4/25032013/1197/1/0/","operator":"СПК","network:ru":"РЖД"},"2637852":{"to":"Тула","from":"Калуга-1, Калуга","name":"Калуга — Тула","type":"route","route":"train","network":"РЖД","network:en":"RZD","network:ru":"РЖД","network:wikidata":"Q660770","network:wikipedia":"ru:Российские железные дороги"},"2637924":{"to":"Орёл","ref":"Брянск - Орёл","via":"Карачев","from":"Брянск","name":"Брянск - Лужки Орловские","type":"route","route":"train","network":"РЖД","operator":"РЖД","network:en":"RZD","network:ru":"РЖД","network:wikidata":"Q660770","network:wikipedia":"ru:Российские железные дороги","public_transport:version":"2"},"2637926":{"ref":"Орёл - Елец","name":"Лужки Орловские - Елец","type":"route","route":"train"},"2713002":{"to":"Архангельск","ref":"373Я","from":"Мурманск","name":"Поезд № 373Я: Мурманск — Архангельск","type":"route","route":"train","public_transport:version":"2"},"2811115":{"name":"Арчеда - Косарка","type":"route","route":"train"},"2834811":{"ref":"Бийск-Москва","name":"№ 658Н (прицепной вагон)","type":"route","route":"train","network":"РЖД"},"2834812":{"ref":"Бийск-Новый Уренгой","name":"664Е (прицепной вагон)","type":"route","route":"train"},"2834813":{"ref":"Бийск-Барнаул","name":"7012М (Восток)","type":"route","route":"train"},"2834814":{"ref":"Бийск - Барнаул","name":"№ 7010М (Калина красная)","type":"route","route":"train"},"2834815":{"ref":"Бийск-Чита","name":"№ 664Н (прицепной вагон)","type":"route","route":"train"},"2950595":{"name":"Moscow — Beijing","type":"route","route":"train","to:en":"Beijung","to:pl":"Pekin","to:ru":"Пекин","to:zh":"北京站","source":"bing","from:en":"Moscow","from:pl":"Moskwa","from:ru":"Москва","name:de":"Moskau — Peking","name:pl":"Mokswa - Pekin","name:uk":"Moscow - Beijing","name:zh":"莫斯科 - 北京"},"2981937":{"ref":"Малошуйка — Онега","name":"Малошуйка — Онега","type":"route","route":"train","public_transport:version":"1"},"2981938":{"ref":"6532","name":"Пригородный поезд: Обозерская => Онега","type":"route","route":"train","public_transport:version":"2"},"2981939":{"to":"Вологда","ref":"373Я","from":"Мурманск","name":"Поезд № 373Я: Мурманск — Вологда","type":"route","route":"train","network":"РЖД","network:en":"RZD","network:ru":"РЖД","network:wikidata":"Q660770","network:wikipedia":"ru:Российские железные дороги","public_transport:version":"2"},"3252908":{"name":"Шаховская - Серпухов","type":"route","route":"train","operator":"РЖД"},"3252910":{"name":"Серпухов-Шаховская","type":"route","route":"train"},"3255502":{"to":"Шереметьево","ref":"A","from":"Одинцово","name":"Аэроэкспресс: Одинцово -> Шереметьево","type":"route","route":"train","colour":"#DC143C","name:en":"Aeroexpress: Odintsovo -> Sheremetyevo","name:uk":"Аероекспрес: Одинцово -> Шереметьєво","network":"Аэроэкспресс","interval":"30","operator":"ОАО «Аэроэкспресс»","wikidata":"Q118582119","network:en":"Aeroexpress","opening_hours":"Mo-Su 05:30-00:10","network:wikidata":"Q4073726","public_transport:version":"2"},"3255503":{"to":"Одинцово","ref":"A","from":"Шереметьево","name":"Аэроэкспресс: Шереметьево -> Одинцово","type":"route","route":"train","colour":"#DC143C","name:en":"Aeroexpress: Sheremetyevo -> Odintsovo","name:uk":"Аероекспрес: Шереметьєво -> Одинцово","network":"Аэроэкспресс","interval":"30","operator":"ОАО «Аэроэкспресс»","wikidata":"Q118582119","network:en":"Aeroexpress","opening_hours":"Mo-Su 05:30-00:10","network:wikidata":"Q4073726","public_transport:version":"2"},"3346185":{"ref":"015","name":"Волгоград-Москва","type":"route","route":"train","operator":"ОАО \\\"РЖД\\\""},"3346186":{"ref":"001","name":"Волгоград-Москва","type":"route","route":"train","operator":"ОАО \\\"РЖД\\\""},"3422627":{"to":"Каменск-уральский","ref":"6256;6258","from":"Челябинск","name":"Поезд № 6256/6258: Челябинск - Каменск-Уральский","type":"route","route":"train","network":"regional","operator":"СПК","public_transport:version":"2"},"3480534":{"ref":"68Y Москва-Абакан","name":"Москва-Абакан","type":"route","route":"train","source":"reiseauskunft.bahn.de","int_name":"Moskva - Abakan"},"3481498":{"ref":"Санкт Петербург - Екатеринбург","name":"Санкт Петербург - Екатеринбург","type":"route","route":"train","name:uk":"Санкт Петербург - Єкатеринбург"},"3481717":{"ref":"99/100","name":"99/100 Владивосток-Кострома-Москва","type":"route","route":"train"},"3630027":{"to":"Восточный вокзал","ref":"601Я","from":"Рыбинск-Пассажирский","name":"Поезд 601Я: Рыбинск — Москва","type":"route","route":"train","name:uk":"Потяг 601Я: Рибінськ - Москва","network":"РЖД","network:en":"RZD","network:ru":"РЖД","network:wikidata":"Q660770","network:wikipedia":"ru:Российские железные дороги","public_transport:version":"2"},"3630043":{"to":"Сонково","ref":"6989","from":"Пестово","name":"Пестово — Сонково","type":"route","route":"train","network":"РЖД","network:en":"RZD","network:ru":"РЖД","network:wikidata":"Q660770","network:wikipedia":"ru:Российские железные дороги","public_transport:version":"2"},"3630044":{"to":"Пестово","ref":"6990","from":"Сонково","name":"Сонково — Пестово","type":"route","route":"train","network":"РЖД","network:en":"RZD","network:ru":"РЖД","network:wikidata":"Q660770","network:wikipedia":"ru:Российские железные дороги","public_transport:version":"2"},"3749915":{"to":"Волгоград 1","ref":"001И","from":"Москва-Пассажирская-Павелецкая","name":"Поезд 001И «Волгоград»: Москва → Волгоград","type":"route","route":"train","name:en":"Train 001I «Volgograd»: Moscow → Volgograd","name:uk":"Потяг 001І «Волгоград»: Москва → Волгоград","network":"РЖД","duration":"17:50:00","operator":"АО «Федеральная пассажирская компания»","network:en":"RZD","network:ru":"РЖД","network:wikidata":"Q660770","network:wikipedia":"ru:Российские железные дороги","public_transport:version":"2"},"3757386":{"to":"Озёры","from":"Голутвин","name":"Рельсовый автобус Голутвин - Озёры","type":"route","route":"train"},"3757387":{"to":"Голутвин","from":"Озёры","name":"Рельсовый автобус Озёры - Голутвин","type":"route","route":"train"},"3807704":{"to":"Москва-Курская","ref":"Балашиха=>Курский вокзал","from":"Балашиха","name":"Пригородный электропоезд: Балашиха => Москва","type":"route","route":"train","name:uk":"Приміський електропоїзд: Балашиха => Москва","network":"РЖД","duration":"00:45:00","not:network:wikidata":"Q660770","public_transport:version":"2"},"4137507":{"to":"Димитровград","ref":"6720","from":"Ульяновск","name":"Пригородный поезд 6720: Ульяновск — Димитровград","type":"route","route":"train","network":"РЖД","operator":"Башкортостанская ППК","network:en":"RZD","network:ru":"РЖД","network:wikidata":"Q660770","public_transport:version":"2"},"4139969":{"to":"Ульяновск","ref":"6719","from":"Димитровград","name":"Пригородный поезд 6719: Димитровград — Ульяновск","type":"route","route":"train","network":"РЖД","operator":"Башкортостанская ППК","network:en":"RZD","network:ru":"РЖД","network:wikidata":"Q660770","public_transport:version":"2"},"4215198":{"to":"Анапа","ref":"133Н","from":"Томск II","name":"Поезд 133Н: Томск → Анапа","type":"route","route":"train","network":"РЖД","operator":"ОАО \\\"РЖД\\\"","network:en":"RZD","network:ru":"РЖД","network:wikidata":"Q660770","network:wikipedia":"ru:Российские железные дороги","public_transport:version":"2"},"4440007":{"to":"Владивосток","ref":"351Й","from":"Советская Гавань","name":"Поезд 351Й: Советская Гавань → Владивосток","type":"route","route":"train","network":"РЖД","operator":"ФПК","network:en":"RZD","network:ru":"РЖД","network:wikidata":"Q660770","public_transport:version":"2"},"4488349":{"to":"Забайкальск","ref":"322И","from":"Иркутск","name":"Поезд № 322И: Иркутск — Забайкальск","type":"route","route":"train","network":"РЖД","operator":"ФПК","network:en":"RZD","network:ru":"РЖД","network:wikidata":"Q660770","network:wikipedia":"ru:Российские железные дороги"},"4504887":{"to":"Благовещенск","ref":"392Ч","from":"Чита","name":"Поезд № 392Ч: Чита — Благовещенск","type":"route","route":"train","name:de":"Tschita — Blagoweschtschensk","name:en":"Chita — Blagoveshchensk","network":"РЖД","operator":"ФПК","network:en":"RZD","network:ru":"РЖД","network:wikidata":"Q660770"},"4508735":{"to":"Улан-Удэ","ref":"072И","from":"Северобайкальск","name":"Поезд № 072И: Северобайкальск - Улан-Удэ","type":"route","route":"train","network":"РЖД","operator":"Федеральная пассажирская компания","network:en":"RZD","network:ru":"РЖД","network:wikidata":"Q660770","network:wikipedia":"ru:Российские железные дороги","public_transport:version":"2"},"4609458":{"to":"77 км пк9","ref":"6102","from":"Чехов-Сахалинский","name":"Поезд № 6102: Чехов — Николайчук","type":"route","route":"train","network":"local","operator":"ПК «Сахалин»","seasonal":"summer","public_transport:version":"2"},"4609459":{"to":"Чехов-Сахалинский","ref":"6103","from":"77 км пк9","name":"Поезд № 6103: Николайчук — Чехов","type":"route","route":"train","network":"local","operator":"ПК «Сахалин»","seasonal":"summer","public_transport:version":"2"},"4609460":{"to":"Холмск-Южный","ref":"6104","from":"Чехов-Сахалинский","name":"Поезд № 6104: Чехов — Холмск","type":"route","route":"train","network":"local","operator":"ПК «Сахалин»","public_transport:version":"2"},"4609462":{"to":"Холмск-Северный","ref":"6107","from":"77 км пк9","name":"Поезд № 6107: Николайчук — Холмск","type":"route","route":"train","operator":"ПК \\\"Сахалин\\\"","seasonal":"summer","official_name":"77 км пк9 — Холмск-Северный","public_transport:version":"2"},"4609465":{"to":"77км пк9","ref":"6110","from":"Томари","name":"Поезд № 6110: Томари — Николайчук","type":"route","route":"train","network":"local","operator":"ПК «Сахалин»","seasonal":"summer","public_transport:version":"2"},"4609466":{"to":"Томари","ref":"6111","from":"77км пк9","name":"Поезд № 6111: Николайчук — Томари","type":"route","route":"train","network":"local","operator":"ПК «Сахалин»","seasonal":"summer","public_transport:version":"2"},"4609467":{"to":"Холмск-Южный","ref":"6108","from":"Томари","name":"Поезд № 6108: Томари — Холмск","type":"route","route":"train","network":"local","operator":"ПК «Сахалин»","public_transport:version":"2"},"4630813":{"to":"Ноглики","ref":"001Э","from":"Южно-Сахалинск","name":"Фирменный поезд «Сахалин» № 1: Южно-Сахалинск — Ноглики","type":"route","route":"train","network":"regional","operator":"ПК «Сахалин»","public_transport:version":"2"},"4632645":{"to":"Новодеревенская","ref":"6001","from":"Дальнее","name":"Поезд № 6001: Дальнее — Новодеревенская","type":"route","route":"train","network":"local","operator":"ПК «Сахалин»","seasonal":"summer","public_transport:version":"2"},"4632646":{"to":"Южно-Сахалинск","ref":"6002","from":"Новодеревенская","name":"Поезд № 6002: Новодеревенская — Дальнее","type":"route","route":"train","network":"local","operator":"ПК «Сахалин»","seasonal":"summer","public_transport:version":"2"},"4632648":{"to":"Ноглики","ref":"603Ж","from":"Южно-Сахалинск","name":"Поезд № 603: Южно-Сахалинск — Ноглики","type":"route","route":"train","network":"regional","operator":"ПК «Сахалин»","public_transport:version":"2"},"4632649":{"to":"Южно-Сахалинск","ref":"604Э","from":"Ноглики","name":"Поезд № 604: Ноглики — Южно-Сахалинск","type":"route","route":"train","network":"regional","operator":"ПК «Сахалин»","public_transport:version":"2"},"4632650":{"to":"Победино-Сахалинское","ref":"6301","from":"Поронайск","name":"Поезд № 6301: Поронайск — Победино","type":"route","route":"train","network":"local","operator":"ПК «Сахалин»","seasonal":"summer","public_transport:version":"2"},"4632651":{"to":"Поронайск","ref":"6302","from":"Победино-Сахалинское","name":"Поезд № 6302: Победино — Поронайск","type":"route","route":"train","network":"local","operator":"ПК «Сахалин»","seasonal":"summer","public_transport:version":"2"},"4632653":{"to":"Южно-Сахалинск","ref":"6122","from":"Быков-Сахалинский","name":"Поезд № 6122: Быков — Южно-Сахалинск","type":"route","route":"train","network":"local","operator":"ПК «Сахалин»","public_transport:version":"2"},"4632654":{"to":"Томари","ref":"6201","from":"Южно-Сахалинск","name":"Поезд № 6201: Южно-Сахалинск — Томари","type":"route","route":"train","network":"local","operator":"ПК «Сахалин»","public_transport:version":"2"},"5246596":{"to":"Верхний Уфалей","ref":"Екатеринбург-пассажирский - Верхний Уфалей","from":"Екатеринбург-пассажирский","name":"Пригородный поезд: Екатеринбург-пассажирский - Верхний Уфалей","type":"route","route":"train","name:en":"Train: Ekaterinburg - Verhny Ufaley","network":"РЖД","service":"regional","vehicle":"train","operator":"СПК","network:en":"RZD","network:ru":"РЖД","network:wikidata":"Q660770","network:wikipedia":"ru:Российские железные дороги","public_transport:version":"2"},"5466207":{"to":"Пенза","from":"Ряжск","name":"Ряжск — Пенза","type":"route","route":"train","public_transport:version":"2"},"5578758":{"to":"Адлер","ref":"014Ж","from":"Саратов","name":"Поезд 014Ж: Саратов → Адлер","type":"route","route":"train","name:de":"14/13 Saratow → Adler","operator":"ОАО \\\"РЖД\\\"","public_transport:version":"2"},"5717996":{"to":"Сия","ref":"6560","from":"Архангельск-Город","name":"Поезд № 6560 Архангельск - Сия","type":"route","route":"train","operator":"ОАО \\\"Северная пригородная пассажирская компания\\\"","description":"Архангельск - Сия","public_transport:version":"2"},"5717998":{"to":"Архангельск-Город","ref":"6561","from":"Сия","name":"Поезд № 6561 Сия - Архангельск","type":"route","route":"train","operator":"ОАО \\\"Северная пригородная пассажирская компания\\\"","description":"Сия - Архангельск","public_transport:version":"2"},"5717999":{"to":"Архангельск-Город","ref":"667Я","from":"Карпогоры-Пассажирские","name":"Поезд № 667Я Карпогоры - Архангельск","type":"route","route":"train","operator":"РЖД","description":"Карпогоры - Архангельск","public_transport:version":"2"},"5718000":{"to":"Карпогоры-Пассажирские","ref":"668Я","from":"Архангельск-Город","name":"Поезд № 668Я Архангельск - Карпогоры","type":"route","route":"train","operator":"РЖД","description":"Архангельск - Карпогоры","public_transport:version":"2"},"5830100":{"name":"Киевская - Калининград Северный","type":"route","route":"train","network":"РЖД","operator":"РЖД","network:en":"RZD","network:ru":"РЖД","network:wikidata":"Q660770"},"5873771":{"to":"Южно-Сахалинск","ref":"6008","from":"Дальнее","name":"Поезд № 6008: Дальнее — Южно-Сахалинск","type":"route","route":"train","network":"local","operator":"ПК «Сахалин»","public_transport:version":"2"},"5873772":{"to":"Дальнее","ref":"6009","from":"Южно-Сахалинск","name":"Поезд № 6009: Южно-Сахалинск — Дальнее","type":"route","route":"train","network":"local","operator":"ПК «Сахалин»","public_transport:version":"2"},"5873773":{"to":"Южно-Сахалинск","ref":"6011","from":"Пять Углов","name":"Поезд № 6011: Пять Углов — Южно-Сахалинск","type":"route","route":"train","network":"local","operator":"ПК «Сахалин»","public_transport:version":"2"},"5873774":{"to":"Пять Углов","ref":"6013","from":"Южно-Сахалинск","name":"Поезд № 6013: Южно-Сахалинск — Пять Углов","type":"route","route":"train","network":"local","operator":"ПК «Сахалин»","public_transport:version":"2"},"5873775":{"to":"Южно-Сахалинск","ref":"6014","from":"Пять Углов","name":"Поезд № 6014: Пять Углов — Южно-Сахалинск","type":"route","route":"train","network":"local","operator":"ПК «Сахалин»","public_transport:version":"2"},"5873776":{"to":"Южно-Сахалинск","ref":"6021","from":"Пять Углов","name":"Поезд № 6021: Пять Углов — Южно-Сахалинск","type":"route","route":"train","network":"local","operator":"ПК «Сахалин»","public_transport:version":"2"},"5873777":{"to":"Пять Углов","ref":"6022","from":"Южно-Сахалинск","name":"Поезд № 6022: Южно-Сахалинск — Пять Углов","type":"route","route":"train","network":"local","operator":"ПК «Сахалин»","public_transport:version":"2"},"5873778":{"to":"Холмск-Южный","ref":"6102","from":"Чехов-Сахалинский","name":"Поезд № 6102: Чехов — Холмск","type":"route","route":"train","network":"local","operator":"ПК «Сахалин»","public_transport:version":"2"},"5873781":{"to":"Холмск-Южный","ref":"6106","from":"Чехов-Сахалинский","name":"Поезд № 6106: Чехов — Холмск","type":"route","route":"train","network":"local","operator":"ПК «Сахалин»","public_transport:version":"2"},"5873783":{"to":"Холмск-Южный","ref":"6110","from":"Томари","name":"Поезд № 6110: Томари — Холмск","type":"route","route":"train","network":"local","operator":"ПК «Сахалин»","public_transport:version":"2"},"5873784":{"to":"Томари","ref":"6203","from":"Южно-Сахалинск","name":"Поезд № 6203: Южно-Сахалинск — Томари","type":"route","route":"train","network":"local","operator":"ПК «Сахалин»","public_transport:version":"2"},"5873785":{"to":"Южно-Сахалинск","ref":"6204","from":"Томари","name":"Поезд № 6204: Томари — Южно-Сахалинск","type":"route","route":"train","network":"local","operator":"ПК «Сахалин»","public_transport:version":"2"},"5873786":{"to":"Тихая","ref":"6303","from":"Южно-Сахалинск","name":"Поезд № 6303: Южно-Сахалинск — Тихая","type":"route","route":"train","network":"local","operator":"ПК «Сахалин»","public_transport:version":"2"},"5873787":{"to":"Южно-Сахалинск","ref":"6304","from":"Тихая","name":"Поезд № 6304: Тихая — Южно-Сахалинск","type":"route","route":"train","network":"local","operator":"ПК «Сахалин»","public_transport:version":"2"},"5873788":{"to":"Поронайск","ref":"6305","from":"Тихая","name":"Поезд № 6305: Тихая — Поронайск","type":"route","route":"train","network":"local","operator":"ПК «Сахалин»","public_transport:version":"2"},"5873789":{"to":"Тихая","ref":"6306","from":"Поронайск","name":"Поезд № 6306: Поронайск — Тихая","type":"route","route":"train","network":"local","operator":"ПК «Сахалин»","public_transport:version":"2"},"6069108":{"to":"Инза","ref":"6713","from":"Ульяновск Центральный","name":"Ульяновск — Инза","type":"route","route":"train","network":"Куйбышевская железная дорога","operator":"ОАО \\\"РЖД\\\"","public_transport:version":"2"},"6344114":{"name":"Бранск – Гомель","type":"route","route":"train","name:be":"Бранск – Гомель","name:ru":"Брянск - Гомель","name:uk":"Брянськ - Гомель","public_transport:version":"2"},"6344400":{"name":"Елец-Липецк","type":"route","route":"train"},"6344421":{"name":"Липецк - Грязи","type":"route","route":"train"},"6355325":{"to":"Обозерская","ref":"6523","from":"Архангельск","name":"Поезд № 6523: Архангельск — Обозерская","type":"route","route":"train","network":"local","public_transport:version":"2"},"6355326":{"to":"Архангельск-Город","ref":"6524","from":"Обозерская","name":"Поезд № 6524: Обозерская — Архангельск","type":"route","route":"train","network":"local","public_transport:version":"2"},"6360034":{"to":"Москва-Ярославская","ref":"233Я","from":"Архангельск-Город","name":"Поезд № 233Я: Архангельск — Москва","type":"route","route":"train","name:uk":"Потяг № 233Я: Архангельськ - Москва","network":"РЖД","network:en":"RZD","network:ru":"РЖД","network:wikidata":"Q660770","network:wikipedia":"ru:Российские железные дороги","public_transport:version":"2"},"6360035":{"to":"Архангельск-Город","ref":"234Ч","from":"Москва-Ярославская","name":"Поезд № 234Ч: Москва — Архангельск","type":"route","route":"train","name:uk":"Потяг № 234Ч: Москва — Архангельськ","network":"РЖД","network:en":"RZD","network:ru":"РЖД","network:wikidata":"Q660770","network:wikipedia":"ru:Российские железные дороги","public_transport:version":"2"},"6360037":{"to":"Котлас","ref":"371Ч","from":"Архангельск","name":"Поезд № 371Ч: Архангельск — Котлас","type":"route","route":"train","network":"ru:regional","public_transport:version":"2"},"6360038":{"to":"Архангельск","ref":"371Я","from":"Котлас","name":"Поезд № 371Я: Котлас — Архангельск","type":"route","route":"train","network":"ru:regional","public_transport:version":"2"},"6548266":{"to":"Лихоборы","ref":"14","from":"Лихоборы","name":"Московское Центральное Кольцо (против часовой)","type":"route","route":"train","colour":"red","name:fr":"Anneau central de Moscou (sens antihoraire)","name:uk":"Московське Центральне Кільце (проти вартовий)","network":"Московский метрополитен","int_name":"MCC ⥀","operator":"ОАО «РЖД»","wikidata":"Q26856861","roundtrip":"yes","short_name":"МЦК(против часовой)","colour:infill":"white","public_transport:version":"2"},"6548267":{"to":"Нижегородская","ref":"14","from":"Нижегородская","name":"Московское Центральное Кольцо (по часовой)","type":"route","route":"train","colour":"red","name:fr":"Anneau central de Moscou (sens horaire)","name:uk":"Московське Центральне Кільце (за годинниковою)","network":"Московский метрополитен","int_name":"MCC ⥁","operator":"ОАО «РЖД»","wikidata":"Q26856861","roundtrip":"yes","short_name":"МЦК(по часовой)","colour:infill":"white","public_transport:version":"2"},"6624107":{"ref":"6987/6988","name":"Серов—Сосьва","type":"route","route":"train","network":"regional","operator":"СППК"},"6704843":{"name":"Смоленское направление (Звенигородская ветка)","type":"route","route":"train","name:de":"Zwenigorod-Strecke","name:en":"Smolensk Direction Zvenigorod Branch","network":"Московская железная дорога","alt_name":"Белорусское направление"},"6704844":{"ref":"Усово - Москва","name":"Смоленское направление (Усовская ветка)","type":"route","route":"train","name:en":"Smolensk Direction Usovo Branch","name:uk":"Смоленський напрям (Усовська гілка)","network":"Московская железная дорога","alt_name":"Белорусское направление"},"6705475":{"ref":"8","name":"Угольная -- Ельничная","type":"route","route":"train","website":"https://rasp.yandex.ru/thread/7_1_9636900_g16_4?tt=suburban&departure=2016-11-16","operator":"МУП \\\"АУЖД\\\""},"6705476":{"ref":"8","name":"Ельничная -- Угольная","type":"route","route":"train","website":"https://rasp.yandex.ru/thread/8_0_9636901_g16_4?tt=suburban&departure=2016-11-16","operator":"МУП \\\"АУЖД\\\""},"6705477":{"ref":"8","name":"Строкинка -- Угольная","type":"route","route":"train","website":"https://rasp.yandex.ru/thread/8_0_9637013_g16_4?tt=suburban&departure=2016-11-16","operator":"МУП \\\"АУЖД\\\""},"6705478":{"ref":"7","name":"Угольная -- Строкинка","type":"route","route":"train","website":"https://rasp.yandex.ru/thread/7_0_9636900_g16_4?tt=suburban&departure=2016-11-16","operator":"МУП \\\"АУЖД\\\""},"6707694":{"to":"Великие Луки","ref":"677А/678А","from":"Санкт-Петербург-Ладожский","name":"Поезд № 677А/678А: Санкт-Петербург => Великие Луки","type":"route","route":"train","name:de":"St.-Petersburg - Dno","name:uk":"Потяг № 677А/678А: Санкт-Петербург => Великі Луки","network":"РЖД","duration":"09:00:00","operator":"АО «Федеральная пассажирская компания»","network:en":"RZD","network:ru":"РЖД","network:wikidata":"Q660770","network:wikipedia":"ru:Российские железные дороги","public_transport:version":"2"},"6707695":{"to":"Посёлок","ref":"=>Посёлок","from":"Санкт-Петербург-Витебский","name":"Пригородный электропоезд: Витебский вокзал => Посёлок","type":"route","route":"train","name:de":"St Petersburg - Posjolok","name:en":"St Petersburg - Pos'yolok","name:ru":"Пригородный электропоезд: Витебский вокзал => Посёлок","name:uk":"Приміський електропоїзд: Вітебський вокзал => Село","operator":"АО «СЗППК»","public_transport:version":"2"},"6707962":{"to":"Новгород-на-Волхове","ref":"=>Великий Новгород","from":"Санкт-Петербург-Витебский","name":"Пригородный поезд: Витебский вокзал => Великий Новгород","type":"route","route":"train","name:ru":"Пригородный поезд: Витебский вокзал => Великий Новгород","name:uk":"Приміський поїзд: Вітебський вокзал => Великий Новгород","operator":"АО «СЗППК»","public_transport:version":"2"},"6759690":{"name":"Детская железная дорога","type":"route","route":"train","colour":"#FF0000","operator":"Российские железные дороги"},"6772014":{"to":"Износки","ref":"Вязьма - Износки","from":"Вязьма","name":"Вязьма - Износки","type":"route","route":"train"},"6772128":{"ref":"Смоленск → Ельня","name":"Смоленск Центральный - Ельня","type":"route","route":"train"},"6772257":{"ref":"Фаянсовая - Ельня","name":"Фаянсовая - Ельня","type":"route","route":"train"},"6772258":{"ref":"Сухиничи - Спас-Деменск -","name":"Сухиничи-Узловые - Спас-Деменск","type":"route","route":"train"},"6772259":{"ref":"Сухиничи - Козельск","name":"Сухиничи-Главные - Козельск","type":"route","route":"train"},"6772595":{"ref":"Ряжск - Черепеть","name":"Ряжск-1 → Черепеть","type":"route","route":"train","public_transport:version":"2"},"6772616":{"ref":"Урванка - Ряжск","name":"Урванка - Ряжск-1","type":"route","route":"train"},"6880723":{"ref":"Комсомольск-на-Амуре","name":"Комсомольск-на-Амуре","type":"route","route":"train"},"6971164":{"to":"Глушково","ref":"Курск - Глушково","via":"Льгов, Коренево","from":"Курск","name":"Курск - Глушково","type":"route","route":"train","public_transport:version":"2"},"6971201":{"to":"Белгород","ref":"6209","from":"Курск","name":"Поезд: Курск — Белгород","type":"route","route":"train","public_transport:version":"2"},"6971641":{"to":"Старый Оскол","ref":"Пристень - Старый Оскол","via":"Губкин","from":"Пристень","name":"Пристень - Старый Оскол","type":"route","route":"train"},"6971727":{"to":"Нежеголь","ref":"Белгород - Нежеголь","from":"Белгород","name":"Белгород - Нежеголь","type":"route","route":"train"},"7088581":{"ref":"6614","name":"6614 Чернышков <—> Волгоград 1","type":"route","route":"train","toilets":"yes","duration":"4:25:00","operator":"ВолгоградТрансПригород","passenger":"suburban","public_transport:version":"2"},"7088734":{"ref":"6915/6 Морозовская <—> Лихая","name":"6915/6 Морозовская <—> Лихая","type":"route","route":"train"},"7089016":{"ref":"Петров Вал — Волгоград","name":"Поезд Петров Вал → Волгоград","type":"route","route":"train","public_transport:version":"2"},"7090798":{"ref":"Саратов — Овражная","name":"6048 Саратов-1 Пасс — Овражная","type":"route","route":"train"},"7130043":{"ref":"6404","name":"Валуйки → Алексеевка","type":"route","route":"train"},"7130293":{"ref":"6404","name":"Валуйки → Алексеевка","type":"route","route":"train"},"7130294":{"ref":"6377","name":"Лиски — Алексеевка","type":"route","route":"train"},"7133595":{"ref":"6394","name":"Лиски → Таловая","type":"route","route":"train"},"7161326":{"to":"Петропавловск","ref":"823","from":"Омск","name":"Поезд №823: Омск — Петропавловск","type":"route","route":"train","operator":"РЖД","public_transport:version":"2"},"7173436":{"ref":"Готня - Хотмыжск","name":"Готня - Хотмыжск","type":"route","route":"train"},"7173437":{"ref":"Белгород - Готня","name":"Белгород - Готня","type":"route","route":"train"},"7173518":{"ref":"Старый Оскол - Валуйки","name":"Старый Оскол - Валуйки","type":"route","route":"train"},"7173592":{"ref":"Старый Оскол → Набережное","name":"Старый Оскол → Набережное","type":"route","route":"train"},"7173593":{"ref":"Елец - Касторная","name":"Елец - Касторная-Новая","type":"route","route":"train"},"7176093":{"to":"Поворино","ref":"Таловая - Поворино","from":"Таловая","name":"Таловая - Поворино","type":"route","route":"train"},"7329375":{"name":"ЖД Беломорск-Обозерская","type":"route","route":"train","operator":"ОАО \\\"РЖД\\\""},"7416975":{"to":"Кисловодск","ref":"113/114","from":"Челябинск","name":"113/114 Челябинск - Кисловодск","note":"маршрут незавершен","type":"route","route":"train","operator":"РЖД","public_transport:version":"1"},"7698832":{"ref":"602","name":"Поезд 602: Бийск — Барнаул — Новосибирск","type":"route","route":"train","operator":"ОАО «РЖД»","public_transport:version":"2"},"7717882":{"to":"Черепаново","ref":"7102","from":"Барнаул","name":"Электропоезд №7102: Барнаул — Черепаново","type":"route","route":"train","description":"Ускоренный электропоезд №7102 «Барнаул — Черепаново», согласованный с №7104 «Черепаново — Новосибирск»","public_transport:version":"2"},"7718713":{"to":"Красный Боец","ref":"6006","from":"Барнаул","name":"Электропоезд №6006: Барнаул — Красный Боец","type":"route","route":"train","public_transport:version":"2"},"7809470":{"ref":"030C","name":"Поезд 030С «Премиум»: Москва → Новороссийск","type":"route","fixme":"остановки","route":"train","name:en":"Moscow → Novorossiysk","name:uk":"Потяг 030С \\\"Преміум\\\": Москва → Новоросійськ","public_transport:version":"2"},"7836428":{"to":"Лихая","ref":"6155","from":"Ростов-Главный","name":"Поезд 6155: Ростов-Главный => Лихая","type":"route","route":"train","network":"РЖД","operator":"Северо-Кавказская пригородная пассажирская компания","network:en":"RZD","network:ru":"РЖД","network:wikidata":"Q660770","network:wikipedia":"ru:Российские железные дороги","public_transport:version":"2"},"7837262":{"to":"Таганрог-II","ref":"6070","from":"Ростов - Пригородный","name":"Ростов-Главный — Таганрог-2","type":"route","route":"train","network":"РЖД","operator":"Северо-Кавказская пригородная пассажирская компания","public_transport:version":"2"},"8370380":{"to":"Санкт-Петербург-Главный","ref":"004А","from":"Москва-Пассажирская","name":"Поезд 004А «Экспресс»: Москва → Санкт-Петербург","type":"route","route":"train","oneway":"yes","name:uk":"Потяг 004А «Експрес»: Москва → Санкт-Петербург","network":"Октябрьская железная дорога","operator":"Российские железные дороги","network:en":"Oktyabrskaya Railway","network:ru":"Октябрьская железная дорога","network:wikidata":"Q1327441","public_transport:version":"2"},"8370381":{"to":"Москва-Октябрьская","ref":"751А","from":"Санкт-Петербург-Главный","name":"Скоростной поезд 751А «Сапсан»: Санкт-Петербург → Москва","type":"route","route":"train","oneway":"yes","name:uk":"Швидкісний поїзд 751А «Сапсан»: Санкт-Петербург → Москва","network":"Октябрьская железная дорога","duration":"03:45:00","operator":"Российские железные дороги","network:en":"Oktyabrskaya Railway","network:ru":"Октябрьская железная дорога","network:wikidata":"Q1327441","public_transport:version":"2"},"8371535":{"to":"Санкт-Петербург-Главный","ref":"002А","from":"Москва-Пассажирская","name":"Поезд 002А «Красная стрела»: Москва → Санкт-Петербург","type":"route","route":"train","oneway":"yes","name:uk":"Потяг 002А «Червона стріла»: Москва → Санкт-Петербург","network":"Октябрьская железная дорога","operator":"Российские железные дороги","network:en":"Oktyabrskaya Railway","network:ru":"Октябрьская железная дорога","network:wikidata":"Q1327441","public_transport:version":"2"},"8371536":{"to":"Москва-Октябрьская","ref":"003А","from":"Санкт-Петербург-Главный","name":"Поезд 003А «Экспресс»: Санкт-Петербург → Москва","type":"route","route":"train","oneway":"yes","name:uk":"Потяг 003А «Експрес»: Санкт-Петербург → Москва","network":"Октябрьская железная дорога","duration":"09:00:00","operator":"Российские железные дороги","network:en":"Oktyabrskaya Railway","network:ru":"Октябрьская железная дорога","network:wikidata":"Q1327441","public_transport:version":"2"},"8371543":{"to":"Санкт-Петербург-Главный","ref":"006А","via":"Тверь","from":"Москва-Пассажирская","name":"Поезд 006А (двухэтажный): Москва → Санкт-Петербург","type":"route","route":"train","oneway":"yes","name:uk":"Поїзд 006А (двоповерховий): Москва → Санкт-Петербург","network":"Октябрьская железная дорога","operator":"Российские железные дороги","network:en":"Oktyabrskaya Railway","network:ru":"Октябрьская железная дорога","network:wikidata":"Q1327441","public_transport:version":"2"},"8371544":{"to":"Москва-Октябрьская","ref":"005А","via":"Тверь","from":"Санкт-Петербург-Главный","name":"Поезд 005А (двухэтажный): Санкт-Петербург → Москва","type":"route","route":"train","oneway":"yes","name:uk":"Поїзд 005А (двоповерховий): Санкт-Петербург → Москва","network":"Октябрьская железная дорога","duration":"08:05:00","operator":"Российские железные дороги","network:en":"Oktyabrskaya Railway","network:ru":"Октябрьская железная дорога","network:wikidata":"Q1327441","public_transport:version":"2"},"8371547":{"to":"Санкт-Петербург-Главный","ref":"008А","via":"Тверь","from":"Москва-Пассажирская","name":"Поезд 008А (двухэтажный): Москва → Санкт-Петербург","type":"route","route":"train","oneway":"yes","name:uk":"Поїзд 008А (двоповерховий): Москва → Санкт-Петербург","network":"Октябрьская железная дорога","operator":"Российские железные дороги","network:en":"Oktyabrskaya Railway","network:ru":"Октябрьская железная дорога","network:wikidata":"Q1327441","public_transport:version":"2"},"8371548":{"to":"Москва-Октябрьская","ref":"007А","via":"Тверь","from":"Санкт-Петербург-Главный","name":"Поезд 007А (двухэтажный): Санкт-Петербург → Москва","type":"route","route":"train","oneway":"yes","name:uk":"Поїзд 007А (двоповерховий): Санкт-Петербург → Москва","network":"Октябрьская железная дорога","operator":"Российские железные дороги","network:en":"Oktyabrskaya Railway","network:ru":"Октябрьская железная дорога","network:wikidata":"Q1327441","public_transport:version":"2"},"8382148":{"to":"Владивосток","ref":"002Щ","from":"Москва-Ярославская","name":"Поезд 002Щ «Россия»: Москва → Владивосток","type":"route","route":"train","name:uk":"Потяг 002Щ «Росія»: Москва → Владивосток","network":"Транссибирская магистраль","operator":"Федеральная пассажирская компания","public_transport:version":"2"},"8382151":{"to":"Москва-Ярославская","ref":"001М","from":"Владивосток","name":"Поезд 001М «Россия»: Владивосток → Москва","type":"route","route":"train","name:uk":"Потяг 001М «Росія»: Владивосток → Москва","network":"Транссибирская магистраль","operator":"Федеральная пассажирская компания","public_transport:version":"2"},"8383441":{"to":"Москва-Октябрьская","ref":"010Ч","from":"Псков-Пассажирский","name":"Поезд 010Ч «Псков»: Псков → Москва","type":"route","route":"train","name:uk":"Потяг 010Ч «Псков»: Псков → Москва","network":"РЖД","operator":"АО «Федеральная пассажирская компания»","network:en":"RZD","network:ru":"РЖД","network:wikidata":"Q660770","network:wikipedia":"ru:Российские железные дороги","public_transport:version":"2"},"8383442":{"to":"Псков-Пассажирский","ref":"010А","from":"Москва-Пассажирская","name":"Поезд 010А «Псков»: Москва → Псков","type":"route","route":"train","name:uk":"Потяг 010А «Псков»: Москва → Псков","network":"РЖД","operator":"АО «Федеральная пассажирская компания»","network:en":"RZD","network:ru":"РЖД","network:wikidata":"Q660770","network:wikipedia":"ru:Российские железные дороги","public_transport:version":"2"},"8453297":{"to":"Белоостров","from":"Санкт-Петербург-Финляндский","name":"Пригородный электропоезд: Финляндский вокзал => Белоостров","type":"route","route":"train","name:uk":"Приміський електропоїзд Фінляндський вокзал => Білоострів","public_transport:version":"2"},"8571725":{"ref":"Уфимская_детская_железная_дорога","name":"Уфимская детская железная дорога","type":"route","route":"train","network":"ru:municipal","operator":"РЖД","seasonal":"summer","roundtrip":"yes","description":"Малая Уфимская детская железная дорога имени Героя Советского Союза В. П. Доброреза","public_transport:version":"2"},"8666665":{"to":"Красный Боец","ref":"6014","from":"Барнаул","name":"Электропоезд №6014: Барнаул — Озёрки","type":"route","route":"train","public_transport:version":"2"},"8666666":{"to":"Красный Боец","ref":"6012","from":"Барнаул","name":"Электропоезд №6012: Барнаул — Красный Боец","type":"route","route":"train","public_transport:version":"2"},"8666674":{"to":"Красный Боец","ref":"6006","from":"Барнаул","name":"Электропоезд №6010: Барнаул — Озёрки","type":"route","route":"train","public_transport:version":"2"},"8824405":{"name":"Нижегородская городская электричка","type":"route","route":"train","network":"Нижегородская городская электричка","operator":"Горьковская железная дорога","start_date":"2013","description":"Один из видов рельсового транспорта Нижнего Новгорода. Вместе с метрополитеном образует систему скоростного рельсового транспорта города. Состоит из двух линий — Сормовской и Приокской. Основана на базе ГЖД 24 июня 201","payment:cash":"yes","payment:cards":"yes","payment:debit_cards":"yes","payment:credit_cards":"yes","payment:telephone_cards":"yes"},"9643728":{"to":"Хабаровск","ref":"035Ч","from":"Благовещенск","name":"Поезд 035Ч: Благовещенск → Хабаровск","type":"route","route":"train","public_transport:version":"2"},"9984107":{"to":"Прохладная","ref":"6315","from":"Нальчик","name":"Электропоезд 6315: Нальчик → Прохладная","type":"route","route":"train","network":"Российские железные дороги","duration":"79","operator":"Северо-Кавказская пригородная пассажирская компания","departures":"17:55","reservation":"yes","public_transport:version":"2"},"10106863":{"to":"Минеральные Воды","ref":"6405","from":"Нальчик","name":"Электропоезд 6405: Нальчик → Минеральные Воды","type":"route","route":"train","network":"Российские железные дороги","duration":"177","operator":"Северо-Кавказская пригородная пассажирская компания","departures":"12:05","reservation":"yes","public_transport:version":"2"},"10106864":{"to":"Минеральные Воды","ref":"6311","from":"Нальчик","name":"Электропоезд 6311: Нальчик → Минеральные Воды","type":"route","route":"train","network":"Российские железные дороги","duration":"177","operator":"Северо-Кавказская пригородная пассажирская компания","departures":"08:00","reservation":"yes","public_transport:version":"2"},"10106865":{"to":"Нальчик","ref":"6318","from":"Прохладная","name":"Электропоезд 6318: Прохладная → Нальчик","type":"route","route":"train","network":"Российские железные дороги","duration":"78","operator":"Северо-Кавказская пригородная пассажирская компания","departures":"06:05","reservation":"yes","public_transport:version":"2"},"10309185":{"to":"Одинцово","ref":"D1","from":"Лобня","name":"Белорусско-Савёловский диаметр: Лобня => Одинцово","type":"route","route":"train","name:uk":"Білорусько-Савєловський діаметр: Лобня => Одинцово","network":"МЦД","alt_name":"МЦД-1: Лобня => Одинцово","public_transport:version":"2"},"10309186":{"to":"Лобня","ref":"D1","from":"Одинцово","name":"Белорусско-Савёловский диаметр: Одинцово => Лобня","type":"route","route":"train","name:uk":"Білорусько-Савєлівський діаметр: Одинцово => Лобня","network":"МЦД","alt_name":"МЦД-1: Одинцово => Лобня","public_transport:version":"2"},"10309306":{"to":"Подольск","ref":"D2","from":"Нахабино","name":"Курско-Рижский диаметр: Нахабино => Подольск","type":"route","route":"train","name:uk":"Курско-ризький діаметр: Нахабіне => Подільськ","network":"МЦД","alt_name":"МЦД-2: Нахабино => Подольск","duration":"2:03","public_transport:version":"2"},"10309307":{"to":"Нахабино","ref":"D2","from":"Подольск","name":"Курско-Рижский диаметр: Подольск => Нахабино","type":"route","route":"train","name:uk":"Курсько-Ризький діаметр: Подільськ => Нахабіне","network":"МЦД","alt_name":"МЦД-2: Подольск => Нахабино","duration":"2:07","public_transport:version":"2"},"10315787":{"to":"Москва","ref":"A","from":"Аэропорт Внуково","name":"Аэроэкспресс: Аэропорт Внуково -> Москва","type":"route","route":"train","colour":"#DC143C","name:en":"Aeroexpress: Vnukovo Airport -> Moscow","name:uk":"Аероекспрес: Аеропорт Внуково -> Москва","network":"Аэроэкспресс","interval":"30","operator":"ОАО «Аэроэкспресс»","wikidata":"Q118577041","network:en":"Aeroexpress","opening_hours":"Mo-Su 05:30-00:10","network:wikidata":"Q4073726","public_transport:version":"2"},"10315788":{"to":"Москва-Павелецкая","ref":"A","from":"Аэропорт-Домодедово","name":"Аэроэкспресс: Аэропорт-Домодедово -> Москва","type":"route","route":"train","colour":"#DC143C","name:en":"Aeroexpress: Domodedovo Airport -> Moscow","name:uk":"Аероекспрес: Аеропорт-Домодєдово -> Москва","network":"Аэроэкспресс","interval":"30","operator":"ОАО «Аэроэкспресс»","wikidata":"Q118587129","network:en":"Aeroexpress","opening_hours":"Mo-Su 05:30-00:10","network:wikidata":"Q4073726","public_transport:version":"2"},"10323146":{"to":"Москва-Пассажирская-Казанская","ref":"053Ж","from":"Чебоксары","name":"Поезд 053Ж \\\"Чувашия\\\": Чебоксары → Москва Казанская","type":"route","route":"train","source":"Bing","name:uk":"Потяг 053Ж \\\"Чувашія\\\": Чебоксари → Москва Казанська","network":"РЖД","operator":"ОАО \\\"РЖД\\\"","network:en":"RZD","network:ru":"РЖД","network:wikidata":"Q660770","network:wikipedia":"ru:Российские железные дороги","public_transport:version":"2"},"10592901":{"to":"Воронеж 1","ref":"740Ж","from":"Москва-Пассажирская-Казанская","name":"Поезд 740Ж «Дневной экспресс (двухэтажный)»: Москва → Воронеж","type":"route","route":"train","name:uk":"Поїзд 740Ж «Денний експрес (двоповерховий)»: Москва → Вороніж","network":"РЖД","duration":"06:25:00","operator":"АО «Федеральная пассажирская компания»","network:en":"RZD","network:ru":"РЖД","network:wikidata":"Q660770","network:wikipedia":"ru:Российские железные дороги","public_transport:version":"2"},"10795373":{"name":"Поезд: Волховстрой => Санкт-Петербург Главный","type":"route","route":"train","name:uk":"Поїзд: Волховбуд => Санкт-Петербург","operator":"АО «СЗППК»","public_transport:version":"2"},"10795374":{"name":"Санкт-Петербург Главный-Волховстрой","type":"route","fixme":"pyblic_transport = legasy","route":"train","name:uk":"Санкт-Петербург Головний-Волховбуд"},"10991568":{"to":"Строганово","ref":"=> Строганово","from":"Санкт-Петербург-Балтийский","name":"Пригородный электропоезд: Балтийский вокзал => Строганово","type":"route","route":"train","name:de":"St Petersburg - Stroganowo","name:en":"St Petersburg - Stroganovo","name:uk":"Приміський електропоїзд: Балтійський вокзал => Строганове","operator":"АО «СЗППК»","public_transport:version":"2"},"10992280":{"to":"Санкт-Петербург-Балтийский","ref":"<=Луга","from":"Луга","name":"Пригородный электропоезд: Луга => Балтийский вокзал","type":"route","route":"train","name:de":"Luga - St Petersburg","name:en":"Luga - St Petersburg","name:uk":"Приміський електропоїзд: Луга => Балтійський вокзал","operator":"АО «СЗППК»","public_transport:version":"2"},"11663495":{"to":"Симферополь","ref":"028Ч","from":"Москва-Пассажирская-Казанская","name":"Поезд 028Ч \\\"Таврия\\\": Москва → Симферополь","type":"route","route":"train","name:uk":"Потяг 028Ч \\\"Таврія\\\": Москва → Сімферополь","network":"КЖД","duration":"27:25:00","operator":"ТК «Гранд Сервис Экспресс»","public_transport:version":"2"},"11758128":{"to":"Москва-Ярославская","ref":"015Я","from":"Архангельск-Город","name":"Поезд № 015Я: Архангельск — Москва","type":"route","route":"train","name:uk":"Потяг № 015Я: Архангельськ - Москва","network":"РЖД","network:en":"RZD","network:ru":"РЖД","network:wikidata":"Q660770","network:wikipedia":"ru:Российские железные дороги","public_transport:version":"2"},"11900263":{"to":"Санкт-Петербург-Финляндский","from":"Белоостров","name":"Пригородный электропоезд: Белоостров => Финляндский вокзал","type":"route","route":"train","name:uk":"Приміський електропоїзд: Білоострів => Фінляндський вокзал","public_transport:version":"2"},"11922194":{"to":"Санкт-Петербург-Финляндский","ref":"<=Выборг","from":"Выборг","name":"Пригородный электропоезд: Выборг => Финляндский вокзал","type":"route","route":"train","name:de":"Wyborg - St Petersburg","name:en":"Vyborg - St Petersburg","name:fi":"Viipuri - Pietari","name:uk":"Приміський електропоїзд: Виборг => Фінляндський вокзал","operator":"АО \\\"СЗППК\\\"","public_transport:version":"2"},"11973296":{"to":"Санкт-Петербург-Финляндский","from":"Невская Дубровка","name":"Пригородный электропоезд: Невская Дубровка => Финляндский вокзал","type":"route","route":"train","name:uk":"Приміський електропоїзд: Невська Дубрівка => Фінляндський вокзал","public_transport:version":"2"},"11975626":{"to":"Санкт-Петербург-Финляндский","from":"Ладожское Озеро","name":"Пригородный электропоезд: Ладожское Озеро => Финляндский вокзал","type":"route","route":"train","name:uk":"Приміський електропоїзд: Ладозьке Озеро => Фінляндський вокзал","public_transport:version":"2"},"11998142":{"to":"Выборг","ref":"=>Выборг(через Приморск)","from":"Санкт-Петербург-Финляндский","name":"Пригородный поезд: Финляндский вокзал => Выборг (через Приморск)","type":"route","route":"train","name:de":"St Petersburg - Wyborg(durch Primorsk)","name:en":"St Petersburg - Vyborg(via Primorsk)","name:fi":"Pietari - Viipuri(Primorskin kautta)","name:uk":"Приміський поїзд: Фінляндський вокзал => Виборг (через Приморськ)","operator":"АО \\\"СЗППК\\\"","public_transport:version":"2"},"11998674":{"to":"Выборг","ref":"=>Выборг","from":"Санкт-Петербург-Финляндский","name":"Пригородный электропоезд: Финляндский вокзал => Выборг","type":"route","route":"train","name:de":"St Petersburg - Wyborg","name:en":"St Petersburg - Vyborg","name:fi":"Pietari - Viipuri","name:uk":"Приміський електропоїзд Фінляндський вокзал => Виборг","public_transport:version":"2"},"11998982":{"to":"Кузнечное","ref":"=>Кузнечное","from":"Санкт-Петербург-Финляндский","name":"Пригородный электропоезд: Финляндский вокзал => Кузнечное","type":"route","route":"train","name:de":"St Petersburg - Kuznechnoye","name:en":"St Petersburg - Kuznechnoye","name:fi":"Pietari - Kaarlahti","name:uk":"Приміський електропоїзд Фінляндський вокзал => Ковальське","operator":"АО \\\"СЗППК\\\"","public_transport:version":"2"},"12001606":{"to":"Санкт-Петербург-Финляндский","ref":"<=Кузнечное","from":"Кузнечное","name":"Пригородный электропоезд: Кузнечное => Финляндский вокзал","type":"route","route":"train","name:de":"Kuznechnoye- St Petersburg","name:en":"Kuznechnoye- St Petersburg","name:fi":"Kaarlahti - Pietari","name:uk":"Приміський електропоїзд: Ковальське => Фінляндський вокзал","operator":"АО \\\"СЗППК\\\"","public_transport:version":"2"},"12001754":{"to":"Санкт-Петербург-Финляндский","ref":"<=Приозерск","from":"Приозерск","name":"Пригородный электропоезд: Приозерск => Финляндский вокзал","type":"route","route":"train","name:de":"Priosersk - St Petersburg","name:en":"Priozersk - St Petersburg","name:fi":"Käkisalmi - Pietari","name:uk":"Приміський електропоїзд: Приозерськ => Фінляндський вокзал","operator":"АО \\\"СЗППК\\\"","public_transport:version":"2"},"12001755":{"to":"Приозерск","ref":"=>Приозерск","from":"Санкт-Петербург-Финляндский","name":"Пригородный электропоезд: Финляндский вокзал => Приозерск","type":"route","route":"train","name:de":"St Petersburg - Priosersk","name:en":"St Petersburg - Priozersk","name:fi":"Pietari - Käkisalmi","name:uk":"Приміський електропоїзд Фінляндський вокзал => Приозерськ","operator":"АО \\\"СЗППК\\\"","public_transport:version":"2"},"12001790":{"to":"Санкт-Петербург-Финляндский","ref":"<=Сосново","from":"Сосново","name":"Пригородный электропоезд: Сосново => Финляндский вокзал","type":"route","route":"train","name:de":"Sosnowo - St Petersburg","name:en":"Sosnovo - St Petersburg","name:fi":"Rautu - Pietari","name:uk":"Приміський електропоїзд: Сосново => Фінляндський вокзал","operator":"АО \\\"СЗППК\\\"","public_transport:version":"2"},"12001791":{"to":"Сосново","ref":"=>Cосново","from":"Санкт-Петербург-Финляндский","name":"Пригородный электропоезд: Финляндский вокзал => Сосново","type":"route","route":"train","name:de":"St Petersburg - Sosnowo","name:en":"St Petersburg - Sosnovo","name:fi":"Pietari - Rautu","name:uk":"Приміський електропоїзд Фінляндський вокзал => Сосново","operator":"АО \\\"СЗППК\\\"","public_transport:version":"2"},"12004726":{"to":"Девяткино","from":"Сосново","name":"Поезд: Сосново => Девяткино","type":"route","route":"train","public_transport:version":"2"},"12417631":{"to":"Выборг","ref":"Хийтола - Выборг","from":"Хийтола","name":"Поезд: Хийтола => Выборг","type":"route","route":"train","public_transport:version":"2"},"12418060":{"to":"Кузнечное","from":"Сортавала","name":"Поезд: Сортавала => Кузнечное","type":"route","route":"train","public_transport:version":"2"},"12418061":{"to":"Сортавала","from":"Кузнечное","name":"Поезд: Кузнечное => Сортавала","type":"route","route":"train","public_transport:version":"2"},"12418126":{"to":"Горный парк «Рускеала»","ref":"921Ч","from":"Сортавала","name":"Поезд № 921 «Рускеальский экспресс»","type":"route","route":"train","alt_name":"Рускеальский экспресс","wikidata":"Q65124188","wikipedia":"ru:Рускеальский экспресс","public_transport:version":"2"},"12418127":{"to":"Горный парк «Рускеала»","ref":"923Ч","from":"Сортавала","name":"Поезд № 923 «Рускеальский экспресс»","type":"route","route":"train","alt_name":"Рускеальский экспресс","wikidata":"Q65124188","wikipedia":"ru:Рускеальский экспресс","public_transport:version":"2"},"12451046":{"to":"Санкт-Петербург-Балтийский","ref":"<=Калище","from":"Калище","name":"Пригородный электропоезд: Калище => Балтийский вокзал","type":"route","route":"train","name:de":"Kalischche - St Petersburg","name:en":"Kalishche - St Petersburg","name:uk":"Приміський електропоїзд: Калище => Балтійський вокзал","operator":"АО «СЗППК»","public_transport:version":"2"},"12451047":{"to":"Калище","ref":"=>Калище","from":"Санкт-Петербург-Балтийский","name":"Пригородный электропоезд: Балтийский вокзал => Калище","type":"route","route":"train","name:de":"St Petersburg - Kalischche","name:en":"St Petersburg - Kalishche","name:uk":"Приміський електропоїзд: Балтійський вокзал => Каліще","operator":"АО «СЗППК»","public_transport:version":"2"},"12456273":{"to":"Санкт-Петербург-Балтийский","ref":"<=Калище","from":"Ораниенбаум","name":"Пригородный электропоезд: Ораниенбаум => Балтийский вокзал","type":"route","route":"train","name:de":"Oranienbaum - St Petersburg","name:en":"Oranienbaum - St Petersburg","name:uk":"Приміський електропоїзд: Оранієнбаум => Балтійський вокзал","operator":"АО «СЗППК»","public_transport:version":"2"},"12456274":{"to":"Ораниенбаум","ref":"=> Ораниенбаум","from":"Санкт-Петербург-Балтийский","name":"Пригородный электропоезд: Балтийский вокзал => Ораниенбаум","type":"route","route":"train","name:de":"St Petersburg - Oranienbaum","name:en":"St Petersburg - Oranienbaum","name:uk":"Приміський електропоїзд: Балтійський вокзал => Оранієнбаум","operator":"АО «СЗППК»","public_transport:version":"2"},"12456400":{"to":"Санкт-Петербург-Балтийский","ref":"<=Гатчина Балтийская","from":"Гатчина-Балтийская Пассажирская","name":"Пригородный электропоезд: Гатчина-Балтийская => Балтийский вокзал","type":"route","route":"train","name:de":"Gatschina Baltikum - St Petersburg","name:en":"Gatschina Baltic - St Petersburg","name:uk":"Приміський електропоїзд: Гатчина-Балтійська => Балтійський вокзал","operator":"АО «СЗППК»","public_transport:version":"2"},"12456401":{"to":"Гатчина-Балтийская Пассажирская","ref":"=>Гатчина Балтийская","from":"Санкт-Петербург-Балтийский","name":"Пригородный электропоезд: Балтийский вокзал => Гатчина-Балтийская","type":"route","route":"train","name:de":"St Petersburg - Gatschina Baltikum","name:en":"St Petersburg - Gatschina Baltic","name:uk":"Приміський електропоїзд: Балтійський вокзал => Гатчина-Балтійська","operator":"АО «СЗППК»","public_transport:version":"2"},"13054622":{"to":"Toshkent shimoliy","ref":"381","from":"Уфа","name":"381 Уфа=>Toshkent","type":"route","route":"train","network":"УТЙ","description":"381 Уфа — Toshkent","public_transport:version":"2"},"13123160":{"to":"Казань-Пассажирская","from":"Аэропорт Казань","name":"Поезд : Аэропорт Казань → Казань-Пассажирская","type":"route","route":"train","duration":"28","operator":"ППК \\\"Содружество\\\"","public_transport:version":"2"},"13137896":{"to":"Жилёво","ref":"Куровская — Жилёво","from":"Егорьевск","name":"Куровская — Жилёво","type":"route","fixme":"Я уточнить станцию Воскресенск; проверьте плиз корректность марштута - действительно поезд меняет направление движения в Воскресенске и в том ли месте?","route":"train","network":"Московская область","public_transport:version":"2"},"13155295":{"to":"Екатеринбург","ref":"120","from":"Оренбург","name":"120 Оренбург — Екатеринбург","type":"route","route":"train","network":"РЖД","operator":"РЖД","network:en":"RZD","network:ru":"РЖД","network:wikidata":"Q660770","network:wikipedia":"ru:Российские железные дороги","public_transport:version":"2"},"13180340":{"to":"Москва-Пассажирская-Казанская","ref":"057Э","from":"Йошкар-Ола","name":"Поезд 057Э «Марий-Эл/Двухэтажный состав»: Йошкар-Ола → Москва Казанская","type":"route","route":"train","name:uk":"Потяг 057Е «Марій-Ел/Двоповерховий поїзд»: Йошкар-Ола → Москва Казанська","network":"РЖД","operator":"ОАО \\\"РЖД\\\"","wikidata":"Q4281425","network:en":"RZD","network:ru":"РЖД","network:wikidata":"Q660770","network:wikipedia":"ru:Российские железные дороги","public_transport:version":"2"},"13181673":{"to":"Курск","ref":"Глушково - Курск","via":"Льгов, Коренево","from":"Глушково","name":"Глушково - Курск","type":"route","route":"train","public_transport:version":"2"},"13237011":{"ref":"660 Абакан — Ачинск — Красноярск","name":"660 Абакан — Ачинск — Красноярск","type":"route","route":"train","source":"Bing","name:de":"660 Abakan — Atschinsk — Krasnojarsk","name:ru":"660 Абакан — Ачинск — Красноярск","operator":"Российские железные дороги","public_transport:version":"2"},"13237984":{"to":"Красноярск","ref":"658 Абакан - Уяр - Красноярск","from":"Абакан","name":"658 Абакан - Уяр - Красноярск","type":"route","route":"train","name:de":"658 Abakan - Ujar - Krasnojarsk","operator":"Российские железные дороги","public_transport:version":"2"},"13289392":{"to":"Воронеж-1","ref":"6156","via":"Графская","from":"Рамонь","name":"Поезд 6156: Рамонь - Воронеж-1","type":"route","route":"train","network":"РЖД","operator":"ППК \\\"Черноземье\\\"","public_transport:version":"2"},"13289393":{"to":"Рамонь","ref":"6155","via":"Графская","from":"Воронеж-1","name":"Поезд 6155: Воронеж-1 - Рамонь","note":"ретропоезд \\\"Графский поезд\\\"","type":"route","route":"train","network":"РЖД","operator":"ППК \\\"Черноземье\\\"","public_transport:version":"2"},"13289394":{"to":"Рамонь","ref":"6355;6361","via":"Графская","from":"Воронеж (пл. Плехановская)","name":"Поезд: Воронеж (пл. Плехановская) - Рамонь","type":"route","route":"train","network":"РЖД","operator":"ППК \\\"Черноземье\\\"","public_transport:version":"2"},"13289395":{"to":"Воронеж-1","ref":"6334;6648;6358","via":"Графская","from":"Рамонь","name":"Поезд: Рамонь - Воронеж-1","type":"route","route":"train","network":"РЖД","operator":"ППК \\\"Черноземье\\\"","public_transport:version":"2"},"13364029":{"to":"Новый Уренгой","ref":"332Й","from":"Уфа","name":"Поезд 332Й: Уфа — Новый Уренгой","type":"route","route":"train","network":"РЖД","operator":"ФПК","network:en":"RZD","network:ru":"РЖД","network:wikidata":"Q660770","network:wikipedia":"ru:Российские железные дороги","public_transport:version":"2"},"13423181":{"to":"Архангельск-Город","ref":"016М","from":"Москва-Ярославская","name":"Поезд № 016М: Москва — Архангельск","type":"route","route":"train","name:uk":"Потяг № 016М: Москва — Архангельськ","network":"РЖД","network:en":"RZD","network:ru":"РЖД","network:wikidata":"Q660770","network:wikipedia":"ru:Российские железные дороги","public_transport:version":"2"},"13533367":{"ref":"6805/6817/6820","name":"Поезд Волгоград 1 → Урюпино","type":"route","route":"train","duration":"06:41:00","operator":"ВолгоградТрансПригород","public_transport:version":"2"},"13533368":{"ref":"6517/6520","name":"Поезд 6517/6520: Арчеда → Урюпино","type":"route","route":"train","operator":"ВолгоградТрансПригород","public_transport:version":"2"},"14065824":{"to":"Сортавала","ref":"922Ч","from":"Горный парк «Рускеала»","name":"Поезд № 922 «Рускеальский экспресс»","type":"route","route":"train","alt_name":"Рускеальский экспресс","wikidata":"Q65124188","wikipedia":"ru:Рускеальский экспресс","public_transport:version":"2"},"14065825":{"to":"Сортавала","ref":"924Ч","from":"Горный парк «Рускеала»","name":"Поезд № 924 «Рускеальский экспресс»","type":"route","route":"train","alt_name":"Рускеальский экспресс","wikidata":"Q65124188","wikipedia":"ru:Рускеальский экспресс","public_transport:version":"2"},"14097941":{"name":"Томск - Новокузнецк","type":"route","route":"train"},"14104799":{"to":"Петрозаводск-Пассажирский","ref":"6374","from":"Свирь","name":"Электропоезд №6374: Свирь => Петрозаводск","type":"route","route":"train","operator":"АО \\\"СЗППК\\\"","public_transport:version":"2"},"14109083":{"name":"Тула - Узуново - Рязань","type":"route","route":"train"},"14333812":{"to":"Санкт-Петербург-Балтийский","ref":"<=Мшинская","from":"Мшинская","name":"Пригородный электропоезд: Мшинская => Балтийский вокзал","type":"route","route":"train","name:de":"Mschinskaja - St Petersburg","name:en":"Mshinskaya - St Petersburg","name:uk":"Приміський електропоїзд: Мшинська => Балтійський вокзал","operator":"АО «СЗППК»","public_transport:version":"2"},"14335071":{"to":"Зеленогорск","ref":"=>Зеленогорск","from":"Санкт-Петербург-Финляндский","name":"Пригородный электропоезд: Финляндский вокзал => Зеленогорск","type":"route","route":"train","name:de":"St Petersburg - Zelenogorsk","name:en":"St Petersburg - Zelenogorsk","name:fi":"Pietari - Terijoki","name:uk":"Приміський електропоїзд: Фінляндський вокзал => Зеленогірськ","operator":"АО \\\"СЗППК\\\"","public_transport:version":"2"},"14335072":{"to":"Выборг","ref":"Зеленогорск - Выборг","from":"Зеленогорск","name":"Поезд: Зеленогорск - Выборг","type":"route","route":"train","name:de":"Selenogorsk - Wyborg","name:en":"Zelenogorsk - Vyborg","name:fi":"Terijoki - Viipuri","operator":"АО \\\"СЗППК\\\"","public_transport:version":"2"},"14335227":{"to":"Санкт-Петербург-Витебский","ref":"<=Посёлок","from":"Посёлок","name":"Пригородный электропоезд: Посёлок => Витебский вокзал","type":"route","route":"train","name:de":"Posjolok - St Petersburg","name:en":"Pos'yolok- St Petersburg","name:ru":"Пригородный электропоезд: Посёлок => Витебский вокзал","name:uk":"Приміський електропоїзд: селище => Вітебський вокзал","operator":"АО «СЗППК»","public_transport:version":"2"},"14338267":{"to":"Tallinn","ref":"E33","from":"Narva","name":"Narva → Tallinn (Ekspress)","type":"route","route":"train","name:de":"Narwa → Reval (Express)","name:en":"Narwa → Reval (Express)","name:ru":"Нарва - Таллин(экспресс)","network":"Elron","operator":"AS Eesti Liinirongid","network:wikidata":"Q1326458","public_transport:version":"2"},"14338268":{"to":"Tallinn","ref":"RE33","from":"Narva","name":"Narva → Tallinn","type":"route","route":"train","name:de":"Narwa → Reval","name:ru":"Нарва - Таллин","network":"Elron","operator":"AS Eesti Liinirongid","network:wikidata":"Q1326458","public_transport:version":"2"},"14353434":{"to":"Санкт-Петербург-Финляндский","ref":"<=Сортавала","from":"Сортавала-Центр","name":"Поезд: Сортавала => Санкт-Петербург - Финляндский","type":"route","route":"train","name:de":"Sortawala - St Petersburg","name:en":"Sortavala - St Petersburg","name:fi":"Sortavala - Pietari","name:uk":"Поїзд: Сортавала => Санкт-Петербург - Фінляндський","public_transport:version":"2"},"14353435":{"to":"Сортавала-Центр","ref":"=>Сортавала","from":"Санкт-Петербург-Финляндский","name":"Пригородный электропоезд: Финляндский вокзал => Сортавала","type":"route","route":"train","name:de":"St Petersburg - Sortawala","name:en":"St Petersburg - Sortavala","name:fi":"Pietari - Sortavala","name:uk":"Приміський електропоїзд Фінляндський вокзал => Сортавала","public_transport:version":"2"},"14387121":{"to":"Санкт-Петербург-Витебский","ref":"<=Оредеж","from":"Оредеж","name":"Пригородный электропоезд: Оредеж => Витебский вокзал","type":"route","route":"train","name:de":"Oredezh - St Petersburg","name:en":"Oredesch- St Petersburg","name:ru":"Пригородный электропоезд: Оредеж => Витебский вокзал","name:uk":"Приміський електропоїзд: Оредіж => Вітебський вокзал","operator":"АО «СЗППК»","public_transport:version":"2"},"14387122":{"to":"Оредеж","ref":"=>Оредеж","from":"Санкт-Петербург-Витебский","name":"Пригородный электропоезд: Витебский вокзал => Оредеж","type":"route","route":"train","name:de":"St Petersburg - Posjolok","name:en":"St Petersburg - Oredesch","name:ru":"Пригородный электропоезд: Витебский вокзал => Оредеж","name:uk":"Приміський електропоїзд: Вітебський вокзал => Оредіж","operator":"АО «СЗППК»","public_transport:version":"2"},"14387757":{"to":"Санкт-Петербург-Витебский","ref":"<=Павловск","from":"Павловск","name":"Пригородный электропоезд: Павловск => Витебский вокзал","type":"route","route":"train","name:ru":"Пригородный электропоезд: Павловск => Витебский вокзал","name:uk":"Приміський електропоїзд: Павловськ => Вітебський вокзал","operator":"АО «СЗППК»","public_transport:version":"2"},"14387758":{"to":"Павловск","ref":"=>Павловск","from":"Санкт-Петербург-Витебский","name":"Пригородный электропоезд: Витебский вокзал => Павловск","type":"route","route":"train","name:ru":"Пригородный электропоезд: Витебский вокзал => Павловск","name:uk":"Приміський електропоїзд: Вітебський вокзал => Павловськ","operator":"АО «СЗППК»","public_transport:version":"2"},"14387759":{"to":"Санкт-Петербург-Витебский","ref":"<=Новолисино","from":"Новолисино","name":"Пригородный электропоезд: Новолисино => Витебский вокзал","type":"route","route":"train","name:ru":"Пригородный электропоезд: Новолисино => Витебский вокзал","name:uk":"Приміський електропоїзд: Новолісіне => Вітебський вокзал","operator":"АО «СЗППК»","public_transport:version":"2"},"14387760":{"to":"Новолисино","ref":"=>Новолисино","from":"Санкт-Петербург-Витебский","name":"Пригородный электропоезд: Витебский вокзал => Новолисино","type":"route","route":"train","name:ru":"Пригородный электропоезд: Витебский вокзал => Новолисино","name:uk":"Приміський електропоїзд: Вітебський вокзал => Новолісіне","operator":"АО «СЗППК»","public_transport:version":"2"},"14387970":{"to":"Сортавала","ref":"=>Сортавала","from":"Лодейное Поле","name":"Поезд: Лодейное Поле => Сортавала","type":"route","route":"train","public_transport:version":"2"},"14387971":{"to":"Лодейное Поле","ref":"=>Лодейное Поле","from":"Сортавала","name":"Поезд: Сортавала => Лодейное Поле","type":"route","route":"train","public_transport:version":"2"},"14459979":{"to":"Сланцы-Товарные","ref":"6673","from":"Санкт-Петербург-Балтийский","name":"Пригородный поезд № 6673: Санкт-Петербург => Сланцы","type":"route","route":"train","name:de":"St Petersburg - Slanzy","name:en":"St Petersburg - Slantsy","name:uk":"Приміський поїзд № 6673: Санкт-Петербург => Сланці","operator":"АО «СЗППК»","public_transport:version":"2"},"14472174":{"to":"Выборг","ref":"Бусловская => Выборг","from":"Бусловская","name":"Поезд: Бусловская - Выборг","type":"route","route":"train","operator":"АО \\\"СЗППК\\\"","public_transport:version":"2"},"14509718":{"name":"Нерюнгри - Тында","type":"route","route":"train","network":"РЖД","operator":"ФПК","public_transport:version":"2"},"14868714":{"to":"Санкт-Петербург-Главный","ref":"<=Любань","from":"Любань","name":"Поезд: Любань => Санкт-Петербург - Московский","type":"route","route":"train","name:uk":"Поїзд: Любань => Санкт-Петербург - Московський","operator":"АО \\\"СЗППК\\\"","public_transport:version":"2"},"14868715":{"to":"Любань","ref":"=>Любань","from":"Санкт-Петербург-Главный","name":"Поезд: Санкт-Петербург - Московский => Любань","type":"route","route":"train","name:uk":"Поїзд: Санкт-Петербург - Московський => Любань","operator":"АО \\\"СЗППК\\\"","public_transport:version":"2"},"14977714":{"to":"Канаш-1","ref":"6501","from":"Чебоксары","name":"Электричка 6501: Чебоксары => Канаш-1","type":"route","route":"train","source":"Bing","network":"РЖД","operator":"ОАО \\\"РЖД\\\"","network:en":"RZD","network:ru":"РЖД","network:wikidata":"Q660770","network:wikipedia":"ru:Российские железные дороги","public_transport:version":"2"},"15009968":{"to":"Кизнер","ref":"6371","from":"Ижевск","name":"Поезд 6371: Ижевск => Кизнер","type":"route","route":"train","public_transport:version":"2"},"15012294":{"to":"Ижевск","ref":"6372","from":"Кизнер","name":"Поезд 6372: Кизнер => Ижевск","type":"route","route":"train","public_transport:version":"2"},"15237605":{"name":"unbekannt","type":"route","route":"train"},"15267789":{"to":"Волховстрой-1","ref":"6048/6047","from":"Тигода","name":"Электропоезд: Тигода => Волховстрой-1","type":"route","route":"train","operator":"АО «СЗППК»","description":"Работает по понедельникам, вторникам, четвергам и пятницам","public_transport:version":"2"},"15267790":{"to":"Тигода","ref":"6041/6042","from":"Волховстрой-1","name":"Электропоезд: Волховстрой-1 => Тигода","type":"route","route":"train","operator":"АО «СЗППК»","description":"Работает по понедельникам, вторникам, четвергам и пятницам","public_transport:version":"2"},"15267791":{"to":"Волховстрой-1","ref":"6048/6047","from":"Чудово-Московское","name":"Электропоезд: Чудово-Московское => Волховстрой-1","type":"route","route":"train","operator":"АО «СЗППК»","description":"Работает по средам, субботам и воскресеньям","public_transport:version":"2"},"15267831":{"to":"Волховстрой-1","ref":"6045/6046","from":"Будогощь","name":"Электопоезд: Будогощь => Волховстрой-1","type":"route","route":"train","operator":"АО «СЗППК»","public_transport:version":"2"},"15297842":{"to":"Архангельск-Город","ref":"010А","from":"Санкт-Петербург-Ладожский","name":"Поезд № 010А: Санкт-Петербург — Архангельск","type":"route","route":"train","name:uk":"Потяг № 010А: Санкт-Петербург - Архангельськ","network":"РЖД","network:en":"RZD","network:ru":"РЖД","network:wikidata":"Q660770","network:wikipedia":"ru:Российские железные дороги","public_transport:version":"2"},"15328201":{"to":"Санкт-Петербург-Главный","ref":"<=Малая Вишера","from":"Малая Вишера","name":"Поезд: Малая Вишера => Санкт-Петербург - Московский","type":"route","route":"train","name:uk":"Поїзд: Мала Вішера => Санкт-Петербург - Московський","operator":"АО \\\"СЗППК\\\"","public_transport:version":"2"},"15328202":{"to":"Малая Вишера","ref":"=>Малая Вишера","from":"Санкт-Петербург-Главный","name":"Поезд: Санкт-Петербург - Московский => Малая Вишера","type":"route","route":"train","name:uk":"Поїзд: Санкт-Петербург - Московський => Мала Вішера","operator":"АО \\\"СЗППК\\\"","public_transport:version":"2"},"15402877":{"to":"Бологое-Московское","ref":"6695","from":"Сонково","name":"Пригородный поезд: Сонково => Бологое","type":"route","route":"train","network":"РЖД","operator":"Московско-Тверская пригородная пассажирская компания","network:en":"RZD","network:ru":"РЖД","network:wikidata":"Q660770","network:wikipedia":"ru:Российские железные дороги","public_transport:version":"2"},"15411938":{"to":"Санкт-Петербург-Главный","ref":"<=Шапки","from":"Шапки","name":"Поезд: Шапки => Санкт-Петербург - Московский","type":"route","route":"train","name:uk":"Поїзд: Шапки => Санкт-Петербург - Московський","operator":"АО \\\"СЗППК\\\"","public_transport:version":"2"},"15411942":{"to":"Шапки","ref":"=>Шапки","from":"Санкт-Петербург-Главный","name":"Поезд: Санкт-Петербург - Московский => Шапки","type":"route","route":"train","name:uk":"Поїзд: Санкт-Петербург - Московський => Шапки","operator":"АО \\\"СЗППК\\\"","public_transport:version":"2"},"15441930":{"ref":"367С","name":"Поезд 367С: Кисловодск → Киров","type":"route","route":"train","network":"РЖД","operator":"ОАО \\\"РЖД\\\"","network:en":"RZD","network:ru":"РЖД","network:wikidata":"Q660770","network:wikipedia":"ru:Российские железные дороги","public_transport:version":"2"},"15445084":{"to":"Прохладная","ref":"6439","from":"Владикавказ","name":"Электропоезд 6439: Владикавказ → Прохладная","type":"route","route":"train","network":"Российские железные дороги","duration":"02:44:00","operator":"Северо-Кавказская пригородная пассажирская компания","public_transport:version":"2"},"15445085":{"to":"Владикавказ","ref":"6440","from":"Прохладная","name":"Электропоезд 6440: Прохладная → Владикавказ","type":"route","route":"train","network":"Российские железные дороги","duration":"02:44:00","operator":"Северо-Кавказская пригородная пассажирская компания","public_transport:version":"2"},"15446133":{"to":"Москва-Октябрьская","ref":"769А","from":"Санкт-Петербург-Главный","name":"Скоростной поезд 769А «Сапсан»: Санкт-Петербург → Москва","type":"route","route":"train","oneway":"yes","name:uk":"Швидкісний поїзд 769А «Сапсан»: Санкт-Петербург → Москва","network":"Октябрьская железная дорога","duration":"04:00:00","operator":"Российские железные дороги","network:en":"Oktyabrskaya Railway","network:ru":"Октябрьская железная дорога","network:wikidata":"Q1327441","public_transport:version":"2"},"15446134":{"to":"Москва-Октябрьская","ref":"767А","from":"Санкт-Петербург-Главный","name":"Скоростной поезд 767А «Сапсан»: Санкт-Петербург → Москва","type":"route","route":"train","oneway":"yes","name:uk":"Швидкісний поїзд 767А «Сапсан»: Санкт-Петербург → Москва","network":"Октябрьская железная дорога","duration":"04:00:00","operator":"Российские железные дороги","network:en":"Oktyabrskaya Railway","network:ru":"Октябрьская железная дорога","network:wikidata":"Q1327441","public_transport:version":"2"},"15446135":{"to":"Москва-Октябрьская","ref":"761А","from":"Санкт-Петербург-Главный","name":"Скоростной поезд 761А «Сапсан»: Санкт-Петербург → Москва","type":"route","route":"train","oneway":"yes","name:uk":"Швидкісний поїзд 761А «Сапсан»: Санкт-Петербург → Москва","network":"Октябрьская железная дорога","duration":"03:55:00","operator":"Российские железные дороги","network:en":"Oktyabrskaya Railway","network:ru":"Октябрьская железная дорога","network:wikidata":"Q1327441","public_transport:version":"2"},"15446136":{"to":"Москва-Октябрьская","ref":"759А","from":"Санкт-Петербург-Главный","name":"Скоростной поезд 759А «Сапсан»: Санкт-Петербург → Москва","type":"route","route":"train","oneway":"yes","name:uk":"Швидкісний поїзд 759А «Сапсан»: Санкт-Петербург → Москва","network":"Октябрьская железная дорога","duration":"03:58:00","operator":"Российские железные дороги","network:en":"Oktyabrskaya Railway","network:ru":"Октябрьская железная дорога","network:wikidata":"Q1327441","public_transport:version":"2"},"15446137":{"to":"Москва-Октябрьская","ref":"747А","from":"Санкт-Петербург-Главный","name":"Скоростной поезд 747А «Невский экспресс»: Санкт-Петербург → Москва","type":"route","route":"train","oneway":"yes","name:uk":"Швидкісний поїзд 747А «Невський експрес»: Санкт-Петербург → Москва","network":"Октябрьская железная дорога","duration":"04:06:00","operator":"Российские железные дороги","network:en":"Oktyabrskaya Railway","network:ru":"Октябрьская железная дорога","network:wikidata":"Q1327441","public_transport:version":"2"},"15446138":{"to":"Москва-Октябрьская","ref":"755А","from":"Санкт-Петербург-Главный","name":"Скоростной поезд 755А «Сапсан»: Санкт-Петербург → Москва","type":"route","route":"train","oneway":"yes","name:uk":"Швидкісний поїзд 755А «Сапсан»: Санкт-Петербург → Москва","network":"Октябрьская железная дорога","duration":"04:06:00","operator":"Российские железные дороги","network:en":"Oktyabrskaya Railway","network:ru":"Октябрьская железная дорога","network:wikidata":"Q1327441","public_transport:version":"2"},"15446139":{"to":"Москва-Октябрьская","ref":"723Р","from":"Санкт-Петербург-Главный","name":"Поезд 723Р «Ласточка»: Санкт-Петербург → Москва","type":"route","route":"train","oneway":"yes","name:uk":"Потяг 723Р «Ластівка»: Санкт-Петербург → Москва","network":"Октябрьская железная дорога","duration":"05:36:00","operator":"Российские железные дороги","network:en":"Oktyabrskaya Railway","network:ru":"Октябрьская железная дорога","network:wikidata":"Q1327441","public_transport:version":"2"},"15446140":{"to":"Москва-Октябрьская","ref":"001А","from":"Санкт-Петербург-Главный","name":"Поезд 001А «Красная стрела»: Санкт-Петербург → Москва","type":"route","route":"train","oneway":"yes","name:uk":"Потяг 001А «Червона стріла»: Санкт-Петербург → Москва","network":"Октябрьская железная дорога","duration":"08:00:00","operator":"Российские железные дороги","network:en":"Oktyabrskaya Railway","network:ru":"Октябрьская железная дорога","network:wikidata":"Q1327441","public_transport:version":"2"},"15446280":{"to":"Валдай","ref":"821Я","from":"Санкт-Петербург-Главный","name":"Поезд № 821Я «Ласточка»: Санкт-Петербург — Валдай","type":"route","route":"train","oneway":"yes","name:uk":"Потяг № 821Я «Ластівка»: Санкт-Петербург — Валдай","network":"Октябрьская железная дорога","duration":"04:36:00","operator":"Российские железные дороги","public_transport:version":"2"},"15446391":{"to":"Новгород-на-Волхове","ref":"803М","from":"Санкт-Петербург-Главный","name":"Поезд № 803М «Ласточка»: Санкт-Петербург — Великий Новгород","type":"route","route":"train","oneway":"yes","name:uk":"Потяг № 803М «Ластівка»: Санкт-Петербург — Великий Новгород","network":"Октябрьская железная дорога","duration":"03:12:00","operator":"Российские железные дороги","network:en":"Oktyabrskaya Railway","network:ru":"Октябрьская железная дорога","network:wikidata":"Q1327441","public_transport:version":"2"},"15446392":{"to":"Новгород-на-Волхове","ref":"801А","from":"Санкт-Петербург-Главный","name":"Поезд № 801А «Ласточка»: Санкт-Петербург — Великий Новгород","type":"route","route":"train","oneway":"yes","name:uk":"Потяг № 801А «Ластівка»: Санкт-Петербург—Великий Новгород","network":"Октябрьская железная дорога","duration":"02:51:00","operator":"Российские железные дороги","network:en":"Oktyabrskaya Railway","network:ru":"Октябрьская железная дорога","network:wikidata":"Q1327441","public_transport:version":"2"},"15446424":{"to":"Москва-Октябрьская","ref":"042Ч","from":"Новгород-на-Волхове","name":"Поезд 042Ч «Легендарный Маресьев»: Великий Новгород → Москва","type":"route","route":"train","name:uk":"Потяг 042Ч «Легендарний Маресьєв»: Великий Новгород → Москва","network":"Октябрьская железная дорога","duration":"08:30:00","operator":"ФПК","network:en":"Oktyabrskaya Railway","network:ru":"Октябрьская железная дорога","network:wikidata":"Q1327441","public_transport:version":"2"},"15453980":{"to":"Печоры-Псковские","ref":"809Ч/813Я","from":"Санкт-Петербург-Балтийский","name":"Поезд № 809Ч/813Я «Ласточка»: Санкт-Петербург - Печоры-Псковские","type":"route","route":"train","name:de":"St Petersburg - Petseri","name:en":"St Petersburg - Pechory","name:uk":"Потяг № 809Ч/813Я «Ластівка»: Санкт-Петербург - Печори-Псковські","duration":"04:15:00","operator":"ОАО \\\"РЖД\\\"","public_transport:version":"2"},"15454010":{"to":"Псков-Пассажирский","ref":"809В/811В/813В/815Р","from":"Санкт-Петербург-Балтийский","name":"Поезд № 809В/811В/813В/815Р «Ласточка»: Санкт-Петербург - Псков","type":"route","route":"train","name:de":"St Petersburg - Pskow","name:en":"St Petersburg - Pskov","name:uk":"Потяг № 809В/811В/813В/815Р «Ластівка»: Санкт-Петербург – Псков","duration":"03:30:00","operator":"ОАО \\\"РЖД\\\"","public_transport:version":"2"},"15454109":{"to":"Санкт-Петербург-Балтийский","ref":"810В/812В/814В/816Я","from":"Псков-Пассажирский","name":"Поезд № 810В/812В/814В/816Я «Ласточка»: Псков - Санкт-Петербург","type":"route","route":"train","name:de":"Pskow - St Petersburg","name:en":"Pskov - St Petersburg","name:uk":"Потяг № 810В/812В/814В/816Я «Ластівка»: Псков - Санкт-Петербург","duration":"03:30:00","operator":"ОАО \\\"РЖД\\\"","public_transport:version":"2"},"15457033":{"to":"Санкт-Петербург-Ладожский","ref":"211А","from":"Петрозаводск-Пассажирский","name":"Поезд № 211А: Петрозаводск-Пассажирский => Санкт-Петербург, Ладожский вокзал","type":"route","route":"train","name:de":"Petrosawodsk - St Petersburg","name:en":"Petrozavodsk - St Petersburg","name:fi":"Petroskoi - Pietari","name:uk":"Поїзд № 211А: Петрозаводськ-Пасажирський => Санкт-Петербург, Ладозький вокзал","network":"РЖД","duration":"07:44:00","operator":"ОАО \\\"РЖД\\\"","network:en":"RZD","network:ru":"РЖД","network:wikidata":"Q660770","network:wikipedia":"ru:Российские железные дороги","public_transport:version":"2"},"15457034":{"to":"Санкт-Петербург-Ладожский","ref":"805Ч","from":"Петрозаводск-Пассажирский","name":"Поезд № 805Ч «Ласточка»: Петрозаводск-Пассажирский => Санкт-Петербург, Ладожский вокзал","type":"route","route":"train","name:de":"Petrosawodsk - St Petersburg","name:en":"Petrozavodsk - St Petersburg","name:fi":"Petroskoi - Pietari","name:uk":"Потяг № 805Ч «Ластівка»: Петрозаводськ-Пасажирський => Санкт-Петербург, Ладозький вокзал","network":"РЖД","duration":"04:59:00","operator":"ОАО \\\"РЖД\\\"","network:en":"RZD","network:ru":"РЖД","network:wikidata":"Q660770","network:wikipedia":"ru:Российские железные дороги","public_transport:version":"2"},"15457035":{"to":"Санкт-Петербург-Ладожский","ref":"803Ч","from":"Петрозаводск-Пассажирский","name":"Поезд № 803Ч «Ласточка»: Петрозаводск-Пассажирский => Санкт-Петербург, Ладожский вокзал","type":"route","route":"train","name:de":"Petrosawodsk - St Petersburg","name:en":"Petrozavodsk - St Petersburg","name:fi":"Petroskoi - Pietari","name:uk":"Потяг № 803Ч «Ластівка»: Петрозаводськ-Пасажирський => Санкт-Петербург, Ладозький вокзал","network":"РЖД","duration":"05:24:00","operator":"ОАО \\\"РЖД\\\"","network:en":"RZD","network:ru":"РЖД","network:wikidata":"Q660770","network:wikipedia":"ru:Российские железные дороги","public_transport:version":"2"},"15457059":{"to":"Петрозаводск-Пассажирский","ref":"212А","from":"Санкт-Петербург-Ладожский","name":"Поезд № 212А: Санкт-Петербург, Ладожский вокзал =Петрозаводск-Пассажирский","type":"route","route":"train","name:de":"St Petersburg - Petrosawodsk","name:en":"St Petersburg - Petrozavodsk","name:fi":"Pietari - Petroskoi","name:uk":"Потяг № 212А: Санкт-Петербург, Ладозький вокзал = Петрозаводськ-Пасажирський","network":"РЖД","duration":"07:30:00","operator":"ОАО \\\"РЖД\\\"","network:en":"RZD","network:ru":"РЖД","network:wikidata":"Q660770","network:wikipedia":"ru:Российские железные дороги","public_transport:version":"2"},"15457060":{"to":"Петрозаводск-Пассажирский","ref":"806Ч","from":"Санкт-Петербург-Ладожский","name":"Поезд № 806Ч «Ласточка»: Санкт-Петербург, Ладожский вокзал =Петрозаводск-Пассажирский","type":"route","route":"train","name:de":"St Petersburg - Petrosawodsk","name:en":"St Petersburg - Petrozavodsk","name:fi":"Pietari - Petroskoi","name:uk":"Потяг № 806Ч «Ластівка»: Санкт-Петербург, Ладозький вокзал = Петрозаводськ-Пасажирський","network":"РЖД","duration":"04:59:00","operator":"ОАО \\\"РЖД\\\"","network:en":"RZD","network:ru":"РЖД","network:wikidata":"Q660770","network:wikipedia":"ru:Российские железные дороги","public_transport:version":"2"},"15457061":{"to":"Петрозаводск-Пассажирский","ref":"804Ч","from":"Санкт-Петербург-Ладожский","name":"Поезд № 804Ч «Ласточка»: Санкт-Петербург, Ладожский вокзал =Петрозаводск-Пассажирский","type":"route","route":"train","name:de":"St Petersburg - Petrosawodsk","name:en":"St Petersburg - Petrozavodsk","name:fi":"Pietari - Petroskoi","name:uk":"Потяг № 804Ч «Ластівка»: Санкт-Петербург, Ладозький вокзал = Петрозаводськ-Пасажирський","network":"РЖД","duration":"05:25:00","operator":"ОАО \\\"РЖД\\\"","network:en":"RZD","network:ru":"РЖД","network:wikidata":"Q660770","network:wikipedia":"ru:Российские железные дороги","public_transport:version":"2"},"15457095":{"to":"Свирь","ref":"6373","from":"Петрозаводск-Пассажирский","name":"Электропоезд №6373: Петрозаводск => Свирь","type":"route","route":"train","operator":"АО \\\"СЗППК\\\"","public_transport:version":"2"},"15457117":{"to":"Псков-Пассажирский","ref":"вагон 015/677/010","from":"Мурманск","name":"Беспересадочный вагон 015А/677А/010А: Мурманск - Псков","type":"route","route":"train","name:de":"Murmansk — Pskow","name:en":"Murmansk — Pskov","name:uk":"Безпересадковий вагон 015А/677А/010А: Мурманськ - Псков","network":"РЖД","duration":"36:30:00","network:en":"RZD","network:ru":"РЖД","description":"Вагон следует в составе поездов 015 из Мурманска до Ладожского вокзала, далее с поездом 677 до станции Дно, далее с поездом 010 до Пскова. Следует из Мурманска во вторник, четверг и субботу","network:wikidata":"Q660770","public_transport:version":"2"},"15457260":{"to":"Псков-Пассажирский","ref":"819В","from":"Петрозаводск-Пассажирский","name":"Поезд № 819В «Ласточка»: Петрозаводск-Пассажирский => Псков","type":"route","route":"train","name:de":"Petrosawodsk - Pskow","name:en":"Petrozavodsk - Pskov","name:fi":"Petroskoi - Pihkova","network":"РЖД","duration":"11:27:00","operator":"ОАО \\\"РЖД\\\"","network:en":"RZD","network:ru":"РЖД","network:wikidata":"Q660770","network:wikipedia":"ru:Российские железные дороги","public_transport:version":"2"},"15458380":{"to":"Санкт-Петербург-Балтийский","ref":"6674","from":"Сланцы-Товарные","name":"Пригородный поезд № 6674: Сланцы => Санкт-Петербург","type":"route","route":"train","name:de":"Slanzy - St Petersburg","name:en":"Slantsy - St Petersburg","name:uk":"Приміський поїзд № 6674: Сланці => Санкт-Петербург","operator":"АО «СЗППК»","public_transport:version":"2"},"15458431":{"to":"Санкт-Петербург-Балтийский","ref":"6662","from":"Ивангород-Нарвский","name":"Пригородный поезд № 6662: Ивангород => Санкт-Петербург","type":"route","route":"train","name:de":"Iwangorod - St Petersburg","name:en":"Ivangorod - St Petersburg","name:uk":"Приміський поїзд №6662: Івангород => Санкт-Петербург","operator":"АО «СЗППК»","public_transport:version":"2"},"15458432":{"to":"Ивангород-Нарвский","ref":"6661","from":"Санкт-Петербург-Балтийский","name":"Пригородный поезд № 6661: Санкт-Петербург => Ивангород","type":"route","route":"train","name:de":"St Petersburg - Iwangorod","name:en":"St Petersburg - Ivangorod","name:uk":"Приміський поїзд № 6661: Санкт-Петербург => Івангород","operator":"АО «СЗППК»","public_transport:version":"2"},"15458658":{"to":"Санкт-Петербург-Балтийский","ref":"7452/7456","from":"Луга","name":"Пригородный электропоезд № 7452/7456 «Ласточка»: Луга => Балтийский вокзал","type":"route","route":"train","name:de":"Luga - St Petersburg","name:en":"Luga - St Petersburg","name:uk":"Приміський електропоїзд № 7452/7456 «Ластівка»: Луга => Балтійський вокзал","operator":"АО «СЗППК»","public_transport:version":"2"},"15458659":{"to":"Санкт-Петербург-Балтийский","ref":"7454","from":"Луга","name":"Пригородный электропоезд № 7454 «Ласточка»: Луга => Балтийский вокзал","type":"route","route":"train","name:de":"Luga - St Petersburg","name:en":"Luga - St Petersburg","name:uk":"Приміський електропоїзд № 7454 «Ластівка»: Луга => Балтійський вокзал","operator":"АО «СЗППК»","public_transport:version":"2"},"15458660":{"to":"Луга","ref":"7451/7453/7455","from":"Санкт-Петербург-Балтийский","name":"Пригородный электропоезд №7451/7453/7455 «Ласточка»: Балтийский вокзал => Луга","type":"route","route":"train","name:de":"St Petersburg - Luga","name:en":"St Petersburg - Luga","name:uk":"Приміський електропоїзд №7451/7453/7455 «Ластівка»: Балтійський вокзал => Луга","operator":"АО «СЗППК»","public_transport:version":"2"},"15459002":{"to":"Выборг","ref":"038А/037А","from":"Москва-Октябрьская","name":"Поезд 038А/037А: Москва → Выборг","type":"route","route":"train","name:de":"Moskau → Wyborg","name:en":"Moscow → Vyborg","name:fi":"Moskova → Viipuri","name:uk":"Потяг 038А/037А: Москва → Виборг","network":"РЖД","duration":"08:55:00","network:en":"RZD","network:ru":"РЖД","network:wikidata":"Q660770","public_transport:version":"2"},"15459003":{"to":"Москва-Октябрьская","ref":"038В/037В","from":"Выборг","name":"Поезд 038В/037В: Выборг → Москва","type":"route","route":"train","name:de":"Wyborg → Moskau","name:en":"Vyborg → Moscow","name:fi":"Viipuri → Moskova","name:uk":"Потяг 038В/037В: Виборг → Москва","network":"РЖД","duration":"10:41:00","network:en":"RZD","network:ru":"РЖД","network:wikidata":"Q660770","public_transport:version":"2"},"15459241":{"to":"Москва-Октябрьская","ref":"160А/159А","via":"Сортавала","from":"Петрозаводск-Пассажирский","name":"Поезд 160А/159А «Двухэтажный состав»: Петрозаводск → Москва","type":"route","route":"train","name:de":"Petrosawodsk - Moskau","name:en":"Petrozavodsk - Moscow","name:fi":"Petroskoi - Moskova","name:uk":"Потяг 160А/159А «Двоповерховий поїзд»: Петрозаводськ → Москва","network":"РЖД","duration":"19:33:00","network:en":"RZD","network:ru":"РЖД","network:wikidata":"Q660770","public_transport:version":"2"},"15459242":{"to":"Суоярви 1","ref":"682А","from":"Петрозаводск-Пассажирский","name":"Поезд 682А: Петрозаводск - Суоярви","type":"route","route":"train","name:de":"Petrosawodsk - Suojarwi","name:en":"Petrozavodsk - Suoyarvi","name:fi":"Petroskoi - Suojärvi","network":"РЖД","duration":"03:08:00","network:en":"RZD","network:ru":"РЖД","network:wikidata":"Q660770","public_transport:version":"2"},"15459243":{"to":"Петрозаводск-Пассажирский","ref":"681А","from":"Суоярви 1","name":"Поезд 681А: Суоярви - Петрозаводск","type":"route","route":"train","name:de":"Suojarwi - Petrosawodsk","name:en":"Suoyarvi - Petrozavodsk","name:fi":"Suojärvi - Petroskoi","network":"РЖД","duration":"03:17:00","network:en":"RZD","network:ru":"РЖД","network:wikidata":"Q660770","public_transport:version":"2"},"15459244":{"to":"Петрозаводск-Пассажирский","ref":"160В/159В","via":"Сортавала","from":"Москва-Октябрьская","name":"Поезд 160В/159В «Двухэтажный состав»: Москва → Петрозаводск","type":"route","route":"train","name:de":"Moskau → Petrosawodsk","name:en":"Moscow → Petrozavodsk","name:fi":"Moskova → Petroskoi","name:uk":"Потяг 160В/159В «Двоповерховий поїзд»: Москва → Петрозаводськ","network":"РЖД","duration":"22:20:00","network:en":"RZD","network:ru":"РЖД","network:wikidata":"Q660770","public_transport:version":"2"},"15459448":{"to":"Санкт-Петербург-Ладожский","ref":"617Я","from":"Вологда-1","name":"Поезд № 617Я «Белые ночи»: Вологда - Санкт-Петербург","type":"route","route":"train","name:de":"Wologda - St Petersburg","name:en":"Vologda - St Petersburg","name:fi":"Vologda - Pietari","name:uk":"Потяг № 617Я «Білі ночі»: Вологда – Санкт-Петербург","network":"РЖД","network:en":"RZD","network:ru":"РЖД","network:wikidata":"Q660770","network:wikipedia":"ru:Российские железные дороги","public_transport:version":"2"},"15459450":{"to":"Ярославль-Главный","ref":"506Ч/505Ч","from":"Санкт-Петербург-Ладожский","name":"Поезд № 506Ч/505Ч: Санкт-Петербург - Ярославль","type":"route","route":"train","name:de":"St Petersburg - Jaroslawl","name:en":"St Petersburg - Yaroslavl","name:fi":"Pietari - Jaroslavl","name:uk":"Потяг № 506Ч/505Ч: Санкт-Петербург – Ярославль","network":"РЖД","network:en":"RZD","network:ru":"РЖД","network:wikidata":"Q660770","network:wikipedia":"ru:Российские железные дороги","public_transport:version":"2"},"15459505":{"to":"Санкт-Петербург-Ладожский","ref":"506Я/505Я","from":"Ярославль-Главный","name":"Поезд № 506Я/505Я: Ярославль - Санкт-Петербург","type":"route","route":"train","name:de":"Jaroslawl - St Petersburg","name:en":"Yaroslavl - St Petersburg","name:fi":"Jaroslavl - Pietari","name:uk":"Потяг № 506Я/505Я: Ярославль - Санкт-Петербург","network":"РЖД","network:en":"RZD","network:ru":"РЖД","network:wikidata":"Q660770","network:wikipedia":"ru:Российские железные дороги","public_transport:version":"2"},"15462834":{"to":"Петрозаводск-Пассажирский","ref":"6371","from":"Медвежья Гора","name":"Электропоезд №6371: Медвежья Гора => Петрозаводск","type":"route","route":"train","operator":"АО \\\"СЗППК\\\"","public_transport:version":"2"},"15462835":{"to":"Медвежья Гора","ref":"6372","from":"Петрозаводск-Пассажирский","name":"Электропоезд №6372: Петрозаводск => Медвежья Гора","type":"route","route":"train","operator":"АО \\\"СЗППК\\\"","public_transport:version":"2"},"15482851":{"to":"Дно","ref":"6658/6660","from":"Псков-Пассажирский","name":"Пригородный поезд № 6658/6660: Псков => Дно","type":"route","route":"train","name:de":"Pskow - Dno","name:en":"Pskov - Dno","operator":"АО «СЗППК»","public_transport:version":"2"},"15482853":{"to":"Псков-Пассажирский","ref":"6657/6659","from":"Дно","name":"Пригородный поезд № 6657/6659: Дно => Псков","type":"route","route":"train","name:de":"Dno - Pskow","name:en":"Dno - Pskov","operator":"АО «СЗППК»","public_transport:version":"2"},"15489311":{"to":"Краснодар-1","ref":"6264/6263/6265/6267","from":"Ростов - Пригородный","name":"Электропоезд 6264/6263/6265/6267: Ростов-на-Дону → Краснодар","type":"route","route":"train","network":"РЖД","duration":"04:59:00","operator":"АО «Северо-Кавказская пригородная пассажирская компания»","network:en":"RZD","network:ru":"РЖД","network:wikidata":"Q660770","public_transport:version":"2"},"15489314":{"to":"Краснодар-1","ref":"6298/6297/6295/6293","from":"Ростов - Пригородный","name":"Электропоезд 6298/6297/6295/6293: Ростов-на-Дону → Краснодар","type":"route","route":"train","network":"РЖД","duration":"04:48:00","operator":"АО «Северо-Кавказская пригородная пассажирская компания»","network:en":"RZD","network:ru":"РЖД","network:wikidata":"Q660770","public_transport:version":"2"},"15538692":{"to":"Дно","ref":"6651/6663","from":"Морино","name":"Пригородный поезд № 6651/6663: Морино => Дно","type":"route","route":"train","name:de":"Morino - Dno","name:en":"Morino - Dno","operator":"АО «СЗППК»","public_transport:version":"2"},"15538693":{"to":"Морино","ref":"6652/6664","from":"Дно","name":"Пригородный поезд № 6652/6664: Дно => Морино","type":"route","route":"train","name:de":"Dno - Morino","name:en":"Dno - Morino","operator":"АО «СЗППК»","public_transport:version":"2"},"15538752":{"to":"Оредеж","ref":"6954","from":"Дно","name":"Пригородный поезд № 6954: Дно => Оредеж","type":"route","route":"train","operator":"АО «СЗППК»","public_transport:version":"2"},"15538753":{"to":"Дно","ref":"6953","from":"Оредеж","name":"Пригородный поезд № 6953: Оредеж => Дно","type":"route","route":"train","operator":"АО «СЗППК»","public_transport:version":"2"},"15538806":{"to":"Дно","ref":"6512/6516","from":"Новосокольники","name":"Пригородный поезд № 6512/6516: Новосокольники => Дно","type":"route","route":"train","operator":"АО «СЗППК»","public_transport:version":"2"},"15538807":{"to":"Новосокольники","ref":"6511/6515","from":"Дно","name":"Пригородный поезд № 6511/6515: Дно => Новосокольники","type":"route","route":"train","operator":"АО «СЗППК»","public_transport:version":"2"},"15538900":{"to":"Псков-Пассажирский","ref":"6721/6722","from":"Великие Луки","name":"Пригородный поезд № 6721/6722: Великие Луки => Псков","type":"route","route":"train","operator":"АО «СЗППК»","public_transport:version":"2"},"15538901":{"to":"Великие Луки","ref":"6724/6723","from":"Псков-Пассажирский","name":"Пригородный поезд № 6724/6723: Псков => Великие Луки","type":"route","route":"train","public_transport:version":"2"},"15538962":{"to":"Великие Луки","ref":"6510","from":"Себеж","name":"Пригородный поезд № 6510: Себеж => Великие Луки","type":"route","route":"train","operator":"АО «СЗППК»","public_transport:version":"2"},"15538963":{"to":"Себеж","ref":"6509","from":"Великие Луки","name":"Пригородный поезд № 6509: Великие Луки => Себеж","type":"route","route":"train","operator":"АО «СЗППК»","public_transport:version":"2"},"15538994":{"to":"Невель-2","ref":"6701","from":"Новосокольники","name":"Пригородный поезд № 6701: Новосокольники => Невель-2","type":"route","route":"train","operator":"АО «СЗППК»","public_transport:version":"2"},"15538995":{"to":"Новосокольники","ref":"6704","from":"Невель-2","name":"Пригородный поезд № 6704: Невель-2 => Новосокольники","type":"route","route":"train","operator":"АО «СЗППК»","public_transport:version":"2"},"15539045":{"to":"Невель-2","ref":"6703","from":"Великие Луки","name":"Пригородный поезд № 6703: Великие Луки => Невель-2","type":"route","route":"train","operator":"АО «СЗППК»","public_transport:version":"2"},"15539046":{"to":"Великие Луки","ref":"6702","from":"Невель-2","name":"Пригородный поезд № 6702: Невель-2 => Великие Луки","type":"route","route":"train","operator":"АО «СЗППК»","public_transport:version":"2"},"15539095":{"to":"Великие Луки","ref":"6506","from":"Новосокольники","name":"Пригородный поезд № 6506: Новосокольники => Великие Луки","type":"route","route":"train","operator":"АО «СЗППК»","public_transport:version":"2"},"15539096":{"to":"Новосокольники","ref":"6505","from":"Великие Луки","name":"Пригородный поезд № 6505: Великие Луки => Новосокольники","type":"route","route":"train","operator":"АО «СЗППК»","public_transport:version":"2"},"15539480":{"to":"Земцы","ref":"6806","from":"Жарковский","name":"Пригородный поезд № 6806: Жарковский => Земцы","note":"Самый медленный поезд России. 42 км за 3.5 часа","type":"route","route":"train","operator":"АО «МТППК»","public_transport:version":"2"},"15539579":{"to":"Великие Луки","ref":"6951","from":"Нелидово","name":"Пригородный поезд № 6951: Нелидово => Великие Луки","type":"route","route":"train","operator":"АО «МТППК»","public_transport:version":"2"},"15539580":{"to":"Великие Луки","ref":"6803","from":"Нелидово","name":"Пригородный поезд № 6803: Нелидово => Великие Луки","type":"route","route":"train","operator":"АО «МТППК»","public_transport:version":"2"},"15539581":{"to":"Нелидово","ref":"6804","from":"Великие Луки","name":"Пригородный поезд № 6804: Великие Луки => Нелидово","type":"route","route":"train","operator":"АО «МТППК»","public_transport:version":"2"},"15539582":{"to":"Земцы","ref":"6952","from":"Великие Луки","name":"Пригородный поезд № 6952: Великие Луки => Земцы","type":"route","route":"train","operator":"АО «МТППК»","public_transport:version":"2"},"15539624":{"to":"Русаново","ref":"6807","from":"Ржев-Балтийский","name":"Пригородный поезд № 6807: Ржев-Балтийский => Русаново","type":"route","route":"train","operator":"АО «МТППК»","public_transport:version":"2"},"15539625":{"to":"Русаново","ref":"6801","from":"Ржев-Балтийский","name":"Пригородный поезд № 6801: Ржев-Балтийский => Русаново","type":"route","route":"train","operator":"АО «МТППК»","public_transport:version":"2"},"15539626":{"to":"Ржев-Балтийский","ref":"6808","from":"Русаново","name":"Пригородный поезд № 6808: Русаново => Ржев-Балтийский","type":"route","route":"train","operator":"АО «МТППК»","public_transport:version":"2"},"15539627":{"to":"Ржев-Балтийский","ref":"6802","from":"Русаново","name":"Пригородный поезд № 6802: Русаново => Ржев-Балтийский","type":"route","route":"train","operator":"АО «МТППК»","public_transport:version":"2"},"15540799":{"to":"Москва-Пассажирская-Смоленская","ref":"064А","from":"Псков-Пассажирский","name":"Поезд № 064А: Псков => Москва","type":"route","route":"train","name:uk":"Потяг № 064А: Псков => Москва","network":"РЖД","duration":"17:27:00","operator":"АО «Федеральная пассажирская компания»","network:en":"RZD","network:ru":"РЖД","network:wikidata":"Q660770","network:wikipedia":"ru:Российские железные дороги","public_transport:version":"2"},"15540800":{"to":"Псков-Пассажирский","ref":"063А","from":"Москва-Пассажирская-Смоленская","name":"Поезд № 063А: Москва => Псков","type":"route","route":"train","name:uk":"Потяг № 063А: Москва => Псков","network":"РЖД","duration":"16:34:00","operator":"АО «Федеральная пассажирская компания»","network:en":"RZD","network:ru":"РЖД","network:wikidata":"Q660770","network:wikipedia":"ru:Российские железные дороги","public_transport:version":"2"},"15549482":{"to":"Анапа","ref":"840C","from":"Крымск","name":"Поезд №840С: Крымск => Анапа","type":"route","route":"train","network":"РЖД","duration":"01:30:00","operator":"АО","network:en":"RZD","network:ru":"РЖД","network:wikidata":"Q660770","network:wikipedia":"ru:Российские железные дороги"},"15549932":{"to":"Ижевск","ref":"498С","from":"Адлер","name":"Поезд 498С: Адлер → Ижевск","type":"route","fixme":"Проверить","route":"train","name:ru":"Поезд 498С: Адлер → Ижевск","operator":"АО «Федеральная пассажирская компания»","public_transport:version":"2"},"15814678":{"to":"Казань","ref":"002Й","from":"Москва-Пассажирская-Казанская","name":"Поезд 002Й \\\"Премиум\\\": Москва → Казань","type":"route","route":"train","name:uk":"Потяг 002Й \\\"Преміум\\\": Москва → Казань","network":"РЖД","operator":"ОАО \\\"РЖД\\\"","wikidata":"Q4452534","network:en":"RZD","network:ru":"РЖД","network:wikidata":"Q660770","network:wikipedia":"ru:Российские железные дороги","public_transport:version":"2"},"15814679":{"to":"Москва-Октябрьская","ref":"001Г","from":"Казань-Пассажирская","name":"Поезд 001Г «Премиум»: Казань → Москва","type":"route","route":"train","name:uk":"Потяг 001Г «Преміум»: Казань → Москва","duration":"11:10:00","operator":"Российские железные дороги","wikidata":"Q4452534","public_transport:version":"2"},"15814948":{"to":"Москва-Пассажирская-Павелецкая","ref":"001И","from":"Волгоград 1","name":"Поезд 001И «Волгоград»: Волгоград → Москва","type":"route","route":"train","name:en":"Train 001I «Volgograd»: Volgograd → Moscow","network":"РЖД","duration":"17:34:00","operator":"АО «Федеральная пассажирская компания»","network:en":"RZD","network:ru":"РЖД","network:wikidata":"Q660770","network:wikipedia":"ru:Российские железные дороги","public_transport:version":"2"},"15818109":{"to":"Москва","ref":"003С","from":"Кисловодск","name":"Поезд 003С «Кавказ (двухэтажный)»: Кисловодск → Москва","type":"route","route":"train","network":"РЖД","operator":"ОАО \\\"РЖД\\\"","network:en":"RZD","network:ru":"РЖД","network:wikidata":"Q660770","network:wikipedia":"ru:Российские железные дороги","public_transport:version":"2"},"15818329":{"to":"Кисловодск","ref":"004М","from":"Москва","name":"Поезд 004М «Кавказ (двухэтажный)»: Москва → Кисловодск","type":"route","route":"train","network":"РЖД","operator":"ОАО \\\"РЖД\\\"","network:en":"RZD","network:ru":"РЖД","network:wikidata":"Q660770","network:wikipedia":"ru:Российские железные дороги","public_transport:version":"2"},"15818535":{"to":"Москва","ref":"005Ж/006Ж","from":"Астрахань","name":"Поезд 005Ж/006Ж «Лотос»: Астрахань → Москва","type":"route","route":"train","network":"РЖД","operator":"ОАО \\\"РЖД\\\"","network:en":"RZD","network:ru":"РЖД","network:wikidata":"Q660770","network:wikipedia":"ru:Российские железные дороги","public_transport:version":"2"},"15820508":{"to":"Астрахань","ref":"005Г/006Г","from":"Москва","name":"Поезд 005Г/006Г «Лотос»: Москва → Астрахань","type":"route","route":"train","network":"РЖД","operator":"ОАО \\\"РЖД\\\"","network:en":"RZD","network:ru":"РЖД","network:wikidata":"Q660770","network:wikipedia":"ru:Российские железные дороги","public_transport:version":"2"},"15820530":{"to":"Владивосток","ref":"005/006","from":"Хабаровск","name":"Поезд 005/006 «Океан»: Хабаровск → Владивосток","type":"route","route":"train","network":"РЖД","website":"https://www.rzd.ru/ru/9319/page/51772?id=23","operator":"ОАО \\\"РЖД\\\"","network:en":"RZD","network:ru":"РЖД","network:wikidata":"Q660770","network:wikipedia":"ru:Российские железные дороги","public_transport:version":"2"},"15820532":{"to":"Хабаровск","ref":"005/006","from":"Владивосток","name":"Поезд 005/006 «Океан»: Владивосток → Хабаровск","type":"route","route":"train","network":"РЖД","website":"https://www.rzd.ru/ru/9319/page/51772?id=23","operator":"ОАО \\\"РЖД\\\"","network:en":"RZD","network:ru":"РЖД","network:wikidata":"Q660770","network:wikipedia":"ru:Российские железные дороги","public_transport:version":"2"},"15820549":{"to":"Гагра","ref":"927Й","from":"Сочи","name":"Поезд 927Й «Сочи»: Сочи → Гагра","type":"route","route":"train","name:ru":"Поезд 927Й «Сочи»: Сочи → Гагра","website":"https://www.rzd.ru/ru/9319/page/51772?id=287","operator":"АО «Федеральная пассажирская компания»","public_transport:version":"2"},"15820569":{"to":"Гагра","ref":"927","from":"Туапсе","name":"Поезд 927 «Сочи»: Туапсе → Гагра","type":"route","route":"train","name:ru":"Поезд 927 «Сочи»: Туапсе → Гагра","website":"https://www.rzd.ru/ru/9319/page/51772?id=285","operator":"АО «Федеральная пассажирская компания»","public_transport:version":"2"},"15820713":{"to":"Комсомольск-на-Амуре","ref":"667Э/668Э","from":"Хабаровск","name":"Поезд 667Э/668Э «Юность»: Хабаровск → Комсомольск-на-Амуре","type":"route","route":"train","network":"РЖД","website":"https://www.rzd.ru/ru/9319/page/51772?id=104","operator":"ОАО \\\"РЖД\\\"","network:en":"RZD","network:ru":"РЖД","network:wikidata":"Q660770","network:wikipedia":"ru:Российские железные дороги","public_transport:version":"2"},"15820714":{"to":"Хабаровск","ref":"667Э/668Э","from":"Комсомольск-на-Амуре","name":"Поезд 667Э/668Э «Юность»: Комсомольск-на-Амуре → Хабаровск","type":"route","route":"train","network":"РЖД","website":"https://www.rzd.ru/ru/9319/page/51772?id=104","operator":"ОАО \\\"РЖД\\\"","network:en":"RZD","network:ru":"РЖД","network:wikidata":"Q660770","network:wikipedia":"ru:Российские железные дороги","public_transport:version":"2"},"15917316":{"to":"Тарханы","ref":"6309","from":"Саратов-1","name":"Саратов-1 - Тарханы","type":"route","route":"train","operator":"АО Саратовская ППК"}}