{"1782861":{"to":"Wien Meidling","ref":"EC 150","from":"Ljubljana","name":"EC 150: Emona","type":"route","route":"train","network":"EuroCity","service":"international","network:wikidata":"Q753050","network:wikipedia":"en:EuroCity","public_transport:version":"2"},"3437070":{"ref":"R","name":"R Jesenice – Sežana","type":"route","route":"train","name:de":"R Aßling – Zizan","name:sl":"R Jesenice – Sežana","service":"regional","operator":"SŽ","public_transport:version":"2"},"6317325":{"to":"Pula","ref":"1272","from":"Divača","name":"Vlak 1272 Istra: Divača => Pula","type":"route","route":"train","service":"regional","operator":"SŽ","network:hr":"Brzi","network:sl":"Mednarodni vlak","public_transport:version":"2"},"6317331":{"ref":"IC 504;IC 505","name":"IC Koper - Maribor","type":"route","route":"train","name:de":"IC Gafers - Marburg an der Drau","name:sl":"IC Koper - Maribor","service":"long_distance"},"6317332":{"to":"Ljubljana","ref":"R","from":"Koper","name":"Koper => Ljubjana","type":"route","route":"train","name:de":"Gafers => Laibach","name:sl":"Koper => Ljubjana","service":"regional"},"6317545":{"ref":"R","name":"R Sežana – Jesenice","type":"route","route":"train","name:de":"R Zizan – Aßling","name:sl":"R Sežana – Jesenice","service":"regional","operator":"SŽ","public_transport:version":"2"},"6317569":{"ref":"R","name":"Nova Gorica - Ajdovščina","type":"route","route":"train","name:de":"Neu-Görz - Haidenschaft","name:sl":"Nova Gorica - Ajdovščina","service":"regional"},"13428181":{"to":"Kranj","from":"Litija","name":"R Litija – Kranj","type":"route","route":"train","operator":"Slovenske železnice"},"14620139":{"to":"Kočevje","from":"Ljubljana","name":"Ljubljana - Kočevje","type":"route","route":"train","bicycle":"limited","service":"regional","toilets":"yes","operator":"Slovenske železnice","public_transport:version":"2"},"14620832":{"to":"Metlika","from":"Novo mesto","name":"Novo mesto - Metlika","type":"route","route":"train","bicycle":"limited","service":"regional","toilets":"yes","operator":"Slovenske železnice","public_transport:version":"2"},"14620833":{"to":"Novo mesto","via":"Grosuplje","from":"Ljubljana","name":"Ljubljana - Novo mesto","type":"route","route":"train","bicycle":"limited","service":"regional","toilets":"yes","operator":"Slovenske železnice","public_transport:version":"2"},"15339175":{"to":"Škocjanske Jame","ref":"ŠJ","from":"Škocjan","name":"Škocjan → Škocjanske jame","type":"route","route":"train","network":"ŠJ","service":"tourism","operator":"Škocjanske Jame"},"15339176":{"to":"Škocjan","ref":"ŠJ","from":"Škocjanske Jame","name":"Škocjanske Jame → Škocjan","type":"route","route":"train","network":"ŠJ","service":"tourism","operator":"Škocjanske Jame"},"17249187":{"to":"Varaždin","ref":"7351","from":"Lendava","name":"Vlak 7351: Lendava => Varaždin","type":"route","route":"train","network":"Putnički","service":"regional","operator":"HŽPP","public_transport:version":"2"},"17249189":{"to":"Čakovec","ref":"7353","from":"Lendava","name":"Vlak 7353: Lendava => Čakovec","type":"route","route":"train","network":"Putnički","service":"regional","operator":"HŽPP","public_transport:version":"2"},"17350456":{"to":"Čakovec","ref":"78","from":"Ormož","name":"Vlak 78: Ormož => Čakovec","type":"route","route":"train","service":"regional","operator":"SŽ","network:hr":"Putnički","network:sl":"Maloobmejni vlak","public_transport:version":"2"},"17502578":{"to":"Đurmanec","ref":"78","from":"Celje","name":"Vlak 78: Celje => Đurmanec","type":"route","route":"train","service":"regional","operator":"SŽ","network:hr":"Putnički","network:sl":"Lokalni potniški vlak","description":"vlak 7809, 7811","public_transport:version":"2"},"17502685":{"to":"Đurmanec","ref":"78","from":"Rogatec","name":"Vlak 78: Rogatec => Đurmanec","type":"route","route":"train","service":"regional","operator":"SŽ","network:hr":"Putnički","network:sl":"Lokalni potniški vlak","description":"vlak 7813","public_transport:version":"2"}}