{"3316983":{"ref":"خط الضاحية الجنوبية لتونس","name":"تونس - برج السدرية، الرياض","type":"route","route":"train","name:ar":"تونس - برج السدرية، الرياض","name:fr":"Tunis - Borj Cedria, Riadh","railway":"rail","website":"https://www.sncft.com.tn/","operator":"الشركة الوطنية للسكك الحديدية التونسية","wikidata":"Q3240068","electrified":"contact_line","operator:ar":"الشركة الوطنية للسكك الحديدية التونسية","operator:website":"http://www.sncft.com.tn/Ar/","operator:wikidata":"Q2297197","operator:wikipedia":"ar:الشركة الوطنية للسكك الحديدية التونسية","operator:wikipedia:ar":"الشركة الوطنية للسكك الحديدية التونسية"},"8676959":{"name":"تونس - سوسة - صفاقس - توزر","type":"route","route":"train","name:ar":"تونس - سوسة - صفاقس - توزر","name:en":"Tunis - Sousse - Sfax - Tozeur","name:fr":"Tunis - Sousse - Sfax - Tozeur","operator":"الشركة الوطنية للسكك الحديدية التونسية","operator:ar":"الشركة الوطنية للسكك الحديدية التونسية","operator:fr":"Société Nationale des Chemins de Fer Tunisiens","operator:short":"SNCFT","operator:website":"http://www.sncft.com.tn/Ar/","operator:short:fr":"SNCFT","operator:wikidata":"Q2297197","operator:wikipedia":"ar:الشركة الوطنية للسكك الحديدية التونسية","operator:wikipedia:ar":"الشركة الوطنية للسكك الحديدية التونسية","public_transport:version":"2"},"8676960":{"to":"المهدية","from":"تونس","name":"تونس - المهدية","type":"route","route":"train","to:ar":"المهدية","from:ar":"تونس","name:ar":"تونس - المهدية","name:en":"Tunis - Mahdia","network":"الشركة الوطنية للسكك الحديدية التونسية","operator":"الشركة الوطنية للسكك الحديدية التونسية","operator:ar":"الشركة الوطنية للسكك الحديدية التونسية","operator:website":"http://www.sncft.com.tn/Ar/","operator:wikidata":"Q2297197","operator:wikipedia":"ar:الشركة الوطنية للسكك الحديدية التونسية","operator:wikipedia:ar":"الشركة الوطنية للسكك الحديدية التونسية","public_transport:version":"2"},"8676961":{"to":"المهدية","from":"سوسة باب الجديد","name":"سوسة باب الجديد - المهدية","type":"route","route":"train","to:ar":"المهدية","from:ar":"سوسة باب الجديد","name:ar":"سوسة باب الجديد - المهدية","name:fr":"Sousse Bab Jedid - Mahdia","network":"الشركة الوطنية للسكك الحديدية التونسية","operator":"الشركة الوطنية للسكك الحديدية التونسية","operator:ar":"الشركة الوطنية للسكك الحديدية التونسية","operator:website":"http://www.sncft.com.tn/Ar/","operator:wikidata":"Q2297197","operator:wikipedia":"ar:الشركة الوطنية للسكك الحديدية التونسية","operator:wikipedia:ar":"الشركة الوطنية للسكك الحديدية التونسية","public_transport:version":"2"},"8676962":{"to":"تونس","via":"السرس","from":"الكاف","name":"الكاف - السرس - تونس","type":"route","route":"train","to:ar":"تونس","to:fr":"Tunis","via:ar":"السرس","via:fr":"Sers","from:ar":"الكاف","from:fr":"Le Kef","name:ar":"الكاف - السرس - تونس","name:en":"Le Kef - Sers - Tunis","name:fr":"Le Kef - Sers - Tunis","network":"الشركة الوطنية للسكك الحديدية التونسية","operator":"الشركة الوطنية للسكك الحديدية التونسية","operator:ar":"الشركة الوطنية للسكك الحديدية التونسية","operator:fr":"Société Nationale des Chemins de Fer Tunisiens","operator:short":"SNCFT","operator:website":"https://www.sncft.com.tn/","operator:short:fr":"SNCFT","operator:wikidata":"Q2297197","public_transport:version":"2"},"15654114":{"to":"تونس","ref":"E","from":"بوقطفة-سيدي حسين","name":"خط E : بوقطفة-سيدي حسين - تونس","type":"route","route":"train","name:ar":"خط E : بوقطفة-سيدي حسين - تونس","name:en":"RFR Line E : Bougatfa-Sidi Hassine - Tunis","name:fr":"RFR Ligne E : Bougatfa-Sidi Hassine - Tunis","network":"RFR","service":"commuter","wikidata":"Q118612325","public_transport:version":"2"},"15654115":{"to":"بوقطفة-سيدي حسين","ref":"E","from":"تونس","name":"خط E : تونس - بوقطفة-سيدي حسين","type":"route","route":"train","name:ar":"خط E : تونس - بوڨطفة","name:en":"RFR Line E : Tunis - Bougatfa-Sidi Hassine","name:fr":"RFR Ligne E : Tunis - Bougatfa-Sidi Hassine","network":"RFR","service":"commuter","wikidata":"Q118612325","public_transport:version":"2"}}