{"363587":{"line":"rail","name":"İZBAN Güney Aksı","type":"route","route":"train","colour":"red","name:en":"İZBAN Southern line","operator":"İZBAN","wikidata":"Q7570092"},"1298494":{"to":"Kayseri","from":"Adana","name":"Toros Ekspresi","type":"route","route":"train","name:en":"Toros Express","name:tr":"Toros Ekspresi","network":"Türkiye Cumhuriyeti Devlet Demiryolları","operator":"TCDD Taşımacılık","wikidata":"Q2397209","wikipedia":"tr:Toros Ekspresi","network:short":"TCDD","network:wikidata":"Q499967","operator:wikidata":"Q28220824"},"1301009":{"name":"Yolçatı - Tatvan İskele hattı","type":"route","route":"train","name:en":"Yolçatı - Tatvan ferry line","network":"Türkiye Cumhuriyeti Devlet Demiryolları","operator":"TCDD Taşımacılık","network:short":"TCDD","network:wikidata":"Q499967","network:wikipedia":"tr:Türkiye Cumhuriyeti Devlet Demiryolları","operator:wikidata":"Q28220824","operator:wikipedia":"tr:TCDD Taşımacılık"},"1305205":{"to":"Samsun","ref":"B44","from":"Sivas","name":"Sivas - Samsun Bölgesel Tren Hattı","type":"route","route":"train","name:en":"Sivas - Samsun line","network":"Türkiye Cumhuriyeti Devlet Demiryolları","operator":"TCDD Taşımacılık","wikidata":"Q118947309","wikipedia":"tr:Samsun-Sivas Bölgesel Treni","description":"Railway line from Sivas to Çarşamba via Samsun","network:short":"TCDD","network:wikidata":"Q499967","operator:wikidata":"Q28220824"},"1308730":{"to":"Adana","ref":"B61","from":"Mersin","name":"Mersin-Adana Bölgesel Tren Hattı","type":"route","gauge":"1435","route":"train","name:en":"Mersin-Adana Regional Train Line","network":"Türkiye Cumhuriyeti Devlet Demiryolları","operator":"TCDD Taşımacılık","wikidata":"Q4680601","wikipedia":"tr:Mersin-Adana Bölgesel Treni","network:short":"TCDD","network:wikidata":"Q499967","operator:wikidata":"Q28220824"},"1318224":{"name":"Sütlaç - Çivril hattı","type":"route","route":"train","name:en":"Sütlaç - Çivril line","public_transport:version":"2"},"1320474":{"name":"Eskişehir - Polatlı hattı","type":"route","gauge":"1435","route":"train","name:en":"Eskişehir - Polatlı line","network":"Türkiye Cumhuriyeti Devlet Demiryolları","operator":"TCDD Taşımacılık","network:short":"TCDD","network:wikidata":"Q499967","operator:wikidata":"Q28220824"},"1320476":{"name":"Ankara - İstanbul Yüksek Hızlı Tren hattı","type":"route","gauge":"1435","route":"train","name:en":"Ankara - Istanbul YHT route","network":"Türkiye Cumhuriyeti Devlet Demiryolları","operator":"TCDD Taşımacılık","network:short":"TCDD","network:wikidata":"Q499967","network:wikipedia":"tr:Türkiye Cumhuriyeti Devlet Demiryolları","operator:wikidata":"Q28220824","operator:wikipedia":"tr:TCDD Taşımacılık"},"1323070":{"to":"İstanbul","from":"Ankara","name":"Ankara Ekspresi","type":"route","route":"train","name:en":"Ankara Express","network":"Türkiye Cumhuriyeti Devlet Demiryolları","operator":"TCDD Taşımacılık","wikidata":"Q4765974","wikipedia":"tr:Ankara Ekspresi","wheelchair":"limited","network:short":"TCDD","network:wikidata":"Q499967","operator:wikidata":"Q28220824"},"2350644":{"name":"Ankara - Konya Yüksek Hızlı Tren hattı","type":"route","gauge":"1435","route":"train","name:en":"Ankara - Konya YHT route","network":"Türkiye Cumhuriyeti Devlet Demiryolları","operator":"TCDD Taşımacılık","network:short":"TCDD","network:wikidata":"Q499967","network:wikipedia":"tr:Türkiye Cumhuriyeti Devlet Demiryolları","operator:wikidata":"Q28220824","operator:wikipedia":"tr:TCDD Taşımacılık"},"2846671":{"name":"Türkiye deki hızlı tren hatları","type":"route","gauge":"1435","route":"train","network":"Türkiye Cumhuriyeti Devlet Demiryolları","operator":"TCDD Taşımacılık","network:short":"TCDD","network:wikidata":"Q499967","network:wikipedia":"tr:Türkiye Cumhuriyeti Devlet Demiryolları","operator:wikidata":"Q28220824","operator:wikipedia":"tr:TCDD Taşımacılık"},"3671431":{"to":"Afyon","via":"Uşak","from":"Izmir","name":"Izmir Afyon Uşak Hattı","type":"route","gauge":"1435","route":"train","name:en":"Izmir Afyon railway via Uşak","network":"Türkiye Cumhuriyeti Devlet Demiryolları","operator":"TCDD Taşımacılık","network:short":"TCDD","network:wikidata":"Q499967","network:wikipedia":"tr:Türkiye Cumhuriyeti Devlet Demiryolları","operator:wikidata":"Q28220824","operator:wikipedia":"tr:TCDD Taşımacılık","public_transport:version":"2"},"3671466":{"to":"Menemen","from":"Izmir Basmane","name":"Izmir Menemen hattı","type":"route","gauge":"1435","route":"train","network":"Türkiye Cumhuriyeti Devlet Demiryolları","operator":"TCDD Taşımacılık","network:short":"TCDD","network:wikidata":"Q499967","network:wikipedia":"tr:Türkiye Cumhuriyeti Devlet Demiryolları","operator:wikidata":"Q28220824","operator:wikipedia":"tr:TCDD Taşımacılık","public_transport:version":"2"},"4596411":{"name":"Tire-İzmir","type":"route","route":"train","network":"TCDD Bölgesel","operator":"TCDD 3.Bölge"},"6234723":{"to":"Kayseri","from":"Adana","name":"Erciyes Ekspresi","type":"route","route":"train","network":"Türkiye Cumhuriyeti Devlet Demiryolları","operator":"TCDD Taşımacılık","wikidata":"Q85970134","wikipedia":"tr:Erciyes Ekspresi","network:short":"TCDD","network:wikidata":"Q499967","operator:wikidata":"Q28220824"},"7001049":{"to":"Sivas","via":"Kırıkkale;Yozgat","from":"Ankara","name":"Ankara - Sivas YHT Hattı","type":"route","route":"train","network":"Türkiye Cumhuriyeti Devlet Demiryolları","operator":"TCDD Taşımacılık","network:short":"TCDD","network:wikidata":"Q499967","operator:wikidata":"Q28220824"},"7031085":{"name":"Ankara - İzmir Yüksek Hızlı Tren hattı","type":"route","gauge":"1435","route":"train","name:en":"Ankara - İzmir HST route","network":"Türkiye Cumhuriyeti Devlet Demiryolları","operator":"TCDD Taşımacılık","network:short":"TCDD","network:wikidata":"Q499967","network:wikipedia":"tr:Türkiye Cumhuriyeti Devlet Demiryolları","operator:wikidata":"Q28220824","operator:wikipedia":"tr:TCDD Taşımacılık"},"9440197":{"to":"Polatlı","ref":"B21","from":"Ankara","name":"Ankara - Polatlı Bölgesel Tren Hattı","type":"route","route":"train","network":"Türkiye Cumhuriyeti Devlet Demiryolları","operator":"TCDD Taşımacılık","wikidata":"Q20473705","wikipedia":"tr:Ankara-Polatlı Bölgesel Treni","network:short":"TCDD","network:wikidata":"Q499967","operator:wikidata":"Q28220824"},"9468040":{"to":"Halkalı","ref":"B1","from":"Gebze","name":"Marmaray: Gebze - Halkalı","type":"route","route":"train","network":"Marmaray","operator":"TCDD Taşımacılık","network:wikidata":"Q497844","network:wikipedia":"tr:Marmaray","operator:wikidata":"Q28220824","operator:wikipedia":"tr:TCDD Taşımacılık","public_transport:version":"2"},"9987139":{"to":"Gebze","ref":"B1","from":"Halkalı","name":"Marmaray: Halkalı - Gebze","type":"route","route":"train","network":"Marmaray","operator":"TCDD Taşımacılık","network:wikidata":"Q497844","network:wikipedia":"tr:Marmaray","operator:wikidata":"Q28220824","operator:wikipedia":"tr:TCDD Taşımacılık","public_transport:version":"2"},"11722209":{"to":"Ankara","via":"Yozgat;Kırıkkale","from":"Sivas","name":"Sivas-Ankara YHT Hattı","type":"route","route":"train","network":"Türkiye Cumhuriyeti Devlet Demiryolları","operator":"TCDD Taşımacılık","network:short":"TCDD","network:wikidata":"Q499967","operator:wikidata":"Q28220824"},"12158683":{"to":"Tatvan","from":"Ankara","name":"Van Gölü Ekspresi","type":"route","route":"train","network":"Türkiye Cumhuriyeti Devlet Demiryolları","website":"https://www.tcddtasimacilik.gov.tr/tren/van-golu-ekspresi/","duration":"23:27","operator":"TCDD Taşımacılık","wikidata":"Q85976062","wikipedia":"tr:Van Gölü Ekspresi","network:short":"TCDD","network:wikidata":"Q499967","operator:wikidata":"Q28220824"},"12764738":{"name":"Ankara - İzmir Yüksek Hızlı Tren hattı","type":"route","gauge":"1435","route":"train","name:en":"Ankara - İzmir HST route","network":"Türkiye Cumhuriyeti Devlet Demiryolları","operator":"TCDD Taşımacılık","network:short":"TCDD","network:wikidata":"Q499967","network:wikipedia":"tr:Türkiye Cumhuriyeti Devlet Demiryolları","operator:wikidata":"Q28220824","operator:wikipedia":"tr:TCDD Taşımacılık"},"12764739":{"name":"Ankara - İzmir Yüksek Hızlı Tren hattı","type":"route","gauge":"1435","route":"train","name:en":"Ankara - İzmir HST route","network":"Türkiye Cumhuriyeti Devlet Demiryolları","operator":"TCDD Taşımacılık","network:short":"TCDD","network:wikidata":"Q499967","network:wikipedia":"tr:Türkiye Cumhuriyeti Devlet Demiryolları","operator:wikidata":"Q28220824","operator:wikipedia":"tr:TCDD Taşımacılık"},"13016245":{"to":"Bandırma","via":"Yenişehir;Bursa","from":"Bilecik","name":"Bilecik - Bursa - Bandırma Hızlı Tren hattı","type":"route","gauge":"1435","route":"train","name:en":"Bilecik - Bursa - Bandırma High Standard railway","network":"Türkiye Cumhuriyeti Devlet Demiryolları","operator":"TCDD Taşımacılık","highspeed":"yes","railway:etcs":"yes","network:short":"TCDD","network:wikidata":"Q499967","network:wikipedia":"tr:Türkiye Cumhuriyeti Devlet Demiryolları","operator:wikidata":"Q28220824","operator:wikipedia":"tr:TCDD Taşımacılık"},"13333108":{"to":"Kapıkule","from":"Çerkezköy","name":"Çerkezköy - Kapıkule hızlı demiryolu","type":"route","route":"train","name:en":"Çerkezköy - Kapıkule speed railway","network":"Türkiye Cumhuriyeti Devlet Demiryolları","operator":"TCDD Taşımacılık","network:short":"TCDD","network:wikidata":"Q499967","network:wikipedia":"tr:Türkiye Cumhuriyeti Devlet Demiryolları","operator:wikidata":"Q28220824","operator:wikipedia":"tr:TCDD Taşımacılık"},"14039181":{"to":"Bahçeşehir","fee":"yes","from":"Halkalı","name":"Halkalı - Bahçeşehir Banliyö Hattı","type":"route","gauge":"1435","owner":"TCDD","route":"train","access":"yes","length":"13,50 km","network":"TCDD Bölgesel Hatları","payment":"card","duration":"00:22","interval":"only peak hours","operator":"TCDD Taşımacılık A.Ş.","wikipedia":"tr:Halkalı - Bahçeşehir Raylı Sistemi","fee:source":"https://iett.istanbul/tr/main/pages/iett-toplu-ulasim-ucret-tarifesi/42","owner:type":"government","departure:to":"Mo-Su 07:00, 19:00","opening_date":"2022-06-23","payment:cash":"no","operator:type":"government","departure:from":"Mo-Su 06:30, 18:30","access:disabled":"unknown","source:geometry":"https://cdnuploads.aa.com.tr/uploads/Contents/2021/10/28/thumbs_b_c_78ecaa693f964430b223e812de31cbd9.jpg"},"14118633":{"to":"Sincan","ref":"B1","from":"Kayaş","name":"Başkentray Kayaş-Sincan","type":"route","route":"train","colour":"#00A49F","network":"Türkiye Cumhuriyeti Devlet Demiryolları","interval":"00:15","operator":"TCDD Taşımacılık","wikidata":"Q7521893","wikipedia":"tr:Başkentray","network:metro":"Başkentray","network:short":"TCDD","opening_hours":"Mo-Su 06:00-23:00","network:wikidata":"Q499967","operator:wikidata":"Q28220824","interval:conditional":"00:30 @ (Mo-Fr 21:00-23:00)","public_transport:version":"2"},"14118634":{"to":"Kayaş","ref":"B1","from":"Sincan","name":"Başkentray Sincan-Kayaş","type":"route","route":"train","colour":"#00A49F","network":"Türkiye Cumhuriyeti Devlet Demiryolları","interval":"00:15","operator":"TCDD Taşımacılık","wikidata":"Q7521893","wikipedia":"tr:Başkentray","network:metro":"Başkentray","network:short":"TCDD","opening_hours":"Mo-Su 06:00-23:00","network:wikidata":"Q499967","operator:wikidata":"Q28220824","interval:conditional":"00:30 @ (Mo-Fr 21:00-23:00)","public_transport:version":"2"},"14785413":{"to":"Başpınar","ref":"GR01","via":"Gaziantep Gar","from":"Taşlıca","name":"Gaziray: Taşlıca → Başpınar","type":"route","route":"train","colour":"#ecdb3b","network":"Gaziray","service":"commuter","operator":"TCDD Taşımacılık","network:wikidata":"Q55074880","network:wikipedia":"tr:Gaziray","operator:wikidata":"Q28220824","public_transport:version":"2"},"14785798":{"to":"Taşlıca","ref":"GR01","via":"Gaziantep Gar","from":"Başpınar","name":"Gaziray: Başpınar → Taşlıca","type":"route","route":"train","colour":"#ecdb3b","network":"Gaziray","service":"commuter","operator":"TCDD Taşımacılık","network:wikidata":"Q55074880","network:wikipedia":"tr:Gaziray","public_transport:version":"2"},"15423228":{"to":"Cumaovası","from":"Menemen","name":"İZBAN: Menemen → Cumaovası","type":"route","route":"train","operator":"İZBAN","public_transport:version":"2"},"15715486":{"to":"Gaziantep","from":"Mersin","name":"Mersin-Adana-Gaziantep Hızlı Tren Hattı","type":"route","route":"train","website":"https://www.tcdd.gov.tr/projeler/mersin-adana-gaziantep-hizli-tren-projesi","wikipedia":"tr:Mersin-Gaziantep yüksek standartlı demiryolu"},"16121736":{"to":"İzmir Basmane","from":"Ankara","name":"İzmir Mavi Treni","type":"route","route":"train","network":"Türkiye Cumhuriyeti Devlet Demiryolları","operator":"TCDD Taşımacılık","wikidata":"Q8080261","wikipedia":"tr:İzmir Mavi Treni","network:short":"TCDD","network:wikidata":"Q499967","operator:wikidata":"Q28220824"}}