{"276149":{"ref":"E","name":"Міська електричка: проти годинникової стрілки","type":"route","route":"train","colour":"#ffce1e","name:uk":"Міська електричка: проти годинникової стрілки","service":"commuter","interval":"30","operator":"ДТГО \\\"Південно-Західна залізниця\\\"","public_transport:version":"2"},"2122918":{"ref":"Луганськ - Мануїлiвка","name":"Перегін Комунарськ-Кипуча","type":"route","route":"train","name:uk":"Перегін Комунарськ-Кипуча","network":"Донецкая железная дорога","operator":"УЗ"},"2456812":{"to":"Миколаїв-Пасажирський","ref":"121К","from":"Київ-Пасажирський","name":"Поїзд №121: Київ — Миколаїв","type":"route","route":"train","name:ru":"Поезд №121: Киев — Николаев","name:uk":"Поїзд №121: Київ — Миколаїв","network":"Укрзалізниця","operator":"Укрзалізниця","network:en":"Ukrainian Railways","network:uk":"Укрзалізниця","operator:en":"Ukrainian Railways","operator:uk":"Укрзалізниця","network:short":"УЗ","operator:short":"УЗ","network:wikidata":"Q923337","network:wikipedia":"uk:Укрзалізниця","operator:wikidata":"Q923337","public_transport:version":"2"},"2519644":{"to":"Львів","ref":"141: Київ-Львів","from":"Київ-Пасажирський","name":"141: Київ-Львів","type":"route","route":"train","name:uk":"141: Київ-Львів","service":"night","operator":"UZ","public_transport:version":"2"},"2519715":{"to":"Київ-Пасажирський","ref":"142: Львів-Київ","from":"Львів","name":"142: Львів-Київ","type":"route","route":"train","name:uk":"142: Львів-Київ","operator":"UZ","public_transport:version":"2"},"2519762":{"to":"Ковель","ref":"97","from":"Київ-Пасажирський","name":"97: Київ-Ковель","type":"route","route":"train","name:de":"97: Kiew-Kowel","name:uk":"97: Київ-Ковель","operator":"UZ","public_transport:version":"2"},"2519763":{"to":"Київ-Пасажирський","ref":"98: Ковель-Київ","from":"Ковель","name":"98: Ковель-Київ","type":"route","route":"train","name:de":"98: Kowel-Kyiv","name:uk":"98: Ковель-Київ","operator":"UZ","public_transport:version":"2"},"2573954":{"name":"Помічна — Голованівськ","type":"route","route":"train","name:uk":"Помічна — Голованівськ","public_transport:version":"2"},"2573964":{"name":"Гайворон - Голованівськ","type":"route","route":"train","name:uk":"Гайворон - Голованівськ"},"2573971":{"name":"Гайворон - Рудниця","type":"route","route":"train","name:uk":"Гайворон - Рудниця"},"3413922":{"to":"Мерчик","from":"Харків-Левада","name":"Харків-Левада => Мерчик","type":"route","route":"train","name:en":"Kharkiv-Levada => Merchyk","name:uk":"Харків-Левада => Мерчик","public_transport:version":"2"},"3482873":{"to":"Одеса-Головна","ref":"Колосівка - Одеса","from":"Колосівка","name":"Колосівка - Одеса","type":"route","fixme":"Добавить остановочные позиции и заменить ими станции, обновить информацию.","route":"train","colour":"blue","ref:uz":"6401","name:uk":"Колосівка - Одеса","network":"Укрзалізниця","website":"https://swrailway.gov.ua/timetable/eltrain3-4/?tid=19598","operator":"Укрзалізниця","network:en":"Ukrainian Railways","network:uk":"Укрзалізниця","operator:en":"Ukrainian Railways","operator:uk":"Укрзалізниця","network:short":"УЗ","operator:short":"УЗ","network:wikidata":"Q923337","operator:wikidata":"Q923337","public_transport:version":"2"},"3483178":{"to":"Київ-Пасажирський","ref":"122Ш","from":"Миколаїв-Пасажирський","name":"Поїзд №122: Миколаїв — Київ","type":"route","route":"train","name:ru":"Поезд №122: Николаев — Киев","name:uk":"Поїзд №122: Миколаїв — Київ","network":"Укрзалізниця","operator":"Укрзалізниця","network:en":"Ukrainian Railways","network:uk":"Укрзалізниця","operator:en":"Ukrainian Railways","operator:uk":"Укрзалізниця","network:short":"УЗ","operator:short":"УЗ","network:wikidata":"Q923337","network:wikipedia":"uk:Укрзалізниця","operator:wikidata":"Q923337","public_transport:version":"2"},"3485895":{"ref":"6002/6001","name":"Поїзд № 6002-6001: Миколаїв — Колосівка","type":"route","route":"train","name:ru":"Поезд № 6002-6001: Николаев — Колосовка","name:uk":"Поїзд № 6002-6001: Миколаїв — Колосівка","network":"Укрзалізниця","network:en":"Ukrzaliznytsia","network:uk":"Укрзалізниця","network:wikidata":"Q923337","network:wikipedia":"uk:Укрзалізниця","public_transport:version":"2"},"3488408":{"to":"Миколаїв-Вантажний","ref":"6004/6003","from":"Колосівка","name":"Поїзд № 6004-6003: Колосівка — Миколаїв","type":"route","route":"train","name:ru":"Поезд № 6004-6003: Колосовка — Николаев","name:uk":"Поїзд № 6004-6003: Колосівка — Миколаїв","network":"Укрзалізниця","network:en":"Ukrzaliznytsia","network:uk":"Укрзалізниця","network:wikidata":"Q923337","network:wikipedia":"uk:Укрзалізниця","public_transport:version":"2"},"3492703":{"name":"Чаплине -- Синельникове 1","type":"route","route":"train","name:uk":"Чаплине -- Синельникове 1","network":"Придніпровська залізниця"},"6760507":{"to":"Березине","ref":"687О","via":"Теплиця - Паризька - Городок - Красне","from":"Арциз","name":"поїзд № 687: Арциз — Березине","type":"route","route":"train","name:uk":"поїзд № 687: Арциз — Березине","network":"Укрзалізниця","operator":"Одеська залізниця","network:en":"Ukrzaliznytsia","network:uk":"Укрзалізниця","network:wikidata":"Q923337","public_transport:version":"2"},"6760550":{"ref":"Роздільна - Одеса","name":"Роздільна - Одеса","type":"route","fixme":"Добавить остановочные позиции и заменить ими станции, добавить платформы, обновить информацию.","route":"train","ref:uz":"6201","name:uk":"Роздільна - Одеса","website":"https://swrailway.gov.ua/timetable/eltrain3-4/?tid=19406","public_transport:version":"2"},"6762054":{"to":"Одеса-Головна","ref":"Київ => Одеса","via":"Вінниця","from":"Київ-Пасажирський","name":"Поїзд 105: Київ => Одеса","type":"route","route":"train","ref:uz":"105 (\\\"Чорноморець\\\")","name:en":"Train 105: Kyiv => Odesa","name:ru":"Поезд 105: Киев => Одесса","name:uk":"Поїзд 105: Київ => Одеса","service":"night","toilets":"yes","website":"https://uz.gov.ua/passengers/timetable/?ntrain=70736&by_id=1","by_night":"only","duration":"08:58","operator":"Укзалізниця","couchette":"yes","passenger":"national","reservation":"yes","sleeping_car":"yes","opening_hours":"21:17-06:15","public_transport:version":"2"},"6990078":{"name":"Лосєве - Гракове","type":"route","route":"train","name:uk":"Лосєве - Гракове"},"7026163":{"name":"Фенольна → Красний Лиман","type":"route","route":"train","name:ru":"Фенольная → Красный Лиман","name:uk":"Фенольна → Красний Лиман"},"7027616":{"ref":"Курдюмівка - Ізюм","name":"Курдюмівка → Красний Лиман → Ізюм","type":"route","route":"train","name:ru":"Курдюмовка → Красный Лиман → Изюм","name:uk":"Курдюмівка → Красний Лиман → Ізюм"},"7083556":{"ref":"Знаменка <-> Вознесенск","name":"Знам'янка <-> Вознесенськ","type":"route","route":"train","name:uk":"Знам'янка <-> Вознесенськ","start_date":"1869"},"7083599":{"ref":"Чаплине <-> Авдіївка","name":"Чаплине <-> Авдіївка","type":"route","route":"train","name:uk":"Чаплине <-> Авдіївка"},"7086017":{"ref":"Помічна => Подільськ","name":"Помічна => Подільськ","type":"route","fixme":"Добавить остановочные позиции и заменить ими станции, обновить информацию, добавить обратный маршрут.","route":"train","ref:uz":"6603","name:ru":"Помошная => Подольск","name:uk":"Помічна => Подільськ","website":"https://swrailway.gov.ua/timetable/eltrain3-4/?tid=19632","public_transport:version":"2"},"7090923":{"ref":"Знаменка — Пятихатки","name":"6002 Знам'янка-Пас. - П'ятихатки-Пас. Приміський поїзд (електричка)","type":"route","route":"train","name:uk":"6002 Знам'янка-Пас. - П'ятихатки-Пас. Приміський поїзд (електричка)"},"7090924":{"ref":"6008","name":"6008 П'ятихатки-Пас. - Дніпропетровськ-Голов. Приміський поїзд","type":"route","route":"train","name:uk":"6008 П'ятихатки-Пас. - Дніпропетровськ-Голов. Приміський поїзд"},"7090925":{"ref":"6104","name":"6104 Синельникове-1 — Чаплине Приміський поїзд","type":"route","route":"train","name:uk":"6104 Синельникове-1 — Чаплине Приміський поїзд"},"7090926":{"ref":"6118","name":"6118 Дніпропетровськ-Голов. — Синельникове-1 Приміський поїзд","type":"route","route":"train","name:uk":"6118 Дніпропетровськ-Голов. — Синельникове-1 Приміський поїзд"},"7093007":{"to":"Київ-Пасажирський","ref":"84","from":"Маріуполь","name":"84: Маріуполь-Київ","type":"route","route":"train","name:uk":"84: Маріуполь-Київ","operator":"UZ","public_transport:version":"2"},"7096612":{"ref":"Кривий Ріг-П'ятихатки","name":"Кривий Ріг-П'ятихатки","type":"route","route":"train","name:uk":"Кривий Ріг-П'ятихатки"},"7096679":{"ref":"Grakove - Kupyansk","name":"Grakove - Kupyansk","type":"route","route":"train","name:uk":"Grakove - Kupyansk"},"7113865":{"name":"Полтава-Південна - Ромодан","type":"route","route":"train","name:en":"Poltava - Romodan","name:uk":"Полтава-Південна - Ромодан","wikidata":"Q104764399"},"7117439":{"ref":"6361","name":"Ромодан → Гребенка","type":"route","route":"train","name:uk":"Ромодан → Гребенка"},"7118656":{"ref":"6805","name":"Гребінка → Дарниця","type":"route","route":"train","name:uk":"Гребінка → Дарниця"},"7121328":{"ref":"6292/6290","name":"6292/6290 Краматорськ — Харків","type":"route","route":"train","name:uk":"6292/6290 Краматорськ — Харків"},"7125680":{"ref":"6329","name":"Куп’янськ - Попасна","type":"route","route":"train","name:uk":"Куп’янськ - Попасна"},"7220989":{"name":"Medyka - Львів","type":"route","route":"train","name:uk":"Medyka - Львів"},"7501042":{"to":"Хаціслаў","ref":"Брест - Заболотье","from":"Брэст","name":"Брэст - Забалоцце / Брест - Заболоття","type":"route","route":"train","name:be":"Брэст - Забалоцце","name:de":"Brest - Zablocie","name:uk":"Брест - Забалоцце / Брест - Заболоття"},"7505433":{"ref":"Ковель - Камінь-Каширський","name":"Ковель - Камінь-Каширський","type":"route","route":"train","name:be":"Ковель - Камень-Кашырскі","name:ru":"Ковель - Камень-Каширский","name:uk":"Ковель - Камінь-Каширський"},"7786516":{"ref":"E","name":"Міська електричка: за годинниковою стрілкою","type":"route","route":"train","colour":"#ffce1e","name:uk":"Міська електричка: за годинниковою стрілкою","service":"commuter","interval":"30","operator":"ДТГО \\\"Південно-Західна залізниця\\\"","roundtrip":"yes","public_transport:version":"2"},"8290101":{"to":"Гути","from":"Богодухів","name":"Богодухів - Гути","type":"route","route":"train","name:uk":"Богодухів - Гути","network":"Укрзалізниця","distance":"10.600 km","operator":"Укрзалізниця","network:en":"Ukrainian Railways","network:uk":"Укрзалізниця","operator:en":"Ukrainian Railways","operator:uk":"Укрзалізниця","network:short":"УЗ","operator:short":"УЗ","network:wikidata":"Q923337","operator:wikidata":"Q923337"},"8290710":{"to":"Кириківка","from":"Охтирка","name":"Охтирка – Кириківка","type":"route","route":"train","name:uk":"Охтирка – Кириківка","distance":"17.000 km","operator":"Південна Залізниця"},"8290833":{"name":"Лебединська–Боромля","type":"route","route":"train","name:uk":"Лебединська–Боромля","operator":"Південна Залізниця"},"8371547":{"to":"Санкт-Петербург-Главный","ref":"008С","from":"Севастополь","name":"Скорый поезд 008С: Севастополь → Санкт-Петербург-Главный","type":"route","route":"train","network":"РЖД","service":"long_distance","operator":"ТК «Гранд Сервис Экспресс»","check_date":"2024-01-23","network:en":"RZD","network:ru":"РЖД","network:wikidata":"Q660770","network:wikipedia":"ru:Российские железные дороги","public_transport:version":"2"},"10050269":{"to":"Миколаїв-Вантажний","ref":"6317","from":"Долинська","name":"Поїзд № 6317: Долинська — Миколаїв","type":"route","route":"train","name:ru":"Поезд № 6317: Долинская — Николаев","name:uk":"Поїзд № 6317: Долинська — Миколаїв","public_transport:version":"2"},"10050270":{"to":"Долинська","ref":"6318","from":"Миколаїв-Вантажний","name":"Поїзд № 6318: Миколаїв — Долинська","type":"route","route":"train","name:ru":"Поезд № 6318: Николаев — Долинская","name:uk":"Поїзд № 6318: Миколаїв — Долинська","network":"Укрзалізниця","operator":"Укрзалізниця","network:en":"Ukrainian Railways","network:uk":"Укрзалізниця","operator:en":"Ukrainian Railways","operator:uk":"Укрзалізниця","network:short":"УЗ","operator:short":"УЗ","network:wikidata":"Q923337","network:wikipedia":"uk:Укрзалізниця","operator:wikidata":"Q923337","public_transport:version":"2"},"10060196":{"to":"Миколаїв-Вантажний","ref":"40-062","from":"Миколаїв","name":"дільниця 40-062 «Миколаїв — Миколаїв-Вантажний» (Основна тарифна дільниця)","type":"route","route":"train","source":"Тарифное руководство № 4. Книга I","name:ru":"участок 40-062 «Николаев — Николаев-Грузовой» (Основной тарифный участок)","name:uk":"дільниця 40-062 «Миколаїв — Миколаїв-Вантажний» (Основна тарифна дільниця)","network":"Укрзалізниця","operator":"Укрзалізниця","network:en":"Ukrainian Railways","network:uk":"Укрзалізниця","operator:en":"Ukrainian Railways","operator:uk":"Укрзалізниця","network:short":"УЗ","operator:short":"УЗ","network:wikidata":"Q923337","network:wikipedia":"uk:Укрзалізниця","operator:wikidata":"Q923337","public_transport:version":"2"},"10060313":{"to":"Арциз","ref":"688Ш","via":"Красне - Городок - Паризька - Теплиця","from":"Березине","name":"поїзд № 688: Березине — Арциз","type":"route","route":"train","name:uk":"поїзд № 688: Березине — Арциз","network":"Укрзалізниця","operator":"Одеська залізниця","network:en":"Ukrzaliznytsia","network:uk":"Укрзалізниця","network:wikidata":"Q923337","public_transport:version":"2"},"10067102":{"to":"Білгород-Дністровський","ref":"286Ш","via":"Ташбунар - Котлабух - Дзинілор - Аліяга - Главані - Давлет-Агач - Арциз - Сарата - Кулевча - Кантемир","from":"Ізмаїл","name":"поїзд № 286: Ізмаїл — Білгород-Дністровський","type":"route","route":"train","name:uk":"поїзд № 286: Ізмаїл — Білгород-Дністровський","network":"Укрзалізниця","operator":"Одеська залізниця","network:en":"Ukrzaliznytsia","network:uk":"Укрзалізниця","network:wikidata":"Q923337","public_transport:version":"2"},"10067103":{"to":"Ізмаїл","ref":"285Ш","via":"Кантемир - Кулевча - Сарата - Арциз - Давлет-Агач - Главані - Аліяга - Дзинілор - Котлабух - Ташбунар","from":"Білгород-Дністровський","name":"поїзд № 285: Білгород-Дністровський — Ізмаїл","type":"route","route":"train","name:uk":"поїзд № 285: Білгород-Дністровський — Ізмаїл","network":"Укрзалізниця","operator":"Одеська залізниця","network:en":"Ukrzaliznytsia","network:uk":"Укрзалізниця","network:wikidata":"Q923337","public_transport:version":"2"},"10290062":{"to":"Люботин","from":"Кіриківка","name":"Кіриківка - Люботин","type":"route","route":"train","name:uk":"Кіриківка - Люботин","network":"Укрзалізниця","operator":"Південна залізниця"},"10290608":{"to":"Люботин","from":"Кириківка","name":"Кириківка-Люботин","type":"route","route":"train","name:uk":"Кириківка-Люботин","network":"Укрзалізниця","operator":"Південна залізниця"},"10290613":{"to":"Люботин","from":"Кириківка","name":"Кириківка-Люботин","type":"route","route":"train","name:uk":"Кириківка-Люботин","network":"Укрзалізниця","operator":"Південна залізниця"},"11351352":{"to":"Сновськ","ref":"6503","from":"Бахмач-Пасажирський","name":"Потяг №6503: Бахмач-Пасажирський - Сновськ","type":"route","route":"train","name:uk":"Потяг №6503: Бахмач-Пасажирський - Сновськ","network":"Укрзалізниця","operator":"Південно-Західна залізниця","passenger":"regional","opening_hours":"Mo-Su 20:28-22:54","public_transport:version":"2"},"11351353":{"to":"Сновськ","ref":"6501","from":"Бахмач-Пасажирський","name":"Потяг №6501: Бахмач-Пасажирський - Сновськ","type":"route","route":"train","name:uk":"Потяг №6501: Бахмач-Пасажирський - Сновськ","network":"Укрзалізниця","operator":"Південно-Західна залізниця","passenger":"regional","opening_hours":"Mo-Su 08:10-10:36","public_transport:version":"2"},"11351354":{"to":"Бахмач-Пасажирський","ref":"6504","from":"Сновськ","name":"Потяг №6504: Сновськ - Бахмач-Пасажирський","type":"route","route":"train","name:uk":"Потяг №6504: Сновськ - Бахмач-Пасажирський","network":"Укрзалізниця","operator":"Південно-Західна залізниця","passenger":"regional","opening_hours":"Mo-Su 16:59-19:28","public_transport:version":"2"},"11351355":{"to":"Бахмач-Пасажирський","ref":"6502","from":"Сновськ","name":"Потяг №6502: Сновськ - Бахмач-Пасажирський","type":"route","route":"train","name:uk":"Потяг №6502: Сновськ - Бахмач-Пасажирський","network":"Укрзалізниця","operator":"Південно-Західна залізниця","passenger":"regional","opening_hours":"Mo-Su 05:00-07:30","public_transport:version":"2"},"11529522":{"to":"Станція Південна","from":"Станція Південна","name":"Дитяча залізниця ім. Поповича","type":"route","route":"train","name:uk":"Дитяча залізниця ім. Поповича"},"11770614":{"to":"Рівне","from":"Покровськ","name":"Гришине-Рівненська залізниця","type":"route","route":"train","name:uk":"Гришине-Рівненська залізниця","railway":"historic","wikidata":"Q25431716","wikipedia":"uk:Гришине-Рівненська залізниця"},"12304361":{"to":"Погребище-1","from":"Козятин","name":"Козятин - Погребище-1","type":"route","route":"train","name:uk":"Козятин - Погребище-1","network":"Укрзалізниця","operator":"Укрзалізниця","network:en":"Ukrainian Railways","network:uk":"Укрзалізниця","operator:en":"Ukrainian Railways","operator:uk":"Укрзалізниця","network:short":"УЗ","operator:short":"УЗ","network:wikidata":"Q923337","operator:wikidata":"Q923337"},"12304779":{"to":"Сквира","from":"Попільня","name":"Попільня - Сквира","type":"route","route":"train","name:uk":"Попільня - Сквира","network":"Укрзалізниця","operator":"Укрзалізниця","network:en":"Ukrainian Railways","network:uk":"Укрзалізниця","operator:en":"Ukrainian Railways","operator:uk":"Укрзалізниця","network:short":"УЗ","operator:short":"УЗ","network:wikidata":"Q923337","operator:wikidata":"Q923337"},"12304822":{"to":"Бердичів","from":"Козятин-1","name":"Козятин - Бердичів","type":"route","route":"train","name:uk":"Козятин - Бердичів","operator":"УЗ"},"12500837":{"to":"Харків-Левада","from":"Мерчик","name":"Мерчик => Харків-Левада","type":"route","route":"train","name:en":"Merchyk => Kharkiv-Levada","name:uk":"Мерчик => Харків-Левада","public_transport:version":"2"},"12509737":{"name":"Залізниця до Новокостянтинівського уранового родовища","type":"route","route":"train","name:uk":"Залізниця до Новокостянтинівського уранового родовища"},"12804149":{"to":"Маріуполь","ref":"83","from":"Київ-Пасажирський","name":"83: Київ-Маріуполь","type":"route","route":"train","name:uk":"83: Київ-Маріуполь","operator":"UZ","public_transport:version":"2"},"13346871":{"to":"Київ","ref":"712Д","from":"Костянтинівка","name":"712Д: Костянтинівка-Київ","type":"route","route":"train","name:uk":"712Д: Костянтинівка-Київ","operator":"Intercity","public_transport:version":"2"},"13363985":{"to":"Красне","ref":"6382/6381","from":"Здолбунів","name":"Здолбунів-Пас. – Красне","type":"route","route":"train","name:uk":"Здолбунів-Пас. – Красне","duration":"02:55","operator":"Львівська залізниця","public_transport:version":"2"},"14391693":{"to":"Київ-Пасажирський","ref":"Одеса => Київ","via":"Вінниця","from":"Одеса-Головна","name":"Поїзд 106: Одеса => Київ","type":"route","route":"train","ref:uz":"106 (\\\"Чорноморець\\\")","name:en":"Train 106: Odesa => Kyiv","name:ru":"Поезд 106: Одесса => Киев","name:uk":"Поїзд 106: Одеса => Київ","service":"night","toilets":"yes","website":"https://uz.gov.ua/passengers/timetable/?ntrain=70817&by_id=1","by_night":"only","duration":"09:22","operator":"Укзалізниця","couchette":"yes","passenger":"national","reservation":"yes","sleeping_car":"yes","opening_hours":"21:32-06:54","public_transport:version":"2"},"14530085":{"to":"Одеса-Головна","ref":"6342;6348/6347","from":"Кароліна-Бугаз","name":"Приміський потяг 6342: Білгород-Дністровський => Одеса","note":"Начать от Белгород-Днестровского, когда продлят маршрут.","type":"route","route":"train","bicycle":"limited","name:en":"Suburban train 6342: Bilhorod-Dnistrovskyi => Odesa","name:ru":"Пригородный поезд 6342: Белгород-Днестровский => Одесса","name:uk":"Приміський потяг 6342: Білгород-Дністровський => Одеса","service":"regional","toilets":"yes","website":"https://swrailway.gov.ua/timetable/eltrain3-4/?tid=17854","by_night":"no","duration":"01:48","operator":"Укрзалізниця","passenger":"regional","wheelchair":"no","reservation":"no","opening_hours":"06:05-19:21","air_conditioning":"no","toilets:wheelchair":"no","public_transport:version":"2"},"14530086":{"to":"Кароліна-Бугаз","ref":"6304/6303;6310","from":"Одеса-Головна","name":"Приміський потяг 6304/6303: Одеса => Білгород-Дністровський","note":"Расширить до Белгород-Днестровского, когда продлят маршрут.","type":"route","route":"train","bicycle":"limited","name:en":"Suburban train 6304/6303: Odesa => Bilhorod-Dnistrovskyi","name:ru":"Пригородный поезд 6304/6303: Одесса => Белгород-Днестровский","name:uk":"Приміський потяг 6304/6303: Одеса => Білгород-Дністровський","network":"Укрзалізниця","service":"regional","toilets":"yes","website":"https://swrailway.gov.ua/timetable/eltrain3-4/?tid=17855","by_night":"no","duration":"01:46","operator":"Укрзалізниця","passenger":"regional","network:en":"Ukrainian Railways","network:uk":"Укрзалізниця","wheelchair":"no","operator:en":"Ukrainian Railways","operator:uk":"Укрзалізниця","reservation":"no","network:short":"УЗ","opening_hours":"08:44-19:30","operator:short":"УЗ","air_conditioning":"no","network:wikidata":"Q923337","operator:wikidata":"Q923337","toilets:wheelchair":"no","public_transport:version":"2"},"14865039":{"to":"Košice","ref":"R Zakarpatia","via":"Čierna nad Tisou","from":"Чоп","name":"Train R Zakarpatia: Чоп => Košice","type":"route","route":"train","name:uk":"Train R Zakarpatia: Чоп => Košice","network":"ZSSK","service":"long_distance","duration":"02:27","operator":"ZSSK","passenger":"international","network:wikidata":"Q837019","operator:wikidata":"Q393557","public_transport:version":"2"},"14955033":{"to":"Колосівка","ref":"Одеса - Колосівка","from":"Одеса-Головна","name":"Одеса - Колосівка","type":"route","fixme":"Добавить остановочные позиции и заменить ими станции, обновить информацию.","route":"train","colour":"blue","ref:uz":"6406","name:uk":"Одеса - Колосівка","network":"Укрзалізниця","website":"https://swrailway.gov.ua/timetable/eltrain3-4/?tid=19618","operator":"Укрзалізниця","network:en":"Ukrainian Railways","network:uk":"Укрзалізниця","operator:en":"Ukrainian Railways","operator:uk":"Укрзалізниця","network:short":"УЗ","operator:short":"УЗ","network:wikidata":"Q923337","operator:wikidata":"Q923337","public_transport:version":"2"},"14958231":{"ref":"Одеса - Роздільна","name":"Одеса - Роздільна","type":"route","fixme":"Добавить остановочные позиции и заменить ими станции, добавить платформы, обновить информацию.","route":"train","ref:uz":"6202","name:uk":"Одеса - Роздільна","website":"https://swrailway.gov.ua/timetable/eltrain3-4/?tid=19414","public_transport:version":"2"},"14962311":{"ref":"Балта => Одеса","name":"Балта => Одеса","type":"route","fixme":"Добавить остановочные позиции и заменить ими станции, добавить платформы, добавить информацию.","route":"train","ref:uz":"6271","name:uk":"Балта => Одеса","website":"https://swrailway.gov.ua/timetable/eltrain3-4/?tid=19567","alt_name":"Білине => Одеса","public_transport:version":"2"},"14962312":{"ref":"Одеса => Балта","name":"Одеса => Балта","type":"route","fixme":"Добавить остановочные позиции и заменить ими станции, добавить платформы, добавить информацию.","route":"train","ref:uz":"6272","name:uk":"Одеса => Балта","website":"https://swrailway.gov.ua/timetable/eltrain3-4/?tid=19569","alt_name":"Одеса => Білине","public_transport:version":"2"},"15585307":{"to":"Миронівка","from":"Канів","name":"Канів-Миронівка","type":"route","route":"train","name:uk":"Канів-Миронівка"},"16001044":{"to":"Рівне","from":"Ковель","name":"Ковель - Рівне","type":"route","route":"train","name:de":"Kowel - Riwne","name:pl":"Kowel - Równe","name:ru":"Ковель - Ровно","name:uk":"Ковель - Рівне"},"16001222":{"to":"Шепетівка","from":"Рівне","name":"Рівне - Шепетівка","type":"route","route":"train","name:de":"Riwne - Schepetiwka","name:pl":"Równe - Szepetówka","name:ru":"Ровно - Шепетовка","name:uk":"Рівне - Шепетівка"},"16001447":{"to":"Сарни","from":"Рівне","name":"Рівне - Сарни","type":"route","route":"train","name:de":"Riwne - Sarny","name:pl":"Równe - Sarny","name:ru":"Ровно - Сарны","name:uk":"Рівне - Сарни"},"16001751":{"to":"Коростень","from":"Шепетівка","name":"Шепетівка - Коростень","type":"route","route":"train","name:de":"Schepetiwka - Korosten","name:pl":"Szepetówka - Korosteń","name:ru":"Шепетовка - Коростень","name:uk":"Шепетівка - Коростень"},"16001954":{"to":"Ларга","from":"Чернівці","name":"Чернівці - Ларга","type":"route","route":"train","name:de":"Czernowitz - Larga","name:pl":"Czerniowce - Larga","name:ru":"Черновцы - Ларга","name:uk":"Чернівці - Ларга"},"16022614":{"to":"Самбір","ref":"6131","via":"Нежухів;Райлів;Верхні Гаї;Болехівці;Дрогобич;Михайлевичі;Рихтичі;Добрівляни;Дорожів;Новошичі;Дубляни-Самбірські 2;Дубляни-Самбірські;Кульчиці;Радловичі;Райлівка","from":"Стрий","name":"Стрий - Самбір","type":"route","route":"train","colour":"#006eff","name:uk":"Стрий - Самбір","distance":"+-60","duration":"120:00","operator":"Львівська Залізниця","opening_hours":"Mo-Su 05:00-19:00"},"17071361":{"to":"Москва-Пассажирская-Казанская","ref":"028С","from":"Симферополь-Пассажирский","name":"Скорый поезд 028С: Симферополь → Москва-Казанская","type":"route","route":"train","network":"РЖД","service":"long_distance","operator":"ТК «Гранд Сервис Экспресс»","check_date":"2024-01-23","network:en":"RZD","network:ru":"РЖД","network:wikidata":"Q660770","network:wikipedia":"ru:Российские железные дороги","public_transport:version":"2"},"17089514":{"to":"Таганрог-II","ref":"Успенская => Таганрог-2","from":"Успенская","name":"Пригородный электропоезд: Успенская => Таганрог-2","type":"route","route":"train","service":"regional","operator":"АО «СКППК»","public_transport:version":"2"},"17219448":{"to":"Севастополь","ref":"Евпатория => Севастополь","from":"Евпатория-Курорт","name":"Электропоезд-экспресс: Евпатория-Курорт => Севастополь","type":"route","route":"train","service":"regional","operator":"ООО «ЮППК»","public_transport:version":"2"},"17219449":{"to":"Симферополь-Пассажирский","ref":"Евпатория => Симферополь","from":"Евпатория-Курорт","name":"Пригородный электропоезд: Евпатория-Курорт => Симферополь-Пассажирский","type":"route","route":"train","service":"regional","operator":"ООО «ЮППК»","public_transport:version":"2"},"17219450":{"to":"Евпатория-Курорт","ref":"Симферополь => Евпатория","from":"Симферополь-Пассажирский","name":"Пригородный электропоезд: Симферополь-Пассажирский => Евпатория-Курорт","type":"route","route":"train","service":"regional","operator":"ООО «ЮППК»","public_transport:version":"2"},"17219451":{"to":"Евпатория-Курорт","ref":"Севастополь => Евпатория","from":"Севастополь","name":"Электропоезд-экспресс: Севастополь => Евпатория-Курорт","type":"route","route":"train","service":"regional","operator":"ООО «ЮППК»","public_transport:version":"2"},"17219452":{"to":"Севастополь","ref":"Бахчисарай => Севастополь","from":"Бахчисарай","name":"Пригородный электропоезд: Бахчисарай => Севастополь","type":"route","route":"train","service":"regional","operator":"ООО «ЮППК»","public_transport:version":"2"},"17219453":{"to":"Симферополь-Пассажирский","ref":"Севастополь => Симферополь","from":"Севастополь","name":"Пригородный электропоезд: Севастополь => Симферополь-Пассажирский","type":"route","route":"train","service":"regional","operator":"ООО «ЮППК»","public_transport:version":"2"},"17219454":{"to":"Севастополь","ref":"Симферополь => Севастополь","from":"Симферополь-Пассажирский","name":"Пригородный электропоезд: Симферополь-Пассажирский => Севастополь","type":"route","route":"train","service":"regional","operator":"ООО «ЮППК»","public_transport:version":"2"},"17219799":{"to":"Джанкой-Пригородный","ref":"Солёное Озеро => Джанкой","from":"Солёное Озеро","name":"Пригородный электропоезд: Солёное Озеро => Джанкой","type":"route","route":"train","service":"regional","operator":"ООО «ЮППК»","public_transport:version":"2"},"17219800":{"to":"Солёное Озеро","ref":"Джанкой => Солёное Озеро","from":"Джанкой-Пригородный","name":"Пригородный электропоезд: Джанкой => Солёное Озеро","type":"route","route":"train","service":"regional","operator":"ООО «ЮППК»","public_transport:version":"2"},"17219801":{"to":"Симферополь-Пассажирский","ref":"Джанкой => Симферополь","from":"Джанкой-Пригородный","name":"Пригородный электропоезд: Джанкой => Симферополь-Пассажирский","type":"route","route":"train","service":"regional","operator":"ООО «ЮППК»","public_transport:version":"2"},"17219802":{"to":"Джанкой-Пригородный","ref":"Симферополь => Джанкой","from":"Симферополь-Пассажирский","name":"Пригородный электропоезд: Симферополь-Пассажирский => Джанкой","type":"route","route":"train","service":"regional","operator":"ООО «ЮППК»","public_transport:version":"2"},"17219803":{"to":"Симферополь-Пассажирский","ref":"Солёное Озеро => Симферополь","from":"Солёное Озеро","name":"Пригородный электропоезд: Солёное Озеро => Симферополь-Пассажирский","type":"route","route":"train","service":"regional","operator":"ООО «ЮППК»","public_transport:version":"2"},"17219804":{"to":"Солёное Озеро","ref":"Симферополь => Солёное Озеро","from":"Симферополь-Пассажирский","name":"Пригородный электропоезд: Симферополь-Пассажирский => Солёное Озеро","type":"route","route":"train","service":"regional","operator":"ООО «ЮППК»","public_transport:version":"2"},"17219876":{"to":"Симферополь-Пассажирский","ref":"Феодосия => Симферополь","from":"Феодосия","name":"Дизельпоезд-экспресс: Феодосия => Симферополь-Пассажирский","type":"route","route":"train","service":"regional","operator":"ООО «ЮППК»","public_transport:version":"2"},"17219877":{"to":"Феодосия","ref":"Симферополь => Феодосия","from":"Симферополь-Пассажирский","name":"Дизельпоезд-экспресс: Симферополь-Пассажирский => Феодосия","type":"route","route":"train","service":"regional","operator":"ООО «ЮППК»","public_transport:version":"2"},"17219878":{"to":"Феодосия","ref":"Джанкой => Феодосия","from":"Джанкой-Пригородный","name":"Дизельпоезд-экспресс: Джанкой => Феодосия","type":"route","route":"train","service":"regional","operator":"ООО «ЮППК»","public_transport:version":"2"},"17219879":{"to":"Джанкой-Пригородный","ref":"Феодосия => Джанкой","from":"Феодосия","name":"Дизельпоезд-экспресс: Феодосия => Джанкой","type":"route","route":"train","service":"regional","operator":"ООО «ЮППК»","public_transport:version":"2"},"17219880":{"to":"Феодосия","ref":"Владиславовка => Феодосия","from":"Владиславовка","name":"Пригородный дизельпоезд: Владиславовка => Феодосия","type":"route","route":"train","service":"regional","operator":"ООО «ЮППК»","public_transport:version":"2"},"17219881":{"to":"Владиславовка","ref":"Феодосия => Владиславовка","from":"Феодосия","name":"Пригородный дизельпоезд: Феодосия => Владиславовка","type":"route","route":"train","service":"regional","operator":"ООО «ЮППК»","public_transport:version":"2"},"17219882":{"to":"Феодосия","ref":"Краснофлотская => Феодосия","from":"Краснофлотская","name":"Пригородный дизельпоезд: Краснофлотская => Феодосия","type":"route","route":"train","service":"regional","operator":"ООО «ЮППК»","public_transport:version":"2"},"17219883":{"to":"Джанкой-Пригородный","ref":"Феодосия => Джанкой","from":"Феодосия","name":"Пригородный дизельпоезд: Феодосия => Джанкой","type":"route","route":"train","service":"regional","operator":"ООО «ЮППК»","public_transport:version":"2"},"17219884":{"to":"Феодосия","ref":"Армянск => Феодосия","from":"Армянск","name":"Пригородный дизельпоезд: Армянск => Феодосия","type":"route","route":"train","service":"regional","operator":"ООО «ЮППК»","public_transport:version":"2"},"17219885":{"to":"Джанкой-Пригородный","ref":"Армянск => Джанкой","from":"Армянск","name":"Пригородный дизельпоезд: Армянск => Джанкой","type":"route","route":"train","service":"regional","operator":"ООО «ЮППК»","public_transport:version":"2"},"17219886":{"to":"Армянск","ref":"Джанкой => Армянск","from":"Джанкой-Пригородный","name":"Пригородный дизельпоезд: Джанкой => Армянск","type":"route","route":"train","service":"regional","operator":"ООО «ЮППК»","public_transport:version":"2"},"17219950":{"to":"Керчь","ref":"Феодосия => Керчь","from":"Феодосия","name":"Пригородный дизельпоезд: Феодосия => Керчь","type":"route","route":"train","service":"regional","operator":"ООО «ЮППК»","public_transport:version":"2"},"17219951":{"to":"Феодосия","ref":"Керчь => Феодосия","from":"Керчь","name":"Пригородный дизельпоезд: Керчь => Феодосия","type":"route","route":"train","service":"regional","operator":"ООО «ЮППК»","public_transport:version":"2"},"17219952":{"to":"Джанкой-Пригородный","ref":"Керчь => Джанкой","from":"Керчь","name":"Пригородный дизельпоезд: Керчь => Джанкой","type":"route","route":"train","service":"regional","operator":"ООО «ЮППК»","public_transport:version":"2"},"17219953":{"to":"Керчь","ref":"Джанкой => Керчь","from":"Джанкой-Пригородный","name":"Пригородный дизельпоезд: Джанкой => Керчь","type":"route","route":"train","service":"regional","operator":"ООО «ЮППК»","public_transport:version":"2"},"17219998":{"to":"Анапа","ref":"Керчь => Анапа","from":"Керчь","name":"Пригородный дизельпоезд: Керчь => Анапа","type":"route","route":"train","service":"regional","operator":"ООО «ЮППК»","public_transport:version":"2"},"17220047":{"to":"Анапа","ref":"Феодосия => Анапа","from":"Феодосия","name":"Пригородный дизельпоезд: Феодосия => Анапа","type":"route","route":"train","service":"regional","operator":"ООО «ЮППК»","public_transport:version":"2"},"17225504":{"to":"Мурманск","ref":"184С","from":"Севастополь","name":"Скорый поезд 184С: Севастополь => Мурманск","type":"route","route":"train","network":"РЖД","service":"long_distance","operator":"ТК «Гранд Сервис Экспресс»","network:en":"RZD","network:ru":"РЖД","network:wikidata":"Q660770","network:wikipedia":"ru:Российские железные дороги","public_transport:version":"2"},"17359753":{"to":"Миколаїв","ref":"219Ш","from":"Херсон","name":"Поїзд № 219: Херсон - Миколаїв","type":"route","route":"train","source":"https://www.uz.gov.ua/","name:uk":"Поїзд № 219: Херсон - Миколаїв","network":"Укрзалізниця","duration":"02:19","operator":"Укрзалізниця","check_date":"2024-03-18","network:en":"Ukrainian Railways","network:uk":"Укрзалізниця","wheelchair":"yes","description":"цілий рік по парних, при двох непарних 28,30,2,4; 29/02/2024 * відмінено 2/04; 2/06; 2/08; 2/09; 2/11/2024","operator:en":"Ukrainian Railways","operator:uk":"Укрзалізниця","network:short":"УЗ","operator:short":"УЗ","network:wikidata":"Q923337","operator:wikidata":"Q923337"},"17360047":{"to":"Київ-Пас.","ref":"121","via":"Миколаїв Пас.;Явкине;Новополтавка;Новий Буг;Казанка;Долинська;Куцівка;Чорноліська;Фундукліївка;Кам'янка;Ім.тараса Шевченка;Цвіткове;Городище;Корсунь","from":"Херсон","name":"Поїзд № 121 (\\\"МИКОЛАЇВ\\\"): Херсон - Київ","type":"route","route":"train","name:en":"Train No. 121 (\\\"MYKOLAIV\\\"): Kherson - Kyiv","name:ru":"Поезд №121 (\\\"НИКОЛАЕВ\\\"): Херсон – Киев","name:uk":"Поїзд № 121 (\\\"МИКОЛАЇВ\\\"): Херсон - Київ","network":"Укрзалізниця","duration":"12:36","operator":"Укрзалізниця","check_date":"2024-03-18","network:en":"Ukrainian Railways","network:uk":"Укрзалізниця","description":"цілий рік по парних, при двох непарних 28,30,2,4 * курсує зі змінами 14-24,26/03-4/04/2024","operator:en":"Ukrainian Railways","operator:uk":"Укрзалізниця","network:short":"УЗ","operator:short":"УЗ","network:wikidata":"Q923337","operator:wikidata":"Q923337"},"17361320":{"to":"Львів","ref":"109","via":"Миколаїв Пас.;Явкине;Новополтавка;Новий Буг;Казанка;Долинська;Куцівка;Чорноліська;Фундукліївка;Ім.тараса Шевченка;Миронівка;Біла Церква;Козятин-1;Вінниця;Жмеринка-Пас.;Деражня;Хмельницький;Волочиськ;Підволочиськ;Тернопіль-Пас.;Злочів;Красне;Підзамче","from":"Херсон","name":"Поїзд № 109: Херсон - Львів","type":"route","route":"train","name:en":"Train No. 109: Kherson - Lviv","name:ru":"Поезд №109: Херсон – Львов","name:uk":"Поїзд № 109: Херсон - Львів","network":"Укрзалізниця","duration":"20:48","operator":"Укрзалізниця","check_date":"2024-03-18","network:en":"Ukrainian Railways","network:uk":"Укрзалізниця","operator:en":"Ukrainian Railways","operator:uk":"Укрзалізниця","network:short":"УЗ","operator:short":"УЗ","network:wikidata":"Q923337","operator:wikidata":"Q923337","public_transport:version":"2"},"17496725":{"to":"Москва-Пассажирская-Павелецкая","ref":"164С","from":"Феодосия","name":"Скорый поезд 164С: Феодосия → Москва-Павелецкая","type":"route","route":"train","network":"РЖД","service":"long_distance","operator":"ТК «Гранд Сервис Экспресс»","network:en":"RZD","network:ru":"РЖД","network:wikidata":"Q660770","network:wikipedia":"ru:Российские железные дороги","public_transport:version":"2"},"17500507":{"to":"Санкт-Петербург-Главный","ref":"180С","from":"Евпатория-Курорт","name":"Скорый поезд 180С: Евпатория → Санкт-Петербург-Главный","type":"route","route":"train","network":"РЖД","service":"long_distance","operator":"ТК «Гранд Сервис Экспресс»","network:en":"RZD","network:ru":"РЖД","network:wikidata":"Q660770","network:wikipedia":"ru:Российские железные дороги","public_transport:version":"2"}}