{"3539672":{"to":"Ga Hải Phòng","ref":"ĐSHN-HP","from":"Ga Hà Nội","name":"Đường sắt Hà Nội - Hải Phòng","type":"route","gauge":"1000","route":"train","usage":"main","source":"osm-gpx;bingsat","name:en":"Ha Noi - Hai Phong Railway","name:vi":"Đường sắt Hà Nội - Hải Phòng","network":"VN:railway","railway":"rail","maxspeed":"100","operator":"VNR","wikipedia":"vi:Đường sắt Hà Nội - Hải Phòng","importance":"national","alt_name:en":"Hanoi - Haiphong Railway","electrified":"no","alt_name2:en":"Hanoi - Haiphong line","railway:etcs":"2","passenger_lines":"1","public_transport":"2"},"8351998":{"to":"Ga Lào Cai","ref":"ĐSHN-LC","from":"Ga Hà Nội","name":"Đường sắt Hà Nội - Lào Cai","type":"route","gauge":"1000","route":"train","usage":"main","source":"osm-gpx;bingsat","name:en":"Ha Noi – Lao Cai Railway","name:vi":"Đường sắt Hà Nội - Lào Cai","network":"VN:railway","railway":"rail","operator":"VNR","importance":"national","electrified":"no","railway:etcs":"2","passenger_lines":"1","public_transport":"2"},"9101636":{"to":"Ga Cái Lân","ref":"ĐSK-CL","from":"Ga Kép","name":"Đường sắt Kép - Cái Lân","type":"route","gauge":"1435","route":"train","usage":"main","source":"osm-gpx;bingsat","name:en":"Kep - Cai Lan railway","name:vi":"Đường sắt Kép - Cái Lân","network":"VN:railway","railway":"rail","operator":"VNR","importance":"national","electrified":"no","railway:etcs":"2","passenger_lines":"1","public_transport":"2"},"9101638":{"ref":"ĐSHN-ĐĐ","name":"Đường sắt Hà Nội - Đồng Đăng","type":"route","gauge":"1000;1435","route":"train","usage":"main","source":"osm-gpx;bingsat","tracks":"1","name:en":"Hanoi - Dong Dang Railway","name:ja":"ハノイ・ドンダン線","name:vi":"Đường sắt Hà Nội - Đồng Đăng","name:zh":"河太鐵路","network":"VN:railway","railway":"rail","maxspeed":"100","operator":"VNR","wikidata":"Q10841016","wikipedia":"vi:Đường sắt Hà Nội – Đồng Đăng","importance":"national","electrified":"no","railway:etcs":"2","passenger_lines":"1"},"9101640":{"ref":"ĐSHN-QT","name":"Đường sắt Hà Nội - Quan Triều","type":"route","gauge":"1000;1435","route":"train","usage":"main","source":"osm-gpx;bingsat","name:en":"Hanoi - Quan Trieu Railway","name:vi":"Đường sắt Hà Nội - Quan Triều","name:zh":"河太鐵路","railway":"rail","maxspeed":"100","operator":"VNR","importance":"national","alt_name:en":"Hanoi–Thái Nguyên Railway","electrified":"no","alt_name2:en":"Dong Anh-Quan Trieu line","railway:etcs":"2","passenger_lines":"1","public_transport":"2"},"16533914":{"to":"Hải Phòng","ref":"HP1","from":"Hà Nội","name":"Tàu HP1: Hà Nội => Hải Phòng","type":"route","route":"train","name:en":"Train HP1: Hanoi => Haiphong","network":"VN:railway","toilets":"yes","distance":"102","duration":"02:25","operator":"Tổng công ty Đường sắt Việt Nam","passenger":"regional","public_transport:version":"2"},"16536005":{"to":"Hải Phòng","ref":"LP3","from":"Hà Nội","name":"Tàu LP3: Hà Nội => Hải Phòng","type":"route","route":"train","name:en":"Train LP3: Hanoi => Haiphong","network":"VN:railway","toilets":"yes","distance":"102","duration":"02:40","operator":"Tổng công ty Đường sắt Việt Nam","passenger":"regional","public_transport:version":"2"},"16536371":{"to":"Hải Phòng","ref":"LP5","from":"Hà Nội","name":"Tàu LP5: Hà Nội => Hải Phòng","type":"route","route":"train","name:en":"Train LP5: Hanoi => Haiphong","network":"VN:railway","toilets":"yes","distance":"102","duration":"02:45","operator":"Tổng công ty Đường sắt Việt Nam","passenger":"regional","public_transport:version":"2"},"16536372":{"to":"Hải Phòng","ref":"LP7","from":"Hà Nội","name":"Tàu LP7: Hà Nội => Hải Phòng","type":"route","route":"train","name:en":"Train LP7: Hanoi => Haiphong","network":"VN:railway","toilets":"yes","distance":"102","duration":"02:45","operator":"Tổng công ty Đường sắt Việt Nam","passenger":"regional","public_transport:version":"2"},"16539549":{"to":"Hà Nội","ref":"LP2","from":"Hải Phòng","name":"Tàu LP2: Hải Phòng => Hà Nội","type":"route","route":"train","name:en":"Train LP2: Haiphong => Hanoi","network":"VN:railway","toilets":"yes","distance":"102","duration":"02:39","operator":"Tổng công ty Đường sắt Việt Nam","passenger":"regional","public_transport:version":"2"},"16539550":{"to":"Hà Nội","ref":"LP6","from":"Hải Phòng","name":"Tàu LP6: Hải Phòng => Hà Nội","type":"route","route":"train","name:en":"Train LP6: Haiphong => Hanoi","network":"VN:railway","toilets":"yes","distance":"102","duration":"02:42","operator":"Tổng công ty Đường sắt Việt Nam","passenger":"regional","public_transport:version":"2"},"16539551":{"to":"Hà Nội","ref":"LP8","from":"Hải Phòng","name":"Tàu LP8: Hải Phòng => Hà Nội","type":"route","route":"train","name:en":"Train LP6: Haiphong => Hanoi","network":"VN:railway","toilets":"yes","distance":"102","duration":"02:40","operator":"Tổng công ty Đường sắt Việt Nam","passenger":"regional","public_transport:version":"2"},"16539552":{"to":"Hà Nội","ref":"HP2","from":"Hải Phòng","name":"Tàu HP2: Hải Phòng => Hà Nội","type":"route","route":"train","name:en":"Train HP2: Haiphong => Hanoi","network":"VN:railway","toilets":"yes","distance":"102","duration":"02:35","operator":"Tổng công ty Đường sắt Việt Nam","passenger":"regional","public_transport:version":"2"}}