{"455465":{"name":"Apple Express","type":"route","route":"train","service":"tourism"},"457029":{"to":"O.R. Tambo International Airport","from":"Sandton","name":"Airport Line (Sandton -> International Airport)","note":"See https://www.gautrain.co.za/pdf/Gautrain_User_Guide_FA.pdf","type":"route","route":"train","colour":"#9d8b57","network":"Gautrain","service":"commuter","interval":"20","operator":"Bombela Consession","wikidata":"Q118559311","opening_hours":"Mo-Su 05:05-20:30","network:wikidata":"Q1476881","public_transport:version":"2"},"948941":{"to":"Simon's Town","from":"Cape Town","name":"Southern Line: Cape Town -> Simon's Town","type":"route","route":"train","colour":"#ed1c24","network":"Metrorail Western Cape","service":"commuter","operator":"Metrorail","wikidata":"Q7570093","description":"Cape Town–Wynberg–Simon's Town","network:wikidata":"Q1925892","network:wikipedia":"en:Metrorail Western Cape","public_transport:version":"2"},"950176":{"name":"Shosholoza Meyl_Johannesburg–Cape Town","type":"route","route":"train","service":"national","surface":"asphalt","operator":"Shosholoza Meyl","description":"Regional route","public_transport:version":"1"},"951344":{"name":"Johannesburg–Port Elizabeth","type":"route","route":"train","service":"national","operator":"Shosholoza Meyl","public_transport:version":"2"},"951491":{"name":"Johannesburg–Durban","type":"route","route":"train","service":"national","operator":"Shosholoza Meyl","public_transport:version":"2"},"952040":{"name":"Johannesburg–East London","type":"route","route":"train","service":"national","operator":"Shosholoza Meyl","public_transport:version":"2"},"952426":{"to":"Berlin","from":"East London","name":"Berlin Line: East London -> Berlin","type":"route","route":"train","network":"Metrorail Eastern Cape","service":"commuter","operator":"Metrorail","wikidata":"Q124413495","network:wikidata":"Q6825370","network:wikipedia":"en:Metrorail Eastern Cape","public_transport:version":"2"},"952458":{"to":"Retreat","from":"Cape Town","name":"Cape Flats Line: Cape Town -> Retreat","type":"route","route":"train","colour":"#8c493a","network":"Metrorail Western Cape","service":"commuter","operator":"Metrorail","wikidata":"Q5034802","network:wikidata":"Q1925892","network:wikipedia":"en:Metrorail Western Cape","public_transport:version":"2"},"952460":{"to":"Kariega","from":"Gqeberha","name":"Uitenhage CBD: Port Elizabeth -> Uitenhage","type":"route","route":"train","network":"Metrorail Eastern Cape","service":"commuter","operator":"Metrorail","wikidata":"Q124409835","network:wikidata":"Q6825370","public_transport:version":"2"},"952469":{"name":"Central Line: Cape Town -> Bellville (via Ysterplaat)","type":"route","route":"train","network":"Metrorail Western Cape","service":"commuter","operator":"Metrorail","wikidata":"Q5061363","network:wikidata":"Q1925892","network:wikipedia":"en:Metrorail Western Cape","public_transport:version":"2"},"952470":{"to":"Kapteinsklip","via":"Pinelands","from":"Cape Town","name":"Central Line: Cape Town -> Kapteinsklip (via Pinelands)","type":"route","route":"train","colour":"#33bef3","network":"Metrorail Western Cape","service":"commuter","operator":"Metrorail","wikidata":"Q5061363","network:wikidata":"Q1925892","network:wikipedia":"en:Metrorail Western Cape","public_transport:version":"2"},"952471":{"to":"Chris Hani","from":"Cape Town","name":"Central Line: Cape Town -> Khayelitsha (via Ysterplaat)","type":"route","route":"train","network":"Metrorail Western Cape","service":"commuter","operator":"Metrorail","wikidata":"Q5061363","network:wikidata":"Q1925892","network:wikipedia":"en:Metrorail Western Cape","public_transport:version":"2"},"956847":{"to":"Stellenbosch","from":"Cape Town","name":"Northern Line: Cape Town → Stellenbosch","type":"route","route":"train","colour":"#00a650","network":"Metrorail Western Cape","service":"commuter","operator":"Metrorail","wikidata":"Q7058663","network:wikidata":"Q1925892","network:wikipedia":"en:Metrorail Western Cape","public_transport:version":"2"},"956849":{"to":"Cape Town","from":"Strand","name":"Northern Line: Strand → Cape Town","type":"route","route":"train","colour":"#00a650","network":"Metrorail Western Cape","service":"commuter","operator":"Metrorail","wikidata":"Q7058663","network:wikidata":"Q1925892","network:wikipedia":"en:Metrorail Western Cape","public_transport:version":"2"},"956850":{"to":"Wellington","from":"Cape Town","name":"Northern Line: Cape Town → Wellington","type":"route","route":"train","colour":"#00a650","network":"Metrorail Western Cape","service":"commuter","operator":"Metrorail","wikidata":"Q7058663","network:wikidata":"Q1925892","network:wikipedia":"en:Metrorail Western Cape","public_transport:version":"2"},"957023":{"to":"Cape Town","from":"Strand","name":"Business Express (Northern): Strand -> Cape Town","type":"route","route":"train","network":"Metrorail Western Cape","service":"commuter","operator":"Metrorail","network:wikidata":"Q1925892","network:wikipedia":"en:Metrorail Western Cape","public_transport:version":"2"},"957024":{"to":"Huguenot","from":"Cape Town","name":"Business Express (Boland): Cape Town -> Huguenot","type":"route","route":"train","colour":"#cf2272","network":"Metrorail Western Cape","service":"commuter","operator":"Metrorail","network:wikidata":"Q1925892","network:wikipedia":"en:Metrorail Western Cape","public_transport:version":"2"},"957035":{"to":"Bellville","from":"Cape Town","name":"Northern Line: Cape Town → Bellville (via Century City)","type":"route","route":"train","colour":"#00a650","network":"Metrorail Western Cape","service":"commuter","operator":"Metrorail","wikidata":"Q7058663","network:wikidata":"Q1925892","network:wikipedia":"en:Metrorail Western Cape","public_transport:version":"2"},"957084":{"to":"Cape Town","from":"Worchester","name":"Worcester -> Cape Town","type":"route","route":"train","colour":"#99d420","network":"Metrorail Western Cape","service":"regional","alt_name":"Boland Blitz","operator":"Metrorail","description":"Daily train","network:wikidata":"Q1925892","network:wikipedia":"en:Metrorail Western Cape","public_transport:version":"2"},"957085":{"to":"Malmesbury","from":"Cape Town","name":"Cape Town -> Malmesbury","type":"route","route":"train","colour":"#99d420","network":"Metrorail Western Cape","service":"commuter","operator":"Metrorail","network:wikidata":"Q1925892","network:wikipedia":"en:Metrorail Western Cape","public_transport:version":"2"},"1021770":{"name":"North-South Commuter Line (Park -> Hatfield)","note":"See https://www.gautrain.co.za/pdf/Gautrain_User_Guide_FA.pdf","type":"route","route":"train","colour":"red","network":"Gautrain","service":"commuter","interval":"10","operator":"Bombela Consession","wikidata":"Q83965638","opening_hours":"Mo-Su 05:05-20:30","network:wikidata":"Q1476881","public_transport:version":"2"},"1024053":{"name":"Johannesburg -> Daveyton","type":"route","route":"train","colour":"black","network":"Metrorail Gauteng","service":"commuter","operator":"Metrorail","opening_hours":"Mo-Fr 08:00-18:00","source:colour":"https://web.archive.org/web/20181222164301/http://www.metrorail.co.za/maps/GAU_RailMap.pdf","network:wikidata":"Q12061746","network:wikipedia":"en:Metrorail Gauteng","public_transport:version":"2"},"1026727":{"name":"Johannesburg -> Pretoria","type":"route","route":"train","colour":"#0072BC","network":"Metrorail Gauteng","service":"commuter","operator":"Metrorail","wikidata":"Q124425007","source:colour":"https://web.archive.org/web/20181222164301/http://www.metrorail.co.za/maps/GAU_RailMap.pdf","network:wikidata":"Q12061746","network:wikipedia":"en:Metrorail Gauteng","public_transport:version":"2"},"1026729":{"name":"Tshwane JHB Business Express (Northbound)","type":"route","route":"train","network":"Metrorail Gauteng","service":"commuter","operator":"Metrorail","source:colour":"https://web.archive.org/web/20181222164301/http://www.metrorail.co.za/maps/GAU_RailMap.pdf","network:wikidata":"Q12061746","network:wikipedia":"en:Metrorail Gauteng","public_transport:version":"2"},"1026738":{"name":"Johannesburg -> Leralla","type":"route","route":"train","colour":"#0072BC","network":"Metrorail Gauteng","service":"commuter","operator":"Metrorail","wikidata":"Q124425007","source:colour":"https://web.archive.org/web/20181222164301/http://www.metrorail.co.za/maps/GAU_RailMap.pdf","network:wikidata":"Q12061746","network:wikipedia":"en:Metrorail Gauteng","public_transport:version":"2"},"1112285":{"name":"Faraday -> Naledi","type":"route","route":"train","colour":"#00652E","network":"Metrorail Gauteng","service":"commuter","operator":"Metrorail","wikidata":"Q124425388","source:colour":"https://web.archive.org/web/20181222164301/http://www.metrorail.co.za/maps/GAU_RailMap.pdf","network:wikidata":"Q12061746","network:wikipedia":"en:Metrorail Gauteng","public_transport:version":"2"},"1112286":{"name":"Soweto Business Express (Westbond)","type":"route","route":"train","network":"Metrorail Gauteng","service":"commuter","operator":"Metrorail","source:colour":"https://web.archive.org/web/20181222164301/http://www.metrorail.co.za/maps/GAU_RailMap.pdf","network:wikidata":"Q12061746","network:wikipedia":"en:Metrorail Gauteng","public_transport:version":"2"},"1112287":{"to":"Naledi","from":"Johannesburg","name":"George Gloch -> Naledi (via Johannesburg)","type":"route","route":"train","colour":"#00652E","network":"Metrorail Gauteng","service":"commuter","operator":"Metrorail","source:colour":"https://web.archive.org/web/20181222164301/http://www.metrorail.co.za/maps/GAU_RailMap.pdf","network:wikidata":"Q12061746","network:wikipedia":"en:Metrorail Gauteng","public_transport:version":"2"},"1112288":{"name":"Westgate -> Naledi","type":"route","route":"train","colour":"#00652E","network":"Metrorail Gauteng","service":"commuter","operator":"Metrorail","wikidata":"Q124425388","source:colour":"https://web.archive.org/web/20181222164301/http://www.metrorail.co.za/maps/GAU_RailMap.pdf","network:wikidata":"Q12061746","network:wikipedia":"en:Metrorail Gauteng","public_transport:version":"2"},"1112289":{"name":"George Goch -> Naledi (via Crown)","type":"route","route":"train","colour":"#00652E","network":"Metrorail Gauteng","service":"commuter","operator":"Metrorail","wikidata":"Q124425388","source:colour":"https://web.archive.org/web/20181222164301/http://www.metrorail.co.za/maps/GAU_RailMap.pdf","network:wikidata":"Q12061746","network:wikipedia":"en:Metrorail Gauteng","public_transport:version":"2"},"1112305":{"name":"Germiston -> Kwesine (via Kutalo)","type":"route","route":"train","colour":"#EE1D23","network":"Metrorail Gauteng","service":"commuter","operator":"Metrorail","wikidata":"Q124425824","source:colour":"https://web.archive.org/web/20181222164301/http://www.metrorail.co.za/maps/GAU_RailMap.pdf","network:wikidata":"Q12061746","network:wikipedia":"en:Metrorail Gauteng","public_transport:version":"2"},"1112306":{"name":"Vereeniging -> Germiston","type":"route","route":"train","colour":"#90268F","network":"Metrorail Gauteng","service":"commuter","operator":"Metrorail","wikidata":"Q124425831","source:colour":"https://web.archive.org/web/20181222164301/http://www.metrorail.co.za/maps/GAU_RailMap.pdf","network:wikidata":"Q12061746","network:wikipedia":"en:Metrorail Gauteng","public_transport:version":"2"},"1112307":{"name":"Germiston -> Kwesine (via President)","type":"route","route":"train","colour":"#EE1D23","network":"Metrorail Gauteng","service":"commuter","operator":"Metrorail","wikidata":"Q124425824","source:colour":"https://web.archive.org/web/20181222164301/http://www.metrorail.co.za/maps/GAU_RailMap.pdf","network:wikidata":"Q12061746","network:wikipedia":"en:Metrorail Gauteng","public_transport:version":"2"},"1112313":{"ref":"Metrorail","name":"Germiston–>New Canada","type":"route","route":"train","colour":"white","network":"Metrorail Gauteng","service":"commuter","operator":"Metrorail","wikidata":"Q124429578","opening_hours":"Mo-Sa 08:00-18:00","source:colour":"https://web.archive.org/web/20181222164301/http://www.metrorail.co.za/maps/GAU_RailMap.pdf","network:wikidata":"Q12061746","network:wikipedia":"en:Metrorail Gauteng","public_transport:version":"2"},"1112362":{"to":"Pienaarspoort","from":"Hercules","name":"Hercules -> Pienaarspoort","type":"route","route":"train","colour":"#ED038C","network":"Metrorail Gauteng","service":"commuter","operator":"Metrorail","wikidata":"Q124425732","opening_hours":"Su 08:00-10:00","source:colour":"https://web.archive.org/web/20181222164301/http://www.metrorail.co.za/maps/GAU_RailMap.pdf","network:wikidata":"Q12061746","network:wikipedia":"en:Metrorail Gauteng","public_transport:version":"2"},"1112363":{"name":"Metrorail: Pretoria -> Saulsville","type":"route","route":"train","colour":"#00BAF1","network":"Metrorail Gauteng","service":"commuter","operator":"Metrorail","source:colour":"https://web.archive.org/web/20181222164301/http://www.metrorail.co.za/maps/GAU_RailMap.pdf","network:wikidata":"Q12061746","network:wikipedia":"en:Metrorail Gauteng","public_transport:version":"2"},"1112364":{"name":"Pretoria -> Pienaarspoort","type":"route","route":"train","colour":"#6E2527","network":"Metrorail Gauteng","service":"commuter","operator":"Metrorail","wikidata":"Q124425800","source:colour":"https://web.archive.org/web/20181222164301/http://www.metrorail.co.za/maps/GAU_RailMap.pdf","network:wikidata":"Q12061746","network:wikipedia":"en:Metrorail Gauteng","public_transport:version":"2"},"1112366":{"name":"Belle Ombre -> Mabopane","type":"route","route":"train","colour":"#F58220","network":"Metrorail Gauteng","service":"commuter","operator":"Metrorail","wikidata":"Q124425722","opening_hours":"Mo-Su 05:00-20:00","source:colour":"https://web.archive.org/web/20181222164301/http://www.metrorail.co.za/maps/GAU_RailMap.pdf","network:wikidata":"Q12061746","network:wikipedia":"en:Metrorail Gauteng","public_transport:version":"2"},"1112367":{"name":"Pretoria -> Mabopane","type":"route","route":"train","colour":"#F58220","network":"Metrorail Gauteng","service":"commuter","operator":"Metrorail","wikidata":"Q124425722","opening_hours":"Mo-Su 05:00-20:00","source:colour":"https://web.archive.org/web/20181222164301/http://www.metrorail.co.za/maps/GAU_RailMap.pdf","network:wikidata":"Q12061746","network:wikipedia":"en:Metrorail Gauteng","public_transport:version":"2"},"1112478":{"name":"Johannesburg -> Oberholzer","type":"route","route":"train","colour":"#F9CC3E","network":"Metrorail Gauteng","service":"commuter","operator":"Metrorail","wikidata":"Q124425811","source:colour":"https://web.archive.org/web/20181222164301/http://www.metrorail.co.za/maps/GAU_RailMap.pdf","network:wikidata":"Q12061746","network:wikipedia":"en:Metrorail Gauteng","public_transport:version":"2"},"1112479":{"name":"George Goch -> Vereeniging (via Crown)","type":"route","route":"train","colour":"#00652E","network":"Metrorail Gauteng","service":"commuter","operator":"Metrorail","wikidata":"Q124425757","source:colour":"https://web.archive.org/web/20181222164301/http://www.metrorail.co.za/maps/GAU_RailMap.pdf","network:wikidata":"Q12061746","network:wikipedia":"en:Metrorail Gauteng","public_transport:version":"2"},"1112480":{"to":"Springs","from":"Johannesburg Park","name":"Johannesburg -> Springs","type":"route","route":"train","colour":"#00A54F","network":"Metrorail Gauteng","service":"commuter","operator":"Metrorail","wikidata":"Q124425351","opening_hours":"Mo-Su 08:00-18:00","source:colour":"https://web.archive.org/web/20181222164301/http://www.metrorail.co.za/maps/GAU_RailMap.pdf","network:wikidata":"Q12061746","network:wikipedia":"en:Metrorail Gauteng","public_transport:version":"2"},"1112481":{"to":"Nigel","from":"Springs","name":"Springs -> Nigel Route","type":"route","route":"train","colour":"#6E2527","network":"Metrorail Gauteng","service":"commuter","interval":"70","operator":"Metrorail","wikidata":"Q124425774","opening_hours":"Mo-Su 05:00-21:00; Su 06:00-19:30","source:colour":"https://web.archive.org/web/20181222164301/http://www.metrorail.co.za/maps/GAU_RailMap.pdf","network:wikidata":"Q12061746","network:wikipedia":"en:Metrorail Gauteng","public_transport:version":"2"},"1112482":{"to":"Vereeniging","from":"George Goch","name":"George Goch -> Vereeniging (via Johannesburg)","type":"route","route":"train","colour":"#00652E","network":"Metrorail Gauteng","service":"commuter","operator":"Metrorail","wikidata":"Q124425757","opening_hours":"Mo-Su 08:00-18:00","source:colour":"https://web.archive.org/web/20181222164301/http://www.metrorail.co.za/maps/GAU_RailMap.pdf","network:wikidata":"Q12061746","network:wikipedia":"en:Metrorail Gauteng","public_transport:version":"2"},"1112483":{"name":"Johannesburg -> Randfontein","type":"route","route":"train","colour":"#00A54F","network":"Metrorail Gauteng","service":"commuter","operator":"Metrorail","wikidata":"Q124425351","source:colour":"https://web.archive.org/web/20181222164301/http://www.metrorail.co.za/maps/GAU_RailMap.pdf","network:wikidata":"Q12061746","network:wikipedia":"en:Metrorail Gauteng","public_transport:version":"2"},"1112508":{"to":"Kapteinsklip","via":"Ysterplaat","from":"Cape Town","name":"Central Line: Cape Town -> Kapteinsklip (via Ysterplaat)","type":"route","route":"train","network":"Metrorail Western Cape","service":"commuter","operator":"Metrorail","wikidata":"Q5061363","network:wikidata":"Q1925892","network:wikipedia":"en:Metrorail Western Cape","public_transport:version":"2"},"1112509":{"to":"Khayelitsha","from":"Cape Town","name":"Central Line: Cape Town -> Khayelitsha (via Pinelands)","type":"route","route":"train","colour":"#33bef3","network":"Metrorail Western Cape","service":"commuter","operator":"Metrorail","wikidata":"Q5061363","network:wikidata":"Q1925892","network:wikipedia":"en:Metrorail Western Cape","public_transport:version":"2"},"1112512":{"to":"Cape town","from":"Bellville","name":"Central Line: Bellville -> Cape Town (via Pinelands)","type":"route","route":"train","network":"Metrorail Western Cape","service":"commuter","operator":"Metrorail","wikidata":"Q5061363","network:wikidata":"Q1925892","network:wikipedia":"en:Metrorail Western Cape","public_transport:version":"2"},"1112787":{"name":"South Coast Line: Durban–Kelso","type":"route","route":"train","colour":"#0072BC","network":"Metrorail KwaZulu-Natal","service":"commuter","operator":"PRASA","wikidata":"Q124416304","network:wikidata":"Q1925891","network:wikipedia":"en:Metrorail KwaZulu-Natal","public_transport:version":"2"},"1485263":{"name":"Hexpas Express","type":"route","route":"train","service":"tourism","public_transport:version":"1"},"1694561":{"name":"East-West Commuter Line (Sandton -> Rhodesfield)","note":"See https://www.gautrain.co.za/pdf/Gautrain_User_Guide_FA.pdf","type":"route","route":"train","colour":"blue","network":"Gautrain","service":"commuter","interval":"10","operator":"Bombela Consession","wikidata":"Q83965687","wheelchair":"yes","opening_hours":"Mo-Su 05:05-20:30","network:wikidata":"Q1476881","public_transport:version":"2"},"1897987":{"name":"Mthatha - East London","type":"route","route":"train","service":"regional","operator":"Kei Rail"},"1959553":{"name":"Old Main Line: Durban–Pinetown","type":"route","route":"train","network":"Metrorail KwaZulu-Natal","service":"commuter","operator":"PRASA","wikidata":"Q124416308","network:wikidata":"Q1925891","network:wikipedia":"en:Metrorail KwaZulu-Natal","public_transport:version":"2"},"1967061":{"name":"kwaMashu Line: kwaMashu–Durban–Umlazi","type":"route","route":"train","network":"Metrorail KwaZulu-Natal","service":"commuter","operator":"PRASA","wikidata":"Q124416310","network:wikidata":"Q1925891","network:wikipedia":"en:Metrorail KwaZulu-Natal","public_transport:version":"2"},"1994510":{"name":"Chatsworth–Bluff","type":"route","route":"train","service":"commuter","operator":"PRASA"},"1994511":{"to":"Wests","from":"Durban","name":"West Line: Durban–Bluff","type":"route","route":"train","network":"Metrorail KwaZulu-Natal","service":"commuter","operator":"PRASA","network:wikidata":"Q1925891","network:wikipedia":"en:Metrorail KwaZulu-Natal","public_transport:version":"2"},"1994512":{"name":"Umlazi Line: Umlazi–Bluff","type":"route","route":"train","network":"Metrorail KwaZulu-Natal","service":"commuter","operator":"PRASA","wikidata":"Q124416305","network:wikidata":"Q1925891","network:wikipedia":"en:Metrorail KwaZulu-Natal","public_transport:version":"2"},"1994534":{"name":"Crossmoor Line: Durban–Crossmoor","type":"route","route":"train","network":"Metrorail KwaZulu-Natal","service":"commuter","operator":"PRASA","wikidata":"Q124416311","network:wikidata":"Q1925891","network:wikipedia":"en:Metrorail KwaZulu-Natal","public_transport:version":"2"},"1994637":{"name":"New Main Line: Durban–Cato Ridge","type":"route","route":"train","network":"Metrorail KwaZulu-Natal","service":"commuter","operator":"PRASA","wikidata":"Q124416307","network:wikidata":"Q1925891","network:wikipedia":"en:Metrorail KwaZulu-Natal","public_transport:version":"2"},"1994718":{"name":"North Coast Line: Durban–Stanger","type":"route","route":"train","network":"Metrorail KwaZulu-Natal","service":"regional","operator":"PRASA","wikidata":"Q124416309","network:wikidata":"Q1925891","network:wikipedia":"en:Metrorail KwaZulu-Natal","public_transport:version":"2"},"1994719":{"name":"North Coast Line: Stanger–Durban","type":"route","route":"train","network":"Metrorail KwaZulu-Natal","service":"regional","operator":"PRASA","wikidata":"Q124416309","network:wikidata":"Q1925891","network:wikipedia":"en:Metrorail KwaZulu-Natal","public_transport:version":"2"},"2117373":{"name":"Komatipoort–Maputo","type":"route","route":"train"},"3501930":{"name":"Cape Town - Queenstown","type":"route","route":"train","service":"national","operator":"Shosholoza Meyl","description":"Regional route","public_transport:version":"1"},"5419780":{"name":"Johannesburg–Komatipoort","type":"route","route":"train","service":"national","operator":"Shosholoza Meyl","public_transport:version":"2"},"5681315":{"name":"Ceres Railway Line","type":"route","email":"bookings@ceresrail.co.za","route":"train","service":"tourism","website":"https://www.ceresrail.co.za/"},"8468033":{"name":"Johannesburg–Musina","type":"route","route":"train","service":"national","operator":"Shosholoza Meyl","public_transport:version":"2"},"9812220":{"to":"Cape Town","from":"Retreat","name":"Cape Flats Line: Retreat -> Cape Town","type":"route","route":"train","colour":"#8c493a","network":"Metrorail Western Cape","service":"commuter","operator":"Metrorail","wikidata":"Q5034802","network:wikidata":"Q1925892","network:wikipedia":"en:Metrorail Western Cape","public_transport:version":"2"},"9822423":{"to":"Cape Town","from":"Chris Hani","name":"Central Line: Khayelitsha -> Cape Town (via Ysterplaat)","type":"route","route":"train","network":"Metrorail Western Cape","service":"commuter","operator":"Metrorail","network:wikidata":"Q1925892","network:wikipedia":"en:Metrorail Western Cape","public_transport:version":"2"},"9822435":{"to":"Cape Town","from":"Malmesbury","name":"Malmesbury -> Cape Town","type":"route","route":"train","colour":"#99d420","network":"Metrorail Western Cape","service":"commuter","operator":"Metrorail","network:wikidata":"Q1925892","network:wikipedia":"en:Metrorail Western Cape","public_transport:version":"2"},"9822440":{"to":"Cape Town","from":"Simon's Town","name":"Southern Line: Simon's Town -> Cape Town","type":"route","route":"train","colour":"#ed1c24","network":"Metrorail Western Cape","service":"commuter","operator":"Metrorail","wikidata":"Q7570093","description":"Simon's Town–Wynberg–Cape Town","network:wikidata":"Q1925892","network:wikipedia":"en:Metrorail Western Cape","public_transport:version":"2"},"10305472":{"name":"North-South Commuter Line (Hatfield -> Park)","note":"See https://www.gautrain.co.za/pdf/Gautrain_User_Guide_FA.pdf","type":"route","route":"train","colour":"red","network":"Gautrain","service":"commuter","interval":"10","operator":"Bombela Consession","wikidata":"Q83965638","opening_hours":"Mo-Su 05:05-20:30","network:wikidata":"Q1476881","public_transport:version":"2"},"10305544":{"to":"Sandton","from":"Rhodesfield","name":"East-West Commuter Line (Rhodesfield -> Sandton)","note":"See https://www.gautrain.co.za/pdf/Gautrain_User_Guide_FA.pdf","type":"route","route":"train","colour":"blue","network":"Gautrain","service":"commuter","interval":"10","operator":"Bombela Consession","wikidata":"Q83965687","wheelchair":"yes","opening_hours":"Mo-Su 05:05-20:30","network:wikidata":"Q1476881","public_transport:version":"2"},"10305561":{"to":"Sandton","from":"O.R. Tambo International Airport","name":"Airport Line (International Airport -> Sandton)","note":"See https://www.gautrain.co.za/pdf/Gautrain_User_Guide_FA.pdf","type":"route","route":"train","colour":"#9d8b57","network":"Gautrain","service":"commuter","interval":"20","operator":"Bombela Consession","wikidata":"Q118559311","opening_hours":"Mo-Su 05:05-20:30","network:wikidata":"Q1476881","public_transport:version":"2"},"10374692":{"to":"Gqeberha","from":"Kariega","name":"Kariega CBD: Kariega -> Gqeberha","type":"route","route":"train","network":"Metrorail Eastern Cape","service":"commuter","operator":"Metrorail","wikidata":"Q124409835","network:wikidata":"Q6825370","network:wikipedia":"en:Metrorail Eastern Cape","public_transport:version":"2"},"10374783":{"to":"East London","from":"Berlin","name":"Berlin Line: Berlin -> East London","type":"route","route":"train","network":"Metrorail Eastern Cape","service":"commuter","operator":"Metrorail","wikidata":"Q124413495","network:wikidata":"Q6825370","network:wikipedia":"en:Metrorail Eastern Cape","public_transport:version":"2"},"10374913":{"to":"Springs","from":"Nigel","name":"Nigel -> Springs Route","type":"route","route":"train","colour":"#6E2527","network":"Metrorail Gauteng","service":"commuter","interval":"70","operator":"Metrorail","wikidata":"Q124425774","opening_hours":"Mo-Su 05:00-21:00; Su 06:00-19:30","source:colour":"https://web.archive.org/web/20181222164301/http://www.metrorail.co.za/maps/GAU_RailMap.pdf","network:wikidata":"Q12061746","network:wikipedia":"en:Metrorail Gauteng","public_transport:version":"2"},"10398176":{"to":"Koedoespoort","ref":"Metrorail","from":"Eerste Fabrieke","name":"Eerste Fabrieke->Koedoespoort","type":"route","route":"train","colour":"#ED038C","network":"Metrorail Gauteng","service":"commuter","interval":"120","operator":"Metrorail","wikidata":"Q124425732","opening_hours":"Mo-Su 04:00-19:15","source:colour":"https://web.archive.org/web/20181222164301/http://www.metrorail.co.za/maps/GAU_RailMap.pdf","network:wikidata":"Q12061746","interval:conditional":"30 @ (Mo-Fr 06:00-08:00)","public_transport:version":"2"},"10415674":{"name":"Metrorail: Saulsville -> Pretoria","type":"route","route":"train","colour":"#00BAF1","network":"Metrorail Gauteng","service":"commuter","operator":"Metrorail","source:colour":"https://web.archive.org/web/20181222164301/http://www.metrorail.co.za/maps/GAU_RailMap.pdf","network:wikidata":"Q12061746","network:wikipedia":"en:Metrorail Gauteng","public_transport:version":"2"},"10646656":{"name":"Old Main Line: Pinetown–Durban","type":"route","route":"train","network":"Metrorail KwaZulu-Natal","service":"commuter","operator":"PRASA","wikidata":"Q124416308","network:wikidata":"Q1925891","network:wikipedia":"en:Metrorail KwaZulu-Natal","public_transport:version":"2"},"10646662":{"name":"Crossmoor Line: Crossmoor–Durban","type":"route","route":"train","network":"Metrorail KwaZulu-Natal","service":"commuter","operator":"PRASA","wikidata":"Q124416311","network:wikidata":"Q1925891","network:wikipedia":"en:Metrorail KwaZulu-Natal","public_transport:version":"2"},"10646664":{"name":"kwaMashu Line: Umlazi–Durban–kwaMashu","type":"route","route":"train","network":"Metrorail KwaZulu-Natal","service":"commuter","operator":"PRASA","wikidata":"Q124416310","network:wikidata":"Q1925891","network:wikipedia":"en:Metrorail KwaZulu-Natal","public_transport:version":"2"},"10646665":{"name":"New Main Line: Cato Ridge–Durban","type":"route","route":"train","network":"Metrorail KwaZulu-Natal","service":"commuter","operator":"PRASA","wikidata":"Q124416307","network:wikidata":"Q1925891","network:wikipedia":"en:Metrorail KwaZulu-Natal","public_transport:version":"2"},"10649225":{"name":"Pretoria -> De Wildt","type":"route","route":"train","colour":"#F58220","network":"Metrorail Gauteng","service":"commuter","operator":"Metrorail","wikidata":"Q124425722","source:colour":"https://web.archive.org/web/20181222164301/http://www.metrorail.co.za/maps/GAU_RailMap.pdf","network:wikidata":"Q12061746","network:wikipedia":"en:Metrorail Gauteng","public_transport:version":"2"},"10670766":{"name":"Tshwane JHB Business Express (Southbound)","type":"route","route":"train","network":"Metrorail Gauteng","service":"commuter","operator":"Metrorail","source:colour":"https://web.archive.org/web/20181222164301/http://www.metrorail.co.za/maps/GAU_RailMap.pdf","network:wikidata":"Q12061746","network:wikipedia":"en:Metrorail Gauteng","public_transport:version":"2"},"10670932":{"ref":"Metrorail","name":"New Canada–>Germiston","type":"route","route":"train","colour":"white","network":"Metrorail Gauteng","service":"commuter","operator":"Metrorail","wikidata":"Q124429578","opening_hours":"Mo-Sa 08:00-18:00","source:colour":"https://web.archive.org/web/20181222164301/http://www.metrorail.co.za/maps/GAU_RailMap.pdf","network:wikidata":"Q12061746","network:wikipedia":"en:Metrorail Gauteng","public_transport:version":"2"},"10670934":{"to":"Johannesburg","from":"Daveyton","name":"Daveyton -> Johannesburg","type":"route","route":"train","colour":"black","network":"Metrorail Gauteng","service":"commuter","operator":"Metrorail","opening_hours":"Mo-Fr 08:00-18:00","source:colour":"https://web.archive.org/web/20181222164301/http://www.metrorail.co.za/maps/GAU_RailMap.pdf","network:wikidata":"Q12061746","network:wikipedia":"en:Metrorail Gauteng","public_transport:version":"2"},"10670937":{"to":"Johannesburg Park","from":"Springs","name":"Springs -> Johannesburg","type":"route","route":"train","colour":"#00A54F","network":"Metrorail Gauteng","service":"commuter","operator":"Metrorail","wikidata":"Q124425351","opening_hours":"Mo-Su 08:00-18:00","source:colour":"https://web.archive.org/web/20181222164301/http://www.metrorail.co.za/maps/GAU_RailMap.pdf","network:wikidata":"Q12061746","network:wikipedia":"en:Metrorail Gauteng","public_transport:version":"2"},"10670948":{"to":"Johannesburg Park","from":"Naledi","name":"Naledi -> George Gloch (via Johannesburg)","type":"route","route":"train","colour":"#00652E","network":"Metrorail Gauteng","service":"commuter","operator":"Metrorail","wikidata":"Q124425388","source:colour":"https://web.archive.org/web/20181222164301/http://www.metrorail.co.za/maps/GAU_RailMap.pdf","network:wikidata":"Q12061746","network:wikipedia":"en:Metrorail Gauteng","public_transport:version":"2"},"10670955":{"to":"George Goch","from":"Naledi","name":"Naledi -> George Goch (via Crown)","type":"route","route":"train","colour":"#00652E","network":"Metrorail Gauteng","service":"commuter","operator":"Metrorail","source:colour":"https://web.archive.org/web/20181222164301/http://www.metrorail.co.za/maps/GAU_RailMap.pdf","network:wikidata":"Q12061746","network:wikipedia":"en:Metrorail Gauteng","public_transport:version":"2"},"10670990":{"to":"Pretoria","from":"Mabopane","name":"Mabopane -> Pretoria","type":"route","route":"train","colour":"#F58220","network":"Metrorail Gauteng","service":"commuter","operator":"Metrorail","wikidata":"Q124425722","opening_hours":"Mo-Su 05:00-20:00","source:colour":"https://web.archive.org/web/20181222164301/http://www.metrorail.co.za/maps/GAU_RailMap.pdf","network:wikidata":"Q12061746","network:wikipedia":"en:Metrorail Gauteng","public_transport:version":"2"},"10670991":{"name":"Mabopane -> Belle Ombre","type":"route","route":"train","colour":"#F58220","network":"Metrorail Gauteng","service":"commuter","operator":"Metrorail","wikidata":"Q124425722","opening_hours":"Mo-Su 05:00-20:00","source:colour":"https://web.archive.org/web/20181222164301/http://www.metrorail.co.za/maps/GAU_RailMap.pdf","network:wikidata":"Q12061746","network:wikipedia":"en:Metrorail Gauteng","public_transport:version":"2"},"10671014":{"name":"De Wildt -> Pretoria","type":"route","route":"train","colour":"#F58220","network":"Metrorail Gauteng","service":"commuter","operator":"Metrorail","wikidata":"Q124425722","source:colour":"https://web.archive.org/web/20181222164301/http://www.metrorail.co.za/maps/GAU_RailMap.pdf","network:wikidata":"Q12061746","network:wikipedia":"en:Metrorail Gauteng","public_transport:version":"2"},"10671027":{"to":"Pretoria","from":"Pienaarspoort","name":"Pienaarspoort -> Pretoria","type":"route","route":"train","colour":"#6E2527","network":"Metrorail Gauteng","service":"commuter","operator":"Metrorail","wikidata":"Q124425800","source:colour":"https://web.archive.org/web/20181222164301/http://www.metrorail.co.za/maps/GAU_RailMap.pdf","network:wikidata":"Q12061746","network:wikipedia":"en:Metrorail Gauteng","public_transport:version":"2"},"10671046":{"name":"Pretoria -> Johannesburg","type":"route","route":"train","colour":"#0072BC","network":"Metrorail Gauteng","service":"commuter","operator":"Metrorail","wikidata":"Q124425007","source:colour":"https://web.archive.org/web/20181222164301/http://www.metrorail.co.za/maps/GAU_RailMap.pdf","network:wikidata":"Q12061746","network:wikipedia":"en:Metrorail Gauteng","public_transport:version":"2"},"10671047":{"name":"Leralla -> Johannesburg","type":"route","route":"train","colour":"#0072BC","network":"Metrorail Gauteng","service":"commuter","operator":"Metrorail","wikidata":"Q124425007","source:colour":"https://web.archive.org/web/20181222164301/http://www.metrorail.co.za/maps/GAU_RailMap.pdf","network:wikidata":"Q12061746","network:wikipedia":"en:Metrorail Gauteng","public_transport:version":"2"},"10671053":{"name":"Naledi -> Westgate","type":"route","route":"train","colour":"#00652E","network":"Metrorail Gauteng","service":"commuter","operator":"Metrorail","wikidata":"Q124425388","source:colour":"https://web.archive.org/web/20181222164301/http://www.metrorail.co.za/maps/GAU_RailMap.pdf","network:wikidata":"Q12061746","network:wikipedia":"en:Metrorail Gauteng","public_transport:version":"2"},"10671054":{"name":"Naledi -> Faraday","type":"route","route":"train","colour":"#00652E","network":"Metrorail Gauteng","service":"commuter","operator":"Metrorail","wikidata":"Q124425388","source:colour":"https://web.archive.org/web/20181222164301/http://www.metrorail.co.za/maps/GAU_RailMap.pdf","network:wikidata":"Q12061746","network:wikipedia":"en:Metrorail Gauteng","public_transport:version":"2"},"10671055":{"name":"Soweto Business Express (Eastbound)","type":"route","route":"train","network":"Metrorail Gauteng","service":"commuter","operator":"Metrorail","source:colour":"https://web.archive.org/web/20181222164301/http://www.metrorail.co.za/maps/GAU_RailMap.pdf","network:wikidata":"Q12061746","network:wikipedia":"en:Metrorail Gauteng","public_transport:version":"2"},"10671076":{"name":"Oberholzer -> Johannesburg","type":"route","route":"train","colour":"#F9CC3E","network":"Metrorail Gauteng","service":"commuter","operator":"Metrorail","wikidata":"Q124425811","source:colour":"https://web.archive.org/web/20181222164301/http://www.metrorail.co.za/maps/GAU_RailMap.pdf","network:wikidata":"Q12061746","network:wikipedia":"en:Metrorail Gauteng","public_transport:version":"2"},"10671077":{"name":"Randfontein -> Johannesburg","type":"route","route":"train","colour":"#00A54F","network":"Metrorail Gauteng","service":"commuter","operator":"Metrorail","wikidata":"Q124425351","source:colour":"https://web.archive.org/web/20181222164301/http://www.metrorail.co.za/maps/GAU_RailMap.pdf","network:wikidata":"Q12061746","network:wikipedia":"en:Metrorail Gauteng","public_transport:version":"2"},"10671112":{"to":"Eerste Fabrieke","ref":"Metrorail","from":"Koedoespoort","name":"Koedoespoort->Eerste Fabrieke","type":"route","route":"train","colour":"#ED038C","network":"Metrorail Gauteng","service":"commuter","interval":"120","operator":"Metrorail","wikidata":"Q124425732","opening_hours":"Mo-Su 04:00-19:15","source:colour":"https://web.archive.org/web/20181222164301/http://www.metrorail.co.za/maps/GAU_RailMap.pdf","network:wikidata":"Q12061746","interval:conditional":"30 @ (Mo-Fr 06:00-08:00)","public_transport:version":"2"},"10671113":{"to":"Hercules","from":"Eerste Fabrieke","name":"Pienaarspoort -> Hercules","type":"route","route":"train","colour":"#ED038C","network":"Metrorail Gauteng","service":"commuter","operator":"Metrorail","wikidata":"Q124425732","opening_hours":"Su 08:00-10:00","source:colour":"https://web.archive.org/web/20181222164301/http://www.metrorail.co.za/maps/GAU_RailMap.pdf","network:wikidata":"Q12061746","network:wikipedia":"en:Metrorail Gauteng","public_transport:version":"2"},"10671125":{"name":"Germiston -> Vereeniging","type":"route","route":"train","colour":"#90268F","network":"Metrorail Gauteng","service":"commuter","operator":"Metrorail","wikidata":"Q124425831","source:colour":"https://web.archive.org/web/20181222164301/http://www.metrorail.co.za/maps/GAU_RailMap.pdf","network:wikidata":"Q12061746","network:wikipedia":"en:Metrorail Gauteng","public_transport:version":"2"},"10671137":{"name":"Vereeniging -> George Goch (via Crown)","type":"route","route":"train","colour":"#00652E","network":"Metrorail Gauteng","service":"commuter","operator":"Metrorail","wikidata":"Q124425757","source:colour":"https://web.archive.org/web/20181222164301/http://www.metrorail.co.za/maps/GAU_RailMap.pdf","network:wikidata":"Q12061746","network:wikipedia":"en:Metrorail Gauteng","public_transport:version":"2"},"10671153":{"to":"Khayelitsha","from":"Cape Town","name":"Central Line: Khayelitsha -> Cape Town (via Pinelands)","type":"route","route":"train","colour":"#33bef3","network":"Metrorail Western Cape","service":"commuter","operator":"Metrorail","network:wikidata":"Q1925892","network:wikipedia":"en:Metrorail Western Cape","public_transport:version":"2"},"10671154":{"to":"Cape Town","via":"Pinelands","from":"Kapteinsklip","name":"Central Line: Kapteinsklip -> Cape Town (via Pinelands)","type":"route","route":"train","colour":"#33bef3","network":"Metrorail Western Cape","service":"commuter","operator":"Metrorail","network:wikidata":"Q1925892","network:wikipedia":"en:Metrorail Western Cape","public_transport:version":"2"},"10671155":{"to":"Cape Town","via":"Ysterplaat","from":"Kapteinsklip","name":"Central Line: Kapteinsklip -> Cape Town (via Ysterplaat)","type":"route","route":"train","network":"Metrorail Western Cape","service":"commuter","operator":"Metrorail","wikidata":"Q5061363","network:wikidata":"Q1925892","network:wikipedia":"en:Metrorail Western Cape","public_transport:version":"2"},"10671158":{"to":"Stellenbosch","from":"Cape Town","name":"Northern Line: Stellenbosch → Cape Town","type":"route","route":"train","colour":"#00a650","network":"Metrorail Western Cape","service":"commuter","operator":"Metrorail","wikidata":"Q7058663","network:wikidata":"Q1925892","network:wikipedia":"en:Metrorail Western Cape","public_transport:version":"2"},"10671159":{"to":"Cape Town","from":"Bellville","name":"Northern Line: Bellville → Cape Town (via Century City)","type":"route","route":"train","colour":"#00a650","network":"Metrorail Western Cape","service":"commuter","operator":"Metrorail","wikidata":"Q7058663","network:wikidata":"Q1925892","network:wikipedia":"en:Metrorail Western Cape","public_transport:version":"2"},"10671160":{"to":"Wellington","from":"Cape Town","name":"Northern Line: Wellington → Cape Town","type":"route","route":"train","colour":"#00a650","network":"Metrorail Western Cape","service":"commuter","operator":"Metrorail","wikidata":"Q7058663","network:wikidata":"Q1925892","network:wikipedia":"en:Metrorail Western Cape","public_transport:version":"2"},"10672955":{"name":"Kwesine -> Germiston (via President)","type":"route","route":"train","colour":"#EE1D23","network":"Metrorail Gauteng","service":"commuter","operator":"Metrorail","wikidata":"Q124425824","source:colour":"https://web.archive.org/web/20181222164301/http://www.metrorail.co.za/maps/GAU_RailMap.pdf","network:wikidata":"Q12061746","network:wikipedia":"en:Metrorail Gauteng","public_transport:version":"2"},"10672956":{"name":"Kwesine -> Germiston (via Kutalo)","type":"route","route":"train","colour":"#EE1D23","network":"Metrorail Gauteng","service":"commuter","operator":"Metrorail","wikidata":"Q124425824","source:colour":"https://web.archive.org/web/20181222164301/http://www.metrorail.co.za/maps/GAU_RailMap.pdf","network:wikidata":"Q12061746","network:wikipedia":"en:Metrorail Gauteng","public_transport:version":"2"},"10968137":{"to":"Bellvillle","from":"Cape Town","name":"Cape Town to Bellville via Century City","type":"route","route":"train","service":"commuter","operator":"PRASA;Metrorail"},"10968836":{"to":"Bellville","from":"Cape Town","name":"Northern Line_Cape Town - Mutual - Vasco - Bellville","type":"route","route":"train","service":"commuter","operator":"PRASA;Metrorail"},"10968837":{"to":"Cape Town","from":"Bellville","name":"Northern Line_Bellville - Vasco - Mutual - Cape Town","type":"route","route":"train","service":"commuter","operator":"PRASA"},"10968900":{"to":"Bellville","from":"Cape Town","name":"Central Line_Cape Town–Mutual–Lavistown–Bellville","type":"route","route":"train","service":"commuter"},"10988709":{"to":"Cape Town","from":"Bellville","name":"Central Line: Bellville-Lavistown-Mutual-CapeTown","type":"route","route":"train","service":"commuter"},"11915539":{"name":"Voortrekkerhoogte Branch Line","type":"route","route":"train","disused":"yes"},"13296191":{"to":"Strand","from":"Cape Town","name":"Business Express (Northern): Cape Town -> Strand","type":"route","route":"train","network":"Metrorail Western Cape","service":"commuter","operator":"Metrorail","network:wikidata":"Q1925892","network:wikipedia":"en:Metrorail Western Cape","public_transport:version":"2"},"13296360":{"to":"Strand","from":"Cape Town","name":"Northern Line: Cape Town → Strand","type":"route","route":"train","colour":"#00a650","network":"Metrorail Western Cape","service":"commuter","operator":"Metrorail","wikidata":"Q7058663","network:wikidata":"Q1925892","network:wikipedia":"en:Metrorail Western Cape","public_transport:version":"2"},"13300751":{"to":"Cape Town","from":"Huguenot","name":"Business Express (Boland): Huguenot -> Cape Town","type":"route","route":"train","colour":"#cf2272","network":"Metrorail Western Cape","service":"commuter","operator":"Metrorail","network:wikidata":"Q1925892","network:wikipedia":"en:Metrorail Western Cape","public_transport:version":"2"},"13301013":{"to":"Worchester","from":"CapeTown","name":"Cape Town -> Worcester","type":"route","route":"train","colour":"#99d420","network":"Metrorail Western Cape","service":"regional","alt_name":"Boland Blitz","operator":"Metrorail","description":"Daily train","network:wikidata":"Q1925892","network:wikipedia":"en:Metrorail Western Cape","public_transport:version":"2"},"13315887":{"to":"George Goch","from":"Vereeniging","name":"Vereeniging -> George Goch (via Johannesburg)","type":"route","route":"train","colour":"#00652E","network":"Metrorail Gauteng","service":"commuter","operator":"Metrorail","opening_hours":"Mo-Su 08:00-18:00","source:colour":"https://web.archive.org/web/20181222164301/http://www.metrorail.co.za/maps/GAU_RailMap.pdf","network:wikidata":"Q12061746","network:wikipedia":"en:Metrorail Gauteng","public_transport:version":"2"}}