{"3944859":{"to":"Torsholma","ref":"Norra Linjen","from":"Hummelvik","name":"Norra Linjen","type":"route","route":"ferry","network":"Ålandstrafiken","website":"https://www.alandstrafiken.ax/","operator":"Ålandstrafiken","network:wikidata":"Q270993","public_transport:version":"2"},"5303987":{"to":"Kumlinge","ref":"Enklingelinjen","from":"Enklinge","name":"Enklingelinjen","type":"route","route":"ferry","network":"Ålandstrafiken","website":"https://www.alandstrafiken.ax/","operator":"Ålandstrafiken","route_master":"ferry","public_transport:version":"2"},"16283300":{"to":"Turku","fee":"yes","hgv":"yes","foot":"yes","from":"Mariehamn","name":"Silja Line: Mariehamn => Turku","type":"route","route":"ferry","bicycle":"yes","name:en":"Silja Line: Mariehamn => Turku","name:fi":"Silja Line: Maarianhamina => Turku","name:sv":"Silja Line: Mariehamn => Åbo","website":"https://www.tallink.com/","interval":"24:00","operator":"Silja Line","roundtrip":"no","motor_vehicle":"yes","public_transport:version":"2"},"16283302":{"to":"Kapellskär","fee":"yes","hgv":"yes","foot":"no","from":"Mariehamn","name":"Silja Line: Mariehamn => Kapellskär","type":"route","fixme":"resurvey stop position in Kapellskär","route":"ferry","bicycle":"yes","name:en":"Silja Line: Mariehamn => Kapellskär","name:fi":"Silja Line: Maarianhamina => Kapellskär","name:sv":"Silja Line: Mariehamn => Kapellskär","website":"https://www.tallink.com/","interval":"24:00","operator":"Silja Line","roundtrip":"no","motor_vehicle":"yes","public_transport:version":"2"}}