{"14051867":{"to":"Lamanai","from":"Tower Hill","name":"Boats to Lamanai","type":"route","route":"ferry","duration":"45:00"},"15408079":{"to":"Belize City","via":"Caye Chapel","foot":"yes","from":"Caye Caulker","name":"Caye Caulker via Caye Chapel to Belize City  (SPBE)","toll":"yes","type":"route","email":"info@belizewatertaxi.com","horse":"no","phone":"+501-226-0225","route":"ferry","bicycle":"permissive","website":"www.belizewatertaxi.com","duration":"1:00:00","operator":"San Pedro Belize Express","whatsapp":"+501-662-7723","motor_vehicle":"no","opening_hours":"Mo-Su 15:30"},"15408084":{"to":"Chetumal","foot":"yes","from":"San Pedro","name":"San Pedro to Chetumal (WJI)","toll":"yes","type":"route","email":"info@waterjetsinternational.com","horse":"no","phone":"+633-3416","route":"ferry","bicycle":"permissive","website":"https://www.sanpedrowatertaxi.com/","duration":"1:30:00","operator":"Water Jets International","motor_vehicle":"no","opening_hours":"Mo-Su 14:30"},"15408296":{"to":"Corozal","via":"Sarteneja","foot":"yes","from":"San Pedro","name":"San Pedro to Sarteneja and Corozal (TWT)","toll":"yes","type":"route","email":"thunderbolttravels@yahoo.com","horse":"no","phone":"+501-422-0026","route":"ferry","bicycle":"permissive","website":"https://www.facebook.com/profile.php?id=100068071369897","duration":"1:30:00","operator":"Thunderbolt Water Taxi","motor_vehicle":"no","opening_hours":"Mo-Su 15:00"},"15408297":{"to":"San Pedro","via":"Sarteneja","foot":"yes","from":"Corozal","name":"Corozal to Sarteneja and San Pedro (TWT)","toll":"yes","type":"route","email":"thunderbolttravels@yahoo.com","horse":"no","phone":"+501-422-0026","route":"ferry","bicycle":"permissive","website":"https://www.facebook.com/profile.php?id=100068071369897","duration":"1:30:00","operator":"Thunderbolt Water Taxi","motor_vehicle":"no","opening_hours":"Mo-Su 07:00"},"15408298":{"to":"San Pedro","foot":"yes","from":"Sarteneja","name":"Sarteneja to San Pedro (TWT)","toll":"yes","type":"route","email":"thunderbolttravels@yahoo.com","horse":"no","phone":"+501-422-0026","route":"ferry","bicycle":"permissive","website":"https://www.facebook.com/profile.php?id=100068071369897","duration":"1:00:00","operator":"Thunderbolt Water Taxi","reservation":"required","motor_vehicle":"no","opening_hours":"Mo-Su 15:00"},"15408299":{"to":"Corozal","foot":"yes","from":"Sarteneja","name":"Sarteneja to Corozal (TWT)","toll":"yes","type":"route","email":"thunderbolttravels@yahoo.com","horse":"no","phone":"+501-422-0026","route":"ferry","bicycle":"permissive","website":"https://www.facebook.com/profile.php?id=100068071369897","duration":"30:00","operator":"Thunderbolt Water Taxi","reservation":"required","motor_vehicle":"no","opening_hours":"Mo-Su 15:00"},"15408715":{"to":"San Pedro","foot":"yes","from":"Ladyville","name":"Ladyville to Caye Caulker & San Pedro (NEWT)","toll":"yes","type":"route","email":"info@nautiluswatertaxi.com","phone":"+501-614-1485","route":"ferry","access":"no","duration":"1:30:00","operator":"Nautilus Express Water Taxi","reservation":"required"}}