{"2077477":{"to":"东塘路渡口","fee":"yes","ref":"东嫩线","foot":"yes","from":"嫩江路渡口","name":"东嫩线：嫩江路渡口 -> 东塘路渡口","type":"route","route":"ferry","bicycle":"yes","name:zh":"东嫩线：嫩江路渡口 -> 东塘路渡口","motorcar":"no","operator":"上海市轮渡有限公司","motorcycle":"yes","opening_hours":"Mo-Su 05:30-21:30","public_transport:version":"2"},"4083078":{"fee":"yes","ref":"S10","name":"渡轮 S10线：鱼珠码头 -> 长洲码头","type":"route","route":"ferry","charge":"2 CNY","name:en":"Ferry S10: Yuzhu -> Changzhou","name:zh":"渡轮 S10线：鱼珠码头 -> 长洲码头","operator":"广州公交集团客轮有限公司","name:zh-Hans":"渡轮 S10线：鱼珠码头 -> 长洲码头","name:zh-Hant":"渡轮 S10綫：魚珠碼頭 -> 長洲碼頭","opening_hours":"Mo-Su 05:45-23:50","public_transport:version":"2"},"4083079":{"fee":"yes","ref":"S11","name":"渡轮 S11线：海心沙西区码头 -> 中大码头","type":"route","route":"ferry","charge":"2 CNY","operator":"广州公交集团客轮有限公司","opening_hours":"Mo-Su 08:00-18:00","public_transport:version":"2"},"4083081":{"fee":"yes","ref":"S1","name":"渡轮 S1线：金沙洲码头 -> 黄沙码头","type":"route","route":"ferry","charge":"10 CNY","operator":"广州公交集团客轮有限公司","reservation":"yes","opening_hours":"Mo-Fr 07:00,08:00,17:00,18:00;PH off","public_transport:version":"2"},"4083082":{"fee":"yes","ref":"S2","name":"渡轮 S2线：芳村码头 -> 中大码头","type":"route","route":"ferry","charge":"20 CNY","source":"http://www.prol.com.cn/business/lines.aspx?id=1552","operator":"广州公交集团客轮有限公司","reservation":"yes","opening_hours":"Mo-Fr 07:00,08:00,17:00,18:00;PH off","public_transport:version":"2"},"4083084":{"fee":"yes","ref":"S4","name":"渡轮 S4线：鳌洲码头 -> 西堤码头","type":"route","route":"ferry","charge":"2 CNY","operator":"广州公交集团客轮有限公司","opening_hours":"Mo-Su 06:45-20:15","public_transport:version":"2"},"4083086":{"fee":"yes","ref":"S6","name":"渡轮 S6线：黄沙码头 -> 芳村码头","type":"route","route":"ferry","charge":"2 CNY","operator":"广州公交集团客轮有限公司","description":"0.5 Yuan attachs per bicycle,1 Yuan attach per e-bicycle or tricycle","opening_hours":"Mo-Su 06:00-22:00","public_transport:version":"2"},"4083087":{"fee":"yes","ref":"S7","name":"渡轮 S7线：天字码头 -> 纺织码头","type":"route","route":"ferry","charge":"2 CNY","operator":"广州公交集团客轮有限公司","opening_hours":"Mo-Su 06:38-18:52","public_transport:version":"2"},"4083088":{"fee":"yes","ref":"S8","name":"渡轮 S8线：省总工会码头 -> 堑口码头","type":"route","route":"ferry","charge":"2 CNY","operator":"广州公交集团客轮有限公司","opening_hours":"Mo-Su 07:08-18:40","public_transport:version":"2"},"4083089":{"fee":"yes","ref":"S09","name":"渡轮 S9线：白蚬壳码头 -> 白鹤洞码头","type":"route","route":"ferry","charge":"2 CNY","operator":"广州公交集团客轮有限公司","opening_hours":"Mo-Su 06:00-19:50","public_transport:version":"2"},"7107450":{"name":"飞霞山名胜风景区渡轮","type":"route","route":"ferry"},"7107451":{"name":"丁香码头——飞霞山","type":"route","route":"ferry"},"7107452":{"name":"伦州岛渡轮","type":"route","route":"ferry"},"7107453":{"name":"五一码头——飞来寺","type":"route","route":"ferry"},"7107454":{"name":"五一码头——飞霞山","type":"route","route":"ferry"},"8218096":{"name":"护城河、大明湖游船","type":"route","route":"ferry"},"8375963":{"name":"小清河游船","type":"route","route":"ferry"},"8519243":{"name":"五一码头——白庙","type":"route","route":"ferry"},"9375988":{"name":"日游一江四湖","type":"route","route":"ferry","name:en":"Daytime Tour of One River and Four Lakes","name:zh":"日游一江四湖"},"9375989":{"name":"夜游两江四湖","type":"route","route":"ferry","name:en":"Night Tour of Two Rivers & Four Lakes","name:zh":"夜游两江四湖"},"9464617":{"fee":"yes","ref":"S14","name":"渡轮 S14线：石围塘码头 -> 石围塘码头","type":"route","route":"ferry","charge":"2 CNY","operator":"广州公交集团客轮有限公司","opening_hours":"Mo-Su 07:00-18:15","public_transport:version":"2"},"9464618":{"fee":"yes","name":"渡轮 S13线：黄沙码头 -> 锦绣半岛码头","type":"route","route":"ferry","operator":"广州公交集团客轮有限公司","reservation":"required","opening_hours":"Mo-Su 07:05-18:25","public_transport:version":"2"},"9466167":{"to":"南车渡","ref":"1","from":"南车渡","name":"柳州水上公交1号线","type":"route","route":"ferry","operator":"柳州市顺达水上公交有限公司"},"9466168":{"ref":"2","name":"柳州水上公交2号线","type":"route","route":"ferry","operator":"柳州市顺达水上公交有限公司"},"9908351":{"name":"上清溪漂流","type":"route","route":"ferry"},"11352854":{"to":"Zhongshan","ref":"深圳机场 - 中山港","from":"Fuyong","name":"深圳机场福永码头 - 中山港","type":"route","route":"ferry","name:en":"Shenzhen Airport - Zhongshan"},"11353825":{"ref":"朝天门 - 野猫溪","foot":"yes","name":"朝天门 - 野猫溪","type":"route","horse":"no","route":"ferry","bicycle":"yes","motor_vehicle":"no"},"11353826":{"ref":"朝天门 - 弹子石","name":"朝天门 - 弹子石","type":"route","route":"ferry"},"11353827":{"ref":"朝天门 - 江北嘴 - 弹子石","name":"朝天门 - 江北嘴 - 弹子石","type":"route","route":"ferry"},"11353828":{"ref":"朝天门 - 大竹林","name":"朝天门 - 大竹林","type":"route","route":"ferry"},"11353848":{"ref":"朝天门 - 洋人街","name":"朝天门 - 洋人街","type":"route","route":"ferry"},"11478065":{"name":"铁牛门 - 大佛坝","type":"route","route":"ferry"},"12481016":{"ref":"香港（九龙） - 珠海（九州） 香港 (九龍) - 珠海 (九洲) Hong Kong (Kowloon) - Zhuhai (Jiuzhou)","name":"香港（九龙） - 珠海（九州） 香港 (九龍) - 珠海 (九洲) Hong Kong (Kowloon) - Zhuhai (Jiuzhou)","type":"route","route":"ferry","operator":"CKS"},"12481017":{"ref":"香港（九龙） - 顺德港 香港 (九龍) - 顺德港 Hong Kong (Kowloon) - Shunde Port","name":"香港（九龙） - 顺德港 香港 (九龍) - 顺德港 Hong Kong (Kowloon) - Shunde Port","type":"route","route":"ferry","operator":"CKS"},"12481378":{"ref":"香港（上环） - 珠海（九州） 香港 (上環) - 珠海 (九洲) Hong Kong - Zhuhai (Jiuzhou)","name":"香港（上环） - 珠海（九州） 香港 (上環) - 珠海 (九洲) Hong Kong - Zhuhai (Jiuzhou)","type":"route","route":"ferry","operator":"CKS"},"12481379":{"ref":"香港（九龙） - 中山港 香港 (九龍) - 中山港 Hong Kong (Kowloon) - Zhongshan Port","name":"香港（九龙） - 中山港 香港 (九龍) - 中山港 Hong Kong (Kowloon) - Zhongshan Port","type":"route","route":"ferry","operator":"CKS"},"12481380":{"ref":"香港机场 - 中山港 香港機場 - 中山港 Hong Kong Airport - Zhongshan Port","name":"香港机场 - 中山港 香港機場 - 中山港 Hong Kong Airport - Zhongshan Port","type":"route","route":"ferry","operator":"CKS"},"12520950":{"ref":"S2短","name":"渡轮 S2短线：天字码头 -> 中大码头","route":"ferry","operator":"广州公交集团客轮有限公司","opening_hours":"Mo-Su 07:30-17:45","public_transport:version":"2"},"13115183":{"fee":"yes","ref":"S1","name":"渡轮 S1线：黄沙码头 -> 金沙洲码头","type":"route","route":"ferry","charge":"10 CNY","operator":"广州公交集团客轮有限公司","reservation":"yes","opening_hours":"Mo-Fr 07:30,08:30,17:30,18:30;PH off","public_transport:version":"2"},"13115252":{"fee":"yes","ref":"S6","name":"渡轮 S6线：芳村码头 -> 黄沙码头","type":"route","route":"ferry","charge":"2 CNY","operator":"广州公交集团客轮有限公司","description":"0.5 Yuan attachs per bicycle,1 Yuan attach per e-bicycle or tricycle","opening_hours":"Mo-Su 06:00-22:00","public_transport:version":"2"},"13115254":{"fee":"yes","ref":"S4","name":"渡轮 S4线：西堤码头 -> 鳌洲码头","type":"route","route":"ferry","charge":"2 CNY","operator":"广州公交集团客轮有限公司","opening_hours":"Mo-Su 06:52-20:30"},"13115255":{"ref":"S2短","name":"渡轮 S2短线：中大码头 -> 天字码头","route":"ferry","operator":"广州公交集团客轮有限公司","opening_hours":"Mo-Su 07:00-17:00","public_transport:version":"2"},"13115256":{"fee":"yes","ref":"S2","name":"渡轮 S2线：中大码头 -> 芳村码头","type":"route","route":"ferry","charge":"20 CNY","source":"http://www.prol.com.cn/business/lines.aspx?id=1552","operator":"广州公交集团客轮有限公司","reservation":"yes","opening_hours":"Mo-Fr 07:00,08:00,17:00,18:00;PH off","public_transport:version":"2"},"13122823":{"fee":"yes","name":"渡轮 S13线：锦绣半岛码头 -> 黄沙码头","type":"route","route":"ferry","operator":"广州公交集团客轮有限公司","reservation":"required","opening_hours":"Mo-Su 07:05-18:25","public_transport:version":"2"},"13122824":{"fee":"yes","ref":"S12","name":"渡轮 S12线：长洲码头 -> 海心沙西区码头","type":"route","route":"ferry","operator":"广州公交集团客轮有限公司","reservation":"required","opening_hours":"Mo-Su 17:30,18:00,18:30","public_transport:version":"2"},"13122825":{"fee":"yes","ref":"S11","name":"渡轮 S11线：中大码头 -> 海心沙西区码头","type":"route","route":"ferry","charge":"2 CNY","operator":"广州公交集团客轮有限公司","opening_hours":"Mo-Su 07:30-17:30","public_transport:version":"2"},"13122827":{"fee":"yes","ref":"S09","name":"渡轮 S9线：白鹤洞码头 -> 白蚬壳码头","type":"route","route":"ferry","charge":"2 CNY","operator":"广州公交集团客轮有限公司","opening_hours":"Mo-Su 06:10-20:00","public_transport:version":"2"},"13122828":{"fee":"yes","ref":"S8","name":"渡轮 S8线：堑口码头 -> 省总工会码头","type":"route","route":"ferry","charge":"2 CNY","operator":"广州公交集团客轮有限公司","opening_hours":"Mo-Su 07:00-18:30","public_transport:version":"2"},"13122829":{"fee":"yes","ref":"S7","name":"渡轮 S7线：纺织码头 -> 天字码头","type":"route","route":"ferry","charge":"2 CNY","operator":"广州公交集团客轮有限公司","opening_hours":"Mo-Su 06:45-19:00","public_transport:version":"2"},"14444410":{"to":"高明港","from":"香港中國客運碼頭","name":"香港 (九龍) - 鶴山 - 高明 Hong Kong (Kowloon) - Heshan - Gaoming","type":"route","route":"ferry","name:en":"Hong Kong (Kowloon) - Heshan - Gaoming","name:zh":"香港 (九龍) - 鶴山 - 高明","operator":"珠江船務"},"15034367":{"to":"嫩江路渡口","fee":"yes","ref":"东嫩线","foot":"yes","from":"东塘路渡口","name":"东嫩线：东塘路渡口 -> 嫩江路渡口","type":"route","route":"ferry","bicycle":"yes","name:zh":"东嫩线：东塘路渡口 -> 嫩江路渡口","motorcar":"no","operator":"上海市轮渡有限公司","motorcycle":"yes","opening_hours":"Mo-Su 05:30-21:30","public_transport:version":"2"},"15034368":{"to":"三岔港渡口","fee":"yes","ref":"三凇线","foot":"yes","from":"吴淞渡口","name":"三凇线：吴淞渡口 -> 三岔港渡口","type":"route","route":"ferry","bicycle":"yes","name:zh":"三凇线：吴淞渡口 -> 三岔港渡口","motorcar":"no","operator":"上海市轮渡有限公司","motorcycle":"yes","opening_hours":"Mo-Su 06:00-21:00","public_transport:version":"2"},"15034369":{"to":"吴淞渡口","fee":"yes","ref":"三凇线","foot":"yes","from":"三岔港渡口","name":"三凇线：三岔港渡口 -> 吴淞渡口","type":"route","route":"ferry","bicycle":"yes","name:zh":"三凇线：三岔港渡口 -> 吴淞渡口","motorcar":"no","operator":"上海市轮渡有限公司","motorcycle":"yes","opening_hours":"Mo-Su 06:00-21:00","public_transport:version":"2"}}