{"72276":{"to":"Hrensko (CZ)","ref":"F1","foot":"yes","from":"Schöna","name":"F1 Fähre Schöna - Hrensko (CZ)","type":"route","route":"ferry","bicycle":"yes","network":"Verkehrsverbund Oberelbe","fee_zone":"72","operator":"Regionalverkehr Sächsische Schweiz-Osterzgebirge GmbH","motor_vehicle":"no","network:short":"VVO","operator:short":"RVSOE","public_transport:version":"2"},"6968298":{"name":"Lodní doprava Hracholusky","note":"provoz V, VI, IX 6,7, VII, VIII 2,3,4,6,7","type":"route","route":"ferry","website":"http://www.hracholusky.com"},"7032198":{"to":"Podhoří","ref":"P2","foot":"yes","from":"V Podbabě","name":"P2: V Podbabě ⇒ Podhoří","type":"route","route":"ferry","bicycle":"yes","network":"PID","website":"https://pid.cz/linka/P2","operator":"Pražské Benátky","motor_vehicle":"no","opening_hours":"Mo-Fr 05:30-22:00; Sa,Su 06:30-22:00","public_transport:version":"2"},"7071357":{"to":"Zámky","ref":"P1","foot":"yes","from":"Sedlec","name":"P1: Sedlec ⇒ Zámky","type":"route","route":"ferry","bicycle":"yes","network":"PID","website":"https://pid.cz/linka/P1","operator":"Pražské Benátky","motor_vehicle":"no","opening_hours":"Mo-Fr 05:30-20:00; Sa,Su 06:45-20:00","public_transport:version":"2"},"7096167":{"fee":"no","ref":"P5","foot":"yes","name":"P5: Císařská louka ⇔ Výtoň ⇔ Kotevní","note":"dlouhodobá změna trasy - náhrada za uzavřené pěší lávky Železničního mostu","type":"route","route":"ferry","bicycle":"yes","stroller":"yes","wheelchair":"yes","motor_vehicle":"no","opening_hours":"Mo-Fr 07:00-19:00; Sa-Su 08:00-19:00"},"7096169":{"ref":"P3","foot":"yes","name":"P3: Lihovar ⇔ Dvorce","type":"route","route":"ferry","bicycle":"yes","motor_vehicle":"no","opening_hours":"Mo-Fr 06:00-22:00; Sa,Su 07:00-22:00"},"7096170":{"ref":"P6","foot":"yes","name":"P6: Lahovičky ⇔ Nádraží Modřany","type":"route","route":"ferry","bicycle":"yes","motor_vehicle":"no","opening_hours":"Mo-Fr 07:00-21:00; Sa,Su 08:00-21:00"},"7096171":{"foot":"yes","name":"přívoz Klecánky – Roztoky","type":"route","route":"ferry","bicycle":"yes","wikidata":"Q12048329","wikipedia":"cs:Přívoz Klecánky – Roztoky","motor_vehicle":"no","opening_hours":"Sa,Su 09:00-18:00"},"11201493":{"to":"Schöna","ref":"F1","foot":"yes","from":"Hrensko (CZ)","name":"F1 Fähre Hrensko (CZ) - Schöna","type":"route","route":"ferry","bicycle":"yes","network":"Verkehrsverbund Oberelbe","fee_zone":"72","operator":"Regionalverkehr Sächsische Schweiz-Osterzgebirge GmbH","motor_vehicle":"no","network:short":"VVO","operator:short":"RVSOE","public_transport:version":"2"},"11936308":{"to":"Sedlec","ref":"P1","foot":"yes","from":"Zámky","name":"P1: Zámky ⇒ Sedlec","type":"route","route":"ferry","bicycle":"yes","network":"PID","website":"https://pid.cz/linka/P1","operator":"Pražské Benátky","motor_vehicle":"no","opening_hours":"Mo-Fr 05:30-20:00; Sa,Su 06:45-20:00","public_transport:version":"2"},"11936309":{"to":"V Podbabě","ref":"P2","foot":"yes","from":"Podhoří","name":"P2: Podhoří ⇒ V Podbabě","type":"route","route":"ferry","bicycle":"yes","network":"PID","website":"https://pid.cz/linka/P2","operator":"Pražské Benátky","motor_vehicle":"no","opening_hours":"Mo-Fr 05:30-22:00; Sa,Su 06:30-22:00","public_transport:version":"2"}}