{"2403871":{"name":"เรือท่องเที่ยวเจ้าพระยา","type":"route","route":"ferry","name:en":"Chao Phraya Tourist Boat","operator":"เรือด่วนเจ้าพระยา","operator:en":"Chao Phraya Express Boat"},"2403872":{"name":"เรือด่วนพิเศษธงเขียว","type":"route","route":"ferry","colour":"#38b54d","name:en":"Green flag boat","name:th":"เรือด่วนพิเศษธงเขียว","network":"Chao Phraya Express Boat","operator":"เรือด่วนเจ้าพระยา","operator:en":"Chao Phraya Express Boat"},"2403873":{"name":"เรือประจำทาง (ไม่มีธง)","type":"route","route":"ferry","name:en":"Local line (no flag)","name:th":"เรือประจำทาง (ไม่มีธง)","network":"Chao Phraya Express Boat","operator":"เรือด่วนเจ้าพระยา","motor_vehicle":"no"},"2403874":{"name":"เรือด่วนพิเศษธงส้ม","type":"route","route":"ferry","colour":"#ef5d28","name:en":"Orange flag boat","name:th":"เรือด่วนพิเศษธงส้ม","network":"Chao Phraya Express Boat","operator":"เรือด่วนเจ้าพระยา","operator:en":"Chao Phraya Express Boat","motor_vehicle":"no"},"2403875":{"name":"เรือด่วนพิเศษธงเหลือง","type":"route","route":"ferry","colour":"#ffdb1a","name:en":"Yellow flag boat","name:th":"เรือด่วนพิเศษธงเหลือง","network":"Chao Phraya Express Boat","operator":"เรือด่วนเจ้าพระยา"},"3805732":{"to":"วัดศรีบุญเรือง","ref":"NIDA","from":"ประตูน้ำ","name":"Boat: ประตูน้ำ => วัดศรีบุญเรือง","type":"route","route":"ferry","to:en":"Wat Sriboonreung","from:en":"Pratunam","name:en":"Boat: Pratunam => Wat Sriboonreung","network":"NIDA Line"},"3805733":{"to":"ประตูน้ำ","ref":"NIDA","from":"วัดศรีบุญเรือง","name":"Boat: วัดศรีบุญเรือง => ประตูน้ำ","type":"route","route":"ferry","to:en":"Pratunam","from:en":"Wat Sriboonreung","name:en":"Boat: Wat Sriboonreung => Pratunam"},"3826826":{"to":"ประตูน้ำ","ref":"Golden Mount","from":"ผ่นฟ้าลีลาศ","name":"Boat: ผ่นฟ้าลีลาศ => ประตูน้ำ","type":"route","route":"ferry","to:en":"Pratunam","from:en":"Panfa Leelard","name:en":"Boat: Panfa Leelard => Pratunam","network":"Golden Mount Line"},"3826827":{"to":"ผ่นฟ้าลีลาศ","ref":"Golden Mount","from":"ประตูน้ำ","name":"Boat: ประตูน้ำ => ผ่นฟ้าลีลาศ","type":"route","route":"ferry","to:en":"Panfa Leelard","from:en":"Pratunam","name:en":"Boat: Pratunam => Panfa Leelard","network":"Golden Mount Line"},"9388659":{"to":"Bang Si Mueang Ferry Pier","from":"Nonthaburi Ferry Pier","name":"เรือข้ามฟาก ท่าเรือนนทบุรี → ท่าเรือบางศรีเมือง","type":"route","route":"ferry","name:en":"Ferry Nonthaburi Ferry Pier → Bang Si Mueang Ferry Pier","name:th":"เรือข้ามฟาก ท่าเรือนนทบุรี → ท่าเรือบางศรีเมือง","interval":"00:05","roundtrip":"yes","opening_hours":"Mo-Fr 05:00-21:00; Sa-Su 05:00-21:00"},"9389601":{"name":"เรือข้ามฟากเกาะเกร็ด","type":"route","route":"ferry","name:en":"Koh Kret Ferry Boat","name:th":"เรือข้ามฟากเกาะเกร็ด"},"9690992":{"to":"Tha Chang Pier (Chao Phraya River)","from":"Bangwa Pier (Phasi Charoen Canal)","name":"เส้นทางเดินเรือโดยสารฯ คลองบางกอกใหญ่ → แม่น้ำเจ้าพระยา","type":"route","route":"ferry","colour":"#84a307","name:en":"Bangkok Yai Canal → Chao Phraya River Boat","name:th":"เส้นทางเดินเรือโดยสารฯ คลองบางกอกใหญ่ → แม่น้ำเจ้าพระยา","website":"https://www.facebook.com/Bangkokcanalboat/","operator":"บริษัท กรุงเทพธนาคม จำกัด","description":"http://thanakom.co.th","opening_hours":"06:00-19:00"},"9691280":{"to":"Nonthaburi Ferry Pier","from":"Bang Si Mueang Ferry Pier","name":"เรือข้ามฟาก ท่าเรือบางศรีเมือง → ท่าเรือนนทบุรี","type":"route","route":"ferry","name:en":"Ferry Bang Si Mueang Ferry Pier → Nonthaburi Ferry Pier","name:th":"เรือข้ามฟาก ท่าเรือบางศรีเมือง → ท่าเรือนนทบุรี","interval":"00:05","opening_hours":"Mo-Fr 05:00-22:00; Sa-Su 05:00-21:00"},"13375027":{"name":"เรือโดยสารคลองผดุงกรุงเกษม","type":"route","route":"ferry","name:en":"Khlong Phadung Krung Kasem Express Boat","name:th":"เรือโดยสารคลองผดุงกรุงเกษม"}}