{"11569796":{"to":"白沙尾漁港","from":"鹽埔漁港","name":"鹽埔 - 白沙尾漁港 (小琉球)","type":"route","route":"ferry","name:zh":"鹽埔 - 白沙尾漁港 (小琉球)"},"11569799":{"to":"大福漁港","from":"鳳鼻頭漁港","name":"鳳鼻頭 - 大福漁港 (小琉球)","type":"route","route":"ferry","name:zh":"鳳鼻頭 - 大福漁港 (小琉球)"},"14021694":{"to":"旗津碼頭","from":"鼓山碼頭","name":"鼓山 - 棧貳庫 - 旗津","type":"route","horse":"no","route":"ferry","bicycle":"yes","name:zh":"鼓山 - 棧貳庫 - 旗津","operator":"高雄渡輪公司","motor_vehicle":"no"},"14021699":{"name":"棧貳庫 - 打狗英國領事館","type":"route","route":"ferry"},"14357585":{"to":"七美碼頭","foot":"yes","from":"馬公碼頭","name":"馬公 - 望安 - 七美   (南海之星)","type":"route","route":"ferry","bicycle":"yes","name:en":"Magong - Wang'an - Cimei","name:zh":"馬公 - 望安 - 七美","operator":"台灣航業","motor_vehicle":"yes"},"14357586":{"to":"望安碼頭","from":"馬公碼頭","name":"馬公-將軍-望安 (光正輪)","type":"route","route":"ferry","name:zh":"馬公-將軍-望安 (光正輪)","operator":"光正輪"},"14357588":{"to":"桶盤碼頭","from":"馬公碼頭","name":"馬公 - 桶盤 (交通船)","type":"route","route":"ferry","name:en":"Magong - Tongpan","name:zh":"馬公 - 桶盤"},"15923471":{"name":"碧潭渡","type":"route","route":"ferry","name:en":"BiTan Ferry","name:zh":"碧潭渡"}}