{"2091589":{"name":"Водне таксі: Героїв Чорнобилю площа - Сабарів","type":"route","route":"ferry","name:uk":"Водне таксі: Героїв Чорнобилю площа - Сабарів","public_transport:version":"2"},"2091590":{"name":"Водне таксі: Сабарів - Героїв Чорнобилю площа","type":"route","route":"ferry","name:uk":"Водне таксі: Сабарів - Героїв Чорнобилю площа","public_transport:version":"2"},"9478773":{"name":"Антонівка за міст","type":"route","route":"ferry","name:uk":"Антонівка за міст"},"9478774":{"name":"Антонівка","type":"route","route":"ferry","name:uk":"Антонівка"},"9478776":{"name":"Гола Пристань, Кардашинка","type":"route","route":"ferry","name:uk":"Гола Пристань, Кардашинка"},"9478777":{"name":"Правобережжя","type":"route","route":"ferry","name:uk":"Правобережжя"},"9478779":{"name":"Лівобережжя","type":"route","route":"ferry","name:uk":"Лівобережжя"},"9478780":{"name":"Цюрупинська Конка","type":"route","route":"ferry","name:uk":"Цюрупинська Конка"},"9478781":{"name":"Пудова Протока","type":"route","route":"ferry","name:uk":"Пудова Протока"},"10991559":{"name":"Миколаїв - Кінбурнська коса","type":"route","route":"ferry","name:uk":"Миколаїв - Кінбурнська коса","seamark:type":"ferry_route","public_transport:version":"2","seamark:ferry_route:category":"free"},"11911050":{"name":"Мала Корениха - Каботажний узвіз","type":"route","route":"ferry","name:uk":"Мала Корениха - Каботажний узвіз","seamark:type":"ferry_route","public_transport:version":"2","seamark:ferry_route:category":"free"}}