{"3578627":{"ref":"25km","name":"Equirencontre 2014","type":"route","route":"horse","network":"lhn","distance":"25","operator":"Arte Brabant","roundtrip":"yes","osmc:symbol":"brown:bridleway"},"12409230":{"ref":"2.04","name":"Boucle d'Ellezelles","type":"route","route":"horse","network":"rhn","distance":"26","roundtrip":"yes","survey:date":"2021-3-19"},"12890225":{"ref":"MC04","name":"Belle Maison Nord","type":"route","route":"horse","colour":"red","network":"lhn","roundtrip":"yes","osmc:symbol":"red:white:red_dot","survey:date":"2021-06-26","signed_direction":"yes"},"13804364":{"ref":"MC06","name":"Grand Marchin Sud","type":"route","route":"horse","colour":"yellow","network":"lhn","roundtrip":"yes","osmc:symbol":"yellow:white:yellow_dot","survey:date":"2022-02-11","signed_direction":"yes"},"14252725":{"to":"Baelen","ref":"1","from":"Raeren","name":"Die Ardennen zu Pferd (1)","type":"route","route":"horse","colour":"blue","name:de":"Die Ardennen zu Pferd (1)","name:fr":"L'Ardenne à cheval (1)","network":"rhn","website":"https://www.visitardenne.com","distance":"28.9","operator":"Interreg V Großregion AGRETA Projekt"},"14293754":{"to":"Herbiester","ref":"2","from":"Baelen","name":"Die Ardennen zu Pferd (2)","type":"route","route":"horse","colour":"blue","name:de":"Die Ardennen zu Pferd (2)","name:fr":"L'Ardenne à cheval (2)","network":"rhn","website":"https://www.visitardenne.com","distance":"26.2","operator":"Interreg V Großregion AGRETA Projekt"},"14293867":{"to":"Sourbrodt","ref":"3","from":"Herbiester","name":"Die Ardennen zu Pferd (3)","type":"route","route":"horse","colour":"blue","name:de":"Die Ardennen zu Pferd (3)","name:fr":"L'Ardenne à cheval (3)","network":"rhn","website":"https://www.visitardenne.com","distance":"26.3","operator":"Interreg V Großregion AGRETA Projekt"},"14303434":{"to":"Rocherath","ref":"4","from":"Sourbrodt","name":"Die Ardennen zu Pferd (4)","type":"route","route":"horse","colour":"blue","name:de":"Die Ardennen zu Pferd (4)","name:fr":"L'Ardenne à cheval (4)","network":"rhn","website":"https://www.visitardenne.com","distance":"38.8","operator":"Interreg V Großregion AGRETA Projekt"},"14315053":{"to":"Schönberg","ref":"5","from":"Rocherath","name":"Die Ardennen zu Pferd (5)","type":"route","route":"horse","colour":"blue","name:de":"Die Ardennen zu Pferd (5)","name:fr":"L'Ardenne à cheval (5)","network":"rhn","website":"https://www.visitardenne.com","distance":"26.2","operator":"Interreg V Großregion AGRETA Projekt"},"14315209":{"to":"Reuland","ref":"6","from":"Schönberg","name":"Die Ardennen zu Pferd (6)","type":"route","route":"horse","colour":"blue","name:de":"Die Ardennen zu Pferd (6)","name:fr":"L'Ardenne à cheval (6)","network":"rhn","website":"https://www.visitardenne.com","distance":"35.5","operator":"Interreg V Großregion AGRETA Projekt"},"14316850":{"to":"Cherain","ref":"7","from":"Reuland","name":"Die Ardennen zu Pferd (7)","type":"route","route":"horse","colour":"blue","name:de":"Die Ardennen zu Pferd (7)","name:fr":"L'Ardenne à cheval (7)","network":"rhn","website":"https://www.visitardenne.com","distance":"29.0","operator":"Interreg V Großregion AGRETA Projekt"},"14316899":{"to":"Achouffe","ref":"8","from":"Cherain","name":"Die Ardennen zu Pferd (8)","type":"route","route":"horse","colour":"blue","name:de":"Die Ardennen zu Pferd (8)","name:fr":"L'Ardenne à cheval (8)","network":"rhn","website":"https://www.visitardenne.com","distance":"34.1","operator":"Interreg V Großregion AGRETA Projekt"},"14321900":{"to":"Cens","ref":"9","from":"Achouffe","name":"Die Ardennen zu Pferd (9)","type":"route","route":"horse","colour":"blue","name:de":"Die Ardennen zu Pferd (9)","name:fr":"L'Ardenne à cheval (9)","network":"rhn","website":"https://www.visitardenne.com","distance":"35.7","operator":"Interreg V Großregion AGRETA Projekt"},"14322150":{"to":"Cobreville","ref":"10","from":"Cens","name":"Die Ardennen zu Pferd (10)","type":"route","route":"horse","colour":"blue","name:de":"Die Ardennen zu Pferd (10)","name:fr":"L'Ardenne à cheval (10)","network":"rhn","website":"https://www.visitardenne.com","distance":"31.7","operator":"Interreg V Großregion AGRETA Projekt"},"14325256":{"to":"Bodange","ref":"11","from":"Cobreville","name":"Die Ardennen zu Pferd (11)","type":"route","route":"horse","colour":"blue","name:de":"Die Ardennen zu Pferd (11)","name:fr":"L'Ardenne à cheval (11)","network":"rhn","website":"https://www.visitardenne.com","distance":"26.8","operator":"Interreg V Großregion AGRETA Projekt"},"14325305":{"to":"Merscheid","ref":"12","from":"Bodange","name":"Die Ardennen zu Pferd (12)","type":"route","route":"horse","colour":"blue","name:de":"Die Ardennen zu Pferd (12)","name:fr":"L'Ardenne à cheval (12)","network":"rhn","website":"https://www.visitardenne.com","distance":"41.8","operator":"Interreg V Großregion AGRETA Projekt"},"15088559":{"ref":"8","name":"Promenade circulaire de la Carrière","type":"route","route":"horse","colour":"green","network":"lwn","distance":"11.5","historic":"no","roundtrip":"yes","educational":"no","osmc:symbol":"green:green_circle:green_bowl:::","trailblazed":"yes","signed_direction":"yes"},"15259026":{"ref":"3","name":"Chevauchée du Chant d'Oiseaux","type":"route","route":"horse","state":"alternate","colour":"yellow","network":"lhn","distance":"22","historic":"no","roundtrip":"yes","educational":"no","osmc:symbol":"yellow:white:yellow_arch:3black","signed_direction":"yes"}}