{"1309352":{"name":"Ferrocarril Trasandino Los Andes - Mendoza","type":"route","route":"railway","name:de":"Transandenbahn","name:en":"Transandine Railway","end_date":"1984","wikidata":"Q1254317","abandoned":"yes","wikipedia":"es:Ferrocarril Trasandino Los Andes-Mendoza","start_date":"1910-04-05"},"1636438":{"name":"Ramal Bahía Blanca - Zapala","type":"route","route":"railway","wikidata":"Q6099062"},"1983433":{"to":"Santa Fe","ref":"F1","via":"Rosario","from":"Ramal F1","name":"FC Belgrano: Ramal F1 → Rosario → Santa Fe","type":"route","route":"railway","network":"Belgrano","wikidata":"Q5573045","wikipedia":"es:Ramal F1 del Ferrocarril Belgrano"},"2092853":{"name":"Ramal Ferroviario Destilería YPF","type":"route","route":"railway","network":"San Martín"},"6445519":{"to":"Salta","ref":"FCAS","from":"Antofagasta","name":"Ferrocarril de Antofagasta a Salta","type":"route","route":"railway","name:de":"Bahnstrecke Salta–Antofagasta","name:en":"Salta–Antofagasta railway","alt_name":"Huaytiquina","operator":"Ferronor - Trenes Argentinos","wikidata":"Q17087292","wikipedia":"es:Ferrocarril Antofagasta-Salta","start_date":"1948-02-20"},"10115931":{"name":"Chascomús Viejo","type":"route","route":"railway"},"13679282":{"ref":"CC-2","name":"Ramal CC2 del Ferrocarril Belgrano","type":"route","route":"railway","network":"Belgrano","end_date":"2015","operator":"Trenes Argentinos Cargas","wikidata":"Q85876802","wikipedia":"es:Ramal CC2 del Ferrocarril Belgrano","description":"Sin operaciones. Vías intrusadas."},"13924538":{"name":"Ramal Retiro - Empalme Norte - Kilómetro 5","type":"route","route":"railway","wikidata":"Q19677212"},"16137278":{"name":"FC Sarmiento - Relief Line","type":"route","route":"railway"},"16137279":{"from":"Once","name":"Túnel de Cargas","type":"route","route":"railway","name:de":"Cargas-Bahn"}}