{"57509":{"ref":"RB63","name":"Nibelungenbahn","type":"route","route":"railway","network":"VRN","ref:KBS":"653","operator":"DB Regio AG Mitte"},"57541":{"KBS":"655","ref":"RB62","name":"Riedbahn","type":"route","route":"railway","network":"VRN"},"1953708":{"to":"瓦町","ref":"N","from":"長尾","name":"高松琴平電気鉄道長尾線","type":"route","route":"railway","colour":"green","name:en":"Kotoden Nagao Line (to NW)","name:es":"Línea Kotoden Nagao (al noreste)","name:ja":"高松琴平電気鉄道長尾線","network":"ことでん","interval":"15","operator":"高松琴平電気鉄道","wikidata":"Q5364831","wikipedia":"ja:高松琴平電気鉄道長尾線","network:en":"Kotoden","note:route":"The network is considered as \\\"tram\\\". However, it meets the requirements to be a \\\"light rail\\\" with the possibility of being a \\\"light metro\\\" (LRT) for years to come.","name:ja-Latn":"Kotoden Nagao-sen","route:source":"http://www.kotoden.co.jp/publichtm/kotoden/irucabox/img/train/191130t.pdf","opening_hours":"Sa-Th 05:30-22:30; Fr 05:30-23:10","interval:source":"http://www.kotoden.co.jp/publichtm/kotoden/time/index-eg.htm","interval:conditional":"7 @ (Mo-Fr 08:00-08:50); 10 @ (Mo-Fr 18:00-22:00); 20 @ (Sa-Th 22:30-22:30; Fr 22:30-23:10)","public_transport:version":"2"},"3284126":{"to":"Mayrhofen im Zillertal","ref":"310","from":"Jenbach","name":"Jenbach – Mayrhofen","type":"route","route":"railway","network":"Fahrplanbild","operator":"Zillertaler Verkehrsbetriebe"},"3633074":{"to":"Tamsweg","ref":"630","from":"Unzmarkt","name":"Murtalbahn","type":"route","route":"railway","operator":"StB","wikidata":"Q1953893","wikipedia":"de:Murtalbahn"},"3679479":{"to":"Krimml","ref":"230","from":"Zell am See","name":"Zell am See – Krimml","type":"route","route":"railway","network":"Fahrplanbild","operator":"SLB"},"3684570":{"ref":"210","name":"Salzburg – Lamprechtshausen / Ostermiething","type":"route","route":"railway","network":"Fahrplanbild","operator":"SLB"},"3736879":{"to":"Hochschneeberg Bergbahnhof","ref":"523","from":"Puchberg am Schneeberg","name":"Puchberg – Hochschneeberg","type":"route","route":"railway","network":"Fahrplanbild","wikidata":"Q142517","wikipedia":"de:Schneebergbahn (Zahnradbahn)"},"3738035":{"to":"Schafbergspitze","ref":"173","from":"St. Wolfgang Schafbergbf","name":"St. Wolfgang – Schafbergspitze","type":"route","route":"railway","network":"Fahrplanbild","operator":"SKGB","wikidata":"Q871828","wikipedia":"de:Schafbergbahn"},"3752196":{"to":"Salzburg Hauptbahnhof","ref":"101","from":"Linz Hauptbahnhof","name":"Linz – Salzburg","type":"route","route":"railway","network":"Fahrplanbild","operator":"ÖBB","operator:wikidata":"Q83822"},"3765852":{"to":"St. Pölten Hbf","ref":"110","via":"Neulengbach","from":"Wien Westbf","name":"Wien – Neulengbach – St. Pölten","type":"route","route":"railway","network":"Fahrplanbild","operator":"ÖBB","operator:wikidata":"Q83822"},"3782370":{"to":"Braunau","ref":"190","from":"Freilassing Hbf","name":"Freilassing – Braunau","type":"route","route":"railway","network":"Fahrplanbild","operator":"ÖBB","operator:wikidata":"Q83822"},"3860430":{"to":"Summerau","ref":"141","from":"Linz Hbf","name":"Linz – Summerau","type":"route","route":"railway","network":"Fahrplanbild","operator":"ÖBB"},"3897835":{"ref":"180","name":"Vöcklamarkt – Attersee","type":"route","route":"railway","network":"Fahrplanbild","operator":"StH"},"4640713":{"to":"Bruck an der Mur","ref":"500","from":"Wien Hbf","name":"Wien Hbf – Bruck an der Mur","type":"route","route":"railway","network":"Fahrplanbild","operator":"ÖBB","operator:wikidata":"Q83822"},"4640715":{"to":"Tarvisio Boscoverde","ref":"600","from":"Wien Hbf","name":"Wien Hbf – Tarvisio","type":"route","route":"railway","network":"Fahrplanbild"},"4850720":{"to":"Krems an der Donau","ref":"810","from":"Wien FJB","name":"Wien – Krems","type":"route","route":"railway","network":"Fahrplanbild","operator":"ÖBB-Personenverkehr AG"},"4850721":{"to":"České Velenice","ref":"800","from":"Wien FJB","name":"Wien – České Velenice","type":"route","route":"railway","network":"Fahrplanbild","operator":"ÖBB","operator:wikidata":"Q83822"},"4858513":{"to":"Wien FJB","ref":"112","from":"St. Pölten Hbf","name":"St. Pölten – Herzogenburg – Tulln – Wien","type":"route","route":"railway","network":"Fahrplanbild","operator":"ÖBB","operator:wikidata":"Q83822"},"4863836":{"to":"Krems an der Donau","ref":"118","from":"St. Pölten Hbf","name":"St. Pölten – Krems","type":"route","route":"railway","network":"Fahrplanbild","operator":"ÖBB","operator:wikidata":"Q83822"},"5120995":{"to":"Klagenfurt Hbf","ref":"220","from":"Salzburg Hbf","name":"Salzburg – Klagenfurt","type":"route","route":"railway","network":"Fahrplanbild","operator":"ÖBB","operator:wikidata":"Q83822","public_transport:version":"2"},"12078850":{"ref":"110 01","name":"Tullnerfelder Bahn","type":"route","route":"railway","wikidata":"Q2459516"},"12078851":{"ref":"173 01","name":"Kremser Bahn","type":"route","route":"railway","alt_name":"Bahnstrecke Herzogenburg-Krems","wikidata":"Q23689327"},"15488069":{"ref":"Ⅱ. TŽK","name":"Druhý železniční koridor","type":"route","route":"railway","alt_name":"2. železniční koridor","wikidata":"Q11830368","wikipedia":"cs:Druhý železniční koridor","alt_name_1":"II. železniční koridor","alt_name_2":"Ⅱ. železniční koridor"}}