{"57639":{"ref":"L161","name":"Ligne du Luxembourg - Luxemburglijn","type":"route","route":"railway","name:en":"Luxembourg Line","name:fr":"Ligne du Luxembourg","name:nl":"Luxemburglijn","operator":"Infrabel","wikidata":"Q802045","wikipedia":"en:Belgian railway line 161","operator:wikidata":"Q536120","operator:wikipedia":"nl:Infrabel","name:etymology:wikidata":"Q32"},"57694":{"ref":"L2","name":"HSL 2 - LGV 2","type":"route","route":"railway","name:en":"HSL 2","name:fr":"LGV 2","name:nl":"HSL 2","operator":"Infrabel","wikidata":"Q1546399","wikipedia":"de:HSL 2","operator:wikidata":"Q536120"},"57712":{"ref":"L1","name":"LGV 1 - HSL 1","type":"route","route":"railway","name:en":"HSL 1","name:fr":"LGV 1","name:nl":"HSL 1","operator":"Infrabel","wikidata":"Q1032137","wikipedia":"de:HSL 1"},"102521":{"ref":"L37","name":"Wesertalstrecke","type":"route","route":"railway","name:de":"Wesertalstrecke","operator":"Infrabel","wikidata":"Q322113","wikipedia":"de:Wesertalstrecke","operator:wikidata":"Q536120"},"253548":{"ref":"L3","name":"LGV 3 - HSL 3","type":"route","route":"railway","name:en":"HSL 3","name:fr":"LGV 3","name:nl":"HSL 3","operator":"Infrabel","wikidata":"Q1032141","wikipedia":"de:HSL 3","operator:wikidata":"Q536120"},"408464":{"ref":"L4","name":"HSL 4","type":"route","route":"railway","operator":"Infrabel","not:operator:wikidata":"Q536120"},"1165797":{"ref":"L42","name":"Rivage–Gouvy","type":"route","route":"railway","operator":"Infrabel","operator:wikidata":"Q536120"},"3399530":{"ref":"262000","name":"Ligne Douai - Blanc-Misseron","type":"route","route":"railway","operator":"SNCF Réseau","operator:wikidata":"Q21605526"},"3775745":{"ref":"L128","name":"Ligne du Bocq","type":"route","route":"railway","website":"https://www.cfbocq.be/index.php/fr/","operator":"Le Chemin de Fer du Bocq","wikidata":"Q1996670","wikipedia":"nl:Spoorlijn 128"},"6729260":{"to":"Creil","ref":"242 000","from":"Jeumont","name":"Voie 2 de la ligne de Creil à Jeumont","type":"route","gauge":"1435","route":"railway","voltage":"25000","operator":"SNCF Réseau","frequency":"50","wikipedia":"fr:Ligne de Creil à Jeumont","electrified":"contact_line","operator:wikidata":"Q21605526"},"7171025":{"to":"Mont-Saint-Martin","ref":"202000","from":"Longuyon","name":"Voie 1 de la ligne de Longuyon à Mont-Saint-Martin","type":"route","gauge":"1435","route":"railway","voltage":"25000","operator":"SNCF Réseau","frequency":"50","wikipedia":"fr:Ligne de Longuyon à Mont-sur-Martin","electrified":"contact_line","operator:wikidata":"Q21605526"},"7171026":{"to":"Mont-Saint-Martin","ref":"202000","from":"Longuyon","name":"Voie 2 de la ligne de Longuyon à Mont-Saint-Martin","type":"route","gauge":"1435","route":"railway","voltage":"25000","operator":"SNCF Réseau","frequency":"50","wikipedia":"fr:Ligne de Longuyon à Mont-sur-Martin","electrified":"contact_line","operator:wikidata":"Q21605526"},"7239532":{"ref":"226000","name":"Ligne de Gonesse à Lille-Frontière (LGV)","type":"route","route":"railway","operator":"SNCF Réseau","wikidata":"Q241723","wikipedia":"fr:LGV Nord","operator:wikidata":"Q21605526"},"7325343":{"ref":"300 000","name":"Voie unique de Coudekerque-Branche à Bray-Dunes (section fermée)","type":"route","gauge":"1435","route":"railway","operator":"SNCF Réseau","operator:wikidata":"Q21605526"},"15052224":{"ref":"L35","name":"Montzenroute","type":"route","route":"railway","railway":"route","operator":"Infrabel","wikidata":"Q2455814","operator:wikidata":"Q536120"}}