{"563353":{"ref":"2","name":"ЖП Линия 2 София - Мездра - Горна Оряховица - Шумен - Каспичан - Синдел - Варна","type":"route","route":"railway","name:en":"Sofia - Gorna Oryahovitsa - Varna","operator":"НКЖИ","operator:wikidata":"Q6975183"},"1261432":{"name":"Детска железница \\\"Знаме на мира\\\"","type":"route","route":"railway"},"1342139":{"name":"София - Драгоман - Калотина запад","type":"route","route":"railway"},"1342140":{"ref":"13","name":"ЖП Линия 13 Волуяк - Банкя","type":"route","route":"railway"},"1400865":{"ref":"600","name":"София - Перник - Радомир - Кюстендил - Гюшево","type":"route","route":"railway"},"3839672":{"ref":"33","name":"ЖП Линия 33 Казичене-Столник","type":"route","route":"railway"},"3839689":{"ref":"32","name":"ЖП Линия 32 Кремиковци -маневрен район Обединена - РП Мусачево","type":"route","route":"railway","operator":"НКЖИ","operator:wikidata":"Q6975183"},"3848521":{"ref":"26","name":"ЖП Линия 26 Шумен - Смядово - Комунари","type":"route","route":"railway","operator":"НКЖИ"},"3850928":{"ref":"8","name":"ЖП Линия 8 Пловдив - Филипово - Михайлово - Стара Загора - Ямбол - Зимница - Карнобат - Бургас","note":"Пор-изток - Тракия - Скутаре също е част от 8-а линия","type":"route","route":"railway","operator":"НКЖИ","operator:wikidata":"Q6975183"},"3852436":{"ref":"16","name":"ЖП Линия 16 Септември - Добринище","type":"route","gauge":"760","route":"railway","name:de":"Rhodopenbahn","name:en":"Septemvri-Dobrinishte narrow gauge line","wikidata":"Q476274"},"3852877":{"ref":"1","name":"ЖП Линия 1 Калотина-запад - Волуяк - София - Пловдив - Димитровград - Свиленград","type":"route","route":"railway","railway":"rail","operator":"НКЖИ","operator:wikidata":"Q6975183"},"3866448":{"ref":"4","name":"ЖП Линия 4","type":"route","route":"railway","operator":"НКЖИ","description":"Русе - Горна Оряховица - Дъбово;Тулово - Стара Загора;Михайлово - Димитровград - Подкова","operator:wikidata":"Q6975183"},"3893402":{"ref":"7","name":"ЖП Линия 7 Мездра - Бойчиновци - Брусарци - Видин;Мездра юг - Руска бяла","type":"route","route":"railway","operator":"НКЖИ","operator:wikidata":"Q6975183"},"3893494":{"ref":"72","name":"ЖП Линия 72 Брусарци - Лом","type":"route","route":"railway","operator":"НКЖИ"},"3894055":{"ref":"18","name":"ЖП Линия 18 Стамболийски - Пещера","type":"route","route":"railway"},"3894122":{"ref":"6","name":"ЖП Линия 6 Волуяк - Батановци;Радомир - Гюешево","type":"route","route":"railway","operator":"НКЖИ","operator:wikidata":"Q6975183"},"3895331":{"ref":"5","name":"ЖП Линия 5 София - Перник - Батановци - Радомир - Дупница - Кулата","type":"route","route":"railway","operator":"НКЖИ","operator:wikidata":"Q6975183"},"3895376":{"ref":"19","name":"ЖП Линия 19 Крумово - Асеновград","type":"route","route":"railway"},"3896971":{"ref":"52","name":"ЖП Линия 52 Ген. Тодоров - Петрич","type":"route","route":"railway","operator":"НКЖИ"},"3896986":{"ref":"51","name":"ЖП Линия 51 Дупница - Бобов дол","type":"route","route":"railway","operator":"НКЖИ","operator:wikidata":"Q6975183"},"3897040":{"ref":"71","name":"ЖП Линия 71 Бойчиновци - Берковица","type":"route","route":"railway","operator":"НКЖИ"},"3897197":{"ref":"23","name":"ЖП Линия 23 Ясен - Черквица","type":"route","route":"railway","operator":"НКЖИ"},"3897345":{"ref":"24","name":"ЖП Линия 24 Свищов - Левски - Троян","type":"route","route":"railway","operator":"НКЖИ","operator:wikidata":"Q6975183"},"3897874":{"ref":"31","name":"ЖП Линия 31 Курило - Световрачане","type":"route","route":"railway"},"3897910":{"ref":"9","name":"ЖП Линия 9 Русе - Самуил - Каспичан","type":"route","route":"railway","operator":"НКЖИ","operator:wikidata":"Q6975183"},"3897948":{"ref":"91","name":"ЖП Линия 91 Самуил - Силистра","type":"route","route":"railway","operator":"НКЖИ"},"3898583":{"ref":"28","name":"ЖП Линия 28 Повеляново - Кардам","type":"route","route":"railway","operator":"НКЖИ","operator:wikidata":"Q6975183"},"3898609":{"ref":"42","name":"ЖП Линия 42 Царева ливада - Габрово","type":"route","route":"railway"},"3898626":{"ref":"81","name":"ЖП Линия 81 Филипово - Панагюрище","type":"route","route":"railway"},"3898639":{"ref":"82","name":"ЖП Линия 82 Филипово - Долна махала - Карлово;Долна махала - Хисаря","type":"route","route":"railway"},"3898667":{"ref":"83","name":"ЖП Линия 83 Нова Загора - Симеоновград","type":"route","route":"railway"},"3898717":{"ref":"86","name":"ЖП Линия 86 Владимир Павлов - Сарафово","type":"route","route":"railway"},"10907115":{"ref":"3","name":"ЖП Линия 3 София - Карлово - Тулово - Дъбово - Зимница - Синдел - Варна","type":"route","route":"railway","operator":"НКЖИ","operator:wikidata":"Q6975183"},"15519492":{"to":"Оряхово","ref":"21","from":"Червен бряг","name":"Теснолинейка Червен бряг – Оряхово","type":"route","gauge":"760","route":"railway","to:en":"Orjahovo","from:en":"Cherven Brjag","name:de":"Schmalspurbahn Cherven Brjag - Orjahovo","railway":"historic","end_date":"2002","start_date":"1918..1930"},"15539157":{"to":"Варвара","ref":"17","from":"Пазарджик","name":"ЖП Линия 17 Пазарджик - Варвара","type":"route","gauge":"760","route":"railway","to:de":"Varvara","from:de":"Pasardschik","name:de":"Schmalspurbahn Pasardschik - Varvara","railway":"historic","end_date":"2002","wikidata":"Q71303671","wikipedia":"de:Schmalspurbahn Pasardschik–Warwara","start_date":"1928"}}