{"4518069":{"to":"Geniusze","ref":"57","from":"Kużnica Białostocka","name":"Linia kolejowa nr 57 Kuźnica Białostocka - Geniusze","type":"route","gauge":"1520","route":"railway","network":"PKP","operator":"PKP Polskie Linie Kolejowe S.A.","wikidata":"Q2469806","wikipedia":"pl:Linia kolejowa nr 57","operator:wikidata":"Q1344677"},"7400935":{"name":"Ашмяны - Баброўнікі","type":"route","route":"railway","name:be":"Ашмяны - Баброўнікі","name:pl":"Oszmiana - Bobrowniki","name:ru":"Ошмяны - Бобровники","name:uk":"Ошмяни - Бобровники","int_name":"Ašmiany - Babroŭniki"},"7478499":{"name":"Kena - Маладзечна","type":"route","route":"railway","name:be":"Кена Паненская - Маладзечна","name:lt":"Kena - Maladečina","name:pl":"Kiena Panieńska - Mołodeczno","name:ru":"Кяна - Молодечно","name:uk":"Кяна - Молодечно","int_name":"Kena - Maładziečna"},"9379147":{"name":"Жабінка - Гомель Пасажырскі","type":"route","route":"railway","name:be":"Жабінка - Гомель Пасажырскі"},"12967421":{"name":"Гомель — Бабруйск","type":"route","route":"railway","name:be":"Гомель — Бабруйск","name:de":"Bahnstrecke Gomel - Bobruisk","name:ru":"Гомель - Бобруйск","name:uk":"Гомель - Бобруйск"},"13967075":{"to":"Крычаў-1","from":"Ворша-Заходняя","name":"Ворша-Заходняя → Крычаў-1","type":"route","route":"railway","name:be":"Ворша-Заходняя → Крычаў-1","name:de":"Bahnstrecke Orscha-Sapadnaja - Kritschew","name:ru":"Орша-Западная - Кричев-1","name:uk":"Орша-Західна - Кричів-1"},"14007856":{"to":"Магілёў 2","from":"Асіповічы 1","name":"Асіповічы - Магілёў","type":"route","route":"railway","name:be":"Асіповічы - Магілёў","name:ru":"Осиповичи - Могилёв","name:uk":"Осиповичі - Могильов"},"14262930":{"to":"Ліда","from":"Маладзечна","name":"Маладзечна-Ліда","type":"route","route":"railway","name:be":"Маладзечна-Ліда","name:de":"Bahnstrecke Molodetschno - Lida","name:pl":"Mołodeczno-Lida","name:ru":"Молодечно-Лида","name:uk":"Молодечно-Ліда"},"15458372":{"to":"Полацк","from":"Віцебск","name":"Віцебск – Полацк","type":"route","route":"railway","name:be":"Віцебск – Полацк","name:de":"Bahnstrecke Witebsk - Polazk","name:ru":"Витебск – Полоцк","name:uk":"Вітебськ – Полоцьк"},"15458677":{"to":"Руба","from":"Віцебск","name":"Віцебск – Руба","type":"route","route":"railway","name:be":"Віцебск – Руба","name:de":"Bahnstrecke Witebsk - Ruba"},"15458678":{"to":"Смаленск","from":"Віцебск","name":"Віцебск – Смоленск","type":"route","route":"railway","name:be":"Віцебск – Смаленск","name:de":"Bahnstrecke Witebsk - Smolensk"},"15459373":{"to":"Любань","from":"Урэчча","name":"Урэчча – Любань","type":"route","route":"railway","name:be":"Урэчча – Любань","name:de":"Bahnstrecke Uretscha – Ljuban"},"15547567":{"to":"Невель-1","from":"Круляўшчызна","name":"Круляўшчызна – Невель-1","type":"route","route":"railway","name:be":"Круляўшчызна – Невель-1","name:de":"Bahnstrecke Kruljauschtschyssna – Newel"}}