{"401455":{"name":"Tenke-Dilolo","note":"vitesse moyenne 15 km/h","type":"route","gauge":"1067","route":"railway","usage":"main","source":"www.rgc.cd;Yahoo imagery","railway":"rail","operator":"SNCC","electrified":"no","passenger_lines":"1","operator:wikidata":"Q1481581"},"404398":{"name":"Kamina-Kabalo","type":"route","route":"railway","usage":"main","operator":"SNCC"},"404418":{"name":"Kabalo-Kalemie","type":"route","route":"railway","usage":"main","operator":"SNCC"},"404431":{"name":"Tenke-Kamina","type":"route","route":"railway","usage":"main"},"452929":{"name":"Kamina-Ilebo","type":"route","route":"railway","usage":"main","operator":"SNCC"},"916617":{"name":"Aketi-Isiro-Mungbere","type":"route","gauge":"600","route":"railway","usage":"main","name:en":"Vicicongo line","network":"Vicicongo","service":"long_distance","distance":"683","maxspeed":"17","operator":"CFU","wikipedia":"en:Rail transport in the Democratic Republic of the Congo#Routes","start_date":"1928-1937","electrified":"no"},"916629":{"to":"Aketi","from":"Bumba","name":"Bumba-Aketi","type":"route","route":"railway","usage":"main","maxspeed":"17","operator":"CFU","was:route":"train","start_date":"1971","was:service":"long_distance"},"1124865":{"name":"Aketi - Bondo","type":"route","gauge":"600","route":"railway","usage":"main","name:en":"Vicicongo line","service":"regional","maxspeed":"12,5","operator":"CFU","wikipedia":"en:Rail transport in the Democratic Republic of the Congo#Routes","start_date":"1924-1928","electrified":"no"},"1125198":{"name":"Tenke-Dilolo","type":"route","fixme":"please find more common tags","gauge":"1067","route":"railway","usage":"main","railway":"rail","operator":"SNCC","description":"très degrade","electrified":"no","passenger_lines":"1"},"1231382":{"name":"Charleville - Makumbi (1926 - 1955)","type":"route","route":"railway","network":"Formninière","operator":"Forminière"},"1231423":{"name":"Buta Triangle - Buta Ville","type":"route","route":"railway","usage":"main","network":"Vicicongo","operator":"CFU"},"1231498":{"name":"Andoma - Titulé","type":"route","route":"railway","usage":"main","network":"Vicicongo","service":"regional","distance":"32","maxspeed":"15","operator":"CFU","start_date":"1932"},"1281991":{"name":"Ligne urbaine de Kintambo","type":"route","route":"railway","network":"Chemin de fer urbain de Kinshasa","operator":"ONATRA"},"1548333":{"name":"Chemins de fer Vicinaux du Mayumbe","type":"route","gauge":"610","route":"railway","railway":"abandoned","end_date":"1984"},"1549126":{"name":"Mbanza-Ngungu - Marchal","type":"route","gauge":"1067","route":"railway","network":"CFMK","operator":"ONATRA"},"1789558":{"to":"Sakania","from":"Lubumbashi","name":"Lubumbashi-Sakania","type":"route","gauge":"1067","route":"railway","usage":"main","network":"ferroviaire","operator":"SNCC"},"1789561":{"name":"Lusaka-Sakania","type":"route","route":"railway","usage":"main"},"4603622":{"name":"Kabalo-Kindu","type":"route","route":"railway"},"7168303":{"name":"Lubumbashi-Kipushi","type":"route","route":"railway","usage":"branch","operator":"SNCC"}}