{"162982":{"ref":"0005","name":"京九铁路","type":"route","route":"railway","name:de":"Bahnstrecke Peking–Kowloon","name:en":"Jingjiu Line","name:ja":"京九線","name:ko":"징주 철로","name:zh":"京九线","network":"CN-railway","alt_name":"京九线","name:nan":"Kiaⁿ-kiú-sòaⁿ","name:wuu":"京九铁路","name:yue":"京九线","operator":"中国铁路","wikidata":"Q1038486","wikipedia":"zh:京九铁路","alt_name:de":"Jingjiu-Bahn","alt_name:en":"Beijing–Kowloon Railway;Jingjiu Line;Beijing-Jiujiang-Kowloon Railway","description":"Connects Beijing West Station to Shenzhen Station, Guangdong annd Hongkong","name:nan-HJ":"京九線","name:nan-TL":"Kiann-kiú-suànn","operator:en":"China Railway","operator:zh":"中国铁路","name:nan-POJ":"Kiaⁿ-kiú-sòaⁿ","name:zh-Hans":"京九线","name:zh-Hant":"京九線","operator:wikidata":"Q1073489"},"163022":{"ref":"0002","name":"京沪线","type":"route","gauge":"1435","route":"railway","usage":"main","name:de":"Jinghu-Bahn","name:en":"Jinghu Line","name:ja":"京滬線","name:zh":"京沪线","network":"CN-railway","voltage":"25000","alt_name":"京沪线","operator":"中国铁路","frequency":"50","wikipedia":"zh:京沪铁路","electrified":"contact_line","operator:en":"China Railway","operator:zh":"中国铁路","operator:wikidata":"Q1073489","public_transport:version":"2"},"193064":{"ref":"0001","name":"京广线","type":"route","route":"railway","name:de":"Bahnstrecke Peking–Guangzhou","name:en":"Beijing–Guangzhou Railway","name:ja":"京広線","name:zh":"京广铁路","network":"CN-railway","name:nan":"Kiaⁿ-kńg-soaⁿ","name:wuu":"京广铁路","name:yue":"京广铁路","operator":"中国铁路","wikidata":"Q2673907","wikipedia":"zh:京广铁路","name:nan-TL":"Kiann-kńg-suann","operator:en":"China Railway","operator:zh":"中国铁路","name:nan-POJ":"Kiaⁿ-kńg-soaⁿ","name:zh-Hans":"京广铁路","name:zh-Hant":"京廣鐵路","operator:wikidata":"Q1073489"},"198494":{"ref":"0007","name":"京哈线","type":"route","route":"railway","network":"CN-railway","operator":"中国铁路","wikidata":"Q1074605","wikipedia":"zh:京哈线","operator:en":"China Railway","operator:zh":"中国铁路","operator:wikidata":"Q1073489"},"356778":{"ref":"3002","name":"京沪高铁","note":"线名为京沪高铁，不是京沪高速","type":"route","route":"railway","name:de":"Schnellfahrstrecke Peking–Shanghai","name:en":"Beijing–Shanghai High-speed Railway","name:ja":"京滬高速鉄道","name:ko":"징후 고속철도","name:zh":"京沪高铁","network":"CN-railway","operator":"中国铁路","wikidata":"Q913275","operator:en":"China Railway","operator:zh":"中国铁路","name:zh-Hant":"京滬高鐵","operator:wikidata":"Q1073489"},"356823":{"ref":"3011","name":"胶济客运专线","type":"route","owner":"胶济铁路客运专线有限责任公司","route":"railway","name:cs":"Železniční trať Čching-tao – Ťi-nan","name:de":"Personenverkehrsstrecke Jinan-Qingdao","name:en":"Qingdao–Jinan passenger railway","network":"CN-railway","wikidata":"Q747297","wikipedia":"en:Qingdao–Jinan passenger railway"},"408506":{"ref":"温福铁路","name":"温福线","note":"as of wikipedia opened Sep. 2009; long segments maybe tunnels...","type":"route","route":"railway","name:en":"Wenfu Line","name:fr":"Ligne Wenzhou–Fuzhou","name:zh":"温福线","network":"CN-railway","alt_name":"温福铁路","wikidata":"Q913780","wikipedia":"en:Wenzhou–Fuzhou Railway","alt_name:en":"Wenzhou–Fuzhou Railway","public_transport":"2"},"538674":{"ref":"0102","name":"滨洲线","type":"route","route":"railway","name:en":"Binzhou railway line","operator":"中国铁路哈尔滨局集团有限公司","wikidata":"Q1059686","wikipedia":"zh:滨洲铁路","alt_name:en":"Harbin–Manzhouli Railway","description":"Double-track electrified railroad connecting Harbin and Manzhouli.","electrified":"yes","operator:en":"China Railway Harbin Group","operator:zh":"中国铁路哈尔滨局集团有限公司","operator:wikidata":"Q10922014"},"1043244":{"ref":"3032","name":"兰新客专线","type":"route","route":"railway","name:en":"Lanxin High-Speed Line","name:fr":"Ligne ferrovaire à grande vitesse Lanzhou–Ürümqi","name:ru":"Скоростная железная дорога Ланьчжоу — Урумчи","name:zh":"兰新客专线","alt_name":"Lanzhou-Xinjiang High-Speed Railway","loc_name":"兰新铁路第二双线","operator":"中国铁路","wikidata":"Q588802","wikipedia":"en:Lanzhou–Xinjiang high-speed railway","operator:en":"China Railway","operator:zh":"中国铁路","operator:wikidata":"Q1073489"},"1106681":{"ref":"0039","name":"包兰铁路","type":"route","route":"railway","name:en":"Baolan railway","name:zh":"包兰铁路","network":"CN-railway"},"1108658":{"ref":"0332","name":"丰沙线","type":"route","route":"railway","name:en":"Fengtai–Shacheng Railway","name:zh":"丰沙线","network":"CN-railway","operator":"中国铁路","wikidata":"Q10876960","wikipedia":"zh:丰沙铁路","operator:en":"China Railway","operator:zh":"中国铁路","operator:wikidata":"Q1073489"},"1109833":{"ref":"0021","name":"京通线","type":"route","route":"railway","name:en":"Beijing–Tongliao Railway","network":"CN-railway","wikidata":"Q4881224","wikipedia":"zh:京通铁路","name:zh-Hant":"京通鐵路"},"1565503":{"ref":"0015","name":"平齐线","type":"route","gauge":"1435","route":"railway","usage":"main","name:en":"Siping-Qiqihar railway","name:zh":"平齐线","railway":"rail","voltage":"25000","maxspeed":"140","frequency":"50","electrified":"contact_line","name:zh_pinyin":"píngqí tiĕlù","railway:traffic_mode":"mixed"},"1656856":{"ref":"0151","name":"滨绥线","note":"Chinese part is called Binsui from Harbin to Suifenhe","type":"route","route":"railway","name:en":"Vladivostok - Harbin","name:ru":"Китайско-Восточная железная дорога","operator":"中国铁路哈尔滨局集团有限公司","wikidata":"Q836421","wikipedia":"zh:滨绥铁路","operator:en":"China Railway Harbin Group","operator:zh":"中国铁路哈尔滨局集团有限公司","name:zh_pinyin":"bīnsuí tiĕlù","operator:wikidata":"Q10922014"},"1925853":{"ref":"西成客专","name":"西成客运专线","type":"route","route":"railway","name:en":"Xicheng Passenger Dedicated Line","name:zh":"西成客运专线","wikidata":"Q386435","wikipedia":"zh:西成客运专线","start_date":"2017-09-17","alt_name:en":"Xi'an–Chengdu High-speed Railway","name:zh_pinyin":"xīchéng kèyùn zhuānxiàn"},"1942319":{"ref":"南昆线","name":"南昆铁路","type":"route","route":"railway","name:en":"Nankun Railway","wikidata":"Q6133508","wikipedia":"zh:南昆铁路","alt_name:en":"Nanning–Kunming Railway","electrified":"yes","name:zh_pinyin":"nánkūn tiĕlù"},"1953505":{"ref":"0303","name":"石太线","type":"route","route":"railway","name:en":"Shitai Railway","name:zh":"石太线","network":"CN-railway","operator":"中国铁路","wikidata":"Q5946191","wikipedia":"zh:石太铁路","owner:note":"赛鱼至皇后园属大秦铁路股份有限公司","alt_name:en":"Shijiazhuang–Taiyuan Railway","operator:en":"China Railway","operator:zh":"中国铁路","description:en":"Shitai Railway connects Shijiazhuang and Taiyuan, the provincial capitals of Hebei and Shanxi.","operator:wikidata":"Q1073489"},"1953823":{"ref":"2306","name":"阳涉铁路","type":"route","owner":"阳涉铁路有限责任公司","route":"railway","name:en":"Yangshe Railway","name:zh":"阳涉铁路","alt_name:en":"Yangquan–She Railway"},"1988906":{"ref":"0011","name":"图佳线","type":"route","route":"railway","name:en":"Tujia Railway","network":"CN-railway","operator":"中国铁路哈尔滨局集团有限公司","wikidata":"Q5154391","wikipedia":"zh:图佳铁路","operator:en":"China Railway Harbin Group","operator:zh":"中国铁路哈尔滨局集团有限公司","name:zh_pinyin":"tújiā tiĕlù","operator:wikidata":"Q10922014"},"1989405":{"to":"新沂西","ref":"胶新线","from":"胶州","name":"胶新铁路","type":"route","route":"railway","usage":"main","name:en":"Jiaoxin Railway","network":"CN-railway","operator":"中国铁路济南局集团有限公司","wikidata":"Q6191929","wikipedia":"zh:胶新铁路","alt_name:en":"Jiaozhou–Xinyi Railway","name:zh_pinyin":"jiāoxīn tiělù"},"1999084":{"ref":"石长线","name":"石长线","type":"route","owner":"石长铁路有限责任公司","route":"railway","usage":"main","name:en":"Shichang Railway","network":"CN-railway","alt_name":"石长铁路","alt_name:en":"Shimen-Changsha Railway"},"2052885":{"to":"深圳北站","ref":"3009","via":"杭州东站;杭州南站;绍兴北站;绍兴东站;余姚北站;庄桥站;宁波站;奉化站;宁海站;三门县站;临海站;台州西站;温岭站;雁荡山站;乐清东站;乐清站;温州南站;瑞安站;平阳站;苍南站;福鼎站;太姥山站;霞浦站;福安站;宁德站;罗源站;连江站;福州站;福州南站;福清站;涵江站;莆田站;仙游站;惠安站;泉州站;晋江站;厦门北站;角美站;漳州站;漳浦站;云霄站;诏安站;饶平站;潮汕站;潮阳站;普宁站;葵潭站;陆丰站;汕尾站;鲘门站;惠东站;惠州南站;深圳坪山站;深圳北站","from":"杭州东站","name":"杭深铁路","type":"route","route":"railway","name:en":"Hangzhou-Shenzhen Line","name:zh":"杭深铁路","network":"CN-railway","name:nan":"Hâng-chhim Thih-lō͘","wikidata":"Q846528","wikipedia":"zh:杭福深客運專線","name:nan-HJ":"杭深鐵路","name:nan-TL":"Hâng-tshim-thih-lōo","name:nan-POJ":"Hâng-chhim Thih-lō͘","name:zh-Hans":"杭深铁路","name:zh-Hant":"杭深線"},"2067604":{"ref":"0245","name":"金城线","type":"route","route":"railway"},"2070913":{"ref":"0241","name":"凤上线","type":"route","route":"railway","name:en":"Fengshang Line","name:zh":"凤上铁路","network":"CN-railway","operator":"中国铁路沈阳局","wikidata":"Q10295904","wikipedia":"zh:凤上铁路","name:zh-Hant":"鳳上鐵路"},"2090630":{"ref":"渝怀线","name":"渝怀线","type":"route","route":"railway","name:en":"Yuhuai Railway","name:zh":"渝怀线","alt_name":"渝怀铁路","operator":"中国铁路","wikidata":"Q5104682","wikipedia":"en:Chongqing–Huaihua Railway","description":"Single-track, electrified railroad in Chongqing and Huaihua in Hunan.","electrified":"yes","operator:en":"China Railway","operator:zh":"中国铁路","operator:wikidata":"Q1073489"},"2143432":{"ref":"0265","name":"叶赤线","type":"route","route":"railway","name:en":"Yechi Railway","network":"CN-railway","wikidata":"Q10916463","wikipedia":"zh:叶赤铁路"},"2148181":{"ref":"0106","name":"伊加线","type":"route","route":"railway","name:en":"Yijia Railway","network":"CN-railway","operator":"中国铁路哈尔滨局集团有限公司","wikidata":"Q6991631","wikipedia":"en:Nenjiang–Greater Khingan Forest Railway","alt_name:en":"Yitulihe-Jiagedaqi Railway","operator:en":"China Railway Harbin Group","operator:zh":"中国铁路哈尔滨局集团有限公司","operator:wikidata":"Q10922014"},"2150263":{"ref":"0101","name":"齐北线","type":"route","route":"railway","name:en":"Qibei Railway","name:zh":"齐北线","network":"CN-railway","operator":"中国铁路哈尔滨局集团有限公司","wikidata":"Q1441716","wikipedia":"zh:齐北线","alt_name:en":"Qiqihar–Bei'an Railway","operator:en":"China Railway Harbin Group","operator:zh":"中国铁路哈尔滨局集团有限公司","operator:wikidata":"Q10922014"},"2196356":{"ref":"达万线","name":"达万铁路","type":"route","owner":"达成铁路有限责任公司","route":"railway","name:en":"Dawan Railway","name:zh":"达万铁路","network":"CN-railway","wikipedia":"zh:达万铁路"},"2529615":{"ref":"0302","name":"京原线","type":"route","route":"railway","name:cs":"Železniční trať Peking – Jüan-pching","name:en":"Jingyuan Line","name:zh":"京原线","network":"CN-railway","name:nan":"Kiaⁿ-goân-sòaⁿ","wikidata":"Q4881227","wikipedia":"zh:京原铁路","owner:note":"灵丘至薛孤属大秦铁路股份有限公司","alt_name:cs":"Železniční trať Ťing-jüan","alt_name:en":"Beijing–Yuanping Railway","name:nan-HJ":"京原線","name:nan-TL":"Kiann-guân-suànn","name:nan-POJ":"Kiaⁿ-goân-sòaⁿ","name:zh_pinyin":"jīngyuán tiělù"},"2759277":{"ref":"0128","name":"汤林线","type":"route","route":"railway","name:en":"TangLin Line","operator":"中国铁路哈尔滨局集团有限公司","alt_name:en":"Nancha - Wuyiling Railway","operator:en":"China Railway Harbin Group","operator:zh":"中国铁路哈尔滨局集团有限公司","operator:wikidata":"Q10922014"},"2772011":{"ref":"0207","name":"沟海线","type":"route","route":"railway","name:en":"Gouhai Line","wikidata":"Q8379544","wikipedia":"zh:沟海铁路"},"2973048":{"ref":"8305","name":"孝柳铁路","type":"route","owner":"山西孝柳铁路有限责任公司","route":"railway","name:en":"Xiaoliu Railway","wikidata":"Q10945021","wikipedia":"zh:孝柳铁路"},"2973914":{"ref":"0031","name":"邯长线","type":"route","route":"railway","name:en":"Hanchang Line","name:zh":"邯长线","network":"CN-railway","operator":"中国铁路","wikidata":"Q5647250","wikipedia":"zh:邯长铁路","alt_name:en":"Handan–Changzhi Railway","operator:en":"China Railway","operator:zh":"中国铁路","wikipedia:en":"Handan–Changzhi railway","operator:wikidata":"Q1073489"},"2973916":{"ref":"0381","name":"沙午铁路","type":"route","route":"railway","name:en":"Shawu Railway","name:zh":"沙午铁路","network":"CN-railway","wikidata":"Q15923230","wikipedia":"zh:沙午铁路","alt_name:en":"Shahe–Wuji Railway"},"2975618":{"ref":"0135","name":"福前线","type":"route","route":"railway","operator":"中国铁路哈尔滨局集团有限公司","wikidata":"Q15913373","wikipedia":"zh:福前铁路","description":"Railway from Fulitun to Qianjin","operator:en":"China Railway Harbin Group","operator:zh":"中国铁路哈尔滨局集团有限公司","operator:wikidata":"Q10922014"},"2981307":{"ref":"0107","name":"牙林线","type":"route","route":"railway","name:en":"Yalin Railway","network":"CN-railway","operator":"中国铁路哈尔滨局集团有限公司","wikidata":"Q15913499","wikipedia":"zh:牙林铁路","alt_name:en":"Yakeshi–Greater Khingan Forest Railway","operator:en":"China Railway Harbin Group","operator:zh":"中国铁路哈尔滨局集团有限公司","operator:wikidata":"Q10922014"},"2981308":{"ref":"0108","name":"朝乌线","type":"route","route":"railway","name:en":"Chaowu Railway","network":"CN-railway","operator":"中国铁路哈尔滨局集团有限公司","wikidata":"Q11092498","wikipedia":"zh:朝乌铁路","alt_name:en":"Yakeshi–Greater Khingan Forest Railway","operator:en":"China Railway Harbin Group","operator:zh":"中国铁路哈尔滨局集团有限公司","operator:wikidata":"Q10922014"},"2982545":{"ref":"0012","name":"拉滨线","type":"route","route":"railway","name:en":"Labin Railway","name:zh":"拉滨线","operator":"中国铁路哈尔滨局集团有限公司","wikidata":"Q11077027","wikipedia":"zh:拉滨铁路","description":"Railway connecting Lafa with Binjiang","operator:en":"China Railway Harbin Group","operator:zh":"中国铁路哈尔滨局集团有限公司","operator:wikidata":"Q10922014"},"2986496":{"ref":"0022","name":"锦承线","note":"don't mix Jincheng up with Jingcheng !","type":"route","route":"railway","name:en":"Jincheng Railway","network":"CN-railway","wikidata":"Q15932194","wikipedia":"zh:锦承铁路","alt_name:en":"Jinzhou–Chengde Railway"},"2994134":{"ref":"0263","name":"新义线","type":"route","route":"railway","name:en":"Xinyi Railway","wikidata":"Q11080996","wikipedia":"zh:新义铁路","alt_name:en":"Xinlitun–Yi Railway"},"2998442":{"ref":"0122","name":"北黑线","note":"北黑线： 北安-龙镇段由中国铁路哈尔滨局集团有限公司代管； 龙镇-黑河段由黑河地方铁路公司独立管辖。","type":"route","owner":"黑龙江省黑河铁路（集团）有限责任公司","route":"railway","name:en":"Beihei Railway","network":"CN-railway","wikidata":"Q10904139","wikipedia":"zh:北黑铁路","alt_name:en":"Bei'an-Heihe Railway"},"2998518":{"ref":"0121","name":"滨北线","type":"route","route":"railway","name:en":"Binbei Railway","name:zh":"滨北线","network":"CN-railway","operator":"中国铁路哈尔滨局集团有限公司","wikidata":"Q903073","wikipedia":"zh:滨北铁路","alt_name:en":"Harbin–Bei'an Railway","operator:en":"China Railway Harbin Group","operator:zh":"中国铁路哈尔滨局集团有限公司","operator:wikidata":"Q10922014"},"2998525":{"to":"Jiamusi","ref":"0123","from":"Suihua","name":"绥佳线","type":"route","route":"railway","name:en":"Suijia Railway","network":"CN-railway","operator":"中国铁路哈尔滨局集团有限公司","operator:en":"China Railway Harbin Group","operator:zh":"中国铁路哈尔滨局集团有限公司","operator:wikidata":"Q10922014"},"3006204":{"ref":"0247","name":"旅顺线","type":"route","route":"railway","name:en":"Lushun Railway","network":"CN-railway","wikidata":"Q11085374","wikipedia":"zh:旅顺支线"},"3066901":{"ref":"3007","name":"京哈高速线","type":"route","route":"railway","name:en":"Beijing–Harbin High-Speed Railway","name:zh":"京哈高速线"},"3183115":{"ref":"沪昆线","name":"(原)浙赣线","type":"route","route":"railway","name:en":"Zhegan Railway","name:ja":"浙カン線","name:zh":"(原)浙赣线","network":"CN-railway","name:nan":"Tsiat-Kòng-thih-lōo","wikidata":"Q11148920","wikipedia":"zh:浙赣铁路","alt_name:en":"Zhejiang–Jiangxi Railway","description":"2006年12月31日18时起，浙赣铁路与沪杭铁路、湘黔铁路、贵昆铁路合并为沪昆铁路。","name:zh-Hans":"(原)浙赣线","name:zh-Hant":"沪昆线-浙赣线"},"3184780":{"ref":"3017","name":"昌九城际线","type":"route","route":"railway","name:en":"Nanchang–Jiujiang_Intercity_Railway","name:zh":"昌九城际线","network":"CN-railway","alt_name":"昌九城际铁路","name:nan":"Chhiong-kiú Siâⁿ-chè-sòaⁿ","operator":"中国铁路","wikidata":"Q2618320","wikipedia":"zh:昌九城际线","owner:note":"南昌西至乐化(不含)属向莆铁路股份有限公司，乐化至九江(不含沿线各站)属昌九城际铁路股份有限公司","description":"昌九城际铁路是中国一条连接江西省南昌市及九江市的城际铁路","name:nan-HJ":"昌九城际线","name:nan-TL":"Tshiong-kiú Siânn-tsè-suànn","operator:en":"China Railway","operator:zh":"中国铁路","name:nan-POJ":"Chhiong-kiú Siâⁿ-chè-sòaⁿ","operator:wikidata":"Q1073489"},"3234921":{"ref":"0109","name":"博林线","type":"route","route":"railway","name:en":"Bolin Railway","name:zh":"博林线","network":"CN-railway","operator":"中国铁路哈尔滨局集团有限公司","wikidata":"Q10909495","wikipedia":"zh:博林铁路","alt_name:en":"Boketu - Ta'erqi Railway","operator:en":"China Railway Harbin Group","operator:zh":"中国铁路哈尔滨局集团有限公司","operator:wikidata":"Q10922014"},"3284139":{"ref":"2603","name":"漯阜线","type":"route","owner":"漯阜铁路有限责任公司","route":"railway","name:en":"Luohe-Fuyang Railway","name:zh":"漯阜线","network":"CN-railway","wikipedia":"zh:漯阜铁路"},"3293013":{"ref":"醴茶线","name":"醴茶线","type":"route","route":"railway","source":"https://www.sohu.com/a/374794020_120168557","name:en":"Licha Railway","name:zh":"醴茶线","network":"CN-railway","operator":"中国铁路广州局集团有限公司","alt_name:en":"Liling-Chaling Railway"},"3299882":{"ref":"0268","name":"魏塔线","type":"route","route":"railway","name:en":"Weizhangzi–Tashan Railway","name:zh":"魏塔线","network":"CN-railway","wikidata":"Q17035953","open_date":"1974-01-01","wikipedia":"zh:魏塔铁路","description":"248 km long line connecting Weizhangzi with Tashan"},"3793594":{"ref":"0150","name":"苇亚线","type":"route","route":"railway","operator":"中国铁路哈尔滨局集团有限公司","wikidata":"Q17029373","wikipedia":"zh:苇亚铁路","operator:en":"China Railway Harbin Group","operator:zh":"中国铁路哈尔滨局集团有限公司","operator:wikidata":"Q10922014"},"3924206":{"ref":"0091","name":"衢九线","type":"route","route":"railway","name:zh":"衢九线","network":"CN-railway","operator":"中国铁路","wikidata":"Q10878888","wikipedia":"zh:衢九铁路","operator:en":"China Railway","operator:zh":"中国铁路","operator:wikidata":"Q1073489"},"3999066":{"ref":"3044","name":"贵广客运专线","type":"route","route":"railway","name:en":"Guiyang–Guangzhou High-Speed Railway","name:zh":"贵广客运专线","alt_name":"Guiguang HSR","name:nan":"Kùi-kńg Kheh-ūn Choan-sòaⁿ","wikidata":"Q5616932","wikipedia":"zh:贵广客运专线","description":"贵广客运专线","name:nan-HJ":"贵广客运专线","name:nan-TL":"Kuì-kńg Kheh-ūn Tsuan-suànn","name:nan-POJ":"Kùi-kńg Kheh-ūn Choan-sòaⁿ"},"3999083":{"ref":"南广线","name":"南广铁路","type":"route","route":"railway","name:en":"Nanning-Guangzhou High-speed Railway","name:zh":"南广铁路","wikidata":"Q10907805","wikipedia":"zh:南广铁路","alt_name:en":"Nanguang Railway"},"4207852":{"ref":"达成线","name":"达成线","type":"route","owner":"达成铁路有限责任公司","route":"railway","name:en":"Dacheng Railway","network":"CN-railway","alt_name":"达成铁路","wikidata":"Q4422342","wikipedia":"zh:达成铁路"},"4266587":{"ref":"0182","name":"前抚线","type":"route","gauge":"1435","route":"railway","length":"169.4 km","name:en":"Qianfu Railway","name:ja":"前撫線","name:zh":"前抚线","network":"CN-railway","alt_name":"前抚线","operator":"中国铁路哈尔滨局集团有限公司","wikidata":"Q10898900","wikipedia":"zh:前抚铁路","operator:en":"China Railway Harbin Group","operator:zh":"中国铁路哈尔滨局集团有限公司","name:zh-Hant":"前撫綫","operator:wikidata":"Q10922014"},"4451096":{"ref":"Екатеринбург-Алашкоу","name":"Екатеринбург — Алашкоу","type":"route","route":"railway","operator":"РЖД","operator:en":"Russian Railways","operator:ru":"РЖД","operator:wikidata":"Q660770"},"4520976":{"ref":"3038","name":"青荣城际铁路","type":"route","owner":"青荣城际铁路有限责任公司","route":"railway","name:de":"SFS Qingdao-Rongcheng","name:en":"Qingdao–Rongcheng Intercity Railway","name:zh":"青荣城际铁路","network":"CN-railway","wikidata":"Q15902987","wikipedia":"zh:青荣城际铁路"},"4552429":{"ref":"3055","name":"赣瑞龙线","type":"route","owner":"赣龙复线铁路有限责任公司","route":"railway","network":"CN-railway","loc_name":"赣龙铁路扩能改造工程","operator":"中国铁路","wikidata":"Q17498878","wikipedia":"zh:赣瑞龙铁路","operator:en":"China Railway","operator:zh":"中国铁路","operator:wikidata":"Q1073489"},"4607550":{"ref":"0068","name":"吉衡线","type":"route","route":"railway","name:en":"Ji'an–Hengyang Railway","name:zh":"吉衡线","network":"CN-railway","alt_name":"吉衡铁路","name:nan":"Kiat-hîng-suann","operator":"中国铁路","wikidata":"Q15943014","wikipedia":"zh:吉衡铁路","operator:en":"China Railway","operator:zh":"中国铁路","name:zh-Hans":"吉衡线","name:zh-Hant":"吉衡線","operator:wikidata":"Q1073489"},"5399232":{"ref":"3012","name":"石太客专线","type":"route","route":"railway","name:en":"Shijiazhuang–Taiyuan High-speed Railway","name:zh":"石太客专线","wikidata":"Q903401","wikipedia":"zh:石太客运专线","owner:note":"获鹿所（不含）至太原（不含）属石太铁路客运专线有限责任公司(不含太原东站)。石家庄至获鹿所属京石铁路客运专线有限责任公司。"},"5496304":{"ref":"3016","name":"江门线","type":"route","route":"railway","name:en":"Jiangmen Branch","name:zh":"江门线","owner:note":"小榄至新会属广东广珠城际轨道交通有限责任公司，新会（不含）至江门属广东深茂铁路有限责任公司"},"5916367":{"ref":"3024","name":"合蚌高速线","type":"route","owner":"京福铁路客运专线安徽有限责任公司","route":"railway","name:de":"SFS Hefei-Bengdu","name:en":"Hefei-Bengbu PDL"},"6000157":{"ref":"8302","name":"沧港铁路","type":"route","owner":"沧州沧港铁路有限公司","route":"railway","name:zh":"沧港铁路","ref:fgkz":"8302"},"6002511":{"ref":"8304","name":"高易线","type":"route","route":"railway","operator":"河北易县地方铁路管理局","start_date":"1902"},"6913310":{"to":"深圳西站","ref":"平南线","from":"平湖站","name":"平南铁路","type":"route","owner":"深圳平南铁路有限公司","route":"railway","name:en":"Pinghu–Nanshan Railway","name:zh":"平南铁路","wikidata":"Q7195784","wikipedia":"zh:平南鐵路","name:zh-Hant":"平南鐵路"},"6956265":{"ref":"穗深城际线","name":"穗深城际铁路 Guangzhou-Shenzhen Intercity Railway","type":"route","owner":"广东珠三角城际轨道交通有限公司","route":"railway","name:en":"Guangzhou-Shenzhen Intercity Railway","name:zh":"穗深城际铁路","operator":"中国铁路广州局集团有限公司","operator:en":"China Railway Guangzhou Group Co.，Ltd."},"7047176":{"ref":"3073","name":"哈牡客专线","type":"route","owner":"黑龙江铁路发展集团有限公司","route":"railway","name:en":"Harbin–Mudanjiang High–Speed Railway","name:zh":"哈牡客专线","network":"CN-railway","operator":"中国铁路哈尔滨局集团有限公司","wikidata":"Q10922181","wikipedia":"en:Harbin–Mudanjiang Intercity Railway","start_date":"2018-12-25","operator:en":"China Railway Harbin Group","operator:zh":"中国铁路哈尔滨局集团有限公司","wikipedia:zh":"zh:哈牡客运专线","operator:wikidata":"Q10922014"},"7367616":{"ref":"T1","name":"合肥有轨电车1号线","note":"规划中，未开建 Proposed, not under construction.","type":"route","route":"railway","name:en":"Hefei Tram Line 1","name:zh":"合肥有轨电车1号线","alt_name":"老淮南线"},"7439569":{"ref":"T2","name":"合肥有轨电车2号线","note":"规划中，未开建 Proposed, not under construction.","type":"route","route":"railway","name:en":"Hefei Tram Line 2","name:zh":"合肥有轨电车2号线","alt_name":"十八公里线"},"7754722":{"ref":"3041","name":"成贵客运专线","type":"route","route":"railway","name:en":"Chengdu-Guiyang High-Speed Railway","name:zh":"成贵客运专线","owner:note":"成都东（不含）至乐山属成绵乐城际铁路有限公司，乐山（不含）至贵阳东（不含）属成贵铁路有限责任公司","name:zh-Hant":"成貴客運專線"},"7873545":{"ref":"兰渝线","name":"兰渝铁路","type":"route","route":"railway","name:en":"Chongqing – Lanzhou Railway","name:zh":"兰渝铁路","wikidata":"Q5104683","wikipedia":"zh:兰渝铁路","start_date":"2008","year_of_construction":"2017"},"7944278":{"ref":"???","name":"贵阳枢纽白云至龙里北联络线","type":"route","route":"railway","name:en":"Guiyang–Guangzhou High-Speed Railway","alt_name":"???","wikipedia":"en:???","description":"贵阳枢纽白云至龙里北联络线","name:zh_pinyin":"???"},"7945163":{"ref":"渝贵线","name":"渝贵铁路","type":"route","owner":"渝黔铁路有限责任公司","route":"railway","name:en":"Chongqing–Guiyang Railway","operator":"中国铁路成都局集团有限公司","description":"渝贵铁路"},"8206735":{"ref":"兴胡线","name":"兴胡线","type":"route","route":"railway","alt_name":"兴胡联络线"},"8211195":{"ref":"3059","name":"海南环岛高铁线西段","type":"route","owner":"海南铁路有限公司","route":"railway","name:en":"Hainan Western Ring Railway","name:zh":"海南环岛高铁线西段","operator":"中国铁路","wikidata":"Q982873"},"8349777":{"ref":"新上线","name":"新上线","type":"route","route":"railway","operator":"鄂尔多斯南部铁路有限责任公司"},"8351491":{"ref":"1133","name":"王万联络线","type":"route","route":"railway","operator":"中国铁路哈尔滨局集团有限公司","operator:en":"China Railway Harbin Group","operator:zh":"中国铁路哈尔滨局集团有限公司","operator:wikidata":"Q10922014"},"8352155":{"ref":"0206","name":"沈山线","type":"route","route":"railway"},"8355467":{"ref":"2348","name":"邯黄铁路","type":"route","owner":"邯黄铁路有限责任公司","route":"railway","name:zh":"邯黄铁路"},"8355928":{"ref":"西平线","name":"西平铁路","type":"route","route":"railway","name:en":"Xi'an-Pingliang Railway"},"8356244":{"ref":"2350","name":"邯济邯黄联络线","type":"route","owner":"邯黄铁路有限责任公司","route":"railway"},"8358287":{"ref":"成花线","name":"成花线","type":"route","route":"railway","name:en":"Chengdubei - Hualongmen Railway","name:zh":"成花线"},"8358484":{"ref":"湖雍线","name":"湖雍铁路","type":"route","route":"railway","owner:note":"林歹南（不含）至织金北（不含）属贵阳市域铁路有限公司，织金北至纳雍西属黄织铁路有限责任公司"},"8360425":{"ref":"2001","name":"迁曹线","type":"route","owner":"唐港铁路有限责任公司","route":"railway","name:en":"Qiancao Line","operator":"中国铁路","operator:en":"China Railway","operator:zh":"中国铁路","operator:wikidata":"Q1073489"},"8381929":{"ref":"3071","name":"深湛线","type":"route","owner":"江门至茂名（不含）属广东深茂铁路有限责任公司，茂名（不含）至湛江西属茂湛铁路有限责任公司","route":"railway"},"8384322":{"ref":"0112;0113","name":"呼工线","type":"route","route":"railway","operator":"中国铁路哈尔滨局集团有限公司","operator:en":"China Railway Harbin Group","operator:zh":"中国铁路哈尔滨局集团有限公司","operator:wikidata":"Q10922014"},"8384522":{"ref":"1995","name":"东港线","type":"route","owner":"唐港铁路有限责任公司","route":"railway","name:en":"Donggang Line","operator":"中国铁路","operator:en":"China Railway","operator:wikidata":"Q1073489"},"8387747":{"ref":"0180","name":"同江线","type":"route","owner":"黑龙江铁路发展集团有限公司","route":"railway","name:en":"Tongjiang Railway","name:zh":"同江线","operator":"中国铁路哈尔滨局集团有限公司","wikidata":"Q17023396","wikipedia":"zh:同江地方铁路","operator:en":"China Railway Harbin Group","operator:zh":"中国铁路哈尔滨局集团有限公司","operator:wikidata":"Q10922014"},"8388164":{"ref":"3070","name":"哈佳线","type":"route","owner":"哈佳铁路客运专线有限责任公司","route":"railway","name:en":"Harbin–Jiamusi Railway","name:zh":"哈佳线","network":"CN-railway","operator":"中国铁路哈尔滨局集团有限公司","wikipedia":"en:Harbin–Jiamusi Railway","start_date":"2018-09-30","operator:en":"China Railway Harbin Group","operator:zh":"中国铁路哈尔滨局集团有限公司","name:zh-Hant":"哈佳綫","wikipedia:zh":"zh:哈佳铁路","operator:wikidata":"Q10922014"},"8392930":{"ref":"成灌线","name":"成灌铁路","type":"route","owner":"成都市域铁路有限责任公司","route":"railway","name:zh":"成灌铁路","operator":"中国铁路成都局集团有限公司"},"8397457":{"ref":"太原西南环线","name":"太原西南环线","type":"route","owner":"太原铁路枢纽西南环线有限责任公司","route":"railway"},"8398152":{"ref":"3054","name":"丹大线","type":"route","owner":"丹大快速铁路有限责任公司","route":"railway","name:en":"Dandong–Dalian Intercity Railway","name:ja":"丹大都市間鉄道","name:zh":"丹大线","wikidata":"Q10877282","wikipedia":"zh:丹大城际铁路","name:zh-Hant":"丹大城際鐵路"},"8398172":{"ref":"3060","name":"广肇城际线","type":"route","owner":"广东珠三角城际轨道交通有限公司","route":"railway","name:de":"Bahnstrecke Guangzhou-Foshan-Zhaoqing","name:en":"Guangzhou–Foshan–Zhaoqing Intercity Railway","name:zh":"广肇城际线","operator":"中国铁路广州局"},"8399168":{"ref":"3020","name":"吉珲客运专线","note":"2015年7月30日，吉珲客运专线与长吉城际铁路合并，命名为长珲城际铁路。","type":"route","route":"railway","name:en":"Changchun–Huichun","wikidata":"Q10917313","wikipedia":"zh:吉珲客运专线"},"8399952":{"ref":"3071","name":"石济客专线","type":"route","owner":"石家庄（太青场）至济南东（不含）属石济铁路客运专线有限公司","route":"railway","name:en":"Shiji Passenger Line","name:zh":"石济客专线","wikidata":"Q578448","wikipedia":"en:Shijiazhuang–Jinan passenger railway"},"8400828":{"ref":"3072","name":"新通客运专线","type":"route","owner":"新民北至通辽（不含新民北、彰武、甘旗卡、通辽普速场）属蒙辽铁路客运专线有限责任公司","route":"railway","name:en":"Xinmin–Tongliao High-speed Railway","name:zh":"新通客运专线","alt_name":"新通高铁","name:zh-Hant":"新通客運專線"},"8410924":{"ref":"0127","name":"佳富线","type":"route","route":"railway","name:ja":"佳富線","operator":"中国铁路哈尔滨局集团有限公司","operator:en":"China Railway Harbin Group","operator:zh":"中国铁路哈尔滨局集团有限公司","name:zh-Hant":"佳富綫","operator:wikidata":"Q10922014"},"8467054":{"ref":"7319","name":"天津大北环线","type":"route","owner":"津保铁路有限责任公司","route":"railway"},"8467057":{"ref":"8313","name":"大宋铁路","type":"route","owner":"河北建投铁路有限公司","route":"railway","name:zh":"大宋铁路"},"8768448":{"ref":"3080","name":"梅汕线","type":"route","route":"railway","name:de":"SFS Meizhou-Chaoshan","name:en":"Meizhou-Chaoshan HSL","owner:note":"梅州西至潮汕（不含）属广东梅汕客运专线有限责任公司。潮汕至龙湖（不含）属厦深铁路广东公司，龙湖至汕头属广梅汕铁路有限责任公司"},"9161560":{"ref":"佛莞线","name":"佛莞城际铁路","type":"route","route":"railway","name:de":"Bahnstrecke Foshan–Dongguan","name:en":"Foshan–Dongguan Intercity Railway","name:zh":"佛莞城际铁路","operator":"广东城际铁路运营有限公司","operator:en":"Guangdong Intercity Railway Operation Co., Ltd.","name:zh-Hant":"佛莞城際鐵路"},"9197919":{"to":"兰考南","ref":"3090","via":"日照西;历家寨;莒南北;临沂北;费县北;泗水南;曲阜东","from":"日照西","name":"日兰高速线","type":"route","owner":"鲁南高速铁路有限公司","route":"railway","name:de":"SFS Rizhao-Lankao","name:en":"Rizhao-Lankao HSL","network":"CN-railway","operator":"中国铁路济南局集团有限公司","wikidata":"Q28796020","wikipedia":"zh:日兰高速铁路"},"9218558":{"to":"盐城北","ref":"3079","from":"青岛北","name":"青盐铁路","type":"route","route":"railway","length":"429","name:de":"Personenverkehrsstrecke Qingdao-Yancheng","name:zh":"青盐铁路","wikidata":"Q15895835","wikipedia":"zh:青盐铁路"},"9405634":{"ref":"3021","name":"广深港高速铁路 廣深港高速鐵路 Guangzhou - Shenzhen - Hong Kong Express Rail Link","type":"route","route":"railway","name:en":"Guangzhou - Shenzhen - Hong Kong Express Rail Link (Toward Guangzhou)","name:zh":"广深港高速铁路","network":"CN-railway","name:nan":"Kńg-Tshim-Káng-ko-sok-thih-lōo (Hiòng-Kńg-tsiu)","name:yue":"廣深港高速鐵路","wikidata":"Q910209","wikipedia":"zh:廣深港高速鐵路","name:zh-CN":"广深港高速铁路","name:zh-HK":"廣深港高速鐵路","owner:note":"广州南（不含）至香港边界属广深港客运专线有限责任公司，香港边界（不含）至香港西九龙属香港九广铁路公司","designation":"广深港高速铁路","name:zh-Hans":"广深港高速铁路","name:zh-Hant":"廣深港高速鐵路"},"9486520":{"ref":"衡柳联络线","name":"衡柳联络线","type":"route","route":"railway","usage":"branch","alt_name":"衡柳铁路-衡阳联络线"},"9684819":{"ref":"东环线","name":"成都东环线","type":"route","route":"railway","name:en":"Chengdu East Ring Railway","name:zh":"成都东环线"},"9694964":{"ref":"0336","name":"东北环线","type":"route","route":"railway","alt_name":"双昌线","operator":"中国铁路","operator:en":"China Railway","operator:zh":"中国铁路","operator:wikidata":"Q1073489"},"10042017":{"ref":"1358","name":"大秦津蓟下联线","type":"route","route":"railway","name:zh":"大秦津蓟下联线","operator":"中国铁路","operator:en":"China Railway","operator:zh":"中国铁路","operator:wikidata":"Q1073489"},"10042018":{"to":"蓟州北","ref":"0324","from":"汉沟镇","name":"津蓟铁路","type":"route","route":"railway","name:en":"Tianjin–Jizhou Railway","name:zh":"津蓟铁路","operator":"中国铁路","wikidata":"Q11146495","wikipedia":"zh:津蓟铁路","operator:en":"China Railway","operator:zh":"中国铁路","operator:wikidata":"Q1073489"},"10042019":{"ref":"0320","name":"津霸线","type":"route","route":"railway","operator":"中国铁路","owner:note":"霸州(不含)至霸州西属津保铁路有限责任公司","operator:en":"China Railway","operator:zh":"中国铁路","operator:wikidata":"Q1073489"},"10066765":{"ref":"3085","name":"京雄城际线","type":"route","owner":"雄安高速铁路有限公司","route":"railway","name:en":"Beijing-Xiong'an Intercity Railway","name:zh":"京雄城际线","operator":"中国铁路","operator:en":"China Railway","operator:zh":"中国铁路","operator:wikidata":"Q1073489"},"10324613":{"ref":"分茶线","name":"分茶线","type":"route","route":"railway","old_name":"分文线","operator":"中国铁路","operator:en":"China Railway","operator:zh":"中国铁路","operator:wikidata":"Q1073489"},"10627959":{"ref":"3008","name":"沪昆高速线","type":"route","route":"railway","usage":"main","name:de":"SFS Shanghai - Kunming","name:en":"Shanghai–Kunming high-speed railway","name:fr":"Ligne haute vitesse Kunming - Shanghai","name:ja":"滬昆旅客専用線","name:ko":"후쿤 고속철도","name:zh":"沪昆高速线","network":"CN-railway","maxspeed":"300","name:nan":"Hōo-khun-ko-sok-suann","operator":"中国铁路","wikidata":"Q846524","highspeed":"yes","wikipedia":"zh:沪昆客运专线","operator:en":"China Railway","operator:zh":"中国铁路","name:zh-Hans":"沪昆高速线","name:zh-Hant":"滬昆高速線","official_name":"沪昆高速线","passenger_lines":"2","operator:wikidata":"Q1073489","railway:traffic_mode":"passenger"},"10632175":{"ref":"0682","name":"浦东线","type":"route","owner":"上海浦东铁路发展有限公司","route":"railway","network":"CN-railway","wikipedia":"zh:浦东线"},"10632184":{"ref":"1665","name":"芦潮港线","type":"route","owner":"上海铁路集装箱中心站发展有限公司","route":"railway","name:zh":"芦潮港线","network":"CN-railway","operator":"中国铁路","operator:en":"China Railway","operator:zh":"中国铁路","name:zh-Hans":"芦潮港线","name:zh-Hant":"蘆潮港線","operator:wikidata":"Q1073489"},"10649370":{"ref":"0623","name":"南何线","type":"route","route":"railway","operator":"中国铁路","operator:en":"China Railway","operator:zh":"中国铁路","operator:wikidata":"Q1073489"},"10649380":{"ref":"0624","name":"何杨线","type":"route","route":"railway","operator":"中国铁路","operator:en":"China Railway","operator:zh":"中国铁路","operator:wikidata":"Q1073489"},"10653117":{"ref":"1649","name":"黄封联络线","type":"route","route":"railway","operator":"中国铁路"},"10653193":{"ref":"0643","name":"南何立交线","type":"route","route":"railway","operator":"中国铁路"},"10653202":{"ref":"1697","name":"新龙华联络线","type":"route","route":"railway","operator":"中国铁路","operator:en":"China Railway","operator:zh":"中国铁路","operator:wikidata":"Q1073489"},"10653454":{"ref":"0630","name":"金山线","type":"route","route":"railway","operator":"中国铁路","owner:note":"新桥(不含)至金山卫属金山铁路有限责任公司","operator:en":"China Railway","operator:zh":"中国铁路","operator:wikidata":"Q1073489","railway:traffic_mode":"mixed"},"10662491":{"ref":"1647","name":"翔南环到线","type":"route","route":"railway","operator":"中国铁路"},"10662954":{"ref":"0629","name":"新闵线","type":"route","owner":"金山铁路有限责任公司","route":"railway","operator":"中国铁路"},"10662955":{"ref":"0631","name":"吴泾线","type":"route","route":"railway","operator":"中国铁路","operator:en":"China Railway","operator:zh":"中国铁路","operator:wikidata":"Q1073489"},"10697170":{"ref":"0615","name":"沪春线","type":"route","route":"railway","operator":"中国铁路","operator:en":"China Railway","operator:zh":"中国铁路","operator:wikidata":"Q1073489"},"10723682":{"ref":"上新线","name":"上新线","type":"route","route":"railway","operator":"中国铁路"},"10742353":{"ref":"1674","name":"鹰潭环到线","type":"route","route":"railway","operator":"中国铁路"},"11060203":{"ref":"天策联络线","name":"天策线","type":"route","route":"railway","operator":"临哈铁路有限责任公司"},"11286954":{"ref":"1644","name":"京沪到达线","type":"route","route":"railway","operator":"中国铁路"},"11286955":{"ref":"1646","name":"沪昆到达线","type":"route","route":"railway"},"11287007":{"ref":"1648","name":"李莘联络线","type":"route","route":"railway","operator":"中国铁路","operator:en":"China Railway","operator:zh":"中国铁路","operator:wikidata":"Q1073489"},"11306052":{"ref":"1640","name":"萧萧联络线","type":"route","route":"railway","operator":"中国铁路"},"11350117":{"to":"红牌楼","ref":"西环线","from":"安靖","name":"成都西环线","type":"route","route":"railway","name:en":"Chengdu West Ring Line","operator":"中国铁路成都局集团有限公司"},"11350134":{"ref":"成雅线","name":"成雅线","type":"route","route":"railway","name:en":"Chengdu-Ya'an Line","operator":"中国铁路成都局集团有限公司","owner:note":"成都西（不含）至朝阳湖属成都市域铁路有限责任公司，朝阳湖（不含）至雅安属成昆铁路有限责任公司"},"11354733":{"ref":"成自客专线","name":"成自宜高速铁路","type":"route","route":"railway"},"11479182":{"ref":"介西线","name":"介西铁路","type":"route","owner":"大秦铁路股份有限公司","route":"railway","wikidata":"Q10884030","wikipedia":"zh:介西铁路"},"11506526":{"ref":"0330","name":"七滦线","type":"route","route":"railway","name:zh":"七滦线","operator":"中国铁路","wikidata":"Q66761081","wikipedia":"zh:七滦铁路","operator:en":"China Railway","operator:zh":"中国铁路","operator:wikidata":"Q1073489"},"11518910":{"ref":"0323","name":"陈塘庄线","type":"route","route":"railway","name:zh":"陈塘庄线","operator":"中国铁路","operator:en":"China Railway","operator:zh":"中国铁路","operator:wikidata":"Q1073489"},"11518969":{"ref":"7322","name":"天津西南环线","type":"route","owner":"天津南环铁路有限公司","route":"railway","operator":"中国铁路","operator:en":"China Railway","operator:zh":"中国铁路","operator:wikidata":"Q1073489"},"11521218":{"ref":"2307","name":"蓟港线","type":"route","owner":"天津蓟港铁路有限责任公司","route":"railway"},"11543971":{"to":"包头","ref":"0028","from":"北京","name":"京包线","type":"route","route":"railway","name:cs":"Železniční trať Peking – Pao-tchou","name:de":"Bahnstrecke Peking–Baotou","name:en":"Beijing–Baotou Railway","name:ja":"京包線","name:ru":"Цзинбаоская железная дорога","name:zh":"京包线","operator":"中国铁路","wikidata":"Q836566","open_date":"1909","wikipedia":"zh:京包铁路","owner:note":"柴沟堡至古店属大秦铁路股份有限公司。葫芦至陶卜齐（不含）属蒙冀铁路有限责任公司","alt_name:cs":"Železniční trať Ťing-pao","description":"833 km railway from Beijing to Baotou, Inner Mongolia","operator:en":"China Railway","operator:zh":"中国铁路","name:zh-Hant":"京包線","operator:wikidata":"Q1073489"},"11547443":{"ref":"0208","name":"朝开线","type":"route","route":"railway","name:en":"Chaokai Railway","wikidata":"Q11092533","wikipedia":"zh:朝开铁路","name:zh-Hant":"朝開鐵路"},"11555337":{"to":"南堡","ref":"0321","from":"汉沽","name":"南堡线","type":"route","route":"railway","operator":"中国铁路","operator:en":"China Railway","operator:zh":"中国铁路","operator:wikidata":"Q1073489"},"11555513":{"ref":"83xx","name":"张双线","type":"route","owner":"承德张双铁路有限公司","route":"railway","wikidata":"Q19855679","wikipedia":"zh:张双铁路"},"11579912":{"ref":"0184","name":"扎阿线","type":"route","owner":"呼伦贝尔阿扎铁路有限责任公司","route":"railway","wikidata":"Q15931490","open_date":"2016-04-01","wikipedia":"zh:阿扎铁路"},"11580369":{"to":"大寨","ref":"8325","from":"阳泉北","name":"阳泉东线","type":"route","route":"railway","name:zh":"阳泉东线","operator":"中国铁路","operator:en":"China Railway","operator:zh":"中国铁路","operator:wikidata":"Q1073489"},"11580401":{"ref":"0376","name":"白荫线","type":"route","route":"railway","operator":"中国铁路","operator:en":"China Railway","operator:zh":"中国铁路","operator:wikidata":"Q1073489"},"11584391":{"ref":"0105","name":"林碧线","type":"route","owner":"哈尔滨茂林置业有限公司","route":"railway","name:zh":"林碧线","wikidata":"Q107998759","wikipedia":"zh:林碧线"},"11584414":{"ref":"0110","name":"塔韩线","type":"route","route":"railway","operator":"中国铁路哈尔滨局集团有限公司","wikidata":"Q28415511","wikipedia":"zh:塔韩铁路 (黑龙江)","operator:en":"China Railway Harbin Group","operator:zh":"中国铁路哈尔滨局集团有限公司","operator:wikidata":"Q10922014"},"11584670":{"ref":"0104","name":"嫩林线","type":"route","route":"railway","name:en":"Fuyu-Xilinji Railway","name:zh":"嫩林线","network":"CN-railway","operator":"中国铁路哈尔滨局集团有限公司","wikidata":"Q6991631","wikipedia":"zh:嫩林铁路","operator:en":"China Railway Harbin Group","operator:zh":"中国铁路哈尔滨局集团有限公司","operator:wikidata":"Q10922014"},"11589056":{"ref":"3003","name":"京港高速线","type":"route","route":"railway","alt_name":"京港高铁","operator":"中国铁路","wikidata":"Q22101307","wikipedia":"zh:京港高速铁路","operator:en":"China Railway","operator:zh":"中国铁路","operator:wikidata":"Q1073489"},"11597839":{"to":"包头","ref":"3066","from":"北京北","name":"京包客专线","type":"route","route":"railway","operator":"中国铁路","wikidata":"Q83216887","wikipedia":"zh:京包客运专线","operator:en":"China Railway","operator:zh":"中国铁路","operator:wikidata":"Q1073489"},"11597945":{"to":"包头","ref":"0349","via":"张家口;呼和浩特","from":"曹妃甸北","name":"唐包线","type":"route","route":"railway","name:zh":"唐包线","operator":"中国铁路","wikidata":"Q30940724","wikipedia":"zh:唐包铁路","owner:note":"曹妃甸港属唐山唐曹铁路有限责任公司，其他段属唐港铁路有限责任公司","operator:en":"China Railway","operator:zh":"中国铁路","name:zh-Hant":"唐包鐵路","operator:wikidata":"Q1073489"},"11598769":{"ref":"0334","name":"宣庞线","type":"route","route":"railway","name:zh":"宣庞线","operator":"中国铁路","operator:en":"China Railway","operator:zh":"中国铁路","operator:wikidata":"Q1073489"},"11598953":{"ref":"0350","name":"西北环线","type":"route","route":"railway","name:ja":"北京北西環状線","name:zh":"西北环线","operator":"中国铁路","wikidata":"Q10902465","wikipedia":"zh:北京铁路西北环线","operator:en":"China Railway","operator:zh":"中国铁路","name:zh-Hant":"西北環線","operator:wikidata":"Q1073489"},"11598974":{"ref":"0340","name":"永丰线","type":"route","route":"railway","name:zh":"永丰线","operator":"中国铁路","operator:en":"China Railway","operator:zh":"中国铁路","operator:wikidata":"Q1073489"},"11599042":{"ref":"0374","name":"新井线","type":"route","route":"railway","name:zh":"新井线","operator":"中国铁路","wikidata":"Q18653521","wikipedia":"zh:新井支线","operator:en":"China Railway","operator:zh":"中国铁路","operator:wikidata":"Q1073489"},"11599049":{"ref":"0375","name":"凤山线","type":"route","route":"railway","name:zh":"凤山线","alt_name":"凤张线","operator":"中国铁路","start_date":"1922","operator:en":"China Railway","operator:zh":"中国铁路","operator:wikidata":"Q1073489"},"11607406":{"ref":"2311","name":"南仓城际高速联络线","type":"route","route":"railway","operator":"中国铁路","operator:en":"China Railway","operator:zh":"中国铁路","operator:wikidata":"Q1073489"},"11607432":{"ref":"2312","name":"南仓城际京沪上行联络线","type":"route","route":"railway","name:zh":"南仓城际京沪上行联络线","operator":"中国铁路","description":"京津城际线到京沪线的联络线，从南仓线路所到南仓站。","operator:en":"China Railway","operator:zh":"中国铁路","name:zh-Hant":"南倉城際京滬上行聯絡線","operator:wikidata":"Q1073489"},"11616543":{"ref":"0153","name":"火龙沟线","type":"route","route":"railway","operator":"中国铁路哈尔滨局集团有限公司","wikidata":"Q15927909","wikipedia":"zh:火龙沟铁路","operator:en":"China Railway Harbin Group","operator:zh":"中国铁路哈尔滨局集团有限公司","operator:wikidata":"Q10922014"},"11631273":{"ref":"0298","name":"长旅线","type":"route","owner":"旅顺西属中铁渤海铁路轮渡有限责任公司","route":"railway"},"11650286":{"ref":"1127","name":"王孙线","type":"route","route":"railway","operator":"中国铁路哈尔滨局集团有限公司","operator:en":"China Railway Harbin Group","operator:zh":"中国铁路哈尔滨局集团有限公司","operator:wikidata":"Q10922014"},"11650355":{"ref":"1114","name":"滨江线","type":"route","route":"railway"},"11650365":{"ref":"8101","name":"成宾线","type":"route","route":"railway","name:zh":"成宾线","operator":"哈尔滨宾西铁路有限公司"},"11897635":{"ref":"83xx","name":"水曹线","type":"route","route":"railway","name:en":"Shuicao Line","operator":"中国铁路","operator:en":"China Railway","operator:zh":"中国铁路","operator:wikidata":"Q1073489"},"12221692":{"to":"一零一","ref":"0342","via":"石景山南;衙门口","from":"西道口","name":"一零一线","type":"route","route":"railway","operator":"中国铁路","operator:en":"China Railway","operator:zh":"中国铁路","operator:wikidata":"Q1073489"},"12257095":{"ref":"0314","name":"西长线","type":"route","gauge":"1435","route":"railway","alt_name":"西长铁路;西长联络线;西良线","operator":"中国铁路","wikipedia":"zh:西长铁路","operator:en":"China Railway","operator:zh":"中国铁路","operator:wikidata":"Q1073489"},"12265072":{"ref":"3001","name":"京广高速线","type":"route","route":"railway","name:de":"SFS Beijing - Guangzhou","name:en":"Beijing–Guangzhou High-Speed Line","name:zh":"京广高速线","network":"CN-railway","distance":"2.118","wikidata":"Q22712677","wikipedia":"zh:京广高速铁路","start_date":"2009-12-26","name:zh-Hans":"京广高速线"},"12292919":{"ref":"河东联络线","name":"河边至东冶联络线","type":"route","route":"railway"},"12822762":{"to":"静游","ref":"静静线","from":"静乐","name":"静静铁路","type":"route","gauge":"1435","owner":"山西静静铁路有限责任公司","route":"railway","usage":"branch","name:en":"Jingle–Jingyou Railway","name:zh":"静静铁路","railway":"rail"},"12939686":{"to":"普雄","ref":"5619","from":"燕岗","name":"5619列车","type":"route","route":"railway","public_transport:version":"1"},"12939687":{"to":"燕岗","ref":"5620","from":"普雄","name":"5620列车","type":"route","route":"railway","public_transport:version":"1"},"13266203":{"ref":"0111","name":"伊敏线","type":"route","route":"railway","operator":"中国铁路哈尔滨局集团有限公司","wikidata":"Q11149619","wikipedia":"zh:伊敏线","operator:en":"China Railway Harbin Group","operator:zh":"中国铁路哈尔滨局集团有限公司","operator:wikidata":"Q10922014"},"13266204":{"ref":"0181","name":"伊阿线","type":"route","route":"railway","operator":"中国铁路哈尔滨局集团有限公司","wikidata":"Q17017255","wikipedia":"zh:伊阿线","operator:en":"China Railway Harbin Group","operator:zh":"中国铁路哈尔滨局集团有限公司","operator:wikidata":"Q10922014"},"13273402":{"ref":"1117","name":"绥阳南联络线","type":"route","route":"railway","operator":"中国铁路哈尔滨局集团有限公司","operator:en":"China Railway Harbin Group","operator:zh":"中国铁路哈尔滨局集团有限公司","operator:wikidata":"Q10922014"},"13273403":{"ref":"1140","name":"穆城联络线","type":"route","route":"railway","operator":"中国铁路哈尔滨局集团有限公司"},"13273404":{"ref":"0133","name":"恒山线","type":"route","route":"railway","operator":"中国铁路哈尔滨局集团有限公司","wikidata":"Q11072907","wikipedia":"zh:恒山线","operator:en":"China Railway Harbin Group","operator:zh":"中国铁路哈尔滨局集团有限公司","operator:wikidata":"Q10922014"},"13317724":{"ref":"0243","name":"瓦长线","type":"route","route":"railway"},"13317726":{"ref":"0246","name":"南甘线","type":"route","route":"railway"},"13317998":{"ref":"0242","name":"营口线","type":"route","route":"railway"},"13317999":{"ref":"0299","name":"沙鲅线","type":"route","owner":"中铁铁龙集装箱物流股份有限公司沙鲅铁路分公司","route":"railway"},"13321915":{"ref":"0264","name":"北票线","type":"route","route":"railway"},"13321916":{"ref":"0269","name":"朝马线","type":"route","route":"railway"},"13337936":{"ref":"3095","name":"喀赤客专线","type":"route","owner":"蒙辽铁路客运专线有限责任公司","route":"railway"},"13380290":{"ref":"0666","name":"沙浔线","type":"route","route":"railway"},"13447928":{"to":"矿山村","ref":"0382","from":"西阳苑","name":"西矿线","type":"route","route":"railway","name:zh":"西矿线","operator":"中国铁路","operator:en":"China Railway","operator:zh":"中国铁路","operator:wikidata":"Q1073489"},"13448557":{"ref":"1350","name":"石南线","type":"route","route":"railway","old_name":"石家庄南站走行线"},"13453210":{"ref":"8301","name":"秦山线","type":"route","owner":"秦皇岛地方铁路有限责任公司","route":"railway"},"13454241":{"ref":"孙郑联络线","name":"孙郑联络线","type":"route","route":"railway"},"13456787":{"to":"双桥","ref":"0337","from":"丰台西","name":"丰双线","type":"route","route":"railway","operator":"中国铁路","operator:en":"China Railway","operator:zh":"中国铁路","operator:wikidata":"Q1073489"},"13456790":{"to":"房山","ref":"0354","from":"石楼","name":"房山线","type":"route","route":"railway","operator":"中国铁路","wikidata":"Q11075487","wikipedia":"zh:房山铁路","operator:en":"China Railway","operator:zh":"中国铁路","operator:wikidata":"Q1073489"},"13456791":{"to":"良各庄","ref":"1327","from":"周口店","name":"周良联络线","note":"1986年，铁道部批准周口店站至京原铁路良各庄站的周良联络线。由北京铁路局设计院设计，铁三局四处施工，1989年10月开工，1993年8月17日北京铁路分局接管运营。起自周口店站8#道岔头0km+00m，至良各庄站间2km+192m处止，管辖里程为2192m。","type":"route","route":"railway","start_date":"1993"},"13456792":{"ref":"0344","name":"周支铁路","type":"route","route":"railway","alt_name":"周口店支线"},"13457106":{"to":"雁栖湖","ref":"1337","from":"怀柔","name":"怀联线","type":"route","route":"railway","alt_name":"怀联线;怀范铁路;怀范联络线;京通铁路怀范联络线","operator":"中国铁路","operator:en":"China Railway","operator:zh":"中国铁路","operator:wikidata":"Q1073489"},"13460162":{"ref":"2005","name":"卑水线","note":"沙河驿镇站 15K+648 以北为首钢集团有限公司矿业公司管理 以南为北京铁路局管理","type":"route","route":"railway","name:zh":"卑水线","operator":"中国铁路","operator:2":"首钢集团有限公司矿业公司","operator:en":"China Railway","operator:zh":"中国铁路","operator:wikidata":"Q1073489"},"13468034":{"ref":"7359","name":"唐曹线","type":"route","owner":"唐山唐曹铁路有限责任公司","route":"railway","name:en":"Tangcao Line","operator":"中国铁路","operator:en":"China Railway","operator:zh":"中国铁路","operator:wikidata":"Q1073489"},"13471015":{"ref":"3023","name":"津秦高速线","type":"route","route":"railway","name:en":"Jinqin High-speed Line","operator":"中国铁路","owner:note":"津沪所至天津西属京沪高铁股份有限公司，天津西（不含）至天津（不含）属津秦铁路客运专线有限公司，地下直径线与天津站间结点至天津站（含）以东3.764公里以内属中国铁路北京局集团有限公司，以外至龙家营线路所属津秦铁路客运专线有限公司","operator:en":"China Railway","operator:zh":"中国铁路","operator:wikidata":"Q1073489"},"13471016":{"ref":"1324","name":"南曹线","type":"route","route":"railway","name:zh":"南曹线","operator":"中国铁路","operator:en":"China Railway","operator:zh":"中国铁路","operator:wikidata":"Q1073489"},"13471017":{"ref":"2360","name":"北环进港线","type":"route","route":"railway","name:zh":"北环进港线","operator":"中国铁路","operator:en":"China Railway","operator:zh":"中国铁路","operator:wikidata":"Q1073489"},"13471018":{"ref":"7320","name":"西南环进港线","type":"route","owner":"天津南环铁路有限公司","route":"railway"},"13474946":{"ref":"8363","name":"司曹线","type":"route","owner":"唐山司曹铁路有限公司","route":"railway","name:en":"Sicao Line","operator":"中国铁路","operator:en":"China Railway","operator:wikidata":"Q1073489"},"13474947":{"ref":"2377","name":"曹西线","type":"route","owner":"唐港铁路有限责任公司","route":"railway","name:en":"Caoxi Line","operator":"中国铁路","operator:en":"China Railway","operator:zh":"中国铁路","operator:wikidata":"Q1073489"},"13474949":{"ref":"7360","name":"曹妃甸港线","type":"route","owner":"唐山唐曹铁路有限责任公司","route":"railway","name:en":"Caofeidiangang Line","operator":"中国铁路","operator:en":"China Railway","operator:zh":"中国铁路","operator:wikidata":"Q1073489"},"13557777":{"ref":"1668","name":"向东A1线","type":"route","route":"railway"},"13557783":{"ref":"1619","name":"向东E线","type":"route","route":"railway","description":"向东E线2.973km 向东线路所S1岔尖到向塘48岔尖"},"13557800":{"ref":"向东F线","name":"向东F线","type":"route","route":"railway"},"13557834":{"ref":"向东L3线","name":"向东L3线","type":"route","route":"railway"},"13557882":{"ref":"向东L2线","name":"向东L2线","type":"route","route":"railway"},"13557884":{"ref":"向东L4线","name":"向东L4线","type":"route","route":"railway"},"13557928":{"ref":"向东L6线","name":"向东L6线","type":"route","route":"railway"},"13557955":{"ref":"向东R环发线","name":"向东R环发线","type":"route","route":"railway"},"13557956":{"ref":"向东L7线","name":"向东L7线","type":"route","route":"railway"},"13557971":{"ref":"1669","name":"向西A2线","type":"route","route":"railway"},"13558010":{"ref":"2659","name":"向西转3线","type":"route","route":"railway","description":"向塘西II场 210#岔尖 K0+000 到 向塘西I场 139#岔尖 K0+461"},"13558027":{"ref":"向西L8线","name":"向西L8线","type":"route","route":"railway"},"13563312":{"ref":"横岗联络线","name":"横岗联络线","type":"route","route":"railway"},"13827439":{"ref":"2357","name":"唐包京通联线","type":"route","route":"railway","operator":"中国铁路","operator:en":"China Railway","operator:zh":"中国铁路","operator:wikidata":"Q1073489"},"13855833":{"to":"西信号 西7#岔尖","ref":"1317","from":"南信号 南18#岔尖","name":"京沪京广联络线","type":"route","route":"railway","operator":"中国铁路","operator:en":"China Railway","operator:zh":"中国铁路","operator:wikidata":"Q1073489"},"13885823":{"ref":"2336","name":"京南至动车段B线","type":"route","route":"railway","operator":"中国铁路","operator:en":"China Railway","operator:zh":"中国铁路","operator:wikidata":"Q1073489"},"13885824":{"ref":"2320","name":"京南至动车段A线","type":"route","route":"railway","operator":"中国铁路","operator:en":"China Railway","operator:zh":"中国铁路","operator:wikidata":"Q1073489"},"13886580":{"ref":"1367","name":"星双线","type":"route","route":"railway","name:en":"Xingshuang Line","operator":"中国铁路","operator:en":"China Railway","operator:wikidata":"Q1073489"},"13886605":{"ref":"1312","name":"东星线","type":"route","route":"railway","name:en":"Dongxing Line","operator":"中国铁路","operator:en":"China Railway","operator:zh":"中国铁路","operator:wikidata":"Q1073489"},"13887376":{"ref":"1311","name":"百东线","type":"route","route":"railway","name:en":"Baidong Line","name:zh":"百东线","operator":"中国铁路","operator:en":"China Railway","operator:zh":"中国铁路","operator:wikidata":"Q1073489"},"13887381":{"ref":"1323","name":"百星线","type":"route","route":"railway","operator":"中国铁路","operator:en":"China Railway","operator:zh":"中国铁路","operator:wikidata":"Q1073489"},"13890339":{"ref":"1313","name":"马广联络线","type":"route","route":"railway","operator":"中国铁路","operator:en":"China Railway","operator:zh":"中国铁路","operator:wikidata":"Q1073489"},"13890345":{"ref":"0341","name":"柳广线","type":"route","route":"railway","name:zh":"柳广线","operator":"中国铁路","operator:en":"China Railway","operator:zh":"中国铁路","operator:wikidata":"Q1073489"},"13905050":{"ref":"1326","name":"III-II场联络线","type":"route","route":"railway","operator":"中国铁路","operator:en":"China Railway","operator:zh":"中国铁路","operator:wikidata":"Q1073489"},"13905506":{"ref":"1316","name":"丰沙丰双联络线","type":"route","route":"railway","operator":"中国铁路","operator:en":"China Railway","operator:zh":"中国铁路","operator:wikidata":"Q1073489"},"13909224":{"ref":"1319","name":"V-I场联络线","type":"route","route":"railway"},"13909501":{"ref":"1318","name":"机车出入库线","type":"route","route":"railway","name:zh":"机车出入库线","operator":"中国铁路","operator:en":"China Railway","operator:zh":"中国铁路","operator:wikidata":"Q1073489"},"13945226":{"ref":"1328","name":"津霸上行疏解线","type":"route","route":"railway","operator":"中国铁路","operator:en":"China Railway","operator:zh":"中国铁路","operator:wikidata":"Q1073489"},"13956691":{"ref":"2318","name":"京西至动车段走行线","type":"route","route":"railway","operator":"中国铁路","operator:en":"China Railway","operator:zh":"中国铁路","operator:wikidata":"Q1073489"},"13960137":{"ref":"1396","name":"北仓桥南联络","type":"route","route":"railway","operator":"中国铁路","operator:en":"China Railway","operator:zh":"中国铁路","operator:wikidata":"Q1073489"},"13983933":{"ref":"1306","name":"京沪津山联络线","type":"route","route":"railway","operator":"中国铁路","operator:en":"China Railway","operator:zh":"中国铁路","operator:wikidata":"Q1073489"},"13991914":{"ref":"2319","name":"京津联络线","type":"route","route":"railway","operator":"中国铁路","operator:en":"China Railway","operator:zh":"中国铁路","operator:wikidata":"Q1073489"},"13994583":{"to":"陵县线路所","ref":"2321","from":"德州东","name":"德州东联络线","type":"route","route":"railway"},"13995613":{"ref":"2359","name":"天津西动车走行C线","type":"route","route":"railway","name:zh":"天津西动车走行C线","operator":"中国铁路","operator:en":"China Railway","operator:zh":"中国铁路","operator:wikidata":"Q1073489"},"14031196":{"ref":"0008","name":"沪昆线","type":"route","route":"railway","wikidata":"Q986630","wikipedia":"zh:沪昆线","description":"沪昆线大致由：原沪杭线（上海西-杭州东）原浙赣线（杭州东-株洲）、原湘黔线（株洲-贵阳）、原贵昆线（贵阳-昆明）合并组成。"},"14043742":{"ref":"1310","name":"京沪京哈联络线","type":"route","route":"railway","name:zh":"京沪京哈联络线","operator":"中国铁路","short_name":"京沪京哈联线","operator:en":"China Railway","operator:zh":"中国铁路","operator:wikidata":"Q1073489"},"14068467":{"ref":"2354","name":"霸徐京广高速联络线","type":"route","route":"railway"},"14078747":{"ref":"1126","name":"孙新线","type":"route","route":"railway","operator":"中国铁路哈尔滨局集团有限公司","operator:en":"China Railway Harbin Group","operator:zh":"中国铁路哈尔滨局集团有限公司","operator:wikidata":"Q10922014"},"14078748":{"ref":"1120","name":"东新线","type":"route","route":"railway","operator":"中国铁路哈尔滨局集团有限公司","operator:en":"China Railway Harbin Group","operator:zh":"中国铁路哈尔滨局集团有限公司","operator:wikidata":"Q10922014"},"14078749":{"ref":"1119","name":"香东线","type":"route","route":"railway","operator":"中国铁路哈尔滨局集团有限公司","operator:en":"China Railway Harbin Group","operator:zh":"中国铁路哈尔滨局集团有限公司","operator:wikidata":"Q10922014"},"14078801":{"ref":"1114","name":"滨江线","type":"route","route":"railway","operator":"中国铁路哈尔滨局集团有限公司","operator:en":"China Railway Harbin Group","operator:zh":"中国铁路哈尔滨局集团有限公司","operator:wikidata":"Q10922014"},"14078989":{"ref":"1128","name":"哈屯线","type":"route","route":"railway","operator":"中国铁路哈尔滨局集团有限公司","operator:en":"China Railway Harbin Group","operator:zh":"中国铁路哈尔滨局集团有限公司","operator:wikidata":"Q10922014"},"14078990":{"ref":"1129","name":"屯黎线","type":"route","route":"railway","operator":"中国铁路哈尔滨局集团有限公司","operator:en":"China Railway Harbin Group","operator:zh":"中国铁路哈尔滨局集团有限公司","operator:wikidata":"Q10922014"},"14133685":{"ref":"1305","name":"东北环疏解线","type":"route","route":"railway","operator":"中国铁路","operator:en":"China Railway","operator:zh":"中国铁路","operator:wikidata":"Q1073489"},"14137117":{"ref":"1371","name":"斜军线","type":"route","route":"railway","operator":"中国铁路","operator:en":"China Railway","operator:zh":"中国铁路","operator:wikidata":"Q1073489"},"14152339":{"ref":"1118","name":"香孙线","type":"route","route":"railway","operator":"中国铁路哈尔滨局集团有限公司","operator:en":"China Railway Harbin Group","operator:zh":"中国铁路哈尔滨局集团有限公司","operator:wikidata":"Q10922014"},"14160084":{"ref":"0343","name":"黄良线","type":"route","route":"railway","name:zh":"黄良线","operator":"中国铁路","operator:en":"China Railway","operator:zh":"中国铁路","operator:wikidata":"Q1073489"},"14161602":{"to":"阳泉北石太场","ref":"8324","from":"阳泉北阳大场","name":"阳泉北场间联络线","type":"route","route":"railway","alt_name":"阳泉北客车联络线","operator":"中国铁路","operator:en":"China Railway","operator:zh":"中国铁路","operator:wikidata":"Q1073489"},"14173804":{"ref":"1112","name":"定一联络线","type":"route","route":"railway","operator":"中国铁路哈尔滨局集团有限公司","operator:en":"China Railway Harbin Group","operator:zh":"中国铁路哈尔滨局集团有限公司","operator:wikidata":"Q10922014"},"14173805":{"ref":"1111","name":"江北联络线","type":"route","route":"railway","operator":"中国铁路哈尔滨局集团有限公司","operator:en":"China Railway Harbin Group","operator:zh":"中国铁路哈尔滨局集团有限公司","operator:wikidata":"Q10922014"},"14173806":{"ref":"1113","name":"定二联络线","type":"route","route":"railway","operator":"中国铁路哈尔滨局集团有限公司","operator:en":"China Railway Harbin Group","operator:zh":"中国铁路哈尔滨局集团有限公司","operator:wikidata":"Q10922014"},"14173929":{"ref":"1130","name":"屯黎联络线","type":"route","route":"railway","operator":"中国铁路哈尔滨局集团有限公司","operator:en":"China Railway Harbin Group","operator:zh":"中国铁路哈尔滨局集团有限公司","operator:wikidata":"Q10922014"},"14174065":{"ref":"1131","name":"壮让联络线","type":"route","route":"railway","operator":"中国铁路哈尔滨局集团有限公司","operator:en":"China Railway Harbin Group","operator:zh":"中国铁路哈尔滨局集团有限公司","operator:wikidata":"Q10922014"},"14185069":{"ref":"1356","name":"雄安动车走行B线","type":"route","route":"railway","operator":"中国铁路","operator:en":"China Railway","operator:zh":"中国铁路","operator:wikidata":"Q1073489"},"14185070":{"ref":"1355","name":"雄安动车走行A线","type":"route","route":"railway","operator":"中国铁路","operator:en":"China Railway","operator:zh":"中国铁路","operator:wikidata":"Q1073489"},"14195458":{"ref":"0372","name":"石太引入线","type":"route","route":"railway","operator":"中国铁路","operator:en":"China Railway","operator:zh":"中国铁路","operator:wikidata":"Q1073489"},"14222007":{"to":"石家庄动车所","ref":"2341","from":"石家庄","name":"石家庄动车所A线","type":"route","route":"railway"},"14222008":{"to":"石家庄动车所","ref":"2342","from":"石家庄","name":"石家庄动车所B线","type":"route","route":"railway"},"14302769":{"ref":"1359","name":"沙岭子联络线","type":"route","route":"railway","operator":"中国铁路","operator:en":"China Railway","operator:zh":"中国铁路","operator:wikidata":"Q1073489"},"14307809":{"ref":"1132","name":"王岗疏解线","type":"route","route":"railway","operator":"中国铁路哈尔滨局集团有限公司","operator:en":"China Railway Harbin Group","operator:zh":"中国铁路哈尔滨局集团有限公司","operator:wikidata":"Q10922014"},"14308833":{"ref":"0124","name":"秋冷线","type":"route","route":"railway","operator":"中国铁路哈尔滨局集团有限公司","operator:en":"China Railway Harbin Group","operator:zh":"中国铁路哈尔滨局集团有限公司","operator:wikidata":"Q10922014"},"14308836":{"ref":"1115","name":"江南联络线","type":"route","route":"railway","operator":"中国铁路哈尔滨局集团有限公司","operator:en":"China Railway Harbin Group","operator:zh":"中国铁路哈尔滨局集团有限公司","operator:wikidata":"Q10922014"},"14322014":{"ref":"0132","name":"密东线","type":"route","route":"railway","operator":"中国铁路哈尔滨局集团有限公司","operator:en":"China Railway Harbin Group","operator:zh":"中国铁路哈尔滨局集团有限公司","operator:wikidata":"Q10922014"},"14322015":{"ref":"0131","name":"林密线","type":"route","route":"railway","operator":"中国铁路哈尔滨局集团有限公司","operator:en":"China Railway Harbin Group","operator:zh":"中国铁路哈尔滨局集团有限公司","operator:wikidata":"Q10922014"},"14322059":{"ref":"0126","name":"鹤北线","type":"route","route":"railway","operator":"中国铁路哈尔滨局集团有限公司","operator:en":"China Railway Harbin Group","operator:zh":"中国铁路哈尔滨局集团有限公司","operator:wikidata":"Q10922014"},"14322060":{"ref":"0125","name":"鹤岗线","type":"route","route":"railway","operator":"中国铁路哈尔滨局集团有限公司","operator:en":"China Railway Harbin Group","operator:zh":"中国铁路哈尔滨局集团有限公司","operator:wikidata":"Q10922014"},"14322226":{"ref":"1122","name":"公（利）集联络线","type":"route","route":"railway","operator":"中国铁路哈尔滨局集团有限公司","operator:en":"China Railway Harbin Group","operator:zh":"中国铁路哈尔滨局集团有限公司","operator:wikidata":"Q10922014"},"14322227":{"ref":"1121","name":"兴莲联络线","type":"route","route":"railway","operator":"中国铁路哈尔滨局集团有限公司","operator:en":"China Railway Harbin Group","operator:zh":"中国铁路哈尔滨局集团有限公司","operator:wikidata":"Q10922014"},"14329333":{"ref":"1109","name":"三榆线","type":"route","route":"railway","operator":"中国铁路哈尔滨局集团有限公司","operator:en":"China Railway Harbin Group","operator:zh":"中国铁路哈尔滨局集团有限公司","operator:wikidata":"Q10922014"},"14329335":{"ref":"1103","name":"昂峰（疏解）线","type":"route","route":"railway"},"14329336":{"ref":"1101","name":"榆树线","type":"route","route":"railway","operator":"中国铁路哈尔滨局集团有限公司","operator:en":"China Railway Harbin Group","operator:zh":"中国铁路哈尔滨局集团有限公司","operator:wikidata":"Q10922014"},"14329337":{"ref":"1105","name":"红峰线","type":"route","route":"railway","operator":"中国铁路哈尔滨局集团有限公司","operator:en":"China Railway Harbin Group","operator:zh":"中国铁路哈尔滨局集团有限公司","operator:wikidata":"Q10922014"},"14329338":{"ref":"1104","name":"西昂线","type":"route","route":"railway","operator":"中国铁路哈尔滨局集团有限公司","operator:en":"China Railway Harbin Group","operator:zh":"中国铁路哈尔滨局集团有限公司","operator:wikidata":"Q10922014"},"14350097":{"ref":"0185","name":"双乌线","type":"route","route":"railway","operator":"中国铁路哈尔滨局集团有限公司","operator:en":"China Railway Harbin Group","operator:zh":"中国铁路哈尔滨局集团有限公司","operator:wikidata":"Q10922014"},"14355530":{"ref":"1231","name":"锦承-北票联络线","type":"route","route":"railway"},"14374282":{"ref":"1220","name":"周甘线","type":"route","route":"railway"},"14382587":{"ref":"天门联络线","name":"天门联络线","type":"route","route":"railway"},"14391033":{"ref":"九江联络线","name":"九江联络线","type":"route","route":"railway","name:en":"Jiujiang connection"},"14395191":{"ref":"达三线","name":"达三线","type":"route","route":"railway"},"14395197":{"ref":"三农联络线","name":"三农联络线","type":"route","route":"railway"},"14399958":{"ref":"0172","name":"图牡货线","type":"route","route":"railway","operator":"中国铁路哈尔滨局集团有限公司","operator:en":"China Railway Harbin Group","operator:zh":"中国铁路哈尔滨局集团有限公司","operator:wikidata":"Q10922014"},"14403564":{"ref":"塘口南疏解线","name":"塘口南疏解线","type":"route","route":"railway"},"14406153":{"ref":"合武绕行线","name":"合武绕行线","type":"route","route":"railway"},"14406164":{"ref":"合肥东联络线","name":"合肥东联络线","type":"route","route":"railway"},"14406165":{"ref":"桃东线","name":"桃东线","type":"route","route":"railway"},"14406183":{"ref":"合肥新客线","name":"合肥新客线","type":"route","route":"railway"},"14411122":{"ref":"1107","name":"卓汇线","type":"route","route":"railway","operator":"中国铁路哈尔滨局集团有限公司","operator:en":"China Railway Harbin Group","operator:zh":"中国铁路哈尔滨局集团有限公司","operator:wikidata":"Q10922014"},"14411184":{"ref":"0103","name":"富嫩线","type":"route","route":"railway","name:zh":"富嫩线","operator":"中国铁路哈尔滨局集团有限公司","operator:en":"China Railway Harbin Group","operator:zh":"中国铁路哈尔滨局集团有限公司","operator:wikidata":"Q10922014"},"14429491":{"ref":"吉安南疏解","name":"吉安南疏解","type":"route","route":"railway"},"14462103":{"to":"民生村","ref":"2324","from":"军粮城","name":"军民联络线","type":"route","route":"railway","name:zh":"军民联络线","operator":"中国铁路","operator:en":"China Railway","operator:zh":"中国铁路","operator:wikidata":"Q1073489"},"14466246":{"to":"新港","ref":"2343","from":"新北路线路所","name":"北塘新港联络线","type":"route","route":"railway","name:zh":"北塘新港联络线","operator":"中国铁路","operator:en":"China Railway","operator:zh":"中国铁路","operator:wikidata":"Q1073489"},"14467878":{"to":"付庄","ref":"2337","from":"汉沽","name":"南堡疏解线","type":"route","route":"railway","operator":"中国铁路","operator:en":"China Railway","operator:zh":"中国铁路","operator:wikidata":"Q1073489"},"14468359":{"ref":"1676","name":"萍乡联络甲线","type":"route","route":"railway"},"14468415":{"ref":"1673","name":"鹰潭反发线","type":"route","route":"railway"},"14468416":{"ref":"1672","name":"鹰厦联络线","type":"route","route":"railway"},"14469059":{"to":"七道桥2#岔尖","ref":"1390","from":"七道桥4#岔尖","name":"七丰线","type":"route","route":"railway","length":"650"},"14471479":{"ref":"0677","name":"西到线","type":"route","route":"railway"},"14477637":{"to":"胥各庄","ref":"1391","from":"丰南","name":"丰胥线","type":"route","route":"railway","name:zh":"丰胥线","operator":"中国铁路","operator:en":"China Railway","operator:zh":"中国铁路","name:zh-Hans":"丰胥线","operator:wikidata":"Q1073489"},"14480530":{"ref":"2314","name":"石德货联线","type":"route","route":"railway","operator":"中国铁路","operator:en":"China Railway","operator:zh":"中国铁路","operator:wikidata":"Q1073489"},"14486306":{"to":"银城铺","ref":"1394","from":"唐山东","name":"银联线","type":"route","route":"railway","alt_name":"银城铺联络线","operator":"中国铁路","operator:en":"China Railway","operator:zh":"中国铁路","operator:wikidata":"Q1073489"},"14489260":{"ref":"1951","name":"狼窝铺东联线","type":"route","route":"railway","alt_name":"狼窝铺东联络线"},"14489261":{"ref":"1952","name":"狼窝铺西联线","type":"route","route":"railway","alt_name":"狼窝铺西联络线"},"14489977":{"ref":"1123","name":"三峰线","type":"route","route":"railway","operator":"中国铁路哈尔滨局集团有限公司","operator:en":"China Railway Harbin Group","operator:zh":"中国铁路哈尔滨局集团有限公司","operator:wikidata":"Q10922014"},"14499723":{"to":"张家口","ref":"7324","from":"沙岭子","name":"沙张联络线","note":"沙岭子接触网终点标K185+500至张家口车挡K189+300线路封闭，停用。","type":"route","route":"railway","old_ref":"1338","operator":"中国铁路","operator:en":"China Railway","operator:zh":"中国铁路","operator:wikidata":"Q1073489"},"14505897":{"ref":"2614","name":"湖口疏解线","type":"route","route":"railway"},"14523402":{"ref":"0351","name":"平定线","type":"route","route":"railway","name:zh":"平定线","operator":"中国铁路","operator:en":"China Railway","operator:zh":"中国铁路","operator:wikidata":"Q1073489"},"14525092":{"ref":"1137","name":"宽轨联络1线","type":"route","route":"railway","operator":"中国铁路哈尔滨局集团有限公司","operator:en":"China Railway Harbin Group","operator:zh":"中国铁路哈尔滨局集团有限公司","operator:wikidata":"Q10922014"},"14525094":{"ref":"1138","name":"宽轨联络2线","type":"route","route":"railway","operator":"中国铁路哈尔滨局集团有限公司","operator:en":"China Railway Harbin Group","operator:zh":"中国铁路哈尔滨局集团有限公司","operator:wikidata":"Q10922014"},"14525095":{"ref":"1136","name":"准轨联络2线","type":"route","route":"railway","operator":"中国铁路哈尔滨局集团有限公司","operator:en":"China Railway Harbin Group","operator:zh":"中国铁路哈尔滨局集团有限公司","operator:wikidata":"Q10922014"},"14531225":{"to":"沙河站M6岔尖后39米","ref":"8323","via":"北京焊轨厂","from":"沙河站H1岔尖","name":"沙河焊轨联络线","type":"route","route":"railway","operator":"中国铁路","operator:en":"China Railway","operator:zh":"中国铁路","operator:wikidata":"Q1073489"},"14537414":{"ref":"1102","name":"榆红线","type":"route","route":"railway","operator":"中国铁路哈尔滨局集团有限公司","operator:en":"China Railway Harbin Group","operator:zh":"中国铁路哈尔滨局集团有限公司","operator:wikidata":"Q10922014"},"14549345":{"ref":"1678","name":"向塘Ⅺ道线","type":"route","route":"railway","description":"长：1.557km；向塘3#岔尖 K0+000 到 向塘78#岔尖 K1+557"},"14549358":{"ref":"1618","name":"向东D线","type":"route","route":"railway","description":"向东D线:2.99km"},"14549470":{"ref":"1635","name":"芜湖东联络A线","type":"route","route":"railway"},"14549493":{"ref":"1634","name":"芜湖东联络B线","type":"route","route":"railway","usage":"branch"},"14562678":{"ref":"0173","name":"滨绥货线","type":"route","route":"railway","network":"CN-railway","operator":"中国铁路哈尔滨局集团有限公司","operator:en":"China Railway Harbin Group","operator:zh":"中国铁路哈尔滨局集团有限公司","operator:wikidata":"Q10922014"},"14563164":{"ref":"1387","name":"大秦三期煤码头线","type":"route","route":"railway","name:zh":"大秦三期煤码头线","operator":"中国铁路","operator:en":"China Railway","operator:zh":"中国铁路","operator:wikidata":"Q1073489"},"14563165":{"ref":"1331","name":"大秦四期煤码头线","type":"route","route":"railway","name:zh":"大秦四期煤码头线","operator":"中国铁路","operator:en":"China Railway","operator:zh":"中国铁路","operator:wikidata":"Q1073489"},"14563187":{"ref":"1343","name":"秦东联络线","type":"route","route":"railway","name:zh":"秦东联络线","alt_name":"秦皇岛东联络线"},"14564256":{"ref":"1335","name":"沙联线","type":"route","route":"railway","operator":"中国铁路","operator:en":"China Railway","operator:zh":"中国铁路","operator:wikidata":"Q1073489"},"14564524":{"ref":"0331","name":"秦皇岛进出港线","type":"route","route":"railway"},"14564525":{"ref":"2338","name":"哈港联线","type":"route","route":"railway"},"14564528":{"ref":"2345","name":"北戴河场间联线","type":"route","route":"railway"},"14567392":{"ref":"0355","name":"南庄支线","type":"route","route":"railway","name:zh":"南庄支线","operator":"中国铁路","operator:en":"China Railway","operator:zh":"中国铁路","operator:wikidata":"Q1073489"},"14567393":{"ref":"0377","name":"阳泉矿正线","type":"route","route":"railway","name:zh":"阳泉矿正线","operator":"中国铁路","operator:en":"China Railway","operator:zh":"中国铁路","operator:wikidata":"Q1073489"},"14567394":{"ref":"0356","name":"阳简线","type":"route","route":"railway","name:zh":"阳简线","operator":"中国铁路","operator:en":"China Railway","operator:zh":"中国铁路","operator:wikidata":"Q1073489"},"14567419":{"ref":"1957","name":"王佐上联线","type":"route","route":"railway","operator":"中国铁路","operator:en":"China Railway","operator:zh":"中国铁路","operator:wikidata":"Q1073489"},"14567420":{"ref":"1956","name":"王佐下联线","type":"route","route":"railway","operator":"中国铁路","operator:en":"China Railway","operator:zh":"中国铁路","operator:wikidata":"Q1073489"},"14567421":{"ref":"1954","name":"肃宁下联","type":"route","route":"railway","operator":"中国铁路","operator:en":"China Railway","operator:zh":"中国铁路","operator:wikidata":"Q1073489"},"14567422":{"ref":"1955","name":"肃宁上联","type":"route","route":"railway","operator":"中国铁路","operator:en":"China Railway","operator:zh":"中国铁路","operator:wikidata":"Q1073489"},"14567441":{"ref":"1352","name":"邢贡联线","type":"route","route":"railway","operator":"中国铁路","operator:en":"China Railway","operator:zh":"中国铁路","operator:wikidata":"Q1073489"},"14567442":{"ref":"2309","name":"天津城际上联","type":"route","route":"railway","operator":"中国铁路","operator:en":"China Railway","operator:zh":"中国铁路","operator:wikidata":"Q1073489"},"14567443":{"ref":"2346","name":"津秦城际联络线","type":"route","route":"railway","operator":"中国铁路","operator:en":"China Railway","operator:zh":"中国铁路","operator:wikidata":"Q1073489"},"14567498":{"ref":"1372","name":"长八线","type":"route","route":"railway","operator":"中国铁路","operator:en":"China Railway","operator:zh":"中国铁路","operator:wikidata":"Q1073489"},"14567513":{"ref":"2347","name":"泰津联线","type":"route","route":"railway","name:zh":"泰津联线","operator":"中国铁路","operator:en":"China Railway","operator:zh":"中国铁路","operator:wikidata":"Q1073489"},"14567514":{"ref":"1388","name":"泰达线","type":"route","route":"railway","operator":"中国铁路","operator:en":"China Railway","operator:zh":"中国铁路","operator:wikidata":"Q1073489"},"14567515":{"ref":"0322","name":"塘沽线","type":"route","route":"railway","operator":"中国铁路","operator:en":"China Railway","operator:zh":"中国铁路","operator:wikidata":"Q1073489"},"14567572":{"ref":"1395","name":"津山联络线","type":"route","route":"railway","operator":"中国铁路","operator:en":"China Railway","operator:zh":"中国铁路","operator:wikidata":"Q1073489"},"14567592":{"ref":"1309","name":"南北联络线","type":"route","route":"railway","operator":"中国铁路","short_name":"南北联线","operator:en":"China Railway","operator:zh":"中国铁路","operator:wikidata":"Q1073489"},"14567593":{"ref":"1341","name":"津山上行进站线","type":"route","route":"railway","operator":"中国铁路","short_name":"津山上进线","operator:en":"China Railway","operator:zh":"中国铁路","operator:wikidata":"Q1073489"},"14567627":{"ref":"1953","name":"南西联络线","type":"route","route":"railway","name:zh":"南西联络线","operator":"中国铁路","short_name":"南西联线","operator:en":"China Railway","operator:zh":"中国铁路","operator:wikidata":"Q1073489"},"14567660":{"ref":"0326","name":"进港二线","type":"route","route":"railway","operator":"中国铁路","operator:en":"China Railway","operator:zh":"中国铁路","operator:wikidata":"Q1073489"},"14567677":{"ref":"0358","name":"丰沙下行二线","type":"route","route":"railway","operator":"中国铁路","operator:en":"China Railway","operator:zh":"中国铁路","operator:wikidata":"Q1073489"},"14567678":{"ref":"0347","name":"丰沙上行二线","type":"route","route":"railway","operator":"中国铁路","operator:en":"China Railway","operator:zh":"中国铁路","operator:wikidata":"Q1073489"},"14567745":{"ref":"1325","name":"马沙联线","type":"route","route":"railway","operator":"中国铁路","operator:en":"China Railway","operator:zh":"中国铁路","operator:wikidata":"Q1073489"},"14567776":{"ref":"1345","name":"北京联络线","type":"route","route":"railway","operator":"中国铁路","operator:en":"China Railway","operator:zh":"中国铁路","operator:wikidata":"Q1073489"},"14568932":{"ref":"1369","name":"南联线","type":"route","route":"railway","operator":"中国铁路","operator:en":"China Railway","operator:zh":"中国铁路","operator:wikidata":"Q1073489"},"14568933":{"ref":"1370","name":"龙联线","type":"route","route":"railway","name:zh":"龙联线","operator":"中国铁路","operator:en":"China Railway","operator:zh":"中国铁路","operator:wikidata":"Q1073489"},"14570458":{"ref":"0115","name":"滨绥宽轨线","type":"route","route":"railway","operator":"中国铁路哈尔滨局集团有限公司","operator:en":"China Railway Harbin Group","operator:zh":"中国铁路哈尔滨局集团有限公司","operator:wikidata":"Q10922014"},"14570459":{"ref":"1110","name":"榆峰线","type":"route","route":"railway","operator":"中国铁路哈尔滨局集团有限公司","operator:en":"China Railway Harbin Group","operator:zh":"中国铁路哈尔滨局集团有限公司","operator:wikidata":"Q10922014"},"14570460":{"ref":"1123","name":"西峰线","type":"route","route":"railway","operator":"中国铁路哈尔滨局集团有限公司","operator:en":"China Railway Harbin Group","operator:zh":"中国铁路哈尔滨局集团有限公司","operator:wikidata":"Q10922014"},"14570461":{"ref":"1134","name":"拉滨客车线","type":"route","route":"railway","operator":"中国铁路哈尔滨局集团有限公司","operator:en":"China Railway Harbin Group","operator:zh":"中国铁路哈尔滨局集团有限公司","operator:wikidata":"Q10922014"},"14570462":{"ref":"1148","name":"牡丹江疏解线","type":"route","route":"railway","operator":"中国铁路哈尔滨局集团有限公司","operator:en":"China Railway Harbin Group","operator:zh":"中国铁路哈尔滨局集团有限公司","operator:wikidata":"Q10922014"},"14570463":{"ref":"1149;1150","name":"平齐联络线","type":"route","route":"railway","operator":"中国铁路哈尔滨局集团有限公司","operator:en":"China Railway Harbin Group","operator:zh":"中国铁路哈尔滨局集团有限公司","operator:wikidata":"Q10922014"},"14576491":{"ref":"2003","name":"滦菱线","type":"route","route":"railway","name:en":"Luanling Line","name:zh":"滦菱线","operator":"中国铁路","operator:en":"China Railway","operator:zh":"中国铁路","operator:wikidata":"Q1073489"},"14579195":{"ref":"1302","name":"沙河驿北线","type":"route","route":"railway","operator":"中国铁路","operator:en":"China Railway","operator:zh":"中国铁路","operator:wikidata":"Q1073489"},"14579196":{"ref":"1303","name":"沙河驿南线","type":"route","route":"railway","operator":"中国铁路","operator:en":"China Railway","operator:zh":"中国铁路","operator:wikidata":"Q1073489"},"14579319":{"ref":"1344","name":"京包京通联络线","type":"route","route":"railway","operator":"中国铁路","operator:en":"China Railway","operator:zh":"中国铁路","operator:wikidata":"Q1073489"},"14588869":{"ref":"1301","name":"丰润唐遵线","type":"route","route":"railway","name:zh":"丰润唐遵线","operator":"中国铁路","operator:en":"China Railway","operator:zh":"中国铁路","operator:wikidata":"Q1073489"},"14592075":{"ref":"2353","name":"京哈唐包联线","type":"route","route":"railway","operator":"中国铁路","operator:en":"China Railway","operator:zh":"中国铁路","operator:wikidata":"Q1073489"},"14599407":{"to":"贾庵子","ref":"1392","from":"唐山东","name":"贾联线","type":"route","route":"railway","alt_name":"贾庵子联络线","operator":"中国铁路","operator:en":"China Railway","operator:zh":"中国铁路","operator:wikidata":"Q1073489"},"14599408":{"to":"崔马庄","ref":"1393","from":"唐山东","name":"崔联线","type":"route","route":"railway","name:zh":"崔联线","alt_name":"崔马庄联络线","operator":"中国铁路","operator:en":"China Railway","operator:zh":"中国铁路","operator:wikidata":"Q1073489"},"14611883":{"ref":"2356","name":"唐包京承联络线","type":"route","route":"railway","operator":"中国铁路","operator:en":"China Railway","operator:zh":"中国铁路","operator:wikidata":"Q1073489"},"14719035":{"ref":"0338","name":"永大线","type":"route","route":"railway","operator":"中国铁路","operator:en":"China Railway","operator:wikidata":"Q1073489"},"14733222":{"to":"金耀线路所","ref":"2322","from":"北塘西","name":"北金联络线","type":"route","route":"railway","name:zh":"北金联络线","operator":"中国铁路","operator:en":"China Railway","operator:zh":"中国铁路","operator:wikidata":"Q1073489"},"14735049":{"to":"十三冶线路所","ref":"2329","from":"民生村","name":"蓟港津山联线","type":"route","route":"railway","name:zh":"蓟港津山联线","old_ref":"2314","operator":"中国铁路","operator:en":"China Railway","operator:zh":"中国铁路","operator:wikidata":"Q1073489"},"14736239":{"to":"小葆台","ref":"1320","from":"南信号","name":"军供联络线","type":"route","route":"railway","operator":"中国铁路","operator:en":"China Railway","operator:zh":"中国铁路","operator:wikidata":"Q1073489"},"14746375":{"ref":"2313","name":"南仓城际京沪下行联络线","type":"route","route":"railway","operator":"中国铁路","operator:en":"China Railway","operator:zh":"中国铁路","operator:wikidata":"Q1073489"},"14879430":{"to":"东北流","ref":"2349","from":"小康庄","name":"邯黄疏解线","type":"route","route":"railway","name:zh":"邯黄疏解线","operator":"中国铁路","operator:en":"China Railway","operator:zh":"中国铁路","operator:wikidata":"Q1073489"},"14892277":{"ref":"0028","name":"老京包线","type":"route","route":"railway","end_date":"2016-10-31","operator":"中国铁路","operator:en":"China Railway","operator:zh":"中国铁路","operator:wikidata":"Q1073489"},"14902626":{"to":"西道口","ref":"1314","from":"丰台西","name":"丰西京广上联","type":"route","route":"railway","operator":"中国铁路","operator:en":"China Railway","operator:zh":"中国铁路","operator:wikidata":"Q1073489"},"14902627":{"ref":"1315","name":"京沪京广下联","type":"route","route":"railway","operator":"中国铁路","operator:en":"China Railway","operator:zh":"中国铁路","operator:wikidata":"Q1073489"},"14912151":{"ref":"0385","name":"新峰线","type":"route","route":"railway","name:zh":"新峰线","operator":"中国铁路","operator:en":"China Railway","operator:zh":"中国铁路","operator:wikidata":"Q1073489"},"14922232":{"to":"陡河发电厂","ref":"2008","from":"古冶","name":"陡电线","type":"route","route":"railway","name:zh":"陡电线","operator":"中国铁路","operator:en":"China Railway","operator:zh":"中国铁路","operator:wikidata":"Q1073489"},"15003226":{"ref":"0136","name":"峻德线","type":"route","route":"railway","operator":"中国铁路哈尔滨局集团有限公司","operator:en":"China Railway Harbin Group","operator:zh":"中国铁路哈尔滨局集团有限公司","operator:wikidata":"Q10922014"},"15021752":{"ref":"0129","name":"翠峦线","type":"route","route":"railway","operator":"中国铁路哈尔滨局集团有限公司","wikidata":"Q15938487","wikipedia":"zh:翠峦铁路","operator:en":"China Railway Harbin Group","operator:zh":"中国铁路哈尔滨局集团有限公司","operator:wikidata":"Q10922014"},"15039636":{"to":"北舍","ref":"2431","name":"王北联络线","type":"route","route":"railway","name:zh":"王北联络线","operator":"中国铁路","operator:en":"China Railway","operator:zh":"中国铁路","operator:wikidata":"Q1073489"},"15046024":{"ref":"7356","name":"清河动车走行线","type":"route","route":"railway","operator":"中国铁路","operator:en":"China Railway","operator:zh":"中国铁路","operator:wikidata":"Q1073489"},"15047697":{"ref":"2334","name":"天津西动车走行B线","type":"route","route":"railway","name:zh":"天津西动车走行B线","operator":"中国铁路","operator:en":"China Railway","operator:zh":"中国铁路","operator:wikidata":"Q1073489"},"15047698":{"ref":"2335","name":"天津西动车走行A线","type":"route","route":"railway","name:zh":"天津西动车走行A线","operator":"中国铁路","operator:en":"China Railway","operator:zh":"中国铁路","operator:wikidata":"Q1073489"},"15068717":{"ref":"30007","name":"宝矿线","type":"route","route":"railway"},"15068718":{"ref":"30009","name":"海拉尔热电厂线","type":"route","route":"railway"},"15068719":{"ref":"30012","name":"平南电厂线","type":"route","route":"railway"},"15262444":{"ref":"1339","name":"京哈津蓟联络线","type":"route","route":"railway","name:zh":"京哈津蓟联络线","operator":"中国铁路","operator:en":"China Railway","operator:zh":"中国铁路","operator:wikidata":"Q1073489"},"15267568":{"ref":"1357","name":"大秦津蓟上联线","type":"route","route":"railway","name:zh":"大秦津蓟上联线","operator":"中国铁路","operator:en":"China Railway","operator:zh":"中国铁路","operator:wikidata":"Q1073489"},"15318032":{"ref":"1386","name":"大段下联线","type":"route","route":"railway","name:zh":"大段下联线","operator":"中国铁路","operator:en":"China Railway","operator:zh":"中国铁路","operator:wikidata":"Q1073489"},"15318033":{"ref":"1385","name":"大段上联线","type":"route","route":"railway","name:zh":"大段上联线","operator":"中国铁路","operator:en":"China Railway","operator:zh":"中国铁路","operator:wikidata":"Q1073489"},"15390057":{"ref":"1354","name":"板西疏解线","type":"route","route":"railway","operator":"中国铁路","operator:en":"China Railway","operator:zh":"中国铁路","operator:wikidata":"Q1073489"},"15403088":{"to":"大厂动车运用所","ref":"73xx","from":"燕郊","name":"大厂动车走行B线","type":"route","route":"railway","operator":"中国铁路","operator:en":"China Railway","operator:wikidata":"Q1073489"},"15403089":{"to":"大厂动车运用所","ref":"73xx","from":"燕郊","name":"大厂动车走行A线","type":"route","route":"railway","operator":"中国铁路","operator:en":"China Railway","operator:wikidata":"Q1073489"},"15427974":{"to":"山海关","ref":"2332","from":"龙家营","name":"龙山联络线","type":"route","route":"railway","operator":"中国铁路","operator:en":"China Railway","operator:zh":"中国铁路","operator:wikidata":"Q1073489"},"15511614":{"ref":"0175","name":"牡佳货线","type":"route","route":"railway","operator":"中国铁路哈尔滨局集团有限公司","operator:en":"China Railway Harbin Group","operator:zh":"中国铁路哈尔滨局集团有限公司","operator:wikidata":"Q10922014"},"15557381":{"ref":"0346","name":"满神线","type":"route","route":"railway","name:zh":"满神线","operator":"中国铁路","operator:en":"China Railway","operator:zh":"中国铁路","operator:wikidata":"Q1073489"},"15586447":{"to":"高各庄","ref":"1384","from":"茶坞","name":"茶高线","type":"route","route":"railway","name:zh":"茶高线","operator":"中国铁路","operator:en":"China Railway","operator:zh":"中国铁路","operator:wikidata":"Q1073489"},"15617555":{"ref":"2301","name":"曹港线","type":"route","owner":"唐港铁路有限责任公司","route":"railway","name:en":"Caogang Line","operator":"中国铁路","operator:en":"China Railway","operator:wikidata":"Q1073489"},"15634190":{"ref":"73xx","name":"通燕联络线","type":"route","route":"railway","name:en":"Tongyan Junction Line","operator":"中国铁路","operator:en":"China Railway","operator:wikidata":"Q1073489"},"15863126":{"to":"北疆电厂","ref":"7317","from":"付庄","name":"北疆电厂走行线","type":"route","route":"railway","operator":"中国铁路","operator:en":"China Railway","operator:zh":"中国铁路","operator:wikidata":"Q1073489"}}