{"1943588":{"to":"Monforte de Lemos","ref":"810","via":"Guillarel","from":"Vigo Guixar","name":"Liña Vigo - Ourense - Monforte","note":"Esta es una relación para la infraestructura, no de transporte público","type":"route","route":"railway","operator":"Adif","operator:wikidata":"Q358752"},"2424051":{"to":"Huelva-Mercancías","ref":"512","from":"Zafra","name":"FFCC Zafra-Huelva","type":"route","route":"railway","source":"Wikipedia","distance":"180.8","operator":"Adif","wikidata":"Q73077965","wikipedia":"es:Línea Zafra-Huelva","start_date":"1889","operator:wikidata":"Q358752","public_transport:version":"2"},"2869549":{"ref":"036","name":"Línea de alta velocidad Antequera-Granada","type":"route","route":"railway","name:en":"Antequera-Granada HSL","network":"Adif","wikidata":"Q5987834","wikipedia":"es:Línea de alta velocidad Antequera-Granada"},"4777557":{"ref":"080","name":"Línea de Alta Velocidad Madrid–Valladolid-Burgos","note":"Esta relación es únicamente para la infraestructura, no para las líneas de transporte que circulan por ella.","type":"route","route":"railway","operator":"Adif AV","wikipedia":"es:Línea de alta velocidad Madrid-Segovia-Valladolid","official_name":"Burgos-Rosa de Lima a Madrid-Chamartín"},"5546933":{"ref":"084","name":"Línea de Alta Velocidad Venta de Baños-León","note":"Esta relación es para la infraestructura. Los servicios que circulan por ella deben etiquetarse como relaciones de transporte público (como, por ejemplo, la relación 6843242).","type":"route","route":"railway","usage":"main","operator":"Adif AV","wikipedia":"es:Línea de alta velocidad Valladolid-Palencia-León","short_name":"LAV Venta de Baños-León","start_date":"2015","official_name":"León a Bifurcación Venta de Baños"},"6759679":{"ref":"530","name":"Línea Monfragüe-Plasencia","type":"route","route":"railway","usage":"main","operator":"Adif AV","official_name":"Monfragüe a Plasencia"},"6760273":{"ref":"IC","name":"Albacete - Águilas","type":"route","route":"railway"},"8117446":{"ref":"026","name":"Línea de Alta Velocidad Plasencia-Badajoz","type":"route","gauge":"1668","route":"railway","alt_name":"LAV Plasencia-Badajoz","operator":"Adif AV","wikidata":"Q569395","highspeed":"yes","wikipedia":"es:Línea de alta velocidad Madrid-Extremadura","construction:voltage":"25000","construction:frequency":"50","construction:electrified":"contact_line","construction:railway:etcs":"2"},"8490254":{"ref":"164","name":"Línea Palencia-Magaz","type":"route","route":"railway","operator":"Adif","official_name":"Palencia-Arroyo Villalobón a Magaz"},"9277290":{"ref":"070","name":"Línea Zaragoza-Huesca","type":"route","route":"railway","alt_name":"Línea Zaragoza - Canfranc (ancho estándar)","operator":"Adif","official_name":"Bifurcación Huesca a Huesca","operator:wikidata":"Q358752"},"9277501":{"ref":"700","name":"Línea Bilbao-Casetas","type":"route","route":"railway","usage":"main","name:es":"Línea Bilbao-Casetas","name:eu":"Bilbo-Casetas trenbidea","operator":"Adif","wikidata":"Q16595726","official_name":"Intermodal Abando Indalecio Prieto a Casetas","operator:wikidata":"Q358752"},"9392199":{"ref":"710","name":"Línea Alsasua-Castejón de Ebro","type":"route","route":"railway","usage":"main","name:es":"Línea Alsasua-Castejón de Ebro","name:eu":"Altsasu-Castejón de Ebro trenbidea","operator":"Adif","official_name":"Altsasu a Castejón de Ebro","operator:wikidata":"Q358752"},"9539016":{"ref":"158","name":"Línea Cambiador Villamuriel-Bifurcación Cerrato","type":"route","route":"railway","usage":"branch","operator":"Adif AV","start_date":"2015","official_name":"Cambiador Villamuriel a Bifurcación Cerrato"},"9539018":{"ref":"156","name":"Línea Bifurcación Villamuriel de Cerrato-Cambiador Villamuriel","type":"route","route":"railway","usage":"branch","operator":"Adif","start_date":"2015","official_name":"Bifurcación Villamuriel de Cerrato a Cambiador Villamuriel"},"9695921":{"ref":"202","name":"Línea Torralba-Soria","type":"route","route":"railway","usage":"branch","operator":"Adif","wikidata":"Q5860720","wikipedia":"es:Línea Torralba-Soria","official_name":"Torralba a Soria","operator:wikidata":"Q358752"},"9696024":{"ref":"702","name":"Línea Cabañas de Ebro-Grisén","type":"route","route":"railway","usage":"main","operator":"Adif","official_name":"Cabañas de Ebro a Grisén"},"9698969":{"ref":"722","name":"Muskiz-Barakaldo trenbidea/Línea Muskiz-Barakaldo","type":"route","route":"railway","usage":"branch","name:es":"Línea Muskiz-Barakaldo","name:eu":"Muskiz-Barakaldo trenbidea","operator":"Adif","official_name":"Muskiz a Desertu-Barakaldo"},"11082425":{"to":"Frontera francesa","ref":"050","via":"Zaragoza","from":"Madrid","name":"Línea de alta velocidad Madrid-Zaragoza-Barcelona-Frontera francesa","type":"route","route":"railway","name:ca":"Línia d'alta velocitat Madrid - Zaragoza - Barcelona - Frontera francesa","name:de":"Schnellfahrstrecke Madrid-Zaragoza-Barcelona-Französische Grenze","name:es":"Línea de alta velocidad Madrid-Zaragoza-Barcelona-Frontera francesa","name:fr":"Ligne à grande vitesse Madrid-Saragosse-Barcelone-Frontière française","operator":"Adif;Línea Figueras Perpignan S.A.","wikidata":"Q1161505","wikipedia":"ca:LAV Madrid - Saragossa - Barcelona - Frontera Francesa"},"11087891":{"to":"Cerbère","ref":"270","from":"Cerbère","name":"FFCC Cerbère - Bifurcación Aragó","type":"route","route":"railway","public_transport:version":"2"},"11088348":{"to":"Camp de Tarragona","ref":"640","from":"Cambiador de La Boella","name":"Línia d'alta velocitat Cambiador de La Boella - Camp de Tarragona","type":"route","route":"railway","operator":"Adif"},"11088349":{"to":"Tarragona","ref":"630","from":"Port Aventura","name":"FFCC Port Aventura - Tarragona","type":"route","route":"railway","operator":"Adif"},"11088350":{"to":"Vilamalla","ref":"260","from":"Figueres-Vilafant","name":"FFCC Figueres-Vilafant - Vilamalla","type":"route","route":"railway","operator":"Adif"},"11097079":{"to":"Lleida","ref":"220","via":"Manresa","from":"Barcelona","name":"FFCC Barcelona - Lleida per Manresa","note":"Números líneas de Adif ségun: http://es.wikipedia.org/wiki/Anexo:L%C3%ADneas_de_la_Red_Ferroviaria_de_Interés_General","type":"route","route":"railway","operator":"Adif"},"11138603":{"to":"Mollet","ref":"246","from":"Castellbisbal","name":"FFCC Castellbisbal - Mollet","type":"route","route":"railway","operator":"Adif","operator:wikidata":"Q358752"},"11138758":{"ref":"210","name":"FFCC Barcelona-Zaragoza via Caspe","note":"Números líneas de Adif según: http://es.wikipedia.org/wiki/Anexo:L%C3%ADneas_de_la_Red_Ferroviaria_de_Interés_General","type":"route","route":"railway","operator":"Adif","operator:wikidata":"Q358752","operator:wikipedia":"es:Adif"},"11143233":{"to":"Málaga-María Zambrano","ref":"030","from":"Bifurcación Málaga-Alta Velocidad","name":"Línea de alta velocidad Córdoba - Málaga","type":"route","route":"railway","operator":"Adif","operator:wikidata":"Q358752"},"11146315":{"to":"Alacant-Terminal","ref":"042","from":"Bifurcación Albacete","name":"Línea de Alta Velocidad Madrid - Alacant-Terminal/Murcia","type":"route","route":"railway","operator":"Adif"},"11146316":{"to":"Valencia-Joaquim Sorolla","ref":"040","from":"Bifurcación Torrejón de Velasco","name":"Línea de Alta Velocidad Bifurcación Torrejón de Velasco - Valencia-Joaquim Sorolla","type":"route","route":"railway","operator":"Adif","operator:wikidata":"Q358752"},"11149219":{"to":"El Higuerón a Los Prados","ref":"430","from":"Bifurcación Córdoba","name":"FFCC Córdoba - Málaga","note":"Números líneas de Adif ségun: http://es.wikipedia.org/wiki/Anexo:L%C3%ADneas_de_la_Red_Ferroviaria_de_Interés_General","type":"route","route":"railway","operator":"Adif","operator:wikidata":"Q358752"},"11155171":{"to":"Málaga-Centro Alameda","ref":"436","from":"Fuengirola","name":"Fuengirola - Málaga-Centro Alameda","type":"route","route":"railway","operator":"Adif","operator:wikidata":"Q358752"},"11167910":{"ref":"290","name":"Acceso al Cambiador de Zaragoza-Delicias","type":"route","route":"railway","usage":"branch","operator":"Adif","official_name":"CIM-Aguja km.337,1 a Cambiador Zaragoza-Delicias"},"11167911":{"ref":"060","name":"Acceso al Cambiador de Zaragoza-Delicias","type":"route","route":"railway","usage":"branch","operator":"Adif AV","official_name":"Bifurcación Cambiador Zaragoza-Delicias a Cambiador Zaragoza-Delicias"},"11168004":{"to":"Bifurcación Moncasi","ref":"054","from":"Bifurcación Canal Imperial","name":"Línea Bifurcación Canal Imperial-Bifurcación Moncasi","type":"route","route":"railway","operator":"Adif AV","official_name":"Bifurcación Canal Imperial a Bifurcación Moncasi"},"11168142":{"ref":"214","name":"Línea CIM de Zaragoza-La Cartuja","type":"route","route":"railway","usage":"branch","operator":"Adif","official_name":"Cim Zaragoza-La Cartuja"},"11168478":{"ref":"208","name":"Línea San Juan de Mozarrifar-San Gregorio","type":"route","route":"railway","usage":"military","operator":"Adif","official_name":"San Juan de Mozarrifar a San Gregorio","operator:wikidata":"Q358752"},"11170077":{"ref":"212","name":"Línea Hoya de Huesca-Bifurcación Hoya de Huesca","type":"route","route":"railway","usage":"branch","alt_name":"Variante de Huesca","operator":"Adif","official_name":"Hoya de Huesca-aguja km 2,3 a Bifurcación Hoya de Huesca"},"11345029":{"ref":"426","name":"FFCC Bobadilla - Granada","type":"route","route":"railway","disused":"yes","end_date":"2015","operator":"Adif","wikidata":"Q9026098","wikipedia":"es:Línea Bobadilla-Granada","start_date":"1874-05-17","operator:wikidata":"Q358752"},"11348360":{"to":"Almería","ref":"410","from":"Linares-Baeza","name":"FFCC Linares-Baeza - Almería","type":"route","route":"railway","distance":"240.8","operator":"Adif","wikidata":"Q5987478","wikipedia":"es:Línea Linares Baeza-Almería","start_date":"1899-03-14"},"11350675":{"to":"Granada","ref":"416","from":"Moreda","name":"FFCC Moreda - Granada","note":"Números líneas de Adif ségun: http://es.wikipedia.org/wiki/Anexo:L%C3%ADneas_de_la_Red_Ferroviaria_de_Interés_General","type":"route","route":"railway","operator":"Adif"},"11351144":{"to":"Cadiz","ref":"400","from":"Alcázar de San Juan","name":"FFCC Alcázar de San Juan-Cádiz","note":"Números líneas de Adif ségun: http://es.wikipedia.org/wiki/Anexo:L%C3%ADneas_de_la_Red_Ferroviaria_de_Interés_General","type":"route","route":"railway","operator":"Adif","wikidata":"Q16595808","wikipedia":"es:Línea Alcázar de San Juan-Cádiz","operator:wikidata":"Q358752","operator:wikipedia":"es:Adif"},"11351146":{"ref":"402","name":"Línea Jaén-Espeluy","type":"route","route":"railway","usage":"branch","operator":"Adif","official_name":"Espeluy-aguja km 340,1 a Jaén"},"11366998":{"ref":"406","name":"FFCC Las Aletas-Universidad","type":"route","route":"railway","operator":"Adif","operator:wikidata":"Q358752"},"11372139":{"ref":"452","name":"FFCC Puerto Sevilla-La Salud","type":"route","route":"railway","operator":"Adif"},"11372142":{"ref":"444","name":"FFCC Bif. Tamarguillo-La Salud","type":"route","route":"railway","operator":"Adif"},"11372161":{"ref":"446","name":"FFCC Bif. Cartuja-Cartuja","type":"route","route":"railway","operator":"Adif"},"11375073":{"ref":"440","name":"FFCC Bif. Los Naranjos-Huelva","note":"Números líneas de Adif ségun: http://es.wikipedia.org/wiki/Anexo:L%C3%ADneas_de_la_Red_Ferroviaria_de_Interés_General","type":"route","route":"railway","operator":"Adif","wikidata":"Q73132376"},"11381925":{"ref":"516","name":"FFCC Mérida-Los Rosales","note":"Números líneas de Adif ségun: http://es.wikipedia.org/wiki/Anexo:L%C3%ADneas_de_la_Red_Ferroviaria_de_Interés_General","type":"route","route":"railway","operator":"Adif","wikidata":"Q75718099","operator:wikidata":"Q358752"},"11488192":{"ref":"514","name":"FFCC Zafra-Jerez de los Caballeros","note":"Números líneas de Adif ségun: http://es.wikipedia.org/wiki/Anexo:L%C3%ADneas_de_la_Red_Ferroviaria_de_Interés_General","type":"route","route":"railway","operator":"Adif"},"11494200":{"ref":"528","name":"FFCC Almorchón - Alhondiguilla-Villaviciosa","note":"Números líneas de Adif ségun: http://es.wikipedia.org/wiki/Anexo:L%C3%ADneas_de_la_Red_Ferroviaria_de_Interés_General","type":"route","route":"railway","operator":"Adif","wikidata":"Q15642971"},"11717892":{"to":"Merida","ref":"500","from":"Madrid","name":"Línea Madrid-Valencia de Alcántara","type":"route","route":"railway","operator":"Adif;Adif AV","official_name":"Bifurcación Planetario a Valencia de Alcántara"},"11768752":{"to":"Algeciras","ref":"420","from":"Bifurcación Las Maravillas","name":"FFCC Bifurcación Las Maravillas - Algeciras","note":"Números líneas de Adif ségun: http://es.wikipedia.org/wiki/Anexo:L%C3%ADneas_de_la_Red_Ferroviaria_de_Interés_General","type":"route","route":"railway","operator":"Adif","operator:wikidata":"Q358752"},"11797051":{"to":"Fuenta de Piedra","ref":"422","from":"Bifurcación Utrera","name":"FFCC Bifurcación Utrera - Fuenta de Piedra","note":"Números líneas de Adif ségun: http://es.wikipedia.org/wiki/Anexo:L%C3%ADneas_de_la_Red_Ferroviaria_de_Interés_General","type":"route","route":"railway","operator":"Adif"},"11800914":{"ref":"204","name":"204 Bifurcación Canfranc a Canfranc","note":"Números líneas de Adif ségun: http://es.wikipedia.org/wiki/Anexo:L%C3%ADneas_de_la_Red_Ferroviaria_de_Interés_General","type":"route","route":"railway","alt_name":"FFCC Hoya de Huesca - Canfranc","operator":"Adif","operator:wikidata":"Q358752"},"11805649":{"ref":"610","name":"FFCC Sagunt - Bifurcación Teruel","note":"Números líneas de Adif ségun: http://es.wikipedia.org/wiki/Anexo:L%C3%ADneas_de_la_Red_Ferroviaria_de_Interés_General","type":"route","route":"railway","operator":"Adif","operator:wikidata":"Q358752"},"13849702":{"ref":"804","name":"Liña Betanzos-Infesta - Ferrol","type":"route","route":"railway","name:es":"Línea Betanzos-Infesta - Ferrol","name:gl":"Liña Betanzos-Infesta - Ferrol"},"15616205":{"ref":"020","name":"020: Bif. La Sagra - Toledo","type":"route","route":"railway","operator":"Adif","wikidata":"Q932635","operator:wikidata":"Q358752"}}