{"375221":{"name":"Kolari-Äkäsjoki","type":"route","route":"railway"},"375222":{"name":"Niesa-Rautuvaara","type":"route","route":"railway"},"375223":{"name":"Tornio-Kolari","type":"route","route":"railway"},"375224":{"name":"Tornio-Röyttä","type":"route","route":"railway"},"375225":{"name":"Laurila–Tornio-raja","type":"route","route":"railway","name:fi":"Laurila–Tornio-raja","name:sv":"Laurila–Torneå-gränsen"},"375227":{"name":"Kemijärvi–Kelloselkä","type":"route","route":"railway"},"375615":{"name":"Lautiosaari–Elijärvi","type":"route","route":"railway"},"375616":{"name":"Kontiomäki–Vartius-raja","type":"route","route":"railway"},"375617":{"name":"Kontiomäki–Ämmänsaari","type":"route","route":"railway"},"375618":{"name":"Pesiökylä–Taivalkoski","type":"route","route":"railway"},"444233":{"name":"Pieksämäki-Kontiomäki","type":"route","route":"railway"},"444234":{"name":"Pyhäkumpu erk.vh. - Pyhäkumpu","type":"route","route":"railway"},"444235":{"name":"Iisalmi-Ylivieska","type":"route","route":"railway"},"444236":{"name":"Äänekoski-Haapajärvi","type":"route","fixme":"miksi tämä rataosuus on tehty relaatioksi?","route":"railway"},"444237":{"name":"Jyväskylä-Äänekoski","type":"route","route":"railway"},"444238":{"name":"Jyväskylä-Pieksämäki","type":"route","route":"railway","wikidata":"Q10396955","wikipedia":"fi:Jyväskylä-Pieksämäki-rata","wikipedia:sv":"Jyväskylä-Pieksämäki-banan"},"445968":{"name":"Vilppula-Mänttä","type":"route","route":"railway"},"445969":{"name":"Orivesi-Seinäjoki","type":"route","route":"railway"},"1019947":{"name":"Jämsä-Kaipola","type":"route","route":"railway"},"1019948":{"name":"Tampere-Jyväskylä","note":"The route is supposed to start at \\\"Tampere Järvensivu\\\", which isn't easy to exactly locate","type":"route","route":"railway"},"1086968":{"name":"Huopalahti-Vantaankoski","type":"route","route":"railway","name:fi":"Huopalahti-Vantaankoski","name:sv":"Hoplax-Vandaforsen"},"1494005":{"name":"Seinäjoki-Vaasa","type":"route","route":"railway","name:fi":"Seinäjoki-Vaasa","name:sv":"Seinäjoki-Vasa"},"1759205":{"to":"Joensuu","from":"Kouvola","name":"Karjalan rata","note":"double track section between Kouvola and Luumäki, where the line to St Petersburg diverts","type":"route","gauge":"1524","route":"railway","usage":"main","name:fi":"Karjalan rata","name:sv":"Karelenbanan","voltage":"25000","wikidata":"Q10543595","frequency":"50","wikipedia":"fi:Karjalan rata","electrified":"contact_line","railway:jkv":"yes","wikipedia:sv":"Karelenbanan"},"1759302":{"to":"Parikkala","from":"Huutokoski","name":"Huutokoski–Parikkala-rata","type":"route","route":"railway","tracks":"1","wikidata":"Q10527471","wikipedia":"fi:Huutokoski–Parikkala-rata","electrified":"no","wikipedia:sv":"Huutokoski-Parikkala-banan"},"1768901":{"to":"Kontiomäki","from":"Joensuu","name":"Joensuu–Kontiomäki-rata","type":"route","route":"railway","wikidata":"Q10540316","wikipedia":"fi:Joensuu–Kontiomäki-rata","electrified":"no","description:en":"As of 2011, passenger traffic between Joensuu and Nurmes and freight traffic on the whole line."},"2249291":{"to":"Iisalmi","ref":"231","from":"Kouvola","name":"Savon rata","type":"route","route":"railway","name:fi":"Savon rata","name:sv":"Savolaxbanan","wikidata":"Q3375474","wikipedia":"fi:Savon rata"},"2789170":{"name":"Kehärata","type":"route","route":"railway","wikipedia":"en:Ring Rail Line"},"3625664":{"name":"Uudenkaupungin rata","type":"route","route":"railway","name:fi":"Uudenkaupungin rata","name:sv":"Nystadsbanan","wikidata":"Q10604965","wikipedia":"fi:Uudenkaupungin rata"},"3638843":{"name":"Siilinjärvi–Viinijärvi-rata","type":"route","route":"railway","wikidata":"Q3375856","wikipedia":"fi:Siilinjärvi–Viinijärvi-rata"},"3640886":{"name":"Ilomantsin rata","type":"route","route":"railway","wikidata":"Q10534598","wikipedia":"fi:Ilomantsin rata"},"14623239":{"name":"Helsingin satamarata","note":"paljon radoista puuttuu varsinkin katajanokassa.","type":"route","route":"railway"}}