{"1185198":{"ref":"Thessaloniki - Alexandroupoli","name":"Thessaloniki - Alexandroupoli","type":"route","route":"railway","network":"OSE","operator":"OSE"},"1270270":{"to":"Θεσσαλονίκη","ref":"Ε 85","from":"Πειραιάς","name":"Σιδηροδρομική γραμμή Πειραιά - Αθηνών - Θεσσαλονίκης","type":"route","route":"railway","usage":"main","name:el":"Σιδηροδρομική γραμμή Πειραιά - Αθηνών - Θεσσαλονίκης","name:en":"Railway Line Piraeus - Athens - Thessaloniki","alt_name":"ΠΑΘΕ/Π","operator":"ΟΣΕ","wikidata":"Q7197675","wikipedia":"el:Σιδηροδρομική γραμμή Πειραιά-Θεσσαλονίκης","alt_name:el":"ΠΑΘΕ/Π","alt_name:en":"PAThE/P","operator:wikidata":"Q602935"},"1270336":{"to":"Καλαμπάκα","ref":"Ε 856","from":"Παλαιοφάρσαλος","name":"Σιδηροδρομική γραμμή Παλαιοφαρσάλου - Καλαμπάκας","type":"route","route":"railway","usage":"branch","name:el":"Σιδηροδρομική γραμμή Παλαιοφαρσάλου - Καλαμπάκας","name:en":"Railway Line Palaiofarsalos - Kalambaka","operator":"ΟΣΕ","wikidata":"Q18228536","wikipedia":"el:Σιδηροδρομική γραμμή Αθήνας - Καλαμπάκας","operator:wikidata":"Q602935"},"7045812":{"to":"Προμαχώνας","ref":"Ε 855","from":"Στρυμώνας","name":"Σιδηροδρομική γραμμή Στρυμώνος - Προμαχώνα","type":"route","route":"railway","usage":"main","name:el":"Σιδηροδρομική γραμμή Στρυμώνος - Προμαχώνα","name:en":"Railway Line Strymonas - Promachonas","operator":"ΟΣΕ","wikidata":"Q18335590","wikipedia":"el:Σιδηροδρομική γραμμή Στρυμόνος - Κουλάτας","operator:wikidata":"Q602935"},"7051601":{"to":"Αλεξανδρούπολη","ref":"Θ-Α","from":"Θεσσαλονίκη","name":"Σιδηροδρομική Γραμμή Θεσσαλονίκη-Αλεξανδρούπολη","type":"route","route":"railway","to:en":"Alexandroupoli","from:en":"Thessaloniki","name:en":"Railway Route Thessaloniki-Alexandroupoli","operator":"Οργανισμός Σιδηροδρόμων Ελλάδος"},"7070874":{"to":"Ειδομένη","ref":"Θ-Ε","from":"Θεσσαλονίκη","name":"Σιδηροδρομική Γραμμή Θεσσαλονίκη-Ειδομένη","type":"route","route":"railway","to:en":"Eidomeni","from:en":"Thessaloniki","name:en":"Railway Route Thessaloniki-Eidomeni","operator":"Οργανισμός Σιδηροδρόμων Ελλάδος"},"7098161":{"to":"Φλώρινα","ref":"Ε 857","from":"Θεσσαλονίκη","name":"Σιδηροδρομική γραμμή Πλατέος - Φλωρίνης","type":"route","route":"railway","usage":"main","name:el":"Σιδηροδρομική γραμμή Πλατέος - Φλωρίνης","name:en":"Railway Line Platy - Florina","alt_name":"Σιδηροδρομική γραμμή Θεσσαλονίκης - Φλωρίνης","operator":"ΟΣΕ","wikidata":"Q7783478","wikipedia":"el:Σιδηροδρομική γραμμή Θεσσαλονίκης - Φλώρινας","alt_name:el":"Σιδηροδρομική γραμμή Θεσσαλονίκης - Φλωρίνης","alt_name:en":"Railway Line Thessaloniki - Florina","operator:wikidata":"Q602935"},"14318375":{"to":"Στυλίδα","ref":"Ε 854","via":"Λαμία","from":"Λειανοκλάδι","name":"Σιδηροδρομική γραμμή Λειανοκλαδίου - Στυλίδας","type":"route","route":"railway","usage":"branch","name:el":"Σιδηροδρομική γραμμή Λειανοκλαδίου - Στυλίδας","name:en":"Railway Line Leianokladi - Stylida","operator":"ΟΣΕ","wikidata":"Q104860836","wikipedia":"el:Σιδηροδρομική γραμμή Λιανοκλαδίου - Στυλίδας","operator:wikidata":"Q602935"},"14318377":{"to":"Βόλος","ref":"Ε 853","from":"Λάρισα","name":"Σιδηροδρομική γραμμή Λαρίσης - Βόλου","type":"route","route":"railway","usage":"branch","name:el":"Σιδηροδρομική γραμμή Λαρίσης - Βόλου","name:en":"Railway Line Larissa - Volos","operator":"ΟΣΕ","wikidata":"Q18335669","wikipedia":"el:Σιδηροδρομική γραμμή Λαρίσης - Βόλου","operator:wikidata":"Q602935"},"14320549":{"to":"Χαλκίδα","ref":"Ε 852","from":"Οινόη","name":"Σιδηροδρομική γραμμή Οινόης - Χαλκίδας","type":"route","route":"railway","usage":"branch","name:el":"Σιδηροδρομική γραμμή Οινόης - Χαλκίδας","name:en":"Railway Line Oinoi - Chalkida","operator":"ΟΣΕ","wikidata":"Q23070489","wikipedia":"el:Σιδηροδρομική γραμμή Οινόης - Χαλκίδας","operator:wikidata":"Q602935"}}