{"1115018":{"ref":"M604","name":"Oštarije – Gospić – Knin – Split","type":"route","route":"railway","network":"international","operator":"HŽ Infrastruktura","short_name":"Oštarije – Knin – Split"},"1619288":{"to":"Zagreb Glavni kolodvor","ref":"M101","from":"(Dobova) – Državna granica","name":"M101 (Dobova) – Državna granica – Savski Marof – Zagreb Glavni kolodvor","type":"route","route":"railway","network":"international","operator":"HŽ Infrastruktura","wikidata":"Q15077774","wikipedia":"hr:Željeznička pruga DG – Savski Marof – Zagreb Glavni kolodvor","short_name":"DG – S. Marof – Zagreb Gk"},"1628033":{"ref":"M502-1;M502-2","name":"M502 Zagreb Glavni kolodvor – Velika Gorica – Sisak – Novska","note":"M501-1 (Zagreb Glavni kolodvor – Velika Gorica)                                                                                                                                                                                                                                                                                                                                                                                                                                                                                                                                                                                                                                                                                                                                                                                                                                                                                                                                                                                                                                                                                                                                                                                                                      "},"1645546":{"ref":"L102","name":"Savski Marof – Kumrovec – Državna granica – (Imeno)","type":"route","route":"railway","network":"local","operator":"HŽ Infrastruktura","short_name":"Savski Marof – Kumrovec"},"1646296":{"to":"Dugo Selo","ref":"M201","from":"Botovo","name":"M201 (Gyekenyes) – Državna granica – Botovo – Koprivnica – Dugo Selo","type":"route","route":"railway","network":"international","operator":"HŽ Infrastruktura","wikidata":"Q14571569","wikipedia":"hr:Željeznička pruga DG – Botovo – Dugo Selo","short_name":"DG – Botovo – Dugo Selo"},"1646326":{"to":"Rijeka","ref":"M202","from":"Zagreb Glavni kolodvor","name":"M202 Zagreb Glavni kolodvor – Karlovac – Rijeka","type":"route","route":"railway","name:it":"Zagabria - Carlovaz - Fiume","network":"international","operator":"HŽ Infrastruktura","wikidata":"Q10541888","wikipedia":"hr:Željeznička pruga Zagreb Glavni kolodvor – Rijeka","short_name":"Zagreb Gk – Rijeka"},"1646412":{"to":"Šapjane","ref":"M203","from":"Rijeka","name":"M203 Rijeka – Šapjane – Državna granica – (Ilirska Bistrica)","type":"route","route":"railway","name:it":"Fiume – Sapiane – Confine di Stato – (Bisterza)","network":"international","operator":"HŽ Infrastruktura","wikidata":"Q17098065","short_name":"Rijeka – Šapjane – DG"},"1646443":{"ref":"M301","name":"M301 (Magyarbóly) – Državna granica – Beli Manastir – Osijek","type":"route","route":"railway","name:hu":"(Magyarbóly) – országhatár – Pélmonostor – Eszék","network":"international","operator":"HŽ Infrastruktura","wikidata":"Q51849170","wikipedia":"hr:Željeznička pruga Beli Manastir – Osijek","short_name":"DG – B. Manastir – Osijek"},"1646491":{"to":"Strizivojna-Vrpolje","ref":"M302","from":"Osijek","name":"M302 Osijek – Đakovo – Strizivojna-Vrpolje","type":"route","route":"railway","network":"international","operator":"HŽ Infrastruktura","wikidata":"Q121636778","wikipedia":"hr:Željeznička pruga Osijek – Strizivojna-Vrpolje","short_name":"Osijek – Strizivojna-Vrpolje"},"1646499":{"ref":"M303","name":"M303 Strizivojna-Vrpolje – Slavonski Šamac – Državna granica – (Bosanski Šamac)","type":"route","route":"railway","network":"international","operator":"HŽ Infrastruktura","wikidata":"Q101747497","short_name":"S.-Vrpolje – S. Šamac – DG"},"1646595":{"ref":"M304","name":"M304 (Čapljina) – Državna granica – Metković – Ploče","type":"route","route":"railway","network":"international","operator":"HŽ Infrastruktura","short_name":"DG – Metković – Ploče"},"1648021":{"ref":"M601","name":"Vinkovci – Vukovar-Borovo naselje – Vukovar","type":"route","route":"railway","network":"international","operator":"HŽ Infrastruktura","wikidata":"Q45896467","short_name":"Vinkovci – Vukovar"},"1648947":{"ref":"R201","name":"Zaprešić – Zabok – Varaždin – Čakovec","type":"route","route":"railway","network":"regional","operator":"HŽ Infrastruktura","wikidata":"Q10724076","wikipedia":"en:R201 railway (Croatia)","short_name":"Zaprešić – Čakovec"},"1649150":{"to":"Dalj","ref":"R202","from":"Varaždin","name":"Varaždin – Koprivnica – Virovitica – Osijek – Dalj","type":"route","route":"railway","network":"regional","operator":"HŽ Infrastruktura","wikidata":"Q14571643","wikipedia":"en:R202 railway (Croatia)","short_name":"Varaždin – Dalj"},"1649360":{"ref":"R101","name":"(Podgorje) – Državna granica – Buzet – Pazin – Pula","type":"route","route":"railway","name:it":"Confine di Stato - Pinguente - Pisino - Pola","network":"regional","operator":"HŽ Infrastruktura","wikidata":"Q3511918","short_name":"DG – Buzet – Pula"},"1649817":{"ref":"L203","name":"Križevci – Bjelovar – Kloštar","type":"route","route":"railway","network":"local","operator":"HŽ Infrastruktura","wikidata":"Q102009853","short_name":"Križevci – Kloštar"},"1649872":{"ref":"L204","name":"Banova Jaruga – Daruvar – Pčelić rasputnica","type":"route","route":"railway","network":"local","operator":"HŽ Infrastruktura","wikidata":"Q15054481","short_name":"Banova Jaruga – Pčelić"},"1649935":{"ref":"L205","name":"Nova Kapela-Batrina – Pleternica – Našice","type":"route","route":"railway","network":"local","operator":"HŽ Infrastruktura","wikidata":"Q102024640","short_name":"Nova Kapela – Našice"},"1649943":{"ref":"L210","name":"Sisak Caprag – Petrinja","type":"route","route":"railway","network":"local"},"1650388":{"ref":"L201","name":"Varaždin – Ivanec – Golubovec","type":"route","route":"railway","network":"local","operator":"HŽ Infrastruktura","wikidata":"Q15054491","wikipedia":"en:L201 railway (Croatia)","short_name":"Varaždin – Golubovec"},"1650409":{"ref":"L202","name":"Hum-Lug rasputnica – Gornja Stubica","type":"route","route":"railway","network":"local","operator":"HŽ Infrastruktura","wikidata":"Q25345307","wikipedia":"en:L202 railway (Croatia)","short_name":"Hum Lug – Gornja Stubica"},"1650415":{"name":"Zabok – Krapina – Đurmanec – Državna granica – (Rogatec)","type":"route","route":"railway","network":"regional","operator":"HŽ Infrastruktura"},"1650527":{"ref":"L101","name":"Čakovec – Mursko Središće – Državna granica – (Lendava)","type":"route","route":"railway","network":"local","operator":"HŽ Infrastruktura","short_name":"Čakovec – Mursko Središće"},"1650548":{"ref":"M501","name":"(Središče) – Državna granica – Čakovec – Kotoriba – Državna granica – (Murakeresztur)","type":"route","route":"railway","network":"international","operator":"HŽ Infrastruktura","wikidata":"Q15081423","wikipedia":"en:M501 railway (Croatia)","short_name":"Čakovec – Kotoriba"},"1650594":{"ref":"L103","name":"Karlovac – Ozalj – Kamanje – Državna granica – (Metlika)","type":"route","route":"railway","network":"local","operator":"HŽ Infrastruktura","wikidata":"Q101932496","short_name":"Karlovac – Kamanje"},"1651299":{"ref":"R105","name":"Vinkovci – Drenovci – Državna granica – (Brčko)","type":"route","route":"railway","network":"regional","operator":"HŽ Infrastruktura","short_name":"Vinkovci – Drenovci"},"1651320":{"ref":"L209","name":"Vinkovci – Županja","type":"route","route":"railway","network":"local","operator":"HŽ Infrastruktura","wikidata":"Q30321444"},"1651322":{"ref":"L208","name":"Vinkovci – Gaboš – Osijek","type":"route","route":"railway","network":"local","operator":"HŽ Infrastruktura","wikidata":"Q123155863","short_name":"Vinkovci – Osijek"},"1651337":{"ref":"L206","name":"Pleternica – Požega – Velika","type":"route","route":"railway","network":"local","operator":"HŽ Infrastruktura","wikidata":"Q102024856","short_name":"Pleternica – Velika"},"1651339":{"to":"Belišće","ref":"L207","from":"Bizovac","name":"Bizovac – Belišće","type":"route","route":"railway","network":"local","operator":"HŽ Infrastruktura","wikidata":"Q102025062"},"1653161":{"ref":"L213","name":"Lupoglav – Raša","type":"route","route":"railway","network":"local","operator":"HŽ Infrastruktura"},"1655010":{"ref":"R102","name":"Sunja – Volinja – Državna granica – (Dobrljin)","type":"route","route":"railway","network":"regional","operator":"HŽ Infrastruktura","wikidata":"Q101859861","short_name":"Sunja – Volinja – DG"},"1656157":{"name":"Vukovar – Stari Vukovar","type":"route","route":"railway","name:sr":"Вуковар – Стари Вуковар","old_ref":"L213","operator":"HŽ Infrastruktura","name:sr-Latn":"Vukovar – Stari Vukovar"},"2326738":{"to":"Rovinj","from":"Kanfanar","name":"Kanfanar – Rovinj","type":"route","route":"railway"},"2697477":{"name":"Mirogojska pruga","type":"route","route":"railway","railway":"abandoned","abandoned":"tram"},"2699551":{"name":"Pruga Jelačićev trg - Kaptol - Nova Ves - Gupčeva zvijezda","type":"route","route":"railway","railway":"abandoned","abandoned":"tram"},"2699589":{"name":"Pruga Kvaternikov Trg - Sajmište","type":"route","route":"railway","railway":"abandoned","abandoned":"tram"},"2701098":{"name":"Pruga Zapadni Kolodvor (Vodovodna) - Draškovićeva","type":"route","route":"railway","railway":"abandoned","abandoned":"tram"},"4058546":{"ref":"RH2","name":"Koridor RH2","type":"route","route":"railway","network":"glavne (koridorske) pruge","operator":"HŽ infrastruktura"},"4058573":{"ref":"RH1","name":"Koridor RH1","type":"route","route":"railway","network":"glavne (koridorske) pruge","operator":"HŽ infrastruktura"},"4060744":{"ref":"RH3","name":"Koridor RH3","type":"route","route":"railway","network":"glavne (koridorske) pruge","operator":"HŽ Infrastruktura","description":"DG – Beli Manastir – Osijek – Slavonski Šamac – DG – (Sarajevo) – DG – Metković – Ploče"},"8348847":{"to":"Dugo Selo","ref":"M102","from":"Zagreb Glavni kolodvor","name":"M102 Zagreb Glavni kolodvor – Dugo Selo","type":"route","route":"railway","operator":"HŽ Infrastruktura","wikidata":"Q15077548","wikipedia":"hr:Željeznička pruga Zagreb Glavni kolodvor – Dugo Selo","short_name":"Zagreb Gk – Dugo Selo"},"8349087":{"to":"Tovarnik","ref":"M104","from":"Novska","name":"M104 Novska – Vinkovci – Tovarnik – Državna granica – (Šid)","type":"route","route":"railway","network":"international","old_ref":"M105","operator":"HŽ Infrastruktura","wikidata":"Q15079640","wikipedia":"hr:Željeznička pruga Novska – Tovarnik – DG","short_name":"Novska – Tovarnik – DG"},"8811513":{"name":"Vukovar – Ilača","type":"route","route":"railway","name:sr":"Вуковар – Илача"},"8843354":{"to":"Knin","via":"Bihać","from":"Sunja","name":"Unska pruga","type":"route","route":"railway","ref:bs":"17","ref:hr":"R102;R103","name:bs":"Unska pruga","name:de":"Una Bahn","name:en":"Una railway","name:hr":"Unska pruga","name:sr":"Унска пруга","railway":"historic","old_name":"Sunja – Knin","wikidata":"Q2492212","wikipedia":"hr:Unska pruga","old_ref:hr":"52","start_date":"1948-12-25"},"8845459":{"ref":"L214","name":"Gradec – Sveti Ivan Žabno","type":"route","route":"railway","network":"local","operator":"HŽ Infrastruktura","wikidata":"Q102037872"},"9058093":{"name":"Sisak Caprag – Karlovac","type":"route","route":"railway","old_ref":"L217","full_name":"Sisak Caprag – Petrinja – Karlovac"},"10060457":{"name":"Gutmanova željeznica","type":"route","route":"railway","name:hr":"Gutmanova željeznica","wikidata":"Q16111376","wikipedia":"hr:Slavonsko-podravske željeznice"},"10796473":{"name":"Samoborček","type":"route","route":"railway","railway":"historic","end_date":"1979-12-31","wikidata":"Q7409986","wikipedia":"hr:Samoborček","start_date":"1901-01-16"},"12486958":{"name":"Uskotračna pruga Šumber – Plomin Luka","type":"route","route":"railway"},"13020480":{"name":"Pruga Beli Manastir - Batina","type":"route","route":"railway"},"13557167":{"name":"Željeznička pruga Bjelovar – Banova Jaruga / Grubišno Polje","type":"route","route":"railway","wikidata":"Q4054698","wikipedia":"hr:Željeznička pruga Bjelovar – Garešnica/Grubišno Polje"},"15663925":{"name":"Industrijski kolosjek Bjelovar Mlin","type":"route","route":"railway"},"15678644":{"name":"Dubrava - Slanovec","type":"route","route":"railway","end_date":"1964","start_date":"1947"},"16529706":{"url":"https://mapiranjetresnjevke.com/kvartovi/precko/pruga-precko/","name":"Pruga za vojarnu Prečko","type":"route","route":"railway","usage":"military","railway":"historic","service":"spur","website":"https://blog.dnevnik.hr/nepoznatizagreb/2009/07/1626463218/font-colorcc0000vlakom-iz-rnomerca-za-prekofont.html","end_date":"1992"}}