{"7237627":{"name":"Jalan Kereta Api","type":"route","route":"railway","operator":"PT . KAI"},"9200636":{"ref":"M1","line":"North-South","name":"North-South Line: Bundaran HI → Lebak Bulus (railways)","type":"route","route":"railway","operator":"PT MRT Jakarta","wikidata":"Q60608236","public_transport:version":"2"},"9200637":{"to":"Lebak Bulus","ref":"M1","line":"North-South","name":"North-South Line: Lebak Bulus → Bundaran HI (railways)","type":"route","route":"railway","network":"MRT Jakarta","operator":"PT MRT Jakarta","wikidata":"Q60608236","wikipedia":"id:Lin Utara–Selatan (MRT Jakarta)","public_transport:version":"2"},"9851086":{"name":"Bandung - Cikampek","type":"route","route":"railway"},"9851116":{"name":"Jalur KA Jatinegara-Cikampek","type":"route","route":"railway"},"12150229":{"name":"Jakarta–Bandung high speed rail","type":"route","route":"railway","length":"142.3 km","name:zh":"雅加达 - 万隆高速铁路（雅加达→万隆）","name:zh-Hans":"雅加达 - 万隆高速铁路","name:zh-Hant":"雅加達－萬隆高速鐵路"},"12150230":{"name":"Jakarta–Bandung high speed rail","type":"route","route":"railway","length":"142.3 km","name:zh":"雅加达 - 万隆高速铁路（万隆→雅加达）","name:zh-Hans":"雅加达 - 万隆高速铁路","name:zh-Hant":"雅加達－萬隆高速鐵路"}}