{"5353948":{"name":"سرخس - فریمان","type":"route","route":"railway","name:en":"Serakhs–Fariman railway"},"5355301":{"name":"Teheran to Northeast railway","type":"route","route":"railway"},"5493750":{"name":"Bandar Abbas railway line","type":"route","route":"railway"},"5735301":{"name":"Tejen–Sarahs railway","type":"route","route":"railway"},"6124573":{"name":"راه آهن بافق- زاهدان","type":"route","route":"railway","name:en":"Bafq-Zahedan Railway"},"6124741":{"name":"Bafq - Isfahan railway line","type":"route","route":"railway"},"6617080":{"name":"Dizbad - Yazd railway line","type":"route","route":"railway"},"7369741":{"name":"راه آهن تهران – مشهد","type":"route","route":"railway","name:de":"Bahnstrecke Teheran - Maschhad","name:en":"Tehran – Mashhad railway","network":"شرق","wikipedia":"fa:خط راه‌آهن تهران-مشهد"},"8276381":{"name":"رستمکلا-بندرامیرآباد","type":"route","route":"railway"},"8276471":{"name":"مراغه - تبریز","type":"route","route":"railway","wikidata":"Q5927199","wikipedia":"fa:راه‌آهن آذربایجان"},"8276472":{"name":"راه‌آهن مراغه - ارومیه","type":"route","route":"railway","name:en":"Maragheh-Urmia Railway","wikidata":"Q97455754","public_transport:version":"2"},"8276509":{"name":"راه آهن تبریز-جلفا","type":"route","route":"railway","name:en":"Tabriz–Jolfa railway"},"8276510":{"name":"راه آهن وان-صوفيان‎","type":"route","route":"railway","name:en":"Van–Sufian railway"},"12900959":{"name":"راه آهن همدان - سنندج","type":"route","route":"railway","name:en":"Hamedan - Sanandaj Railway"},"13974266":{"name":"Tehran-Tabriz railway","type":"route","route":"railway"},"13974267":{"name":"Tehran-Tabriz railway (Relief Route)","type":"route","route":"railway"},"13974268":{"to":"شهید قاسم سلیمانی","from":"صادقیه","name":"Metro Linie 5","type":"route","route":"railway","name:fr":"ligne 5"},"13974632":{"name":"Tehran-Qom railway","type":"route","route":"railway"},"13977016":{"name":"Freight by-pass Teheran","type":"route","route":"railway"}}