{"183626":{"ref":"30","name":"Treviglio-Cremona","type":"route","route":"railway","operator":"Rete Ferroviaria Italiana","wikidata":"Q803335","wikipedia":"it:Ferrovia Treviglio-Cremona","wikimedia_commons":"Category:Treviglio–Cremona railway","public_transport:version":"2"},"382292":{"to":"Paternò","ref":"155","via":"Agrigento Centrale;Agrigento Bassa;Porto Empedocle;Motta S.A.","from":"Catania Centrale","name":"Linea Catania Centrale - Agrigento Centrale / Agrigento Bassa-Porto Empedocle / Motta S.A. - Paternò","note":"ref: Fascicoli Circolazione Linee di RFI: https://normativaesercizio.rfi.it/NormativaEsercizio/","type":"route","route":"railway","network":"RFI","public_transport:version":"2"},"546969":{"ref":"RFI Linea 46","name":"Ferrovia Milano-Venezia","type":"route","route":"railway","network":"Rete Ferroviaria Italiana","voltage":"3000","operator":"RFI","wikidata":"Q736807","frequency":"0","wikipedia":"it:Ferrovia Milano-Venezia","electrified":"contact_line","operator:wikidata":"Q1060049","operator:wikipedia":"it:Rete Ferroviaria Italiana"},"974581":{"ref":"R3","name":"Bornato-Rovato","type":"route","route":"railway","network":"regional","railway":"rail","operator":"Ferrovienord","electrified":"no"},"1492483":{"to":"Sacile","ref":"66","from":"Gemona del Friuli","name":"Gemona - Sacile","type":"route","route":"railway","operator":"RFI","wikipedia":"it:Ferrovia Gemona del Friuli-Sacile","operator:wikidata":"Q1060049"},"1717011":{"ref":"spoleto-norcia","name":"Ex Ferrovia Spoleto Norcia","type":"route","gauge":"950","route":"railway","railway":"abandoned","distance":"51","historic":"railway","operator":"Umbria Mobilità","wikidata":"Q3743633","date:stop":"1968","wikipedia":"it:Ferrovia Spoleto-Norcia","date:start":"1926"},"2250889":{"ref":"33","name":"Ferrovia Alessandria-Piacenza","type":"route","route":"railway","name:de":"Bahnstrecke Alessandria-Piacenza","operator":"RFI","wikidata":"Q612475","wikipedia":"it:Ferrovia Alessandria-Piacenza","operator:wikidata":"Q1060049"},"2521959":{"ref":"Cervignano-Grado","name":"Ex-Ferrovia Cervignano-Aquileia-Pontile per Grado","type":"route","route":"railway","railway":"abandoned","wikidata":"Q3743376","wikipedia":"it:Ferrovia Cervignano-Aquileia-Pontile per Grado"},"2589414":{"to":"Chiavenna","ref":"26","from":"Colico","name":"Ferrovia Colico-Chiavenna","type":"route","route":"railway","wikidata":"Q802115","wikipedia":"it:Ferrovia Colico-Chiavenna"},"2591069":{"ref":"32","name":"Milano-Pavia-Voghera","type":"route","route":"railway","name:de":"Bahnstrecke Mailand-Voghera","operator":"RFI","operator:wikidata":"Q1060049"},"2596061":{"ref":"9","name":"Torino-Milano (Alta Velocità)","type":"route","route":"railway","operator":"RFI","wikidata":"Q958826","wikipedia":"it:Ferrovia Torino-Milano (alta velocità)","railway:etcs":"2","operator:wikidata":"Q1060049"},"3282458":{"to":"Siracusa","ref":"159","via":"Gela","from":"Caltanissetta Xirbi","name":"Linea Caltanissetta Xirbi - Gela - Siracusa","type":"route","route":"railway","operator":"RFI","wikidata":"Q16555759","wikipedia":"it:Ferrovia Caltanissetta Xirbi-Gela-Siracusa","public_transport:version":"2"},"3629581":{"to":"Siracusa","ref":"152","from":"Messina","name":"Linea Messina - Siracusa","note":"ref: Fascicoli Circolazione Linee di RFI: http://normativaesercizio.rfi.it/NormativaEsercizio/","type":"route","route":"railway","operator":"RFI","wikidata":"Q370504","wikipedia":"it:Ferrovia Messina-Siracusa","operator:wikidata":"Q1060049"},"3776084":{"to":"Tarvisio Boscoverde","ref":"62","from":"Udine","name":"Pontebbana","type":"route","route":"railway","name:de":"Pontafelbahn","operator":"RFI","wikipedia":"it:Ferrovia Pontebbana","official_name":"Tarvisio Boscoverde - Udine","operator:wikidata":"Q1060049"},"4743096":{"to":"Gela","ref":"154","via":"Caltagirone","from":"Catania","name":"Linea Catania - Caltagirone - Gela","note":"ref: Fascicoli Circolazione Linee di RFI: http://normativaesercizio.rfi.it/NormativaEsercizio/","type":"route","route":"railway","operator":"RFI","wikidata":"Q802644","wikipedia":"it:Ferrovia Catania-Caltagirone-Gela"},"6335156":{"to":"Cervignano A.G.","ref":"65","from":"Udine","name":"Udine - Cervignano A.G.","type":"route","route":"railway","operator":"RFI","wikipedia":"it:Ferrovia Udine-Cervignano","operator:wikidata":"Q1060049"},"6694905":{"ref":"30","name":"Ferrovia Piacenza - Cremona","type":"route","route":"railway","name:de":"Bahnstrecke Piacenza-Cremona","operator":"RFI","operator:wikidata":"Q1060049"},"6770774":{"ref":"32","name":"La Spezia-Pisa","type":"route","route":"railway","network":"Infrastruttura ferroviaria nazionale","operator":"RFI"},"7345503":{"ref":"82","name":"Linea Bologna-Firenze","type":"route","route":"railway","name:de":"Bahnstrecke Bologna-Firenze","operator":"RFI","operator:wikidata":"Q1060049"},"7358317":{"to":"Cervignano Smistamento","ref":"65","from":"Posto Movimento Vat","name":"P.M. Vat - Cervignano Smistamento","type":"route","route":"railway","operator":"RFI","operator:wikidata":"Q1060049"},"7795902":{"to":"Trieste Centrale","ref":"63","from":"Latisana L.B.","name":"Portgruaro C. - Trieste C.le (tratto Latisana - Trieste C.le)","type":"route","route":"railway","operator":"RFI","wikipedia":"it:Ferrovia Venezia-Trieste","operator:wikidata":"Q1060049"},"8400077":{"ref":"30","name":"Ferrovia Treviglio-Cremona","type":"route","route":"railway","operator":"Rete Ferroviaria Italiana","public_transport:version":"1"},"10071532":{"to":"Palermo Centrale","ref":"153","from":"Messina Centrale","name":"Linea Messina Centrale - Palermo Centrale / Bivio Terme Vigliatore - Patti-San Piero Patti","note":"ref: Fascicoli Circolazione Linee di RFI: http://normativaesercizio.rfi.it/NormativaEsercizio/","type":"route","route":"railway","operator":"RFI","wikidata":"Q802762","wikipedia":"it:Ferrovia Palermo-Messina","operator:wikidata":"Q1060049"},"10655247":{"to":"Ronchi dei Leg. Nord","ref":"64","from":"Ronchi dei Leg. Sud","name":"Ronchi D.Leg Sud - Ronchi D.Leg Nord","type":"route","route":"railway","operator":"RFI"},"10655439":{"to":"Udine Parco","ref":"62","from":"Posto Movimento Vat","name":"Linea di cintura di Udine","type":"route","route":"railway","operator":"RFI","wikipedia":"it:Linea di cintura (Udine)","official_name":"P.M. Vat - Udine Parco"},"10676698":{"to":"Confine di Stato","ref":"62","from":"Tarvisio Boscoverde","name":"Ferrovia Rodolfiana","type":"route","route":"railway","operator":"RFI","wikipedia":"it:Ferrovia Rodolfiana","official_name":"Tarvisio Boscoverde - Udine","operator:wikidata":"Q1060049"},"10677030":{"to":"Sacile","ref":"62","from":"Udine","name":"Pontebbana","type":"route","route":"railway","operator":"RFI","wikipedia":"it:Ferrovia Pontebbana","official_name":"Udine - Venezia (tratto Udine - Sacile)","operator:wikidata":"Q1060049"},"10677628":{"to":"Cervignano A.G.","ref":"63","from":"Torviscosa","name":"Torviscosa - Cervignano A.G.","type":"route","route":"railway","operator":"RFI","wikipedia":"it:Ferrovia Venezia-Trieste"},"10677868":{"to":"Confine di Stato","ref":"63","from":"Villa Opicina","name":"Ferrovia Meridionale","type":"route","route":"railway","operator":"RFI","wikipedia":"it:Ferrovia Meridionale","official_name":"Trieste C.le - Villa Opicina","operator:wikidata":"Q1060049"},"10677869":{"to":"Villa Opicina","ref":"63","from":"Trieste Centrale","name":"Ferrovia Meridionale","type":"route","route":"railway","operator":"RFI","wikipedia":"it:Ferrovia Meridionale","official_name":"Trieste C.le - Villa Opicina","operator:wikidata":"Q1060049"},"10678015":{"to":"Trieste Centrale","ref":"64","via":"Gorizia Centrale","from":"Udine","name":"Udine - Trieste C.le","type":"route","route":"railway","operator":"RFI","wikipedia":"it:Ferrovia Udine-Trieste","operator:wikidata":"Q1060049"},"10678375":{"to":"Portogruaro C.","ref":"66","from":"Casarsa","name":"Casarsa - Portogruaro C.","type":"route","route":"railway","operator":"RFI","wikipedia":"it:Ferrovia Casarsa-Portogruaro","operator:wikidata":"Q1060049"},"10678970":{"to":"Trieste Campo Marzio","ref":"67","from":"Trieste Centrale","name":"Trieste C.le - Trieste Campo Marzio","type":"route","route":"railway","operator":"RFI","wikipedia":"it:Linea di cintura (Trieste)","operator:wikidata":"Q1060049"},"13165261":{"to":"Trapani","ref":"158","from":"Palermo Centrale","name":"Linea Palermo Notarbartolo - Punta Raisi / Piraineto - Trapani / Palermo Centrale - Palermo Sampolo / Alcamo Dne - Catelvetrano - Trapani","note":"ref: Fascicoli Circolazione Linee di RFI: https://normativaesercizio.rfi.it/NormativaEsercizio/","type":"route","route":"railway","operator":"RFI","public_transport:version":"2"},"13271799":{"to":"Palermo Centrale","ref":"156","from":"Agrigento Centrale","name":"Linea Agrigento Centrale - Palermo Centrale","note":"ref: Fascicoli Circolazione Linee di RFI: https://normativaesercizio.rfi.it/NormativaEsercizio/","type":"route","route":"railway","operator":"RFI"},"15317508":{"to":"Palermo Centrale","ref":"157","from":"Caltanissetta Centrale","name":"Linea Caltanissetta Centrale - Palermo Centrale","note":"ref: Fascicoli Circolazione Linee di RFI: https://normativaesercizio.rfi.it/NormativaEsercizio/","type":"route","route":"railway","operator":"RFI"},"15737281":{"to":"Primolano","ref":"49","from":"Trento","name":"Ferrovia Trento - Primolano","type":"route","route":"railway","operator":"RFI","operator:wikidata":"Q1060049"}}