{"1831323":{"ref":"CB","name":"御殿場線","type":"route","route":"railway","colour":"#447442","name:de":"Gotemba-Linie","name:en":"JR Gotemba Line","name:es":"Línea JR Gotemba","name:ja":"御殿場線","network":"静岡地区","operator":"東海旅客鉄道","name:ja_rm":"Gotemba-sen","network:en":"Shizouka Area","operator:en":"JR Central","public_transport:version":"1"},"1832484":{"ref":"名鉄蒲郡","name":"名古屋鉄道蒲郡線","type":"route","route":"railway","name:de":"Nagoyabahn Gamagōri-Line","name:en":"Meitetsu Gamagōri Line","name:ja":"名古屋鉄道蒲郡線","operator":"名古屋鉄道","name:ja_rm":"Meitetsu Gamagōri-sen","operator:en":"Meitetsu"},"1832485":{"ref":"H","name":"JR東西線","type":"route","route":"railway","colour":"#FF1493","name:en":"JR Tōzai Line","name:es":"Línea JR Tōzai","name:ja":"JR東西線","network":"アーバンネットワーク","operator":"西日本旅客鉄道","operator:en":"West Japan Railway Company"},"1832486":{"ref":"C","name":"JR草津線","type":"route","route":"railway","colour":"#60AD3B","name:de":"JR Kusatsu-Linie","name:en":"JR Kusatsu Line","name:ja":"JR草津線","operator":"西日本旅客鉄道","operator:en":"West Japan Railway Company","operator:ja":"西日本旅客鉄道","operator:wikidata":"Q502125"},"1832686":{"ref":"B","name":"JR湖西線","type":"route","route":"railway","colour":"#00BFFF","name:de":"JR Kosei-Linie","name:en":"JR Kosei Line","name:ja":"JR湖西線","network":"アーバンネットワーク","operator":"西日本旅客鉄道","operator:en":"West Japan Railway Company"},"1837932":{"ref":"山陽新幹線","name":"山陽新幹線","type":"route","route":"railway","ref:en":"Sanyo Shinkansen","source":"GSI ortorectified","name:de":"Sanyō-Shinkansen","name:en":"Sanyo Shinkansen","name:es":"Sanyō Shinkansen","name:ja":"山陽新幹線","operator":"西日本旅客鉄道","wikidata":"Q615964","wikipedia":"ja:山陽新幹線","name:ja_rm":"Sanyō-Shinkansen","operator:en":"West Japan Railway Company","operator:ja":"西日本旅客鉄道","operator:wikidata":"Q502125","public_transport:version":"1"},"1839669":{"ref":"K","name":"JR姫新線","type":"route","route":"railway","name:de":"JR Kishin-Linie","name:en":"JR Kishin Line","name:ja":"JR姫新線","operator":"西日本旅客鉄道","operator:en":"West Japan Railway Company","operator:ja":"西日本旅客鉄道","operator:wikidata":"Q502125"},"1839695":{"ref":"D","name":"JR山陰線","type":"route","route":"railway","name:de":"JR Sanin-Hauptlinie","name:en":"JR Sanin Main Line","name:ja":"JR山陰線","name:zh":"山陰本線","operator":"西日本旅客鉄道","operator:en":"West Japan Railway Company","operator:ja":"西日本旅客鉄道","operator:wikidata":"Q502125"},"1843088":{"ref":"G","name":"JR福知山線","type":"route","route":"railway","name:de":"JR Fukuchiyama-Linie","name:en":"JR Fukuchiyama Line","name:ja":"JR福知山線","operator":"西日本旅客鉄道","operator:en":"West Japan Railway Company","operator:ja":"西日本旅客鉄道","operator:wikidata":"Q502125"},"1855481":{"ref":"Y","name":"JR呉線","type":"route","route":"railway","name:de":"JR Kure-Linie","name:en":"JR Kure Line","name:es":"Línea JR Kure","name:ja":"JR呉線","network":"広島シティネットワーク","operator":"西日本旅客鉄道","operator:en":"West Japan Railway Company","public_transport:version":"2"},"1855483":{"ref":"T","name":"JR津山線","type":"route","route":"railway","name:de":"JR Tsuyama-Linie","name:en":"JR Tsuyama Line","name:es":"Línea Tsuyama","name:fr":"Ligne Tsuyama","name:ja":"JR津山線","name:nl":"Tsuyama-lijn","operator":"西日本旅客鉄道","wikidata":"Q7850362","wikipedia":"ja:津山線","operator:en":"West Japan Railway Company","operator:ja":"西日本旅客鉄道","operator:wikidata":"Q502125"},"1855762":{"to":"琴電琴平","ref":"K","from":"高松築港","name":"高松琴平電気鉄道琴平線","type":"route","route":"railway","colour":"yellow","name:de":"Kotoden Kotohira-Linie","name:en":"Kotoden Kotohira Line (southbound)","name:es":"Línea Kotoden Kotohira (hacia sur)","name:ja":"高松琴平電気鉄道琴平線 (高松築港=>琴電琴平)","network":"ことでん","interval":"15","operator":"高松琴平電気鉄道","wikidata":"Q5371397","wikipedia":"ja:高松琴平電気鉄道琴平線","network:en":"Kotoden","note:route":"The network is considered as \\\"tram\\\". However, it meets the requirements to be a \\\"light rail\\\" with the possibility of being a \\\"light metro\\\" (LRT) for years to come.","route:source":"http://www.kotoden.co.jp/publichtm/kotoden/irucabox/img/train/191130t.pdf","opening_hours":"Sa-Th 05:30-22:30; Fr 05:30-23:10","interval:source":"http://www.kotoden.co.jp/publichtm/kotoden/time/index-eg.htm","interval:conditional":"7 @ (Mo-Fr 08:00-08:50); 10 @ (Mo-Fr 18:00-22:00); 20 @ (Sa-Th 22:30-22:30; Fr 22:30-23:10)","public_transport:version":"2"},"1860848":{"ref":"Q","name":"JR関西本線","type":"route","route":"railway","name:de":"JR Kansai-Hauptlinie","name:en":"JR Kansai Main Line","name:ja":"JR関西本線","network":"アーバンネットワーク","alt_name":"JR関西線","operator":"西日本旅客鉄道","reg_name":"JR大和路線","alt_name:en":"JR Kansai Line","alt_name:ja":"JR関西線","description":"加茂-JR難波","reg_name:en":"JR Yamatoji Line","reg_name:ja":"JR大和路線","name:ja-Hira":"じぇいあーるかんさいほんせん","name:ja-Latn":"JR Kansai honsen","alt_name:ja-Hira":"じぇいあーるかんさいせん","alt_name:ja-Latn":"JR Kansai sen","reg_name:ja-Hira":"じぇいあーるやまとじせん","reg_name:ja-Latn":"JR Yamatoji sen","not:operator:wikidata":"Q502125"},"1864497":{"ref":"名鉄常滑","name":"名古屋鉄道常滑線","type":"route","route":"railway","name:en":"Meitetsu Tokoname Line","name:ja":"名古屋鉄道常滑線","operator":"名古屋鉄道","operator:en":"Meitetsu","operator:ja":"名古屋鉄道"},"1864758":{"ref":"O","name":"JR大阪環状線","type":"route","route":"railway","colour":"#E80000","name:de":"Osaka-Ringbahn","name:en":"Osaka Loop Line","name:es":"Línea Circular de Osaka","name:fr":"Ceinture ferroviaire d’Ōsaka","name:it":"Linea Circolare di Ōsaka","name:ja":"JR大阪環状線","name:ko":"JR 오사카환상선","name:nl":"Osaka-ringlijn","name:zh":"大阪環狀線","operator":"西日本旅客鉄道","wikidata":"Q1142127","wikipedia":"ja:大阪環状線","operator:en":"West Japan Railway Company","operator:ja":"西日本旅客鉄道","operator:wikidata":"Q502125","public_transport:version":"2"},"1864761":{"ref":"T","name":"JR和歌山線","type":"route","route":"railway","name:de":"JR Wakayama-Linie","name:en":"JR Wakayama Line","name:ja":"JR和歌山線","operator":"西日本旅客鉄道","operator:en":"West Japan Railway Company","not:operator:wikidata":"Q502125"},"1905259":{"ref":"JK","name":"JR根岸線","type":"route","route":"railway","colour":"#00BFFF","name:de":"Negishi-Linie","name:en":"Negishi Line","name:es":"Línea Negishi","name:ja":"JR根岸線","network":"根岸線","operator":"東日本旅客鉄道","wikidata":"Q1194511","wikipedia":"ja:根岸線","name:ja_rm":"JR Negishi-sen","operator:en":"East Japan Railway Company","operator:ja":"東日本旅客鉄道","operator:wikidata":"Q499071"},"1905462":{"ref":"KM","name":"名古屋鉄道小牧線","type":"route","route":"railway","name:en":"Meitetsu Komaki Line","name:ja":"名古屋鉄道小牧線","operator":"名古屋鉄道","operator:en":"Meitetsu","operator:ja":"名古屋鉄道","operator:wikidata":"Q30850","public_transport:version":"2"},"1920727":{"ref":"豊田線","name":"名古屋鉄道豊田線","type":"route","route":"railway","name:en":"Meitetsu Toyota Line","name:ja":"名古屋鉄道豊田線","operator":"名古屋鉄道","wikidata":"Q6810427","wikipedia":"ja:名鉄豊田線","operator:en":"Meitetsu","operator:ja":"名古屋鉄道","operator:wikidata":"Q30850"},"1921071":{"ref":"Eizan Main Line","name":"叡山電鉄叡山本線","type":"route","route":"railway","colour":"green","name:en":"Eizan Main Line","name:ja":"叡山電鉄叡山本線","operator":"叡山電鉄株式会社","operator:en":"Eizan Electric Railway"},"1924544":{"to":"宮内","ref":"JR上越線","from":"高崎","name":"上越線","type":"route","route":"railway","name:en":"JR Jōetsu Line","name:ja":"上越線","operator":"東日本旅客鉄道","operator:en":"East Japan Railway Company","operator:ja":"東日本旅客鉄道","operator:wikidata":"Q499071","public_transport:version":"1"},"1941061":{"ref":"L","name":"JR舞鶴線","type":"route","route":"railway","colour":"#4682B4","name:en":"JR Maizuru Line","name:ja":"JR舞鶴線","operator":"西日本旅客鉄道","operator:en":"West Japan Railway Company","operator:ja":"西日本旅客鉄道","operator:wikidata":"Q502125"},"1942963":{"ref":"小田原線 (Odawara Line)","name":"小田急電鉄小田原線","type":"route","route":"railway","name:de":"Odawara-Linie","name:en":"Odakyu Electric Railway Odawara Line","name:es":"Línea Odawara","name:ja":"小田急電鉄小田原線","operator":"小田急電鉄","name:ja_rm":"Odakyū Odawara-sen","operator:en":"Odakyu Electric Railway","public_transport:version":"1"},"1942964":{"ref":"OE","name":"小田急電鉄江ノ島線","type":"route","route":"railway","colour":"blue","name:en":"Odakyu Enoshima Railways","name:es":"Ferrovía Odakyu Enoshima","name:ja":"小田急電鉄江ノ島線","wikidata":"Q1058370","wikipedia":"ja:片瀬江ノ島駅","name:ja_rm":"Odakyū Enoshima-tetsudo","public_transport:version":"1"},"1947332":{"ref":"SS","name":"西武拝島線","type":"route","route":"railway","name:en":"Seibu Haijima Line","name:es":"Ferrovías de Seibu Haijima","name:ja":"西武拝島線","network":"西武新宿線","operator":"西武鉄道","wikidata":"Q211575","wikipedia":"ja:西武拝島線","name:ja_rm":"Seibu Haijima-sen"},"1947333":{"ref":"SS","name":"西武新宿線","type":"route","route":"railway","colour":"#01A4B0","name:en":"Seibu Shinjuku railways","name:es":"Ferrovías de Seibu Shinjuku","name:ja":"西武新宿線","network":"西武新宿線","operator":"西武鉄道","wikidata":"Q195685","wikipedia":"ja:西武新宿線","name:ja_rm":"Seibu Shinjuku-sen"},"1948975":{"ref":"JR奥羽線","name":"JR奥羽本線","type":"route","route":"railway","colour":"#ee7b28","ref:en":"JR Ou Line","name:de":"JR Ōu-Linie","name:en":"JR Ōu Line","name:ja":"JR奥羽本線","wikidata":"Q386495","wikipedia":"en:Ōu Main Line","public_transport:version":"1"},"1949282":{"ref":"JR吾妻線 (JR Agatsuma Line)","name":"吾妻線","type":"route","route":"railway","name:en":"JR Agatsuma Line","name:ja":"吾妻線","operator":"東日本旅客鉄道","name:ja_rm":"JR Agatsuma-sen","operator:en":"East Japan Railway Company","operator:ja":"東日本旅客鉄道","operator:wikidata":"Q499071","public_transport:version":"1"},"1950482":{"ref":"G","name":"JR予土線","type":"route","route":"railway","colour":"#0f9655","name:de":"JR Yodo-Linie","name:en":"JR Yodo Line","name:ja":"JR予土線","alt_name":"しまんとグリーンライン","operator":"四国旅客鉄道","alt_name:en":"Shimanto Green Line","operator:en":"Shikoku Railway Company","operator:ja":"四国旅客鉄道"},"1952692":{"ref":"ひだ","name":"ひだ","type":"route","route":"railway","name:en":"Hida","name:ja":"ひだ"},"1953707":{"to":"琴電志度","ref":"S","from":"瓦町","name":"高松琴平電気鉄道志度線","type":"route","route":"railway","colour":"pink","name:en":"Kotoden Shido Line (Eastbound)","name:es":"Línea Kotoden Shido (hacia este)","name:ja":"高松琴平電気鉄道志度線 (瓦町=>琴電志度)","network":"ことでん","interval":"15","operator":"高松琴平電気鉄道","wikidata":"Q5364907","wikipedia":"ja:高松琴平電気鉄道志度線","network:en":"Kotoden","note:route":"The network is considered as \\\"tram\\\". However, it meets the requirements to be a \\\"light rail\\\" with the possibility of being a \\\"light metro\\\" (LRT) for years to come.","name:ja-Latn":"Kotoden Shido-sen","route:source":"http://www.kotoden.co.jp/publichtm/kotoden/irucabox/img/train/191130t.pdf","opening_hours":"Sa-Th 05:30-22:30; Fr 05:30-23:10","interval:source":"http://www.kotoden.co.jp/publichtm/kotoden/time/index-eg.htm","interval:conditional":"7 @ (Mo-Fr 08:00-08:50); 10 @ (Mo-Fr 18:00-22:00); 20 @ (Sa-Th 22:30-22:30; Fr 22:30-23:10)","public_transport:version":"2"},"1953708":{"to":"瓦町","ref":"N","from":"長尾","name":"高松琴平電気鉄道長尾線","type":"route","route":"railway","colour":"green","name:en":"Kotoden Nagao Line (to NW)","name:es":"Línea Kotoden Nagao (al noreste)","name:ja":"高松琴平電気鉄道長尾線","network":"ことでん","interval":"15","operator":"高松琴平電気鉄道","wikidata":"Q5364831","wikipedia":"ja:高松琴平電気鉄道長尾線","network:en":"Kotoden","note:route":"The network is considered as \\\"tram\\\". However, it meets the requirements to be a \\\"light rail\\\" with the possibility of being a \\\"light metro\\\" (LRT) for years to come.","name:ja-Latn":"Kotoden Nagao-sen","route:source":"http://www.kotoden.co.jp/publichtm/kotoden/irucabox/img/train/191130t.pdf","opening_hours":"Sa-Th 05:30-22:30; Fr 05:30-23:10","interval:source":"http://www.kotoden.co.jp/publichtm/kotoden/time/index-eg.htm","interval:conditional":"7 @ (Mo-Fr 08:00-08:50); 10 @ (Mo-Fr 18:00-22:00); 20 @ (Sa-Th 22:30-22:30; Fr 22:30-23:10)","public_transport:version":"2"},"1956420":{"ref":"JR埼京線","name":"JR埼京線","type":"route","route":"railway","colour":"#3EB9A6","name:de":"Saikyō-Bahn","name:en":"JR Saikyo Line","name:es":"Línea JR Saikyo","name:ja":"JR埼京線","name:ru":"Линия JR Сайкё","name:ja_rm":"JR Saikyō sen"},"1983242":{"ref":"NS","name":"能勢電鉄妙見線","type":"route","route":"railway","name:en":"Noseden Myōken Line","name:ja":"能勢電鉄妙見線","network":"能勢電"},"1983243":{"ref":"NS","name":"能勢電鉄日生線","type":"route","route":"railway","name:en":"Noseden Nissei Line","name:ja":"能勢電鉄日生線"},"1984870":{"ref":"JR青梅線","name":"JR青梅線","type":"route","route":"railway","name:en":"JR Ome Line","name:ja":"JR青梅線","network":"青梅・五日市線","operator":"東日本旅客鉄道","name:ja_rm":"JR Ōme-sen","operator:en":"East Japan Railway Company","operator:ja":"東日本旅客鉄道","name:ja_kana":"JRおうめせん","operator:wikidata":"Q499071","public_transport:version":"1"},"1984872":{"ref":"SI","name":"西武鉄道狭山線","type":"route","route":"railway","name:en":"Seibu Sayama Line","name:ja":"西武鉄道狭山線"},"3978024":{"to":"びわ湖浜大津","ref":"OT","via":"京阪山科","from":"御陵","name":"京阪電気鉄道京津線","type":"route","route":"railway","colour":"#ffe100","name:en":"Keihan Electoric Railway Keishin line","name:es":"Línea Keihan Keishin","name:ja":"京阪電気鉄道京津線","network":"大津線","operator":"京阪電気鉄道","short_name":"京阪京津線","operator:en":"Keihan Electric Railway","name:ja-Hira":"けいはんでんきてつどうけいしんせん","name:ja-Latn":"Keihan denkitetsudō Keishin sen","short_name:en":"Keihan Keishin line","short_name:ja":"京阪京津線","short_name:ja-Hira":"けいはんけいしんせん","short_name:ja-Latn":"Keihan Keishin sen"},"5263248":{"ref":"JR左沢線 (JR Aterazawa Line)","name":"JR左沢線","type":"route","route":"railway","to:en":"Aterazawa","from:en":"Yamagata","name:de":"JR Aterazawa-Linie","name:en":"JR Aterazawa Line","name:ja":"JR左沢線","wikipedia":"ja:左沢線","name:ja_rm":"JR Aterazawa-sen","public_transport:version":"2"},"5329254":{"ref":"A","name":"JR京都線","type":"route","route":"railway","name:de":"JR Kyoto-Linie","name:en":"JR Kyoto Line","name:ja":"JR京都線","name:ko":"JR 교토선","network":"アーバンネットワーク","operator":"西日本旅客鉄道","operator:en":"West Japan Railway Company","operator:ja":"西日本旅客鉄道","operator:wikidata":"Q502125"},"5331507":{"ref":"A","name":"JR琵琶湖線","type":"route","route":"railway","name:en":"JR Biwako Line","name:ja":"JR琵琶湖線","name:ru":"Линия Бивако"},"5361845":{"ref":"山形新幹線","name":"山形新幹線","type":"route","route":"railway","ref:en":"JR Yamagata Shinkansen","name:en":"JR Yamagata Shinkansen","name:es":"JR Tohoku Shinkansen","name:it":"Yamagata Shinkansen","name:ja":"山形新幹線","name:ja-Latn":"Yamagata-Shinkansen","public_transport:version":"1"},"5361971":{"to":"秋田","ref":"秋田新幹線","from":"東京","name":"秋田新幹線","note":"東京駅 - 盛岡駅間経由東北新幹線直通運転","type":"route","route":"railway","ref:en":"JR Akita Shinkansen","name:en":"JR Akita Shinkansen","name:ja":"秋田新幹線","wikidata":"Q220696","wikipedia":"sv:Akita Shinkansen","name:ja_rm":"Akita-Shinkansen","public_transport:version":"1"},"5426443":{"ref":"山手貨物線","name":"山手線 (貨物線)","type":"route","route":"railway","ref:en":"JR Yamanote Freight Line","name:de":"Yamanote Fernbahn-Strecke","name:en":"JR Yamanote Freight Line","name:es":"Línea de carga JR Yamanote","alt_name":"山手貨物線","operator":"東日本旅客鉄道","operator:en":"East Japan Railway Company","operator:ja":"東日本旅客鉄道","operator:wikidata":"Q499071"},"5426444":{"ref":"JT","name":"東海道本線 (品鶴線)","type":"route","route":"railway","name:de":"Shibenzu-Bahn","name:en":"Tokaido Main Line (Shibenzu Line)","name:es":"Línea principal de Tokaido (línea Shibenzu)","operator":"東日本旅客鉄道","operator:en":"East Japan Railway Company","operator:ja":"東日本旅客鉄道","operator:wikidata":"Q499071"},"5486514":{"ref":"西武豊島線 (Seibu Toshima Line)","name":"西武豊島線","type":"route","route":"railway","ref:en":"Seibu Toshima Line","name:en":"Seibu Toshima Line (railway)","name:es":"Línea Seibu Toshima (ferrovía)","name:ja":"西武豊島線","name:ja_rm":"Seibu Toshima-sen","public_transport:version":"1"},"6095295":{"ref":"I","name":"JR加古川線","type":"route","route":"railway","name:en":"JR Kakogawa Line","operator":"西日本旅客鉄道","operator:en":"West Japan Railway Company","operator:ja":"西日本旅客鉄道","operator:wikidata":"Q502125"},"9268256":{"ref":"JC","name":"JR福北ゆたか線","type":"route","route":"railway","colour":"#faaf18","name:de":"JR Fukuhoku-Yutaka-Bahn","name:en":"JR Fukuhoku Yutaka Line","name:ja":"JR福北ゆたか線","operator":"九州旅客鉄道","wikidata":"Q5507634","wikipedia":"ja:福北ゆたか線","operator:en":"Kyushu Railway Company","operator:ja":"九州旅客鉄道","operator:ja_rm":"Kyūshū Ryokaku Tetsudō","operator:wikidata":"Q498366"},"9282834":{"ref":"R","name":"東京臨海高速鉄道りんかい線","note":"Old version. Use the next relation instead.","type":"route","route":"railway","to:en":"Shin-kiba","from:en":"Ōsaki","name:de":"Rinkai-Bahn","name:en":"Rinkai Line","name:es":"Línea Rinkai","name:ja":"東京臨海高速鉄道りんかい線","operator":"東京臨海高速鉄道 (TWR)","operator:en":"Tokyo Waterfront Area Rapid Transit","operator:ja":"東京臨海高速鉄道","public_transport:version":"1"},"9283014":{"ref":"JR京浜東北線 (JR Keihin-Tōhoku Line)","name":"JR京浜東北線","note":"Railway collection only","type":"route","route":"railway","name:de":"Keihin-Tōhoku-Bahn","name:en":"JR Keihin-Tōhoku Line (railway)","name:es":"Línea JR Keihin-Tōhoku (rieles)","name:it":"Linea JR Keihin-Tohoku (ferroviaria)","name:ja":"JR京浜東北線","wikipedia":"en:Keihin-Tōhoku Line","name:ja-Latn":"JR Keihin-Tōhokusen","public_transport:version":"1"},"9486461":{"ref":"JM","name":"JR武蔵野線","type":"route","route":"railway","name:de":"Musashino-Bahn","name:en":"JR Musashino Line (Rail)","name:es":"Línea JR Musashino (Rieles)","name:ja":"JR武蔵野線","distance":"71.8","operator":"東日本旅客鉄道","passenger":"yes","name:ja_rm":"JR Musashino-sen","operator:en":"East Japan Railway Company","operator:ja":"東日本旅客鉄道","operator:wikidata":"Q499071","public_transport:version":"1"},"9498744":{"to":"泉岳寺","ref":"KK","from":"泉岳寺","name":"京浜急行電鉄本線","type":"route","route":"railway","name:en":"Keikyū Main Line (Railway)","name:es":"Línea Keikyu principal (Ferrovía)","name:ja":"京浜急行電鉄本線","network":"京急電鉄","operator":"京浜急行電鉄","wikidata":"Q1063632","wikipedia":"en:Keikyū Main Line","name:ja_rm":"Keikyū Honsen","operator:en":"Keikyu Corporation","operator:ja":"京浜急行電鉄","public_transport:version":"2"},"9507252":{"ref":"ST","name":"西武多摩湖線","type":"route","route":"railway","name:en":"Seibu Tamako railways","name:es":"Ferrovías de Seibu Tamako","name:ja":"西武多摩湖線","name:ja_rm":"Seibu Tamako-sen","name:ja_kana":"せいぶたまこせん"},"9555850":{"ref":"JN","name":"JR南武線","type":"route","route":"railway","colour":"#FFFF00","name:de":"Nambu-Linie","name:en":"JR Nambu Line (railways)","name:es":"Línea JR Nambu (ferrovías)","name:ja":"JR南武線","operator":"東日本旅客鉄道","name:ja_rm":"JR Nanbu Sen","operator:en":"East Japan Railway Company","operator:ja":"東日本旅客鉄道","network:note":"See https://ja.wikipedia.org/wiki/%E6%9D%B1%E4%BA%AC%E3%83%A1%E3%82%AC%E3%83%AB%E3%83%BC%E3%83%97","network:metro":"東京メガループ","operator:wikidata":"Q499071"},"10240098":{"ref":"JI","name":"JR鶴見線","type":"route","route":"railway","name:en":"JR Tsurumi Line","wikidata":"Q1195170","wikipedia":"ja:鶴見線"},"10312042":{"ref":"JB","name":"中央・総武緩行線","type":"route","route":"railway","name:en":"JR Chūō-Sōbu Line (railway)","name:es":"Línea JR Chuo-Sobu (rieles)","name:it":"Linea JR Chuo-Sobu (ferrovia)","name:ja":"JR中央・総武緩行線","name:zh":"中央·總武緩行線","name:ja-Latn":"Chūō-Sōbu-kankō-sen","public_transport:version":"2"},"10535229":{"ref":"OH","name":"箱根登山鉄道鉄道線","type":"route","route":"railway","colour":"#FF4500","name:en":"Hakone Tozan Line (railway)","name:es":"Línea Hakone Tozan (rieles)","name:ja":"箱根登山鉄道鉄道線","network":"箱根登山鉄道","distance":"15","operator":"箱根登山鉄道","wikidata":"Q1134480","wikipedia":"ja:箱根登山鉄道鉄道線"},"11070635":{"ref":"V","name":"JR関西本線","type":"route","route":"railway","name:en":"JR Kansai Main Line","name:ja":"JR関西本線","network":"JR関西本線","alt_name":"JR関西線","operator":"西日本旅客鉄道","alt_name:en":"JR Kansai Line","alt_name:ja":"JR関西線","description":"亀山-加茂間","operator:en":"West Japan Railway Company","operator:ja":"西日本旅客鉄道","name:ja-Hira":"じぇいあーるかんさいほんせん","name:ja-Latn":"JR Kansai honsen","alt_name:ja-Hira":"じぇいあーるかんさいせん","alt_name:ja-Latn":"JR Kansai sen","operator:wikidata":"Q502125"},"11135398":{"to":"高松築港","ref":"K","from":"琴電琴平","name":"高松琴平電気鉄道琴平線","type":"route","route":"railway","colour":"yellow","name:de":"Kotoden Kotohira-Linie","name:en":"Kotoden Kotohira Line (northbound)","name:es":"Línea Kotoden Kotohira (hacia norte)","name:ja":"高松琴平電気鉄道琴平線 (琴電琴平=>高松築港)","network":"ことでん","interval":"15","operator":"高松琴平電気鉄道","wikidata":"Q5371397","wikipedia":"ja:高松琴平電気鉄道琴平線","network:en":"Kotoden","note:route":"The network is considered as \\\"tram\\\". However, it meets the requirements to be a \\\"light rail\\\" with the possibility of being a \\\"light metro\\\" (LRT) for years to come.","route:source":"http://www.kotoden.co.jp/publichtm/kotoden/irucabox/img/train/191130t.pdf","opening_hours":"Sa-Th 05:30-22:30; Fr 05:30-23:10","interval:source":"http://www.kotoden.co.jp/publichtm/kotoden/time/index-eg.htm","interval:conditional":"7 @ (Mo-Fr 08:00-08:50); 10 @ (Mo-Fr 18:00-22:00); 20 @ (Sa-Th 22:30-22:30; Fr 22:30-23:10)","public_transport:version":"2"},"11135400":{"to":"瓦町","ref":"S","from":"琴電志度","name":"高松琴平電気鉄道志度線","type":"route","route":"railway","colour":"pink","name:en":"Kotoden Shido Line (Westbound)","name:es":"Línea Kotoden Shido (hacia oeste)","name:ja":"高松琴平電気鉄道志度線 (琴電志度=>瓦町)","network":"ことでん","interval":"15","operator":"高松琴平電気鉄道","wikidata":"Q5364907","wikipedia":"ja:高松琴平電気鉄道志度線","network:en":"Kotoden","note:route":"The network is considered as \\\"tram\\\". However, it meets the requirements to be a \\\"light rail\\\" with the possibility of being a \\\"light metro\\\" (LRT) for years to come.","name:ja-Latn":"Kotoden Shido-sen","route:source":"http://www.kotoden.co.jp/publichtm/kotoden/irucabox/img/train/191130t.pdf","opening_hours":"Sa-Th 05:30-22:30; Fr 05:30-23:10","interval:source":"http://www.kotoden.co.jp/publichtm/kotoden/time/index-eg.htm","interval:conditional":"7 @ (Mo-Fr 08:00-08:50); 10 @ (Mo-Fr 18:00-22:00); 20 @ (Sa-Th 22:30-22:30; Fr 22:30-23:10)","public_transport:version":"2"},"11135411":{"to":"長尾","ref":"N","from":"瓦町","name":"高松琴平電気鉄道長尾線","type":"route","route":"railway","colour":"green","name:en":"Kotoden Nagao Line (to SE)","name:es":"Línea Kotoden Nagao (al sureste)","name:ja":"高松琴平電気鉄道長尾線","network":"ことでん","interval":"15","operator":"高松琴平電気鉄道","wikidata":"Q5364831","wikipedia":"ja:高松琴平電気鉄道長尾線","network:en":"Kotoden","note:route":"The network is considered as \\\"tram\\\". However, it meets the requirements to be a \\\"light rail\\\" with the possibility of being a \\\"light metro\\\" (LRT) for years to come.","name:ja-Latn":"Kotoden Nagao-sen","route:source":"http://www.kotoden.co.jp/publichtm/kotoden/irucabox/img/train/191130t.pdf","opening_hours":"Sa-Th 05:30-22:30; Fr 05:30-23:10","interval:source":"http://www.kotoden.co.jp/publichtm/kotoden/time/index-eg.htm","interval:conditional":"7 @ (Mo-Fr 08:00-08:50); 10 @ (Mo-Fr 18:00-22:00); 20 @ (Sa-Th 22:30-22:30; Fr 22:30-23:10)","public_transport:version":"2"},"11177980":{"to":"新神戸","ref":"S","from":"谷上","name":"神戸市営地下鉄北神線","type":"route","route":"railway","colour":"#9A6E5F","name:en":"Kobe City Subway Hokushin line","name:ja":"神戸市営地下鉄北神線 (谷上=>新神戸)","name:ko":"고베시영 지하철 호쿠신 선","network":"神戸市営地下鉄","old_name":"北神急行電鉄北神線","operator":"神戸市交通局","wikidata":"Q5358551","wikipedia":"en:Hokushin Line","old_name:en":"Hokushin kyuko railway Hokushin line","old_name:ja":"北神急行電鉄北神線","old_name:ko":"호쿠신 급행 전철 호쿠신 선","operator:ja":"神戸市交通局","name:ja-Hira":"こうべしえいちかてつほくしんせん","name:ja-Latn":"kōbe shiei chikatetsu Hokushin sen","name:zh-Hans":"神户市营地铁北神线","name:zh-Hant":"神戶市營地下鐵北神線","old_name:ja-Hira":"ほくしんきゅうこうでんてつほくしんせん","old_name:ja-Latn":"Hokushin kyūkō dentetsu Hokushin sen","old_name:zh-Hans":"北神急行电铁北神线","old_name:zh-Hant":"北神急行電鐵北神線","public_transport:version":"2"},"11487820":{"ref":"D","name":"JR奈良線","type":"route","route":"railway","name:de":"JR Nara-Linie","name:en":"JR Nara Line","name:es":"JR Línea Nara","name:ja":"JR奈良線","network":"アーバンネットワーク","operator":"西日本旅客鉄道","network:ja":"アーバンネットワーク","operator:en":"West Japan Railway Company","operator:ja":"西日本旅客鉄道","name:ja-Hira":"じぇいあーるならせん","name:ja-Latn":"JR Nara sen","network:wikidata":"Q5370577","operator:wikidata":"Q502125"},"11680392":{"ref":"P","name":"JR芸備線","type":"route","route":"railway","name:de":"JR Geibi-Linie (Urban section)","name:en":"JR Geibi Line (Urban section)","name:ja":"JR芸備線","operator":"西日本旅客鉄道","operator:en":"West Japan Railway Company","not:operator:wikidata":"Q502125"},"11680873":{"ref":"G","name":"JR宝塚線","type":"route","route":"railway","name:de":"JR Takarazuka-Linie","name:en":"JR Takarazuka Line","name:es":"Línea JR Takarazuka","name:ja":"JR福知山線","network":"アーバンネットワーク","operator":"西日本旅客鉄道","operator:en":"West Japan Railway Company","operator:ja":"西日本旅客鉄道","operator:wikidata":"Q502125"},"11801495":{"ref":"TI","name":"東武鉄道桐生線","type":"route","route":"railway","name:en":"Tōbu Kiryū Line (railway)","name:es":"Línea Tobu Kiryū (rieles)","name:ja":"東武鉄道桐生線","name:ja_rm":"Tōbu Kiryū-sen"},"11809903":{"to":"尼崎","ref":"H","from":"京橋","name":"JR東西線","type":"route","route":"railway","name:en":"JR Tōzai Line","name:es":"Línea JR Tōzai","name:ja":"JR東西線","operator":"西日本旅客鉄道","wikidata":"Q1072835","wikipedia":"en:JR Tōzai Line","operator:en":"West Japan Railway Company","public_transport:version":"1"},"11987947":{"ref":"JR仙石東北ライン","name":"JR仙石東北ライン","type":"route","route":"railway","name:en":"JR Senseki-Tohoku Line","name:es":"Línea JR Senseki-Tohoku","name:ja":"JR仙石線","operator":"東日本旅客鉄道","name:ja_rm":"JR Senseki-Tohoku-rain","operator:en":"East Japan Railway Company","operator:ja":"東日本旅客鉄道","operator:wikidata":"Q499071"},"12045455":{"to":"谷上","ref":"S","from":"新神戸","name":"神戸市営地下鉄北神線","type":"route","route":"railway","colour":"#9A6E5F","name:en":"Kobe City Subway Hokushin line","name:ja":"神戸市営地下鉄北神線 (新神戸=>谷上)","name:ko":"고베시영 지하철 호쿠신 선","network":"神戸市営地下鉄","old_name":"北神急行電鉄北神線","operator":"神戸市交通局","wikidata":"Q5358551","wikipedia":"en:Hokushin Line","old_name:en":"Hokushin kyuko railway Hokushin line","old_name:ja":"北神急行電鉄北神線","old_name:ko":"호쿠신 급행 전철 호쿠신 선","operator:ja":"神戸市交通局","name:ja-Hira":"こうべしえいちかてつほくしんせん","name:ja-Latn":"kōbe shiei chikatetsu Hokushin sen","name:zh-Hans":"神户市营地铁北神线","name:zh-Hant":"神戶市營地下鐵北神線","old_name:ja-Hira":"ほくしんきゅうこうでんてつほくしんせん","old_name:ja-Latn":"Hokushin kyūkō dentetsu Hokushin sen","old_name:zh-Hans":"北神急行电铁北神线","old_name:zh-Hant":"北神急行電鐵北神線","public_transport:version":"2"},"12166229":{"to":"三宮・花時計前","ref":"K","from":"新長田","name":"神戸市営地下鉄海岸線","type":"route","route":"railway","colour":"#267DCE","name:en":"Kaigan Line (For Sannomiya-Hanadokeimae)","name:ja":"神戸市営地下鉄海岸線 (新長田=>三宮・花時計前)","network":"神戸市営地下鉄","operator":"神戸市交通局","wikidata":"Q844019","wikipedia":"en:Kaigan Line","public_transport:version":"2"},"12166230":{"to":"新長田","ref":"K","from":"三宮・花時計前","name":"神戸市営地下鉄海岸線","type":"route","route":"railway","colour":"#267DCE","name:en":"Kaigan Line (For Shinnagata)","name:ja":"神戸市営地下鉄海岸線 (三宮・花時計前=>新長田)","network":"神戸市営地下鉄","operator":"神戸市交通局","wikidata":"Q844019","wikipedia":"en:Kaigan Line","public_transport:version":"2"},"12166294":{"to":"西神中央","ref":"S","from":"新神戸","name":"神戸市営地下鉄西神・山手線","type":"route","route":"railway","colour":"#00AE8E","name:en":"Seishin-Yamate Line (Westbound)","name:ja":"神戸市営地下鉄西神・山手線 (新神戸=>西神中央)","network":"神戸市営地下鉄","operator":"神戸市交通局","wikidata":"Q1066548","wikipedia":"ja:神戸市営地下鉄西神・山手線","public_transport:version":"2"},"12166295":{"to":"新神戸","ref":"S","from":"西神中央","name":"神戸市営地下鉄西神・山手線","type":"route","route":"railway","colour":"#00AE8E","name:en":"Seishin-Yamate Line (Eastbound)","name:ja":"神戸市営地下鉄西神・山手線 (西神中央=>新神戸)","network":"神戸市営地下鉄","operator":"神戸市交通局","wikidata":"Q1066548","wikipedia":"ja:神戸市営地下鉄西神・山手線","public_transport:version":"2"},"12611963":{"ref":"JR奥羽線","name":"JR奥羽本線","type":"route","route":"railway","colour":"#ee7b28","ref:en":"JR Ou Line","name:de":"JR Ōu-Linie (normalspurig)","name:en":"JR Ōu Main Line (standard gauge)","name:ja":"JR奥羽本線","wikidata":"Q386495","wikipedia":"en:Ōu Main Line","public_transport:version":"1"}}