{"3836129":{"name":"평부선","type":"route","route":"railway","name:en":"Pyongbu Line","name:ja":"平釜線","name:ko":"평부선","name:ru":"линия Пхёнбусон","name:zh":"平釜线","network":"조선민주주의인민공화국 철도성","wikidata":"Q483330","wikipedia":"en:Pyongbu Line","name:ko-Hani":"平釜線"},"3837029":{"name":"평라선","type":"route","route":"railway","name:en":"Pyongna Line","name:ko":"평라선","name:ru":"линия Пхённасон","name:zh":"平罗线","network":"조선민주주의인민공화국 철도성","wikidata":"Q196027","wikipedia":"en:Pyongra Line","name:ko-Hani":"平羅線","name:zh-Hant":"平羅線"},"3839235":{"name":"평의선","type":"route","route":"railway","name:en":"Pyongui Line","name:ja":"平義線","name:ko":"평의선","name:ru":"линия Пхёнъисон","name:zh":"平义线","network":"조선민주주의인민공화국 철도성","wikidata":"Q704426","wikipedia":"en:Pyongui Line","name:ko-Hani":"平義線","name:zh-Hant":"平義線"},"3839265":{"name":"평남선","type":"route","route":"railway","name:en":"Pyongnam Line","name:ko":"평남선","name:ru":"линия Пхённамсон","name:zh":"平南线","network":"조선민주주의인민공화국 철도성","wikidata":"Q704196","wikipedia":"en:Pyongnam Line","name:ko-Hani":"平南線","name:zh-Hant":"平南線"},"3839842":{"name":"강원선","type":"route","route":"railway","name:en":"Kangwon Line","name:ja":"江原線","name:ko":"강원선","name:ru":"линия Канвонсон","name:zh":"江原线","network":"조선민주주의인민공화국 철도성","operator":"조선민주주의인민공화국 철도","wikidata":"Q701581","wikipedia":"en:Kangwon Line","name:ko-Hani":"江原線","name:zh-Hant":"江原線"},"5139896":{"name":"평북선","type":"route","route":"railway","name:fr":"ligne P'yŏngbuk","name:ko":"평북선","name:ru":"линия Пхёнбуксон","name:zh":"平北线","network":"조선민주주의인민공화국 철도성","wikidata":"Q7263141","name:ko-Hani":"平北線"},"6331371":{"name":"삼지연선 구 노선","type":"route","fixme":"What are the correct Korean name and Russian name (Old Line)? The Korean name is translated by google.","route":"railway","name:en":"Old Samjiyon Line","name:ko":"삼지연선 구 노선","name:ru":"линия Самджиёнсон","name:zh":"三池渊线旧线","network":"조선민주주의인민공화국 철도성","end_date":"1994","wikidata":"Q5368678","wikipedia":"en:Samjiyon Line","start_date":"1948","name:ko-Hani":"三池淵線舊路線","name:zh-Hant":"三池淵線舊線"},"6346666":{"name":"함북선","type":"route","route":"railway","usage":"main","name:en":"Hambuk Line","name:ko":"함북선","name:ru":"линия Хамбуксон","name:zh":"咸北线","network":"조선민주주의인민공화국 철도성","wikidata":"Q704210","wikipedia":"en:Hambuk Line","name:ko-Hani":"咸北線","name:zh-Hant":"咸北線"},"6346667":{"name":"홍의선","type":"route","route":"railway","name:en":"Hongui Line","name:ko":"홍의선","name:ru":"линия Хонъисон","name:zh":"洪儀線","network":"조선민주주의인민공화국 철도성"},"6346767":{"name":"백두산청년선","type":"route","route":"railway","name:en":"Paektusan Ch'ŏngnyŏn Line","name:ja":"白頭山青年線","name:ko":"백두산청년선","name:ru":"линия Пэктусан-Чхоннёнсон","name:zh":"白头山青年线","network":"조선민주주의인민공화국 철도성","wikidata":"Q705519","name:ko-Hani":"白頭山靑年線"},"6353073":{"name":"세천선","type":"route","route":"railway","name:en":"Sechŏn Line","name:ko":"세천선","name:ru":"линия Сечхонсон","network":"조선민주주의인민공화국 철도성","name:ko-Hani":"細川線"},"6359082":{"name":"평덕선","type":"route","route":"railway","name:en":"P'yŏngdŏk Line","name:ko":"평덕선","name:ru":"линия Пхёндоксон","name:zh":"平德线","network":"조선민주주의인민공화국 철도성","wikidata":"Q5371464","name:ko-Hani":"平德線","name:zh-Hant":"平德線"},"6887323":{"name":"토해선(폐선) : 배천온천 - 토성","type":"route","route":"railway","name:zh":"土海线白川温泉-土城废弃区间路基"},"6892347":{"name":"남동선","type":"route","route":"railway","name:zh":"南洞线","name:ko-Hani":"南洞線"},"6892405":{"name":"청남선","type":"route","route":"railway","name:zh":"清南线","name:ko-Hani":"淸南線"},"6894817":{"name":"안주탄광선","type":"route","route":"railway","name:zh":"安州煤矿线","name:ko-Hani":"安州炭鑛線"},"6894830":{"name":"룡성선","type":"route","route":"railway","name:en":"Ryongsong Line","name:ja":"龍城線","name:ko":"룡성선","name:zh":"龙城线","name:ko-Hani":"龍城線","name:zh-Hant":"龍城線"},"6894945":{"name":"대건선","type":"route","route":"railway","name:zh":"大干线","wikidata":"Q11319245","name:ko-Hani":"대건線"},"6894947":{"name":"은산선","type":"route","route":"railway","name:zh":"殷山线","name:ko-Hani":"殷山線"},"6894952":{"name":"직동탄광선","type":"route","route":"railway","name:zh":"直洞煤矿线","name:ko-Hani":"直洞炭鑛線"},"6897526":{"name":"신흥선","type":"route","route":"railway","name:en":"Sinhung Line","name:fr":"ligne Sinhung","name:ja":"新興線","name:zh":"新兴线","wikidata":"Q5363243","name:ko-Hani":"新興線","name:zh-Hant":"新興線"},"6897608":{"name":"장진선","type":"route","route":"railway","name:cs":"Železniční trať Jŏnggwang – Sasu","name:de":"Changjin-Linie","name:fr":"ligne Changjin","name:ja":"長津線","name:zh":"长津线","wikidata":"Q5072064","wikipedia":"en:Changjin Line","name:ko-Hani":"長津線","name:zh-Hant":"長津線"},"6908462":{"name":"덕성선","type":"route","route":"railway","name:zh":"德城线","wikidata":"Q978557","name:ko-Hani":"德城線"},"6908491":{"name":"두언선","type":"route","route":"railway","name:zh":"豆彦线","name:ko-Hani":"豆彦線"},"6908530":{"name":"허천선","type":"route","route":"railway","name:zh":"虚川线","name:ko-Hani":"虛川線"},"6908615":{"name":"금골선","type":"route","route":"railway","name:zh":"金沟线","wikidata":"Q5360852","name:ko-Hani":"금골線"},"6909109":{"name":"두만강선","type":"route","route":"railway","name:ru":"линия Тумангансон","name:zh":"豆满江线","name:ko-Hani":"豆滿江線"},"6946822":{"name":"만덕선","type":"route","route":"railway","name:zh":"满德线","wikidata":"Q6748357","name:ko-Hani":"滿德線"},"6989299":{"name":"회령탄광선","type":"route","route":"railway","name:en":"Hoeryong Tangwang Line","name:ko":"회령탄광선","name:ru":"линия Хверён-Тхангвансон","name:zh":"会宁煤矿线","network":"조선민주주의인민공화국 철도성","name:ko-Hani":"會寧炭鑛線","name:zh-Hant":"會寧煤鑛線"},"7063896":{"name":"강계선 지선","type":"route","gauge":"762","route":"railway","name:en":"Kanggye Line Branch"},"7780582":{"name":"금강산청년선","type":"route","route":"railway","name:en":"Kumgangsan Chongnyon Line","name:ko":"금강산청년선","name:ru":"линия Кымгансан-Чхоннёнсон","name:zh":"金刚山青年线","network":"조선민주주의인민공화국 철도성","operator":"조선민주주의인민공화국 철도","wikidata":"Q6452374","wikipedia":"en:Kumgangsan Chongnyon Line","name:ko-Hani":"金剛山靑年線","name:zh-Hant":"金剛山青年線"},"7780636":{"name":"청년이천선","type":"route","route":"railway","name:en":"Chongnyon Ichon Line","name:ko":"청년이천선","name:ru":"линия Чхоннён-Ичхонсон","name:zh":"青年伊川线","network":"조선민주주의인민공화국 철도성","operator":"조선민주주의인민공화국 철도","wikidata":"Q846906","wikipedia":"en:Chongnyon Ichon Line","name:ko-Hani":"靑年伊川線","name:zh-Hant":"青年伊川線"},"7783146":{"name":"만포선","type":"route","route":"railway","name:en":"Manpo Line","name:ko":"만포선","name:zh":"满浦线","wikidata":"Q704878","wikipedia":"en:Manpo Line","name:ko-Hani":"滿浦線","name:zh-Hant":"滿浦線"},"7783535":{"name":"황해청년선","type":"route","route":"railway","name:en":"Hwanghae Chongnyon Line","name:fr":"ligne Hwanghae Ch'ŏngnyŏn","name:ja":"黄海青年線","name:ko":"황해청년선","name:zh":"黄海青年线","wikidata":"Q5365220","wikipedia":"en:Hwanghae Chongnyon Line","name:ko-Hani":"黃海靑年線","name:zh-Hant":"黃海青年線"},"7786081":{"name":"백무선","type":"route","route":"railway"},"7786095":{"name":"백무선","type":"route","route":"railway","name:en":"Paengmu Line","name:ko":"백무선","name:zh":"白茂线","wikidata":"Q5935232","wikipedia":"en:Paengmu Line","name:ko-Hani":"白茂線","name:zh-Hant":"白茂線"},"7788048":{"name":"은률선","type":"route","route":"railway","name:en":"Unnyul Line","name:ko":"은률선","name:zh":"殷栗线","wikidata":"Q5359235","wikipedia":"en:Unnyul Line","name:ko-Hani":"殷栗線","name:zh-Hant":"殷栗線"},"8255366":{"to":"신명천역","ref":"고참탄광선","from":"명천역","name":"고참탄광선","type":"route","route":"railway","name:en":"Kochamtangwang Line","name:ja":"古站炭鉱線","name:ko":"고참탄광선","name:zh":"古站煤矿线","network":"조선민주주의인민공화국 철도","operator":"조선민주주의인민공화국 철도성","wikipedia":"ko:고참탄광선","name:ko-Hani":"古站炭鑛線","name:zh-Hans":"古站煤矿线","name:zh-Hant":"古站煤礦線"},"8328788":{"name":"문천항선","type":"route","gauge":"1435","lanes":"1","route":"railway","name:en":"Muncheonhang Line","name:ko":"문천항선","network":"조선민주주의인민공화국 철도성","operator":"조선민주주의인민공화국 철도","name:ko-Hani":"文川港線"},"8332275":{"name":"송도원선","type":"route","route":"railway","name:en":"Kangwon Line","name:ja":"松濤園線","name:ko":"송도원선","name:ru":"линия Сондовонсон","name:zh":"松涛园线","network":"조선민주주의인민공화국 철도성","operator":"조선민주주의인민공화국 철도","wikidata":"Q14565591","name:ko-Hani":"松濤園線"},"11522241":{"name":"옹진선","type":"route","route":"railway","name:en":"Ongjin Line","name:ko":"옹진선","name:zh":"甕津线","operator":"조선민주주의인민공화국 철도성","wikidata":"Q5365665","wikipedia":"en:Ongjin Line","name:ko-Hani":"甕津線","name:zh-Hant":"甕津線"},"11524971":{"name":"배천선","type":"route","route":"railway","name:en":"Paechon Line","name:ko":"배천선","name:zh":"白川线","wikidata":"Q5363693","wikipedia":"en:Paechon Line","name:ko-Hani":"白川線","name:zh-Hant":"白川線"},"11528037":{"name":"삼지연선","type":"route","route":"railway","name:en":"Samjiyon Line","name:ko":"삼지연선","name:ru":"линия Самджиёнсон","name:zh":"三池渊线","network":"조선민주주의인민공화국 철도성","wikidata":"Q5368678","open_date":"2017-04-05","wikipedia":"en:Samjiyon Line","name:ko-Hani":"三池淵線","name:zh-Hant":"三池淵線"},"11647790":{"name":"서해갑문선","type":"route","route":"railway","name:en":"Sohae Kammun Line","name:ja":"西海閘門線","name:ko":"서해갑문선","name:zh":"西海闸门线","wikidata":"Q7667657","wikipedia":"en:Sohae Kammun Line","name:ko-Hani":"西海閘門線","name:zh-Hant":"西海閘門線"},"11647844":{"name":"룡강선","type":"route","route":"railway","name:en":"Ryonggang Line","name:ja":"龍岡線","name:ko":"룡강선","name:zh":"龙冈线","wikidata":"Q7385310","wikipedia":"en:Ryonggang Line","name:ko-Hani":"龍岡線","name:zh-Hant":"龍崗線"},"11647854":{"name":"후산선","type":"route","route":"railway","name:en":"Husan Line","name:ja":"後山線","name:ko":"후산선","name:zh":"后山线","wikidata":"Q17211046","wikipedia":"en:Husan Line","name:ko-Hani":"後山線","name:zh-Hant":"後山線"},"11647943":{"name":"장연선","type":"route","route":"railway","name:en":"Changyon Line","name:ja":"長淵線","name:ko":"장연선","name:zh":"长渊线","wikidata":"Q5072153","name:ko-Hani":"長淵線","name:zh-Hant":"長淵線"},"11647962":{"name":"도지리선","type":"route","route":"railway","name:en":"Tojiri Line","name:ja":"島智里線","name:ko":"도지리선","name:zh":"岛智里线","name:ko-Hani":"島智里線","name:zh-Hant":"島智里線"},"11647990":{"name":"송림선","type":"route","route":"railway","name:en":"Songrim Line","name:ja":"松林線","name:ko":"송림선","name:zh":"松林线","wikidata":"Q2756719","name:ko-Hani":"松林線","name:zh-Hant":"松林線"},"11648003":{"name":"금야선","type":"route","route":"railway","name:en":"Kumya Line","name:ja":"金野線","name:ko":"금야선","name:zh":"金野线","wikidata":"Q11647958","name:ko-Hani":"金野線","name:zh-Hant":"金野線"},"12249618":{"name":"Sinhung narrow gauge","type":"route","route":"railway"},"12268995":{"name":"비날론선","type":"route","route":"railway","name:en":"Pinallon Line","name:ru":"Пиналлон","network":"Hamhŭng-si","operator":"Korean State Railway","wikidata":"Q11330875","wikipedia":"en:Pinallon Line"},"12310190":{"name":"부포선","type":"route","route":"railway","name:en":"Pupo Line","name:ja":"釜浦線","name:ko":"부포선","name:zh":"釜浦線","operator":"조선민주주의인민공화국 철도성","wikidata":"Q7260643","wikipedia":"ko:부포선"},"12479572":{"name":"송도원선 (松涛園線)","type":"route","route":"railway","name:en":"Songdowon Line","name:fr":"Ligne Songdowon"},"12479574":{"name":"천내선 (川内線)","type":"route","route":"railway","name:en":"Ch'ŏnnae Line","name:fr":"Ligne Chonnae","public_transport:version":"2"},"13288831":{"name":"고원탄광선","type":"route","route":"railway","name:ko":"고원탄광선","wikidata":"Q6435104"},"13675473":{"name":"구 경원선","type":"route","route":"railway","name:ko":"구 경원선","railway":"abandoned"},"13675477":{"name":"강계선","type":"route","gauge":"762","route":"railway","name:en":"Kanggye Line","name:ko":"강계선","wikidata":"Q5364262"},"13675503":{"name":"개천선","type":"route","route":"railway","name:en":"Kaechon Line","name:ko":"개천선","wikidata":"Q5362459"},"13850291":{"name":"운봉선","type":"route","route":"railway","name:ko":"운봉선","wikidata":"Q15103197","wikipedia":"ko:운봉선"},"14166434":{"name":"덕현선","type":"route","route":"railway","name:ko":"덕현선"}}