{"2550509":{"ref":"2131","name":"삼척선","type":"route","owner":"대한민국정부","route":"railway","usage":"branch","operator":"한국철도공사","operator:en":"Korail","operator:ko":"한국철도공사","operator:wikidata":"Q18169"},"6094351":{"ref":"101","name":"경부고속선","type":"route","route":"railway","name:de":"SFS Gyeongbu","name:en":"Gyeongbu HSL","name:ko":"경부고속선","operator":"한국철도공사","wikidata":"Q489378","wikipedia":"ko:경부고속선","operator:en":"Korail","operator:ko":"한국철도공사","operator:wikidata":"Q18169"},"6094787":{"ref":"204","name":"호남선","type":"route","owner":"대한민국정부","route":"railway","usage":"main","name:de":"Honam-Linie","name:en":"Honam Line","name:ko":"호남선","operator":"한국철도공사","wikidata":"Q53119","wikipedia":"ko:호남선","operator:en":"Korail","operator:ko":"한국철도공사","operator:wikidata":"Q18169"},"6096342":{"ref":"309","name":"전라선","type":"route","owner":"대한민국정부","route":"railway","usage":"main","name:de":"Jeolla-Linie","name:en":"Jeolla Line","name:ko":"전라선","operator":"한국철도공사","wikidata":"Q482938","wikipedia":"ko:전라선","operator:en":"Korail","operator:ko":"한국철도공사","operator:wikidata":"Q18169"},"6096884":{"ref":"103","name":"수서팽택고속선","type":"route","owner":"대한민국정부","route":"railway","usage":"main","name:en":"Suseo high-speed railway","name:ja":"水西平沢高速線","name:ko":"수서평택고속선","operator":"SR;한국철도공사","wikidata":"Q3088068"},"6105016":{"ref":"2020","name":"대구선","type":"route","owner":"대한민국정부","route":"railway","usage":"branch","name:de":"Daegu-Linie","name:en":"Daegu Line","name:ko":"대구선","operator":"한국철도공사","operator:en":"Korail","operator:ko":"한국철도공사","name:ko-Latn":"Daeguseon","operator:wikidata":"Q18169"},"8334900":{"ref":"211","name":"동해본선 (모량 ~ 영덕)","type":"route","owner":"대한민국정부","route":"railway","usage":"main","name:en":"Donghae Line (Moryang ~ Yeongdeok)","name:ko":"동해본선 (모량 ~ 영덕)","operator":"한국철도공사","operator:en":"Korail","operator:ko":"한국철도공사","operator:wikidata":"Q18169"},"8794218":{"ref":"2152","name":"정선선","type":"route","owner":"대한민국정부","route":"railway","usage":"branch","name:en":"Jeongseon Line","name:ja":"旌善線","name:ko":"정선선","maxspeed":"60","operator":"한국철도공사","operator:en":"Korail","operator:ko":"한국철도공사","operator:wikidata":"Q18169"},"8817574":{"ref":"305","name":"경원본선","type":"route","owner":"대한민국정부","route":"railway","usage":"main","name:en":"Gyeongwon Line","name:es":"Línea Gyeongwon","name:ja":"京元本線","name:ko":"경원본선","operator":"한국철도공사","wikidata":"Q483052","wikipedia":"en:Gyeongwon Line","description":"인프라로서 철도 노선을 의미하는 루트입니다. 서비스 노선인 수도권 전철을 의미하는 것이 아닙니다. This route is for railway infra information, not service line of seoul metropolitan subway system.","operator:en":"Korail","operator:ko":"한국철도공사","operator:wikidata":"Q18169","operator:wikipedia":"ko:한국철도공사"},"8817669":{"ref":"210","name":"경춘선","type":"route","owner":"대한민국정부","route":"railway","usage":"main","name:en":"Gyeongchun Line","name:ja":"京春線","operator":"한국철도공사","wikidata":"Q20192","wikipedia":"en:Gyeongchun Line","operator:en":"Korail","operator:ko":"한국철도공사","operator:wikidata":"Q18169","operator:wikipedia":"ko:한국철도공사"},"8817670":{"ref":"2121","name":"망우선","note":"인프라로서 철도 노선을 의미하는 루트입니다. 서비스 노선인 수도권 전철을 의미하는 것이 아닙니다. This route is for railway infra information, not service line of seoul metropolitan subway system.","type":"route","owner":"대한민국정부","route":"railway","usage":"branch","name:en":"Mangu Line","name:ja":"忘憂線","name:ko":"망우선","operator":"한국철도공사","wikidata":"Q10857350","operator:en":"Korail","operator:ko":"한국철도공사","operator:wikidata":"Q18169"},"8818549":{"ref":"2036","name":"문산기지선","type":"route","owner":"대한민국정부","route":"railway","usage":"branch","name:ko":"문산기지선","operator":"한국철도공사","operator:en":"Korail","operator:ko":"한국철도공사","operator:wikidata":"Q18169"},"8818550":{"ref":"2035","name":"고양기지선","type":"route","owner":"대한민국정부","route":"railway","usage":"branch","operator":"한국철도공사"},"8818551":{"ref":"2037","name":"수색직결선","type":"route","owner":"대한민국정부","route":"railway","usage":"branch","operator":"한국철도공사","wikidata":"Q22129617","wikipedia":"ko:수색직결선","operator:en":"Korail","operator:ko":"한국철도공사","operator:wikidata":"Q18169"},"8818552":{"ref":"2034","name":"수색객차출발선","type":"route","owner":"대한민국정부","route":"railway","usage":"branch","name:ko":"수색객차출발선","operator":"한국철도공사","operator:en":"Korail","operator:ko":"한국철도공사","operator:wikidata":"Q18169"},"8818553":{"to":"가좌역","ref":"30302","from":"용산역","name":"용산선","type":"route","owner":"대한민국정부","route":"railway","usage":"branch","name:en":"Yongsan Line","name:ja":"龍山線","name:ko":"용산선","operator":"한국철도공사","wikidata":"Q1033905","wikipedia":"en:Yongsan Line","operator:en":"Korail","operator:ko":"한국철도공사","operator:wikidata":"Q18169"},"8818554":{"ref":"303","name":"경의본선","note":"경의본선은 철도 인프라 노선입니다. 경의본선을 운행중인 전철 노선인 경의중앙선이 아닙니다. 경의본선이란 이름은 흔히 경의선이라고 부르는 노선의 정식 명칭입니다.","type":"route","owner":"대한민국정부","route":"railway","usage":"main","name:en":"Gyeongui Line","name:ja":"京義本線","name:ko":"경의본선","alt_name":"경의선","operator":"한국철도공사","wikidata":"Q17488","wikipedia":"en:Gyeongui Line","operator:en":"Korail","operator:ko":"한국철도공사","operator:wikidata":"Q18169"},"8820181":{"ref":"32201","name":"용유차량기지선","type":"route","owner":"대한민국정부","route":"railway","usage":"branch","name:en":"Yongyucharyanggiji Line","name:ko":"용유차량기지선","operator":"한국철도공사","operator:en":"Korail","operator:ko":"한국철도공사","operator:wikidata":"Q18169"},"8820182":{"ref":"2172","name":"용유차량삼각선","type":"route","owner":"대한민국정부","route":"railway","usage":"branch","name:en":"Yongyucharyang Triangular Junction","name:ko":"용유차량삼각선","operator":"한국철도공사","operator:en":"Korail","operator:ko":"한국철도공사","operator:wikidata":"Q18169"},"8820183":{"ref":"322","name":"인천국제공항선","type":"route","owner":"대한민국정부","route":"railway","usage":"main","name:en":"Incheon International Airport Line","name:ja":"仁川国際空港線","name:ko":"인천국제공항선","operator":"공항철도","wikidata":"Q4675224","wikipedia":"ko:공항철도 (기업)"},"8820211":{"ref":"2101","name":"평내기지선","type":"route","owner":"대한민국정부","route":"railway","operator":"한국철도공사","wikidata":"Q6836692","wikipedia":"ko:평내차량사업소"},"8820278":{"to":"의정부역","ref":"30303","from":"능곡역","name":"교외선","type":"route","owner":"대한민국정부","route":"railway","usage":"branch","name:en":"Gyooe Line","name:ja":"郊外線","name:ko":"교외선","alt_name":"경의선 교외선","distance":"31.9㎞","operator":"한국철도공사","wikidata":"Q624846","wikipedia":"ko:교외선","description":"2024년에 재개통합니다. 2022년 6월 착공, 2023년 말 완공 예정입니다.                                                                                                                                                                                                                                                                                                                                                                                                                                                                                                                                                                                                                                                                                                 "},"8820553":{"ref":"301","name":"경인선","type":"route","owner":"대한민국정부","route":"railway","usage":"main","name:en":"Gyeongin Line","name:ja":"京仁線","name:ko":"경인선","operator":"한국철도공사","operator:en":"Korail","operator:ko":"한국철도공사","operator:wikidata":"Q18169"},"8821065":{"ref":"212","name":"중앙본선","type":"route","owner":"대한민국정부","route":"railway","usage":"main","name:en":"Jungang Line","name:ja":"中央本線","name:ko":"중앙본선","name:zh":"中央本线","operator":"한국철도공사","wikidata":"Q32713","wikipedia":"ko:중앙선","operator:en":"Korail","operator:ko":"한국철도공사","name:zh-Hant":"中央本線","operator:wikidata":"Q18169"},"8823660":{"ref":"319","name":"일산선","type":"route","owner":"대한민국정부","route":"railway","usage":"main","name:en":"Ilsan Line","name:ja":"一山線","name:ko":"일산선","operator":"한국철도공사;서울교통공사","operator:en":"Korail;Seoul Metro"},"8823692":{"ref":"32101","name":"안산연결선","type":"route","owner":"대한민국정부","route":"railway","usage":"branch","name:en":"Ansan Connecting Line","name:ko":"안산연결선","distance":"2.6km","operator":"한국철도공사","wikipedia":"ko:안산연결선","operator:en":"Korail","operator:ko":"한국철도공사","operator:wikidata":"Q18169"},"8823693":{"ref":"321","name":"서해선","type":"route","owner":"대한민국정부","route":"railway","usage":"main","name:en":"Seohae Line","name:ja":"西海線","name:ko":"서해선","operator":"서해철도주식회사;한국철도공사"},"8823701":{"ref":"2015","name":"수인선","type":"route","owner":"대한민국정부","route":"railway","name:en":"Suin Line","name:ja":"水仁線","name:ko":"수인선","operator":"한국철도공사","operator:en":"Korail","operator:ko":"한국철도공사","operator:wikidata":"Q18169"},"8823706":{"ref":"3021","name":"시흥기지선","type":"route","owner":"대한민국정부","route":"railway","usage":"branch","name:ko":"시흥기지선","operator":"한국철도공사","operator:en":"Korail","operator:ko":"한국철도공사","operator:wikidata":"Q18169"},"8823707":{"to":"남태령역","ref":"317","from":"금정역","name":"과천선","type":"route","owner":"대한민국정부","route":"railway","usage":"main","name:en":"Gwacheon Line","name:ja":"果川線","name:ko":"과천선","distance":"14.4km","operator":"한국철도공사","wikidata":"Q484317","wikipedia":"ko:과천선","operator:en":"Korail","operator:ko":"한국철도공사","operator:wikidata":"Q18169"},"8823708":{"to":"오이도역","ref":"316","from":"금정역","name":"안산선","type":"route","owner":"대한민국정부","route":"railway","usage":"main","name:en":"Ansan Line","name:ja":"安山線","name:ko":"안산선","alt_name":"안산본선","distance":"26.0km","operator":"한국철도공사","wikidata":"Q483339","wikipedia":"ko:안산선","alt_name:en":"Ansan main Line","operator:en":"Korail","operator:ko":"한국철도공사","operator:wikidata":"Q18169"},"8824090":{"ref":"326","name":"신분당선","type":"route","owner":"대한민국정부","route":"railway","usage":"main","name:en":"Shinbundang Line","name:ja":"新盆唐線","name:ko":"신분당선","operator":"신분당선주식회사;네오트랜스주식회사;경기철도주식회사;새서울철도주식회사","description":"전철 운영 노선이 아니라 철도 인프라 루트입니다."},"8824093":{"ref":"318","name":"분당선","type":"route","owner":"대한민국정부","route":"railway","usage":"main","name:en":"Bundang Line","name:ja":"盆唐線","name:ko":"분당선","operator":"한국철도공사","description":"전철 노선이 아님 철도 인프라 루트임","operator:en":"Korail","operator:ko":"한국철도공사","operator:wikidata":"Q18169"},"8824113":{"ref":"31801","name":"분당기지선","type":"route","owner":"대한민국정부","route":"railway","usage":"branch","name:ko":"분당기지선","distance":"0.8km","operator":"한국철도공사","wikipedia":"ko:분당기지선","operator:en":"Korail","operator:ko":"한국철도공사","operator:wikidata":"Q18169"},"8824194":{"ref":"323","name":"경강선 (판교~여주)","type":"route","owner":"대한민국정부","route":"railway","usage":"main","name:en":"Gyeonggang Line (Pangyo-Yeoju)","name:ko":"경강선 (판교~여주)","operator":"한국철도공사","wikidata":"Q23933857","wikipedia":"ko:경강선","description":"전철 운영 노선이 아니라 철도 인프라 루트입니다.","operator:en":"Korail","operator:ko":"한국철도공사","operator:wikidata":"Q18169"},"8825878":{"ref":"218","name":"경강선 (원주~강릉)","type":"route","owner":"대한민국정부","route":"railway","name:en":"Gyeonggang Line (Wonju-Gangneung)","name:ko":"경강선 (원주-강릉)","name:zh":"京江线（原州-江陵）","operator":"한국철도공사","wikidata":"Q23933857","description":"전철 운영 노선이 아니라 철도 인프라 루트입니다.","operator:en":"Korail","operator:ko":"한국철도공사","name:zh-Hant":"京江線（原州-江陵）","operator:wikidata":"Q18169"},"8827255":{"ref":"208","name":"장항선","type":"route","owner":"대한민국정부","route":"railway","usage":"main","name:en":"Janghang Line","name:ja":"長項線","name:ko":"장항선","operator":"한국철도공사","operator:en":"Korail","operator:ko":"한국철도공사","operator:wikidata":"Q18169"},"8827759":{"ref":"206","name":"충북선","type":"route","owner":"대한민국정부","route":"railway","usage":"main","name:en":"Chungbuk Line","name:ja":"忠北線","name:ko":"충북선","operator":"한국철도공사","operator:en":"Korail","operator:ko":"한국철도공사","operator:wikidata":"Q18169"},"8831434":{"ref":"215","name":"태백본선","type":"route","owner":"대한민국정부","route":"railway","usage":"main","name:en":"Taebaek Line","name:ja":"太白本線","name:ko":"태백본선","operator":"한국철도공사","operator:en":"Korail","operator:ko":"한국철도공사","operator:wikidata":"Q18169"},"8831457":{"ref":"213","name":"영동본선","type":"route","owner":"대한민국정부","route":"railway","name:en":"Yeongdong Line","name:ja":"嶺東本線","name:ko":"영동본선","operator":"한국철도공사","operator:en":"Korail","operator:ko":"한국철도공사","operator:wikidata":"Q18169"},"8831468":{"ref":"214","name":"경북본선","type":"route","owner":"대한민국정부","route":"railway","usage":"main","name:en":"Gyeongbuk Line","name:ko":"경북본선","operator":"한국철도공사","description":"route=railway 태그는 인프라로서 철도 노선을 의미합니다.","operator:en":"Korail","operator:ko":"한국철도공사","operator:wikidata":"Q18169"},"8835676":{"ref":"311","name":"동해본선 (부산진 - 태화강)","type":"route","owner":"대한민국정부","route":"railway","usage":"main","name:en":"Donghae Line (Busanjin - Taehwagang)","name:ko":"동해본선 (부산진 - 태화강)","distance":"216.8 km","operator":"한국철도공사","wikidata":"Q85977451","operator:en":"Korail","operator:ko":"한국철도공사","operator:wikidata":"Q18169"},"8839114":{"ref":"207","name":"경전선","type":"route","owner":"대한민국정부","route":"railway","usage":"main","name:en":"Gyeongjeon Line","name:ko":"경전선","name:zh":"庆全线","operator":"한국철도공사","operator:en":"Korail","operator:ko":"한국철도공사","operator:wikidata":"Q18169"},"8840839":{"ref":"10107","name":"건천연결선","type":"route","owner":"대한민국정부","route":"railway","usage":"branch","name:ko":"건천연결선","operator":"한국철도공사","operator:en":"Korail","operator:ko":"한국철도공사","operator:wikidata":"Q18169"},"8840840":{"ref":"1017","name":"영동정비기지선","type":"route","owner":"대한민국정부","route":"railway","usage":"branch","operator":"한국철도공사"},"8840841":{"ref":"1016","name":"오송정비기지선","type":"route","owner":"대한민국정부","route":"railway","usage":"branch","operator":"한국철도공사"},"8840842":{"ref":"1015","name":"광명주박기지선","type":"route","owner":"대한민국정부","route":"railway","usage":"branch","operator":"한국철도공사","operator:en":"Korail","operator:ko":"한국철도공사","operator:wikidata":"Q18169"},"8840843":{"ref":"10101","name":"시흥연결선","type":"route","owner":"대한민국정부","route":"railway","usage":"branch","name:ko":"시흥연결선","operator":"한국철도공사","wikipedia":"ko:시흥연결선","operator:en":"Korail","operator:ko":"한국철도공사","operator:wikidata":"Q18169"},"8842490":{"ref":"30207","name":"천안직결선","type":"route","owner":"대한민국정부","route":"railway","name:en":"Cheonan Direct Connection Line","name:ko":"천안직결선","distance":"3.1km","operator":"한국철도공사","wikipedia":"ko:천안직결선","start_date":"1979-06-15","operator:en":"Korail","operator:ko":"한국철도공사","operator:wikidata":"Q18169"},"8842491":{"ref":"2013","name":"구로기지선","type":"route","owner":"대한민국정부","route":"railway","usage":"branch","name:en":"Guro Train Depot Line","name:ko":"구로기지선","operator":"한국철도공사","operator:en":"Korail","operator:ko":"한국철도공사","operator:wikidata":"Q18169"},"8842492":{"ref":"30202","name":"구로삼각선","type":"route","owner":"대한민국정부","route":"railway","usage":"branch","name:en":"Guro Triangular Junction Line","name:ko":"구로삼각선","operator":"한국철도공사","operator:en":"Korail","operator:ko":"한국철도공사","operator:wikidata":"Q18169"},"8842493":{"ref":"30201","name":"용산삼각선","type":"route","owner":"대한민국정부","route":"railway","usage":"branch","name:en":"Yongsan Triangular Junction","name:ko":"용산삼각선","distance":"0.5km","operator":"한국철도공사","wikidata":"Q12608701","wikipedia":"ko:용산삼각선","operator:en":"Korail","operator:ko":"한국철도공사","operator:wikidata":"Q18169"},"8842494":{"ref":"302","name":"경부본선","type":"route","owner":"대한민국정부","route":"railway","usage":"main","name:ja":"京釜本線","operator":"한국철도공사","operator:en":"Korail","operator:ko":"한국철도공사","operator:wikidata":"Q18169"},"8859994":{"ref":"30206","name":"병점기지선","type":"route","owner":"대한민국정부","route":"railway","usage":"branch","name:en":"Byeongjeom Car Depot Line","name:ko":"병점기지선","distance":"2.2","operator":"한국철도공사","start_date":"2003-04-30","operator:en":"Korail","operator:ko":"한국철도공사","operator:wikidata":"Q18169"},"8859995":{"ref":"2014","name":"남부화물기지선","type":"route","owner":"대한민국정부","route":"railway","usage":"branch","operator":"한국철도공사"},"8860029":{"ref":"2027","name":"평택삼각선","type":"route","owner":"대한민국정부","route":"railway","usage":"branch","name:ko":"평택삼각선","operator":"한국철도공사"},"8860030":{"ref":"2028","name":"평택직결선","type":"route","owner":"대한민국정부","route":"railway","usage":"branch","name:ko":"평택직결선","operator":"한국철도공사","operator:en":"Korail","operator:ko":"한국철도공사","operator:wikidata":"Q18169"},"8860031":{"ref":"30216","name":"평택선","type":"route","owner":"대한민국정부","route":"railway","usage":"branch","name:en":"Pyeongtaek Line","name:ko":"평택선","operator":"한국철도공사","operator:en":"Korail","operator:ko":"한국철도공사","operator:wikidata":"Q18169"},"8860049":{"ref":"2018","name":"오송선","type":"route","owner":"대한민국정부","route":"railway","usage":"branch","name:en":"Osong Line","name:ja":"五松線","name:ko":"오송선","operator":"한국철도공사"},"8864172":{"ref":"30211","name":"미전선","type":"route","owner":"대한민국정부","route":"railway","usage":"branch","name:en":"Mijeon Line","name:ko":"미전선","operator":"한국철도공사","operator:en":"Korail","operator:ko":"한국철도공사","operator:wikidata":"Q18169"},"8864220":{"ref":"30212","name":"가야선","type":"route","owner":"대한민국정부","route":"railway","usage":"branch","name:en":"Gaya Line","name:ko":"가야선","operator":"한국철도공사","operator:en":"Korail","operator:ko":"한국철도공사","operator:wikidata":"Q18169"},"8864378":{"ref":"30213","name":"양산화물선","type":"route","owner":"대한민국정부","route":"railway","usage":"branch","name:en":"Yangsanhwamul Line","name:ko":"양산화물선","operator":"한국철도공사","operator:en":"Korail","operator:ko":"한국철도공사","operator:wikidata":"Q18169"},"8864424":{"ref":"2024","name":"부강화물선","type":"route","owner":"대한민국정부","route":"railway","usage":"branch","operator":"한국철도공사"},"8864478":{"ref":"30215","name":"신동화물선","type":"route","owner":"대한민국정부","route":"railway","usage":"branch","name:en":"Sindonghwamul Line","name:ko":"신동화물선","operator":"한국철도공사","operator:en":"Korail","operator:ko":"한국철도공사","operator:wikidata":"Q18169"},"8868705":{"ref":"30401","name":"강경선","type":"route","owner":"대한민국정부","route":"railway","usage":"military","name:en":"Ganggyeong line","name:ko":"강경선","operator":"한국철도공사","operator:en":"Korail","operator:ko":"한국철도공사","operator:wikidata":"Q18169"},"8868708":{"ref":"30402","name":"북송정삼각선","type":"route","owner":"대한민국정부","route":"railway","usage":"branch","name:en":"Buksongjong Triangulat LJunction","name:ko":"북송정삼각선","operator":"한국철도공사","operator:en":"Korail","operator:ko":"한국철도공사","operator:wikidata":"Q18169"},"8868713":{"ref":"30404","name":"장성화물선","type":"route","owner":"대한민국정부","route":"railway","usage":"branch","name:en":"Jangseonghwamul Line","name:ko":"장성화물선","operator":"한국철도공사","wikidata":"Q11268817","wikipedia":"ko:장성화물선","operator:en":"Korail","operator:ko":"한국철도공사","operator:wikidata":"Q18169"},"8868759":{"ref":"2071","name":"진해선","type":"route","owner":"대한민국정부","route":"railway","usage":"branch","name:ko":"진해선","operator":"한국철도공사","operator:en":"Korail","operator:ko":"한국철도공사","operator:wikidata":"Q18169"},"8868762":{"ref":"2072","name":"광양제철선","type":"route","owner":"대한민국정부","route":"railway","usage":"branch","operator":"한국철도공사"},"8868773":{"ref":"2073","name":"광양항선","type":"route","owner":"대한민국정부","route":"railway","usage":"branch","operator":"한국철도공사"},"8868779":{"ref":"30704","name":"광주선","type":"route","owner":"대한민국정부","route":"railway","usage":"branch","name:en":"Gwangju Line","name:ko":"광주선","operator":"한국철도공사","operator:en":"Korail","operator:ko":"한국철도공사","operator:wikidata":"Q18169"},"8868960":{"ref":"2076","name":"부산신항선","type":"route","owner":"대한민국정부","route":"railway","usage":"branch","operator":"한국철도공사"},"8868971":{"ref":"2077","name":"덕산선","type":"route","owner":"대한민국정부","route":"railway","usage":"military","operator":"한국철도공사"},"8868987":{"ref":"2078","name":"전경삼각선","type":"route","owner":"대한민국정부","route":"railway","usage":"branch","operator":"한국철도공사"},"8869007":{"ref":"2082","name":"장항화물선","type":"route","owner":"대한민국정부","route":"railway","usage":"branch","operator":"한국철도공사","not:operator:wikidata":"Q18169"},"8869017":{"ref":"30803","name":"옥구선","type":"route","owner":"대한민국정부","route":"railway","usage":"branch","name:ko":"옥구선","operator":"한국철도공사"},"8879183":{"ref":"30901","name":"북전주선","type":"route","owner":"대한민국정부","route":"railway","usage":"branch","name:en":"Bukjeonju Line","name:ko":"북전주선","operator":"한국철도공사"},"8879203":{"ref":"2092","name":"여천선","type":"route","owner":"대한민국정부","route":"railway","usage":"branch","operator":"한국철도공사"},"8879454":{"ref":"2111","name":"우암선","type":"route","owner":"대한민국정부","route":"railway","usage":"branch","operator":"한국철도공사"},"8879475":{"ref":"2112","name":"부전선","type":"route","owner":"대한민국정부","route":"railway","usage":"branch","operator":"한국철도공사"},"8879500":{"ref":"2113","name":"온산선","type":"route","owner":"대한민국정부","route":"railway","usage":"branch","operator":"한국철도공사","operator:en":"Korail","operator:ko":"한국철도공사","operator:wikidata":"Q18169"},"8879511":{"ref":"2114","name":"장생포선","type":"route","owner":"대한민국정부","route":"railway","usage":"branch","operator":"한국철도공사"},"8879595":{"ref":"2115","name":"울산항선","type":"route","owner":"대한민국정부","route":"railway","usage":"branch","operator":"한국철도공사","operator:en":"Korail","operator:ko":"한국철도공사","operator:wikidata":"Q18169"},"8879701":{"ref":"31106","name":"괴동선","type":"route","owner":"대한민국정부","route":"railway","usage":"branch","operator":"한국철도공사","operator:en":"Korail","operator:ko":"한국철도공사","operator:wikidata":"Q18169"},"8879753":{"ref":"2117","name":"동해북부선","type":"route","owner":"대한민국정부;조선민주주의인민공화국 철도성","route":"railway","usage":"branch","operator":"한국철도공사;조선민주주의인민공화국 철도성","description":"철도 인프라 루트. 운행이 중단된 상태."},"8880501":{"ref":"2122","name":"제천조차장선","type":"route","owner":"대한민국정부","route":"railway","usage":"branch","operator":"한국철도공사"},"8880512":{"ref":"2123","name":"북영주삼각선","type":"route","owner":"대한민국정부","route":"railway","usage":"branch","operator":"한국철도공사"},"8880536":{"ref":"31204","name":"영천삼각선","type":"route","owner":"대한민국정부","route":"railway","usage":"branch","operator":"한국철도공사"},"8880709":{"ref":"20302","name":"용문기지선","type":"route","owner":"대한민국정부","route":"railway","usage":"branch","name:ko":"용문기지선","operator":"한국철도공사","operator:en":"Korail","operator:ko":"한국철도공사","operator:wikidata":"Q18169"},"8880710":{"ref":"2125","name":"금장삼각선","type":"route","owner":"대한민국정부","route":"railway","usage":"branch","operator":"한국철도공사"},"8880952":{"ref":"2132","name":"북평선","type":"route","owner":"대한민국정부","route":"railway","usage":"branch","operator":"한국철도공사"},"8881012":{"ref":"2133","name":"묵호항선","type":"route","owner":"대한민국정부","route":"railway","usage":"branch","operator":"한국철도공사"},"8881068":{"ref":"2141","name":"문경선","type":"route","owner":"한국철도공사","route":"railway","usage":"branch","operator":"대한민국정부","description":"freight service is stoped, but isn't abandoned yet. 영업 중지, 폐선은 아님."},"8881126":{"ref":"2151","name":"함백선","type":"route","owner":"대한민국정부","route":"railway","usage":"branch","operator":"한국철도공사"},"8881246":{"ref":"2153","name":"태백삼각선","type":"route","owner":"대한민국정부","route":"railway","usage":"branch","operator":"한국철도공사"},"8897764":{"ref":"10103","name":"대구북연결선","type":"route","owner":"대한민국정부","route":"railway","usage":"branch","name:en":"Daegu Northern Connecting Line","name:ko":"대구북연결선","operator":"한국철도공사","operator:en":"Korail","operator:ko":"한국철도공사","operator:wikidata":"Q18169"},"10565520":{"ref":"1","name":"서울 지하철 1호선","type":"route","route":"railway","source":"wikipedia","name:en":"Seoul Subway Line 1","name:ko":"서울 지하철 1호선","network":"서울 지하철","alt_name":"종로선","distance":"7.8 km","operator":"서울교통공사","wikidata":"Q92501","wikipedia":"ko:서울 지하철 1호선","start_date":"1974-08-15","description":"서울 지하철 1호선은 대한민국 서울특별시 용산구의 서울역과 동대문구의 청량리역을 잇는 대한민국 최초의 도시 철도이다. 종로선 이라고도 부르기도 한다.","operator:en":"Seoul Metro","network:metro":"Seoul Subway"},"10722439":{"ref":"2","name":"서울 지하철 2호선 성수지선","type":"route","route":"railway","name:en":"Seoul Subway Line 2-Seongsu Branch Line","name:ko":"서울 지하철 2호선 성수지선","network":"서울 지하철","distance":"5.4km","operator":"서울교통공사","start_date":"1980-10-31"},"11556816":{"ref":"302","name":"경부제2본선","type":"route","route":"railway","name:en":"Gyeongbu Second Line","name:ko":"경부제2본선","operator":"한국철도공사","operator:en":"Korail","operator:ko":"한국철도공사","operator:wikidata":"Q18169"},"11577461":{"ref":"10108","name":"화성고속연결선","type":"route","route":"railway","name:en":"Hwaseong Highspeed Connecting Line","name:ko":"화성고속연결선","alt_name":"어천연결선","operator":"한국철도공사","operator:en":"Korail","operator:ko":"한국철도공사","operator:wikidata":"Q18169"},"11627303":{"ref":"272","name":"수도권 전철 수인분당선","type":"route","route":"railway","name:en":"Seoul Metropolitan Subway Suin–Bundang Line","name:ja":"水仁·盆唐線","name:ko":"수도권 전철 수인분당선","network":"수도권 광역전철","distance":"108.1km","operator":"한국철도공사","description":"전철 노선","operator:en":"Korail","operator:ko":"한국철도공사","name:ko-Latn":"suinbundangseon","network:metro":"Seoul Metropolitan Subway","operator:wikidata":"Q18169"},"11661828":{"ref":"324","name":"진접선","type":"route","owner":"대한민국 정부","route":"railway","name:en":"Jinjeop line","name:ko":"진접선","operator":"한국철도공사","start_date":"2022-03-19","description":"진접선은 광역철도입니다. 국가시행 사업으로 확정되었고 이에 따라 일산선, 안산선, 과천선 등과 함께 국유철도로써 국가철도공단이 공사를 주관하며, 간선철도, 일반철도로 지정되었습니다. 진접선 구간은 한국철도공사가 유지보수하고 국가철도공단이 지었습니다. 4호선이 운행하고 있지만 그렇다고 지하철 선로가 아닙니다. 과천, 안산, 일산선, 분당선, 수인선처럼 말이죠.","operator:en":"Korail","operator:ko":"한국철도공사","operator:wikidata":"Q18169"},"12027037":{"ref":"5","name":"하남선","type":"route","route":"railway","name:en":"Hanam Line","name:ko":"하남선","distance":"7.7","operator":"서울교통공사","wikidata":"Q21060694","wikipedia":"ko:하남선","description":"철도 인프라 노선입니다."},"12027059":{"ref":"30805","name":"익산삼각선","type":"route","route":"railway","name:en":"Iksan Triangular Junction","name:ko":"익산삼각선","operator":"한국철도공사","wikidata":"Q104154748","wikipedia":"ko:익산삼각선"},"12027578":{"ref":"30804","name":"군산항선","type":"route","route":"railway","name:en":"Gunsan Port Line","name:ko":"군산항선","operator":"한국철도공사"},"12351758":{"ref":"204","name":"중부내륙선","type":"route","route":"railway","name:en":"Jungbunaeryuk Line","name:ja":"中部内陸線","name:ko":"중부내륙선","distance":"90.3","operator":"한국철도공사","wikidata":"Q483713","wikipedia":"ko:중부내륙선","start_date":"2021-12-31","operator:en":"Korail","operator:ko":"한국철도공사","operator:wikidata":"Q18169"},"12773146":{"ref":"1","name":"수도권 전철 1호선","type":"route","route":"railway","colour":"#005DAA","name:en":"Seoul Metropolitan Subway Line 1","name:ja":"首都圏電鉄1号線","name:ko":"수도권 전철 1호선","network":"수도권 전철","distance":"200.6km","operator":"한국철도공사;서울교통공사","wikidata":"Q20280","wikipedia":"ko:수도권 전철 1호선","start_date":"1974-08-15","description":"수도권 전철 1호선 노선."},"13282593":{"ref":"211","name":"동해본선 (영덕 ~ 삼척)","type":"route","owner":"대한민국정부","route":"railway","usage":"main","name:en":"Donghae Line (Yeongdeok ~ Samcheok)","name:ko":"동해본선 (영덕 ~ 삼척)","operator":"한국철도공사","operator:en":"Korail","operator:ko":"한국철도공사","opening_date":"2023","operator:wikidata":"Q18169"},"13462844":{"ref":"311","name":"동해본선 (태화강-신경주)","type":"route","owner":"대한민국정부","route":"railway","usage":"main","name:en":"Donghae Line (Taehwagang-Singyeongju)","name:ko":"동해본선 (태화강-신경주)","operator":"한국철도공사","operator:en":"Korail","operator:ko":"한국철도공사","opening_date":"2021-12-28","operator:wikidata":"Q18169"},"13462853":{"ref":"312","name":"중앙선 (영천-모량)","type":"route","owner":"대한민국정부","route":"railway","usage":"main","name:en":"Jungang Line (Yeongcheon-Moryang)","name:ko":"중앙본선 (영천-모량)","operator":"한국철도공사","operator:en":"Korail","operator:ko":"한국철도공사","opening_date":"2021-12-28","operator:wikidata":"Q18169"},"13509440":{"ref":"311","name":"구 동해선 (태화강 - 부조)","note":"2021년 12월 28일 폐지","type":"route","owner":"대한민국정부","route":"railway","usage":"main","name:en":"Former Donghae Line (Taehwagang - Bujo)","name:ko":"구 동해선 (태화강 - 부조)","railway":"disused","distance":"216.8 km","operator":"한국철도공사","wikidata":"Q85977451","operator:en":"Korail","operator:ko":"한국철도공사","operator:wikidata":"Q18169"},"13542328":{"ref":"212","name":"중앙선 (영천-경주)","note":"2021년 12월 28일 폐지","type":"route","owner":"대한민국정부","route":"railway","name:en":"Jungang Line (Yeongcheon-Gyeongju)","name:ko":"중앙본선 (영천-경주)","operator":"한국철도공사","wikidata":"Q32713","wikipedia":"ko:중앙선","operator:en":"Korail","operator:ko":"한국철도공사","operator:wikidata":"Q18169"},"13675371":{"ref":"202","name":"서해선 (홍성-송산)","type":"route","route":"railway","usage":"main","name:en":"Seohae Line (Hongseong-Songsan)","name:ko":"서해선 (홍성-송산)","operator":"한국철도공사","operator:en":"Korail","operator:ko":"한국철도공사","operator:wikidata":"Q18169"},"15505361":{"ref":"20101","name":"강릉삼각선","type":"route","route":"railway","name:en":"Gangneung Triangular Line","name:ko":"강릉삼각선","distance":"1.9km","operator":"한국철도공사","operator:en":"Korail","operator:ko":"한국철도공사","operator:wikidata":"Q18169"}}