{"2774484":{"name":"Узкоколейная железная дорога Атбасар — Промышленная","note":"Заносите в этот релейшен все обьекты от ЖД","type":"route","route":"railway","wikidata":"Q4469790","wikipedia":"ru:Узкоколейная железная дорога Атбасар — Промышленная"},"5372323":{"name":"Astana - Kostanai railway infrastructure","type":"route","route":"railway"},"5372663":{"name":"Beineu - Mangyshlak railway line","type":"route","route":"railway"},"5372664":{"name":"Kandagach - Makat railway line","type":"route","route":"railway"},"5372665":{"name":"Tobol - Astana railway line","type":"route","route":"railway"},"5372666":{"name":"Tobol - Kandagach railway line","type":"route","route":"railway","passenger_lines":"1"},"5388294":{"name":"Жетіген – Қорғас","type":"route","route":"railway","name:en":"Jetigen – Qorğas","name:kk":"Жетіген – Қорғас","name:ru":"Жетыген - Хоргос","int_name":"Jetigen – Qorğas"},"12951677":{"to":"Омск-Пассажирский","from":"Петропавловск","name":"Петропавловск - Омск","type":"route","route":"railway","name:de":"Bahnstrecke Petropawlowsk - Omsk"},"13041173":{"name":"Жезказган - Сатпаев","type":"route","route":"railway","name:de":"Bahnstrecke Schesskassgan - Satpajew"},"13041174":{"name":"Сатпаев - Kohlgruben","type":"route","route":"railway","name:de":"Bahnstrecke Satpajew -"},"13041175":{"name":"Жезказган - Саксаульская","type":"route","route":"railway","name:de":"Bahnstrecke Schesskassgan - Saksaulskaja"},"13186700":{"to":"Екибастуз-Северный 2","via":"Екибастуз-Северный 1","from":"Экибастуз-2","name":"Экибастуз-2 - Екибастуз-Северный 1","type":"route","route":"railway","name:de":"Bahnstrecke nach Ekibastus-Nord"},"13186761":{"to":"Шоптыколь","from":"Токубай","name":"Токубай - Ушкулын","type":"route","route":"railway","name:de":"Bahnstrecke nach Schoptykol"},"13186762":{"to":"Майкаин","from":"Экибастуз-2","name":"Экибастуз-2 - Майкаин","type":"route","route":"railway","name:de":"Ringlinie Ekibastus-Süd"},"13187070":{"to":"Экибастуз-2","from":"Экибастуз-1","name":"Экибастуз-1 - Экибастуз-2","type":"route","route":"railway","name:de":"Verbindungsbahn Ekibastus-1 nach Ekibastus-2"},"13187071":{"to":"Обгонный пункт 116 км","from":"Экибастуз-2","name":"Экибастуз-2 - Обгонный пункт 116 км","type":"route","route":"railway","name:de":"Verbindungsbahn Ekibastus-2 zum Anschluss-Bf am km 116"},"13187561":{"to":"Жомарт","from":"Жезказган","name":"Жомартовский ход","type":"route","route":"railway","name:de":"Zweigbahn nach Žomart"},"14121154":{"to":"Акбулак","from":"Нура","name":"Нура - Акбулак","type":"route","route":"railway"},"15460991":{"to":"Васильковка","from":"Кокчетав-1","name":"Кокчетав-1 – Васильковка","type":"route","route":"railway","name:de":"Verbindungsbahn Kökschetau - Basilkowka"},"15460992":{"to":"Кокшетау 2","from":"Кокчетав-1","name":"Кокчетав-1 – Кокшетау 2","type":"route","route":"railway","name:de":"Verbindungsbahn Kökschetau"},"15464050":{"to":"Темиртау","from":"Жанааул","name":"Жанааул – Темиртау","type":"route","route":"railway","name:de":"Bahnstrecke Schanaaul - Tempirtai"},"15464051":{"from":"713 км","name":"713 км –","type":"route","route":"railway","name:de":"Bahnstrecke Karaganda - Karaganda Ost"},"15464052":{"to":"Пост № 5","from":"713 км","name":"713 км – Пост № 5","type":"route","route":"railway","name:de":"Bahnstrecke Karaganda - Posten Nr 5"},"15464053":{"from":"Кокпекты","name":"Кокпекты –","type":"route","route":"railway","name:de":"Zweigstrecke nach"},"15464054":{"name":"ТрансҚазақстан темір жол магистралы","type":"route","route":"railway","name:en":"Transkazakhstan Railway","name:kk":"ТрансҚазақстан темір жол магистралы","name:ru":"Трансказахстанская железнодорожная магистраль","alt_name":"Петропавл — Шу темір жолы","int_name":"TransQazaqstan temir jol magïstralı","wikidata":"Q12558663","wikipedia":"kk:Петропавл — Шу темір жолы","alt_name:kk":"Петропавл — Шу темір жолы","alt_int_name":"Petropavl — Şw temir jolı"},"15464055":{"to":"Конысбай","from":"Чаглинка","name":"Чаглинка – Конысбай","type":"route","route":"railway","name:de":"Zweigstrecke nach Konycbai"},"15523874":{"to":"Қандыағаш","from":"Никель","name":"Никель – Қандыағаш","type":"route","route":"railway","name:de":"Bahnstrecke Nickel – Kandagasch"},"15524078":{"to":"Коктау","from":"Кимперсай","name":"Кимперсай – Коктау","type":"route","route":"railway","name:de":"Zweigstrecke nach Koktau"},"15553583":{"to":"Шалкар","from":"Бейнеу","name":"Бейнеу - Шалкар","type":"route","route":"railway","name:de":"Bahnstrecke Beineu - Schalkar"},"15576221":{"to":"Кызылжар","from":"Есиль-1","name":"Аркалыкский ход","type":"route","route":"railway","name:de":"Bahnstrecke Esil - Kyssylschar"},"15576367":{"to":"Жайрем","from":"Жомарт","name":"Жомарт – Жайрем","type":"route","route":"railway","name:de":"Zweigstrecke nach Schairem"},"15576386":{"to":"Каражал","from":"Атасу","name":"Атасу – Каражал","type":"route","route":"railway","name:de":"Zweigstrecke nach Karaschal"}}