{"1676478":{"ref":"Šiauliai - Obeliai","name":"Šiauliai - Obeliai","type":"route","route":"railway","name:de":"Schaulen - Oberle am Kriewen","name:lt":"Šiauliai - Obeliai"},"1786021":{"ref":"Vilnius - Kena","name":"Vilnius - Kena","type":"route","route":"railway","name:de":"Wilna - Knien","name:lt":"Vilnius - Kena"},"1786022":{"ref":"Vilnius - Stasylos","name":"Vilnius - Stasylos","type":"route","route":"railway","name:lt":"Vilnius - Stasylos","name:pl":"Wilno - Stasiły","wikidata":"Q79121747"},"7595857":{"name":"Мінск - Маладзечна - Гудагай - Вільня","type":"route","route":"railway","name:be":"Мінск - Маладзечна - Гудагай - Вільня","name:pl":"Mińsk - Mołodeczno - Gudogaje - Wilno","name:ru":"Минск - Молодечно - Гудогай - Вильнюс","name:uk":"Мінськ - Молодечно - Гудогай - Вільнюс","int_name":"Minsk - Maladziečna - Hudahaj - Vilnia"},"7716358":{"name":"Rail Baltica","type":"route","route":"railway"},"14166363":{"name":"Kaišiadorys - Radviliškis railway line","type":"route","route":"railway","wikidata":"Q112094960"},"14166442":{"name":"Jonava - Rizgonys railway line","type":"route","route":"railway","wikidata":"Q112096664"},"14166504":{"name":"Šeštokai - Alytus railway line","type":"route","route":"railway","wikidata":"Q112099363"},"14167238":{"name":"Kazlų Rūda - Šeštokai - Mockava - State border railway line","type":"route","route":"railway","wikidata":"Q112107207"},"14167355":{"name":"Palemonas - Gaižiūnai railway line","type":"route","route":"railway","wikidata":"Q112107487"},"14184361":{"name":"Petrašiūnai - Radviliškis railway line","type":"route","route":"railway","wikidata":"Q112132173"},"14184549":{"name":"Kretinga - Kužiai railway line","type":"route","route":"railway","wikidata":"Q112132351"}}