{"241376":{"ref":"L162","name":"Ligne du Luxembourg","type":"route","route":"railway","name:en":"Luxembourg Line","name:fr":"Ligne du Luxembourg","name:nl":"Luxemburglijn","operator":"Infrabel","operator:wikidata":"Q536120"},"5546951":{"to":"Mont-Saint-Martin","ref":"202100","from":"Longuyon","name":"Ligne de Longuyon à Mont-Saint-Martin (vers Luxembourg)","type":"route","gauge":"1435","route":"railway","voltage":"25000","operator":"SNCF Réseau","frequency":"50","wikipedia":"fr:Ligne de Longuyon à Mont-sur-Martin","electrified":"contact_line"},"6201773":{"name":"Ancienne ligne Diekirch - Vianden","type":"route","route":"railway","name:lb":"Benni","website":"http://www.rail.lu/lignediekirchvianden.html","historic":"railway","wikipedia":"lb:Eisebunnsstreck Dikrech-Veianen","historic:gauge":"1000","historic:end_date":"1948-05-02","historic:start_date":"1889-04-09"},"6202666":{"name":"Ancienne ligne Bettembourg - Aspelt","type":"route","route":"railway","name:lb":"Eisebunnsstreck Beetebuerg - Uespelt","website":"http://www.rail.lu/lignebettembourgaspelt.html","historic":"railway","wikipedia":"lb:Eisebunnsstreck Beetebuerg - Uespelt","historic:gauge":"1000","historic:end_date":"1952-12-08","historic:start_date":"1899-09-01"},"6384647":{"name":"Ancienne ligne Noerdange - Martelange","type":"route","route":"railway","historic":"railway","historic:gauge":"1000","historic:end_date":"1953-02-16","historic:start_date":"1890-11-18"},"6413017":{"to":"Ettelbruck","via":"Steinfort;Noerdange","from":"Petange","name":"Ancienne ligne Pétange-Ettelbruck","note":"Début Steinfort-Ettelbruck 20.04.1880","type":"route","route":"railway","network":"PH","website":"http://www.rail.lu/ligneattert.html","historic":"railway","operator":"PH","wikidata":"Q802992","historic:gauge":"1435","historic:end_date":"1969-04-05","historic:start_date":"1873-08-01"},"6413018":{"to":"Saulnes","via":"Lasauvage","from":"Fond-de-Gras","name":"Minièresbunn","type":"route","route":"railway","operator":"Minièresbunn-Doihl a.s.b.l"},"6429274":{"to":"Echternach","via":"Muhlenbach; Eich; Junglinster","from":"Luxembourg","name":"Ancienne ligne Luxembourg-Echternach","type":"route","route":"railway","name:lb":"Chareli","network":"Chemins de Fer Vicinaux","website":"http://www.rail.lu/ligneluxembourgechternach.html","historic":"railway","operator":"Chemins de Fer Vicinaux","wikipedia":"lb:Eisebunnsstreck Lëtzebuerg - Iechternach","historic:gauge":"1000","historic:end_date":"1954-06-13","historic:start_date":"1904-04-20"},"6431565":{"name":"Ancienne ligne Luxembourg-Remich","type":"route","route":"railway","name:lb":"Jhangeli","website":"http://www.rail.lu/ligneluxembourgremich.html","historic":"railway","wikipedia":"lb:Jangli","historic:gauge":"1000","historic:end_date":"1955-05-22","historic:start_date":"1882-02-20"},"6435878":{"to":"Larochette","via":"Medernach","from":"Cruchten","name":"Ancienne ligne Cruchten - Larochette","type":"route","route":"railway","name:lb":"Felser Jhangeli","network":"CFS","website":"http://www.rail.lu/lignecruchtenlarochette.html","historic":"railway","operator":"CFS","wikipedia":"lb:Jangli","historic:gauge":"1000","historic:end_date":"1948-05-02","historic:start_date":"1905-04-13"},"6438233":{"name":"Ancienne ligne Mondorf - Thionville","type":"route","route":"railway","name:lb":"Jaengelchen","website":"http://www.rail.lu/lignesfr/lignethionvillemondorf.html","historic":"railway","wikipedia":"de:Schmalspurbahn Diedenhofen–Mondorf","historic:gauge":"1000","historic:end_date":"1934-12-31","historic:start_date":"1903-04-02"},"6438234":{"name":"Ancienne ligne Wiltz - Bastogne","type":"route","route":"railway","historic":"railway","historic:gauge":"1435","historic:end_date":"1967-09-24","historic:start_date":"1888-07-01"},"6438235":{"to":"Wasserbillig","via":"Echternach","from":"Diekirch","name":"Sauerlinn","type":"route","gauge":"1435","route":"railway","network":"PH","historic":"railway","operator":"PH","historic:gauge":"1435","historic:end_date":"1964-05-27","historic:start_date":"1874-05-20"},"6438236":{"name":"Vennbahn","type":"route","route":"railway","website":"https://home.kpn.nl/f2hrajhamoen482/v_Vennbahn-D.htm","historic":"railway","wikipedia":"de:Vennbahn","historic:gauge":"1435","historic:end_date":"1978-10-13","historic:start_date":"1889-11-04"},"6523175":{"name":"Ancienne ligne Pétange - Lamadeleine","type":"route","route":"railway","name:lb":"Misärsbunn","website":"http://www.rail.lu/lignepetangelamadelaine.html","historic":"railway","wikipedia":"lb:Eisebunnsstreck Péiteng - Fond-de-Gras - Doihl","historic:gauge":"1435","historic:end_date":"1970-10-06","historic:start_date":"1879-04-19"},"7372997":{"ref":"186 000","name":"Ligne de Bettembourg à Audun-le-Tiche","type":"route","owner":"SNCF Réseau","route":"railway","operator":"Chemins de Fer Luxembourgeois","wikipedia":"fr:Ligne d'Esch-sur-Alzette à Audun-le-Tiche"},"12467539":{"ref":"203000","name":"Ligne de Longwy à Villerupt-Micheville","type":"route","route":"railway","wikidata":"Q3239655","wikipedia":"fr:Ligne de Longwy à Villerupt-Micheville"},"12468439":{"ref":"196000","name":"Ligne d'Audun-le-Tiche à Hussigny-Godbrange","type":"route","route":"railway","wikidata":"Q1891120","wikipedia":"fr:Ligne d'Audun-le-Tiche à Hussigny-Godbrange"}}