{"1203911":{"ref":"Rīga - Zilupe","name":"Rīga - Zilupe","type":"route","route":"railway","name:de":"Riga - Rosenau","name:lv":"Rīga - Zilupe","public_transport:version":"2"},"1636399":{"ref":"Rīga - Daugavpils","name":"Rīga - Daugavpils","type":"route","gauge":"1520","route":"railway","name:de":"Riga - Dünaburg","name:lv":"Rīga - Daugavpils","name:ru":"Рига - Даугавпилс","operator":"RDz","public_transport:version":"2"},"1723417":{"name":"Riga - Ventspils","type":"route","route":"railway"},"1724628":{"name":"Jelgava - Tukums 2","type":"route","route":"railway"},"10987987":{"to":"Krustpils","from":"Jelgava","name":"Dzelzceļa līnija Jelgava—Krustpils","type":"route","route":"railway"},"10987988":{"to":"Daugavpils","from":"Rīga","name":"Dzelzceļa līnija Rīga—Daugavpils","type":"route","route":"railway"},"13131622":{"ref":"23","name":"Valsts robeža - Vaiņode - Priekule - Valsts robeža","type":"route","gauge":"1520","route":"railway","source":"http://www.ldz.lv/texts_files/2013%20tikla_parskats%20final2.pdf","name:lt":"Mažeikiai – Vainiauda – Priekulė","railway":"disused","electrified":"no","disused:railway":"rail"}}