{"2865181":{"to":"Зарыца","ref":"9","from":"Чыгуначны вакзал","name":"Аўтобус №9: Чыгуначны вакзал — Зарыца","type":"route","route":"bus","name:be":"Аўтобус №9: Чыгуначны вакзал — Зарыца","name:ru":"Автобус №9: Железнодорожный вокзал — Зарица","name:uk":"Автобус №9: Залізничний вокзал - Заріца","public_transport:version":"2"},"2882962":{"to":"Фолюш","ref":"3","from":"Чыгуначны вакзал","name":"Аўтобус №3: Чыгуначны вакзал — Фолюш","type":"route","route":"bus","name:be":"Аўтобус №3: Чыгуначны вакзал — Фолюш","name:ru":"Автобус №3: Железнодорожный вокзал — Фолюш","name:uk":"Автобус №3: Залізничний вокзал - Фолюш","public_transport:version":"2"},"2887378":{"to":"вуліца Карскага","ref":"19","from":"Чыгуначны вакзал","name":"Аўтобус №19: Чыгуначны вакзал — вуліца Карскага","type":"route","route":"bus","name:be":"Аўтобус №19: Чыгуначны вакзал — вуліца Карскага","name:ru":"Автобус №19: Железнодорожный вокзал — улица Карского","name:uk":"Автобус №19: Залізничний вокзал - вулиця Карського","public_transport:version":"2"},"2925561":{"to":"улица Ольшанская","ref":"37","from":"Чыгуначны вакзал","name":"Аўтобус №37: Чыгуначны вакзал — вуліца Альшанская","type":"route","route":"bus","name:be":"Аўтобус №37: Чыгуначны вакзал — вуліца Альшанская","name:ru":"Автобус №37: Железнодорожный вокзал — улица Ольшанская","name:uk":"Автобус №37: Залізничний вокзал - вулиця Ольшанська","public_transport:version":"2"},"2925563":{"to":"вуліца Скамарошкі","ref":"37Э","from":"Чыгуначны вакзал","name":"Аўтобус №37Э: Чыгуначны вакзал — вуліца Скамарошкі","type":"route","route":"bus","name:be":"Аўтобус №37Э: Чыгуначны вакзал — вуліца Скамарошкі","name:ru":"Автобус №37Э: Железнодорожный вокзал — улица Скоморошки","name:uk":"Автобус №37Е: Залізничний вокзал - вулиця Скоморошки","public_transport:version":"2"},"2930947":{"to":"Фолюш","ref":"3т","from":"Чыгуначны вакзал","name":"Маршрутнае таксі №3: Чыгуначны вакзал — Фолюш","type":"route","route":"bus","name:be":"Маршрутнае таксі №3: Чыгуначны вакзал — Фолюш","name:ru":"Маршрутное такси №3: Железнодорожный вокзал — Фолюш","name:uk":"Маршрутне таксі №3: Залізничний вокзал — Фолюш","public_transport:version":"2"},"3570470":{"ref":"11","name":"Автобус 11: Московская – п. Чкалова","type":"route","route":"bus"},"3570472":{"ref":"5","name":"Автобус 5: Московская – п. Чкалова","type":"route","route":"bus"},"3578584":{"ref":"7","name":"Автобус 7: Московская – Хозспособ","type":"route","route":"bus"},"5832883":{"to":"Bab Doukkala","ref":"11B","from":"Mosque Mhamid 9","name":"Ligne 11B : Mosque Mhamid 9 - Bab Doukkala","type":"route","route":"bus","source":"http://www.alsa.ma/","network":"ALSA Marrakech","operator":"ALSA","network:wikidata":"Q114679539","public_transport:version":"2"},"5849579":{"to":"Massira 3","ref":"6","from":"Bab Ghemat","name":"Ligne 6 : Bab Ghemat - Massira 3","type":"route","route":"bus","source":"http://www.alsa.ma/","network":"ALSA Marrakech","operator":"ALSA","network:wikidata":"Q114679539","public_transport:version":"2"},"5857527":{"to":"Bab Ghemat","ref":"6","from":"Massira 3","name":"Ligne 6 : Massira 3 - Bab Ghemat","type":"route","route":"bus","source":"http://www.alsa.ma/","network":"ALSA Marrakech","operator":"ALSA","network:wikidata":"Q114679539","public_transport:version":"2"},"6016397":{"ref":"L1","name":"Quartier Benjeloune - La Province","type":"route","route":"bus","network":"ALSA Khouribga","operator":"ALSA","wikidata":"Q114671099","operator:wikidata":"Q294510","operator:wikipedia":"fr:Alsa (entreprise)","public_transport:version":"2"},"6016398":{"ref":"L2","name":"Quartier Benjeloune - Entree QI","type":"route","route":"bus","network":"ALSA Khouribga","operator":"ALSA","network:wikidata":"Q114671099","operator:wikidata":"Q294510","operator:wikipedia":"fr:Alsa (entreprise)","public_transport:version":"2"},"6017210":{"ref":"L1","name":"La Province - Quartier Benjeloune","type":"route","route":"bus","network":"ALSA Khouribga","operator":"ALSA","wikidata":"Q114671099","operator:wikidata":"Q294510","operator:wikipedia":"fr:Alsa (entreprise)","public_transport:version":"2"},"6153363":{"ref":"1","name":"Bus 1 : Sala al Jadida - Océan","type":"route","route":"bus","operator":"STAREO","public_transport:version":"2"},"6153689":{"ref":"3","name":"Bus 3 : Marché de Gros - Océan","type":"route","fixme":"need to be controlled","route":"bus","network":"Alsa","operator":"ALSA","network:wikidata":"Q294510","public_transport:version":"2"},"6153803":{"ref":"4","name":"Bus 4 : Marché de Gros - Océan","type":"route","route":"bus","operator":"STAREO","public_transport:version":"2"},"6256672":{"ref":"4","name":"Ligne 4: Place Oued Al Makhazine - Mandarouna","type":"route","route":"bus","sense":"retour","source":"https://casabus.ma/","network":"Casabus","operator":"Alsa Al Baida","network:wikidata":"Q114771384","public_transport:version":"2"},"6260892":{"to":"Drargua","ref":"9","from":"Place d'Inezgane","name":"Bus 9: Place d'Inezgane - Drargua","type":"route","route":"bus","source":"http://www.alsa.ma/","network":"ALSA Agadir","operator":"ALSA","network:wikidata":"Q114707454","public_transport:version":"2"},"6265614":{"ref":"16","name":"Ligne 16: Kissariat Hay Mohammadi - Lissasfa","type":"route","route":"bus","sense":"aller","public_transport:version":"2"},"6267341":{"to":"Tamait","ref":"38","from":"Place d'Inezgane","name":"Bus 38: Place d'Inezgane - Tamait","type":"route","route":"bus","source":"http://www.alsa.ma/","network":"ALSA Agadir","operator":"ALSA","network:wikidata":"Q114707454","public_transport:version":"2"},"6270780":{"ref":"44","name":"Ligne 44: Kissariat Hay Mohammadi - Lmzabienne","type":"route","route":"bus","sense":"aller","source":"http://mdinabus.ma/","network":"Casabus","source:date":"2016","network:wikidata":"Q114771384","public_transport:version":"2"},"6271367":{"ref":"81","name":"Ligne 81: Place Oued Al Makhazine - OFPPT Lahrizi","type":"route","route":"bus","sense":"retour","source":"https://casabus.ma/","network":"Casabus","operator":"Alsa Al Baida","network:wikidata":"Q114771384","public_transport:version":"2"},"6278575":{"ref":"2","name":"Ligne 2: Place Concorde - Noor City","type":"route","route":"bus","sense":"retour","source":"https://casabus.ma/","network":"Casabus","operator":"Alsa Al Baida","network:wikidata":"Q114771384","public_transport:version":"2"},"6281014":{"ref":"75","name":"Ligne 75: Anassi - Quartier Hôpitaux","type":"route","route":"bus","sense":"aller","network":"Casabus","not:network:wikidata":"Q114771384","public_transport:version":"2"},"6289768":{"ref":"25","name":"Ligne 25: Mansouria - Place Marechal","type":"route","route":"bus","source":"https://casabus.ma/","network":"Casabus","operator":"Alsa Al Baida","network:wikidata":"Q114771384","public_transport:version":"2"},"6294647":{"ref":"24","name":"Ligne 24: Place Sraghna - Anassi","type":"route","route":"bus","sense":"retour","source":"http://mdinabus.ma/","network":"Casabus","operator":"M'dina Bus","source:date":"2016","network:wikidata":"Q114771384","public_transport:version":"2"},"6304296":{"ref":"L1B","name":"Beni Makada-Mesnana-Boukhalef","type":"route","route":"bus","network":"ALSA TANGER","operator":"Alsa","network:wikidata":"Q114666905","operator:wikidata":"Q294510","public_transport:version":"2"},"6316024":{"ref":"L2A","name":"Castilla-Jbilat","type":"route","route":"bus","network":"ALSA TANGER","operator":"Alsa","network:wikidata":"Q114666905","operator:wikidata":"Q294510","public_transport:version":"2"},"6316811":{"to":"Bab Kechich","ref":"2","from":"Arset El Bilk","name":"Ligne 2 : Arset El Bilk - Bab Kechich","type":"route","route":"bus","source":"http://www.alsa.ma/","network":"ALSA Marrakech","operator":"ALSA","wikidata":"Q114679539","network:wikidata":"Q114679539","operator:wikidata":"Q294510","operator:wikipedia":"fr:Alsa (entreprise)","public_transport:version":"2"},"6316890":{"to":"Arset El Bilk","ref":"2","from":"Bab Kechich","name":"Ligne 2 : Bab Kechich - Arset El Bilk","type":"route","route":"bus","source":"http://www.alsa.ma/","network":"ALSA Marrakech","operator":"ALSA","wikidata":"Q114679539","network:wikidata":"Q114679539","operator:wikidata":"Q294510","operator:wikipedia":"fr:Alsa (entreprise)","public_transport:version":"2"},"6317120":{"to":"Lycée Ben Youssef","ref":"4","from":"Sidi Mimoun","name":"Ligne 4 : Sidi Mimoun - Lycée Ben Youssef","type":"route","route":"bus","source":"http://www.alsa.ma/","network":"ALSA Marrakech","operator":"ALSA","network:wikidata":"Q114679539","public_transport:version":"2"},"6317274":{"to":"Sidi Mimoun","ref":"4","from":"Lycée Ben Youssef","name":"Ligne 4 : Lycée Ben Youssef - Sidi Mimoun","type":"route","route":"bus","source":"http://www.alsa.ma/","network":"ALSA Marrakech","operator":"ALSA","wikidata":"Q114679539","network:wikidata":"Q114679539","operator:wikidata":"Q294510","operator:wikipedia":"fr:Alsa (entreprise)","public_transport:version":"2"},"6317356":{"to":"Housna","ref":"11","from":"Bab Doukkala","name":"Ligne 11 : Bab Doukkala - Housna","type":"route","route":"bus","source":"http://www.alsa.ma/","network":"ALSA Marrakech","operator":"ALSA","wikidata":"Q114679539","network:wikidata":"Q114679539","operator:wikidata":"Q294510","operator:wikipedia":"fr:Alsa (entreprise)","public_transport:version":"2"},"6320356":{"to":"Arset El Bilk","ref":"10","from":"Office Des Impots","name":"Ligne 10 : Office Des Impots - Arset El Bilk","type":"route","route":"bus","source":"http://www.alsa.ma/","network":"ALSA Marrakech","operator":"ALSA","wikidata":"Q114679539","network:wikidata":"Q114679539","operator:wikidata":"Q294510","operator:wikipedia":"fr:Alsa (entreprise)","public_transport:version":"2"},"6320387":{"to":"Office Des Impots","ref":"10","from":"Arset El Bilk","name":"Ligne 10 : Arset El Bilk - Office Des Impots","type":"route","route":"bus","source":"http://www.alsa.ma/","network":"ALSA Marrakech","operator":"ALSA","public_transport:version":"2"},"6322006":{"to":"Complex Culturel Hay Hassani","ref":"20","from":"Bab Ghemat","name":"Ligne 20 : Bab Ghemat - Complex Culturel Hay Hassani","type":"route","route":"bus","source":"http://www.alsa.ma/","network":"ALSA Marrakech","operator":"ALSA","public_transport:version":"2"},"6330573":{"ref":"L9A","name":"Dradeb-Gzenaya","type":"route","route":"bus","network":"ALSA TANGER","operator":"Alsa","network:wikidata":"Q114666905","operator:wikidata":"Q294510","public_transport:version":"2"},"6334315":{"to":"École Américaine","ref":"17","from":"Sidi Mimoun","name":"Ligne 17 : Sidi Mimoun - École Américaine","type":"route","route":"bus","source":"http://www.alsa.ma/","network":"ALSA Marrakech","operator":"ALSA","network:wikidata":"Q114679539","public_transport:version":"2"},"6361809":{"ref":"2","name":"Ligne 2: Bab Jiaf - Aouinat el Hajjaj","type":"route","route":"bus","network":"City Bus Fès","operator":"CityBus Transport Groupe","wikidata":"Q114853679","network:wikidata":"Q114853679","public_transport:version":"2"},"7064567":{"ref":"L1","name":"Ahfir-Douar Dar Kaid","type":"route","route":"bus","network":"Equinox Transport","operator":"Equinox Transport","public_transport:version":"2"},"7415904":{"ref":"2","name":"Ligne 2: Aouinat el Hajjaj - Bab Jiaf","type":"route","route":"bus","network":"City Bus Fès","operator":"CityBus Transport Groupe","wikidata":"Q114853679","network:wikidata":"Q114853679","public_transport:version":"2"},"7418258":{"ref":"L1B","name":"Boukhalef-Mesnana-Beni Makada","type":"route","route":"bus","network":"ALSA TANGER","operator":"Alsa","network:wikidata":"Q114666905","operator:wikidata":"Q294510","public_transport:version":"2"},"7420625":{"ref":"LI16","name":"Castilla-Melloussa","type":"route","route":"bus","network":"ALSA TANGER","operator":"Alsa","network:wikidata":"Q114666905","public_transport:version":"2"},"7422128":{"ref":"L2","name":"Entree QI - Quartier Benjeloune","type":"route","route":"bus","network":"ALSA Khouribga","operator":"ALSA","wikidata":"Q114671099","operator:wikidata":"Q294510","operator:wikipedia":"fr:Alsa (entreprise)","not:network:wikidata":"Q114671099","public_transport:version":"2"},"7427562":{"to":"Terminus Lahdim","ref":"N10","from":"Terminus Ouislane","name":"Bus N10 Terminus Ouislane → Terminus Lahdim","type":"route","route":"bus","name:fr":"Bus N10 Terminus Ouislane → Terminus Lahdim","network":"City Bus Meknès","operator":"City Bus","network:wikidata":"Q114727483","public_transport:version":"2"},"7431758":{"ref":"44","name":"Ligne 44: Lmzabienne - Kissariat Hay Mohammadi","type":"route","route":"bus","sense":"retour","source":"http://mdinabus.ma/","network":"Casabus","operator":"M'dina Bus","source:date":"2016","network:wikidata":"Q114771384","public_transport:version":"2"},"7431788":{"ref":"24","name":"Ligne 24: Anassi - Place Sraghna","type":"route","route":"bus","sense":"aller","source":"http://mdinabus.ma/","network":"Casabus","operator":"M'dina Bus","source:date":"2016","network:wikidata":"Q114771384","public_transport:version":"2"},"7431865":{"ref":"105","name":"Ligne 105: Sidi Maârouf - Anassi","type":"route","route":"bus","sense":"aller","network":"Casabus","operator":"Chennaoui Bus","source:date":"2016","network:wikidata":"Q114771384","public_transport:version":"2"},"7433405":{"ref":"4","name":"Ligne 4: Mandarouna - Place Oued Al Makhazine","type":"route","route":"bus","sense":"aller","source":"https://casabus.ma/","network":"Casabus","operator":"Alsa Al Baida","network:wikidata":"Q114771384","public_transport:version":"2"},"7440745":{"ref":"81","name":"Ligne 81: OFPPT Lahrizi - Place Oued Al Makhazine","type":"route","route":"bus","sense":"aller","source":"https://casabus.ma/","network":"Casabus","operator":"Alsa Al Baida","network:wikidata":"Q114771384","public_transport:version":"2"},"7455255":{"ref":"2","name":"Ligne 2: Noor City - Place Concorde","type":"route","route":"bus","sense":"aller","source":"https://casabus.ma/","network":"Casabus","operator":"Alsa Al Baida","network:wikidata":"Q114771384","public_transport:version":"2"},"7458041":{"ref":"9","name":"Ligne 9: Lotissement Saklia - Houphouët Boigny","type":"route","route":"bus","sense":"retour","source":"https://casabus.ma/","network":"Casabus","operator":"Alsa Al Baida","network:wikidata":"Q114771384","public_transport:version":"2"},"7459520":{"ref":"16","name":"Ligne 16: Lissasfa - Kissariat Hay Mohammadi","type":"route","route":"bus","sense":"retour","public_transport:version":"2"},"7581575":{"to":"вуліца Багушэвіча","ref":"47","from":"Чыгуначны вакзал","name":"Аўтобус №47: Чыгуначны вакзал — вуліца Багушэвіча","type":"route","route":"bus","name:be":"Аўтобус №47: Чыгуначны вакзал — вуліца Багушэвіча","name:ru":"Автобус №47: Железнодорожный вокзал — улица Богушевича","name:uk":"Автобус №47: Залізничний вокзал - вулиця Богушевича","public_transport:version":"2"},"7869563":{"ref":"88","name":"Ligne 88: Mansouria - Al Yassir","type":"route","route":"bus","operator":"Lux Transports"},"8122214":{"ref":"49","name":"049 ::: Facultés route d'El Jadida - Place de Sidi Maarouf","type":"route","route":"bus","source":"https://casabus.ma/","network":"Casabus","operator":"Alsa Al Baida","network:wikidata":"Q114771384"},"8188055":{"to":"Souk Khemis du Sahel","ref":"5","from":"Larache - Centre Ville","name":"Ligne 5 : Larache - Khemis Sahel","type":"route","route":"bus","network":"Larache Bus","operator":"Union Bus"},"9257881":{"to":"Place d'Inezgane","ref":"9","from":"Drargua","name":"Bus 9: Drargua - Place d'Inezgane","type":"route","route":"bus","source":"http://www.alsa.ma/","network":"ALSA Agadir","operator":"ALSA","network:wikidata":"Q114707454","public_transport:version":"2"},"9270001":{"to":"Place d'Inezgane","ref":"38","from":"Tamait","name":"Bus 38: Tamait - Place d'Inezgane","type":"route","route":"bus","source":"http://www.alsa.ma/","network":"ALSA Agadir","operator":"ALSA","network:wikidata":"Q114707454","public_transport:version":"2"},"9864639":{"to":"Tilila (L'Khawarizmi)","ref":"15","from":"Inezgane","name":"Bus 15: Tilila (L'Khawarizmi) - Inezgane","type":"route","route":"bus","network":"ALSA Agadir","operator":"ALSA","public_transport:version":"2"},"9864640":{"to":"Inezgane","ref":"15","from":"Tilila (L'Khawarizmi)","name":"Bus 15: Inezgane - Tilila (L'Khawarizmi)","type":"route","route":"bus","network":"ALSA Agadir","operator":"ALSA","public_transport:version":"2"},"9864718":{"to":"Complexe Commercial Ain","ref":"20","from":"Inezgane","name":"Bus 20: Inezgane - Complexe Commercial Ain","type":"route","route":"bus","network":"ALSA Agadir","operator":"ALSA","network:wikidata":"Q114707454","public_transport:version":"2"},"9864719":{"to":"Inezgane","ref":"20","from":"Complexe Commercial Ain","name":"Bus 20: Complexe Commercial Ain - Inezgane","type":"route","route":"bus","network":"ALSA Agadir","operator":"ALSA","public_transport:version":"2"},"9865060":{"to":"Inezgane","ref":"26","from":"Wilaya d'Agadir","name":"Bus 26: Wilaya - Inezgane","type":"route","route":"bus","network":"ALSA Agadir","operator":"ALSA","public_transport:version":"2"},"9865061":{"to":"Wilaya d'Agadir","ref":"26","from":"Inezgane","name":"Bus 26: Inezgane - Wilaya","type":"route","route":"bus","network":"ALSA Agadir","operator":"ALSA","public_transport:version":"2"},"9865062":{"to":"Mouquaouama Sud Inbiaat","ref":"25","from":"Bayti Sakane","name":"Bus 25: Bayti Sakane - Mouquaouama Sud Inbiaat","type":"route","route":"bus","source":"http://www.alsa.ma/","network":"ALSA Agadir","operator":"ALSA","public_transport:version":"2"},"9865063":{"to":"Bayti Sakane","ref":"25","from":"Mouquaouama Sud Inbiaat","name":"Bus 25: Mouquaouama Sud Inbiaat - Bayti Sakane","type":"route","route":"bus","source":"http://www.alsa.ma/","network":"ALSA Agadir","operator":"ALSA","public_transport:version":"2"},"9865114":{"to":"Wilaya d'Agadir","ref":"95","from":"Ait Melloul (Lot Farah)","name":"Bus 95: Ait Melloul (Lot Farah) - Wilaya d'Agadir","type":"route","route":"bus","source":"http://www.alsa.ma/","network":"ALSA Agadir","operator":"ALSA","public_transport:version":"2"},"9865115":{"to":"Ait Melloul (Lot Farah)","ref":"95","from":"Wilaya d'Agadir","name":"Bus 95: Wilaya d'Agadir - Ait Melloul (Lot Farah)","type":"route","route":"bus","source":"http://www.alsa.ma/","network":"ALSA Agadir","operator":"ALSA","network:wikidata":"Q114707454","public_transport:version":"2"},"9963905":{"ref":"L45","name":"Sidi Mimoun-Lalla Takerkouste-Amzmiz","type":"route","route":"bus","network":"Alsa","operator":"Alsa","public_transport:version":"2"},"9963940":{"ref":"L24","name":"Sidi Mimoun-Tameslouhte","type":"route","route":"bus","network":"Alsa","operator":"Alsa","public_transport:version":"2"},"9964605":{"ref":"L25","name":"L25 Sidi Mimoun-Ourika","type":"route","route":"bus","network":"Alsa","operator":"Alsa","public_transport:version":"2"},"9964624":{"ref":"L35","name":"L35 Sidi Mimoun-Tahanout","type":"route","route":"bus","network":"Alsa","operator":"Alsa","public_transport:version":"2"},"9964625":{"ref":"L251","name":"L251 Sidi Mimoun-Ghmate","type":"route","route":"bus","network":"Alsa","operator":"Alsa","public_transport:version":"2"},"9964951":{"ref":"L39","name":"L39 Bab Ghmate-Tamazoute","type":"route","route":"bus","network":"Alsa","operator":"Alsa"},"9964974":{"ref":"L29","name":"L29 Bab Ghmate- Ait Ourir","type":"route","route":"bus","network":"Alsa","operator":"Alsa"},"9964991":{"ref":"L26","name":"L26 Sidi Mimoun-Ouidane","type":"route","route":"bus","network":"Alsa","operator":"Alsa","public_transport:version":"2"},"9965377":{"ref":"L33","name":"L33 Sidi Mimoun-Sebt Dar Jdida","type":"route","route":"bus","network":"Alsa","operator":"Alsa","public_transport:version":"2"},"9965602":{"ref":"L44","name":"L44 Bab Doukkala-Centre 44","type":"route","route":"bus","network":"ALSA Marrakech","operator":"Alsa","network:wikidata":"Q114679539","public_transport:version":"2"},"9987206":{"ref":"L43","name":"L43 Bab Doukala-chichaoua","type":"route","route":"bus","network":"Alsa","operator":"Alsa","public_transport:version":"2"},"9997316":{"ref":"L27","name":"L27 Bab Doukkala - Douar Jamaa","type":"route","route":"bus","network":"ALSA Marrakech","operator":"Alsa","network:wikidata":"Q114679539","public_transport:version":"2"},"9997339":{"ref":"L23","name":"L23 Bab Doukkala - Souihla","type":"route","route":"bus","network":"ALSA Marrakech","operator":"Alsa","network:wikidata":"Q114679539","public_transport:version":"2"},"9997362":{"ref":"L22","name":"L22 Bab Doukkala - Loudaya - Sidi Zouine","type":"route","route":"bus","network":"ALSA Marrakech","operator":"Alsa","network:wikidata":"Q114679539"},"10217963":{"ref":"L3","name":"Hay Faraj -Hôpital Hassan II","type":"route","route":"bus","network":"ALSA Khouribga","operator":"ALSA","wikidata":"Q114671099","network:wikidata":"Q114671099","operator:wikidata":"Q294510","operator:wikipedia":"fr:Alsa (entreprise)","public_transport:version":"2"},"10218071":{"ref":"L6","name":"Marjane - Résidence FAR","type":"route","route":"bus","network":"ALSA Khouribga","operator":"ALSA","network:wikidata":"Q114671099","operator:wikidata":"Q294510","operator:wikipedia":"fr:Alsa (entreprise)"},"10218120":{"ref":"L1A","name":"Quartier Benjeloune- Quartier Orange","type":"route","route":"bus","network":"Alsa Khouribga","operator":"Alsa"},"10218121":{"ref":"L7","name":"Quartier Benjeloune-Douar Jamaa","type":"route","route":"bus","network":"ALSA Khouribga","operator":"ALSA","wikidata":"Q114671099","network:wikidata":"Q114671099","operator:wikidata":"Q294510","operator:wikipedia":"fr:Alsa (entreprise)","public_transport:version":"2"},"10220311":{"ref":"L30","name":"Bir Anzaran - Sidi Taibi - Oulad Sbita","type":"route","route":"bus","network":"Foughal Bus Kenitra","operator":"Foughal Bus","network:wikidata":"Q114853749"},"11321587":{"to":"Anciens Combattants","ref":"N3","from":"Sbata Mosquée Hassan II","name":"Bus N3 Sbata Mosquée Hassan II → Anciens Combattants","type":"route","route":"bus","colour":"#ff0011","network":"City Bus Meknès","operator":"CityBus Transport Groupe","network:wikidata":"Q114727483"},"11326153":{"to":"Terminus Ouislane","ref":"N10","from":"Terminus Lahdim","name":"Bus N10 Terminus Lahdim → Terminus Ouislane","type":"route","route":"bus","network":"City Bus Meknès","operator":"CityBus Transport Groupe","network:wikidata":"Q114727483"},"11340975":{"to":"Terminus EST Marjane","ref":"N26","from":"Terminus Bassatine","name":"Bus N26 Terminus Bassatine → Terminus EST Marjane","type":"route","route":"bus","network":"City Bus Meknès","operator":"CityBus Transport Groupe","network:wikidata":"Q114727483"},"11343147":{"to":"Terminus Bassatine","ref":"N26","from":"Terminus EST Marjane","name":"Bus N26 Terminus EST Marjane → Terminus Bassatine","type":"route","route":"bus","network":"City Bus Meknès","operator":"CityBus Transport Groupe","network:wikidata":"Q114727483"},"11344560":{"to":"Terminus Boustane Ouislane","ref":"N5","from":"Terminus Lahdim","name":"Bus N5 Terminus Lahdim → Terminus Boustane Ouislane","type":"route","route":"bus","network":"City Bus Meknès","operator":"CityBus Transport Groupe","network:wikidata":"Q114727483"},"11344617":{"to":"Terminus Lahdim","ref":"N5","from":"Terminus Boustane Ouislane","name":"Bus N5 Terminus Boustane Ouislane → Terminus Lahdim","type":"route","route":"bus","network":"City Bus Meknès","operator":"CityBus Transport Groupe","network:wikidata":"Q114727483"},"11349912":{"to":"Terminus Lahdim","ref":"N6","from":"Terminus Ain Taoujdate","name":"Bus N6 Terminus Ain Taoujdate → Terminus Lahdim","type":"route","route":"bus","network":"City Bus Meknès","operator":"CityBus Transport Groupe","network:wikidata":"Q114727483"},"11363644":{"to":"Terminus Acima","ref":"N11","from":"Terminus Lahdim","name":"Bus N11 Terminus Lahdim → Acima","type":"route","route":"bus","network":"City Bus Meknès","operator":"CityBus Transport Groupe","network:wikidata":"Q114727483"},"11375264":{"to":"Terminus Toulal","ref":"N17","from":"Terminus Hay Mly Ismail (Mosquée Anouar)","name":"Bus N17 Terminus Hay Mly Ismail (Mosquée Anouar) → Terminus Toulal","type":"route","route":"bus","network":"City Bus Meknès","operator":"CityBus Transport Groupe","network:wikidata":"Q114727483"},"11491029":{"to":"Terminus Borj Machkok","ref":"N19","from":"Terminus Bougaraà","name":"Bus N19 Terminus Bougaraà → Terminus Borj Machkok","type":"route","route":"bus","network":"City Bus Meknès","operator":"CityBus Transport Groupe","network:wikidata":"Q114727483"},"11494020":{"to":"Terminus Hay Naim","ref":"N21","from":"Carly","name":"Bus N21 Carly → Terminus Hay Naim","type":"route","route":"bus","network":"City Bus Meknès","operator":"CityBus Transport Groupe","network:wikidata":"Q114727483"},"11501632":{"to":"Terminus Haj Kaddour","ref":"N22","from":"Terminus Lahdim","name":"Bus N22 Terminus Lahdim → Terminus Haj Kaddour","type":"route","route":"bus","network":"City Bus Meknès","operator":"City Bus","network:wikidata":"Q114727483"},"11503395":{"to":"Marjane Supermarché","ref":"N23","from":"Terminus Lahdim","name":"Bus N23 Terminus Lahdim → Marjane Supermarché","type":"route","route":"bus","network":"City Bus Meknès","operator":"CityBus Transport Groupe","network:wikidata":"Q114727483"},"11505289":{"to":"Terminus Sébaàyoune","ref":"N24","from":"Terminus Lahdim","name":"Bus N24 Terminus Lahdim → Terminus Sébaàyoune","type":"route","route":"bus","network":"City Bus Meknès","operator":"CityBus Transport Groupe","network:wikidata":"Q114727483"},"11603100":{"to":"Mons SNCB","ref":"UCL/HELHa","from":"Mons HELHA","name":"TEC 22 UCL/HELHa Direct","type":"route","route":"bus","network":"TECH","operator":"TEC","network:wikidata":"Q3512075","network:wikipedia":"fr:TEC Hainaut","operator:wikidata":"Q366922","operator:wikipedia":"fr:Opérateur de transport de Wallonie","public_transport:version":"2"},"12411377":{"to":"Bourourou","ref":"L4","from":"Hay Al Matar","name":"Ligne 4 hay al matar- bourourou <> Quartier Administratif","type":"route","route":"bus","network":"Vectalia Bus Nador","operator":"Vectalia","network:wikidata":"Q114853598","public_transport:version":"2"},"12415207":{"ref":"L25","name":"L25 selouane centre <> aeroport nador","type":"route","route":"bus","network":"Vectalia Bus Nador","operator":"Vectalia","network:wikidata":"Q114853598","public_transport:version":"2"},"12415208":{"ref":"L25","name":"L25 aeroport nador <> selouane centre","type":"route","route":"bus","network":"Vectalia Bus Nador","operator":"Vectalia","network:wikidata":"Q114853598","public_transport:version":"2"},"12418214":{"to":"Farkhana","ref":"L20","from":"Nador","name":"Ligne 20 Nador-Farkhana","type":"route","route":"bus","network":"Vectalia Bus Nador","operator":"Vectalia","network:wikidata":"Q114853598","public_transport:version":"2"},"12418215":{"to":"Nador","ref":"L20","from":"Farkhana","name":"Ligne 20 Farkhana-Nador","type":"route","route":"bus","network":"Vectalia Bus Nador","operator":"Vectalia","network:wikidata":"Q114853598","public_transport:version":"2"},"12423241":{"to":"Nador","ref":"L19","from":"Bni Ensar","name":"Ligne 19 Bni Ensar-Nador","type":"route","route":"bus","network":"Vectalia Bus Nador","operator":"Vectalia Bus Nador","network:wikidata":"Q114853598","public_transport:version":"2"},"12423242":{"to":"Bni Ensar","ref":"L19","from":"Nador","name":"Ligne 19 Nador-Bni Ensar","type":"route","route":"bus","network":"Vectalia Bus Nador","operator":"Vectalia","network:wikidata":"Q114853598","public_transport:version":"2"},"12428752":{"to":"Selouane","ref":"L26B","via":"cité université","from":"Zaio","name":"Ligne 26B Zaio-cité université-Nador","type":"route","route":"bus","network":"Vectalia Bus Nador","operator":"Vectalia","network:wikidata":"Q114853598","public_transport:version":"2"},"12428753":{"ref":"L26B","name":"Ligne 26B Nador-cité université-Zaio","type":"route","route":"bus","network":"Vectalia Bus Nador","operator":"Vectalia","network:wikidata":"Q114853598","public_transport:version":"2"},"12448871":{"ref":"4","name":"Ligne 4:Lotissement My Driss II-Oued fes","type":"route","route":"bus","network":"City Bus Fès","operator":"CityBus Transport Groupe","wikidata":"Q114853679","network:wikidata":"Q114853679","public_transport:version":"2"},"12448872":{"ref":"4","name":"Ligne 4:Oued fes-Lotissement My Driss II","type":"route","route":"bus","network":"City Bus Fès","operator":"CityBus Transport Groupe","wikidata":"Q114853679","network:wikidata":"Q114853679","public_transport:version":"2"},"12459692":{"ref":"19","name":"Ligne 19 :Rcif-La gare ONCF","type":"route","route":"bus","network":"City Bus Fès","operator":"CityBus Transport Groupe","wikidata":"Q114853679","network:wikidata":"Q114853679","public_transport:version":"2"},"12459693":{"ref":"19","name":"Ligne 19 :La gare ONCF-Rcif","type":"route","route":"bus","network":"City Bus Fès","operator":"CityBus Transport Groupe","wikidata":"Q114853679","network:wikidata":"Q114853679","public_transport:version":"2"},"12459894":{"ref":"16","name":"Ligne 16 :La gare ONCF-Aeroport Saiss","type":"route","route":"bus","network":"City Bus Fès","operator":"CityBus Transport Groupe","wikidata":"Q114853679","network:wikidata":"Q114853679","public_transport:version":"2"},"12459895":{"ref":"16","name":"Ligne 16:Aeroport Saiss-La gare ONCF Fes","type":"route","route":"bus","network":"City Bus Fès","operator":"CityBus Transport Groupe","wikidata":"Q114853679","network:wikidata":"Q114853679","public_transport:version":"2"},"12467453":{"ref":"43","name":"Ligne 43: Ain Allah-La Gare ONCF","type":"route","route":"bus","network":"City Bus Fès","operator":"City Bus","public_transport:version":"2"},"12467454":{"ref":"43","name":"Ligne 43: La Gare ONCF-Ain Allah","type":"route","route":"bus","network":"City Bus Fès","operator":"City Bus","public_transport:version":"2"},"12471548":{"ref":"17","name":"Ligne 17 : Place Jbari <> Ain Chkef","type":"route","route":"bus","network":"City Bus Fès","operator":"CityBus Transport Groupe","wikidata":"Q114853679","network:wikidata":"Q114853679","public_transport:version":"2"},"12471549":{"ref":"17","name":"Ligne 17 : Ain Chkef <> Place Jbari","type":"route","route":"bus","network":"City Bus Fès","operator":"CityBus Transport Groupe","wikidata":"Q114853679","network:wikidata":"Q114853679","public_transport:version":"2"},"13572293":{"to":"Plouzané Mairie","ref":"11","via":"Technopôle","from":"Piccard","name":"Bus Bibus 11-B : Piccard - Plouzané Mairie","type":"route","route":"bus","colour":"#8397B1","network":"Bibus","operator":"RD Brest","ref:network":"11-B","text_colour":"#FFFFFF","network:wikidata":"Q2901590","network:wikipedia":"fr:Transports en commun de Brest"},"13994333":{"to":"Cheltenham, Clarence Street","ref":"43A","from":"Tewkesbury, Boots","name":"Bus 43A: Tewkesbury → Cheltenham","type":"route","route":"bus","colour":"#ED1C24","network":"Stagecoach West","duration":"00:45","interval":"02:00","operator":"Stagecoach","opening_hours":"Mo-Fr 08:55-17:50; Sa 08:55-17:40; PH off","public_transport:version":"2"},"14029713":{"to":"Cheltenham, Clarence Street","ref":"42","from":"Tewkesbury, Boots","name":"Bus 42: Tewkesbury → Cheltenham","type":"route","route":"bus","colour":"#ED1C24","network":"Stagecoach West","duration":"00:35","interval":"01:00","operator":"Stagecoach","opening_hours":"Mo-Fr 07:00-07:35; Sa 07:35-19:55; Su,PH 09:15-18:50","public_transport:version":"2"},"14037084":{"to":"Bishop's Cleeve, Mill Parade","ref":"T","from":"Tewkesbury, Boots","name":"Bus T: Tewkesbury → Bishop's Cleeve (from South)","type":"route","route":"bus","network":"Stagecoach West","duration":"00:30","operator":"Stagecoach","opening_hours":"Mo-Sa 09:00-19:02","public_transport:version":"2"},"14037085":{"to":"Bishop's Cleeve, Mill Parade","ref":"T","from":"Tewkesbury, Boots","name":"Bus T: Tewkesbury → Walton Cardiff → Bishop's Cleeve (from South)","type":"route","route":"bus","network":"Stagecoach West","duration":"00:30","operator":"Stagecoach","opening_hours":"Mo-Sa 11:20-14:10","public_transport:version":"2"},"14037088":{"to":"Bishop's Cleeve, Mill Parade","ref":"T","from":"Tewkesbury, Boots","name":"Bus T: Tewkesbury → Walton Cardiff → Bishop's Cleeve","type":"route","route":"bus","network":"Stagecoach West","duration":"00:40","operator":"Stagecoach","opening_hours":"Mo-Sa 07:40-16:45","public_transport:version":"2"},"14103826":{"to":"Elizabeth Quay Bus Station","ref":"995","from":"Claremont Station","name":"995T Claremont Station → Elizabeth Quay Bus Station","type":"route","route":"bus","network":"Transperth","operator":"Swan Transit","network:wikidata":"Q1503488","public_transport:version":"2"},"14106716":{"to":"Gloucester, Transport Hub","ref":"71","from":"Tewkesbury, Boots","name":"Bus 71: Tewkesbury → Gloucester","type":"route","route":"bus","colour":"#BF1729","network":"Stagecoach West","duration":"00:37","interval":"01:00","operator":"Stagecoach","opening_hours":"Mo-Fr 06:35-19:32; Sa 07:55-19:42","public_transport:version":"2"},"14106718":{"to":"Gloucester, Transport Hub","ref":"71","from":"Tewkesbury, Boots","name":"Bus 71: Tewkesbury → Tewkesbury School → Gloucester","type":"route","route":"bus","colour":"#BF1729","network":"Stagecoach West","duration":"00:47","operator":"Stagecoach","opening_hours":"Mo-Fr 15:25-16:12; SH off","public_transport:version":"2"},"14113901":{"to":"Gloucester, Transport Hub","ref":"351","from":"Tewkesbury, Boots","name":"Bus 351: Tewkesbury → Gloucester","type":"route","route":"bus","colour":"#41B23B","network":"Stagecoach West","duration":"01:00","interval":"02:10","operator":"Stagecoach","opening_hours":"Mo-Sa 06:45-15:25; PH off","public_transport:version":"2"},"14554664":{"to":"Nador","ref":"L1","from":"Oulad Boutayeb","name":"Ligne 1 Nador - Oulad Boutayeb","type":"route","route":"bus","network":"Vectalia Bus Nador","operator":"Vectalia","network:wikidata":"Q114853598","public_transport:version":"2"},"14554665":{"to":"Oulad Boutayeb","ref":"L1","from":"Nador","name":"Ligne 1 Oulad Boutayeb-Nador -","type":"route","route":"bus","network":"Vectalia Bus Nador","operator":"Vectalia Bus Nador","network:wikidata":"Q114853598","public_transport:version":"2"},"14554718":{"to":"Barraka","ref":"L2","from":"Nador","name":"Ligne 2 Nador-Barraka","type":"route","route":"bus","network":"Vectalia Bus Nador","operator":"Vectalia","network:wikidata":"Q114853598","public_transport:version":"2"},"14554719":{"to":"Nador","ref":"L2","from":"Barraka","name":"Ligne 2 Barraka - Nador","type":"route","route":"bus","network":"Vectalia Bus Nador","operator":"Vectalia","network:wikidata":"Q114853598","public_transport:version":"2"},"14554787":{"to":"Arid III","ref":"L3","from":"Nador","name":"Ligne 3 Nador-Arid III","type":"route","route":"bus","network":"Vectalia Bus Nador","operator":"Vectalia","network:wikidata":"Q114853598","public_transport:version":"2"},"14554788":{"to":"Nador","ref":"L3","from":"Arid III","name":"Ligne 3 Arid III - Nador","type":"route","route":"bus","network":"Vectalia Bus Nador","operator":"Vectalia","network:wikidata":"Q114853598","public_transport:version":"2"},"14561515":{"to":"Selouane","ref":"L21","from":"Nador","name":"Ligne 21 Nador-Selouane","type":"route","route":"bus","network":"Vectalia Bus Nador","operator":"Vectalia","network:wikidata":"Q114853598","public_transport:version":"2"},"14561516":{"to":"Nador","ref":"L21","from":"Selouane","name":"Ligne 21 Selouane-Nador","type":"route","route":"bus","network":"Vectalia Bus Nador","operator":"Vectalia","network:wikidata":"Q114853598","public_transport:version":"2"},"14561693":{"to":"Arekmane","ref":"L8","from":"Nador","name":"Ligne 8 Nador-Arekmane","type":"route","route":"bus","network":"Vectalia Bus Nador","operator":"Vectalia","network:wikidata":"Q114853598","public_transport:version":"2"},"14561694":{"to":"Nador","ref":"L8","from":"Arekmane","name":"Ligne 8 Arekmane-Nador","type":"route","route":"bus","network":"Vectalia Bus Nador","operator":"Vectalia","network:wikidata":"Q114853598","public_transport:version":"2"},"14562495":{"to":"Zeghangane","ref":"L15","via":"Ihaddaden","from":"Nador","name":"Ligne 15 Nador-Zeghangane","type":"route","route":"bus","network":"Vectalia Bus Nador","operator":"Vectalia","network:wikidata":"Q114853598","public_transport:version":"2"},"14562496":{"to":"Nador","ref":"L15","via":"Ihdadden","from":"Zeghangane","name":"Ligne 15 Zeghangane- Nador","type":"route","route":"bus","network":"Vectalia Bus Nador","operator":"Vectalia","network:wikidata":"Q114853598","public_transport:version":"2"},"14563408":{"to":"Taouima","ref":"L7","from":"Nador","name":"Ligne 7 Nador-Taouima","type":"route","route":"bus","network":"Vectalia Bus Nador","operator":"Vectalia","network:wikidata":"Q114853598","public_transport:version":"2"},"14563409":{"to":"Nador","ref":"L7","from":"Taouima","name":"Ligne 7 Taouima-Nador","type":"route","route":"bus","network":"Vectalia Bus Nador","operator":"Vectalia","network:wikidata":"Q114853598","public_transport:version":"2"},"14563547":{"to":"Aroui","ref":"L22B","from":"Nador","name":"Ligne 22B Nador-Aroui","type":"route","route":"bus","network":"Vectalia Bus Nador","operator":"Vectalia","network:wikidata":"Q114853598","public_transport:version":"2"},"14563934":{"to":"Bni Ensar","ref":"L18","from":"Farkhana","name":"Ligne 18 Farkhana-Bni Ensar","type":"route","route":"bus","network":"Vectalia Bus Nador","operator":"Vectalia","network:wikidata":"Q114853598","public_transport:version":"2"},"14563935":{"to":"Bni Ensar","ref":"L18","from":"Farkhana","name":"Ligne 18 Bni Ensar-Farkhana","type":"route","route":"bus","network":"Vectalia Bus Nador","operator":"Vectalia","network:wikidata":"Q114853598","public_transport:version":"2"},"14576170":{"to":"El Hrarta","ref":"4","from":"Essaouira(Bab Doukkala)","name":"Ligne 4 Essaouira(Bab Doukkala) -El Hrarta","type":"route","route":"bus","network":"Lima Bus","operator":"Lima Bus","public_transport:version":"2"},"14576171":{"to":"Essaouira(Bab Doukkala)","ref":"4","from":"El Hrarta","name":"Ligne 4 El Hrarta-Essaouira(Bab Doukkala)","type":"route","route":"bus","network":"Lima Bus","operator":"Lima Bus","public_transport:version":"2"},"14576277":{"to":"Smimou","ref":"3","from":"Essaouira(Bab Doukkala)","name":"Ligne 3 Essaouira(Bab Doukkala)-Smimou","type":"route","route":"bus","network":"Lima Bus","operator":"Lima Bus","public_transport:version":"2"},"14576278":{"to":"Essaouira(Bab Doukkala)","ref":"3","from":"Smimou","name":"Ligne 3 Smimou-Essaouira(Bab Doukkala)","type":"route","route":"bus","network":"Lima Bus","operator":"Lima Bus","public_transport:version":"2"},"14576389":{"to":"Sidi Kaouki","ref":"2","via":"Aeroport","from":"Essaouira(Bab Doukkala)","name":"Ligne 2 Essaouira(Bab Doukkala)-Sidi Kaouki","type":"route","route":"bus","network":"Lima Bus","operator":"Lima Bus","public_transport:version":"2"},"14576390":{"to":"Bab Doukkala","ref":"2","via":"Aeroport","from":"Sidi Kaouki","name":"Ligne 2 Sidi Kaouki-Bab Doukkala","type":"route","route":"bus","network":"Lima Bus","operator":"Lima Bus","public_transport:version":"2"},"14576667":{"to":"Talmest","ref":"5","from":"Essaouira(Bab Doukkala)","name":"Ligne 5 Essaouira(Bab Doukkala)-Talmest","type":"route","route":"bus","network":"Lima Bus","operator":"Lima Bus","public_transport:version":"2"},"14576668":{"to":"Essaouira(Bab Doukkala)","ref":"5","from":"Talmest","name":"Ligne 5 Talmest-Essaouira(Bab Doukkala)","type":"route","route":"bus","network":"Lima Bus","operator":"Lima Bus","public_transport:version":"2"},"14576669":{"to":"Hanchane","ref":"6","from":"Essaouira(Bab Doukkala)","name":"Ligne 6 Essaouira(Bab Doukkala)-Hanchane","type":"route","route":"bus","network":"Lima Bus","operator":"Lima Bus","public_transport:version":"2"},"14576670":{"to":"Bab Doukkala","ref":"6","from":"Hanchane","name":"Ligne 6 Hanchane-Bab Doukkala","type":"route","route":"bus","network":"Lima Bus","operator":"Lima Bus","public_transport:version":"2"},"14577264":{"to":"Tafettachet","ref":"9","from":"Essaouira(Bab Doukkala)","name":"Ligne 9 Essaouira(Bab Doukkala)-Tafettachet","type":"route","route":"bus","network":"Lima Bus","operator":"Lima Bus","public_transport:version":"2"},"14577265":{"to":"Essaouira(Bab Doukkala)","ref":"9","from":"Tafettachet","name":"Ligne 9 Tafettachet-Essaouira(Bab Doukkala)","type":"route","route":"bus","network":"Lima Bus","operator":"Lima Bus","public_transport:version":"2"},"14577460":{"to":"Essaouira(Bab Doukkala)","ref":"7","from":"Sidi Ishaq","name":"Ligne 7 Sidi Ishaq-Essaouira(Bab Doukkala)","type":"route","route":"bus","network":"Lima Bus","operator":"Lima Bus","public_transport:version":"2"},"14577461":{"to":"Sidi Ishaq","ref":"7","from":"Essaouira(Bab Doukkala)","name":"Ligne 7 Essaouira(Bab Doukkala)-Sidi Ishaq","type":"route","route":"bus","network":"Lima Bus","operator":"Lima Bus","public_transport:version":"2"},"14577740":{"to":"Akermoud","ref":"8","via":"Route Coutiere","from":"Essaouira(Bab Doukkala)","name":"Ligne 8 Essaouira(Bab Doukkala)-Akermoud","type":"route","route":"bus","network":"Lima Bus","operator":"Lima Bus","public_transport:version":"2"},"14577741":{"to":"Essaouira(Bab Doukkala)","ref":"8","via":"Route Coutiere","from":"Akermoud","name":"Ligne 8 Akermoud-Essaouira(Bab Doukkala)","type":"route","route":"bus","network":"Lima Bus","operator":"Lima Bus","public_transport:version":"2"},"14577772":{"to":"Akermoud","ref":"8A","via":"Had Dra","from":"LiEssaouira(Bab Doukkala)","name":"Ligne 8A Essaouira(Bab Doukkala)-Akermoud","type":"route","route":"bus","network":"Lima Bus","operator":"Lima Bus","public_transport:version":"2"},"14577773":{"to":"Ligne 8A Akermoud-Essaouira(Bab Doukkala)","ref":"8A","via":"Had Dra","from":"Essaouira(Bab Doukkala)","name":"Ligne 8A Akermoud-Essaouira(Bab Doukkala)","type":"route","route":"bus","network":"Lima Bus","operator":"Lima Bus","public_transport:version":"2"},"14588506":{"ref":"L07","name":"L07 Sidi Boudheb-Kawki","type":"route","route":"bus","network":"Vectalia Safi","operator":"Vectalia","public_transport:version":"2"},"14588507":{"ref":"L07","name":"L07 Kawki-Sidi Boudheb","type":"route","route":"bus","network":"Vectalia Safi","operator":"Vectalia","public_transport:version":"2"},"14588508":{"ref":"L01","name":"L01  Sidi Boudheb-Amouni","type":"route","route":"bus","network":"Vectalia Safi","operator":"Vectalia","public_transport:version":"2"},"14588509":{"ref":"L01","name":"L01  Amouni-Sidi Boudheb","type":"route","route":"bus","network":"Vectalia Safi","operator":"Vectalia","public_transport:version":"2"},"14588685":{"ref":"L16","name":"L16 Place Idriss II-Souiria","type":"route","route":"bus","public_transport:version":"2"},"14588686":{"ref":"L16","name":"L16 Souiria-Place Idriss II","type":"route","route":"bus","public_transport:version":"2"},"14588779":{"ref":"L14","name":"L14 Place Idriss II-Sebt Gzoula","type":"route","route":"bus","public_transport:version":"2"},"14588780":{"ref":"L14","name":"L14 Sebt Gzoula-Place Idriss II","type":"route","route":"bus","public_transport:version":"2"},"14590036":{"ref":"L17","name":"L17 Sidi Abderrahman-Course","type":"route","route":"bus","network":"Vectalia Safi","operator":"Vectalia","public_transport:version":"2"},"14590037":{"ref":"L17","name":"L17 Course-Sidi Abderrahman","type":"route","route":"bus","network":"Vectalia Safi","operator":"Vectalia","public_transport:version":"2"},"14590066":{"ref":"L04","name":"L04 Place Idriss II-Caserne(Sidi Bouzid)","type":"route","route":"bus","network":"Vectalia Safi","operator":"Vectalia Safi","public_transport:version":"2"},"14590067":{"ref":"L04","name":"L04 Caserne(Sidi Bouzid)-Place Idriss II","type":"route","route":"bus","network":"Vectalia Safi","operator":"Vectalia Safi","public_transport:version":"2"},"14592230":{"ref":"L30","name":"Oulad Sbita-Bir Anzaran","type":"route","route":"bus","network":"Foughal Bus Kenitra","operator":"Foughal Bus","wikidata":"Q114853749","network:wikidata":"Q114853749"},"14593159":{"ref":"L02","name":"Bir Rami(El Hencha)-Ain Ariss","type":"route","route":"bus","network":"Foughal Bus Kenitra","operator":"Foughal Bus","network:wikidata":"Q114853749","public_transport:version":"2"},"14595055":{"ref":"L04","name":"Hay Ouled Arfaa-Place Moulay Youssef","type":"route","route":"bus","network":"Foughal Bus Kenitra","operator":"Foughal Bus","public_transport:version":"2"},"14595056":{"ref":"L04","name":"Place Moulay Youssef-Hay Ouled Arfaa","type":"route","route":"bus","network":"Foughal Bus Kenitra","operator":"Foughal Bus","public_transport:version":"2"},"14595217":{"ref":"L05","name":"Hay Ouled Arfaa-Hay Ouled Oujih","type":"route","route":"bus","network":"Foughal Bus Kenitra","operator":"Foughal Bus","wikidata":"Q114853749","network:wikidata":"Q114853749","public_transport:version":"2"},"14595218":{"ref":"L05","name":"Hay Ouled Oujih-Hay Ouled Arfaa","type":"route","route":"bus","network":"Foughal Bus Kenitra","operator":"Foughal Bus","wikidata":"Q114853749","network:wikidata":"Q114853749","public_transport:version":"2"},"14595565":{"ref":"L01","name":"Ain Sebaa-Gare de Train","type":"route","route":"bus","network":"Foughal Bus Kenitra","operator":"Foughal Bus","wikidata":"Q114853749","network:wikidata":"Q114853749","public_transport:version":"2"},"14595566":{"ref":"L01","name":"Gare de Train-Ain Sebaa","type":"route","route":"bus","network":"Foughal Bus Kenitra","operator":"Foughal Bus","wikidata":"Q114853749","network:wikidata":"Q114853749","public_transport:version":"2"},"14596793":{"ref":"L06","name":"Facultés-Cité Saknina","type":"route","route":"bus","network":"Foughal Bus Kenitra","operator":"Foughal Bus","wikidata":"Q114853749","network:wikidata":"Q114853749","public_transport:version":"2"},"14596839":{"ref":"L07","name":"Hay Oulad Mbarek-Hay Lalla Meryem","type":"route","route":"bus","network":"Foughal Bus Kenitra","operator":"Foughal Bus","wikidata":"Q114853749","network:wikidata":"Q114853749","public_transport:version":"2"},"14596840":{"ref":"L07","name":"Hay Lalla Meryem-Hay Oulad Mbarek","type":"route","route":"bus","network":"Foughal Bus Kenitra","operator":"Foughal Bus","wikidata":"Q114853749","network:wikidata":"Q114853749","public_transport:version":"2"},"14596919":{"ref":"L08","name":"Hay Lalla Meryem-Hay El Haouzia","type":"route","route":"bus","network":"Foughal Bus Kenitra","operator":"Foughal Bus","wikidata":"Q114853749","network:wikidata":"Q114853749","public_transport:version":"2"},"14596920":{"ref":"L08","name":"Hay El Haouzia-Hay Lalla Meryem","type":"route","route":"bus","network":"Foughal Bus Kenitra","operator":"Foughal Bus","wikidata":"Q114853749","network:wikidata":"Q114853749","public_transport:version":"2"},"14599064":{"to":"Facultés","ref":"L32","from":"Ouled Bourahma","name":"Ouled Bourahma-Facultés","type":"route","route":"bus","network":"Foughal Bus Kenitra","operator":"Foughal Bus","wikidata":"Q114853749","network:wikidata":"Q114853749","public_transport:version":"2"},"14599065":{"to":"Ouled Bourahma","ref":"L32","from":"Facultés","name":"Facultés-Ouled Bourahma","type":"route","route":"bus","network":"Foughal Bus Kenitra","operator":"Foughal Bus","wikidata":"Q114853749","network:wikidata":"Q114853749","public_transport:version":"2"},"14599315":{"ref":"L34","name":"Sidi Allal Tazi-Facultés","type":"route","route":"bus","network":"Foughal Bus Kenitra","operator":"Foughal Bus","network:wikidata":"Q114853749","public_transport:version":"2"},"14599316":{"ref":"L34","name":"Facultés-Sidi Allal Tazi","type":"route","route":"bus","network":"Foughal Bus Kenitra","operator":"Foughal Bus","wikidata":"Q114853749","network:wikidata":"Q114853749","public_transport:version":"2"},"14599317":{"ref":"L33","name":"Facultés-Sidi Allal Tazi","type":"route","route":"bus","network":"Foughal Bus Kenitra","operator":"Foughal Bus","wikidata":"Q114853749","network:wikidata":"Q114853749","public_transport:version":"2"},"14599318":{"ref":"L33","name":"Sidi Allal Tazi-Facultés","type":"route","route":"bus","network":"Foughal Bus Kenitra","operator":"Foughal Bus","wikidata":"Q114853749","network:wikidata":"Q114853749","public_transport:version":"2"},"14599319":{"ref":"L17","name":"Hay Nkhakhsa-Facultés","type":"route","route":"bus","network":"Foughal Bus Kenitra","operator":"Foughal Bus","wikidata":"Q114853749","network:wikidata":"Q114853749","public_transport:version":"2"},"14599320":{"ref":"L17","name":"Facultés-Hay Nkhakhsa","type":"route","route":"bus","network":"Foughal Bus Kenitra","operator":"Foughal Bus","wikidata":"Q114853749","network:wikidata":"Q114853749","public_transport:version":"2"},"14599725":{"ref":"L11","name":"Bir Anzaren-Hay Younes(Alliance)","type":"route","route":"bus","network":"Foughal Bus Kenitra","operator":"Foughal Bus","wikidata":"Q114853749","network:wikidata":"Q114853749","public_transport:version":"2"},"14599887":{"ref":"L15","name":"Bassatine Haj Mansour-Salle Couverte Al Wahda","type":"route","route":"bus","network":"Foughal Bus Kenitra","operator":"Foughal Bus Kenitra","public_transport:version":"2"},"14599888":{"ref":"L15","name":"Salle Couverte Al Wahda-Bassatine Haj Mansour","type":"route","route":"bus","network":"Foughal Bus Kenitra","operator":"Foughal Bus Kenitra","public_transport:version":"2"},"14599965":{"ref":"L16","name":"Bassatine Haj Mansour-Hay Oulad oujih","type":"route","route":"bus","network":"Foughal Bus Kenitra","operator":"Foughal Bus","public_transport:version":"2"},"14599966":{"ref":"L16","name":"Hay Oulad oujih-Bassatine Haj Mansour","type":"route","route":"bus","network":"Foughal Bus Kenitra","operator":"Foughal Bus","public_transport:version":"2"},"14600115":{"ref":"L12","name":"Hay Younes(Alliance)-Bir Anzaren","type":"route","route":"bus","network":"Foughal Bus Kenitra","operator":"Foughal Bus","wikidata":"Q114853749","network:wikidata":"Q114853749","public_transport:version":"2"},"14600116":{"ref":"L12","name":"Bir Anzaren-Hay Younes(Alliance)","type":"route","route":"bus","network":"Foughal Bus Kenitra","operator":"Foughal Bus","wikidata":"Q114853749","network:wikidata":"Q114853749","public_transport:version":"2"},"14600188":{"ref":"L13","name":"Bir Anzaren-Kasbat Mehdiya","type":"route","route":"bus","network":"Foughal Bus Kenitra","operator":"Foughal Bus","network:wikidata":"Q114853749","public_transport:version":"2"},"14600189":{"ref":"L13","name":"Kasbat Mehdiya-Bir Anzaren","type":"route","route":"bus","network":"Foughal Bus Kenitra","operator":"Foughal Bus","network:wikidata":"Q114853749","public_transport:version":"2"},"14600203":{"ref":"L14","name":"Hay Oulad oujih-Facultés","type":"route","route":"bus","network":"Foughal Bus Kenitra","operator":"Foughal Bus","wikidata":"Q114853749","network:wikidata":"Q114853749","public_transport:version":"2"},"14601520":{"ref":"L09","name":"Place Mohamed V-Mehdiya","type":"route","route":"bus","network":"Foughal Bus Kenitra","operator":"Foughal Bus","network:wikidata":"Q114853749","public_transport:version":"2"},"14601521":{"ref":"L09","name":"Mehdiya-Place Mohamed V","type":"route","route":"bus","network":"Foughal Bus Kenitra","operator":"Foughal Bus","network:wikidata":"Q114853749","public_transport:version":"2"},"14601522":{"ref":"L10","name":"Mehdiya-Place Mohamed V","type":"route","route":"bus","network":"Foughal Bus Kenitra","operator":"Foughal Bus","network:wikidata":"Q114853749","public_transport:version":"2"},"14601523":{"ref":"L10","name":"Place Mohamed V-Mehdiya","type":"route","route":"bus","network":"Foughal Bus Kenitra","operator":"Foughal Bus","network:wikidata":"Q114853749","public_transport:version":"2"},"14606420":{"ref":"L3","name":"Hôpital Hassan II-Hay Faraj","type":"route","route":"bus","network":"ALSA Khouribga","operator":"ALSA","wikidata":"Q114671099","network:wikidata":"Q114671099","operator:wikidata":"Q294510","operator:wikipedia":"fr:Alsa (entreprise)","public_transport:version":"2"},"14606651":{"ref":"L7","name":"Douar Jamaa-Quartier Benjeloune","type":"route","route":"bus","network":"ALSA Khouribga","operator":"ALSA","wikidata":"Q114671099","network:wikidata":"Q114671099","operator:wikidata":"Q294510","operator:wikipedia":"fr:Alsa (entreprise)","public_transport:version":"2"},"14607288":{"ref":"L5","name":"Hay Zaitouna II-Quartier Erac","type":"route","route":"bus","network":"ALSA Khouribga","operator":"ALSA","wikidata":"Q114671099","network:wikidata":"Q114671099","operator:wikidata":"Q294510","operator:wikipedia":"fr:Alsa (entreprise)","public_transport:version":"2"},"14607289":{"ref":"L5","name":"Quartier Erac-Hay Zaitouna II","type":"route","route":"bus","network":"ALSA Khouribga","operator":"ALSA","wikidata":"Q114671099","network:wikidata":"Q114671099","operator:wikidata":"Q294510","operator:wikipedia":"fr:Alsa (entreprise)","public_transport:version":"2"},"14607376":{"ref":"L9","name":"Boulanouar-Marjane","type":"route","route":"bus","network":"ALSA Khouribga","operator":"ALSA","network:wikidata":"Q114671099","operator:wikidata":"Q294510","operator:wikipedia":"fr:Alsa (entreprise)","public_transport:version":"2"},"14610473":{"ref":"L10","name":"Boujniba-Hôpital Hassan II","type":"route","route":"bus","network":"ALSA Khouribga","operator":"ALSA","wikidata":"Q114671099","network:wikidata":"Q114671099","operator:wikidata":"Q294510","operator:wikipedia":"fr:Alsa (entreprise)","public_transport:version":"2"},"14610474":{"ref":"L10","name":"Hôpital Hassan II-Boujniba","type":"route","route":"bus","network":"ALSA Khouribga","operator":"ALSA","wikidata":"Q114671099","network:wikidata":"Q114671099","operator:wikidata":"Q294510","operator:wikipedia":"fr:Alsa (entreprise)","public_transport:version":"2"},"14610732":{"ref":"L11","name":"Hattane-Marjane","type":"route","route":"bus","network":"ALSA Khouribga","operator":"ALSA","network:wikidata":"Q114671099","operator:wikidata":"Q294510","operator:wikipedia":"fr:Alsa (entreprise)","public_transport:version":"2"},"14610906":{"ref":"L5S","name":"Bvd Mouqaouama-Souk Al Had","type":"route","route":"bus","network":"ALSA Khouribga","operator":"ALSA","wikidata":"Q114671099","network:wikidata":"Q114671099","operator:wikidata":"Q294510","operator:wikipedia":"fr:Alsa (entreprise)","public_transport:version":"2"},"14610907":{"ref":"L5S","name":"Souk Al Had-Bvd Mouqaouama","type":"route","route":"bus","network":"ALSA Khouribga","operator":"ALSA","wikidata":"Q114671099","network:wikidata":"Q114671099","operator:wikidata":"Q294510","operator:wikipedia":"fr:Alsa (entreprise)","public_transport:version":"2"},"14612053":{"ref":"L3S","name":"Souk Al Had-Q.Yasmine(Massira)","type":"route","route":"bus","network":"ALSA Khouribga","operator":"ALSA","wikidata":"Q114671099","network:wikidata":"Q114671099","operator:wikidata":"Q294510","operator:wikipedia":"fr:Alsa (entreprise)","public_transport:version":"2"},"14612054":{"ref":"L3S","name":"Q.Yasmine(Massira I)-Souk Al Had","type":"route","route":"bus","network":"ALSA Khouribga","operator":"ALSA","wikidata":"Q114671099","network:wikidata":"Q114671099","operator:wikidata":"Q294510","operator:wikipedia":"fr:Alsa (entreprise)","public_transport:version":"2"},"14614334":{"ref":"L1","name":"Douar Dar Kaid-Ahfir","type":"route","route":"bus","network":"Equinox Transport","operator":"Equinox Transport","public_transport:version":"2"},"14614552":{"ref":"L6","name":"Ahfir-Douar Dar Kaid","type":"route","route":"bus","network":"Equinox Transport","operator":"Equinox Transport","public_transport:version":"2"},"14614553":{"ref":"L6","name":"Douar Dar Kaid-Ahfir","type":"route","route":"bus","network":"Equinox Transport","operator":"Equinox Transport","public_transport:version":"2"},"14614755":{"ref":"L10","name":"Ahfir-Douar Chahab","type":"route","route":"bus","network":"Equinox Transport","operator":"Equinox Transport","public_transport:version":"2"},"14614756":{"ref":"L10","name":"Douar Chahab-Ahfir","type":"route","route":"bus","network":"Equinox Transport","operator":"Equinox Transport","public_transport:version":"2"},"14615677":{"ref":"L19","name":"Ahfir-sebt douib","type":"route","route":"bus","network":"Equinox Transport","operator":"Equinox Transport","public_transport:version":"2"},"14615678":{"ref":"L19","name":"sebt douib-Ahfir","type":"route","route":"bus","network":"Equinox Transport","operator":"Equinox Transport","public_transport:version":"2"},"14618045":{"ref":"L1","name":"Beni Makada-Boukhalef","type":"route","route":"bus","network":"Alsa Tanger","operator":"Alsa","wikidata":"Q114666905","network:wikidata":"Q114666905","operator:wikidata":"Q294510","public_transport:version":"2"},"14619021":{"ref":"L3","name":"Beni Makada-Iberia","type":"route","route":"bus","network":"ALSA TANGER","operator":"Alsa","network:wikidata":"Q114666905","operator:wikidata":"Q294510","public_transport:version":"2"},"14619022":{"ref":"L3","name":"Iberia-Beni Makada","type":"route","route":"bus","network":"ALSA TANGER","operator":"Alsa","network:wikidata":"Q114666905","operator:wikidata":"Q294510","public_transport:version":"2"},"14638834":{"ref":"L19","name":"Castilla-Ibn Batouta","type":"route","route":"bus","network":"ALSA TANGER","operator":"Alsa","network:wikidata":"Q114666905","operator:wikidata":"Q294510","public_transport:version":"2"},"14638835":{"ref":"L19","name":"Ibn Batouta-Castilla","type":"route","route":"bus","network":"ALSA TANGER","operator":"Alsa","network:wikidata":"Q114666905","operator:wikidata":"Q294510","public_transport:version":"2"},"14638913":{"ref":"L20","name":"Tanja Balia-Bir Chifa-Boukhalef","type":"route","route":"bus","network":"ALSA TANGER","operator":"Alsa","network:wikidata":"Q114666905","operator:wikidata":"Q294510","public_transport:version":"2"},"14638914":{"ref":"L20","name":"Boukhalef-Bir Chifa-Tanja Balia","type":"route","route":"bus","network":"ALSA TANGER","operator":"Alsa","network:wikidata":"Q114666905","operator:wikidata":"Q294510","public_transport:version":"2"},"14639919":{"ref":"L21","name":"Dradeb-Boukhalef","type":"route","route":"bus","name:fr":"Dradeb-Boukhalef","network":"ALSA TANGER","operator":"Alsa","network:wikidata":"Q114666905","operator:wikidata":"Q294510","public_transport:version":"2"},"14639920":{"ref":"L21","name":"Boukhalef-Dradeb","type":"route","route":"bus","network":"ALSA TANGER","operator":"Alsa","network:wikidata":"Q114666905","operator:wikidata":"Q294510","public_transport:version":"2"},"14640067":{"ref":"L23","name":"Castilla-Ain Mechlawa","type":"route","route":"bus","network":"ALSA TANGER","operator":"Alsa","network:wikidata":"Q114666905","operator:wikidata":"Q294510","public_transport:version":"2"},"14640068":{"ref":"L23","name":"Ain Mechlawa-Castilla","type":"route","route":"bus","network":"ALSA TANGER","operator":"Alsa","network:wikidata":"Q114666905","operator:wikidata":"Q294510","public_transport:version":"2"},"14640187":{"ref":"L26","name":"Castilla-Achakkar","type":"route","route":"bus","network":"ALSA TANGER","operator":"Alsa","network:wikidata":"Q114666905","operator:wikidata":"Q294510","public_transport:version":"2"},"14640188":{"ref":"L26","name":"Achakkar-Castilla","type":"route","route":"bus","network":"ALSA TANGER","operator":"Alsa","network:wikidata":"Q114666905","operator:wikidata":"Q294510","public_transport:version":"2"},"14642078":{"ref":"L30","name":"Boukhalef-Aouama-Gare Ferroviaire","type":"route","route":"bus","network":"ALSA TANGER","operator":"Alsa","network:wikidata":"Q114666905","operator:wikidata":"Q294510","public_transport:version":"2"},"14642079":{"ref":"L30","name":"Gare Ferroviaire-Aouama-Boukhalef","type":"route","route":"bus","network":"ALSA TANGER","operator":"Alsa","network:wikidata":"Q114666905","operator:wikidata":"Q294510","public_transport:version":"2"},"14642243":{"ref":"L22","name":"Complexe Hassani-Gare Ferroviaire","type":"route","route":"bus","network":"ALSA TANGER","operator":"Alsa","network:wikidata":"Q114666905","operator:wikidata":"Q294510","public_transport:version":"2"},"14642244":{"ref":"L22","name":"Gare Ferroviaire-Complexe Hassani","type":"route","route":"bus","network":"ALSA TANGER","operator":"Alsa","network:wikidata":"Q114666905","operator:wikidata":"Q294510","public_transport:version":"2"},"14642299":{"ref":"L8","name":"Terminus Sania-Hatim Tai","type":"route","route":"bus","network":"ALSA TANGER","operator":"Alsa","network:wikidata":"Q114666905","operator:wikidata":"Q294510","public_transport:version":"2"},"14642300":{"ref":"L8","name":"Hatim Tai-Terminus Sania","type":"route","route":"bus","network":"ALSA TANGER","operator":"Alsa","network:wikidata":"Q114666905","operator:wikidata":"Q294510","public_transport:version":"2"},"14642529":{"ref":"LI3","name":"Gare Ferroviaire-Port Tanger Med","type":"route","route":"bus","network":"ALSA TANGER","operator":"Alsa","network:wikidata":"Q114666905","public_transport:version":"2"},"14642530":{"ref":"LI3","name":"Port Tanger Med-Gare Ferroviaire","type":"route","route":"bus","network":"ALSA TANGER","operator":"Alsa","network:wikidata":"Q114666905","public_transport:version":"2"},"14643366":{"ref":"LI12","name":"Gare Ferroviaire-Ksar Sghir","type":"route","route":"bus","network":"ALSA TANGER","operator":"Alsa","network:wikidata":"Q114666905","public_transport:version":"2"},"14643367":{"ref":"LI12","name":"Ksar Sghir-Gare Ferroviaire","type":"route","route":"bus","network":"ALSA TANGER","operator":"Alsa","network:wikidata":"Q114666905","public_transport:version":"2"},"14643578":{"ref":"LI8","name":"Castilla-Sguedla","type":"route","route":"bus","network":"ALSA TANGER","operator":"Alsa","network:wikidata":"Q114666905","operator:wikidata":"Q294510","public_transport:version":"2"},"14643579":{"ref":"LI8","name":"Sguedla-Castilla","type":"route","route":"bus","network":"ALSA TANGER","operator":"Alsa","network:wikidata":"Q114666905","operator:wikidata":"Q294510","public_transport:version":"2"},"14644121":{"ref":"LI17","name":"Castilla-Al Menzla","type":"route","route":"bus","network":"ALSA TANGER","operator":"Alsa","network:wikidata":"Q114666905","operator:wikidata":"Q294510","public_transport:version":"2"},"14644122":{"ref":"LI17","name":"Al Menzla-Castilla","type":"route","route":"bus","network":"ALSA TANGER","operator":"Alsa","network:wikidata":"Q114666905","operator:wikidata":"Q294510","public_transport:version":"2"},"14645622":{"ref":"LI1","name":"Hatim Tai-Sidi Hsayene","type":"route","route":"bus","network":"ALSA TANGER","operator":"Alsa","network:wikidata":"Q114666905","operator:wikidata":"Q294510","public_transport:version":"2"},"14645623":{"ref":"LI1","name":"Sidi Hsayene-Hatim Tai","type":"route","route":"bus","network":"ALSA TANGER","operator":"Alsa","network:wikidata":"Q114666905","operator:wikidata":"Q294510","public_transport:version":"2"},"14645678":{"ref":"LI6","name":"Daymouss-Castilla","type":"route","route":"bus","network":"ALSA TANGER","operator":"Alsa","network:wikidata":"Q114666905","operator:wikidata":"Q294510","public_transport:version":"2"},"14645679":{"ref":"LI6","name":"Castilla-Daymouss","type":"route","route":"bus","network":"ALSA TANGER","operator":"Alsa","network:wikidata":"Q114666905","operator:wikidata":"Q294510","public_transport:version":"2"},"14647868":{"ref":"LI2","name":"Castilla-Asilah","type":"route","route":"bus","network":"ALSA TANGER","operator":"Alsa","network:wikidata":"Q114666905","operator:wikidata":"Q294510","public_transport:version":"2"},"14647869":{"ref":"LI2","name":"Asilah-Castilla","type":"route","route":"bus","network":"ALSA TANGER","operator":"Alsa","network:wikidata":"Q114666905","operator:wikidata":"Q294510","public_transport:version":"2"},"14647922":{"ref":"LI15","name":"Asilah-Sidi Al Yamani","type":"route","route":"bus","network":"Alsa Tanger","operator":"Alsa","public_transport:version":"2"},"14647923":{"ref":"LI15","name":"Sidi Al Yamani-Asilah","type":"route","route":"bus","network":"Alsa Tanger","operator":"Alsa","public_transport:version":"2"},"14648013":{"ref":"LI14","name":"Chaouia-Cinema Tarik","type":"route","route":"bus","network":"ALSA TANGER","operator":"Alsa","network:wikidata":"Q114666905","operator:wikidata":"Q294510","public_transport:version":"2"},"14648014":{"ref":"LI14","name":"Cinema Tarik-Chaouia","type":"route","route":"bus","network":"ALSA TANGER","operator":"Alsa","network:wikidata":"Q114666905","operator:wikidata":"Q294510","public_transport:version":"2"},"14648593":{"ref":"LI13","name":"Gare Ferroviaire-Sebt Zinat","type":"route","route":"bus","network":"ALSA TANGER","operator":"Alsa","network:wikidata":"Q114666905","operator:wikidata":"Q294510","public_transport:version":"2"},"14648594":{"ref":"LI13","name":"Sebt Zinat-Gare Ferroviaire","type":"route","route":"bus","network":"ALSA TANGER","operator":"Alsa","network:wikidata":"Q114666905","operator:wikidata":"Q294510","public_transport:version":"2"},"14648595":{"ref":"LI4","name":"Gare Ferroviaire-Dar Chaoui","type":"route","route":"bus","network":"ALSA TANGER","operator":"Alsa","network:wikidata":"Q114666905","operator:wikidata":"Q294510","public_transport:version":"2"},"14648596":{"ref":"LI4","name":"Dar Chaoui-Gare Ferroviaire","type":"route","route":"bus","network":"ALSA TANGER","operator":"Alsa","network:wikidata":"Q114666905","operator:wikidata":"Q294510","public_transport:version":"2"},"14648643":{"ref":"LI7","name":"Castilla-Z.I.Cherafat","type":"route","route":"bus","network":"ALSA TANGER","operator":"Alsa","network:wikidata":"Q114666905","public_transport:version":"2"},"14648644":{"ref":"LI7","name":"Z.I.Cherafat-Castilla","type":"route","route":"bus","network":"ALSA TANGER","operator":"Alsa","network:wikidata":"Q114666905","public_transport:version":"2"},"14656401":{"ref":"23","name":"L23:Bab Chellah-Sidi Eddaoui","type":"route","route":"bus","network":"ALSA Citybus RST","operator":"ALSA","network:wikidata":"Q111211361","network:wikipedia":"fr:Réseau de bus de Rabat-Salé-Témara","operator:wikidata":"Q294510","operator:wikipedia":"fr:Alsa (entreprise)","public_transport:version":"2"},"15100144":{"to":"Ferny Grove","ref":"399","via":"Highvale","from":"Samford Valley","name":"Bus 399: Samford Valley => Ferny Grove","type":"route","route":"bus","network":"Translink","duration":"00:32","operator":"Brisbane Bus Lines","roundtrip":"no","opening_hours":"Mo-Fr 05:50-06:22; PH off","network:wikidata":"Q7833625","public_transport:version":"2"}}