{"2620955":{"name":"Railway line Kumanovo - Beljakovce - Kriva Palanka","type":"route","route":"railway"},"7797877":{"name":"Велес-Кочани","type":"route","route":"railway","operator":"Makcedonian Railways","wikidata":"Q3239994","wheelchair":"no"},"14213698":{"name":"Gjorče Petrov–Kičevo railway line","type":"route","route":"railway","wikidata":"Q3239602"},"14214950":{"name":"Volkovo (border) – Skopje railway line","type":"route","route":"railway","wikidata":"Q3239932"},"14215079":{"name":"Tabanovce – Gevgelija railway line","type":"route","route":"railway","wikidata":"Q3239944"},"14217933":{"name":"Gradsko - Šivec railway line","type":"route","route":"railway","wikidata":"Q112231600"},"14219659":{"name":"Madzari - Skopje Jug railway line","type":"route","route":"railway","wikidata":"Q112240740"},"14219884":{"name":"Madzari - Skopje Tovarna railway line","type":"route","route":"railway","wikidata":"Q112241341"},"14219975":{"name":"Dracevo - Raspatnica \\\"B\\\" - Trubarevo Priemna railway line","type":"route","route":"railway","wikidata":"Q112241919"},"14220092":{"name":"Lisiče - Trubarevo Priemna railway line","type":"route","route":"railway","wikidata":"Q112242331"},"14220150":{"name":"Trubarevo Otpremna - Ilinden railway line","type":"route","route":"railway","wikidata":"Q112242614"},"14220378":{"name":"Trubarevo Otpremna - Dračevo railway line","type":"route","route":"railway","wikidata":"Q112243266"},"15538873":{"to":"Ohrid","via":"Gostivar;Kičevo","from":"Skopje","name":"Пруга со тесен колосек Скопје - Охрид","type":"route","gauge":"600","route":"railway","name:ba":"Pruga uskog koloseka Skopje – Ohrid","name:de":"Schmalspurbahn Skopje – Ohrid","name:en":"Narrow gauge railway Skopje - Ohrid","name:pl":"Kolej wąskotorowa Skopje – Ochryda","railway":"historic","end_date":"1952..1966","start_date":"1916..1923"},"15539048":{"to":"Tašmorunište","via":"Struga","from":"Podmolje","name":"Pruga uskog koloseka Podmolje - Struga - Tašmorunište","type":"route","gauge":"600","route":"railway","name:de":"Schmalspurbahn Podmolje - Struga - Tašmorunište","railway":"historic","end_date":"1966","start_date":"1922"}}