{"3271383":{"name":"خیبر درہ لائن","type":"route","route":"railway","name:en":"Khyber-Pass-Line","name:ur":"خیبر درہ لائن","wikidata":"Q30588087"},"5886638":{"to":"Chaman","from":"Rohri","name":"Rohri-Chaman railway line","type":"route","route":"railway","distance":"523","operator":"Pakistan Railways","wikipedia":"en:Rohri-Chaman railway line"},"6104065":{"name":"Hyderabad - Khokarapar - Barmer - Luni railway","type":"route","route":"railway"},"6104668":{"name":"Karachi - Kotri (Hyderabad) main railway","type":"route","route":"railway"},"6106597":{"name":"Bahawalpur - Khanewal direkt railway line","type":"route","route":"railway"},"6106598":{"name":"Samasata - Multan - Lahore","type":"route","route":"railway"},"6118211":{"name":"(Quetta-) Spezand - Zahedan railway","type":"route","route":"railway"},"6122567":{"name":"پشاور - اٹک - راولپنڈی ریلوے لائن","type":"route","route":"railway","name:en":"Peshawar - Attock - Rawalpindi Railway Line","name:ur":"پشاور - اٹک - راولپنڈی ریلوے لائن","operator":"پاکستان ریلویز","operator:ur":"پاکستان ریلویز","operator:wikidata":"Q918096","operator:wikipedia":"ur:پاکستان ریلویز","operator:wikipedia:ur":"پاکستان ریلویز"},"6127340":{"name":"Kotri - Samasata main railway line","type":"route","route":"railway"},"6729039":{"name":"Lahore - Rawalpindi railway","type":"route","route":"railway"},"7265150":{"name":"Zhob Valley Railway","type":"route","route":"railway","wikipedia":"en:Zhob Valley Railway"},"7521816":{"name":"Kot Addu - Jacobabad - Larkana railway","type":"route","route":"railway"},"7522011":{"name":"سانگلہ ہِل-كُندياں فرعی ریلوے خط","type":"route","route":"railway","name:en":"Sangla Hill–Kundian Railway","wikipedia":"en:Sangla Hill–Kundian Branch Line"},"8060987":{"name":"Kotri - Larkana railway","type":"route","route":"railway"},"8379516":{"name":"Sibi Junction–Quetta–Chaman","type":"route","route":"railway"},"15017673":{"to":"Fazilka Junction","from":"Samasata","name":"Samasata - Fazilka line","type":"route","route":"railway"},"15442316":{"name":"شاہدرہ باغ-چک امرُو فرعی ریلوے خط","type":"route","route":"railway","name:en":"Shahdara Bagh–Chak Amru Branch Line"},"15442317":{"name":"وزِيرآباد-نارووال فرعی ریلوے خط","type":"route","route":"railway","name:en":"Wazirabad–Narowal Branch Line","operator":"پاکستان ریلویز","wikidata":"Q24088676","wikipedia":"en:Wazirabad–Narowal Branch Line"},"15442449":{"name":"شورکوٹ-شَيخُوپُور فرعی ریلوے خط","type":"route","route":"railway","name:en":"Shorkot–Sheikhupura Branch Line","wikidata":"Q28173266","wikipedia":"en:Shorkot–Sheikhupura Branch Line"},"15442874":{"name":"Shorkot–Lalamusa Branch Line","type":"route","route":"railway","wikipedia":"en:Shorkot–Lalamusa Branch Line"}}