{"76134":{"to":"Zgorzelec","via":"Jaworzyna Śląska, Wałbrzych, Jelenia Góra","from":"Wrocław Świebodzki","name":"Linia kolejowa nr 274 Wrocław Świebodzki - Zgorzelec","type":"route","route":"railway","network":"PKP","operator":"PKP Polskie Linie Kolejowe S.A.","wikidata":"Q741981","wikipedia":"pl:Linia kolejowa nr 274","operator:wikidata":"Q1344677"},"176889":{"ref":"91","name":"Linia kolejowa nr 91 Kraków Główny – Medyka","type":"route","route":"railway","network":"PKP","voltage":"3000","operator":"PKP Polskie Linie Kolejowe S.A.","wikidata":"Q11757476","frequency":"0","wikipedia":"pl:Linia kolejowa nr 91","electrified":"contact_line","operator:wikidata":"Q1344677"},"275029":{"ref":"326","name":"Linia kolejowa nr 326 Wrocław Psie Pole - Trzebnica","type":"route","route":"railway","network":"PKP","operator":"PKP Polskie Linie Kolejowe S.A.;Województwo Dolnośląskie - Dolnośląska Słuzba Dróg i Kolei we Wrocławiu"},"318905":{"to":"Kunowice (GP)","ref":"3","via":"Łowicz Główny;Kutno;Poznań Główny;Rzepin","from":"Warszawa Zachodnia","name":"Linia kolejowa nr 3 Warszawa Zachodnia - Kunowice","note":"TODO: make E20 a separate relation","type":"route","route":"railway","int_ref":"E20","network":"PKP","voltage":"3000","maxspeed":"160","operator":"PKP Polskie Linie Kolejowe S.A.","wikidata":"Q803436","wikipedia":"pl:Linia kolejowa nr 3","electrified":"contact_line","operator:wikidata":"Q1344677"},"318906":{"to":"Katowice","ref":"1","from":"Warszawa Zachodnia","name":"Linia kolejowa nr 1 Warszawa Zachodnia – Katowice","type":"route","gauge":"1435","route":"railway","network":"PKP","voltage":"3000","alt_name":"Wiedenka","operator":"PKP Polskie Linie Kolejowe S.A.","wikidata":"Q2791001","wikipedia":"pl:Linia kolejowa nr 1","electrified":"contact_line","operator:wikidata":"Q1344677"},"318914":{"to":"Kraków Główny","ref":"8","from":"Warszawa Zachodnia","name":"Linia kolejowa nr 8 Warszawa Zachodnia – Kraków Główny","type":"route","route":"railway","network":"PKP","voltage":"3000","operator":"PKP Polskie Linie Kolejowe S.A.","wikidata":"Q11757460","wikipedia":"pl:Linia kolejowa nr 8","operator:wikidata":"Q1344677","operator:wikipedia":"pl:PKP Polskie Linie Kolejowe"},"318915":{"to":"Grabowno Wielkie","ref":"355","from":"Ostrów Wielkopolski","name":"Linia kolejowa nr 355 Ostrów Wielkopolski - Grabowno Wielkie","type":"route","route":"railway","network":"PKP","operator":"PKP Polskie Linie Kolejowe S.A.","wikidata":"Q11757335","wikipedia":"pl:Linia kolejowa nr 355","operator:wikidata":"Q1344677"},"318917":{"to":"Poznań Główny","ref":"272","from":"Kluczbork","name":"Linia kolejowa nr 272 Kluczbork - Poznań Główny","type":"route","route":"railway","network":"PKP","operator":"PKP Polskie Linie Kolejowe S.A.","wikidata":"Q11757274","wikipedia":"pl:Linia kolejowa nr 272","operator:wikidata":"Q1344677"},"318918":{"to":"Oleśnica","ref":"181","from":"Herby Nowe","name":"Linia kolejowa nr 181 Herby Nowe - Oleśnica","type":"route","route":"railway","network":"PKP","operator":"PKP Polskie Linie Kolejowe S.A.","wikidata":"Q11757195","wikipedia":"pl:Linia kolejowa nr 181","operator:wikidata":"Q1344677"},"318921":{"to":"Liswarta","ref":"686","from":"Herby Nowe","name":"Linia kolejowa nr 686 Herby Nowe - Liswarta","type":"route","route":"railway","network":"PKP","operator":"PKP Polskie Linie Kolejowe S.A.","operator:wikidata":"Q1344677"},"318922":{"to":"Herby Nowe","ref":"704","from":"Herby Stare","name":"Linia kolejowa nr 704 Herby Stare - Herby Nowe","type":"route","route":"railway","network":"PKP","operator":"PKP Polskie Linie Kolejowe S.A.","operator:wikidata":"Q1344677"},"318923":{"ref":"687","name":"Linia kolejowa nr 687 Kalina - Herby Stare","type":"route","route":"railway","network":"PKP","operator":"PKP Polskie Linie Kolejowe S.A.","operator:wikidata":"Q1344677"},"318924":{"to":"Fosowskie","ref":"61","from":"Kielce Główne","name":"Linia kolejowa nr 61 Kielce Główne - Fosowskie","type":"route","route":"railway","network":"PKP","voltage":"3000","maxspeed":"100","operator":"PKP Polskie Linie Kolejowe S.A.","wikidata":"Q11757418","wikipedia":"pl:Linia kolejowa nr 61","electrified":"contact_line","operator:wikidata":"Q1344677"},"318925":{"to":"Tczew","ref":"131","via":"Chorzów Stary;Bytom;Radzionków;Nakło Śląskie;Tarnowskie Góry;Zwierzyniec;Kalety;Herby Nowe;Chorzew Siemkowice;Zduńska Wola Karsznice;Ponętów;Inowrocław Rąbinek;Inowrocław;Nowa Wieś Wielka;Bydgoszcz Główna;Maksymilianowo;Laskowice Pomorskie;Morzeszczyn","from":"Chorzów Batory","name":"Linia kolejowa nr 131 Chorzów Batory – Tczew","type":"route","route":"railway","network":"PKP","operator":"PKP Polskie Linie Kolejowe S.A.","wikidata":"Q11757148","wikipedia":"pl:Linia kolejowa nr 131","operator:wikidata":"Q1344677"},"318926":{"to":"Zduńska Wola Karsznice","ref":"542","from":"Gajewniki","name":"Linia kolejowa nr 542 Gajewniki - Zduńska Wola Karsznice","type":"route","route":"railway","network":"PKP","operator":"PKP Polskie Linie Kolejowe S.A.","operator:wikidata":"Q1344677"},"318927":{"to":"Zduńska Wola","ref":"739","from":"Zduńska Wola Karsznice","name":"Linia kolejowa nr 739 Zduńska Wola Karsznice - Zduńska Wola","type":"route","route":"railway","network":"PKP","operator":"PKP Polskie Linie Kolejowe S.A.","operator:wikidata":"Q1344677"},"318928":{"to":"Dionizów","ref":"810","from":"Zduńska Wola","name":"Linia kolejowa nr 810 Zduńska Wola - Dionizów","type":"route","route":"railway","network":"PKP","operator":"PKP Polskie Linie Kolejowe S.A.","operator:wikidata":"Q1344677"},"318929":{"ref":"737","name":"Linia kolejowa nr 737 Ponętów - Barłogi","type":"route","route":"railway","network":"PKP","operator":"PKP Polskie Linie Kolejowe S.A.","operator:wikidata":"Q1344677"},"318930":{"ref":"740","name":"Linia kolejowa nr 740 Ponętów - Zamków","type":"route","route":"railway","network":"PKP","operator":"PKP Polskie Linie Kolejowe S.A.","operator:wikidata":"Q1344677"},"318931":{"ref":"809","name":"Linia kolejowa nr 809 Barłogi - Borysławice","type":"route","route":"railway","network":"PKP","operator":"PKP Polskie Linie Kolejowe S.A.","operator:wikidata":"Q1344677"},"318932":{"ref":"544","name":"Linia kolejowa nr 544 Zamków - Borysławice","type":"route","route":"railway","network":"PKP","operator":"PKP Polskie Linie Kolejowe S.A.","operator:wikidata":"Q1344677"},"318933":{"ref":"808","name":"Linia kolejowa nr 808 Września - Podstolice","type":"route","route":"railway","network":"PKP","distance":"6.919","operator":"PKP Polskie Linie Kolejowe S.A.","wikidata":"Q11757463","wikipedia":"pl:Linia kolejowa nr 808","operator:wikidata":"Q1344677"},"318934":{"ref":"807","name":"Linia kolejowa nr 807 Sokołowo Wrzesińskie – Września","type":"route","route":"railway","network":"PKP","distance":"2.370","operator":"PKP Polskie Linie Kolejowe S.A.","wikidata":"Q11757462","wikipedia":"pl:Linia kolejowa nr 807","operator:wikidata":"Q1344677"},"318935":{"to":"Chojnice","ref":"281","from":"Oleśnica","name":"Linia kolejowa nr 281 Oleśnica - Chojnice","type":"route","route":"railway","network":"PKP","operator":"PKP Polskie Linie Kolejowe S.A.","wikidata":"Q11757280","wikipedia":"pl:Linia kolejowa nr 281","operator:wikidata":"Q1344677"},"318937":{"ref":"525","name":"Linia kolejowa nr 525: Czachówek Południowy - Czachówek Wschodni","type":"route","route":"railway","source":"https://www.plk-sa.pl/files/public/user_upload/pdf/Akty_prawne_i_przepisy/Instrukcje/Wydruk/Id/Id-12__D29__Wykaz_linii_09.pdf","network":"PKP","operator":"PKP Polskie Linie Kolejowe S.A.","operator:wikidata":"Q1344677"},"318938":{"ref":"526","name":"Linia kolejowa nr 526: Czachówek Zachodni - Czachówek Południowy R3","type":"route","route":"railway","source":"https://www.plk-sa.pl/files/public/user_upload/pdf/Akty_prawne_i_przepisy/Instrukcje/Wydruk/Id/Id-12__D29__Wykaz_linii_09.pdf","network":"PKP","operator":"PKP Polskie Linie Kolejowe S.A.","operator:wikidata":"Q1344677"},"318939":{"ref":"527","name":"Linia kolejowa nr 527: Czachówek Południowy R7 - Czachówek Wschodni","type":"route","route":"railway","source":"https://www.plk-sa.pl/files/public/user_upload/pdf/Akty_prawne_i_przepisy/Instrukcje/Wydruk/Id/Id-12__D29__Wykaz_linii_09.pdf","network":"PKP","operator":"PKP Polskie Linie Kolejowe S.A.","operator:wikidata":"Q1344677"},"318940":{"ref":"528","name":"Linia kolejowa nr 528: Czachówek Zachodni - Czachówek Południowy","type":"route","route":"railway","source":"https://www.plk-sa.pl/files/public/user_upload/pdf/Akty_prawne_i_przepisy/Instrukcje/Wydruk/Id/Id-12__D29__Wykaz_linii_09.pdf","network":"PKP","operator":"PKP Polskie Linie Kolejowe S.A.","operator:wikidata":"Q1344677"},"318941":{"to":"Skierniewice R86","ref":"530","from":"Skierniewice R95","name":"Linia kolejowa nr 530 Skierniewice R95 - Skierniewice R86","type":"route","route":"railway","network":"PKP","operator":"PKP Polskie Linie Kolejowe S.A.","operator:wikidata":"Q1344677"},"318942":{"to":"Łowicz Głównt R12","ref":"533","from":"Łowicz Główny R1","name":"Linia kolejowa nr 533: Łowicz Główny R1 - Łowicz Główny R12","type":"route","route":"railway","source":"https://www.plk-sa.pl/files/public/user_upload/pdf/Akty_prawne_i_przepisy/Instrukcje/Wydruk/Id/Id-12__D29__Wykaz_linii.pdf","network":"PKP","distance":"1,538","old_name":"Linia kolejowa nr 533: Arkadia - Placencja","operator":"PKP Polskie Linie Kolejowe S.A.","operator:wikidata":"Q1344677"},"318943":{"ref":"570","name":"Linia kolejowa nr 570: Psary - Starzyny","type":"route","route":"railway","source":"https://www.plk-sa.pl/files/public/user_upload/pdf/Akty_prawne_i_przepisy/Instrukcje/Wydruk/Id-12_Wykaz_linii_06.2021.pdf","network":"PKP","distance":"2,753","operator":"PKP Polskie Linie Kolejowe S.A.","operator:wikidata":"Q1344677"},"318944":{"ref":"571","name":"Linia kolejowa nr 571: Czarnca - Knapówka","type":"route","route":"railway","source":"https://www.plk-sa.pl/files/public/user_upload/pdf/Akty_prawne_i_przepisy/Instrukcje/Wydruk/Id-12_Wykaz_linii_06.2021.pdf","network":"PKP","distance":"3,482","operator":"PKP Polskie Linie Kolejowe S.A.","operator:wikidata":"Q1344677"},"318945":{"ref":"573","name":"Linia kolejowa nr 573: Idzikowice - Radzice","type":"route","route":"railway","source":"https://www.plk-sa.pl/files/public/user_upload/pdf/Akty_prawne_i_przepisy/Instrukcje/Wydruk/Id-12_Wykaz_linii_06.2021.pdf","network":"PKP","distance":"4,467","operator":"PKP Polskie Linie Kolejowe S.A.","operator:wikidata":"Q1344677"},"318946":{"ref":"574","name":"Linia kolejowa nr 574: Radzice 1 - Idzikowice","type":"route","route":"railway","source":"https://www.plk-sa.pl/files/public/user_upload/pdf/Akty_prawne_i_przepisy/Instrukcje/Wydruk/Id-12_Wykaz_linii_06.2021.pdf","network":"PKP","distance":"4,188","operator":"PKP Polskie Linie Kolejowe S.A.","operator:wikidata":"Q1344677"},"318947":{"to":"Marków","ref":"575","from":"Szeligi","name":"Linia kolejowa nr 575 Szeligi - Marków","type":"route","route":"railway","network":"PKP","operator":"PKP Polskie Linie Kolejowe S.A.","operator:wikidata":"Q1344677"},"318948":{"to":"Rożki","ref":"576","from":"Wolanów","name":"Linia kolejowa nr 576 Wolanów - Rożki","type":"route","route":"railway","network":"PKP","operator":"PKP Polskie Linie Kolejowe S.A.","operator:wikidata":"Q1344677"},"318949":{"ref":"804","name":"Linia kolejowa nr 804: Poznań Antoninek - Nowa Wieś Poznańska","type":"route","route":"railway","source":"https://www.plk-sa.pl/files/public/user_upload/pdf/Akty_prawne_i_przepisy/Instrukcje/Wydruk/Id/Id-12__D29__Wykaz_linii_09.pdf","network":"PKP","operator":"PKP Polskie Linie Kolejowe S.A.","operator:wikidata":"Q1344677"},"318950":{"to":"Zawiercie","ref":"4","from":"Grodzisk Mazowiecki","name":"Centralna Magistrala Kolejowa","type":"route","route":"railway","network":"PKP","alt_name":"Linia kolejowa nr 4 Grodzisk Mazowiecki - Zawiercie","operator":"PKP Polskie Linie Kolejowe S.A.","wikidata":"Q2006205","wikipedia":"pl:Linia kolejowa nr 4","operator:wikidata":"Q1344677"},"318951":{"to":"Łowicz Główny","ref":"11","from":"Skierniewice","name":"Linia kolejowa nr 11 Skierniewice - Łowicz Główny","type":"route","gauge":"1435","route":"railway","network":"PKP","voltage":"3000","maxspeed":"50","operator":"PKP Polskie Linie Kolejowe S.A.","wikidata":"Q11757130","frequency":"0","wikipedia":"pl:Linia kolejowa nr 11","electrified":"contact_line","operator:wikidata":"Q1344677","construction:railway:etcs":"1"},"318952":{"to":"Łuków","ref":"12","from":"Skierniewice","name":"Linia kolejowa nr 12 Skierniewice - Łuków","type":"route","route":"railway","network":"PKP","voltage":"3000","loc_name":"Esełka","maxspeed":"60","operator":"PKP Polskie Linie Kolejowe S.A.","wikidata":"Q11757143","frequency":"0","wikipedia":"pl:Linia kolejowa nr 12","electrified":"contact_line","operator:wikidata":"Q1344677","construction:railway:etcs":"1"},"318953":{"to":"Dorohusk","ref":"7","from":"Warszawa Wschodnia Osobowa","name":"Linia kolejowa nr 7 Warszawa Wschodnia Osobowa - Dorohusk","type":"route","route":"railway","network":"PKP","alt_name":"Kolej Nadwiślańska;Droga Żelażna Nadwiślańska","operator":"PKP Polskie Linie Kolejowe S.A.","wikidata":"Q11757430","wikipedia":"pl:Linia kolejowa nr 7","operator:wikidata":"Q1344677"},"318954":{"to":"Łódź Kaliska","ref":"15","via":"Mysłaków;Łowicz Przedmieście;Grudze;Domaniewice;Domaniewice Centrum;Kamień Łowicki;Głowno;Bratoszewice;Stryków;Swędów;Glinnik;Glinnik Wieś;Smardzew;Zgierz Główny;Łódź Radogoszcz Zachód;Łódź Żabieniec","from":"Bednary","name":"Linia kolejowa nr 15 Bednary - Łódź Kaliska","type":"route","route":"railway","network":"PKP","operator":"PKP Polskie Linie Kolejowe S.A.","wikidata":"Q11757165","wikipedia":"pl:Linia kolejowa nr 15","operator:wikidata":"Q1344677"},"318955":{"to":"Kutno","ref":"16","via":"Łódź Stoki;Łódź Marysin;Łódź Warszawska;Łódź Arturówek;Łódź Radogoszcz Wschód;Zgierz Główny;Zgierz Północ;Zgierz Jaracza;Zgierz Kontrewers;Grotniki;Chociszew;Ozorków Nowe Miasto;Ozorków;Sierpów;Łęczyca;Gawrony;Witonia","from":"Łódź Widzew","name":"Linia kolejowa nr 16: Łódź Widzew - Kutno","type":"route","route":"railway","network":"PKP","maxspeed":"100","operator":"PKP Polskie Linie Kolejowe S.A.","operator:wikidata":"Q1344677"},"318956":{"to":"Radom Główny","ref":"22","via":"Drzewica;Przysucha;Wieniawa","from":"Tomaszów Mazowiecki","name":"Linia kolejowa nr 22 Tomaszów Mazowiecki - Radom Główny","type":"route","route":"railway","network":"PKP","maxspeed":"100","operator":"PKP Polskie Linie Kolejowe S.A.","wikidata":"Q11757228","wikipedia":"pl:Linia kolejowa nr 22","operator:wikidata":"Q1344677"},"318957":{"ref":"64","name":"Linia kolejowa nr 64 Kozłów - Koniecpol","type":"route","route":"railway","network":"PKP","voltage":"3000","operator":"PKP Polskie Linie Kolejowe S.A.","wikidata":"Q11757422","wikipedia":"pl:Linia kolejowa nr 64","electrified":"contact_line","operator:wikidata":"Q1344677"},"318958":{"to":"Poznań Starołęka","ref":"352","from":"Swarzędz","name":"Linia kolejowa nr 352: Swarzędz - Poznań Starołęka","type":"route","route":"railway","source":"https://www.plk-sa.pl/files/public/user_upload/pdf/Akty_prawne_i_przepisy/Instrukcje/Wydruk/Id/Id-12__D29__Wykaz_linii_09.pdf","network":"PKP","operator":"PKP Polskie Linie Kolejowe S.A.","wikidata":"Q11757334","wikipedia":"pl:Linia kolejowa nr 352","operator:wikidata":"Q1344677"},"319204":{"to":"Rudna Gwizdanów","ref":"289","from":"Legnica","name":"Linia kolejowa nr 289 Legnica - Rudna Gwizdanów","type":"route","route":"railway","network":"PKP","operator":"PKP Polskie Linie Kolejowe S.A.","wikidata":"Q11757286","wikipedia":"pl:Linia kolejowa nr 289","operator:wikidata":"Q1344677"},"319206":{"ref":"275","name":"Linia kolejowa nr 275 Wrocław Muchobór - Gubinek","type":"route","route":"railway","network":"PKP","operator":"PKP Polskie Linie Kolejowe S.A.","wikidata":"Q11757275","wikipedia":"pl:Linia kolejowa nr 275","operator:wikidata":"Q1344677"},"319208":{"to":"Grodzisk Mazowiecki Radońska","ref":"47","from":"Warszawa Śródmieście WKD","name":"Linia kolejowa nr 47 Warszawa Śródmieście WKD - Grodzisk Mazowiecki Radońska","type":"route","route":"railway","network":"PKP","operator":"Warszawska Kolej Dojazdowa Sp. z o.o.","wikidata":"Q11757399","wikipedia":"pl:Linia kolejowa nr 47"},"319211":{"to":"Zebrzydowice","ref":"93","from":"Trzebinia","name":"Linia kolejowa nr 93 Trzebinia - Zebrzydowice","type":"route","route":"railway","network":"PKP","operator":"PKP Polskie Linie Kolejowe S.A.","wikidata":"Q2753611","wikipedia":"pl:Linia kolejowa nr 93","operator:wikidata":"Q1344677"},"319213":{"to":"Katowice","ref":"138","from":"Oświęcim","name":"Linia kolejowa nr 138 Oświęcim - Katowice","type":"route","route":"railway","network":"PKP","operator":"PKP Polskie Linie Kolejowe S.A.","wikidata":"Q11757152","wikipedia":"pl:Linia kolejowa nr 138","operator:wikidata":"Q1344677"},"319214":{"to":"Mysłowice","ref":"134","from":"Jaworzno Szczakowa","name":"Linia kolejowa nr 134 Jaworzno Szczakowa - Mysłowice","type":"route","route":"railway","network":"PKP","operator":"PKP Polskie Linie Kolejowe S.A.","wikidata":"Q802479","wikipedia":"pl:Linia kolejowa nr 134","operator:wikidata":"Q1344677"},"319215":{"to":"Jaworzno Szczakowa","ref":"156","from":"Bukowno","name":"Linia kolejowa nr 156 Bukowno - Jaworzno Szczakowa","type":"route","route":"railway","network":"PKP","operator":"PKP Polskie Linie Kolejowe S.A.","wikidata":"Q11757172","wikipedia":"pl:Linia kolejowa nr 156","operator:wikidata":"Q1344677"},"319216":{"ref":"447","name":"Linia kolejowa nr 447 Warszawa Zachodnia - Grodzisk Mazowiecki","type":"route","route":"railway","network":"PKP","operator":"PKP Polskie Linie Kolejowe S.A.","wikidata":"Q11757390","wikipedia":"pl:Linia kolejowa nr 447","operator:wikidata":"Q1344677"},"319218":{"to":"Legnica","ref":"137","from":"Katowice","name":"Linia kolejowa nr 137 Katowice - Legnica","type":"route","route":"railway","network":"Polskie Koleje Państwowe Polskie Linie Kolejowe spółka akcyjna","operator":"PKP Polskie Linie Kolejowe S.A.","wikidata":"Q11757153","wikipedia":"pl:Linia kolejowa nr 137","operator:wikidata":"Q1344677"},"319219":{"to":"Wadowice","ref":"103","from":"Trzebinia","name":"Linia kolejowa nr 103 Trzebinia - Wadowice","type":"route","route":"railway","network":"PKP","operator":"PKP Polskie Linie Kolejowe S.A.","wikidata":"Q11757125","wikipedia":"pl:Linia kolejowa nr 103","operator:wikidata":"Q1344677"},"319220":{"to":"Brodnica","ref":"33","via":"Płock;Sierpc","from":"Kutno","name":"Linia kolejowa nr 33 Kutno - Brodnica","type":"route","route":"railway","network":"PKP","operator":"PKP Polskie Linie Kolejowe S.A.","wikidata":"Q11757322","wikipedia":"pl:Linia kolejowa nr 33","operator:wikidata":"Q1344677"},"319221":{"to":"Toruń Wschodni","ref":"27","via":"Sierpc","from":"Nasielsk","name":"Linia kolejowa nr 27 Nasielsk - Toruń Wschodni","type":"route","route":"railway","network":"PKP","maxspeed":"80","operator":"PKP Polskie Linie Kolejowe S.A.","wikidata":"Q11757271","wikipedia":"pl:Linia kolejowa nr 27","operator:wikidata":"Q1344677"},"319222":{"ref":"9","name":"Linia kolejowa nr 9 Warszawa Wschodnia Osobowa - Gdańsk Główny","type":"route","route":"railway","network":"PKP","operator":"PKP Polskie Linie Kolejowe S.A.","wikidata":"Q647822","wikipedia":"pl:Linia kolejowa nr 9","operator:wikidata":"Q1344677"},"319223":{"to":"Malbork","ref":"207","from":"Toruń Wschodni","name":"Linia kolejowa nr 207 Toruń Wschodni - Malbork","type":"route","route":"railway","network":"PKP","operator":"PKP Polskie Linie Kolejowe S.A.","wikidata":"Q11757221","wikipedia":"pl:Linia kolejowa nr 207","operator:wikidata":"Q1344677"},"319279":{"ref":"736","name":"Linia kolejowa nr 736: Grębocin - Katarzynka","type":"route","route":"railway","source":"https://www.plk-sa.pl/files/public/user_upload/pdf/Akty_prawne_i_przepisy/Instrukcje/Wydruk/Id/Id-12__D29__Wykaz_linii_09.pdf","network":"PKP","operator":"PKP Polskie Linie Kolejowe S.A.","wikidata":"Q11757445","wikipedia":"pl:Linia kolejowa nr 736","operator:wikidata":"Q1344677"},"319280":{"to":"Przeworsk","ref":"68","from":"Lublin Główny","name":"Linia kolejowa nr 68 Lublin Główny - Przeworsk","type":"route","route":"railway","network":"PKP","operator":"PKP Polskie Linie Kolejowe S.A.","wikidata":"Q11757425","wikipedia":"pl:Linia kolejowa nr 68","operator:wikidata":"Q1344677"},"319283":{"to":"Stalowa Wola Południe","ref":"66","from":"Zwierzyniec","name":"Linia kolejowa nr 66 Zwierzyniec - Stalowa Wola Południe","type":"route","route":"railway","network":"PKP","operator":"PKP Polskie Linie Kolejowe S.A.","operator:wikidata":"Q1344677"},"319286":{"ref":"21","name":"Linia kolejowa nr 21 Warszawa Wileńska - Zielonka","type":"route","route":"railway","network":"PKP","operator":"PKP Polskie Linie Kolejowe S.A.","wikidata":"Q30872068","wikipedia":"pl:Linia kolejowa nr 21","operator:wikidata":"Q1344677"},"319287":{"to":"Warszawa Aleje Jerozolimskie","ref":"510","from":"Warszawa Główna Towarowa","name":"Linia kolejowa nr 510: Warszawa Główna Towarowa - Warszawa Aleje Jerozolimskie","type":"route","route":"railway","source":"https://www.plk-sa.pl/files/public/user_upload/pdf/Akty_prawne_i_przepisy/Instrukcje/Wydruk/Id/Id-12__D29__Wykaz_linii_09.pdf","network":"PKP","operator":"PKP Polskie Linie Kolejowe S.A.","operator:wikidata":"Q1344677"},"319288":{"ref":"503","name":"Linia kolejowa nr 503: Warszawa Wileńska Marki - Warszawa Wschodnia Towarowa","type":"route","route":"railway","source":"https://www.plk-sa.pl/files/public/user_upload/pdf/Akty_prawne_i_przepisy/Instrukcje/Wydruk/Id/Id-12__D29__Wykaz_linii.pdf","network":"PKP","operator":"PKP Polskie Linie Kolejowe S.A.","operator:wikidata":"Q1344677","not:operator:wikidata":"Q1344677"},"319290":{"to":"Ostrołęka","ref":"29","from":"Tłuszcz","name":"Linia kolejowa nr 29 Tłuszcz - Ostrołęka","type":"route","route":"railway","network":"PKP","operator":"PKP Polskie Linie Kolejowe S.A.","wikidata":"Q11757285","wikipedia":"pl:Linia kolejowa nr 29","operator:wikidata":"Q1344677","year_of_construction":"1897"},"319291":{"to":"Tłuszcz","ref":"10","from":"Legionowo","name":"Linia kolejowa nr 10 Legionowo - Tłuszcz","type":"route","route":"railway","network":"PKP","operator":"PKP Polskie Linie Kolejowe S.A.","wikidata":"Q11757120","wikipedia":"pl:Linia kolejowa nr 10","operator:wikidata":"Q1344677"},"319292":{"to":"Radom","ref":"26","from":"Łuków","name":"Linia kolejowa nr 26 Łuków - Radom Główny","type":"route","route":"railway","network":"PKP","voltage":"3000","maxspeed":"120","operator":"PKP Polskie Linie Kolejowe S.A.","wikidata":"Q11757266","wikipedia":"pl:Linia kolejowa nr 26","operator:wikidata":"Q1344677"},"319294":{"to":"Łowicz Przedmieście","ref":"531","from":"Łowicz Główny ŁG1","name":"Linia kolejowa nr 531: Łowicz Główny R30 - Łowicz Przedmieście","type":"route","route":"railway","source":"https://www.plk-sa.pl/files/public/user_upload/pdf/Akty_prawne_i_przepisy/Instrukcje/Wydruk/Id/Id-12__D29__Wykaz_linii.pdf","network":"PKP","operator":"PKP Polskie Linie Kolejowe S.A.","operator:wikidata":"Q1344677"},"319295":{"to":"Łowicz Przedmieście","ref":"532","from":"Łowicz Główny","name":"Linia kolejowa nr 532: Łowicz Główny R45 - Łowicz Przedmieście","type":"route","route":"railway","source":"https://www.plk-sa.pl/files/public/user_upload/pdf/Akty_prawne_i_przepisy/Instrukcje/Wydruk/Id/Id-12__D29__Wykaz_linii.pdf","network":"PKP","operator":"PKP Polskie Linie Kolejowe S.A.","operator:wikidata":"Q1344677"},"319296":{"to":"Piła Główna","ref":"354","from":"Poznań Główny (rejon PoD)","name":"Linia kolejowa nr 354: Poznań Główny PoD - Piła Główna","type":"route","route":"railway","network":"PKP","operator":"PKP Polskie Linie Kolejowe S.A.","wikidata":"Q11757339","wikipedia":"pl:Linia kolejowa nr 354","operator:wikidata":"Q1344677"},"324720":{"to":"Łeba","ref":"229","via":"Kartuzy;Lębork","from":"Pruszcz Gdański","name":"Linia kolejowa nr 229 Pruszcz Gdański - Łeba","type":"route","route":"railway","network":"PKP","operator":"PKP Polskie Linie Kolejowe S.A.","wikidata":"Q803054","wikipedia":"pl:Linia kolejowa nr 229","operator:wikidata":"Q1344677"},"325510":{"to":"Hel","ref":"213","from":"Reda","name":"Linia kolejowa nr 213 Reda - Hel","type":"route","route":"railway","network":"PKP","operator":"PKP Polskie Linie Kolejowe S.A.","wikidata":"Q803073","wikipedia":"pl:Linia kolejowa nr 213","operator:wikidata":"Q1344677","not:operator:wikidata":"Q1344677"},"325836":{"to":"Terespol","ref":"2","from":"Warszawa Zachodnia","name":"Linia kolejowa nr 2 Warszawa Zachodnia - Terespol","type":"route","route":"railway","network":"PKP","voltage":"3000","operator":"PKP Polskie Linie Kolejowe S.A.","wikidata":"Q18610107","wikipedia":"pl:Linia kolejowa nr 2","electrified":"contact_line","operator:wikidata":"Q1344677"},"398082":{"to":"Braniewo","ref":"254","from":"Tropy","name":"Linia kolejowa nr 254 Tropy - Braniewo","type":"route","route":"railway","network":"PKP","operator":"PKP Polskie Linie Kolejowe S.A.;Nadzalewowa Kolej Drezynowa sp. z o.o.","wikidata":"Q1568083","wikipedia":"pl:Linia kolejowa nr 254","operator:wikidata":"Q1344677"},"406513":{"name":"Gnieźnieńska Kolej Wąskotorowa","type":"route","route":"railway","operator":"Biuro Utrzymania i Eksploatacji GKW","wikidata":"Q1787620","wikipedia":"pl:Gnieźnieńska Kolej Wąskotorowa","old_ref:-1945":"130 y","old_name:de:-1945":"Gnesener Kreisbahn (Gnesen - Annendorf)"},"419024":{"to":"Skoczów","ref":"157","from":"Pawłowice Śląskie","name":"Linia kolejowa nr 157 Pawłowice Śląskie - Skoczów","type":"route","route":"railway","network":"PKP","operator":"PKP Polskie Linie Kolejowe S.A.","wikidata":"Q11757171","wikipedia":"pl:Linia kolejowa nr 157","operator:wikidata":"Q1344677"},"538699":{"name":"Kaliska Kolej Dojazdowa","type":"route","gauge":"750","route":"railway","operator":"Stowarzyszenie Kolejowych Przewozów Lokalnych","wikidata":"Q11733819","wikipedia":"pl:Kaliska Kolej Dojazdowa","electrified":"no"},"543778":{"to":"Ławszowa","ref":"283","via":"Zebrzydowa","from":"Jelenia Góra","name":"Linia kolejowa nr 283 Jelenia Góra - Ławszowa","type":"route","route":"railway","network":"PKP","operator":"PKP Polskie Linie Kolejowe S.A.","wikidata":"Q11757279","wikipedia":"pl:Linia kolejowa nr 283","operator:wikidata":"Q1344677"},"546809":{"name":"Linia kolejowa nr 311 Jelenia Góra - Granica Państwa (Jakuszyce)","type":"route","route":"railway","network":"PKP","operator":"PKP Polskie Linie Kolejowe S.A.","wikidata":"Q802483","wikipedia":"pl:Linia kolejowa nr 311","operator:wikidata":"Q1344677"},"934253":{"to":"Wrocław Główny","ref":"132","from":"Bytom","name":"Linia kolejowa nr 132 Bytom - Wrocław Główny","type":"route","route":"railway","network":"PKP","operator":"PKP Polskie Linie Kolejowe S.A.","wikidata":"Q11757149","wikipedia":"pl:Linia kolejowa nr 132","operator:wikidata":"Q1344677"},"934258":{"ref":"136","name":"Linia kolejowa nr 136 Kędzierzyn Koźle - Opole Groszowice","type":"route","route":"railway","network":"PKP","operator":"PKP Polskie Linie Kolejowe S.A.","wikidata":"Q11757150","wikipedia":"pl:Linia kolejowa nr 136","operator:wikidata":"Q1344677"},"934270":{"to":"Lubliniec","ref":"152","from":"Paczyna","name":"Linia kolejowa nr 152 Paczyna - Lubliniec","type":"route","route":"railway","network":"PKP","operator":"PKP Polskie Linie Kolejowe S.A.","wikidata":"Q11757167","wikipedia":"pl:Linia kolejowa nr 152","operator:wikidata":"Q1344677"},"935125":{"to":"Gdańsk Zaspa Towarowa","ref":"249","from":"Gdańsk Główny","name":"Linia kolejowa nr 249 Gdańsk Główny – Gdańsk Zaspa Towarowa R37","type":"route","route":"railway","network":"PKP","old_name":"Linia kolejowa nr 249 Gdańsk Główny – Gdańsk Brzeźno","operator":"PKP Polskie Linie Kolejowe S.A.","wikidata":"Q11757254","wikipedia":"pl:Linia kolejowa nr 249","operator:wikidata":"Q1344677"},"949850":{"ref":"263","name":"Linia kolejowa nr 263 Swarzewo – Krokowa","type":"route","route":"railway","disused":"yes","network":"PKP","maxspeed":"50","operator":"PKP Polskie Linie Kolejowe S.A.","wikidata":"Q11757270","wikipedia":"pl:Linia kolejowa nr 263","electrified":"no"},"951668":{"to":"Szczecin Dąbie SDC","ref":"857","from":"Szczecin Dąbie SDA","name":"Linia kolejowa nr 857 Szczecin Dąbie SDA - Szczecin Dąbie SDC","type":"route","route":"railway","network":"PKP","operator":"PKP Polskie Linie Kolejowe S.A.","operator:wikidata":"Q1344677"},"966304":{"ref":"996","name":"Linia kolejowa nr 996: Lubiewo - Świnoujście SiB","type":"route","route":"railway","source":"https://www.plk-sa.pl/files/public/user_upload/pdf/Akty_prawne_i_przepisy/Instrukcje/Wydruk/Id/Id-12__D29__Wykaz_linii.pdf","network":"PKP","operator":"PKP Polskie Linie Kolejowe S.A.","operator:wikidata":"Q1344677"},"1086613":{"ref":"206","name":"Linia kolejowa nr 206 Inowrocław Rąbinek - Żnin","type":"route","route":"railway","network":"PKP","operator":"PKP Polskie Linie Kolejowe S.A.","wikidata":"Q11757219","wikipedia":"pl:Linia kolejowa nr 206","operator:wikidata":"Q1344677"},"1086614":{"ref":"351","name":"Linia kolejowa nr 351 Poznań Główny - Szczecin Główny","type":"route","route":"railway","network":"PKP","operator":"PKP Polskie Linie Kolejowe S.A.","wikidata":"Q742806","wikipedia":"pl:Linia kolejowa nr 351","operator:wikidata":"Q1344677"},"1100975":{"to":"Kobylnica","ref":"394","from":"Poznań Krzesiny","name":"Linia kolejowa nr 394: Poznań Krzesiny - Kobylnica","type":"route","route":"railway","source":"https://www.plk-sa.pl/files/public/user_upload/pdf/Akty_prawne_i_przepisy/Instrukcje/Wydruk/Id/Id-12__D29__Wykaz_linii_09.pdf","network":"PKP","voltage":"3000","maxspeed":"60","operator":"PKP Polskie Linie Kolejowe S.A.","wikidata":"Q11757371","wikipedia":"pl:Linia kolejowa nr 394","electrified":"contact_line","operator:wikidata":"Q1344677"},"1100979":{"ref":"395","name":"Linia kolejowa nr 395 Zieliniec - Kiekrz","type":"route","route":"railway","network":"PKP","voltage":"3000","alt_name":"Północna obwodnica kolejowa","distance":"20.368","maxspeed":"90","operator":"PKP Polskie Linie Kolejowe S.A.","wikidata":"Q11757372","wikipedia":"pl:Linia kolejowa nr 395","electrified":"contact_line","operator:wikidata":"Q1344677"},"1100980":{"ref":"356","name":"Linia kolejowa nr 356 Poznań Wschód - Bydgoszcz Główna","note":"Starting from 2013 maxspeed is to be upgraded to 120","type":"route","route":"railway","network":"PKP","operator":"PKP Polskie Linie Kolejowe S.A.","srjp_ref":"390","wikidata":"Q11757338","wikipedia":"pl:Linia kolejowa nr 356","electrified":"no","operator:wikidata":"Q1344677"},"1175377":{"to":"Kraków Główny","ref":"133","from":"Dąbrowa Górnicza Ząbkowice","name":"Linia kolejowa nr 133 Dąbrowa Górnicza Ząbkowice - Kraków Główny","type":"route","route":"railway","network":"PKP","operator":"PKP Polskie Linie Kolejowe S.A.","operator:wikidata":"Q1344677"},"1277042":{"to":"Międzylesie","ref":"276","from":"Wrocław Główny","name":"Linia kolejowa nr 276 Wrocław Główny - Międzylesie","type":"route","route":"railway","network":"PKP Polskie Linie Kolejowe S.A.","operator":"PKP Polskie Linie Kolejowe S.A.","operator:wikidata":"Q1344677"},"1334009":{"to":"Koronowo","ref":"241","from":"Tuchola","name":"Linia kolejowa nr 241 Tuchola - Koronowo","type":"route","route":"railway","network":"PKP","operator":"PKP Polskie Linie Kolejowe S.A.","wikidata":"Q11757247","wikipedia":"pl:Linia kolejowa nr 241","operator:wikidata":"Q1344677"},"1621668":{"to":"Śrem","ref":"369","from":"Mieszków","name":"Linia kolejowa nr 369 Mieszków - Śrem","type":"route","route":"railway","network":"PKP","operator":"PKP Polskie Linie Kolejowe S.A.","wikidata":"Q11757349","wikipedia":"pl:Linia kolejowa nr 369","operator:wikidata":"Q1344677"},"1643689":{"to":"Braniewo","ref":"204","from":"Malbork","name":"Linia kolejowa nr 204 Malbork - Braniewo","type":"route","route":"railway","network":"PKP","operator":"PKP Polskie Linie Kolejowe S.A.","wikidata":"Q11757217","wikipedia":"pl:Linia kolejowa nr 204","operator:wikidata":"Q1344677"},"1711959":{"to":"Gdynia Port","ref":"201","via":"Maksymilianowo","from":"Nowa Wieś Wielka","name":"Linia kolejowa nr 201 Nowa Wieś Wielka - Gdynia Port","type":"route","route":"railway","network":"PKP","operator":"PKP Polskie Linie Kolejowe S.A.","wikidata":"Q802323","wikipedia":"pl:Linia kolejowa nr 201","operator:wikidata":"Q1344677"},"1781412":{"to":"Trzebinia Siersza","ref":"114","from":"Trzebinia","name":"Linia kolejowa nr 114: Trzebinia - Trzebinia Siersza","type":"route","route":"railway","source":"https://www.plk-sa.pl/files/public/user_upload/pdf/Akty_prawne_i_przepisy/Instrukcje/Wydruk/Id/Id-12__D29__Wykaz_linii.pdf","network":"PKP","operator":"PKP Polskie Linie Kolejowe S.A.","operator:wikidata":"Q1344677"},"1953729":{"name":"Żuławska Kolej Dojazdowa","type":"route","gauge":"750","route":"railway","operator":"Pomorskie Towarzystwo Miłośników Kolei Żelaznych","wikidata":"Q393224","wikipedia":"pl:Żuławska Kolej Dojazdowa","short_name":"ŻKD","electrified":"no"},"2020931":{"ref":"506","name":"Linia kolejowa nr 506: Warszawa Antoninów - Warszawa Wawer","type":"route","gauge":"standard","route":"railway","source":"https://www.plk-sa.pl/files/public/user_upload/pdf/Akty_prawne_i_przepisy/Instrukcje/Wydruk/Id/Id-12__D29__Wykaz_linii.pdf","network":"PKP","operator":"PKP Polskie Linie Kolejowe S.A.","electrified":"contact_line","operator:wikidata":"Q1344677","operator:wikipedia":"pl:PKP Polskie Linie Kolejowe"},"2022562":{"ref":"545","name":"Linia kolejowa nr 545: Warszawa Praga R2 - Warszawa Grochów","type":"route","route":"railway","source":"https://www.plk-sa.pl/files/public/user_upload/pdf/Akty_prawne_i_przepisy/Instrukcje/Wydruk/Id/Id-12__D29__Wykaz_linii.pdf","network":"PKP","voltage":"3000","operator":"PKP Polskie Linie Kolejowe S.A.","electrified":"yes","operator:wikidata":"Q1344677"},"2022563":{"ref":"452","name":"Linia kolejowa nr 452 Warszawa Wschodnia Osobowa - Warszawa Grochów T4G","type":"route","route":"railway","network":"PKP","voltage":"3000","operator":"PKP Polskie Linie Kolejowe S.A.;PKP Intercity S.A.","electrified":"yes"},"2022564":{"to":"Warszawa Grochów","ref":"903","from":"Warszawa Podskarbińska","name":"Linia kolejowa nr 903: Warszawa Podskarbińśka - Warszawa Grochów T3G,5G","type":"route","route":"railway","source":"https://www.plk-sa.pl/files/public/user_upload/pdf/Akty_prawne_i_przepisy/Instrukcje/Wydruk/Id/Id-12__D29__Wykaz_linii.pdf","network":"PKP","operator":"PKP Polskie Linie Kolejowe S.A.","operator:wikidata":"Q1344677"},"2022565":{"ref":"45","name":"Linia kolejowa nr 45 Warszawa Wschodnia Osobowa - Warszawa Grochów T1G,2G","type":"route","route":"railway","network":"PKP","voltage":"3000","operator":"PKP Polskie Linie Kolejowe S.A.;PKP Intercity S.A.","electrified":"yes"},"2223573":{"ref":"440","name":"Linia kolejowa nr 440 Warszawa Służewiec - Warszawa Lotnisko Chopina","type":"route","route":"railway","network":"PKP","voltage":"3000","operator":"PKP Polskie Linie Kolejowe S.A.","electrified":"contact_line","operator:wikidata":"Q1344677"},"2255539":{"to":"Braniewo","ref":"221","from":"Gutkowo","name":"Linia kolejowa nr 221 Gutkowo - Braniewo","type":"route","route":"railway","network":"PKP","operator":"PKP Polskie Linie Kolejowe S.A.","wikidata":"Q11757232","wikipedia":"pl:Linia kolejowa nr 221","operator:wikidata":"Q1344677"},"2316318":{"to":"Bartoszyce","ref":"38","from":"Białystok","name":"Linia kolejowa nr 38 Białystok - Głomno","type":"route","route":"railway","network":"PKP","operator":"PKP Polskie Linie Kolejowe S.A.","wikidata":"Q3790501","wikipedia":"pl:Linia kolejowa nr 38","operator:wikidata":"Q1344677"},"2321454":{"to":"Ełk","ref":"219","from":"Olsztyn Główny","name":"Linia kolejowa nr 219 Olsztyn Główny - Ełk","type":"route","route":"railway","network":"PKP","operator":"PKP Polskie Linie Kolejowe S.A.","wikidata":"Q802933","wikipedia":"pl:Linia kolejowa nr 219","operator:wikidata":"Q1344677"},"2329274":{"to":"Skandawa","ref":"353","from":"Poznań Wschód","name":"Linia kolejowa nr 353 Poznań Wschód - Skandawa","type":"route","route":"railway","network":"PKP","operator":"PKP Polskie Linie Kolejowe S.A.","wikidata":"Q803333","wikipedia":"pl:Linia kolejowa nr 353","operator:wikidata":"Q1344677"},"2345694":{"to":"Stargard","ref":"202","via":"Gdynia Główna;Wejherowo;Lębork;Słupsk","from":"Gdańsk Główny","name":"Linia kolejowa nr 202 Gdańsk Główny - Stargard","type":"route","route":"railway","network":"PKP","operator":"PKP Polskie Linie Kolejowe S.A.","wikidata":"Q803262","wikipedia":"pl:Linia kolejowa nr 202","operator:wikidata":"Q1344677"},"2346297":{"name":"Linia Mława Wąskotorowa - Zamość Mazowiecki","type":"route","route":"railway","description:en":"narrow-gauge line, dismantled between Maków Mazowiecki and Zamość Mazowiecki"},"2369189":{"to":"Siemianówka","ref":"31","from":"Siedlce","name":"Linia kolejowa nr 31: Siedlce - Siemianówka","type":"route","route":"railway","network":"PKP","operator":"PKP Polskie Linie Kolejowe S.A.","wikidata":"Q11118937","wikipedia":"pl:Linia kolejowa nr 31","operator:wikidata":"Q1344677"},"2370551":{"to":"Ełk","ref":"223","from":"Czerwonka","name":"Linia kolejowa nr 223 Czerwonka - Ełk","type":"route","route":"railway","network":"PKP","operator":"PKP Polskie Linie Kolejowe S.A.","wikidata":"Q11757234","wikipedia":"pl:Linia kolejowa nr 223","operator:wikidata":"Q1344677"},"2370579":{"to":"Gołdap","ref":"41","via":"Olecko","from":"Ełk","name":"Linia kolejowa nr 41 Ełk - Gołdap","type":"route","route":"railway","network":"PKP","operator":"PKP Polskie Linie Kolejowe S.A.","wikidata":"Q2749851","wikipedia":"pl:Linia kolejowa nr 41","operator:wikidata":"Q1344677"},"2396297":{"to":"Puławy Azoty","ref":"82","from":"Bąkowiec","name":"Linia kolejowa nr 82 Bąkowiec - Puławy Azoty","type":"route","route":"railway","network":"PKP","operator":"PKP Polskie Linie Kolejowe S.A.","wikidata":"Q11757468","wikipedia":"pl:Linia kolejowa nr 82","operator:wikidata":"Q1344677"},"2649021":{"to":"Wałbrzych Główny","ref":"286","from":"Kłodzko Główne","name":"Linia kolejowa nr 286 Kłodzko Główne - Wałbrzych Główny","type":"route","route":"railway","network":"PKP","operator":"PKP Polskie Linie Kolejowe S.A.","operator:wikidata":"Q1344677"},"2651114":{"ref":"285","name":"Linia kolejowa nr 285 Wrocław Główny - Świdnica Kraszowice","type":"route","route":"railway","length":"60.219","network":"PKP","operator":"PKP Polskie Linie Kolejowe S.A.","wikidata":"Q11757282","wikipedia":"pl:Linia kolejowa nr 266/285","operator:wikidata":"Q1344677"},"2871721":{"to":"Chojnice","ref":"208","via":"Lidzbark;Brodnica;Jabłonowo Pomorskie;Grudziądz;Laskowice Pomorskie;Wierzchucin;Tuchola","from":"Działdowo","name":"Linia kolejowa nr 208 Działdowo - Chojnice","type":"route","route":"railway","network":"PKP","operator":"PKP Polskie Linie Kolejowe S.A.","wikidata":"Q11757220","wikipedia":"pl:Linia kolejowa nr 208","operator:wikidata":"Q1344677"},"2877472":{"to":"Bydgoszcz Wschód","ref":"209","from":"Kowalewo Pomorskie","name":"Linia kolejowa nr 209 Kowalewo Pomorskie - Bydgoszcz Wschód","type":"route","route":"railway","network":"PKP","operator":"PKP Polskie Linie Kolejowe S.A.","wikidata":"Q11757222","wikipedia":"pl:Linia kolejowa nr 209","operator:wikidata":"Q1344677"},"2885854":{"to":"Luboń koło Poznania","ref":"357","from":"Powodowo","name":"Linia kolejowa nr 357: Powodowo - Luboń koło Poznania","type":"route","route":"railway","network":"PKP","operator":"PKP Polskie Linie Kolejowe S.A.","wikidata":"Q11757337","wikipedia":"pl:Linia kolejowa nr 357","operator:wikidata":"Q1344677"},"2894389":{"to":"Brzeg","ref":"288","via":"Grodków","from":"Nysa","name":"Linia kolejowa nr 288 Nysa - Brzeg","type":"route","route":"railway","network":"PKP","operator":"PKP Polskie Linie Kolejowe S.A.","operator:wikidata":"Q1344677"},"2989038":{"name":"Starachowicka Kolej Wąskotorowa","type":"route","gauge":"750","route":"railway","network":"Starostwo Powiatowe Starachowice","railway":"narrow_gauge","heritage":"2","historic":"yes"},"3017734":{"to":"Świdnica Miasto","ref":"771","from":"Świdnica Przedmieście","name":"Linia kolejowa nr 771 Świdnica Przedmieście - Świdnica Miasto","type":"route","route":"railway","network":"PKP","operator":"PKP Polskie Linie Kolejowe S.A.","operator:wikidata":"Q1344677"},"3158704":{"ref":"756","name":"Linia kolejowa nr 756: Wrocław Stadion - Wrocław Popowice WP2","type":"route","route":"railway","source":"https://www.plk-sa.pl/files/public/user_upload/pdf/Akty_prawne_i_przepisy/Instrukcje/Wydruk/Id/Id-12__D29__Wykaz_linii.pdf","network":"PKP","operator":"PKP Polskie Linie Kolejowe S.A.","operator:wikidata":"Q1344677"},"3160183":{"ref":"273","name":"Linia kolejowa nr 273 Wrocław Główny - Szczecin Główny","type":"route","route":"railway","network":"PKP","operator":"PKP Polskie Linie Kolejowe S.A.","wikidata":"Q803511","wikipedia":"pl:Linia kolejowa nr 273","operator:wikidata":"Q1344677"},"3177624":{"ref":"76","name":"Linia kolejowa nr 76 Bąkowiec - Kozienice","type":"route","route":"railway","network":"PKP","operator":"PKP Polskie Linie Kolejowe S.A.","operator:wikidata":"Q1344677"},"3202605":{"ref":"287","name":"Linia kolejowa nr 287 Opole Zachodnie - Nysa","type":"route","route":"railway","network":"PKP","operator":"PKP Polskie Linie Kolejowe S.A.","operator:wikidata":"Q1344677"},"3256458":{"to":"Spała","ref":"53","from":"Tomaszów Mazowiecki","name":"Linia kolejowa nr 53 Tomaszów Mazowiecki – Spała","type":"route","route":"railway","network":"PKP","maxspeed":"20","operator":"PKP Polskie Linie Kolejowe S.A.","wikidata":"Q11757408","wikipedia":"pl:Linia kolejowa nr 53","electrified":"no","operator:wikidata":"Q1344677"},"3432357":{"to":"Rumia","ref":"250","via":"Gdańsk Wrzeszcz;Gdynia Główna;Gdynia Chylonia","from":"Gdańsk Śródmieście","name":"Linia kolejowa nr 250: Gdańsk Główny - Rumia","type":"route","route":"railway","source":"https://www.plk-sa.pl/files/public/user_upload/pdf/Akty_prawne_i_przepisy/Instrukcje/Wydruk/Id/Id-12__D29__Wykaz_linii_09.pdf;https://www.skm.pkp.pl/infrastruktura/parametry-lini-kolejowej-nr-250","network":"PKP","operator":"PKP Szybka Kolej Miejska w Trójmieście;PKP PLK","wikidata":"Q11757255","wikipedia":"pl:Linia kolejowa nr 250"},"3437511":{"to":"Gdańsk Port Północny","ref":"226","via":"Gdańsk Olszynka","from":"Pruszcz Gdański","name":"Linia kolejowa nr 226 Pruszcz Gdański - Gdańsk Port Północny","type":"route","route":"railway","network":"PKP","operator":"PKP Polskie Linie Kolejowe S.A.","wikidata":"Q11757236","wikipedia":"pl:Linia kolejowa nr 226","operator:wikidata":"Q1344677"},"3460049":{"to":"Retkinia","ref":"539","from":"Łódź Kaliska","name":"Linia kolejowa nr 539: Łódź Kaliska Towarowa - Retkinia","type":"route","route":"railway","source":"https://www.plk-sa.pl/files/public/user_upload/pdf/Akty_prawne_i_przepisy/Instrukcje/Wydruk/Id-12_Wykaz_linii_06.2021.pdf","network":"PKP","distance":"1,715","operator":"PKP Polskie Linie Kolejowe S.A.","operator:wikidata":"Q1344677"},"3460879":{"to":"Łódź Widzew","ref":"540","via":"Łódź Dąbrowa","from":"Łódź Chojny","name":"Linia kolejowa nr 540 Łódź Chojny - Łódź Widzew","type":"route","route":"railway","network":"PKP","operator":"PKP Polskie Linie Kolejowe S.A.","operator:wikidata":"Q1344677"},"3461966":{"to":"Koluszki","ref":"17","via":"Łódź Niciarniana;Łódź Widzew;Łódź Andrzejów;Bedoń;Justynów;Gałków;Żakowice","from":"Łódź Fabryczna","name":"Linia kolejowa nr 17: Łódź Fabryczna - Koluszki","type":"route","route":"railway","source":"https://www.plk-sa.pl/files/public/user_upload/pdf/Akty_prawne_i_przepisy/Instrukcje/Wydruk/Id-12_Wykaz_linii_06.2021.pdf","network":"PKP","distance":"26.542","operator":"PKP Polskie Linie Kolejowe S.A.","operator:wikidata":"Q1344677"},"3461967":{"to":"Łódź Olechów","ref":"541","via":"Łódź Andrzejów Szosa","from":"Łódź Widzew","name":"Linia kolejowa nr 541: Łódź Widzew - Łódź Olechów","type":"route","route":"railway","source":"https://www.plk-sa.pl/files/public/user_upload/pdf/Akty_prawne_i_przepisy/Instrukcje/Wydruk/Id-12_Wykaz_linii_06.2021.pdf","network":"PKP","distance":"6,602","operator":"PKP Polskie Linie Kolejowe S.A.","wikidata":"Q16484048","wikipedia":"pl:Linia kolejowa nr 541","operator:wikidata":"Q1344677"},"3470171":{"ref":"803","name":"Linia kolejowa nr 803: Poznań Piątkowo - Suchy Las","type":"route","route":"railway","source":"https://www.plk-sa.pl/files/public/user_upload/pdf/Akty_prawne_i_przepisy/Instrukcje/Wydruk/Id/Id-12__D29__Wykaz_linii_09.pdf","network":"PKP","voltage":"3000","operator":"PKP Polskie Linie Kolejowe S.A.","electrified":"contact_line"},"3539682":{"to":"Kluczbork","ref":"293","from":"Jełowa","name":"Linia kolejowa nr 293 Jełowa - Kluczbork","note":"zapewnia połączenie Opola z Kluczborkiem, ruch wznowiony w 2005","type":"route","route":"railway","network":"PKP","operator":"PKP Polskie Linie Kolejowe S.A.","wikidata":"Q11757288","wikipedia":"pl:Linia kolejowa nr 293","operator:wikidata":"Q1344677"},"3539683":{"to":"Namysłów","ref":"301","from":"Opole Główne","name":"Linia kolejowa nr 301 Opole Główne - Namysłów","note":"częściowo nieprzejezdna, ruch jedynie na odcinku Jełowa - Opole","type":"route","route":"railway","network":"PKP","operator":"PKP Polskie Linie Kolejowe S.A.","wikidata":"Q11757296","wikipedia":"pl:Linia kolejowa nr 301","operator:wikidata":"Q1344677"},"3555388":{"to":"Piła Główna","ref":"18","via":"Toruń Główny;Bydgoszcz Główna","from":"Kutno","name":"Linia kolejowa nr 18 Kutno - Piła Główna","type":"route","route":"railway","network":"PKP","operator":"PKP Polskie Linie Kolejowe S.A.","wikidata":"Q11757193","wikipedia":"pl:Linia kolejowa nr 18","operator:wikidata":"Q1344677"},"3566376":{"ref":"538","name":"Linia kolejowa nr 538: Koluszki R145 - Koluszki R154","type":"route","route":"railway","network":"PKP","old_name":"Łącznica nr 538 Pękowice - Bęzelin","operator":"PKP Polskie Linie Kolejowe S.A.","operator:wikidata":"Q1344677"},"3566377":{"to":"Koluszki","ref":"536","from":"Słotwiny","name":"Linia kolejowa nr 536: Słotwiny - Koluszki R155","type":"route","route":"railway","network":"PKP","old_name":"Łącznica nr 536 Słotwiny - Bęzelin","operator":"PKP Polskie Linie Kolejowe S.A.","operator:wikidata":"Q1344677"},"3566388":{"to":"Mikołajów","ref":"534","from":"Koluszki","name":"Linia kolejowa nr 534 Koluszki – Mikołajów","type":"route","route":"railway","network":"PKP","operator":"PKP Polskie Linie Kolejowe S.A.","operator:wikidata":"Q1344677"},"3566389":{"to":"Słotwiny","ref":"537","from":"Żakowice Południowe","name":"Linia kolejowa nr 537 Żakowice Południowe - Słotwiny","type":"route","route":"railway","network":"PKP","operator":"PKP Polskie Linie Kolejowe S.A.","operator:wikidata":"Q1344677"},"3566459":{"to":"Koluszki","ref":"535","from":"Żakowice Południowe","name":"Łącznica nr 535 Żakowice Południowe R7 - Koluszki","type":"route","route":"railway","network":"PKP","operator":"PKP Polskie Linie Kolejowe S.A.","operator:wikidata":"Q1344677"},"3570894":{"ref":"44","name":"Linia kolejowa nr 44 Mikołajów – Regny","type":"route","route":"railway","network":"PKP","operator":"PKP Polskie Linie Kolejowe S.A.","wikidata":"Q11757389","wikipedia":"pl:Linia kolejowa nr 44","operator:wikidata":"Q1344677"},"3575588":{"ref":"24","name":"Linia kolejowa nr 24: Piotrków Trybunalski - Zarzecze","type":"route","route":"railway","source":"https://www.plk-sa.pl/files/public/user_upload/pdf/Akty_prawne_i_przepisy/Instrukcje/Wydruk/Id-12_Wykaz_linii_06.2021.pdf","network":"PKP","distance":"32,172","operator":"PKP Polskie Linie Kolejowe S.A.","operator:wikidata":"Q1344677"},"3588268":{"to":"Dionizów","ref":"543","from":"Gajewniki","name":"Linia kolejowa nr 543 Gajewniki - Dionizów","type":"route","route":"railway","network":"PKP","operator":"PKP Polskie Linie Kolejowe S.A.","operator:wikidata":"Q1344677"},"3603460":{"to":"Ulikowo","ref":"403","from":"Piła Północ","name":"Linia kolejowa nr 403 Piła Północ - Ulikowo","type":"route","route":"railway","network":"PKP","operator":"PKP Polskie Linie Kolejowe S.A.","wikidata":"Q803004","wikipedia":"pl:Linia kolejowa nr 403","operator:wikidata":"Q1344677"},"3654262":{"to":"Olek","ref":"246","from":"Toruń Wschodni","name":"Linia kolejowa nr 246 Toruń Wschodni - Olek","type":"route","route":"railway","network":"PKP","operator":"PKP Polskie Linie Kolejowe S.A.","operator:wikidata":"Q1344677"},"3662154":{"to":"Kwidzyn","ref":"218","from":"Prabuty","name":"Linia kolejowa nr 218 Prabuty - Kwidzyn","type":"route","route":"railway","network":"PKP","operator":"PKP Polskie Linie Kolejowe S.A.","operator:wikidata":"Q1344677"},"3679914":{"to":"Smętowo","ref":"238","via":"Mała Karczma","from":"Opalenie Tczewskie","name":"Linia kolejowa nr 238 Opalenie Tczewskie - Smętowo","type":"route","route":"railway","network":"PKP","operator":"PKP Polskie Linie Kolejowe S.A.","operator:wikidata":"Q1344677"},"3694943":{"to":"Toruń Główny","ref":"734","from":"Nieszawka","name":"Linia kolejowa nr 734 Nieszawka - Toruń Towarowy TrB","type":"route","route":"railway","network":"PKP","operator":"PKP Polskie Linie Kolejowe S.A.","wikidata":"Q28673059","wikipedia":"pl:Linia kolejowa nr 734","operator:wikidata":"Q1344677"},"3736317":{"ref":"745","name":"Linia kolejowa nr 745 Bydgoszcz Główna - Czyżkówko","type":"route","route":"railway","network":"PKP","operator":"PKP Polskie Linie Kolejowe S.A.","operator:wikidata":"Q1344677"},"3739364":{"ref":"374","name":"Linia kolejowa nr 374 Mirosław Ujski - Piła Główna","type":"route","route":"railway","network":"PKP","operator":"PKP Polskie Linie Kolejowe S.A.","operator:wikidata":"Q1344677"},"3739535":{"ref":"999","name":"Linia kolejowa nr 999 Piła Główna - Piła Północ","type":"route","route":"railway","network":"PKP","operator":"PKP Polskie Linie Kolejowe S.A.","operator:wikidata":"Q1344677"},"3739536":{"ref":"405","name":"Linia kolejowa nr 405 Piła Główna - Ustka","type":"route","route":"railway","network":"PKP","operator":"PKP Polskie Linie Kolejowe S.A.","operator:wikidata":"Q1344677"},"3742204":{"ref":"741","name":"Linia kolejowa nr 741 Mimowola - Jaksice","type":"route","route":"railway","network":"PKP","operator":"PKP Polskie Linie Kolejowe S.A.","operator:wikidata":"Q1344677"},"3742474":{"ref":"742","name":"Linia kolejowa nr 742 Inowrocław - Inowrocław Rąbinek","type":"route","route":"railway","network":"PKP","operator":"PKP Polskie Linie Kolejowe S.A.","operator:wikidata":"Q1344677"},"3745440":{"ref":"845","name":"Linia kolejowa nr 845 Inowrocław Rąbinek - Inowrocław Chemia","type":"route","route":"railway","network":"PKP","operator":"Ciech Cargo Sp. z o.o."},"3745449":{"ref":"231","name":"Linia kolejowa nr 231 Inowrocław Rąbinek - Kruszwica","type":"route","route":"railway","network":"PKP","operator":"PKP Polskie Linie Kolejowe S.A.","operator:wikidata":"Q1344677"},"3765008":{"to":"Kościerzyna","ref":"211","from":"Chojnice","name":"Linia kolejowa nr 211 Chojnice - Kościerzyna","type":"route","route":"railway","network":"PKP","operator":"PKP Polskie Linie Kolejowe S.A.","wikidata":"Q11757224","wikipedia":"pl:Linia kolejowa nr 211","operator:wikidata":"Q1344677"},"3765169":{"to":"Bąk","ref":"215","via":"Czersk","from":"Laskowice Pomorskie","name":"Linia kolejowa nr 215 Laskowice Pomorskie - Bąk","type":"route","route":"railway","network":"PKP","operator":"PKP Polskie Linie Kolejowe S.A.","operator:wikidata":"Q1344677"},"3777118":{"to":"Szlachta","ref":"743","from":"Lipowa Tucholska","name":"Linia kolejowa nr 743 Lipowa Tucholska - Szlachta","type":"route","route":"railway","network":"PKP","operator":"PKP Polskie Linie Kolejowe S.A.","operator:wikidata":"Q1344677"},"3793801":{"to":"Stara Piła","ref":"234","via":"Gdańsk Kokoszki","from":"Gdańsk Kiełpinek","name":"Linia kolejowa nr 234: Gdańsk Kiełpinek - Stara Piła","type":"route","route":"railway","network":"PKP","operator":"PKP Polskie Linie Kolejowe S.A.","operator:wikidata":"Q1344677"},"3796485":{"ref":"192","name":"Linia kolejowa nr 192 Syrynia - Pszów","type":"route","route":"railway","network":"PKP","operator":"PKP Polskie Linie Kolejowe S.A.","wikidata":"Q11757208","wikipedia":"pl:Linia kolejowa nr 192","operator:wikidata":"Q1344677"},"3804042":{"ref":"409","name":"Linia kolejowa nr 409: Szczecin Gumieńce - Tantow","type":"route","route":"railway","network":"PKP","operator":"PKP Polskie Linie Kolejowe S.A.","wikidata":"Q28803471","wikipedia":"pl:Linia kolejowa nr 409"},"3804059":{"ref":"429","name":"Linia kolejowa nr 429: Stobno Szczecińskie - Nowe Warpno","type":"route","route":"railway","wikidata":"Q2130749","wikipedia":"pl:Linia kolejowa nr 429","start_date":"1897-05-11"},"3804299":{"ref":"998","name":"Linia kolejowa nr 998: Szczecin Wstowo - Elektrownia Pomorzany Ws-11","type":"route","route":"railway","source":"https://www.plk-sa.pl/files/public/user_upload/pdf/Akty_prawne_i_przepisy/Instrukcje/Wydruk/Id/Id-12__D29__Wykaz_linii_09.pdf","network":"PKP","operator":"PKP PLK;Zespół Elektrowni DOLNA ODRA S.A"},"3827484":{"ref":"566","name":"Linia kolejowa nr 566 Skarżysko-Kamienna SKA – Skarżysko-Kamienna SKE","type":"route","route":"railway","network":"PKP","operator":"PKP Polskie Linie Kolejowe S.A.","operator:wikidata":"Q1344677"},"3830086":{"ref":"841","name":"Linia kolejowa nr 841 Skarżysko Kamienna SKA – Skarżysko Kamienna SY","type":"route","route":"railway","network":"PKP","operator":"PKP Polskie Linie Kolejowe S.A.","operator:wikidata":"Q1344677"},"3830087":{"ref":"936","name":"Linia kolejowa nr 936 Skarżysko Kamienna SKB - Skarżysko Kamienna SY","type":"route","route":"railway","network":"PKP","operator":"PKP Polskie Linie Kolejowe S.A.","operator:wikidata":"Q1344677"},"3850959":{"ref":"158","name":"Linia kolejowa nr 158 Rybnik Towarowy - Chałupki","type":"route","route":"railway","network":"PKP","operator":"PKP Polskie Linie Kolejowe S.A.","wikidata":"Q11757174","wikipedia":"pl:Linia kolejowa nr 158","operator:wikidata":"Q1344677"},"4161141":{"to":"Gdańsk Osowa","ref":"248","from":"Gdańsk Wrzeszcz","name":"Linia kolejowa nr 248: Gdańsk Wrzeszcz - Gdańsk Osowa","type":"route","route":"railway","source":"https://www.plk-sa.pl/files/public/user_upload/pdf/Akty_prawne_i_przepisy/Instrukcje/Wydruk/Id/Id-12__D29__Wykaz_linii_09.pdf","network":"Pomorska Kolej Metropolitarna S.A.","operator":"PKP Szybka Kolej Miejska w Trójmieście;PKP PLK","wikidata":"Q24767134","wikipedia":"pl:Linia kolejowa nr 248"},"4161142":{"ref":"253","name":"Linia kolejowa nr 253: Gdańsk Rębiechowo - Gdańsk Osowa R1","type":"route","route":"railway","source":"https://www.plk-sa.pl/files/public/user_upload/pdf/Akty_prawne_i_przepisy/Instrukcje/Wydruk/Id/Id-12__D29__Wykaz_linii_09.pdf","network":"PKP","operator":"Pomorska Kolej Metropolitarna S.A.;PKP PLK"},"4212415":{"ref":"25","name":"Linia kolejowa nr 25 Łódź Kaliska – Dębica","type":"route","route":"railway","network":"PKP","operator":"PKP Polskie Linie Kolejowe S.A.","wikidata":"Q11757256","wikipedia":"pl:Linia kolejowa nr 25","operator:wikidata":"Q1344677","railway:traffic_mode":"mixed"},"4212417":{"to":"Chmielów koło Tarnobrzega","ref":"70","from":"Włoszczowice","name":"Linia kolejowa nr 70 Włoszczowice - Chmielów koło Tarnobrzega","type":"route","route":"railway","network":"PKP","operator":"PKP Polskie Linie Kolejowe S.A.","wikidata":"Q11757432","wikipedia":"pl:Linia kolejowa nr 70","operator:wikidata":"Q1344677"},"4224665":{"to":"Kąkolewo","ref":"360","from":"Jarocin","name":"Linia kolejowa nr 360 Jarocin - Kąkolewo","type":"route","route":"railway","operator":"PKP Polskie Linie Kolejowe S.A.","wikidata":"Q11757340","wikipedia":"pl:Linia kolejowa nr 360","operator:wikidata":"Q1344677"},"4273097":{"ref":"146","name":"Linia kolejowa nr 146 Wyczerpy - Chorzew Siemkowice","type":"route","route":"railway","network":"PKP","operator":"PKP Polskie Linie Kolejowe S.A.","operator:wikidata":"Q1344677"},"4277360":{"name":"Kolej parkowa w Parku Śląskim","type":"route","gauge":"785","route":"railway","name:eo":"Fervojeto parka en Silezia Parko","service":"tourism","tourism":"attraction","website":"http://waskotorowka.parkslaski.pl","alt_name":"Parkowa Kolej Wąskotorowa","distance":"1.05","maxspeed":"25","operator":"Przedsiębiorstwo Kolejowe Eurolok","wikidata":"Q11741125","wikipedia":"pl:Kolej parkowa w Parku Śląskim","attraction":"train","start_date":"1957"},"4286309":{"to":"Gdańsk Osowa","ref":"235","from":"Matarnia","name":"Linia kolejowa nr 235: Matarnia - Gdańsk Osowa","type":"route","route":"railway","source":"https://www.plk-sa.pl/files/public/user_upload/pdf/Akty_prawne_i_przepisy/Instrukcje/Wydruk/Id/Id-12__D29__Wykaz_linii_09.pdf","network":"PKP","operator":"PKP Polskie Linie Kolejowe S.A.","operator:wikidata":"Q1344677"},"4422998":{"to":"Zbąszyń","ref":"359","from":"Leszno","name":"Linia kolejowa nr 359 Leszno - Zbąszyń","type":"route","route":"railway","network":"PKP","operator":"PKP Polskie Linie Kolejowe S.A.","wikidata":"Q11757336","wikipedia":"pl:Linia kolejowa nr 359","operator:wikidata":"Q1344677","public_transport:version":"2"},"4427529":{"to":"Kosieczyn","ref":"819","from":"Chlastawa","name":"Linia kolejowa nr 819 Chlastawa - Kosieczyn","type":"route","route":"railway","network":"PKP","operator":"PKP Polskie Linie Kolejowe S.A.","operator:wikidata":"Q1344677","public_transport:version":"2"},"4427530":{"to":"Dąbrówka Zbąska","ref":"820","from":"Chlastawa","name":"Linia kolejowa nr 820 Chlastawa - Dąbrówka Zbąska","type":"route","route":"railway","network":"PKP","operator":"PKP Polskie Linie Kolejowe S.A.","operator:wikidata":"Q1344677"},"4437889":{"to":"Rzepin RzB11","ref":"981","from":"Rzepin RzA","name":"Linia kolejowa nr 981 Rzepin RzA - Rzepin RzB11","type":"route","route":"railway","network":"PKP","operator":"PKP Polskie Linie Kolejowe S.A.","operator:wikidata":"Q1344677","public_transport:version":"2"},"4450603":{"to":"Warszawa Antoninów R11","ref":"547","from":"Warszawa Podskarbińska R19","name":"Linia kolejowa nr 547: Warszawa Podskarbińska - Warszawa Wschodnia Towarowa","type":"route","route":"railway","source":"https://www.plk-sa.pl/files/public/user_upload/pdf/Akty_prawne_i_przepisy/Instrukcje/Wydruk/Id/Id-12__D29__Wykaz_linii.pdf","operator":"PKP Polskie Linie Kolejowe S.A.","operator:wikidata":"Q1344677"},"4450989":{"to":"Warszawa Antoninów R14","ref":"902","from":"Warszawa Wschodnia Osobowa R81","name":"Linia kolejowa nr 902: Warszawa Wschodnia Osobowa - Warszawa Wschodnia Towarowa T2P","type":"route","route":"railway","source":"https://www.plk-sa.pl/files/public/user_upload/pdf/Akty_prawne_i_przepisy/Instrukcje/Wydruk/Id/Id-12__D29__Wykaz_linii.pdf","operator":"PKP Polskie Linie Kolejowe S.A.","operator:wikidata":"Q1344677"},"4497394":{"to":"Białystok Starosielce","ref":"516","from":"Białystok","name":"Linia kolejowa nr 516: Białystok R7 - Białystok Starosielce","type":"route","route":"railway","network":"PKP","operator":"PKP Polskie Linie Kolejowe S.A.","operator:wikidata":"Q1344677","public_transport:version":"2"},"4501650":{"to":"Olsztyn Główny","ref":"216","via":"Nidzica;Olsztynek","from":"Działdowo","name":"Linia kolejowa nr 216 Działdowo - Olsztyn Główny","type":"route","route":"railway","network":"PKP","operator":"PKP Polskie Linie Kolejowe S.A.","wikidata":"Q11757227","wikipedia":"pl:Linia kolejowa nr 216","operator:wikidata":"Q1344677"},"4504942":{"to":"Bogaczewo","ref":"220","via":"Olsztyn Gutkowo;Morąg;Małdyty;Pasłęk","from":"Olsztyn Główny","name":"Linia kolejowa nr 220 Olsztyn Główny - Bogaczewo","type":"route","route":"railway","network":"PKP","operator":"PKP Polskie Linie Kolejowe S.A.","wikidata":"Q11757230","wikipedia":"pl:Linia kolejowa nr 220","operator:wikidata":"Q1344677"},"4524298":{"ref":"362","name":"Linia kolejowa nr 362 Kobylin - Rawicz","type":"route","route":"railway","network":"PKP","operator":"PKP Polskie Linie Kolejowe S.A.","wikidata":"Q11757342","wikipedia":"pl:Linia kolejowa Kobylin – Legnica Północna","network:type":"Local","operator:wikidata":"Q1344677","not:operator:wikidata":"Q1344677"},"4564432":{"ref":"368","name":"Linia kolejowa nr 368 Szamotuły <–> Międzychód","type":"route","route":"railway","network":"PKP","maxspeed":"60","operator":"PKP Polskie Linie Kolejowe S.A.","wikidata":"Q11757347","wikipedia":"pl:Linia kolejowa nr 368","electrified":"no","operator:wikidata":"Q1344677"},"4581526":{"to":"Chałupki","ref":"151","from":"Kędzierzyn Koźle","name":"Linia kolejowa nr 151 Kędzierzyn-Koźle - Chałupki","type":"route","route":"railway","network":"PKP","operator":"PKP Polskie Linie Kolejowe S.A.","wikidata":"Q10276653","wikipedia":"pl:Linia kolejowa nr 151","operator:wikidata":"Q1344677"},"4581573":{"to":"Żabieniec","ref":"174","from":"Kędzierzyn Koźle","name":"Linia kolejowa nr 174 Kędzierzyn-Koźle KKD - Żabieniec","type":"route","route":"railway","network":"PKP","operator":"PKP Polskie Linie Kolejowe S.A.","wikidata":"Q11757188","wikipedia":"pl:Linia kolejowa nr 174","operator:wikidata":"Q1344677"},"4581574":{"to":"Kędzierzyn Koźle","ref":"199","from":"Rudziniec Gliwicki","name":"Linia kolejowa nr 199 Rudziniec Gliwicki - Kędzierzyn Koźle KKA","type":"route","route":"railway","network":"PKP","operator":"PKP Polskie Linie Kolejowe S.A.","operator:wikidata":"Q1344677"},"4581644":{"to":"Olza","ref":"176","from":"Racibórz Markowice","name":"Linia kolejowa nr 176 Racibórz Markowice - Olza","type":"route","route":"railway","network":"PKP","operator":"PKP Polskie Linie Kolejowe S.A.","wikidata":"Q11757190","wikipedia":"pl:Linia kolejowa nr 176","operator:wikidata":"Q1344677"},"4581657":{"to":"Głubczyce","ref":"177","from":"Racibórz","name":"Linia kolejowa nr 177 Racibórz - Głubczyce","type":"route","route":"railway","network":"PKP","operator":"PKP Polskie Linie Kolejowe S.A.","wikidata":"Q10278137","wikipedia":"pl:Linia kolejowa nr 177","operator:wikidata":"Q1344677"},"4630051":{"to":"Skierniewice R310","ref":"529","from":"Skierniewice R3","name":"Linia kolejowa nr 529 Skierniewice R3 - Skierniewice R310","type":"route","route":"railway","network":"PKP","operator":"PKP Polskie Linie Kolejowe S.A.","operator:wikidata":"Q1344677"},"4630339":{"to":"Józefinów","ref":"19","from":"Warszawa Główna Towarowa","name":"Linia kolejowa nr 19 Warszawa Główna Towarowa - Józefinów","type":"route","route":"railway","network":"PKP","operator":"PKP Polskie Linie Kolejowe S.A.","operator:wikidata":"Q1344677"},"4630381":{"to":"Warszawa Włochy R51","ref":"457","from":"Warszawa Włochy R22","name":"Linia kolejowa nr 457 Warszawa Włochy - Warszawa Włochy T3Ł","type":"route","route":"railway","network":"PKP","operator":"PKP Polskie Linie Kolejowe S.A.","operator:wikidata":"Q1344677"},"4630404":{"to":"Warszawa Aleje Jerozolimskie","ref":"445","from":"Warszawa Zachodnia","name":"Linia kolejowa nr 445 Warszawa Zachodnia - Warszawa Aleje Jerozolimskie","type":"route","route":"railway","network":"PKP","operator":"PKP Polskie Linie Kolejowe S.A.","operator:wikidata":"Q1344677"},"4630473":{"to":"Warszawa Czyste","ref":"46","from":"Warszawa Zachodnia","name":"Linia kolejowa nr 46: Warszawa Zachodnia - Warszawa Czyste T10, 2Sz","type":"route","route":"railway","source":"https://www.plk-sa.pl/files/public/user_upload/pdf/Akty_prawne_i_przepisy/Instrukcje/Wydruk/Id/Id-12__D29__Wykaz_linii_09.pdf","network":"PKP","operator":"PKP Polskie Linie Kolejowe S.A.","operator:wikidata":"Q1344677"},"4630498":{"ref":"448","name":"Linia kolejowa nr 448 Warszawa Zachodnia - Warszawa Rembertów","type":"route","route":"railway","network":"PKP","operator":"PKP Polskie Linie Kolejowe S.A.","wikidata":"Q11757391","wikipedia":"pl:Linia kolejowa nr 448","operator:wikidata":"Q1344677"},"4630709":{"to":"Warszawa Czyste","ref":"42","from":"Warszawa Zachodnia","name":"Linia kolejowa nr 42: Warszawa Zachodnia - Warszawa Szczęśliwice T610/202/3,2/68","type":"route","route":"railway","source":"https://www.plk-sa.pl/files/public/user_upload/pdf/Akty_prawne_i_przepisy/Instrukcje/Wydruk/Id/Id-12__D29__Wykaz_linii_09.pdf","network":"PKP","old_name":"Linia kolejowa nr 42: Warszawa Główna Osobowa - Warszawa Szczęśliwice","operator":"PKP Polskie Linie Kolejowe S.A.","operator:wikidata":"Q1344677"},"4630730":{"to":"Warszawa Zachodnia","ref":"23","from":"Warszawa Główna Osobowa","name":"Linia kolejowa nr 23: Warszawa Główna Osobowa - Warszawa Zachodnia T2/1G, 12/2G","type":"route","route":"railway","source":"https://www.plk-sa.pl/files/public/user_upload/pdf/Akty_prawne_i_przepisy/Instrukcje/Wydruk/Id/Id-12__D29__Wykaz_linii_09.pdf","network":"PKP","operator":"PKP Polskie Linie Kolejowe S.A.","operator:wikidata":"Q1344677","operator:wikipedia":"pl:PKP Polskie Linie Kolejowe"},"4630752":{"to":"Warszawa Praga","ref":"20","via":"Warszawa Czyste;Warszawa Zachodnia;Warszawa Gdańska","from":"Warszawa Główna Towarowa","name":"Linia kolejowa nr 20 Warszawa Główna Towarowa - Warszawa Praga","type":"route","route":"railway","network":"PKP","operator":"PKP Polskie Linie Kolejowe S.A.","operator:wikidata":"Q1344677"},"4630754":{"to":"Warszawa Zachodnia R303","ref":"920","from":"Warszawa Zachodnia R83","name":"Linia kolejowa nr 920: Warszawa Zachodnia R83 - Warszawa Zachodnia R303","type":"route","route":"railway","source":"https://www.plk-sa.pl/files/public/user_upload/pdf/Akty_prawne_i_przepisy/Instrukcje/Wydruk/Id/Id-12__D29__Wykaz_linii_09.pdf","network":"PKP","operator":"PKP Polskie Linie Kolejowe S.A.","operator:wikidata":"Q1344677"},"4640535":{"ref":"700","name":"Linia kolejowa nr 700 Częstochowa - Częstochowa Stradom","type":"route","route":"railway","network":"PKP","operator":"PKP Polskie Linie Kolejowe S.A.","operator:wikidata":"Q1344677"},"4640553":{"ref":"701","name":"Linia kolejowa nr 701 Częstochowa - Kucelinka","type":"route","route":"railway","network":"PKP","operator":"PKP Polskie Linie Kolejowe S.A.","operator:wikidata":"Q1344677"},"4640623":{"ref":"702","name":"Linia kolejowa nr 702 Częstochowa Towarowa - Częstochowa Stradom","type":"route","route":"railway","network":"PKP","operator":"PKP Polskie Linie Kolejowe S.A.","operator:wikidata":"Q1344677"},"4640784":{"ref":"703","name":"Linia kolejowa nr 703 Kucelinka - Częstochowa","type":"route","route":"railway","network":"PKP","operator":"PKP Polskie Linie Kolejowe S.A.","operator:wikidata":"Q1344677"},"4640882":{"ref":"155","name":"Linia kolejowa nr 155: Kucelinka - Poraj","type":"route","route":"railway","source":"https://www.plk-sa.pl/files/public/user_upload/pdf/Akty_prawne_i_przepisy/Instrukcje/Wydruk/Id-12_Wykaz_linii_06.2021.pdf","network":"PKP","distance":"11,063","operator":"PKP Polskie Linie Kolejowe S.A.","operator:wikidata":"Q1344677"},"4641114":{"ref":"182","name":"Linia kolejowa nr 182 Tarnowskie Góry - Zawiercie","type":"route","route":"railway","network":"PKP","operator":"PKP Polskie Linie Kolejowe S.A.","operator:wikidata":"Q1344677"},"4641136":{"ref":"160","name":"Linia kolejowa nr 160 Zawiercie - Dąbrowa Górnicza Ząbkowice DZA T3","type":"route","route":"railway","network":"PKP","operator":"PKP Polskie Linie Kolejowe S.A.","operator:wikidata":"Q1344677"},"4641216":{"ref":"186","name":"Linia kolejowa nr 186 Zawiercie - Dąbrowa Górnicza Ząbkowice DZA T4","type":"route","route":"railway","network":"PKP","operator":"PKP Polskie Linie Kolejowe S.A.","operator:wikidata":"Q1344677"},"4643569":{"ref":"705","name":"Linia kolejowa nr 705 Zawiercie R125 - Zawiercie R97","type":"route","route":"railway","network":"PKP","operator":"PKP Polskie Linie Kolejowe S.A.","operator:wikidata":"Q1344677"},"4643813":{"ref":"154","name":"Linia kolejowa nr 154 Łazy - Dąbrowa Górnicza Towarowa","type":"route","route":"railway","network":"PKP","operator":"PKP Polskie Linie Kolejowe S.A.","operator:wikidata":"Q1344677"},"4643938":{"ref":"183","name":"Linia kolejowa nr 183 Dąbrowa Górnicza Ząbkowice - Będzin Łagisza","type":"route","route":"railway","network":"PKP","operator":"PKP Polskie Linie Kolejowe S.A.","operator:wikidata":"Q1344677"},"4649375":{"ref":"62","name":"Linia kolejowa nr 62 Tunel - Sosnowiec Główny","type":"route","route":"railway","network":"PKP","operator":"PKP Polskie Linie Kolejowe S.A.","operator:wikidata":"Q1344677"},"4651343":{"ref":"654","name":"Linia kolejowa nr 654 Szabelnia - Katowice Szopienice Północne","type":"route","route":"railway","network":"PKP","operator":"PKP Polskie Linie Kolejowe S.A.","operator:wikidata":"Q1344677"},"4651347":{"ref":"657","name":"Linia kolejowa nr 657 Katowice Szopienice Północne - Katowice Muchowiec KMA","type":"route","route":"railway","network":"PKP","operator":"PKP Polskie Linie Kolejowe S.A.","operator:wikidata":"Q1344677"},"4651357":{"ref":"658","name":"Linia kolejowa nr 658 Stawiska Sk1 R3 - Stawiska Sk1 R2","type":"route","route":"railway","network":"PKP","operator":"PKP Polskie Linie Kolejowe S.A.","operator:wikidata":"Q1344677"},"4659872":{"ref":"572","name":"Linia kolejowa nr 572: Włoszczowa Północ - Żelisławice","type":"route","route":"railway","source":"https://www.plk-sa.pl/files/public/user_upload/pdf/Akty_prawne_i_przepisy/Instrukcje/Wydruk/Id-12_Wykaz_linii_06.2021.pdf","network":"PKP","distance":"9,279","operator":"PKP Polskie Linie Kolejowe S.A.","operator:wikidata":"Q1344677"},"4661752":{"to":"Warszawa Gołąbki","ref":"507","from":"Warszawa Główna Towarowa","name":"Linia kolejowa nr 507 Warszawa Główna Towarowa - Warszawa Gołąbki","type":"route","route":"railway","network":"PKP","operator":"PKP Polskie Linie Kolejowe S.A.","operator:wikidata":"Q1344677"},"4666581":{"ref":"805","name":"Linia kolejowa nr 805: Swarzędz - Stary Młyn","type":"route","route":"railway","source":"https://www.plk-sa.pl/files/public/user_upload/pdf/Akty_prawne_i_przepisy/Instrukcje/Wydruk/Id/Id-12__D29__Wykaz_linii_09.pdf","network":"PKP","operator":"PKP Polskie Linie Kolejowe S.A.","operator:wikidata":"Q1344677"},"4669199":{"ref":"271","name":"Linia kolejowa nr 271 Wrocław Główny - Poznań Główny","type":"route","route":"railway","network":"PKP","operator":"PKP Polskie Linie Kolejowe S.A.","wikidata":"Q11757273","wikipedia":"pl:Linia kolejowa nr 271","operator:wikidata":"Q1344677"},"4669432":{"ref":"801","name":"Linia kolejowa nr 801: Poznań Starołęka PSK - Poznań Górczyn","type":"route","route":"railway","source":"https://www.plk-sa.pl/files/public/user_upload/pdf/Akty_prawne_i_przepisy/Instrukcje/Wydruk/Id-12_Wykaz_linii_06.2021.pdf","network":"PKP","distance":"4,126","operator":"PKP Polskie Linie Kolejowe S.A.","operator:wikidata":"Q1344677"},"4669836":{"ref":"367","name":"Linia kolejowa nr 367 Zbąszynek - Gorzów Wielkopolski","type":"route","route":"railway","network":"PKP","operator":"PKP Polskie Linie Kolejowe S.A.","operator:wikidata":"Q1344677"},"4669911":{"ref":"358","name":"Linia kolejowa nr 358 Zbąszynek - Gubin","type":"route","route":"railway","network":"PKP","operator":"PKP Polskie Linie Kolejowe S.A.","operator:wikidata":"Q1344677","operator:wikipedia":"pl:PKP Polskie Linie Kolejowe"},"4670016":{"ref":"375","name":"Linia kolejowa nr 375 Międzyrzecz - Toporów","type":"route","route":"railway","network":"PKP","operator":"PKP Polskie Linie Kolejowe S.A.","operator:wikidata":"Q1344677"},"4676800":{"ref":"364","name":"Linia kolejowa nr 364 Wierzbno - Rzepin","type":"route","route":"railway","network":"PKP","operator":"PKP Polskie Linie Kolejowe S.A.","wikidata":"Q11757344","wikipedia":"pl:Linia kolejowa nr 364","operator:wikidata":"Q1344677"},"4676830":{"to":"Drzeńsko","ref":"822","from":"Rzepin","name":"Linia kolejowa nr 822 Rzepin RzB - Drzeńsko","type":"route","route":"railway","network":"PKP","operator":"PKP Polskie Linie Kolejowe S.A.","operator:wikidata":"Q1344677","not:operator:wikidata":"Q1344677"},"4676831":{"to":"Rzepin","ref":"821","via":"Rzepin Miasto","from":"Jerzmanice Lubuskie","name":"Linia kolejowa nr 821 Jerzmanice Lubuskie - Rzepin RzB11","type":"route","route":"railway","network":"PKP","operator":"PKP Polskie Linie Kolejowe S.A.","operator:wikidata":"Q1344677"},"4677267":{"ref":"844","name":"Tor łączący nr 844: Warszawa Wschodnia Towarowa R42 - Warszawa Wschodnia Towarowa R51","type":"route","route":"railway","network":"PKP","operator":"PKP Polskie Linie Kolejowe S.A.","operator:wikidata":"Q1344677"},"4677285":{"ref":"546","name":"Linia kolejowa nr 546: Warszawa Wschodnia Towarowa - Warszawa Rembertów T6M","type":"route","route":"railway","source":"https://www.plk-sa.pl/files/public/user_upload/pdf/Akty_prawne_i_przepisy/Instrukcje/Wydruk/Id/Id-12__D29__Wykaz_linii.pdf","network":"PKP","operator":"PKP Polskie Linie Kolejowe S.A.","operator:wikidata":"Q1344677"},"4677287":{"ref":"901","name":"Linia kolejowa nr 901: Warszawa Wschodnia Towarowa - Warszawa Rembertów T5M","type":"route","route":"railway","network":"PKP","operator":"PKP Polskie Linie Kolejowe S.A.","operator:wikidata":"Q1344677"},"4678109":{"ref":"13","name":"Linia kolejowa nr 13 Krusze - Pilawa","type":"route","route":"railway","network":"PKP","operator":"PKP Polskie Linie Kolejowe S.A.","wikidata":"Q11757147","wikipedia":"pl:Linia kolejowa nr 13","operator:wikidata":"Q1344677"},"4678110":{"ref":"521","name":"Łącznica nr 521 Mińsk Mazowiecki","type":"route","route":"railway","network":"PKP","operator":"PKP Polskie Linie Kolejowe S.A.","wikidata":"Q79016961","wikipedia":"pl:Linia kolejowa nr 521","operator:wikidata":"Q1344677"},"4678113":{"ref":"522","name":"Łącznica nr 522 Mińsk Mazowiecki","type":"route","route":"railway","network":"PKP","operator":"PKP Polskie Linie Kolejowe S.A.","wikidata":"Q79016980","wikipedia":"pl:Linia kolejowa nr 522","operator:wikidata":"Q1344677"},"4678848":{"ref":"55","name":"Linia kolejowa nr 55: Sokołów Podlaski - Siedlce","type":"route","route":"railway","network":"PKP","operator":"PKP Polskie Linie Kolejowe S.A.","operator:wikidata":"Q1344677"},"4679726":{"ref":"520","name":"Linia kolejowa nr 520: Doły R2 - Doły R12","type":"route","route":"railway","source":"https://www.plk-sa.pl/files/public/user_upload/pdf/Akty_prawne_i_przepisy/Instrukcje/Wydruk/Id/Id-12__D29__Wykaz_linii.pdf","network":"PKP","operator":"PKP Polskie Linie Kolejowe S.A.","operator:wikidata":"Q1344677"},"4679768":{"ref":"523","name":"Linia kolejowa nr 523: Łuków R3 - Łuków R13","type":"route","route":"railway","network":"PKP","old_name":"Łącznica nr 523: Trzaskoniec - Poważe","operator":"PKP Polskie Linie Kolejowe S.A.","operator:wikidata":"Q1344677"},"4679798":{"ref":"30","name":"Linia kolejowa nr 30 Łuków - Lublin Północny","type":"route","route":"railway","network":"PKP","operator":"PKP Polskie Linie Kolejowe S.A.","operator:wikidata":"Q1344677"},"4681682":{"ref":"579","name":"Linia kolejowa nr 579: Stawy - Dęblin DB","type":"route","route":"railway","source":"https://www.plk-sa.pl/files/public/user_upload/pdf/Akty_prawne_i_przepisy/Instrukcje/Wydruk/Id-12_Wykaz_linii_06.2021.pdf","network":"PKP","operator":"PKP Polskie Linie Kolejowe S.A.","operator:wikidata":"Q1344677"},"4682026":{"ref":"580","name":"Linia kolejowa nr 580: Wieprz - Wisła","type":"route","route":"railway","source":"https://www.plk-sa.pl/files/public/user_upload/pdf/Akty_prawne_i_przepisy/Instrukcje/Wydruk/Id-12_Wykaz_linii_06.2021.pdf","network":"PKP","distance":"0,746","operator":"PKP Polskie Linie Kolejowe S.A.","operator:wikidata":"Q1344677"},"4684303":{"ref":"935","name":"Linia kolejowa nr 935 Lublin Główny R8 - Lublin Główny R155","type":"route","route":"railway","network":"PKP","operator":"PKP Polskie Linie Kolejowe S.A.","operator:wikidata":"Q1344677"},"4685299":{"ref":"930","name":"Linia kolejowa nr 930 Lublin - Lublin Tatary","type":"route","route":"railway","network":"PKP","operator":"PKP Polskie Linie Kolejowe S.A.","operator:wikidata":"Q1344677"},"4685300":{"to":"Świdnik","ref":"67","via":"Lublin Tatary","from":"Lublin Główny","name":"Linia kolejowa nr 67 Lublin Główny - Świdnik","type":"route","route":"railway","network":"PKP","operator":"PKP Polskie Linie Kolejowe S.A.","operator:wikidata":"Q1344677"},"4688540":{"to":"Adampol","ref":"561","from":"Zadębie","name":"Linia kolejowa nr 561 Zadębie - Adampol","type":"route","route":"railway","network":"PKP","operator":"PKP Polskie Linie Kolejowe S.A.","wikidata":"Q48850109","wikipedia":"pl:Linia kolejowa nr 561","operator:wikidata":"Q1344677"},"4689412":{"to":"Lublin Tatary LTB","ref":"562","from":"Adampol","name":"Linia kolejowa nr 562 Adampol - Lublin Tatary LTB","type":"route","route":"railway","network":"PKP","operator":"PKP Polskie Linie Kolejowe S.A.","wikidata":"Q79017396","wikipedia":"pl:Linia kolejowa nr 562","operator:wikidata":"Q1344677"},"4690573":{"ref":"581","name":"Linia kolejowa nr 581 Świdnik - Świdnik Port Lotniczy","type":"route","route":"railway","network":"PKP","operator":"PKP Polskie Linie Kolejowe S.A.","operator:wikidata":"Q1344677"},"4709073":{"ref":"63","name":"Linia kolejowa nr 63 Dorohusk - Zawadówka Naftobaza","type":"route","route":"railway","name:uk":"Linia kolejowa nr 63 Dorohusk - Zawadówka Naftobaza","network":"PKP","operator":"PKP Polskie Linie Kolejowe S.A.","operator:wikidata":"Q1344677"},"4709605":{"ref":"81","name":"Linia kolejowa nr 81 Chełm - Włodawa","type":"route","route":"railway","network":"PKP","operator":"PKP Polskie Linie Kolejowe S.A.","operator:wikidata":"Q1344677"},"4727286":{"ref":"567","name":"Linia kolejowa nr 567 Piaski - Kielce Herbskie","type":"route","route":"railway","network":"PKP","operator":"PKP Polskie Linie Kolejowe S.A.","operator:wikidata":"Q1344677"},"4727485":{"ref":"568","name":"Linia kolejowa nr 568 Sitkówka Nowiny - Szczukowice","type":"route","route":"railway","operator":"PKP Polskie Linie Kolejowe S.A.","operator:wikidata":"Q1344677"},"4727522":{"ref":"73","name":"Linia kolejowa nr 73 Sitkówka Nowiny - Busko-Zdrój","type":"route","route":"railway","network":"PKP","operator":"PKP Polskie Linie Kolejowe S.A.","operator:wikidata":"Q1344677"},"4727890":{"ref":"569","name":"Linia kolejowa nr 569 Radkowice - Brzeziny","type":"route","route":"railway","network":"PKP","operator":"PKP Polskie Linie Kolejowe S.A.","operator:wikidata":"Q1344677"},"4730475":{"to":"Podłęże","ref":"95","from":"Kraków Mydlniki","name":"Linia kolejowa nr 95 Kraków Mydlniki - Podłęże","type":"route","route":"railway","network":"PKP","operator":"PKP Polskie Linie Kolejowe S.A.","operator:wikidata":"Q1344677"},"4730543":{"to":"Kraków Bieżanów","ref":"100","from":"Kraków Mydlniki","name":"Linia kolejowa nr 100 Kraków Mydlniki - Kraków Bieżanów","type":"route","route":"railway","network":"PKP","operator":"PKP Polskie Linie Kolejowe S.A.","operator:wikidata":"Q1344677"},"4733385":{"ref":"456","name":"Linia kolejowa nr 456 Warszawa Praga R95 - Chotomów","type":"route","route":"railway","network":"PKP","operator":"PKP Polskie Linie Kolejowe S.A.","operator:wikidata":"Q1344677"},"4733462":{"ref":"511","name":"Linia kolejowa nr 511: Legionowo - Legionowo Piaski","type":"route","route":"railway","source":"https://www.plk-sa.pl/files/public/user_upload/pdf/Akty_prawne_i_przepisy/Instrukcje/Wydruk/Id-12_Wykaz_linii_06.2021.pdf","network":"PKP","distance":"1,020","operator":"PKP Polskie Linie Kolejowe S.A.","operator:wikidata":"Q1344677"},"4733551":{"ref":"28","name":"Linia kolejowa nr 28: Wieliszew - Zegrze Południowe","type":"route","route":"railway","source":"https://www.plk-sa.pl/files/public/user_upload/pdf/Akty_prawne_i_przepisy/Instrukcje/Wydruk/Id/Id-12__D29__Wykaz_linii_09.pdf","network":"PKP","old_name":"Linia kolejowa nr 28 Wieliszew - Zegrze","operator":"PKP Polskie Linie Kolejowe S.A.","operator:wikidata":"Q1344677"},"4733966":{"ref":"513","name":"Linia kolejowa nr 513: Krusze R7 - Tłuszcz","type":"route","route":"railway","source":"https://www.plk-sa.pl/files/public/user_upload/pdf/Akty_prawne_i_przepisy/Instrukcje/Wydruk/Id/Id-12__D29__Wykaz_linii.pdf","network":"PKP","operator":"PKP Polskie Linie Kolejowe S.A.","operator:wikidata":"Q1344677"},"4740916":{"ref":"524","name":"Linia kolejowa nr 524: Jaźwiny - Żołnierka","type":"route","route":"railway","source":"https://www.plk-sa.pl/files/public/user_upload/pdf/Akty_prawne_i_przepisy/Instrukcje/Wydruk/Id-12_Wykaz_linii_06.2021.pdf","network":"PKP","operator":"PKP Polskie Linie Kolejowe S.A.","operator:wikidata":"Q1344677"},"4744753":{"ref":"811","name":"Linia kolejowa nr 811 Stary Staw - Franklinów","type":"route","route":"railway","network":"PKP","operator":"PKP Polskie Linie Kolejowe S.A.","operator:wikidata":"Q1344677"},"4749377":{"to":"Krotoszyn","ref":"815","from":"Durzyn","name":"Linia kolejowa nr 815 Durzyn - Krotoszyn","type":"route","route":"railway","network":"PKP","operator":"PKP Polskie Linie Kolejowe S.A.","operator:wikidata":"Q1344677"},"4749387":{"ref":"816","name":"Linia kolejowa nr 816 Krotoszyn - Osusz","type":"route","route":"railway","network":"PKP","operator":"PKP Polskie Linie Kolejowe S.A.","operator:wikidata":"Q1344677"},"4754648":{"ref":"371","name":"Linia kolejowa nr 371 Wolsztyn - Żagań","note":"Odcinek wykreślony z ewidencji PKP PLK, zlikwidowany","type":"route","route":"railway"},"4754779":{"ref":"389","name":"Linia kolejowa nr 389 Żagań - Jankowa Żagańska","type":"route","route":"railway","network":"PKP","operator":"PKP Polskie Linie Kolejowe S.A.","operator:wikidata":"Q1344677"},"4755009":{"ref":"282","name":"Linia kolejowa nr 282 Miłkowice - Żary","type":"route","route":"railway","network":"PKP","operator":"PKP Polskie Linie Kolejowe S.A.","wikidata":"Q802784","wikipedia":"pl:Linia kolejowa nr 282","operator:wikidata":"Q1344677"},"4755010":{"ref":"370","name":"Linia kolejowa nr 370 Zielona Góra - Żary","type":"route","route":"railway","network":"PKP","operator":"PKP Polskie Linie Kolejowe S.A.","operator:wikidata":"Q1344677"},"4760794":{"to":"Warszawa Gdańska","ref":"509","via":"Warszawa Jelonki","from":"Warszawa Główna Towarowa","name":"Linia kolejowa nr 509 Warszawa Główna Towarowa - Warszawa Gdańska","type":"route","route":"railway","network":"PKP","operator":"PKP Polskie Linie Kolejowe S.A.","operator:wikidata":"Q1344677"},"4761201":{"ref":"501","name":"Linia kolejowa nr 501: Warszawa Praga R201 - Warszawa Praga R15","type":"route","route":"railway","network":"PKP","operator":"PKP Polskie Linie Kolejowe S.A.","operator:wikidata":"Q1344677"},"4761252":{"ref":"502","name":"Linia kolejowa nr 502: Warszawa Praga R6 - Warszawa Wschodnia Towarowa","type":"route","route":"railway","source":"https://www.plk-sa.pl/files/public/user_upload/pdf/Akty_prawne_i_przepisy/Instrukcje/Wydruk/Id/Id-12__D29__Wykaz_linii.pdf","network":"PKP","operator":"PKP Polskie Linie Kolejowe S.A.","operator:wikidata":"Q1344677"},"4762857":{"ref":"834","name":"Linia kolejowa nr 834 Warszawa Praga R33 - Warszawa Praga R97","type":"route","route":"railway","network":"PKP","operator":"PKP Polskie Linie Kolejowe S.A.","operator:wikidata":"Q1344677","not:operator:wikidata":"Q1344677"},"4762860":{"ref":"833","name":"Linia kolejowa nr 833 Warszawa Praga R41 - Warszawa Praga R92","type":"route","route":"railway","network":"PKP","operator":"PKP Polskie Linie Kolejowe S.A.","operator:wikidata":"Q1344677"},"4764613":{"ref":"848","name":"Linia kolejowa nr 848: Zarzecze - Biały Ług","type":"route","route":"railway","source":"https://www.plk-sa.pl/files/public/user_upload/pdf/Akty_prawne_i_przepisy/Instrukcje/Wydruk/Id-12_Wykaz_linii_06.2021.pdf","network":"PKP","distance":"4,450","operator":"PGE GiEK S.A. Oddział Kopalnia Węgla Brunatnego Bełchatów"},"4764770":{"ref":"830","name":"Linia kolejowa nr 830: Łódź Olechów - Łódź Olechów (ŁOA - ŁOB - ŁOC)","type":"route","route":"railway","source":"https://www.plk-sa.pl/files/public/user_upload/pdf/Akty_prawne_i_przepisy/Instrukcje/Wydruk/Id-12_Wykaz_linii_06.2021.pdf","network":"PKP","distance":"6,002","operator":"PKP Polskie Linie Kolejowe S.A.","operator:wikidata":"Q1344677"},"4764771":{"ref":"831","name":"Linia kolejowa nr 831: Łódź Olechów ŁOC - Łódź Olechów ŁOA","type":"route","route":"railway","source":"https://www.plk-sa.pl/files/public/user_upload/pdf/Akty_prawne_i_przepisy/Instrukcje/Wydruk/Id-12_Wykaz_linii_06.2021.pdf","network":"PKP","distance":"4,555","operator":"PKP Polskie Linie Kolejowe S.A.","operator:wikidata":"Q1344677"},"4770685":{"ref":"577","name":"Linia kolejowa nr 577 Garbatka Letnisko - Sieciechów","type":"route","route":"railway","network":"PKP","operator":"PKP Polskie Linie Kolejowe S.A.","operator:wikidata":"Q1344677"},"4773541":{"ref":"34","name":"Linia kolejowa nr 34 Ostrołęka - Małkinia","type":"route","route":"railway","network":"PKP","operator":"PKP Polskie Linie Kolejowe S.A.","operator:wikidata":"Q1344677","not:operator:wikidata":"Q1344677"},"4773562":{"ref":"35","name":"Linia kolejowa nr 35 Ostrołęka - Szczytno","type":"route","route":"railway","network":"PKP","operator":"PKP Polskie Linie Kolejowe S.A.","operator:wikidata":"Q1344677"},"4773570":{"ref":"36","name":"Linia kolejowa nr 36 Ostrołęka - Łapy","type":"route","route":"railway","network":"PKP","operator":"PKP Polskie Linie Kolejowe S.A.","operator:wikidata":"Q1344677"},"4773605":{"ref":"900","name":"Linia kolejowa nr 900: Ostrołęka - Goworki","type":"route","route":"railway","source":"https://www.plk-sa.pl/files/public/user_upload/pdf/Akty_prawne_i_przepisy/Instrukcje/Wydruk/Id-12_Wykaz_linii_06.2021.pdf","network":"PKP","operator":"PKP PLK/EC Goworki"},"4777198":{"ref":"43","name":"Linia kolejowa nr 43 Czeremcha - Brześć","type":"route","route":"railway","name:be":"Чыгуначная лінія № 43 Чарэмча - Брэст","network":"PKP","operator":"PKP Polskie Linie Kolejowe S.A.","operator:wikidata":"Q1344677"},"4777199":{"ref":"32","name":"Linia kolejowa nr 32 Czeremcha - Białystok","type":"route","route":"railway","network":"PKP","operator":"PKP Polskie Linie Kolejowe S.A.","wikidata":"Q11120040","wikipedia":"pl:Linia kolejowa nr 32","operator:wikidata":"Q1344677"},"4783723":{"ref":"52","name":"Linia kolejowa nr 52 Lewki - Nieznany Bór","type":"route","route":"railway","network":"PKP","operator":"PKP Polskie Linie Kolejowe S.A.","wikidata":"Q11121540","wikipedia":"pl:Linia kolejowa nr 52","operator:wikidata":"Q1344677"},"4784534":{"ref":"515","name":"Linia kolejowa nr 515 Białystok - Białystok Starosielce","type":"route","route":"railway","network":"PKP","operator":"PKP Polskie Linie Kolejowe S.A.","operator:wikidata":"Q1344677"},"4801237":{"ref":"733","name":"Linia kolejowa nr 733 Suchy Las - Wielbark Las","type":"route","route":"railway","network":"PKP","operator":"PKP Polskie Linie Kolejowe S.A.","operator:wikidata":"Q1344677"},"4801305":{"ref":"225","name":"Linia kolejowa nr 225 Nidzica - Wielbark","type":"route","route":"railway","network":"PKP","operator":"PKP Polskie Linie Kolejowe S.A.","operator:wikidata":"Q1344677"},"4803945":{"to":"Łomża","ref":"49","from":"Śniadowo","name":"Linia kolejowa nr 49 Śniadowo - Łomża","type":"route","route":"railway","network":"PKP","operator":"PKP Polskie Linie Kolejowe S.A.","operator:wikidata":"Q1344677"},"4808582":{"ref":"37","name":"Linia kolejowa nr 37 Białystok - Zubki Białostockie","type":"route","route":"railway","network":"PKP","operator":"PKP Polskie Linie Kolejowe S.A.","operator:wikidata":"Q1344677"},"4817133":{"ref":"39","name":"Linia kolejowa nr 39 Olecko - Suwałki","type":"route","route":"railway","name:lt":"Geležinkelio trasa 39 Alėcka - Suvalkai","name:pl":"Linia kolejowa nr 39 Olecko - Suwałki","network":"PKP","operator":"PKP Polskie Linie Kolejowe S.A.","operator:wikidata":"Q1344677"},"4817522":{"ref":"517","name":"Linia kolejowa nr 517 Papiernia - Las Suwalski","type":"route","route":"railway","network":"PKP","operator":"PKP Polskie Linie Kolejowe S.A.","operator:wikidata":"Q1344677"},"4817525":{"ref":"40","name":"Linia kolejowa nr 40 Sokółka - Suwałki","type":"route","route":"railway","network":"PKP","operator":"PKP Polskie Linie Kolejowe S.A.","wikidata":"Q11757374","wikipedia":"pl:Linia kolejowa nr 40","operator:wikidata":"Q1344677"},"4817531":{"ref":"51","name":"Linia kolejowa nr 51 Suwałki - Trakiszki","type":"route","route":"railway","network":"PKP","operator":"PKP Polskie Linie Kolejowe S.A.","operator:wikidata":"Q1344677"},"4819389":{"ref":"923","name":"Linia kolejowa nr 923 Bufałowo Wschód - Bufałowo S","type":"route","route":"railway","source":"https://www.plk-sa.pl/files/public/user_upload/pdf/Akty_prawne_i_przepisy/Instrukcje/Wydruk/Id-12_Wykaz_linii_06.2021.pdf","network":"PKP","operator":"PKP Polskie Linie Kolejowe S.A.","operator:wikidata":"Q1344677"},"4844224":{"ref":"840","name":"Linia kolejowa nr 840 Kielce Herbskie KHA - Kielce Herbskie KHB","type":"route","route":"railway","network":"PKP","operator":"PKP Polskie Linie Kolejowe S.A.","operator:wikidata":"Q1344677"},"4844947":{"ref":"934","name":"Linia kolejowa nr 934 Małogoszcz Mł1 - Małogoszcz Park Towarowy","type":"route","route":"railway","network":"PKP","operator":"PKP Polskie Linie Kolejowe S.A.","operator:wikidata":"Q1344677"},"4848791":{"to":"Jawornica","ref":"685","from":"Droniowiczki","name":"Linia kolejowa nr 685 Droniowiczki - Jawornica","type":"route","route":"railway","network":"PKP","operator":"PKP Polskie Linie Kolejowe S.A.","operator:wikidata":"Q1344677"},"4850111":{"ref":"144","name":"Linia kolejowa nr 144 Tarnowskie Góry - Opole Główne","type":"route","route":"railway","network":"PKP","operator":"PKP Polskie Linie Kolejowe S.A.","operator:wikidata":"Q1344677"},"4850115":{"ref":"175","name":"Linia kolejowa nr 175 Strzelce Opolskie - Kluczbork","type":"route","route":"railway","network":"PKP","operator":"PKP Polskie Linie Kolejowe S.A.","operator:wikidata":"Q1344677","not:operator:wikidata":"Q1344677"},"4850604":{"ref":"171","name":"Linia kolejowa nr 171 Dąbrowa Górnicza Towarowa - Panewnik","type":"route","route":"railway","network":"PKP","operator":"PKP Polskie Linie Kolejowe S.A.","operator:wikidata":"Q1344677"},"4850724":{"ref":"162","name":"Linia kolejowa nr 162 Dąbrowa Górnicza Strzemieszyce - Dąbrowa Górnicza Huta Katowice","type":"route","route":"railway","network":"PKP","operator":"PKP Polskie Linie Kolejowe S.A.","operator:wikidata":"Q1344677"},"4850838":{"ref":"163","name":"Linia kolejowa nr 163 Sosnowiec Kazimierz - Sosnowiec Maczki","type":"route","route":"railway","network":"PKP","operator":"PKP Polskie Linie Kolejowe S.A.","operator:wikidata":"Q1344677"},"4850839":{"ref":"663","name":"Linia kolejowa nr 663 Sosnowiec Kazimierz SKz2 - Sosnowiec Kazimierz SKz1","type":"route","route":"railway","network":"PKP","operator":"PKP Polskie Linie Kolejowe S.A.","operator:wikidata":"Q1344677"},"4862459":{"ref":"660","name":"Linia kolejowa nr 660 Sosnowiec Południowy - Sosnowiec Główny","type":"route","route":"railway","network":"PKP","operator":"PKP Polskie Linie Kolejowe S.A.","operator:wikidata":"Q1344677"},"4863671":{"ref":"931","name":"Tor łączący nr 931 Hrubieszów Miasto - Hrubieszów Towarowy","type":"route","route":"railway","network":"PKP","operator":"PKP Polskie Linie Kolejowe S.A."},"4867829":{"ref":"75","name":"Linia kolejowa nr 75 Rytwiany - Połaniec","type":"route","route":"railway","network":"PKP","operator":"PKP Polskie Linie Kolejowe S.A."},"4871817":{"to":"Wrocław Mikołajów","ref":"143","from":"Kalety","name":"Linia kolejowa nr 143: Kalety - Wrocław Popowice WP2","type":"route","route":"railway","source":"https://www.plk-sa.pl/files/public/user_upload/pdf/Akty_prawne_i_przepisy/Instrukcje/Wydruk/Id/Id-12__D29__Wykaz_linii.pdf","network":"PKP","old_name":"Linia kolejowa nr 143 Kalety - Wrocław Mikołajów WP2","operator":"PKP Polskie Linie Kolejowe S.A.","wikidata":"Q11757158","wikipedia":"pl:Linia kolejowa nr 143","operator:wikidata":"Q1344677"},"5123884":{"ref":"612","name":"Łącznica nr 612 Przeworsk - Przeworsk Gorliczyna","type":"route","route":"railway","network":"PKP","operator":"PKP Polskie Linie Kolejowe S.A."},"5141925":{"ref":"84","name":"Linia kolejowa nr 84 Grębów - Olendry","type":"route","route":"railway","network":"PKP","operator":"PKP Polskie Linie Kolejowe S.A."},"5142107":{"ref":"77","name":"Linia kolejowa nr 77 Janików - Świerże Górne","type":"route","route":"railway","network":"PKP","operator":"PKP Polskie Linie Kolejowe S.A.","operator:wikidata":"Q1344677"},"5142734":{"ref":"80","name":"Linia kolejowa nr 80 Furmany - Olendry","type":"route","route":"railway","network":"PKP","operator":"PKP Polskie Linie Kolejowe S.A."},"5151992":{"ref":"90","name":"Linia kolejowa nr 90 Zebrzydowice - Cieszyn","type":"route","route":"railway","network":"PKP","operator":"PKP Polskie Linie Kolejowe S.A.","operator:wikidata":"Q1344677"},"5171478":{"ref":"987","name":"Tor łączący nr 987 Tarnów Mościce - Mościce Azoty","type":"route","route":"railway","network":"PKP","operator":"KOLTAR Sp. z o.o."},"5190090":{"ref":"861","name":"Łącznica nr 861 Żurawica ŻrA - Żurawica ŻrB","type":"route","route":"railway","network":"PKP","operator":"PKP Polskie Linie Kolejowe S.A."},"5190540":{"ref":"614","name":"Linia kolejowa nr 614: Żurawica ŻrB - Hurko","type":"route","route":"railway","source":"https://www.plk-sa.pl/files/public/user_upload/pdf/Akty_prawne_i_przepisy/Instrukcje/Wydruk/Id/Id-12__D29__Wykaz_linii.pdf","network":"PKP","operator":"PKP Polskie Linie Kolejowe S.A.","operator:wikidata":"Q1344677"},"5190579":{"ref":"613","name":"Linia kolejowa nr 613: Żurawica ŻrC - Hurko","type":"route","route":"railway","source":"https://www.plk-sa.pl/files/public/user_upload/pdf/Akty_prawne_i_przepisy/Instrukcje/Wydruk/Id/Id-12__D29__Wykaz_linii.pdf","network":"PKP","operator":"PKP Polskie Linie Kolejowe S.A.","operator:wikidata":"Q1344677"},"5194956":{"ref":"92","name":"Linia kolejowa nr 92 Przemyśl - Medyka","type":"route","route":"railway","network":"PKP","operator":"PKP Polskie Linie Kolejowe S.A.","operator:wikidata":"Q1344677"},"5195337":{"ref":"123","name":"Linia kolejowa nr 123: Hurko - Krówniki (sz)","type":"route","route":"railway","source":"https://www.plk-sa.pl/files/public/user_upload/pdf/Akty_prawne_i_przepisy/Instrukcje/Wydruk/Id/Id-12__D29__Wykaz_linii.pdf","network":"PKP","operator":"PKP Polskie Linie Kolejowe S.A.","operator:wikidata":"Q1344677"},"5195361":{"ref":"989","name":"Linia kolejowa nr 989: Hurko - Medyka Towarowa R34","type":"route","route":"railway","source":"https://www.plk-sa.pl/files/public/user_upload/pdf/Akty_prawne_i_przepisy/Instrukcje/Wydruk/Id/Id-12__D29__Wykaz_linii.pdf","network":"PKP","operator":"PKP Polskie Linie Kolejowe S.A.","operator:wikidata":"Q1344677"},"5195536":{"ref":"124","name":"Linia kolejowa nr 124 Medyka - Chałupki Medyckie","type":"route","route":"railway","network":"PKP","operator":"PKP Polskie Linie Kolejowe S.A.","operator:wikidata":"Q1344677"},"5195593":{"ref":"121","name":"Linia kolejowa nr 121 Medyka - Chałupki Medyckie","type":"route","route":"railway","network":"PKP","operator":"PKP Polskie Linie Kolejowe S.A.","operator:wikidata":"Q1344677"},"5195777":{"ref":"126","name":"Linia kolejowa nr 126 Chrzanów - Płaza","type":"route","route":"railway","network":"PKP","operator":"PKP Polskie Linie Kolejowe S.A.","operator:wikidata":"Q1344677"},"5200921":{"ref":"882","name":"Łącznica nr 882 Oświęcim - Kopalnia Węgla Kamiennego Czeczott","type":"route","route":"railway","network":"PKP","operator":"KWK Czeczott"},"5207352":{"ref":"693","name":"Linia kolejowa nr 693: Czechowice-Dziedzice R827 - Bronów Podg","type":"route","route":"railway","source":"https://www.plk-sa.pl/files/public/user_upload/pdf/Akty_prawne_i_przepisy/Instrukcje/Wydruk/Id/Id-12__D29__Wykaz_linii.pdf","network":"PKP","operator":"PKP Polskie Linie Kolejowe S.A."},"5336132":{"ref":"129","name":"Linia kolejowa nr 129 Tarnowskie Góry TGB - Tarnowskie Góry TGE","type":"route","route":"railway","network":"PKP","operator":"PKP Polskie Linie Kolejowe S.A.","operator:wikidata":"Q1344677"},"5336232":{"to":"Kalety","ref":"130","from":"Tarnowskie Góry","name":"Linia kolejowa nr 130 Tarnowskie Góry TGD - Kalety T4","type":"route","route":"railway","network":"PKP","operator":"PKP Polskie Linie Kolejowe S.A.","operator:wikidata":"Q1344677"},"5339283":{"to":"Gdynia Port Oksywie","ref":"228","via":"Gdynia Port","from":"Rumia","name":"Linia kolejowa nr 228 Rumia – Gdynia Port Oksywie","type":"route","route":"railway","network":"PKP","operator":"PKP Polskie Linie Kolejowe S.A.","wikidata":"Q11757238","wikipedia":"pl:Linia kolejowa nr 228","operator:wikidata":"Q1344677"},"5369836":{"to":"Kutno Azory Lokomotywownia","ref":"921","from":"Kutno","name":"Linia kolejowa nr 921 Kutno - Kutno Azory Lokomotywownia","type":"route","route":"railway","network":"PKP","operator":"PKP Polskie Linie Kolejowe S.A.","operator:wikidata":"Q1344677"},"5374726":{"to":"Terespol Pomorski","ref":"240","from":"Świecie Przechowo","name":"Linia kolejowa nr 240 Świecie nad Wisłą - Terespol Pomorski","type":"route","route":"railway","network":"PKP","operator":"PKP Polskie Linie Kolejowe S.A.","operator:wikidata":"Q1344677"},"5379970":{"to":"Gniew","ref":"244","from":"Morzeszczyn","name":"Linia kolejowa nr 244 Morzeszczyn - Gniew","type":"route","route":"railway","network":"PKP","operator":"PKP Polskie Linie Kolejowe S.A.","operator:wikidata":"Q1344677"},"5380182":{"to":"Zajączkowo Tczewskie","ref":"729","from":"Górki","name":"Linia kolejowa nr 729: Górki - Zajączkowo Tczewskie","type":"route","route":"railway","source":"https://www.plk-sa.pl/files/public/user_upload/pdf/Akty_prawne_i_przepisy/Instrukcje/Wydruk/Id/Id-12__D29__Wykaz_linii_09.pdf","network":"PKP","operator":"PKP Polskie Linie Kolejowe S.A.","operator:wikidata":"Q1344677"},"5380183":{"to":"Zajączkowo Tczewskie","ref":"735","from":"Górki","name":"Linia kolejowa nr 735: Górki - Zajączkowo Tczewskie ZTA","type":"route","route":"railway","source":"https://www.plk-sa.pl/files/public/user_upload/pdf/Akty_prawne_i_przepisy/Instrukcje/Wydruk/Id/Id-12__D29__Wykaz_linii_09.pdf","network":"PKP","operator":"PKP Polskie Linie Kolejowe S.A.","operator:wikidata":"Q1344677"},"5380265":{"to":"Tczew R11","ref":"732","from":"Tczew R3","name":"Linia kolejowa nr 732 Tczew Południe - Tczew Wisła","type":"route","route":"railway","network":"PKP","operator":"PKP Polskie Linie Kolejowe S.A.","operator:wikidata":"Q1344677"},"5380331":{"to":"Zajączkowo Tczewskie","ref":"728","from":"Tczew R46","name":"Linia kolejowa nr 728: Tczew R46 - Zajączkowo Tczewskie ZTB","type":"route","route":"railway","source":"https://www.plk-sa.pl/files/public/user_upload/pdf/Akty_prawne_i_przepisy/Instrukcje/Wydruk/Id/Id-12__D29__Wykaz_linii_09.pdf","network":"PKP","operator":"PKP Polskie Linie Kolejowe S.A.","operator:wikidata":"Q1344677"},"5380441":{"to":"Zajączkowo Tczewskie","ref":"726","from":"Tczew R71","name":"Linia kolejowa nr 726: Tczew R71 - Zajączkowo Tczewskie ZTB","type":"route","route":"railway","source":"https://www.plk-sa.pl/files/public/user_upload/pdf/Akty_prawne_i_przepisy/Instrukcje/Wydruk/Id/Id-12__D29__Wykaz_linii_09.pdf","network":"PKP","operator":"PKP Polskie Linie Kolejowe S.A.","operator:wikidata":"Q1344677"},"5380447":{"to":"Malinowo","ref":"727","from":"Tczew","name":"Linia kolejowa nr 727: Tczew - Malinowo","type":"route","route":"railway","source":"https://www.plk-sa.pl/files/public/user_upload/pdf/Akty_prawne_i_przepisy/Instrukcje/Wydruk/Id/Id-12__D29__Wykaz_linii_09.pdf","network":"PKP","operator":"PKP Polskie Linie Kolejowe S.A.","operator:wikidata":"Q1344677"},"5385243":{"ref":"304","name":"Linia kolejowa nr 304 Brzeg - Małujowice","type":"route","route":"railway","network":"PKP","operator":"PKP Polskie Linie Kolejowe S.A.","operator:wikidata":"Q1344677"},"5386178":{"ref":"349","name":"Linia kolejowa nr 349 Święta Katarzyna - Wrocław Kuźniki","type":"route","route":"railway","network":"PKP","operator":"PKP Polskie Linie Kolejowe S.A.","operator:wikidata":"Q1344677"},"5386214":{"ref":"277","name":"Linia kolejowa nr 277 Opole Groszowice - Wrocław Brochów","type":"route","route":"railway","network":"PKP","operator":"PKP Polskie Linie Kolejowe S.A.","operator:wikidata":"Q1344677"},"5386218":{"ref":"764","name":"Linia kolejowa nr 764 Siechnice - Wrocław Brochów WBBD","type":"route","route":"railway","network":"PKP","operator":"PKP Polskie Linie Kolejowe S.A.","operator:wikidata":"Q1344677"},"5386265":{"ref":"763","name":"Linia kolejowa nr 763 Wrocław Brochów WBB - Wrocław Główny WGA","type":"route","route":"railway","network":"PKP","operator":"PKP Polskie Linie Kolejowe S.A.","operator:wikidata":"Q1344677"},"5388985":{"ref":"180","name":"Linia kolejowa nr 180 Dorota - Mysłowice Brzezinka","type":"route","route":"railway","network":"PKP","operator":"PKP Polskie Linie Kolejowe S.A.","operator:wikidata":"Q1344677"},"5389085":{"ref":"666","name":"Linia kolejowa nr 666 Sosnowiec Maczki SMa - Jaworzno Szczakowa JSc","type":"route","route":"railway","network":"PKP","operator":"PKP Polskie Linie Kolejowe S.A.","operator:wikidata":"Q1344677"},"5389106":{"ref":"667","name":"Łącznica nr 667 Sosnowiec Maczki - Długoszyn","type":"route","route":"railway","network":"PKP","operator":"PKP Polskie Linie Kolejowe S.A.","operator:wikidata":"Q1344677"},"5394050":{"ref":"714","name":"Linia kolejowa nr 714 Jaworzno Szczakowa JSE - Pieczyska T3P","type":"route","route":"railway","network":"PKP","operator":"PKP Polskie Linie Kolejowe S.A.","operator:wikidata":"Q1344677"},"5394053":{"ref":"669","name":"Linia kolejowa nr 669 Jaworzno Szczakowa JSE - Pieczyska T4P","type":"route","route":"railway","network":"PKP","operator":"PKP Polskie Linie Kolejowe S.A.","operator:wikidata":"Q1344677"},"5395082":{"ref":"720","name":"Linia kolejowa nr 720 Sosnowiec Jęzor - Sosnowiec Jęzor GT","type":"route","route":"railway","network":"PKP","operator":"PKP Polskie Linie Kolejowe S.A.","operator:wikidata":"Q1344677"},"5395083":{"ref":"719","name":"Linia kolejowa nr 719 Jęzor Centralny JCA - Sosnowiec Jęzor GT","type":"route","route":"railway","network":"PKP","operator":"PKP Polskie Linie Kolejowe S.A.;Infra Silesia S.A."},"5396613":{"ref":"655","name":"Linia kolejowa nr 655 Mysłowice MwB - Katowice Muchowiec KMA","type":"route","route":"railway","network":"PKP","operator":"PKP Polskie Linie Kolejowe S.A.","operator:wikidata":"Q1344677"},"5396716":{"ref":"681","name":"Linia kolejowa nr 681 Nowa Wieś - Stare Koźle","type":"route","route":"railway","network":"PKP","operator":"PKP Polskie Linie Kolejowe S.A.","operator:wikidata":"Q1344677"},"5396719":{"ref":"709","name":"Linia kolejowa nr 709 Kędzierzyn-Koźle - Stare Koźle","type":"route","route":"railway","network":"PKP","operator":"PKP Polskie Linie Kolejowe S.A.","operator:wikidata":"Q1344677"},"5396723":{"ref":"682","name":"Linia kolejowa nr 682 Nowa Wieś - Kędzierzyn-Koźle KKB","type":"route","route":"railway","network":"PKP","operator":"PKP Polskie Linie Kolejowe S.A.","operator:wikidata":"Q1344677"},"5396933":{"to":"Kłodnica","ref":"680","from":"Kędzierzyn-Koźle","name":"Linia kolejowa nr 680 Kędzierzyn-Koźle KKD - Kłodnica","type":"route","route":"railway","network":"PKP","operator":"PKP Polskie Linie Kolejowe S.A.","operator:wikidata":"Q1344677"},"5397280":{"ref":"872","name":"Linia kolejowa nr 872 Nowa Wieś - Kędzierzyn-Koźle KKC","type":"route","route":"railway","network":"PKP","operator":"PKP Polskie Linie Kolejowe S.A.","operator:wikidata":"Q1344677"},"5398688":{"to":"Zdzieszowice","ref":"891","via":"Zakłady Koksownicze Zdzieszowice","from":"Raszowa","name":"Linia kolejowa nr 891 Raszowa - Zdzieszowice","type":"route","route":"railway","network":"PKP","operator":"PKP Polskie Linie Kolejowe S.A.;Arcelormittal Poland S.A."},"5401417":{"ref":"978","name":"Linia kolejowa nr 978 Przywory Opolskie - Chorula Cementownia Górażdże","type":"route","route":"railway","network":"PKP","operator":"PKP Polskie Linie Kolejowe S.A.;CEMET S.A."},"5409589":{"ref":"306","name":"Linia kolejowa nr 306 Krapkowice - Prudnik","type":"route","route":"railway","network":"PKP","operator":"PKP Polskie Linie Kolejowe S.A.","operator:wikidata":"Q1344677"},"5409728":{"ref":"297","name":"Linia kolejowa nr 297 Nowy Świętów - Głuchołazy Zdrój","type":"route","route":"railway","network":"PKP","operator":"PKP Polskie Linie Kolejowe S.A.","operator:wikidata":"Q1344677"},"5416739":{"ref":"302","name":"Linia kolejowa nr 302 Malczyce - Grabina Śląska","type":"route","route":"railway","network":"PKP","operator":"PKP Polskie Linie Kolejowe S.A.","operator:wikidata":"Q1344677"},"5419496":{"ref":"296","name":"Linia kolejowa nr 296 Wielkie Piekary - Miłkowice","type":"route","route":"railway","network":"PKP","operator":"PKP Polskie Linie Kolejowe S.A.","operator:wikidata":"Q1344677"},"5424984":{"ref":"140","name":"Linia kolejowa nr 140 Katowice Ligota - Nędza","type":"route","route":"railway","network":"PKP","operator":"PKP Polskie Linie Kolejowe S.A.","operator:wikidata":"Q1344677"},"5436512":{"ref":"957","name":"Linia kolejowa nr 957: Rybnik - Rybnik Towarowy RTF","type":"route","route":"railway","source":"https://www.plk-sa.pl/files/public/user_upload/pdf/Akty_prawne_i_przepisy/Instrukcje/Wydruk/Id/Id-12__D29__Wykaz_linii_09.pdf","network":"PKP","operator":"PKP PLK"},"5436640":{"ref":"688","name":"Linia kolejowa nr 688: Rybnik Towarowy RTA - Rybnik RbC","type":"route","route":"railway","source":"https://www.plk-sa.pl/files/public/user_upload/pdf/Akty_prawne_i_przepisy/Instrukcje/Wydruk/Id/Id-12__D29__Wykaz_linii_09.pdf","network":"PKP","operator":"PKP PLK"},"5444286":{"ref":"691","name":"Linia kolejowa nr 691 Nędza Wieś - Turze","type":"route","route":"railway","network":"PKP","operator":"PKP Polskie Linie Kolejowe S.A.","operator:wikidata":"Q1344677"},"5454329":{"ref":"766","name":"Linia kolejowa nr 766 Łukanów - Dąbrowa Oleśnicka","type":"route","route":"railway","network":"PKP","operator":"PKP Polskie Linie Kolejowe S.A.","operator:wikidata":"Q1344677"},"5454608":{"ref":"292","name":"Linia kolejowa nr 292 Jelcz Miłoszyce - Wrocław Osobowice","type":"route","route":"railway","network":"PKP","operator":"PKP Polskie Linie Kolejowe S.A.","operator:wikidata":"Q1344677"},"5456688":{"ref":"755","name":"Linia kolejowa nr 755: Wrocław Popowice WP4 - Wrocław Popowice WP3","type":"route","route":"railway","source":"https://www.plk-sa.pl/files/public/user_upload/pdf/Akty_prawne_i_przepisy/Instrukcje/Wydruk/Id/Id-12__D29__Wykaz_linii.pdf","network":"PKP","operator":"PKP Polskie Linie Kolejowe S.A.","operator:wikidata":"Q1344677"},"5456689":{"ref":"752","name":"Linia kolejowa nr 752: Wrocław Gądów - Wrocław Popowice WP3","type":"route","route":"railway","source":"https://www.plk-sa.pl/files/public/user_upload/pdf/Akty_prawne_i_przepisy/Instrukcje/Wydruk/Id/Id-12__D29__Wykaz_linii.pdf","network":"PKP","operator":"PKP Polskie Linie Kolejowe S.A.","operator:wikidata":"Q1344677"},"5456794":{"ref":"754","name":"Linia kolejowa nr 754: Wrocław Popowice WP1 - Wrocław Popowice WP4","type":"route","route":"railway","source":"https://www.plk-sa.pl/files/public/user_upload/pdf/Akty_prawne_i_przepisy/Instrukcje/Wydruk/Id/Id-12__D29__Wykaz_linii.pdf","network":"PKP","operator":"PKP Polskie Linie Kolejowe S.A.","operator:wikidata":"Q1344677"},"5462013":{"ref":"300","name":"Linia kolejowa nr 300 Opole Główne - Opole Wschód","type":"route","route":"railway","network":"PKP","operator":"PKP Polskie Linie Kolejowe S.A.","operator:wikidata":"Q1344677"},"5462048":{"ref":"280","name":"Linia kolejowa nr 280 Opole Groszowice - Opole Główne","type":"route","route":"railway","network":"PKP","operator":"PKP Polskie Linie Kolejowe S.A.","operator:wikidata":"Q1344677"},"5464245":{"ref":"159","name":"Linia kolejowa nr 159 Żory - Pawłowice","type":"route","route":"railway","network":"PKP","operator":"PKP Polskie Linie Kolejowe S.A.","operator:wikidata":"Q1344677"},"5474759":{"ref":"890","name":"Linia kolejowa nr 890 Bierawa - Zakłady Azotowe Kędzierzyn","type":"route","route":"railway","network":"PKP","operator":"PKP Polskie Linie Kolejowe S.A.;CTL Chemkol Sp. z o.o.","operator:wikidata":"Q1344677"},"5479182":{"ref":"679","name":"Linia kolejowa nr 679 Chałupki - Granica Państwa","type":"route","route":"railway","network":"PKP","operator":"PKP Polskie Linie Kolejowe S.A.","operator:wikidata":"Q1344677"},"5481222":{"ref":"661","name":"Linia kolejowa nr 661: Dąbrowa Górnicza Towarowa DTA R5 - Kozioł","type":"route","route":"railway","network":"PKP","old_name":"Łącznica nr 661 Okradzionów - Kozioł","operator":"PKP Polskie Linie Kolejowe S.A.","operator:wikidata":"Q1344677"},"5481426":{"ref":"670","name":"Linia kolejowa nr 670 Borowa Górka - Jaworzno Szczakowa T4B","type":"route","route":"railway","network":"PKP","operator":"PKP Polskie Linie Kolejowe S.A.","operator:wikidata":"Q1344677"},"5481427":{"ref":"715","name":"Linia kolejowa nr 715 Borowa Górka - Jaworzno Szczakowa T3B","type":"route","route":"railway","network":"PKP","operator":"PKP Polskie Linie Kolejowe S.A.","operator:wikidata":"Q1344677"},"5481532":{"ref":"873","name":"Linia kolejowa nr 873 Pawłowice Śląskie - Pawłowice Górnicze","type":"route","route":"railway","network":"PKP","operator":"PKP Polskie Linie Kolejowe S.A.;Jastrzębska Spółka Kolejowa Sp. z o.o."},"5481554":{"ref":"689","name":"Linia kolejowa nr 689 Studzionka - Dębina","type":"route","route":"railway","network":"PKP","operator":"PKP Polskie Linie Kolejowe S.A.","operator:wikidata":"Q1344677"},"5483001":{"ref":"876","name":"Linia kolejowa nr 876 Wodzisław Śląski - Radlin Marcel","type":"route","route":"railway","network":"PKP","operator":"PKP Polskie Linie Kolejowe S.A.;Infra Silesia S.A.","operator:wikidata":"Q1344677"},"5574562":{"to":"Gdynia Port","ref":"725","from":"Gdynia Główna","name":"Linia kolejowa nr 725 Gdynia Główna R21 - Gdynia Port GPB","type":"route","route":"railway","network":"PKP","operator":"PKP Polskie Linie Kolejowe S.A.","wikidata":"Q110390214","wikipedia":"pl:Linia kolejowa nr 725","operator:wikidata":"Q1344677"},"5574645":{"to":"Gdynia Postojowa","ref":"960","from":"Gdynia Główna","name":"Linia kolejowa nr 960: Gdynia Główna – Gdynia Postojowa","type":"route","route":"railway","source":"https://www.plk-sa.pl/files/public/user_upload/pdf/Akty_prawne_i_przepisy/Instrukcje/Wydruk/Id/Id-12__D29__Wykaz_linii_09.pdf","network":"PKP","operator":"PKP Polskie Linie Kolejowe S.A.","wikidata":"Q97162156","wikipedia":"pl:Linia kolejowa nr 960","operator:wikidata":"Q1344677"},"5574669":{"to":"Gdynia Główna R95","ref":"963","from":"Gdynia Główna R81","name":"Tor łączący nr 963 Gdynia Główna R81 - Gdynia Główna R95","type":"route","route":"railway","network":"PKP","operator":"PKP Polskie Linie Kolejowe S.A.","wikidata":"Q97578212","wikipedia":"pl:Linia kolejowa nr 963","operator:wikidata":"Q1344677"},"5578575":{"to":"Gdynia Port GPO","ref":"724","from":"Gdynia Port GPD","name":"Linia kolejowa nr 724 Gdynia Port GPD - Gdynia Port GPO","type":"route","route":"railway","network":"PKP","operator":"PKP Polskie Linie Kolejowe S.A.","operator:wikidata":"Q1344677"},"5578624":{"to":"Gdynia Port","ref":"723","from":"Gdynia Chylonia","name":"Linia kolejowa nr 723: Gdynia Chylonia – Gdynia Port GPF","type":"route","route":"railway","network":"PKP","operator":"PKP Polskie Linie Kolejowe S.A.","operator:wikidata":"Q1344677"},"5581329":{"to":"Gdańsk Zaspa Towarowa","ref":"227","from":"Gdańsk Główny","name":"Linia kolejowa nr 227 Gdańsk Główny – Gdańsk Zaspa Towarowa","type":"route","route":"railway","network":"PKP","operator":"PKP Polskie Linie Kolejowe S.A.","wikidata":"Q11757237","wikipedia":"pl:Linia kolejowa nr 227","operator:wikidata":"Q1344677"},"5586824":{"to":"Gdynia Chylonia","ref":"964","from":"Gdynia Postojowa","name":"Linia kolejowa nr 964: Gdynia Postojowa GP15 - Gdynia Chylonia","type":"route","route":"railway","source":"https://www.plk-sa.pl/files/public/user_upload/pdf/Akty_prawne_i_przepisy/Instrukcje/Wydruk/Id/Id-12__D29__Wykaz_linii_09.pdf","network":"PKP","operator":"PKP Polskie Linie Kolejowe S.A.","operator:wikidata":"Q1344677"},"5601312":{"ref":"404","name":"Linia kolejowa nr 404 Szczecinek - Kołobrzeg","type":"route","route":"railway","network":"PKP","operator":"PKP Polskie Linie Kolejowe S.A.","operator:wikidata":"Q1344677"},"5605393":{"ref":"210","name":"Linia kolejowa nr 210 Chojnice - Runowo Pomorskie","type":"route","route":"railway","network":"PKP","operator":"PKP Polskie Linie Kolejowe S.A.","operator:wikidata":"Q1344677"},"5609612":{"to":"Zajączkowo Tczewskie","ref":"731","from":"Malinowo","name":"Linia kolejowa nr 731: Malinowo - Zajączkowo Tczewskie ZTB","type":"route","route":"railway","source":"https://www.plk-sa.pl/files/public/user_upload/pdf/Akty_prawne_i_przepisy/Instrukcje/Wydruk/Id/Id-12__D29__Wykaz_linii_09.pdf","network":"PKP","operator":"PKP Polskie Linie Kolejowe S.A.","operator:wikidata":"Q1344677"},"5609615":{"to":"Tczew Suchostrzygi","ref":"730","via":"Malinowo","from":"Zajączkowo Tczewskie","name":"Linia kolejowa nr 730: Zajączkowo Tczewskie ZTD - Tczew Suchostrzygi","type":"route","route":"railway","source":"https://www.plk-sa.pl/files/public/user_upload/pdf/Akty_prawne_i_przepisy/Instrukcje/Wydruk/Id/Id-12__D29__Wykaz_linii_09.pdf","network":"PKP","operator":"PKP Polskie Linie Kolejowe S.A.","operator:wikidata":"Q1344677"},"5635149":{"ref":"426","name":"Linia kolejowa nr 426 Strzelce Krajeńskie Wschód - Strzelce Krajeńskie","type":"route","route":"railway","network":"PKP","operator":"PKP Polskie Linie Kolejowe S.A.","operator:wikidata":"Q1344677"},"5638625":{"ref":"415","name":"Linia kolejowa nr 415 Gorzów Wielkopolski - Gorzów Wielkopolski Wieprzyce","type":"route","route":"railway","network":"PKP","operator":"PKP Polskie Linie Kolejowe S.A.","operator:wikidata":"Q1344677"},"5652940":{"ref":"205","name":"Linia kolejowa nr 205 Wielewo - Anielin Gradowo","type":"route","route":"railway","network":"PKP","operator":"PKP Polskie Linie Kolejowe S.A.","operator:wikidata":"Q1344677"},"5659820":{"to":"Działdowo R101","ref":"966","from":"Działdowo R102","name":"Linia koeljowa nr 966 Działdowo R102 - Działdowo R101","type":"route","route":"railway","network":"PKP","operator":"PKP Polskie Linie Kolejowe S.A.","operator:wikidata":"Q1344677"},"5673595":{"ref":"413","name":"Linia kolejowa nr 413 Człuchów - Przechlewo","type":"route","route":"railway","network":"PKP","operator":"PKP Polskie Linie Kolejowe S.A.","operator:wikidata":"Q1344677"},"5686425":{"ref":"212","name":"Linia kolejowa nr 212 Bytów - Korzybie","type":"route","route":"railway","network":"PKP","operator":"PKP Polskie Linie Kolejowe S.A.","operator:wikidata":"Q1344677"},"5719760":{"to":"Pruszcz Gdański","ref":"260","via":"Pszczółki","from":"Zajączkowo Tczewskie","name":"Linia kolejowa nr 260 Zajączkowo Tczewskie - Pruszcz Gdański","type":"route","route":"railway","network":"PKP","operator":"PKP Polskie Linie Kolejowe S.A.","operator:wikidata":"Q1344677"},"5724244":{"to":"Gdańsk Olszynka","ref":"721","from":"Gdańsk Południowy","name":"Linia kolejowa nr 721: Gdańsk Południowy - Gdańsk Olszynka R1","type":"route","route":"railway","source":"https://www.plk-sa.pl/files/public/user_upload/pdf/Akty_prawne_i_przepisy/Instrukcje/Wydruk/Id/Id-12__D29__Wykaz_linii_09.pdf","network":"PKP","old_name":"Łącznica nr 721 Gdańsk Południowy - Motława Most","operator":"PKP Polskie Linie Kolejowe S.A.","operator:wikidata":"Q1344677"},"5724844":{"to":"Gdańsk Port Północny","ref":"965","via":"Gdańsk Kanał Kaszubski","from":"Gdańsk Port Północny","name":"Linia kolejowa nr 965: Gdańsk Port Północny R4 - Gdańsk Port Północny","type":"route","route":"railway","source":"https://www.plk-sa.pl/files/public/user_upload/pdf/Akty_prawne_i_przepisy/Instrukcje/Wydruk/Id/Id-12__D29__Wykaz_linii_09.pdf","network":"PKP","old_name":"Tor łączący nr 965 Wisła Most - Gdańsk Port Północny","operator":"PKP Polskie Linie Kolejowe S.A.","operator:wikidata":"Q1344677"},"5727418":{"to":"Gdańsk Wiślany","ref":"722","from":"Gdańsk Zaspa Towarowa","name":"Linia kolejowa nr 722 Gdańsk Zaspa Towarowa R250 - Gdańsk Wiślany","type":"route","route":"railway","network":"PKP","operator":"PKP Polskie Linie Kolejowe S.A.;Zarząd Morskiego Portu Gdańsk S.A.","wikidata":"Q11757440","wikipedia":"pl:Linia kolejowa nr 722","operator:wikidata":"Q1344677"},"5743753":{"to":"Pszczółki","ref":"265","from":"Zajączkowo Tczewskie","name":"Linia kolejowa nr 265 Zajączkowo Tczewskie - Pszczółki","type":"route","route":"railway","network":"PKP","operator":"PKP Polskie Linie Kolejowe S.A.","operator:wikidata":"Q1344677"},"5834378":{"ref":"847","name":"Linia kolejowa nr 847 Konopat - Bocznica ZP","type":"route","route":"railway","network":"PKP","operator":"Mondi Świecie S.A."},"5863954":{"ref":"256","name":"Linia kolejowa nr 256 Szymankowo - Nowy Dwór Gdański","type":"route","route":"railway","network":"PKP","operator":"PKP Polskie Linie Kolejowe S.A.","operator:wikidata":"Q1344677"},"5882831":{"ref":"761","name":"Linia kolejowa nr 761 Wrocław Grabiszyn - Wrocław Świebodzki PGLP","type":"route","route":"railway","network":"PKP","operator":"PKP Polskie Linie Kolejowe S.A.","operator:wikidata":"Q1344677"},"5882841":{"ref":"753","name":"Linia kolejowa nr 753: Grabiszyn - Wrocław Gądów","type":"route","route":"railway","source":"https://www.plk-sa.pl/files/public/user_upload/pdf/Akty_prawne_i_przepisy/Instrukcje/Wydruk/Id/Id-12__D29__Wykaz_linii.pdf","network":"PKP","operator":"PKP Polskie Linie Kolejowe S.A.","operator:wikidata":"Q1344677"},"5888742":{"to":"Góra Śląska","ref":"372","via":"Borszyn Wielki","from":"Bojanowo","name":"Linia kolejowa nr 372 Bojanowo - Góra Śląska","note":"Linia wykreślona z ewidencji PKP PLK","type":"route","route":"railway","network":"PKP","operator":"Dolnośląska Służba Dróg i Kolei we Wrocławiu","operator:wikidata":"Q11694615"},"5892781":{"ref":"366","name":"Linia kolejowa nr 366 Kurzagóra - Kościan","type":"route","route":"railway","network":"PKP","operator":"PKP Polskie Linie Kolejowe S.A.","operator:wikidata":"Q1344677"},"5893364":{"ref":"802","name":"Linia kolejowa nr 802 Poznań Starołęka PSk - Luboń koło Poznania","type":"route","route":"railway","network":"PKP","operator":"PKP Polskie Linie Kolejowe S.A.","wikidata":"Q48847313","wikipedia":"pl:Linia kolejowa nr 802","operator:wikidata":"Q1344677"},"5934578":{"ref":"757","name":"Linia kolejowa nr 757 Wrocław Świebodzki - Wrocław Muchobór","type":"route","route":"railway","network":"PKP","operator":"PKP Polskie Linie Kolejowe S.A.","operator:wikidata":"Q1344677"},"5934579":{"ref":"758","name":"Linia kolejowa nr 758 Stadion - Wrocław Muchobór","type":"route","route":"railway","network":"PKP","operator":"PKP Polskie Linie Kolejowe S.A.","operator:wikidata":"Q1344677"},"5956753":{"ref":"436","name":"Linia kolejowa nr 436 Czerwieńsk Południe - Czerwieńsk Wschód","type":"route","route":"railway","network":"PKP","operator":"PKP Polskie Linie Kolejowe S.A.","operator:wikidata":"Q1344677"},"5977799":{"ref":"760","name":"Linia kolejowa nr 760 Wrocław Świebodzki - Wrocław Gądów","type":"route","route":"railway","network":"PKP","operator":"PKP Polskie Linie Kolejowe S.A.","operator:wikidata":"Q1344677"},"5978063":{"ref":"751","name":"Linia kolejowa nr 751 Wrocław Gądów - Wrocław Zachodni","type":"route","route":"railway","network":"PKP","operator":"PKP Polskie Linie Kolejowe S.A.","operator:wikidata":"Q1344677"},"5978412":{"ref":"970","name":"Linia kolejowa nr 970: Mietków - Mietków Bocznica Majkoltrans","type":"route","route":"railway","source":"https://www.plk-sa.pl/files/public/user_upload/pdf/Akty_prawne_i_przepisy/Instrukcje/Wydruk/Id/Id-12__D29__Wykaz_linii_09.pdf","network":"PKP","operator":"PKP PLK;Majkoltrans Sp. z o.o."},"5987982":{"ref":"773","name":"Linia kolejowa nr 773: Boguszów-Gorce - Boguszów-Gorce Towarowy","type":"route","route":"railway","network":"PKP","operator":"PKP Polskie Linie Kolejowe S.A.","operator:wikidata":"Q1344677"},"5988138":{"ref":"976","name":"Linia kolejowa nr 976 Boguszów Gorce Zachód - Czarny Bór","type":"route","route":"railway","network":"PKP","operator":"PKP Polskie Linie Kolejowe S.A.;Mineral Polska sp. z o.o."},"5990095":{"ref":"298","name":"Linia kolejowa nr 298 Kamienna Góra - Sędzisław","type":"route","route":"railway","network":"PKP","operator":"PKP Polskie Linie Kolejowe S.A.","wikidata":"Q16483447","wikipedia":"pl:Linia kolejowa nr 298","operator:wikidata":"Q1344677"},"5990107":{"ref":"774","name":"Linia kolejowa nr 774 Krużyn - Marciszów Górny","type":"route","route":"railway","network":"PKP","operator":"PKP Polskie Linie Kolejowe S.A.","operator:wikidata":"Q1344677"},"5997373":{"to":"Mirsk","ref":"317","from":"Gryfów Śląski","name":"Linia kolejowa nr 317 Gryfów Śląski - Mirsk","type":"route","route":"railway","network":"DSDiK","operator":"Dolnośląska Służba Dróg i Kolei we Wrocławiu","wikidata":"Q11757281","wikipedia":"pl:Linia kolejowa nr 284","operator:wikidata":"Q11694615"},"5999270":{"ref":"279","name":"Linia kolejowa nr 279 Lubań Śląski - Węgliniec","type":"route","route":"railway","network":"PKP","operator":"PKP Polskie Linie Kolejowe S.A.","operator:wikidata":"Q1344677"},"6000701":{"ref":"779","name":"Linia kolejowa nr 779 Studniska - Las","type":"route","route":"railway","network":"PKP","operator":"PKP Polskie Linie Kolejowe S.A.","operator:wikidata":"Q1344677"},"6002868":{"ref":"778","name":"Linia kolejowa nr 778 Zgorzelec R1 - Zgorzelec R11","type":"route","route":"railway","network":"PKP","old_name":"Łącznica nr 778 Zgorzelec Miasto - Krysin","operator":"PKP Polskie Linie Kolejowe S.A.","operator:wikidata":"Q1344677"},"6002972":{"ref":"759","name":"Linia kolejowa nr 759 Wrocław Gądów - Wrocław Nowy Dwór","type":"route","route":"railway","network":"PKP","operator":"PKP Polskie Linie Kolejowe S.A.","operator:wikidata":"Q1344677"},"6006795":{"ref":"278","name":"Linia kolejowa nr 278 Węgliniec - Zgorzelec","type":"route","route":"railway","network":"PKP","operator":"PKP Polskie Linie Kolejowe S.A.","operator:wikidata":"Q1344677"},"6007836":{"ref":"284","name":"Linia kolejowa nr 284 Legnica - Jerzmanice Zdrój","type":"route","route":"railway","network":"PKP","operator":"PKP Polskie Linie Kolejowe S.A.","operator:wikidata":"Q1344677"},"6007960":{"to":"Legnica","ref":"382","from":"Pątnów Legnicki","name":"Linia kolejowa nr 382 Pątnów Legnicki - Legnica Lg5","type":"route","route":"railway","source":"https://www.plk-sa.pl/files/public/user_upload/pdf/Akty_prawne_i_przepisy/Instrukcje/Wydruk/Id/Id-12__D29__Wykaz_linii_09.pdf","network":"PKP","operator":"PKP Polskie Linie Kolejowe S.A.","network:type":"Local","operator:wikidata":"Q1344677","not:operator:wikidata":"Q1344677"},"6008536":{"to":"Chocianów","ref":"303","from":"Rokitki","name":"Linia kolejowa nr 303 Rokitki - Chocianów","type":"route","route":"railway","network":"PKP","operator":"PKP Polskie Linie Kolejowe S.A.;Dolnośląska Służba Dróg i Kolei we Wrocławiu S.A.","operator:wikidata":"Q1344677"},"6020061":{"ref":"765","name":"Linia kolejowa nr 765 Wrocław Brochów WBB - Lamowice","type":"route","route":"railway","network":"PKP","operator":"PKP Polskie Linie Kolejowe S.A.","operator:wikidata":"Q1344677"},"6024841":{"ref":"309","name":"Linia kolejowa nr 309 Kłodzko Nowe - Kudowa-Zdrój","type":"route","route":"railway","network":"PKP","operator":"PKP Polskie Linie Kolejowe S.A.","wikidata":"Q802592","wikipedia":"pl:Linia kolejowa nr 309","operator:wikidata":"Q1344677"},"6024845":{"ref":"322","name":"Linia kolejowa nr 322 Kłodzko Nowe - Stronie Śląskie","type":"route","route":"railway","network":"PKP","operator":"PKP Polskie Linie Kolejowe S.A.","operator:wikidata":"Q1344677"},"6039249":{"ref":"975","name":"Linia kolejowa nr 975 Węgliniec SKP - Węgliniec Wg","type":"route","route":"railway","network":"PKP","operator":"PKP Polskie Linie Kolejowe S.A.","operator:wikidata":"Q1344677"},"6072757":{"ref":"973","from":"Bolesławiec","name":"Linia kolejowa nr 973 Bolesławiec - Wizów","type":"route","route":"railway","network":"PKP","operator":"PKP Polskie Linie Kolejowe S.A.;Tyczyńska Fabryka Urządzeń Wentylacyjnych Tywent sp. z o.o","operator:wikidata":"Q1344677"},"6074755":{"ref":"295","name":"Linia kolejowa nr 295 Węgliniec - Bielawa Dolna","type":"route","route":"railway","network":"PKP","operator":"PKP Polskie Linie Kolejowe S.A.","operator:wikidata":"Q1344677"},"6075057":{"ref":"380","name":"Linia kolejowa nr 380 Jankowa Żagańska - Sanice","type":"route","route":"railway","network":"PKP","operator":"PKP Polskie Linie Kolejowe S.A.","operator:wikidata":"Q1344677"},"6084953":{"ref":"193","name":"Linia kolejowa nr 193 Racibórz Studzienna – Krzanowice Południowe","note":"Linia wykreślona z ewidencji PKP PLK","type":"route","route":"railway","network":"PKP","operator":"PKP Polskie Linie Kolejowe S.A.","wikidata":"Q11757207","wikipedia":"pl:Linia kolejowa nr 193","operator:wikidata":"Q1344677"},"6709962":{"ref":"R","name":"Łódź - Poznań","type":"route","route":"railway"},"7108118":{"name":"Sochaczewska Kolej Muzealna","type":"route","gauge":"750","route":"railway","usage":"tourism","railway":"narrow_gauge","old_name":"Powiatowa Kolej Sochaczewska","operator":"Muzeum Kolejnictwa w Warszawie","wikidata":"Q9339058","wikipedia":"pl:Sochaczewska Kolej Muzealna","electrified":"no"},"7589447":{"to":"Poznań Franowo PFD","ref":"824","from":"Pokrzywno","name":"Linia kolejowa nr 824: Pokrzywno - Poznań Franowo PFD","type":"route","route":"railway","source":"https://www.plk-sa.pl/files/public/user_upload/pdf/Akty_prawne_i_przepisy/Instrukcje/Wydruk/Id/Id-12__D29__Wykaz_linii_09.pdf","network":"PKP","voltage":"3000","operator":"PKP Polskie Linie Kolejowe S.A.","electrified":"contact_line","operator:wikidata":"Q1344677"},"7589589":{"to":"Nowa Wieś Poznańska","ref":"806","from":"Poznań Franowo PFD","name":"Linia kolejowa nr 806: Poznań Franowo PFD - Nowa Wieś Poznańska","type":"route","route":"railway","source":"https://www.plk-sa.pl/files/public/user_upload/pdf/Akty_prawne_i_przepisy/Instrukcje/Wydruk/Id/Id-12__D29__Wykaz_linii_09.pdf","network":"PKP","voltage":"3000","operator":"PKP Polskie Linie Kolejowe S.A.","electrified":"contact_line","operator:wikidata":"Q1344677"},"7589590":{"to":"Stary Młyn","ref":"823","from":"Poznań Franowo PFD","name":"Linia kolejowa nr 823 Poznań Franowo PFD - Stary Młyn","type":"route","route":"railway","network":"PKP","voltage":"3000","operator":"PKP Polskie Linie Kolejowe S.A.","electrified":"contact_line","operator:wikidata":"Q1344677"},"7615388":{"name":"Bieszczadzka Kolejka Wąskotorowa","type":"route","route":"railway","ref:nid":"A-284","heritage":"2","start_date":"1898"},"7701966":{"name":"Historyczna trasa wąskotorowej, towarowej linii kolejowej Śliwice-Błędno","type":"route","route":"railway","source":"https://sites.google.com/site/sciezkaedukacyjnawsliwicach/punkt-11-lesniczowka-loboda","railway":"abandoned"},"7750598":{"name":"Linia kolejowa zaopatrująca zakłady Luftmuna","type":"route","route":"railway"},"7764924":{"name":"Bromberger Kreisbahn","type":"route","route":"railway","name:pl":"Bydgoska Kolej Powiatowa"},"10245635":{"name":"Krośniewicka Kolej Dojazdowa","type":"route","route":"railway","railway":"preserved"},"11006168":{"to":"Skwierzyna","ref":"363","from":"Rokietnica","name":"Linia kolejowa nr 363 (Rokietnica –) Międzychód – Skwierzyna","type":"route","route":"railway","network":"PKP","operator":"PKP Polskie Linie Kolejowe S.A.","wikidata":"Q11757343","wikipedia":"pl:Linia kolejowa nr 363","electrified":"no","operator:wikidata":"Q1344677"},"11031494":{"ref":"624","name":"Linia kolejowa nr 624 Kraków Główny - Kraków Bonarka","type":"route","route":"railway","network":"PKP","voltage":"3000","operator":"PKP Polskie Linie Kolejowe S.A.","wikidata":"Q24945282","frequency":"0","wikipedia":"pl:Linia kolejowa nr 624","electrified":"contact_line","operator:wikidata":"Q1344677"},"11114843":{"name":"Piaseczyńska Kolej Wąskotorowa","type":"route","route":"railway","operator":"Piaseczyńsko-Grójeckie Towarzystwo Kolei Wąskotorowej"},"12424380":{"ref":"546","name":"546 Lichkov státní hranice - Letohrad","type":"route","route":"railway","operator":"Správa železnic, s. o.","operator:wikidata":"Q1848025"},"12476763":{"ref":"988","name":"Linia kolejowa nr 988 Przeworsk - Przeworsk Towarowy","type":"route","route":"railway","source":"http://mapa.plk-sa.pl/","network":"PKP","voltage":"3000","operator":"PKP Polskie Linie Kolejowe S.A.","frequency":"0","electrified":"contact_line"},"12865835":{"ref":"6573","name":"Bahnstrecke Forst–Guben","type":"route","route":"railway","wikidata":"Q802286","wikipedia":"de:Bahnstrecke Forst–Guben"},"13139884":{"to":"Katowice","ref":"558","from":"Skierniewice R24","name":"Linia kolejowa nr 558 Skierniewice R24 – Skierniewice R402","type":"route","gauge":"1435","route":"railway","network":"PKP","voltage":"3000","maxspeed":"60","operator":"PKP Polskie Linie Kolejowe S.A.","wikidata":"Q97370280","wikipedia":"pl:Linia kolejowa nr 558","electrified":"contact_line","operator:wikidata":"Q1344677"},"13152395":{"to":"Warszawa Zachodnia R101","ref":"850","from":"Warszawa Zachodnia R99","name":"Linia kolejowa nr 850: Warszawa Zachodnia R99 - Warszawa Zachodnia R101 T82","type":"route","route":"railway","network":"PKP","operator":"PKP Polskie Linie Kolejowe S.A.","operator:wikidata":"Q1344677"},"13152396":{"to":"Warszawa Zachodnia R100","ref":"849","from":"Warszawa Zachodnia R82","name":"Linia kolejowa nr 849: Warszawa Zachodnia R82 - Warszawa Zachodnia R100 T81","type":"route","route":"railway","network":"PKP","operator":"PKP Polskie Linie Kolejowe S.A.","operator:wikidata":"Q1344677"},"13152397":{"ref":"85","from":"Warszawa Zachodnia R9","name":"Linia kolejowa nr 85: Warszawa Zachodnia R9 - Warszawa Zachodnia T1 (KDP)","type":"route","route":"railway","source":"https://www.plk-sa.pl/files/public/user_upload/pdf/Akty_prawne_i_przepisy/Instrukcje/Wydruk/Id/Id-12__D29__Wykaz_linii_09.pdf","network":"PKP","operator":"PKP Polskie Linie Kolejowe S.A.","operator:wikidata":"Q1344677"},"13152459":{"name":"Krakowski Szybki Tramwaj etap IV","type":"route","route":"railway","operator":"Gülermak Sp. z o.o."},"13158511":{"to":"Warszawa Ochota Postojowa","ref":"919","from":"Warszawa Zachodnia","name":"Linia kolejowa nr 919: Warszawa Zachodnia - Warszawa Ochota Postojowa","type":"route","route":"railway","network":"PKP","operator":"PKP Polskie Linie Kolejowe S.A.;Koleje Mazowieckie","wikidata":"Q97371966","wikipedia":"pl:Linia kolejowa nr 919"},"13158837":{"to":"Radiowo","ref":"938","from":"Warszawa Jelonki","name":"Linia kolejowa nr 938: Warszawa Jelonki - Radiowo","note":"Linia wykreślona z ewidencji PKP PLK i ArcelorMittal","type":"route","route":"railway","historic":"railway","operator":"ArcelorMittal Warszawa sp. z o.o."},"13159629":{"to":"Warszawa Szczęśliwice R1","ref":"868","from":"Warszawa Szczęśliwice R800","name":"Linia kolejowa nr 868: Warszawa Szczęśliwice R800 - Warszawa Szczęśliwice","type":"route","route":"railway","network":"PKP","operator":"Szybka Kolej Miejska Sp. z o.o."},"13159669":{"ref":"588","name":"Linia kolejowa nr 588: Lublin Rury R3 - Lublin Rury R12","type":"route","route":"railway","operator":"PKP Polskie Linie Kolejowe S.A.","operator:wikidata":"Q1344677"},"13159671":{"to":"Iława Główna R142","ref":"967","from":"Iława Główna R1","name":"Linia kolejowa nr 967: Iława R1 - Iława R142","type":"route","route":"railway","operator":"PKP Polskie Linie Kolejowe S.A.","wikidata":"Q97162200","wikipedia":"pl:Linia kolejowa nr 967","operator:wikidata":"Q1344677"},"13159672":{"to":"Iława Główna R51","ref":"968","from":"Iława Główna R2","name":"Linia kolejowa nr 968: Iława R2 - Iława R51","type":"route","route":"railway","operator":"PKP Polskie Linie Kolejowe S.A.","wikidata":"Q97162211","wikipedia":"pl:Linia kolejowa nr 968","operator:wikidata":"Q1344677"},"13162705":{"ref":"504","name":"Linia kolejowa nr 504: Warszawa Praga R22 - Warszawa Praga R25","type":"route","route":"railway","network":"PKP","operator":"PKP Polskie Linie Kolejowe S.A.","operator:wikidata":"Q1344677"},"13162706":{"ref":"505","name":"Linia kolejowa nr 505: Warszawa Praga R28 - Warszawa Praga R30","type":"route","route":"railway","network":"PKP","operator":"PKP Polskie Linie Kolejowe S.A.","operator:wikidata":"Q1344677"},"13162707":{"ref":"835","name":"Linia kolejowa nr 835: Warszawa Praga R26 - Warszawa Praga R106","type":"route","route":"railway","network":"PKP","operator":"PKP Polskie Linie Kolejowe S.A.","operator:wikidata":"Q1344677"},"13162708":{"ref":"838","name":"Linia kolejowa nr 838: Warszawa Praga R70 - Warszawa Praga R77","type":"route","route":"railway","network":"PKP","operator":"PKP Polskie Linie Kolejowe S.A.","operator:wikidata":"Q1344677"},"13162709":{"ref":"829","name":"Linia kolejowa nr 829: Warszawa Praga R99 - Warszawa Praga R100","type":"route","route":"railway","network":"PKP","operator":"PKP Polskie Linie Kolejowe S.A.","operator:wikidata":"Q1344677"},"13167127":{"to":"Warszawa Gdańska R11","ref":"548","from":"Warszawa Gdańska R7","name":"Linia kolejowa nr 548: Warszawa Gdańska R7 - Warszawa Gdańska R11","type":"route","route":"railway","operator":"PKP Polskie Linie Kolejowe S.A.","operator:wikidata":"Q1344677"},"13167128":{"to":"Warszawa Gdańska R8","ref":"549","from":"Warszawa Gdańska R4","name":"Linia kolejowa nr 549: Warszawa Gdańska R4 - Warszawa Gdańska R8","type":"route","route":"railway","operator":"PKP Polskie Linie Kolejowe S.A.","operator:wikidata":"Q1344677"},"13254560":{"to":"Dęblin R273","ref":"770","from":"Dęblin R11","name":"Linia kolejowa nr 770 Dęblin R11 - Dęblin R273","type":"route","route":"railway","network":"PKP","voltage":"3000","maxspeed":"60","operator":"PKP Polskie Linie Kolejowe S.A.","operator:wikidata":"Q1344677"},"13255685":{"to":"Łódź Widzew","ref":"458","from":"Łódź Fabryczna","name":"Linia kolejowa nr 458: Łódź Fabryczna - Łódź Widzew","type":"route","route":"railway","source":"https://www.plk-sa.pl/files/public/user_upload/pdf/Akty_prawne_i_przepisy/Instrukcje/Wydruk/Id-12_Wykaz_linii_06.2021.pdf","network":"PKP","distance":"6,602","operator":"PKP Polskie Linie Kolejowe S.A.","operator:wikidata":"Q1344677"},"13255686":{"ref":"550","name":"Linia kolejowa nr 550: Łódź Fabryczna - Łódź Kaliska (tor 1)","type":"route","route":"railway","source":"https://www.plk-sa.pl/files/public/user_upload/pdf/Akty_prawne_i_przepisy/Instrukcje/Wydruk/Id-12_Wykaz_linii_06.2021.pdf","network":"PKP","operator":"PKP Polskie Linie Kolejowe S.A.","operator:wikidata":"Q1344677"},"13255687":{"ref":"551","name":"Linia kolejowa nr 551: Łódź Fabryczna - Łódź Kaliska (tor 2)","type":"route","route":"railway","source":"https://www.plk-sa.pl/files/public/user_upload/pdf/Akty_prawne_i_przepisy/Instrukcje/Wydruk/Id-12_Wykaz_linii_06.2021.pdf","network":"PKP","operator":"PKP Polskie Linie Kolejowe S.A.","operator:wikidata":"Q1344677"},"13257043":{"to":"Łódź Dąbrowa Przemysłowa","ref":"939","from":"Łódź Dąbrowa","name":"Linia kolejowa nr 939: Łódź Dąbrowa - Łódź Dąbrowa Przemysłowa (EC4)","type":"route","route":"railway","source":"https://www.plk-sa.pl/files/public/user_upload/pdf/Akty_prawne_i_przepisy/Instrukcje/Wydruk/Id-12_Wykaz_linii_06.2021.pdf","operator":"Veolia Energia Łódź S.A."},"13259046":{"ref":"832","name":"Linia kolejowa nr 832: Łódź Olechów ŁOC - Łódź Olechów (ŁOC - ŁOLas - Elektrowozownia)","type":"route","route":"railway","source":"https://www.plk-sa.pl/files/public/user_upload/pdf/Akty_prawne_i_przepisy/Instrukcje/Wydruk/Id-12_Wykaz_linii_06.2021.pdf","network":"PKP","distance":"0,319","operator":"PKP Polskie Linie Kolejowe S.A.","operator:wikidata":"Q1344677"},"13277331":{"ref":"843","name":"Linia kolejowa nr 843: Legionowo R1 - Legionowo R2","type":"route","route":"railway","source":"https://www.plk-sa.pl/files/public/user_upload/pdf/Akty_prawne_i_przepisy/Instrukcje/Wydruk/Id-12_Wykaz_linii_06.2021.pdf","network":"PKP","distance":"0,174","operator":"PKP Polskie Linie Kolejowe S.A.","operator:wikidata":"Q1344677"},"13278842":{"ref":"582","name":"Linia kolejowa nr 582: Czarnca - Włoszczowa Północ","type":"route","route":"railway","source":"https://www.plk-sa.pl/files/public/user_upload/pdf/Akty_prawne_i_przepisy/Instrukcje/Wydruk/Id-12_Wykaz_linii_06.2021.pdf","network":"PKP","distance":"3,292","operator":"PKP Polskie Linie Kolejowe S.A.","operator:wikidata":"Q1344677"},"13304708":{"to":"Chojnice","ref":"208","via":"Brodnica","from":"Działdowo","name":"Linia kolejowa nr 208: Działdowo - Chojnice","type":"route","route":"railway","source":"https://www.plk-sa.pl/files/public/user_upload/pdf/Akty_prawne_i_przepisy/Instrukcje/Wydruk/Id-12_Wykaz_linii_06.2021.pdf","network":"PKP","distance":"200,592","operator":"PKP Polskie Linie Kolejowe S.A.","operator:wikidata":"Q1344677"},"13307371":{"ref":"627","name":"Linia kolejowa nr 627: Podg Podłęże R301 - Balachówka","type":"route","route":"railway","source":"https://www.plk-sa.pl/files/public/user_upload/pdf/Akty_prawne_i_przepisy/Instrukcje/Wydruk/Id-12_Wykaz_linii_06.2021.pdf","network":"PKP","operator":"PKP Polskie Linie Kolejowe S.A.","operator:wikidata":"Q1344677"},"13307372":{"ref":"622","name":"Linia kolejowa nr 622: Podg Podłęże R401 - Tymbark","type":"route","route":"railway","source":"https://www.plk-sa.pl/files/public/user_upload/pdf/Akty_prawne_i_przepisy/Instrukcje/Wydruk/Id-12_Wykaz_linii_06.2021.pdf","name:en":"Proposed line 622: Podg Podłęże R401 - Tymbark","network":"PKP","operator":"PKP Polskie Linie Kolejowe S.A.","operator:wikidata":"Q1344677"},"13307933":{"ref":"972","name":"Linia kolejowa nr 972: Pawłowice Małe - Pawłowice Małe Fabryczny","type":"route","route":"railway","network":"PKP","operator":"PKP PLK;PMT Linie Kolejowe Spółka z o.o."},"13309099":{"ref":"749","name":"Linia kolejowa nr 749: Legnica Wschód - Legnica","type":"route","route":"railway","source":"https://www.plk-sa.pl/files/public/user_upload/pdf/Akty_prawne_i_przepisy/Instrukcje/Wydruk/Id/Id-12__D29__Wykaz_linii_09.pdf","network":"PKP","operator":"PKP Polskie Linie Kolejowe S.A.","operator:wikidata":"Q1344677"},"13309374":{"ref":"918","name":"Linia kolejowa nr 918: Warszawa Bema - Warszawa Zachodnia","type":"route","route":"railway","source":"https://www.plk-sa.pl/files/public/user_upload/pdf/Akty_prawne_i_przepisy/Instrukcje/Wydruk/Id/Id-12__D29__Wykaz_linii_09.pdf","network":"PKP","operator":"PKP Polskie Linie Kolejowe S.A.","operator:wikidata":"Q1344677"},"13309391":{"ref":"621","name":"Linia kolejowa nr 621: Kalwaria Zebrzydowska Północ - Kalwaria Zebrzydowska Zachód","type":"route","route":"railway","source":"https://www.plk-sa.pl/files/public/user_upload/pdf/Akty_prawne_i_przepisy/Instrukcje/Wydruk/Id/Id-12__D29__Wykaz_linii_09.pdf","network":"PKP","operator":"PKP Polskie Linie Kolejowe S.A.","operator:wikidata":"Q1344677"},"13309393":{"ref":"633","name":"Linia kolejowa nr 633: Chabówka R101 - Chabówka R102","type":"route","route":"railway","source":"https://www.plk-sa.pl/files/public/user_upload/pdf/Akty_prawne_i_przepisy/Instrukcje/Wydruk/Id/Id-12__D29__Wykaz_linii_09.pdf","network":"PKP","operator":"PKP PLK"},"13309399":{"ref":"638","name":"Linia kolejowa nr 638: Jedlicze - Szebnie","type":"route","route":"railway","source":"https://www.plk-sa.pl/files/public/user_upload/pdf/Akty_prawne_i_przepisy/Instrukcje/Wydruk/Id/Id-12__D29__Wykaz_linii_09.pdf","network":"PKP","operator":"PKP PLK"},"13309465":{"ref":"853","name":"Linia kolejowa nr 853: Poznań Strzeszyn - Poznań Piątkowo","type":"route","route":"railway","source":"https://www.plk-sa.pl/files/public/user_upload/pdf/Akty_prawne_i_przepisy/Instrukcje/Wydruk/Id/Id-12__D29__Wykaz_linii_09.pdf","network":"PKP","operator":"PKP PLK"},"13309494":{"ref":"552","name":"Linia kolejowa nr 552: Łódź Włókniarzy - Łódź Żabieniec (tor 1)","type":"route","route":"railway","source":"https://www.plk-sa.pl/files/public/user_upload/pdf/Akty_prawne_i_przepisy/Instrukcje/Wydruk/Id/Id-12__D29__Wykaz_linii_09.pdf","network":"PKP","operator":"PKP Polskie Linie Kolejowe S.A.","operator:wikidata":"Q1344677"},"13309495":{"ref":"553","name":"Linia kolejowa nr 553: Łódź Włókniarzy - Łódź Żabieniec (tor 2)","type":"route","route":"railway","source":"https://www.plk-sa.pl/files/public/user_upload/pdf/Akty_prawne_i_przepisy/Instrukcje/Wydruk/Id/Id-12__D29__Wykaz_linii_09.pdf","network":"PKP","operator":"PKP Polskie Linie Kolejowe S.A.","operator:wikidata":"Q1344677"},"13331268":{"ref":"762","name":"Linia kolejowa nr 762: Wrocław Osobowice - Jeżyny","note":"Linia zlikwidowana na podstawie decyzji Ministerstwa Infrastruktury.","type":"route","route":"railway","source":"https://www.plk-sa.pl/files/public/user_upload/pdf/Akty_prawne_i_przepisy/Instrukcje/Wydruk/Id/Id-12__D29__Wykaz_linii_09.pdf","network":"PKP","operator":"PKP PLK"},"13331437":{"ref":"782","name":"Linia kolejowa nr 782: Małowice Wołoskie - Iwno","note":"Linia zlikwidowana decyzją Ministerstwa Infrastruktury","type":"route","route":"railway","source":"https://www.plk-sa.pl/files/public/user_upload/pdf/Akty_prawne_i_przepisy/Instrukcje/Wydruk/Id/Id-12__D29__Wykaz_linii_09.pdf","network":"PKP","operator":"PKP PLK"},"13332767":{"ref":"851","name":"Linia kolejowa nr 851: Szczecin Wstowo - Szczecin Gumieńce","type":"route","route":"railway","source":"https://www.plk-sa.pl/files/public/user_upload/pdf/Akty_prawne_i_przepisy/Instrukcje/Wydruk/Id/Id-12__D29__Wykaz_linii_09.pdf","network":"PKP","operator":"PKP PLK"},"13334653":{"ref":"772","name":"Linia kolejowa nr 772: Strzegom Międzyrzecze - Strzegom Miasto","type":"route","route":"railway","source":"https://www.plk-sa.pl/files/public/user_upload/pdf/Akty_prawne_i_przepisy/Instrukcje/Wydruk/Id/Id-12__D29__Wykaz_linii_09.pdf","network":"PKP","operator":"PKP Polskie Linie Kolejowe S.A.","operator:wikidata":"Q1344677"},"13361543":{"ref":"984","name":"Linia kolejowa nr 984: Poznań Franowo PFB - Poznań Franowo PFA T209/200/150/103","type":"route","route":"railway","source":"https://www.plk-sa.pl/files/public/user_upload/pdf/Akty_prawne_i_przepisy/Instrukcje/Wydruk/Id/Id-12__D29__Wykaz_linii_09.pdf","network":"PKP","operator":"PKP Polskie Linie Kolejowe S.A.","operator:wikidata":"Q1344677"},"13362310":{"ref":"800","name":"Linia kolejowa nr 800: Poznań Franowo PFD - Poznań Franowo PFB","type":"route","route":"railway","source":"https://www.plk-sa.pl/files/public/user_upload/pdf/Akty_prawne_i_przepisy/Instrukcje/Wydruk/Id/Id-12__D29__Wykaz_linii_09.pdf","network":"PKP","operator":"PKP Polskie Linie Kolejowe S.A.","operator:wikidata":"Q1344677"},"13388129":{"to":"Gdynia Port","ref":"961","from":"Gdynia Postojowa","name":"Linia kolejowa nr 961: Gdynia Postojowa GP14 - Gdynia Port GPC","type":"route","route":"railway","source":"https://www.plk-sa.pl/files/public/user_upload/pdf/Akty_prawne_i_przepisy/Instrukcje/Wydruk/Id/Id-12__D29__Wykaz_linii_09.pdf","network":"PKP","operator":"PKP Polskie Linie Kolejowe S.A.","operator:wikidata":"Q1344677"},"13488267":{"ref":"585","name":"Linia kolejowa nr 585: Radom - Radom Wschodni","type":"route","route":"railway","source":"https://www.plk-sa.pl/files/public/user_upload/pdf/Akty_prawne_i_przepisy/Instrukcje/Wydruk/Id/Id-12__D29__Wykaz_linii_09.pdf","network":"PKP","operator":"PKP Polskie Linie Kolejowe S.A.","operator:wikidata":"Q1344677"},"13526461":{"ref":"828","name":"Linia kolejowa nr 828: Kostrzyn R207 - Kostrzyn R572/T100","type":"route","route":"railway","source":"https://www.plk-sa.pl/files/public/user_upload/pdf/Akty_prawne_i_przepisy/Instrukcje/Wydruk/Id/Id-12__D29__Wykaz_linii_17.11.21.pdf","network":"PKP","operator":"PKP Polskie Linie Kolejowe S.A.","operator:wikidata":"Q1344677"},"13526462":{"ref":"827","name":"Linia kolejowa nr 827: Kostrzyn R5 - Kostrzyn R208 T13/15a","type":"route","route":"railway","source":"https://www.plk-sa.pl/files/public/user_upload/pdf/Akty_prawne_i_przepisy/Instrukcje/Wydruk/Id/Id-12__D29__Wykaz_linii_17.11.21.pdf","network":"PKP","operator":"PKP Polskie Linie Kolejowe S.A.","operator:wikidata":"Q1344677"},"13526463":{"ref":"430","name":"Linia kolejowa nr 430: Barnówko - Kostrzyn","type":"route","route":"railway","source":"https://www.plk-sa.pl/files/public/user_upload/pdf/Akty_prawne_i_przepisy/Instrukcje/Wydruk/Id/Id-12__D29__Wykaz_linii_17.11.21.pdf","network":"PKP","operator":"PKP Polskie Linie Kolejowe S.A.","operator:wikidata":"Q1344677"},"13528808":{"ref":"519","name":"Linia kolejowa nr 519: Białystok R606 - Białystok R603","type":"route","route":"railway","source":"https://www.plk-sa.pl/files/public/user_upload/pdf/Akty_prawne_i_przepisy/Instrukcje/Wydruk/Id/Id-12__D29__Wykaz_linii.pdf","network":"PKP","operator":"PKP Polskie Linie Kolejowe S.A.","operator:wikidata":"Q1344677"},"13530187":{"ref":"373","name":"Linia kolejowa nr 373: Międzychód - Zbąszyń","type":"route","route":"railway","source":"https://www.plk-sa.pl/files/public/user_upload/pdf/Akty_prawne_i_przepisy/Instrukcje/Wydruk/Id/Id-12__D29__Wykaz_linii.pdf","network":"PKP","operator":"PKP Polskie Linie Kolejowe S.A.","operator:wikidata":"Q1344677"},"14350257":{"ref":"858","name":"Linia kolejowa nr 858 Hajnówka R1 - Hajnówka R71","type":"route","route":"railway","network":"PKP Polskie Linie Kolejowe S.A.","operator":"PKP Polskie Linie Kolejowe S.A.","wikidata":"Q108597119","wikipedia":"pl:Linia kolejowa nr 858","operator:wikidata":"Q1344677"},"14486547":{"to":"Opalenica","ref":"376","via":"Grodzisk Wielkopolski","from":"Kościan","name":"Linia Kolejowa 376","type":"route","route":"railway","source":"https://www.bazakolejowa.pl/index.php?dzial=linie&id=618&od=1&do=31&ed=&okno=przebieg","network":"PKP","operator":"PKP","wikidata":"Q11757355","wikipedia":"pl:Linia kolejowa nr 376"},"14573087":{"to":"Orchowo","ref":"239","from":"Mogilno","name":"Linia kolejowa nr 239 Mogilno - Orchowo","note":"Linia wykreślona z ewidencji PKP PLK","type":"route","route":"railway","operator":"Mogileńskie Stowarzyszenie Sympatyków Kolei"},"14630573":{"to":"Warszawa Zachodnia","ref":"784","from":"Warszawa Główna Towarowa","name":"Linia kolejowa nr 784: Warszawa Główna Towarowa R83 - Warszawa Zachodnia R305","type":"route","route":"railway","network":"PKP","operator":"PKP Polskie Linie Kolejowe S.A.","operator:wikidata":"Q1344677"},"14630641":{"to":"Bocznica Lotos Asfalt","ref":"846","from":"Gdańsk Olszynka","name":"Linia kolejowa nr 846: Gdańsk Olszynka - Bocznica Lotos Asfalt","type":"route","route":"railway","operator":"PKP Polskie Linie Kolejowe S.A.;Rafineria Gdańska"},"14630780":{"to":"Rzepin R77","ref":"852","from":"Rzepin R143","name":"Linia kolejowa nr 852: Rzepin R143 - Rzepin R77 T178","type":"route","route":"railway","network":"PKP","operator":"PKP Polskie Linie Kolejowe S.A.","operator:wikidata":"Q1344677"},"14886405":{"to":"Wrocław Gądów","ref":"760","from":"Wrocław Świebodzki","name":"Linia kolejowa nr 760: Wrocław Świebodzki - Wrocław Gądów","type":"route","route":"railway","source":"https://www.plk-sa.pl/files/public/user_upload/pdf/Akty_prawne_i_przepisy/Instrukcje/Wydruk/Id/Id-12__D29__Wykaz_linii.pdf","network":"PKP","operator":"PKP Polskie Linie Kolejowe S.A.","operator:wikidata":"Q1344677"},"14904618":{"to":"Jarocin R16","ref":"811","from":"Jarocin R10","name":"Linia kolejowa nr 811: Jarocin R10 - Jarocin R16 T111","type":"route","route":"railway","operator":"PKP Polskie Linie Kolejowe S.A.","operator:wikidata":"Q1344677"},"14904619":{"to":"Jarocin R152","ref":"983","from":"Jarocin R286","name":"Linia kolejowa nr 983 Jarocin R286 - Jarocin R152 T25","type":"route","route":"railway","operator":"PKP Polskie Linie Kolejowe S.A.","operator:wikidata":"Q1344677"},"14969140":{"to":"Krzyż Rudno","ref":"371","from":"Wolsztyn","name":"Linia kolejowa nr 371 Wolsztyn - Krzyż Rudno","type":"route","route":"railway","operator":"PKP Polskie Linie Kolejowe S.A.","wikidata":"Q11757351","wikipedia":"pl:Linia kolejowa nr 371","operator:wikidata":"Q1344677"},"15034699":{"ref":"842","name":"Linia kolejowa nr 842: Kielce Herbskie KHA R230 - Kielce Herbskie KHA R237","type":"route","route":"railway","operator":"PKP Polskie Linie Kolejowe S.A.","operator:wikidata":"Q1344677"},"15053822":{"name":"Linia kolejowa nr 578: Garbatka-Letnisko - Wysokie Koło","type":"route","route":"railway","operator":"PKP Polskie Linie Kolejowe S.A.","operator:wikidata":"Q1344677"},"15092991":{"ref":"750","name":"Linia kolejowa nr 750: Wrocław Brochów WBA - Stadion","type":"route","route":"railway","operator":"PKP Polskie Linie Kolejowe S.A.","operator:wikidata":"Q1344677"},"15258138":{"to":"Gracze","ref":"329","from":"Szydłów","name":"Linia kolejowa nr 329: Szydłów - Gracze","type":"route","route":"railway","operator":"PKP Polskie Linie Kolejowe S.A.","operator:wikidata":"Q1344677"},"15284551":{"to":"Szyb Otwór IV","ref":"KP 402","from":"Jęzor Centralny JC","name":"Jęzor Centralny JCA – Bobrek – Staszic – Szyb Otwór IV","type":"route","gauge":"1435","route":"railway","network":"KP Maczki Bór","distance":"10.986","electrified":"no","historic:voltage":"3000","historic:frequency":"0","abandoned:electrified":"contact_line"},"15310601":{"ref":"769","name":"Linia kolejowa nr 769: Opole Zachodnie OpZ - Opole Zachodnie OpZ1","note":"Wykreślona z ewidencji PKP PLK, widnieje w Regulaminie sieci 2003/2004","type":"route","route":"railway"},"15344353":{"to":"Jedlina Zdrój","ref":"266","from":"Świdnica Kraszowice","name":"Linia kolejowa nr 266: Świdnica Kraszowice - Jedlina Zdrój","type":"route","route":"railway","operator":"PKP Polskie Linie Kolejowe S.A.","operator:wikidata":"Q1344677"},"15434518":{"name":"Korsze - Красновка","type":"route","route":"railway","name:de":"Bahnstrecke Korsche - Insterburg"},"15446397":{"to":"Pisarzowice","ref":"345","from":"Kamienna Góra","name":"Linia kolejowa nr 345 odcinek Kamienna Góra - Pisarzowice","type":"route","route":"railway","source":"https://dsdik.wroc.pl/koleje/zarzdca.html","network":"DSDiK","operator":"PKP Polskie Linie Kolejowe S.A.;Dolnośląska Służba Dróg i Kolei we Wrocławiu","wikidata":"Q802480","wikipedia":"pl:Linia kolejowa nr 308","operator:wikidata":"Q1344677;Q11694615"},"15446455":{"to":"Świeradów-Zdrój","ref":"336","from":"Mirsk","name":"Linia kolejowa nr 336 Mirsk – Świeradów-Zdrój","type":"route","route":"railway","name:de":"Isergebirgsbahn","network":"DSDiK","alt_name":"Kolejka Izerska","operator":"Dolnośląska Służba Dróg i Kolei we Wrocławiu","wikidata":"Q879645","wikipedia":"pl:Linia kolejowa nr 336","description":"Linia kolejowa nr 336 odcinek Mirsk – Świeradów-Zdrój od km -0,182 do km 7,360","operator:wikidata":"Q11694615"},"15531736":{"ref":"795","name":"Linia kolejowa nr 795: Glincz R12 - Glincz RGl201","type":"route","route":"railway","operator":"PKP Polskie Linie Kolejowe S.A.","operator:wikidata":"Q1344677"},"15589000":{"ref":"665","name":"Linia kolejowa nr 665: Sosnowiec Maczki - Sławków Euroterminal","type":"route","route":"railway","operator":"PKP Polskie Linie Kolejowe S.A.;„EUROTERMINAL SŁAWKÓW” Sp. z o.o.","operator:wikidata":"Q1344677"},"15589001":{"ref":"674","name":"Linia kolejowa nr 674: LHS Sławków Południowy - Sławków Euroterminal","type":"route","route":"railway","operator":"„EUROTERMINAL SŁAWKÓW” Sp. z o.o."},"15590474":{"ref":"IS 201","name":"Wschodnia Magistrala Piaskowa","type":"route","route":"railway","operator":"Infra Silesia S.A.;PG Infrastruktura"},"15597705":{"ref":"860","name":"Linia kolejowa nr 860: Trzebinia TSA - Trzebinia","type":"route","route":"railway","operator":"PKP Polskie Linie Kolejowe S.A.","operator:wikidata":"Q1344677"},"15654133":{"to":"Rijeka","ref":"E 65","from":"Gdynia","name":"Railway line E 65: Gdynia - Rijeka","type":"route","route":"railway","source":"https://unece.org/fileadmin/DAM/trans/doc/2017/sc2/ECE-TRANS-63-Rev.3e.pdf","name:en":"Railway line E 65: Gdynia - Rijeka","name:pl":"Linia kolejowa E 65: Gdynia - Rijeka","network":"Main International Railway Lines (AGC)","wikidata":"Q11757015","wikipedia":"pl:Linia kolejowa E 65"},"15654134":{"to":"Rijeka","ref":"C-E 65","from":"Gdynia","name":"Railway line C-E 65: Gdynia - Rijeka","type":"route","route":"railway","source":"https://unece.org/DAM/trans/conventn/agtce.pdf","name:en":"Railway line C-E 65: Gdynia - Rijeka","name:pl":"Linia kolejowa C-E 65: Gdynia - Rijeka","network":"IMPORTANT INTERNATIONAL COMBINED TRANSPORT LINES AND RELATED INSTALLATIONS (AGTC)","wikidata":"Q18817232","wikipedia":"pl:Linia kolejowa C-E 65"},"15669534":{"to":"Skierniewice","ref":"C 65/1","via":"Łódź Olechów","from":"Zduńska Wola Karsznice","name":"Railway line C 65/1: Zduńska Wola Karsznice - Skierniewice","type":"route","route":"railway","source":"https://unece.org/DAM/trans/conventn/agtce.pdf","name:en":"Railway line C 65/1: Zduńska Wola Karsznice - Skierniewice","name:pl":"Linia kolejowa C 65/1: Zduńska Wola Karsznice - Skierniewice","network":"IMPORTANT INTERNATIONAL COMBINED TRANSPORT LINES AND RELATED INSTALLATIONS (AGTC)"},"15669535":{"to":"Czechowice-Dziedzice","ref":"C 65/2","via":"Częstochowa;Zawiercie;Jaworzno-Szczakowa","from":"Chorzew Siemkowice","name":"Railway line C 65/2: Chorzew Siemkowice - Czechowice-Dziedzice","type":"route","route":"railway","source":"https://unece.org/DAM/trans/conventn/agtce.pdf","name:en":"Railway line C 65/2: Chorzew Siemkowice - Czechowice-Dziedzice","name:pl":"Linia kolejowa C 65/2: Chorzew Siemkowice - Czechowice-Dziedzice","network":"IMPORTANT INTERNATIONAL COMBINED TRANSPORT LINES AND RELATED INSTALLATIONS (AGTC)"},"15670643":{"to":"Kyiv","ref":"C 28","from":"Warszawa","name":"Railway line C 28: Warszawa - Kyiv","type":"route","route":"railway","source":"https://unece.org/DAM/trans/conventn/agtce.pdf","name:en":"Railway line C 28: Warsaw - Kyiv","name:pl":"Linia kolejowa C 28: Warszawa - Kijów","network":"IMPORTANT INTERNATIONAL COMBINED TRANSPORT LINES AND RELATED INSTALLATIONS (AGTC)"},"15671578":{"to":"Tallin","ref":"E 75","via":"Białystok;Kaunas;Rīga","from":"Warszawa","name":"Railway line E 75: Warszawa - Tallinn","type":"route","route":"railway","alt_ref":"C-E 75","name:en":"Railway line E 75: Warszawa - Tallinn","name:pl":"Linia kolejowa nr E 75: Warszawa - Tallinn","network":"Main International Railway Lines (AGC);IMPORTANT INTERNATIONAL COMBINED TRANSPORT LINES AND RELATED INSTALLATIONS (AGTC)","alt_name":"Rail Baltica","wikidata":"Q581518","wikipedia":"pl:Rail Baltica"},"15675935":{"ref":"623","name":"Linia kolejowa nr 623: Szczyrzyc - Mszana Dolna","type":"route","route":"railway","source":"https://www.plk-sa.pl/files/public/user_upload/pdf/Akty_prawne_i_przepisy/Instrukcje/Wydruk/Id-12_Wykaz_linii_06.2021.pdf","name:en":"Proposed line 623: Szczyrzyc - Mszana Dolna","network":"PKP","operator":"PKP Polskie Linie Kolejowe S.A.","operator:wikidata":"Q1344677"},"15675951":{"ref":"628","name":"Linia kolejowa nr 628: Fornale - Tymbark","type":"route","route":"railway","source":"https://www.plk-sa.pl/files/public/user_upload/pdf/Akty_prawne_i_przepisy/Instrukcje/Wydruk/Id-12_Wykaz_linii_06.2021.pdf","name:en":"Proposed line 628: Fornale - Tymbark","network":"PKP","operator":"PKP Polskie Linie Kolejowe S.A.","operator:wikidata":"Q1344677"},"15696333":{"to":"Czerwieńsk Towarowy","ref":"980","from":"Czerwieńsk Osobowy","name":"Linia kolejowa nr 980: Czerwieńsk Osobowy Ck - Czerwieńsk Towarowy T100","type":"route","route":"railway","operator":"PKP Polskie Linie Kolejowe S.A.","operator:wikidata":"Q1344677"},"15714354":{"to":"Ręczyn (Gr)","ref":"324","from":"Ręczyn","name":"Linia kolejowa nr 324: Ręczyn - Granica Państwa (Hagenwerder)","type":"route","route":"railway","operator":"PKP Polskie Linie Kolejowe S.A.","wikidata":"Q203103","wikipedia":"pl:Linia kolejowa nr 324","operator:wikidata":"Q1344677"},"15714355":{"to":"Bogatynia","ref":"786","from":"Trzciniec Zgorzelecki (Gr)","name":"Linia kolejowa nr 786: Granica Państwa (Trzciniec Zgorzelecki) - Bogatynia","type":"route","route":"railway","operator":"PKP Polskie Linie Kolejowe S.A.","wikidata":"Q97187380","wikipedia":"pl:Linia kolejowa nr 786","operator:wikidata":"Q1344677"},"15714356":{"ref":"348","name":"Linia kolejowa nr 348: Trzciniec Zgorzelecki - Granica Państwa (Zittau)","type":"route","route":"railway","operator":"PKP Polskie Linie Kolejowe S.A.","wikidata":"Q145111","wikipedia":"pl:Linia kolejowa nr 348","operator:wikidata":"Q1344677"},"15714357":{"to":"Krzewina Zgorzelecka (Gr)","ref":"290","via":"Krzewina Zgorzelecka","from":"Mikułowa","name":"Linia kolejowa nr 290: Mikułowa - Granica Państwa (Krzewina Zgorzelecka)","type":"route","route":"railway","operator":"PKP Polskie Linie Kolejowe S.A.","wikidata":"Q802771","wikipedia":"pl:Linia kolejowa nr 290","operator:wikidata":"Q1344677"},"15714358":{"to":"Zittau (Gr)","ref":"346","from":"Liberec (Gr)","name":"Linia kolejowa nr 346: Granica Państwa (Liberec) - Granica Państwa (Zittau)","type":"route","route":"railway","operator":"PKP Polskie Linie Kolejowe S.A.","wikidata":"Q802658","wikipedia":"pl:Linia kolejowa Liberec – Zittau","operator:wikidata":"Q1344677"},"15723778":{"to":"Wilka R5","ref":"780","from":"Wilka R7","name":"Linia kolejowa nr 780: Wilka 2 - Wilka 1","type":"route","route":"railway","operator":"PKP Polskie Linie Kolejowe S.A.","operator:wikidata":"Q1344677"},"15723779":{"to":"Zawidów (Gr)","ref":"344","via":"Zawidów","from":"Wilka","name":"Linia kolejowa nr 344: Wilka - Zawidów","type":"route","route":"railway","operator":"PKP Polskie Linie Kolejowe S.A.","operator:wikidata":"Q1344677"},"15726626":{"to":"Guben Grenze","ref":"6206","from":"Guben","name":"6206 Strecke Guben - Guben Grenze","type":"route","route":"railway","source":"Stammdatenliste data (2020)","operator":"DB Netz AG","operator:wikidata":"Q896765"},"15767560":{"to":"Łapy R44","ref":"783","from":"Łapy R3","name":"Linia kolejowa nr 783: Łapy R3 - Łapy R44","type":"route","route":"railway","operator":"PKP Polskie Linie Kolejowe S.A.","operator:wikidata":"Q1344677"},"15770032":{"ref":"508","name":"Linia kolejowa nr 508: Białystok R4 - Białystok R604","note":"Linia projektowana","type":"route","route":"railway","operator":"PKP Polskie Linie Kolejowe S.A.","operator:wikidata":"Q1344677"},"15786693":{"to":"Białystok R41","ref":"556","from":"Białystok R602","name":"Linia kolejowa nr 556: Białystok R602 - Białystok R41","type":"route","route":"railway","operator":"PKP Polskie Linie Kolejowe S.A.","operator:wikidata":"Q1344677"},"15916787":{"to":"Smardy","ref":"767","from":"Kuniów","name":"Linia kolejowa nr 767: Kuniów - Smardy","note":"Linia zlikwidowana i wykreślona z ewidencji PKP PLK","type":"route","route":"railway","source":"Regulamin sieci 2003/2004"},"15916788":{"to":"Gotartów","ref":"768","from":"Ligota Dolna","name":"Linia kolejowa nr 768: Ligota Dolna - Gotartów","note":"Linia zlikwidowana i wykreślona z ewidencji PKP PLK","type":"route","route":"railway","source":"Regulamin sieci 2003/2004"},"15965974":{"ref":"956","name":"Linia kolejowa nr 956: Kędzierzyn-Koźle KKC - Kędzierzyn-Koźle KKb12","note":"Linia wykreślona z ewidencji PKP PLK, obecnie figuruje w Statucie OIU Kędzierzyn-Koźle","type":"route","route":"railway","source":"Regulamin sieci 2003/2004","operator":"PKP Polskie Linie Kolejowe S.A.","operator:wikidata":"Q1344677"},"15980740":{"to":"Złoty Stok","ref":"334","from":"Kamieniec Ząbkowicki","name":"Linia kolejowa nr 334: Kamieniec Ząbkowicki - Złoty Stok","note":"Linia wtkreślona z ewidencji PKP PLK","type":"route","route":"railway","source":"Regulamin sieci 2003/2004"},"15982269":{"to":"Szymany Lotnisko","ref":"747","from":"Szymany","name":"Linia kolejowa nr 747: Szymany - Szymany Lotnisko","type":"route","route":"railway","operator":"PKP Polskie Linie Kolejowe S.A.","operator:wikidata":"Q1344677"},"15983490":{"to":"Ciepłowody","ref":"335","from":"Henryków","name":"Linia kolejowa nr 335: Henryków - Ciepłowody","note":"Linia wykreślona z ewidencji PKP PLK","type":"route","route":"railway","source":"Regulamin sieci 2003/2004","operator":"PKP Polskie Linie Kolejowe S.A.","operator:wikidata":"Q1344677"},"15984418":{"to":"Ústí nad Orlicí","ref":"C 59/2","via":"Międzylesie;Lichkov;","from":"Wrocław Brochów","name":"Railway line C 59/2: Wrocław - Ústí nad Orlicí","type":"route","route":"railway","source":"https://unece.org/DAM/trans/conventn/agtce.pdf","name:en":"Railway line C 59/2: Wrocław - Ústí nad Orlicí","name:pl":"Linia kolejowa C 59/2: Wrocław - Ústí nad Orlicí","network":"IMPORTANT INTERNATIONAL COMBINED TRANSPORT LINES AND RELATED INSTALLATIONS (AGTC)"},"15984805":{"to":"Głuchołazy (Gr)","ref":"343","from":"Głuchołazy","name":"Linia kolejowa nr 343: Głuchołazy - Granica Państwa (Mikulovice)","type":"route","route":"railway","operator":"PKP Polskie Linie Kolejowe S.A.","operator:wikidata":"Q1344677"},"15986375":{"to":"Lubawka (Gr)","ref":"299","from":"Kamienna Góra","name":"Linia kolejowa nr 299: Kamienna Góra - Lubawka","type":"route","route":"railway","operator":"PKP Polskie Linie Kolejowe S.A.","operator:wikidata":"Q1344677"},"15987294":{"to":"Bohumín","ref":"C 65/2","from":"Chałupki","name":"Railway line C 59: Chałupki - Bohumín","type":"route","route":"railway","source":"https://unece.org/DAM/trans/conventn/agtce.pdf","name:en":"Railway line C 59: Chałupki - Bohumín","name:pl":"Linia kolejowa C 59: Chałupki - Bogumin","network":"IMPORTANT INTERNATIONAL COMBINED TRANSPORT LINES AND RELATED INSTALLATIONS (AGTC)"},"16003432":{"to":"Zebrzydowice","ref":"170","from":"Jastrzębie Zdrój Moszczenica","name":"Linia kolejowa nr 170: Jastrzębie Zdrój Moszczenica - Zebrzydowice","note":"Linia wykreślona z ewidencji PKP PLK. W zdecydowanej części tej linii wybudowano drogę rowerową","type":"route","route":"railway","source":"Regulamin sieci 2003/2004"},"16006863":{"to":"Pawłowice Śląskie","ref":"22","via":"KWK Zofiówka","from":"Borynia","name":"Linia kolejowa nr 22: Borynia - Pawłowice Śląskie","type":"route","route":"railway","source":"Regulamin przydzielania tras pociągów, korzystania z przydzielonych tras pociągów i korzystania z obiektów infrastruktury usługowej Jastrzębskiej Spółki Kolejowej Sp. z o.o.","operator":"Jastrzębska Spółka Kolejowa Sp. z o.o."},"16006864":{"to":"Pniówek","ref":"24","via":"KWK Zofiówka","from":"Bzie Las","name":"Linia kolejowa nr 24: p.odg. Bzie Las - Pniówek","type":"route","route":"railway","source":"Regulamin przydzielania tras pociągów, korzystania z przydzielonych tras pociągów i korzystania z obiektów infrastruktury usługowej Jastrzębskiej Spółki Kolejowej Sp. z o.o.","operator":"Jastrzębska Spółka Kolejowa Sp. z o.o."},"16008874":{"to":"Zofiówka","ref":"23","from":"Szeroka","name":"Linia kolejowa nr 23: p.odg. Szeroka - Zofiówka","type":"route","route":"railway","source":"Regulamin przydzielania tras pociągów, korzystania z przydzielonych tras pociągów i korzystania z obiektów infrastruktury usługowej Jastrzębskiej Spółki Kolejowej Sp. z o.o.","operator":"Jastrzębska Spółka Kolejowa Sp. z o.o."},"16008875":{"to":"Boguszowice","ref":"21","via":"Borynia","from":"Jastrzębie","name":"Linia kolejowa nr 21: Jastrzębie - Boguszowice","type":"route","route":"railway","source":"Regulamin przydzielania tras pociągów, korzystania z przydzielonych tras pociągów i korzystania z obiektów infrastruktury usługowej Jastrzębskiej Spółki Kolejowej Sp. z o.o.","operator":"Jastrzębska Spółka Kolejowa Sp. z o.o."},"16013372":{"to":"Rudna Główna","ref":"971","via":"Lubin Kopalnia;Lubin Zachodni;Polkowice Główne KGHM","from":"Lubin","name":"Linia kolejowa nr 971: Lubin - Lubin Kopalnia PLK","type":"route","route":"railway","source":"https://pmtlk.pl/infrastruktura/linie-kolejowe/","operator":"PKP Polskie Linie Kolejowe S.A.;PMT Linie Kolejowe Sp. z o.o.","operator:wikidata":"Q1344677"},"16066130":{"to":"Piława Górna","via":"Jordanów Śląski,Łagiewniki Dzierżoniowskie,Niemcza","from":"Kobierzyce","name":"Linia kolejowa nr 310 Kobierzyce - Piława Górna","type":"route","route":"railway","network":"DSDiK","operator":"Dolnośląska Służba Dróg i Kolei we Wrocławiu","wikidata":"Q11757303","wikipedia":"pl:Linia kolejowa nr 310","operator:wikidata":"Q11694615","operator:wikipedia":"pl:Dolnośląska Służba Dróg i Kolei we Wrocławiu"},"16113772":{"to":"Bytów","ref":"237","from":"Maszewo Lęborskie","name":"Linia kolejowa nr 237 Lębork - Bytów","type":"route","route":"railway","name:de":"Bahnstrecke 237 Lauenburg - Bütow","end_date":"1945","wikidata":"Q802723","wikipedia":"pl:Linia kolejowa nr 237","start_date":"1902"},"16113773":{"to":"Miastko","from":"Bytów","name":"Linia kolejowa Bytów – Miastko","type":"route","route":"railway","name:de":"Bahnstrecke Bütow - Rummelsburg","end_date":"1945","wikidata":"Q802057","wikipedia":"pl:Linia kolejowa Bytów – Miastko","start_date":"1909"},"16121672":{"to":"Zbąszynek R47","ref":"982","from":"Zbąszynek R463","name":"Linia kolejowa nr 982: Zbąszynek R463 - Zbąszynek R47 T185a/117/8","type":"route","route":"railway","operator":"PKP Polskie Linie Kolejowe S.A.","operator:wikidata":"Q1344677"},"16123815":{"to":"Sulechów","ref":"379","from":"Cigacice","name":"Linia kolejowa nr 379: Cigacice - Sulechów","type":"route","route":"railway","operator":"PKP Polskie Linie Kolejowe S.A.","operator:wikidata":"Q1344677"},"16124200":{"to":"Cigacice Port","ref":"393","from":"Cigacice","name":"Linia kolejowa nr 393: Cigacice - Cigacice Port","type":"route","route":"railway","operator":"PKP Polskie Linie Kolejowe S.A.;Katowicki Węgiel sp. z o.o.","wikidata":"Q11757370","wikipedia":"pl:Linia kolejowa nr 393","operator:wikidata":"Q1344677"},"16148427":{"to":"Chełm Wschodni","ref":"748","from":"Chełm","name":"Linia kolejowa nr 748: Chełm - Chełm Wschodni","type":"route","route":"railway","operator":"PKP Polskie Linie Kolejowe S.A.","operator:wikidata":"Q1344677"},"16154468":{"to":"Suwałki","ref":"791","from":"Suwałki Południe","name":"Linia kolejowa nr 791: Suwałki Południe - Suwałki T101","type":"route","route":"railway","operator":"PKP Polskie Linie Kolejowe S.A.","operator:wikidata":"Q1344677"},"16154469":{"to":"Suwałki","ref":"792","from":"Suwałki Wschód","name":"Linia kolejowa nr 792: Suwałki Wschód - Suwałki T102","type":"route","route":"railway","operator":"PKP Polskie Linie Kolejowe S.A.","operator:wikidata":"Q1344677"},"16171642":{"to":"Rokitki","ref":"316","from":"Chojnów","name":"Linia kolejowa nr 316: Chojnów - Rokitki","type":"route","route":"railway","operator":"PKP Polskie Linie Kolejowe S.A.;Dolnośląska Służba Dróg i Kolei we Wrocławiu S.A."}}