{"2444235":{"to":"Gievenbeck, Alte Sternwarte","ref":"2","from":"Sankt Mauritz, Danziger Freiheit","name":"StadtBus 2: Sankt Mauritz, Danziger Freiheit => Gievenbeck, Alte Sternwarte","type":"route","route":"bus","colour":"#359ede","network":"WestfalenTarif","operator":"Stadtwerke Münster","network:guid":"DE-NW-WT","network:short":"WT","network:wikidata":"Q27926285","network:wikipedia":"de:Westfalentarif","public_transport:version":"2"},"3279621":{"to":"Via Perathoner - Perathoner Straße","ref":"5","from":"Firmian","name":"Bus 5: Firmian => Via Perathoner - Perathonerstraße","note":"backward route","type":"route","route":"bus","colour":"#af9778","name:de":"Bus 5: Firmian => Perathonerstraße","name:it":"Bus 5: Firmian => Via Perathoner","network":"TVS","operator":"SASA","public_transport:version":"2"},"3982611":{"ref":"23 Z.C.","name":"Línea 23 - RAMAL ZEVALLOS CUE","type":"route","route":"bus","operator":"Lambare SA"},"3983318":{"ref":"133","name":"Línea 133","type":"route","route":"bus","operator":"CONDUBUS LTDA."},"3985016":{"ref":"11","name":"Linea 11 - RAMAL DIRECTO","type":"route","route":"bus","operator":"SAN AGUSTIN"},"3992204":{"ref":"23 Limpio","name":"Línea 23 - RAMAL LIMPIO","type":"route","route":"bus","operator":"LAMBARE S.A."},"3994858":{"to":"Asunción","ref":"18 San Lorenzo","from":"Villeta","name":"Línea 18 - RAMAL SAN LORENZO","type":"route","route":"bus","colour":"Amarillo","operator":"Grupo Lince S.R.L.","opening_hours":"24/7"},"3998684":{"ref":"32 Guar. - San A.","name":"Línea 32 - RAMAL Guarambare – San Antonio","type":"route","route":"bus","operator":"CIUDAD DE GUARAMBARE S.R.L."},"5302365":{"ref":"43","name":"43","type":"route","route":"bus"},"5518672":{"ref":"78","name":"78 Coast & Country","type":"route","route":"bus","operator":"Go North East"},"5700290":{"to":"Posadas","ref":"64INTERNAC","from":"Encarnación","name":"Línea Internacional: Encarnación (PY) → Posadas (AR)","type":"route","route":"bus","colour":"white","description":"Línea de transporte urbano de pasajeros, Servicio Internacional Paraguay-Argentina","public_transport:version":"2"},"5744210":{"ref":"7 B TERMINAL","name":"Línea - 7B","type":"route","route":"bus","operator":"TRANSPORTE GUARANÍ S.R.L."},"9641936":{"to":"Asunción","ref":"15-2 Salinas","from":"San Antonio","name":"Línea 15-2 Salinas","type":"route","route":"bus","operator":"Automotores Guaraní SRL"},"9641938":{"to":"Asunción","ref":"15-3 Gral. Santos","from":"San Antonio","name":"Línea 15-3 General Santos","type":"route","route":"bus","colour":"white","interval":"15","operator":"Automotores Guaraní SRL","wheelchair":"yes","opening_hours":"Mo-Su 03:30-21:30"},"9641939":{"to":"Asunción","ref":"15-2 Caaguazú","from":"San Antonio","name":"Línea 15-2 Caaguazú","type":"route","route":"bus","status":"abandoned","operator":"Automotores Guaraní SRL"},"9641940":{"to":"Asunción","ref":"15-4","from":"San Antonio","name":"Línea 15-4","type":"route","route":"bus","operator":"Automotores Guaraní SRL"},"9644636":{"to":"Asunción","ref":"38 Veracruz - B° Obrero","from":"Ypané","name":"Línea 38 Ramal San Antonio - Villa Elisa - Barrio Obrero","type":"route","route":"bus","colour":"red","operator":"Mariscal López SRL"},"9644637":{"ref":"38 Ypatí - B° Obrero","name":"Línea 38 Ramal Las Garzas - Ypatí - Barrio Obrero","type":"route","route":"bus"},"9644638":{"to":"Asunción","ref":"38 Mbocayaty - B° Obrero","from":"San Antonio","name":"Línea 38 Ramal Mbocayaty - Salinas - Barrio Obrero","type":"route","route":"bus","operator":"Mariscal López SRL"},"9649062":{"ref":"38 Ypané Centro - B° Obrero","name":"Línea 38 Ypané Centro - Barrio Obrero","type":"route","route":"bus"},"9649063":{"to":"Asunción","ref":"38 Paso de Oro - B° Obrero","from":"Ypané","name":"Línea 38 Paso de Oro - Barrio Obrero","type":"route","route":"bus","operator":"Mariscal López SRL"},"9649064":{"ref":"38 Liceo - B° Obrero","name":"Línea 38 Liceo - Barrio Obrero","type":"route","route":"bus"},"9660525":{"to":"San Antonio","ref":"C 119","via":"Asunción;San Lorenzo;Ypacaraí;Caacupé","from":"Caacupé","name":"BUS 119. Asunción -> Caacupé","type":"route","route":"bus","name:de":"BUS 119. Asunción -> Caacupé","name:en":"BUS 119. Asunción -> Caacupé","name:es":"BUS 119. Asunción -> Caacupé","name:fr":"BUS 119. Asuncion -> Caacupé","name:it":"AUTOBUS 119. Asunción -> Caacupé","name:ja":"バス 119. アスンシオン -> カアクペ","name:ko":"BUS 119. 아순시온 -> 카쿠페","name:la":"BUS 119. Asunción -> Caacupé","name:pt":"ÔNIBUS 119. Assunção -> Caacupé","website":"https://www.bienvenidoaparaguay.com/buses.php","operator":"Empresa Villa Serrana S.R.L. - La Caacupeña S.A.","wikidata":"Q106490122","wikipedia":"es:Terminal de Ómnibus de Asunción","name:zh-Hant":"119 路公交車。亞松森 -> 卡庫佩"},"11238836":{"to":"zona club deportivo Sajonia","ref":"1A Jara","from":"zona figorificos Guarani","name":"Linea 1 ramal A barrio Jara","type":"route","route":"bus","network":"DiNaTrAM Paraguay","operator":"Ysapy Sociedad Anonima"},"12466032":{"to":"Niederberg Kaserne","ref":"29","from":"Asterstein Schulzentrum","name":"Bus 29: Asterstein => Niederberg","type":"route","route":"bus","network":"VRM","operator":"Koblenzer Verkehrsbetriebe","network:wikidata":"Q2516481","network:wikipedia":"de:Verkehrsverbund Rhein-Mosel","public_transport:version":"2"},"12600488":{"to":"Lussy-sur-Morges, village","ref":"703","from":"Echichens, Haute-Pierre","name":"Bus 703: Echichens, Haute-Pierre => Lussy-sur-Morges, village","type":"route","route":"bus","colour":"#5e2590","network":"Mobilis","operator":"MBC","gtfs:feed":"CH-Alle","ref_trips":"106.TA.92-703-j21-1.6.R","gtfs:route_id":"92-703-j21-1","network:short":"CTV","network:wikidata":"Q2394222","gtfs:release_date":"2021-03-31","gtfs:trip_id:like":"%92-703-j21-1.6.R","network:wikipedia":"de:Tarifverbund Waadt","gtfs:trip_id:sample":"106.TA.92-703-j21-1.6.R","public_transport:version":"2"},"14453078":{"to":"Asunción","ref":"27","from":"Capiatá","name":"Línea 27","type":"route","route":"bus","operator":"San Lorenzo SACI"},"14897156":{"to":"Asunción","ref":"5","from":"Benjamín Aceval","name":"Línea 5","type":"route","route":"bus","network":"Ramal Centro","operator":"La Chaqueña S.A.T.C."},"14965996":{"to":"Terminal de Omnibus del Paraguarí","ref":"P 193","via":"Terminal de Omnibus - Asunción;San Lorenzo;Itá;Yaguarón;Ciudad de Paraguari;Terminal de Omnibus del Paraguarí","name":"BUS 193. Asunción -> Paraguarí","type":"route","route":"bus","name:de":"BUS 193. Asunción -> Paraguarí","name:en":"BUS 193. Asunción -> Paraguarí","name:es":"BUS 193. Asunción -> Paraguarí","name:fr":"BUS 193. Asunción -> Paraguay","name:it":"BUS 193. Asunción -> Paraguarí","name:ja":"バス 193. アスンシオン -> パラグアリ","name:ko":"BUS 193. 아순시온 -> 파라과리","name:la":"BUS 193. Asunción -> Paraguarí","name:pt":"ÔNIBUS 193. Assunção -> Paraguarí","website":"https://www.bienvenidoaparaguay.com/buses.php","wikidata":"Q106490122","wikipedia":"es:Terminal de Ómnibus de Asunción","name:zh-Hant":"193 路公交車。亞松森 -> 巴拉圭"},"14966054":{"to":"Terminal de Ómnibus - Asuncion","ref":"P 193","via":"Ciudad de Paraguarí;Yaguarón;Itá;San Lorenzo;Asunción;Terminal de Omnibus - Asuncion","name":"BUS 193. Paraguarí -> Asunción","type":"route","route":"bus","name:de":"BUS 193. Paraguarí -> Asunción","name:en":"BUS 193. Paraguarí -> Asunción","name:es":"BUS 193. Paraguarí -> Asunción","name:fr":"BUS 193. Paraguay -> Asunción","name:it":"AUTOBUS 193. Paraguarí -> Asunción","name:ja":"バス 193. パラグアリ -> アスンシオン","name:ko":"BUS 193. 파라과리 -> 아순시온","name:la":"BUS 193. Paraguarí -> Asunción","name:pt":"ÔNIBUS 193. Paraguarí -> Assunção","website":"https://www.bienvenidoaparaguay.com/buses.php","wikidata":"Q106490122","wikipedia":"es:Terminal de Ómnibus de Asunción","name:zh-Hant":"193 路公交車。巴拉瓜裡 -> 亞松森"},"14966268":{"ref":"C 119","via":"Caacupé;Ypacaraí;San Lorenzo;Asunción","name":"BUS 119. Caacupé -> Asunción","type":"route","route":"bus","name:de":"BUS 119. Caacupé -> Asunción","name:en":"BUS 119. Caacupé -> Asunción","name:es":"BUS 119. Caacupé -> Asunción","name:fr":"BUS 119. Caacupé -> Asuncion","name:it":"AUTOBUS 119. Caacupé -> Asunción","name:ja":"バス 119. カアクペ -> アスンシオン","name:ko":"BUS 119. 카쿠페 -> 아순시온","name:la":"BUS 119. Caacupé -> Asunción","name:pt":"ÔNIBUS 119. Caacupé -> Assunção","website":"https://www.bienvenidoaparaguay.com/buses.php","wikidata":"Q106490122","wikipedia":"es:Terminal de Ómnibus de Asunción","name:zh-Hant":"119 路公交車。卡庫佩 -> 亞松森"}}