{"1335433":{"ref":"106","name":"Ниш - Димитровград - државна граница - (Драгоман)","type":"route","route":"railway","name:sr":"Ниш - Димитровград - државна граница - (Драгоман)","operator":"Железнице Србије","name:sr-Latn":"Niš - Dimitrovgrad - državna granica - (Dragoman)","operator:wikidata":"Q83878"},"1335434":{"ref":"102","name":"Београд Центар - Распутница \\\"Г\\\" - Раковица - Младеновац - Лапово - Ниш - Прешево - државна граница - (Табановце)","type":"route","route":"railway","name:sr":"Београд Центар - Распутница \\\"Г\\\" - Раковица - Младеновац - Лапово - Ниш - Прешево - државна граница - (Табановце)","operator":"Железнице Србије","short_name":"Београд - Ниш;Ниш - Прешево","name:sr-Latn":"Beograd Centar - Rasputnica \\\"G\\\" - Rakovica - Mladenovac - Lapovo - Niš - Preševo - državna granica - (Tabanovce)","operator:wikidata":"Q83878"},"1654999":{"ref":"R104","name":"Vukovar-Borovo Naselje – Dalj – Erdut – Državna granica – (Bogojevo)","type":"route","route":"railway","network":"regional","operator":"HŽ Infrastruktura","wikidata":"Q101924176","short_name":"Vukovar-Borovo Naselje – Erdut"},"2826225":{"name":"Пруга Београд - Бар","type":"route","route":"railway","name:bs":"Pruga Beograd - Bar","name:de":"Belgrad - Bar","name:hr":"Pruga Beograd - Bar","name:sr":"Пруга Београд - Бар","distance":"476","wikidata":"Q792406","wikipedia":"sr:Пруга Београд—Бар","name:sr-Latn":"Pruga Beograd - Bar"},"7826011":{"ref":"101","name":"Београд Центар - Стара Пазова - Шид - државна граница - (Товарник)","type":"route","route":"railway","name:sr":"Београд Центар - Стара Пазова - Шид - државна граница - (Товарник)","name:sr-Latn":"Beograd Centar - Stara Pazova - Šid - državna granica - (Tovarnik)"},"9299833":{"ref":"105","name":"(Београд Центар) - Стара Пазова - Нови Сад - Суботица - државна граница - (Келебиа)","type":"route","route":"railway","name:sr":"(Београд Центар) - Стара Пазова - Нови Сад - Суботица - државна граница - (Келебиа)","name:sr-Latn":"(Beograd Centar) - Stara Pazova - Novi Sad - Subotica - državna granica - (Kelebia)"},"11240346":{"name":"Пруга Петроварадин – Беочин","type":"route","route":"railway","name:sr":"Пруга Петроварадин – Беочин","name:sr-Latn":"Pruga Petrovaradin – Beočin"},"11757913":{"ref":"217","name":"Распутница Језава - Смедерево Лука","type":"route","route":"railway","name:sr":"Распутница Језава - Смедерево Лука","name:sr-Latn":"Rasputnica Jezava - Smederevo Luka"},"12344119":{"ref":"219","name":"Пруга Црвени Крст – Зајечар – Прахово пристаниште","type":"route","route":"railway","name:de":"Crveni Krst – Zaječar – Prahovo Pristanište","name:en":"Crveni Krst – Zaječar – Prahovo Pristanište","name:sr":"Пруга Црвени Крст – Зајечар – Прахово пристаниште","name:sr-Latn":"Pruga Crveni Krst – Zaječar – Prahovo pristanište"},"14557323":{"ref":"205","name":"Банатско Милошево - Сента - Суботица","type":"route","route":"railway","name:sr":"Банатско Милошево - Сента - Суботица","name:sr-Latn":"Banatsko Miloševo - Senta - Subotica"},"14626601":{"ref":"104","name":"(Јагодина) - Распутница Ћуприја - Ћуприја - Параћин","type":"route","route":"railway","name:sr":"(Јагодина) - Распутница Ћуприја - Ћуприја - Параћин","name:sr-Latn":"(Jagodina) - Rasputnica Ćuprija - Ćuprija - Paraćin"},"14647492":{"ref":"103","name":"(Београд Центар) - Раковица - Јајинци - Мала Крсна - Велика Плана","type":"route","route":"railway","name:sr":"(Београд Центар) - Раковица - Јајинци - Мала Крсна - Велика Плана","name:sr-Latn":"(Beograd Centar) - Rakovica - Jajinci - Mala Krsna - Velika Plana"},"14648187":{"ref":"107","name":"Београд Центар - Панчево Главна - Вршац - државна граница - (Стамора Моравита)","type":"route","route":"railway","name:sr":"Београд Центар - Панчево Главна - Вршац - државна граница - (Стамора Моравита)","wikidata":"Q20428359","wikipedia":"sr:Пруга Београд—Вршац","name:sr-Latn":"Beograd Centar - Pančevo Glavna - Vršac - državna granica - (Stamora Moravita)"},"14709270":{"ref":"108","name":"(Београд Центар) - Ресник - Пожега - Врбница - државна граница - (Бијело Поље)","type":"route","route":"railway","name:sr":"(Београд Центар) - Ресник - Пожега - Врбница - државна граница - (Бијело Поље)","name:sr-Latn":"(Beograd Centar) - Resnik - Požega - Vrbnica - državna granica - (Bijelo Polje)"},"15361103":{"ref":"309","name":"Панчево Варош - Панчево Војловица","type":"route","route":"railway","name:sr":"Панчево Варош - Панчево Војловица","name:sr-Latn":"Pančevo Varoš - Pančevo Vojlovica"},"15533135":{"ref":"202","name":"202 Панчево Главна – Зрењанин – Кикинда – дг","type":"route","route":"railway","name:sr":"202 Панчево Главна – Зрењанин – Кикинда – дг","network":"RS:regional","operator":"Железнице Србије","short_name":"Панчево – Кикинда","name:sr-Latn":"202 Pančevo Glavna – Zrenjanin – Kikinda – dg"},"15714708":{"name":"Lot 3 (Igiroasa-DrobetaTrSv)","type":"proposed","route":"railway"},"15906759":{"name":"Lot 4 (DrobetaTrSv-BaileHerculane)","type":"proposed","route":"railway"},"16362817":{"name":"Pruga Valjevo - Loznica","type":"route","route":"railway","railway":"proposed","proposed":"railway"}}