{"1185591":{"name":"Ярославское направление","type":"route","route":"railway","network":"Московская железная дорога","loc_name":"Фрязинская ветка","description":"железная дорога Болшево — Фрязино"},"1186669":{"name":"Кола - Никель","type":"route","route":"railway"},"1706616":{"name":"Лихославль — Вязьма","type":"route","route":"railway"},"1717558":{"name":"ЖД Черкизово - Электрозавод","type":"route","route":"railway","name:uk":"ЖД Черкізове - Електрозавод","wikidata":"Q4530867","wikipedia":"ru:Электрозаводская железнодорожная ветка"},"2128634":{"to":"Владивосток","from":"Москва","name":"Транссибирская магистраль (чётное направление)","type":"route","route":"railway","comment":"in work","name:ca":"Ferrocarril Transsiberià","name:de":"Transsibirische Eisenbahn","name:en":"Trans-Siberian Railway","name:fr":"Transsibérien","name:pl":"Kolej Transyberyjska","name:uk":"Транссибірська магістраль (парний напрямок)","network":"RU-railway","wikidata":"Q58767","wikipedia":"ru:Транссибирская магистраль","description":"Транссибирская магистраль, направление - на Владивосток"},"2322201":{"to":"Новодеревенская","from":"Южно-Сахалинск","name":"ветка Южно-Сахалинск — Новодеревенская Сахалинского региона ДВЖД","type":"route","route":"railway"},"2333635":{"name":"Южно-Сахалинская детская железная дорога","type":"route","route":"railway","network":"Сахалинский регион ДВЖД","wikidata":"Q4533985","wikipedia":"ru:Южно-Сахалинская детская железная дорога"},"2341049":{"name":"681/682 Ачинск — Кия-Шалтырь","type":"route","route":"railway","source":"Bing","operator":"Российские железные дороги"},"2341103":{"name":"Кемерово — Тайга","type":"route","route":"railway","network":"ru:local","operator":"Кузбасс-пригород"},"2342202":{"ref":"Мереть - Среднесибирская","name":"Мереть - Среднесибирская","type":"route","route":"railway","railway":"abandoned"},"2372388":{"name":"Нюбская узкоколейная железная дорога","type":"route","route":"railway","network":"Нюбская узкоколейная железная дорога","wikidata":"Q4328463","wikipedia":"ru:Нюбская узкоколейная железная дорога"},"2379088":{"to":"Багратионовск","via":"Корнево","from":"Мамоново","name":"железнодорожная линия Мамоново - Корнево - Багратионовск","note":"mostly abandoned","type":"route","route":"railway"},"2923138":{"name":"Kelloselkä-Alakurtti","type":"route","route":"railway"},"3429390":{"ref":"17Н-762","name":"подъезд к деревне Илевники","type":"route","route":"railway","network":"ru:regional","distance":"1.5 km"},"3492408":{"name":"(Buy-) Antropovo - Kotelnich","note":"used only to simplify train routes","type":"route","route":"railway","passenger_lines":"2"},"3810546":{"name":"Канаш — Свияжск","type":"route","route":"railway"},"3810547":{"to":"Чебоксары","from":"Канаш","name":"Канаш — Чебоксары","type":"route","route":"railway"},"3810548":{"name":"Новочебоксарск — Пост 9 км","type":"route","route":"railway"},"3810549":{"name":"Красный Узел — Канаш","type":"route","route":"railway"},"3810552":{"to":"Канаш","from":"Арзамас 2","name":"Арзамас 2 — Канаш","type":"route","route":"railway"},"3848286":{"name":"Казанское направление","type":"route","route":"railway","name:en":"Moscow Railway Kazan Direction","name:uk":"Казанський напрямок","network":"Московская железная дорога","operator":"ЦППК"},"3848598":{"name":"Казанское направление","type":"route","route":"railway","name:en":"Moscow Railway Kazan Direction","name:uk":"Казанський напрямок","network":"Московская железная дорога"},"3850329":{"name":"Горьковское направление","type":"route","route":"railway","name:en":"Moscow Railway Gorky Direction","name:uk":"Горькій напрямок","network":"Московская железная дорога"},"3898862":{"name":"Тула-Лихвинская УЖД","type":"route","route":"railway","wikidata":"Q4465080","wikipedia":"ru:Тула-Лихвинская узкоколейная железная дорога"},"4007610":{"name":"Кустарёвка — Вернадовка","type":"route","route":"railway"},"4039506":{"name":"Курское направление","type":"route","route":"railway","name:en":"Moscow Railway Kursk Direction","name:uk":"Курський напрямок","network":"Московская железная дорога"},"4041612":{"name":"Алексеевская соединительная линия МЖД","type":"route","route":"railway","branch":"МСК","name:uk":"Олексіївська сполучна лінія МЗ","operator":"ОАО «РЖД»"},"4041804":{"name":"Выглядовка — Нижний Ломов","type":"route","route":"railway"},"4042274":{"name":"Смоленское направление (главный ход)","type":"route","route":"railway","name:en":"Moscow Railway Smolensk Direction","name:uk":"Смоленський напрямок (головний хід)","network":"Московская железная дорога","alt_name":"Белорусское направление","alt_name:en":"Moscow Railway Belarus Direction"},"4042343":{"name":"Малое кольцо МЖД","type":"route","route":"railway","name:en":"Moscow Railway Minor Circleway","name:uk":"Мале кільце МЗ","operator":"Московская железная дорога","wikidata":"Q22117593"},"4043756":{"name":"Киевское направление","type":"route","route":"railway","name:en":"Moscow Railway Kiev Direction","name:uk":"Київський напрямок","operator":"Московская железная дорога"},"4102920":{"ref":"6491","name":"Волгоград — Арчеда","type":"route","fixme":"continue","route":"railway","name:de":"Wolgograd-Artscheda","operator":"ВолгоградТрансПригород"},"4224465":{"to":"Москва","from":"Владивосток","name":"Транссибирская магистраль (нечётное направление)","type":"route","route":"railway","comment":"in work","name:ca":"Ferrocarril Transsiberià","name:de":"Transsibirische Eisenbahn","name:en":"Trans-Siberian Railway","name:fr":"Transsibérien","name:uk":"Транссибірська магістраль (непарний напрямок)","network":"RU-railway","wikidata":"Q58767","wikipedia":"ru:Транссибирская магистраль","description":"Транссибирская магистраль, направление - на Москву"},"4455724":{"to":"Советская гавань","from":"Тайшет","name":"Байкало-Амурская Магистраль","type":"route","route":"railway","usage":"main","comment":"in work","name:ca":"Ferrocarril Baikal-Amur","name:en":"Baikal-Amur Mainline","name:ru":"Байкало-Амурская Магистраль","network":"RU-railway","wikidata":"Q377967","wikipedia":"ru:Байкало-Амурская магистраль","short_name":"БАМ","description":"Байкало-Амурская Магистраль","short_name:en":"BAM","short_name:ru":"БАМ","passenger_lines":"1"},"4630154":{"to":"Синегорск","from":"Новоалександровка","name":"ветка Новоалександровка — Синегорск","type":"route","route":"railway"},"4630287":{"to":"Анива","from":"Дачное-Сахалинское","name":"ветка Дачное — Анива","type":"route","route":"railway"},"4630288":{"to":"Стародубское","from":"Долинск","name":"ветка Долинск — Стародубское","type":"route","route":"railway"},"4630811":{"to":"Ноглики","from":"Корсаков","name":"Восточный ход Сахалинского региона ДВЖД","type":"route","route":"railway","official_name":"Восточный ход Сахалинского региона Дальневосточной Железной Дороги"},"4630812":{"to":"Ильинск-Сахалинский","from":"Шахта-Сахалинская","name":"Западный ход Сахалинского региона ДВЖД","type":"route","route":"railway"},"4630814":{"to":"Быков","from":"Сокол","name":"ветка Сокол — Быков Сахалинского региона ДВЖД","type":"route","route":"railway"},"4630815":{"to":"Арсентьевка","from":"Ильинск-Южный","name":"перегон Ильинск — Арсентьевка Сахалинского региона ДВЖД","type":"route","route":"railway"},"4751018":{"name":"Проектируемая ВСМ Москва - Казань - Екатеринбург","type":"route","route":"railway"},"5317588":{"name":"З-СИБ","type":"route","fixme":"correct name","gauge":"1520","route":"railway","name:de":"Güterumgehungsstrecke Nowosibirsk","name:en":"Freight corridor around Novosibirsk","voltage":"3000","frequency":"0","electrified":"contact_line"},"5317589":{"name":"Railway Novosibirsk - Novokuznezk","type":"route","route":"railway","usage":"main","branch":"З-СИБ","voltage":"3000","operator":"ОАО \\\"РЖД\\\"","frequency":"0","electrified":"contact_line"},"5317989":{"name":"Rail Bypass Novokuzneck","type":"route","route":"railway"},"5317990":{"name":"Railway Anshero-Sudshensk - Kemerovo","type":"route","gauge":"1520","route":"railway","name:ru":"Анжеро-Судженск - Кемерово","voltage":"3000","frequency":"0","electrified":"contact_line"},"5317991":{"name":"Railway Kemerovo - Novokuzneck","type":"route","gauge":"1520","route":"railway","voltage":"3000","frequency":"0","electrified":"contact_line"},"5317992":{"to":"Томусинская","from":"Nowokusnezk","name":"Railway Novokuzneck - Tomusinskaya","type":"route","route":"railway","name:de":"Bahnstrecke Nowokusnjezk - Tomusinskaja"},"5558002":{"name":"Транссибирская магистраль","type":"route","route":"railway","alt_name":"Транссибирская железнодорожная магистраль","int_name":"Trans-Siberian Railway","old_name":"Великий Сибирский Путь","short_name":"Транссиб"},"5750529":{"name":"Ekaterinburg bypass railway","type":"route","route":"railway"},"5951446":{"to":"Вахрушев-Угольный","from":"Вахрушев-Сахалинский","name":"ветка Вахрушев-Сахалинский — Вахрушев-Угольный Сахалинского региона ДВЖД","type":"route","route":"railway"},"5954200":{"name":"Павелецкое направление","type":"route","route":"railway","name:en":"Moscow Railway Pavelets Direction","name:uk":"Павелецький напрямок","operator":"Московская железная дорога"},"5958099":{"name":"Рижское направление","type":"route","route":"railway","name:en":"Moscow Railway Riga Direction","name:uk":"Ризький напрямок","network":"Московская железная дорога"},"6656312":{"name":"Ярославское направление (главный ход)","type":"route","route":"railway","name:en":"Yaroslavl Direction Main Line","name:uk":"Ярославський напрямок (головний хід)","network":"Московская железная дорога"},"6657739":{"name":"Савёловское направление (главный ход)","type":"route","route":"railway","name:en":"Savyolovo Direction Main Line","name:uk":"Савелівський напрямок (головний хід)","network":"Московская железная дорога"},"6657740":{"name":"Савёловское направление (ветвь Вербилки — Дубна)","type":"route","route":"railway","name:en":"Savyolovo Direction Verbilki-Dubna Branch","network":"Московская железная дорога"},"6657741":{"name":"Савёловское направление (ветвь в аэропорт Шереметьево)","type":"route","route":"railway","name:en":"Savyolovo Direction Sheremetyevo Airport Branch","network":"Московская железная дорога"},"6657782":{"name":"Ярославское направление (хордовая линия Мытищи — Фрязево)","type":"route","route":"railway","name:en":"Yaroslavl Direction Mytischi-Fryazevo Chord Line","network":"Московская железная дорога"},"6704841":{"name":"Смоленское направление (Ветка на Азотную и Дорогобуж)","type":"route","route":"railway","name:en":"Smolensk Direction Azotnaya and Dorogobuzh Branch","network":"Московская железная дорога","alt_name":"Белорусское направление"},"6704842":{"name":"Смоленское направление (Ветка на Владимирский Тупик)","type":"route","route":"railway","name:en":"Smolensk Direction Vladimirsky Tupik Branch","network":"Московская железная дорога","alt_name":"Белорусское направление"},"6923249":{"name":"Грузовой обход Рязани","type":"route","route":"railway","operator":"ОАО \\\"РЖД\\\""},"7070318":{"name":"Богоявленск — Челновая","type":"route","route":"railway"},"7081036":{"name":"Rostov na Donu - Taganrog","type":"route","route":"railway"},"7596039":{"name":"Железнодорожная линия в обход Украины","type":"route","route":"railway","wikidata":"Q19868882"},"7670292":{"name":"станция Вернадовка","type":"route","route":"railway"},"7764544":{"name":"Сосногорск — Троицко-Печорск","type":"route","route":"railway"},"7764781":{"name":"Чиньяворык — Четлос","type":"route","route":"railway"},"7769505":{"name":"Микунь — Вендинга","type":"route","route":"railway"},"7769897":{"ref":"60К-58","name":"автодорога «Северный подъезд к г. Батайску»","type":"route","route":"railway","network":"ru:regional"},"7775627":{"name":"Ядриха — Великий Устюг","type":"route","route":"railway"},"7787215":{"name":"Лоухи — Пяозеро","type":"route","route":"railway"},"7788156":{"name":"Оленегорск — Мончегорск","type":"route","route":"railway"},"7809185":{"name":"Continental Landbridge","note":"this relation has less doube/single-track problems than the other relations","type":"route","route":"railway","name:uk":"Continental Landbridge"},"7857910":{"name":"Листвянка — Гавердово","type":"route","route":"railway"},"8024464":{"to":"Советская Гавань","from":"Тайшет","name":"БАМ","note":"2nd relation","type":"route","route":"railway","name:en":"Baikal-Amur Mainline","name:ru":"Байкало-Амурская магистраль","wikipedia":"ru:Байкало-Амурская магистраль"},"8306705":{"name":"Кривандино - Рязановка","type":"route","route":"railway","wikidata":"Q4178812"},"8362565":{"name":"Экспериментальная кольцевая железная дорога ВНИИЖТ","type":"route","route":"railway","name:uk":"Експериментальна кільцева залізниця ВНІІШТ","wikidata":"Q4530571","wikipedia":"ru:Экспериментальная кольцевая железная дорога ВНИИЖТ"},"8364096":{"name":"Московское направление","type":"route","route":"railway","name:en":"October Railway Moscow Direction","name:ru":"Московское направление","name:uk":"Московський напрямок","network":"Октябрьская железная дорога","alt_name":"Главный ход ОЖД"},"8376307":{"name":"Микунь — Сыктывкар","type":"route","route":"railway","name:kv":"Микуньсянь Сыктывкарӧдз кӧрт туй визь","name:ru":"Микунь — Сыктывкар","network":"Северная железная дорога","operator":"Российские железные дороги"},"9262616":{"name":"Ситники - Пионерский","type":"route","route":"railway","network":"гппжт"},"9262618":{"name":"Керженец - разъезд: Полевая База","type":"route","route":"railway","network":"гппжт"},"9262827":{"name":"Рустай - Вишня","type":"route","route":"railway","operator":"гппжт"},"9262828":{"name":"Рустай - Зелёный","type":"route","route":"railway"},"9330404":{"to":"Пугачёвск","from":"Сенная","name":"Сенная – Пугачёвск","type":"route","route":"railway","name:de":"Bahnstrecke Sennoy - Pugatschjowsk"},"9712851":{"name":"Киевское направление","type":"route","route":"railway","name:en":"Moscow Railway Kiev Direction","operator":"Московская железная дорога"},"10069184":{"name":"Ростовская детская железная дорога","type":"route","route":"railway","name:en":"Rostov Children’s Railway","name:ru":"Ростовская детская железная дорога","name:uk":"Ростовська дитяча залізниця","wikidata":"Q4277320"},"10847864":{"name":"Дачная УЖД Павла Чилина","type":"route","owner":"Чилин Павел Константинович","route":"railway","operator":"Чилин Павел Константинович"},"10990466":{"to":"Warszawa Wileńska","via":"Дзвінск;Вільня;Гродна;Беласток","from":"Санкт-Петербург Варшавский вокзал","name":"Saint Petersburg – Warsaw Railway","type":"route","route":"railway","name:be":"Пецярбургска-Варшаўская чыгунка","name:de":"Petersburg-Warschauer Eisenbahn","name:en":"Saint Petersburg – Warsaw Railway","name:lt":"Sankt Peterburgo–Varšuvos geležinkelis","name:lv":"Dzelzceļa līnija Pēterburga—Varšava","name:ru":"Петербурго-Варшавская железная дорога","name:uk":"Петербурго-Варшавська залізниця","distance":"1250","wikidata":"Q740103","wikipedia":"en:Saint Petersburg–Warsaw railway","start_date":"1862-12-15","name:be-tarask":"Пецярбурска-Варшаўская чыгунка"},"13025663":{"to":"Таловая","ref":"Лиски - Таловая","from":"Лиски","name":"Лиски - Таловая","type":"route","route":"railway"},"13026165":{"to":"Лихая","ref":"Лиски - Лихая","from":"Лиски","name":"Залізнична лінія Ліски - Лихая","type":"route","route":"railway","name:de":"Bahnstrecke Liski - Lichaja","name:uk":"Залізнична лінія Ліски - Лихая","network":"РЖД","operator":"РЖД","operator:en":"Russian Railways","operator:ru":"РЖД","operator:wikidata":"Q660770"},"13028024":{"to":"Крымская-2","from":"Тимашевская-1","name":"Тимашевская-1 - Крымская-2","type":"route","route":"railway","name:de":"Bahnstrecke Timaschewskaja-1 - Krimskaja-2"},"13070146":{"to":"Одинцово","from":"Москва-Пассажирская-Смоленская","name":"Москва-Смоленская - Одинцово","type":"route","route":"railway","name:de":"Bahnstrecke Moskau - Odinzowo","name:uk":"Москва-Смоленська - Одинцове"},"13092161":{"name":"Нижегородский ход Транссибирской магистрали","note":"55,2+(809-73)=791,2 км (Мытищи — Фрязево + Фрязево — Котельнич-1)","type":"route","route":"railway","distance":"791.2 km","description":"Мытищи — Котельнич-1"},"13096470":{"name":"Нижегородский ход Транссибирской магистрали","note":"(809-73)+55,2=791,2 км (Котельнич-1 — Фрязево + Фрязево — Мытищи)","type":"route","route":"railway","distance":"791.2 km","description":"Котельнич-1 — Мытищи"},"13110825":{"to":"Голицыно","from":"Красный Узел","name":"Красный Узел — Голицыно","type":"route","route":"railway"},"13111194":{"to":"Новосибирск-Главный","from":"Екатеринбург","name":"Екатеринбург — Новосибирск","type":"route","route":"railway"},"13111195":{"to":"Екатеринбург","from":"Агрыз","name":"Агрыз — Екатеринбург","type":"route","route":"railway","name:de":"Agruiss — Ekaterienburg"},"13111196":{"to":"Арзамас 2","from":"Москва-Казанская","name":"Москва-Казанская → Арзамас 2","type":"route","route":"railway","name:uk":"Москва-Казанська → Арзамас 2"},"13111552":{"to":"Участок","from":"Мереть","name":"Мереть - Участок railway","type":"route","route":"railway"},"13112940":{"to":"Кузбасс","from":"Bernaul","name":"Bernaul - Кузбасс","type":"route","route":"railway"},"13116944":{"to":"Тайшет","ref":"Южсиб","from":"Магнитогорск","name":"Южно-Сибирская магистраль","type":"route","route":"railway","operator":"ОАО \\\"РЖД\\\" / АО «КТЖ»"},"13155296":{"to":"Карталы 1","ref":"Золотая Сопка - Карталы 1","from":"Золотая Сопка","name":"Золотая Сопка - Карталы 1","type":"route","route":"railway","name:de":"Bahnstrecke Solotaja Sopka - Kartaly"},"13158762":{"to":"Орск","from":"Оренбург","name":"Оренбург — Орск","type":"route","route":"railway","name:de":"Bahnstrecke Orenburg - Orsk","operator":"РЖД"},"13200355":{"name":"Большое кольцо МЖД","type":"route","route":"railway","name:de":"Grosser Moskauer Ring","operator":"РЖД","wikidata":"Q1548805","wikipedia":"en:Greater Ring of the Moscow Railway","operator:en":"Russian Railways","operator:ru":"РЖД","operator:wikidata":"Q660770"},"13232013":{"to":"Шарыпово","from":"Шушь","name":"Шушь — Шарыпово","type":"route","route":"railway","name:de":"Bahnstrecke Schusch - Scharypowo"},"13232014":{"to":"Кия-Шалтырь","from":"Красная Сопка","name":"Красная Сопка — Кия-Шалтырь","type":"route","route":"railway","name:de":"Bahnstrecke Krasnaja Sopka - Kija-Schaltyr"},"13232015":{"to":"Тигей","from":"Ачинск-1","name":"Ачинско-Минусинская железная дорога","type":"route","route":"railway","name:de":"Bahnstrecke Atschinsk - Abakan"},"13232016":{"to":"Лесосибирск","from":"Ачинск-1","name":"Ачинск — Лесосибирск","type":"route","route":"railway","name:de":"Zweigstrecke nach Lesosibirsk"},"13290253":{"to":"Яранск","from":"Зелёный Дол","name":"Зелёный Дол - Яранск","type":"route","route":"railway","name:de":"Bahnstrecke nach Jaransk"},"13311996":{"from":"Духовская","name":"Смоленск -Тула","type":"route","route":"railway","name:de":"Bahnstrecke Smolensk - Tula"},"13311997":{"to":"Волово","from":"Козельск","name":"Козельск - Волово","type":"route","route":"railway","name:de":"Bahnstrecke Kosselsk - Wolowo"},"13890662":{"name":"Высокоскоростная железнодорожная магистраль \\\"Центр-Юг\\\" Москва - Адлер (ВСМ-3)","type":"route","route":"railway","name:uk":"Високошвидкісна залізнична магістраль \\\"Центр-Південь\\\" Москва – Адлер (ВСМ-3)"},"13890701":{"to":"Подольск","from":"Угрешская","name":"Угрешская - Подольск","type":"route","route":"railway","name:uk":"Угреська - Подільськ"},"14083438":{"to":"Арбузово","from":"Лужки-Орловские","name":"Лужки-Орловские - Арбузово","type":"route","route":"railway","name:de":"Bahnstrecke Opjol - Arbussowo"},"14083439":{"to":"Промышленная","from":"Смоленск","name":"Смоленск - Промышленная","type":"route","route":"railway","name:de":"Bahnstrecke Smolensk - Promyschlennaja"},"14193803":{"name":"Kaliningrad–Bagrationovsk railway line","type":"route","route":"railway","wikidata":"Q15856770"},"14402057":{"to":"Урванка","ref":"Ожерелье - Урванка","from":"Ожерелье","name":"Ожерелье - Урванка","type":"route","route":"railway","name:de":"Bahnstrecke Oscherelje - Usslowaja"},"14402058":{"to":"Елец","from":"Узловая-I","name":"Узловая-I - Елец","type":"route","route":"railway","name:de":"Bahnstrecke Usslowaja - Jelez"},"14509717":{"to":"Нерюнгри-Грузовая","from":"Нерюнгри-Пассажирская","name":"Нерюнгри-Пассажирская - Нерюнгри-Грузовая","type":"route","route":"railway"},"14521402":{"name":"Ветка Новая Чара-Чина","type":"route","route":"railway"},"14521496":{"name":"Улак - Эльга (стр.)","type":"route","route":"railway"},"14525091":{"ref":"0120","name":"滨洲宽轨线","type":"route","route":"railway","operator":"中国铁路哈尔滨局集团有限公司","operator:en":"China Railway Harbin Group","operator:zh":"中国铁路哈尔滨局集团有限公司","operator:wikidata":"Q10922014"},"14525093":{"ref":"1135","name":"准轨联络1线","type":"route","route":"railway","operator":"中国铁路哈尔滨局集团有限公司","operator:en":"China Railway Harbin Group","operator:zh":"中国铁路哈尔滨局集团有限公司","operator:wikidata":"Q10922014"},"14526180":{"to":"Галачинский","from":"Моргудон","name":"Моргудон - Галачинский","type":"route","route":"railway","name:de":"Bratsk-Schleife","operator":"ОАО \\\"РЖД\\\""},"14529232":{"from":"Биробиджан I","name":"Железнодорожный мост Тунцзян-Нижнеленинское","type":"route","route":"railway","name:zh":"同江北-下列宁斯阔耶"},"14599933":{"to":"Баянтүмэн","from":"Борзя","name":"Борзя - Баянтүмэн","type":"route","route":"railway","name:de":"Zweigstrecke nach Bajantumen"},"14615578":{"to":"Новый Уренгой","from":"Войновка","name":"Войновка - Новый Уренгой","type":"route","route":"railway","name:de":"Bahnstrecke Tjumen - Nowy Urengoy"},"14619014":{"to":"Бакал","from":"Бердяуш","name":"Бердяуш - Бакал","type":"route","route":"railway","name:de":"Bahnstrecke Berdjasch - Bakal"},"14627396":{"to":"Богданович","from":"Каменск-Уральский","name":"Каменск-Уральский - Богданович","type":"route","route":"railway","name:de":"Bahnstrecke Kamensk - Bogdanowitsch"},"14654536":{"to":"Калуга-1","from":"Вязьма","name":"Вязьма - Калуга","type":"route","route":"railway","name:de":"Bahnstrecke Wjassma - Kaluga"},"14717475":{"name":"Сеть ВСЖМ","type":"route","route":"railway","name:uk":"Мережа ВРЖМ"},"14734936":{"to":"Челябинск","from":"Екатеринбург","name":"ВСМ Екатеринбург - Челябинск","type":"route","route":"railway"},"14759976":{"to":"Ершов","from":"Саратов-1-Пассажирский","name":"Саратов - Ершов","type":"route","route":"railway","name:de":"Bahnstrecke Saratow - Erschow"},"14762595":{"to":"Сызрань-Южная","from":"Сенной","name":"Сенной - Сызрань","type":"route","route":"railway","name:de":"Bahnstrecke Sennoi - Suissran"},"14762596":{"to":"Сенной","from":"Саратов-1-Пассажирский","name":"Саратов - Сенной","type":"route","route":"railway","name:de":"Bahnstrecke Saratow - Sennoi"},"14762862":{"to":"Жигулёвское Море","from":"Сызрань-Южная","name":"Сызрань - Жигулёвское Море","type":"route","route":"railway","name:de":"Bahnstrecke Suissran - Schiguljowskje Morje"},"14763681":{"to":"Ульяновск-Центральный","from":"Инза","name":"Инза - Ульяновск","type":"route","route":"railway","name:de":"Bahnstrecke Inssa - Uljanowsk"},"14763682":{"to":"Сызрань-2","from":"Инза","name":"Инза - Сызрань","type":"route","route":"railway","name:de":"Bahnstrecke Inssa - Suissran"},"14764968":{"to":"Котельнич-1","name":"Нижний Новгород - Котельнич","type":"route","route":"railway","from:de":"Нижний Новгород-Московский","name:de":"Bahnstrecke Nischny Nowgorod - Kotelnitsch"},"14778915":{"to":"Поздино","from":"Лянгасово","name":"Лянгасово - Поздино","type":"route","route":"railway","name:de":"Südumgehung Kirow"},"14778962":{"to":"Бердяуш","from":"Дружинино","name":"Дружинино - Бердяуш","type":"route","route":"railway","name:de":"Bahnstrecke Druschinino - Berdjasch"},"14778963":{"to":"Кузино","from":"Калино","name":"Калино - Кузино","type":"route","route":"railway","name:de":"Bahnstrecke Kalino - Kussino"},"14778968":{"to":"Дружинино","from":"Кузино","name":"Кузино - Дружинино","type":"route","route":"railway","name:de":"Bahnstrecke Kussino - Dryschinino"},"14784501":{"to":"Серов","from":"Богданович","name":"Богданович - Серов","type":"route","route":"railway","name:de":"Bahnstrecke Bogdanowitsch - Serow"},"14784525":{"to":"Серов-Сортировочный","from":"Екатеринбург","name":"Екатеринбург - Серов","type":"route","route":"railway","name:de":"Bahnstrecke Jekatarienburg - Serow"},"15016371":{"to":"Кедровый","from":"Сургут","name":"Сургут - Кедровый","type":"route","route":"railway","name:de":"Bahnstrecke Surgut - Kedrowuy"},"15261026":{"to":"Буй","from":"Вологда-1","name":"Вологда-1 - Буй","type":"route","route":"railway","name:de":"Bahnstrecke Wologda - Bui"},"15434411":{"name":"Нестеров - Краснолесье","type":"route","route":"railway","name:de":"Zweigstrecke nach Hardteck"},"15441176":{"to":"Ельшанка","from":"Садовая","name":"Садовая - Ельшанка","type":"route","route":"railway","name:de":"Verbindungsbahn Sadowaja-Jelschanka"},"15441603":{"to":"Южная","from":"Волгоград-1","name":"Волгоград-1 - Южная","type":"route","route":"railway","name:de":"Bahnstrecke Wolgograd - Juschnaja"},"15441774":{"to":"Разгуляевка","from":"Воссоединение","name":"Воссоединение - Разгуляевка","type":"route","route":"railway","name:de":"Verbindungsbahn Wossojedinenie - Rassguljajewka"},"15441775":{"to":"Тракторная-Пассажирская","from":"Волгоград 1","name":"Волгоград 1 - Тракторная-Пассажирская","type":"route","route":"railway","name:de":"Bahnstrecke Wolgograd - Traktornaja"},"15441776":{"to":"Саратов-1-Пассажирский","from":"Волгоград 1","name":"Волгоград 1 - Саратов-1","type":"route","route":"railway","name:de":"Bahnstrecke Wolgograd - Saratow"},"15441777":{"to":"Канальная","from":"Сарепта","name":"Сарепта - Канальная","type":"route","route":"railway","name:de":"Bahnstrecke Sarepta - Kanalnaja"},"15448147":{"to":"Ртищево-2","from":"Саратов-1-Пассажирский","name":"Саратов-1– Ртищево-2","type":"route","route":"railway","name:de":"Bahnstrecke Saratow - Rtischtschewo"},"15448574":{"to":"Ртищево-1","from":"Кочетовка-5","name":"Кочетовка-5 – Ртищево-1","type":"route","route":"railway","name:de":"Bahnstrecke Kotschetowka - Rtischtschewo"},"15453351":{"to":"Ртищево-1","from":"Пенза-III","name":"Пенза-III – Ртищево-1","type":"route","route":"railway","name:de":"Bahnstrecke Penssa - Rtischtschewo"},"15460993":{"to":"Костанай","from":"Иртышское","name":"Иртышское – Костанай","type":"route","route":"railway","name:de":"Bahnstrecke Irtyschskoje - Kostanai"},"15504314":{"from":"Сенная","name":"Приволжская железная дорога","type":"route","route":"railway","operator":"ОАО \\\"РЖД\\\""},"15510464":{"to":"Toshkent shimoliy","from":"Уфа","name":"Уфа – Toshkent","type":"route","route":"railway"},"15510542":{"to":"Илецк-1","from":"Ершов","name":"Ершов – Илецк-1","type":"route","route":"railway","name:de":"Bahnstrecke Erschow – Ilezk"},"15567653":{"name":"Эльга - Чумикан","type":"route","route":"railway","operator":"ООО \\\"Эльга-Транс\\\""}}