{"35274":{"ref":"Västra stambanan","name":"Västra stambanan","type":"route","route":"railway","usage":"main","name:fi":"Läntinen kantarata","name:sv":"Västra stambanan","operator":"Trafikverket","wikidata":"Q54081","electrified":"contact_line","operator:wikidata":"Q1677108"},"35294":{"ref":"Grödingebanan","name":"Grödingebanan","type":"route","route":"railway","name:fi":"Grödingen rata","name:sv":"Grödingebanan"},"35296":{"ref":"Svealandsbanan","name":"Svealandsbanan","type":"route","route":"railway","name:fi":"Sveanmaan rata","name:sv":"Svealandsbanan"},"35957":{"name":"Södra stambanan","type":"route","route":"railway","name:fi":"Eteläinen kantarata","name:sv":"Södra stambanan","operator":"Trafikverket","operator:wikidata":"Q1677108"},"35961":{"name":"Markarydsbanan","type":"route","route":"railway"},"35964":{"ref":"Jönköpingsbanan","name":"Jönköpingsbanan","type":"route","route":"railway"},"35965":{"ref":"Kust till kust-banan (Emmabodabanan)","name":"Kust till kust-banan (Emmabodabanan)","type":"route","route":"railway"},"35967":{"ref":"Blekinge kustbana","name":"Blekinge kustbana","type":"route","route":"railway","wikidata":"Q637658"},"35968":{"name":"Skånebanan","type":"route","route":"railway"},"35969":{"name":"Kust till kust-banan","type":"route","route":"railway"},"35972":{"ref":"Viskadalsbanan","name":"Viskadalsbanan","type":"route","route":"railway","name:fi":"Viskadalin rata","name:sv":"Viskadalsbanan"},"35973":{"ref":"Älvsborgsbanan","name":"Älvsborgsbanan","type":"route","route":"railway","usage":"branch","voltage":"15000","loc_name":"Havrebanan","frequency":"16.67","electrified":"contact_line"},"35976":{"ref":"Bohusbanan","name":"Bohusbanan","type":"route","route":"railway","name:fi":"Bohusin rata","name:sv":"Bohusbanan","wikidata":"Q2738635","wikipedia":"sv:Bohusbanan"},"35982":{"name":"Västkustbanan","type":"route","route":"railway","name:fi":"Läntinen rantarata","name:sv":"Västkustbanan","operator":"Trafikverket","wikidata":"Q37655","wikipedia":"sv:Västkustbanan","operator:wikidata":"Q1677108"},"36165":{"name":"Söderåsbanan","type":"route","route":"railway"},"36433":{"ref":"Kinnekullebanan","name":"Kinnekullebanan","type":"route","route":"railway"},"36612":{"name":"Lommabanan","type":"route","route":"railway"},"49153":{"ref":"Nässjö-Åseda","name":"Nässjö-Åseda","type":"route","route":"railway"},"71043":{"name":"Mittbanan","type":"route","route":"railway","name:fi":"Keskirata","name:sv":"Mittbanan","operator":"Trafikverket","wikipedia":"sv:Mittbanan"},"71047":{"ref":"Inlandsbanan","name":"Inlandsbanan","type":"route","route":"railway","electrified":"no"},"71583":{"ref":"Arlandabanan","name":"Arlandabanan","type":"route","route":"railway"},"71586":{"ref":"Ostkustbanan","name":"Ostkustbanan","type":"route","route":"railway","name:fi":"Itäinen rantarata","name:sv":"Ostkustbanan"},"71594":{"ref":"Dalabanan","name":"Dalabanan","type":"route","route":"railway","operator":"Trafikverket","electrified":"contact_line","operator:wikidata":"Q1677108"},"71600":{"ref":"Bergslagsbanan","name":"Bergslagsbanan","type":"route","route":"railway","name:fi":"Bergslagenin rata","name:sv":"Bergslagsbanan","operator":"Trafikverket"},"71614":{"ref":"Godsstråket genom Bergslagen","name":"Godsstråket genom Bergslagen","type":"route","route":"railway","operator":"Trafikverket"},"71632":{"ref":"Bergslagspendeln","name":"Bergslagspendeln","type":"route","route":"railway","operator":"Trafikverket","operator:wikidata":"Q1677108"},"71645":{"name":"Värmlandsbanan","type":"route","route":"railway","old_name":"Nordvästra stambanan","wikidata":"Q54092"},"73517":{"ref":"Bollnäs-Orsa","name":"Bollnäs-Orsa","type":"route","route":"railway","wikidata":"Q802944","wikipedia":"de:Bahnstrecke Orsa–Bollnäs"},"73525":{"name":"Norra stambanan","type":"route","route":"railway","name:fi":"Pohjoinen kantarata","name:sv":"Norra stambanan","description:sv":"Norra stambanan, huvudsträckning"},"73527":{"ref":"Söderhamn-Kilafors","name":"Söderhamn-Kilafors","type":"route","route":"railway"},"73530":{"name":"Norra stambanan","type":"route","route":"railway","old_name":"Gävle-Ockelbo Järnväg","description:sv":"Norra stambanan, grenen Ockelbo-Gävle"},"73532":{"ref":"Stambanan genom övre Norrland","name":"Stambanan genom övre Norrland","type":"route","route":"railway","name:fi":"Norlannin kantarata","name:sv":"Stambanan genom övre Norrland"},"73534":{"ref":"Mälarbanan","name":"Mälarbanan","type":"route","route":"railway","name:fi":"Mälarinrata","name:sv":"Mälarbanan","operator":"Trafikverket","wikidata":"Q2002112","wikipedia":"sv:Mälarbanan","operator:wikidata":"Q1677108"},"73546":{"ref":"Sala-Eskilstuna-Oxelösund","name":"Sala-Eskilstuna-Oxelösund","type":"route","route":"railway","operator":"Trafikverket","operator:wikidata":"Q1677108"},"73551":{"ref":"Haparandabanan","name":"Haparandabanan","type":"route","route":"railway","name:fi":"Haaparannan rata","name:sv":"Haparandabanan"},"73557":{"ref":"BDL 153","name":"Forsmo-Hoting","type":"route","route":"railway","operator":"Trafikverket","wikidata":"Q802459","operator:wikidata":"Q1677108"},"73559":{"ref":"Ådalsbanan","name":"Ådalsbanan","type":"route","route":"railway","name:fi":"Ådalenin rata","name:sv":"Ådalsbanan","operator":"Trafikverket","wikidata":"Q1799633","operator:wikidata":"Q1677108"},"73560":{"name":"Fryksdalsbanan","type":"route","route":"railway","wikidata":"Q802531"},"73561":{"name":"Norge/Vänerbanan","type":"route","route":"railway","wikidata":"Q1185739"},"73564":{"ref":"Västerdalsbanan","name":"Västerdalsbanan","type":"route","route":"railway","wikidata":"Q7984921","electrified":"no"},"73568":{"ref":"Botniabanan","name":"Botniabanan","type":"route","route":"railway","name:fi":"Botnian rata"},"73570":{"ref":"Mellansel-Örnsköldsvik","name":"Mellansel-Örnsköldsvik","type":"route","route":"railway"},"73578":{"ref":"Karlsborgsbanan","name":"Karlsborgsbanan","type":"route","route":"railway"},"73579":{"ref":"Vännäs-Holmsund","name":"Vännäs-Holmsund","type":"route","route":"railway"},"73580":{"ref":"Halmstad-Nässjö","name":"Halmstad-Nässjö","type":"route","route":"railway"},"73581":{"ref":"Vaggerydsbanan","name":"Vaggerydsbanan","type":"route","route":"railway","operator":"Trafikverket"},"73582":{"ref":"Mora-Märbäck","name":"Mora-Märbäck","type":"route","route":"railway"},"73585":{"ref":"Kontinentalbanan","name":"Kontinentalbanan","type":"route","route":"railway"},"73586":{"name":"Ystadbanan","type":"route","route":"railway"},"73587":{"ref":"Österlenbanan","name":"Österlenbanan","type":"route","route":"railway"},"73589":{"ref":"Öresundsbanan","name":"Öresundsbanan","type":"route","route":"railway"},"73591":{"ref":"Hällnäs-Storuman","name":"Hällnäs-Storuman","type":"route","route":"railway"},"77782":{"name":"Wadstena Fogelsta Järnväg","type":"route","route":"railway","wikidata":"Q10719036","wikipedia":"sv:Wadstena-Fogelsta Järnväg"},"166222":{"name":"Nyköpingsbanan","type":"route","route":"railway"},"199016":{"ref":"Bockabanan","name":"Bockabanan (Nässjö-Hultsfred)","type":"route","route":"railway","electrified":"no"},"199020":{"ref":"BDL 833","name":"Berga-Oskarshamn","type":"route","route":"railway","electrified":"no"},"199021":{"ref":"Stångådalsbanan","name":"Stångådalsbanan","type":"route","route":"railway","electrified":"no"},"199022":{"ref":"Tjustbanan","name":"Tjustbanan","type":"route","route":"railway","electrified":"no"},"199023":{"ref":"HVJ","name":"Smalspårsjärnvägen Hultsfred-Västervik","type":"route","route":"railway","usage":"branch","website":"https://www.smalsparet.se/","wikidata":"Q10671903","wikipedia":"sv:Järnvägslinjen Växjö-Hultsfred-Västervik","wikimedia_commons":"File:L18p_3147_Ankarsrum_19.07.09_(1).JPG"},"300046":{"ref":"Piteåbanan","name":"Piteåbanan","type":"route","route":"railway"},"332038":{"ref":"Skellefteåbanan","name":"Skellefteåbanan","type":"route","route":"railway","name:fi":"Skellefteån rata","name:sv":"Skellefteåbanan"},"394992":{"ref":"Jörn-Arvidsjaur","name":"Jörn-Arvidsjaur","type":"route","route":"railway","wikidata":"Q802491"},"1130486":{"ref":"Dal-Västra Värmlands Järnväg","name":"Dal-Västra Värmlands Järnväg","type":"route","route":"railway"},"1135712":{"ref":"Älmhult-Olofström","name":"Älmhult-Olofström","type":"route","route":"railway"},"1138796":{"ref":"Nora Bergslags Järnväg","name":"Nora Bergslags Järnväg","type":"route","route":"railway"},"1141522":{"ref":"Ljusne-Stugsund","name":"Ljusne-Stugsund","type":"route","route":"railway"},"1189887":{"ref":"NBVJ (Nora - Bofors)","name":"Nora Bergslags Veteranjärnväg","type":"route","route":"railway"},"1191070":{"ref":"NBVJ (Nora - Ervalla)","name":"Nora Bergslags Veteranjärnväg","type":"route","route":"railway"},"1191071":{"ref":"NBVJ (Pershyttan)","name":"Nora Bergslags Veteranjärnväg","type":"route","route":"railway"},"1273363":{"name":"Grycksbobanan","type":"route","route":"railway","wikidata":"Q802943","wikipedia":"sv:Grycksbobanan"},"1273399":{"name":"Siljansbanan","type":"route","route":"railway"},"1356336":{"name":"Citytunneln","type":"route","route":"railway"},"1473459":{"name":"Gamla Haparandabanan","type":"route","route":"railway"},"1580812":{"name":"MaSJ, Marma - Sandarne Järnväg","type":"route","route":"railway","source":"historical","railway":"abandoned"},"1702639":{"name":"Lysekilsbanan","type":"route","route":"railway","wikidata":"Q10571692"},"1931817":{"ref":"BDL 872","name":"Emådalsbanan","type":"route","route":"railway","workrules":"SE:S"},"1931831":{"ref":"BDL 873","name":"Emådalsbanan (Pauliströmgrenen)","type":"route","route":"railway","workrules":"SE:S"},"2116925":{"name":"Kimstad-Finspång","type":"route","route":"railway"},"3404332":{"name":"Åhusbanan","type":"route","route":"railway"},"4104416":{"name":"Västra Stambanan (gamla sträckan)","type":"route","route":"railway","name:fi":"Läntinen kantarata (vanha reitti)","name:sv":"Västra Stambanan (gamla sträckan)"},"4104515":{"ref":"BDL 116","name":"Svappavaarabanan","type":"route","route":"railway","operator":"Trafikverket"},"4104592":{"name":"Ängelsberg-Snyten","type":"route","route":"railway","operator":"Trafikverket"},"4104601":{"name":"Örbyhus-Hallstavik","type":"route","route":"railway","operator":"Trafikverket","operator:wikidata":"Q1677108"},"4104629":{"name":"Mälarbanan (Frövi-Jädersbruk)","type":"route","route":"railway","operator":"Trafikverket","wikidata":"Q2002112"},"4140752":{"name":"Ovansjö-Ångebyn-Moradal","type":"route","route":"railway"},"4140753":{"name":"Railway line Ånge-Ånge godsbangård-Ångebyn","type":"route","route":"railway","operator":"Trafikverket"},"4149711":{"ref":"BDL 591","name":"Kumla-Närkes Kvarntorp","type":"route","route":"railway","operator":"Trafikverket"},"4153470":{"ref":"BDL 413","name":"Södertäljebanan","type":"route","route":"railway","operator":"Trafikverket","operator:wikidata":"Q1677108"},"4167562":{"name":"Karlberg-Tomteboda/Hagalund/Ulriksdal","type":"route","route":"railway","description":"Railway line for freight trains and service trains from/to Stockholm central station"},"4168101":{"ref":"BDL 603","name":"Hamnbanan","type":"route","route":"railway","operator":"Trafikverket","operator:wikidata":"Q1677108"},"4168548":{"name":"Koskullskullebanan","type":"route","route":"railway","operator":"Trafikverket"},"4168963":{"name":"Blomstermåla-Mönsterås bruk","type":"route","route":"railway","operator":"Trafikverket","wikidata":"Q15444940","wikipedia":"sv:Järnvägslinjen Blomstermåla–Mönsterås"},"4170224":{"name":"Värtabanan","type":"route","route":"railway","operator":"Trafikverket","operator:wikidata":"Q1677108"},"4170246":{"name":"Grundbro-Åkers styckebruk","type":"route","route":"railway","operator":"Trafikverket"},"4173631":{"name":"Gävle godsbangård-Fliskär","type":"route","route":"railway"},"5651940":{"name":"Skoghallsbanan","type":"route","route":"railway"},"5652107":{"name":"Alvhem-Lilla Edet","type":"route","route":"railway"},"6145330":{"name":"Lelångenbanan","type":"route","gauge":"891","route":"railway","railway":"abandoned","wikidata":"Q10708432","wikipedia":"sv:Uddevalla–Lelångens Järnväg"},"6752428":{"name":"Torup-Hyltebruk","type":"route","route":"railway"},"6752430":{"name":"Landeryd-Smålands Burseryd","type":"route","route":"railway"},"6753911":{"name":"Dellenbanan","type":"route","route":"railway"},"6760950":{"name":"Gärsnäs-Sankt Olof-Brösarp","type":"route","route":"railway","usage":"tourism","short_name":"Gärsnäs-S:t Olof-Brösarp"},"6804332":{"name":"Citybanan","type":"route","route":"railway","name:fi":"Keskustarata","name:sv":"Citybanan"},"6804551":{"name":"Malmbanan (Kirunaslingan)","type":"route","route":"railway"},"7140719":{"fee":"no","ref":"33","name":"Å33 - Bergbanan","type":"route","route":"railway","duration":"0:08:00","heritage":"yes","wikidata":"Q4993039","wikipedia":"en:Åre Bergbana","start_date":"1910","wheelchair":"no"},"7400228":{"name":"Järnvägslinjen Växjö-Hultsfred-Västervik","type":"route","route":"railway","wikipedia":"sv:Järnvägslinjen Växjö-Hultsfred-Västervik","description":"Once a through line, now partially razed, abandonded, perserved and rail"},"7400330":{"name":"Föreningen Smalspåret Växjö-Västervik","type":"route","route":"railway","railway":"preserved","description":"One return trip Virserum-Åseda by train each saturday + some other occations. Otherwise you may use a railbike."},"7813504":{"name":"Industrispåret Södra station–Hammarbyhamnen–Stadsgården","type":"route","route":"railway","wikidata":"Q10535320","wikipedia":"sv:Industrispåret Södra station–Hammarbyhamnen–Stadsgården"},"9060414":{"name":"Malmköpings Museispårväg","type":"route","route":"railway"}}