{"2257794":{"name":"Lavanttalbahn","type":"route","route":"railway","wikidata":"Q1384829","wikipedia":"de:Lavanttalbahn"},"2564571":{"ref":"31","name":"Železniška proga Velenje-Celje","type":"route","route":"railway","operator":"SŽ Infrastruktura"},"3436964":{"ref":"32","name":"Državna meja - Rogatec - Grobelno","type":"route","route":"railway","operator":"SŽ"},"3436973":{"ref":"33","name":"Državna meja - Imeno - Stranje","type":"route","route":"railway","operator":"SŽ Infrastruktura"},"3437042":{"ref":"62","name":"Cepišče Prešnica - Koper","type":"route","route":"railway","operator":"SŽ Infrastruktura"},"3437043":{"ref":"61","name":"Cepišče Prešnica - Podgorje - državna meja","type":"route","route":"railway","operator":"SŽ Infrastruktura"},"3437074":{"ref":"80","name":"Državna meja - Metlika - Ljubljana","type":"route","route":"railway","operator":"SŽ"},"3437075":{"ref":"72","name":"Prvačina - Ajdovščina","type":"route","route":"railway","operator":"SŽ Infrastruktura"},"3437105":{"ref":"81","name":"Sevnica - Trebnje","type":"route","route":"railway","name:de":"Lichtenwald - Treffen","operator":"SŽ"},"10291967":{"name":"Cepišče Koper - Koper potniška","type":"route","route":"railway","operator":"SŽ Infrastruktura","start_date":"1979-05-25"},"10291968":{"name":"Cepišče Prešnica - Koper tovorna","type":"route","route":"railway","operator":"SŽ Infrastruktura","start_date":"1967-12-2"},"10649992":{"to":"Gorizia Centrale","ref":"68","from":"Nova Gorica","name":"Nova Gorica - Gorizia C.le","type":"route","route":"railway","operator":"RFI","operator:wikidata":"Q1060049"},"11963707":{"name":"Ferrovia Tarvisio-Lubiana","type":"route","route":"railway","railway":"abandoned","wikidata":"Q803313","wikipedia":"en:Tarvisio–Ljubljana Railway"},"12176938":{"name":"Južna železnica: Ljubljana-Trst (1945-1947)","type":"route","route":"railway","name:de":"Südbahn: Laibach-Triest (1945-1947)","name:it":"Ferrovia Meridionale: Lubiana-Trieste (1945-1947)","railway":"abandoned"},"12176939":{"name":"Južna železnica: Ljubljana-Trst (1856-1947)","type":"route","route":"railway","name:de":"Südbahn: Laibach-Triest (1856-1947)","name:it":"Ferrovia Meridionale: Lubiana-Trieste (1856-1947)","railway":"abandoned"},"15696406":{"to":"Jesenice","via":"Klagenfurt","from":"Sankt Veit an der Glan","name":"Rosentalbahn","type":"route","route":"railway","wikipedia":"de:Rosentalbahn"}}