{"253402":{"to":"Lenartovce","ref":"92Q","from":"Bánréve","name":"92Q: Bánréve–Lenartovce","type":"route","route":"railway","operator":"MÁV","source:ref":"VPE","operator:wikidata":"Q168082"},"319717":{"ref":"154","name":"Trať mládeže","note":"Táto relácia reprezentuje trať v cestovnom poriadku, nie premávajúce vlaky, nedopĺňajte sem stanice, nemeňte číslo podľa čísla traťového úseku.","type":"route","owner":"ŽSR","route":"railway","network":"ŽSR","operator":"ZSSK","wikidata":"Q802462","wikipedia":"sk:Železničná trať Hronská Dúbrava – Banská Štiavnica","description":"Hronská Dúbrava - Banská Štiavnica","owner:wikidata":"Q393524"},"366342":{"ref":"100","name":"Bratislava - Devínska Nová Ves (- Marchegg)","note":"Táto relácia reprezentuje trať v cestovnom poriadku, nie premávajúce vlaky, nedopĺňajte sem stanice, nemeňte číslo podľa čísla traťového úseku.","type":"route","owner":"ŽSR","route":"railway","name:de":"Bratislava - Theben-Neudorf (- Marchegg)","network":"ŽSR","operator":"ZSSK","wikidata":"Q5017612","wikipedia":"sk:Železničná trať Bratislava – Marchegg","owner:wikidata":"Q393524"},"366343":{"ref":"101","name":"Bratislava - št. hranica (- Kittsee - Wien)","note":"Táto relácia reprezentuje trať v cestovnom poriadku, nie premávajúce vlaky, nedopĺňajte sem stanice, nemeňte číslo podľa čísla traťového úseku.","type":"route","owner":"ŽSR","route":"railway","network":"ŽSR","operator":"ZSSK","wikidata":"Q5017703","wikipedia":"sk:Železničná trať Bratislava – Kittsee – Wien","owner:wikidata":"Q393524"},"2243648":{"ref":"122","name":"Trenčianska elektrická železnica","note":"Táto relácia reprezentuje trať v cestovnom poriadku, nie premávajúce vlaky, nedopĺňajte sem stanice, nemeňte číslo podľa čísla traťového úseku.","type":"route","gauge":"760","owner":"ŽSR","route":"railway","network":"ŽSR","operator":"TREŽ","wikidata":"Q1516568","wikipedia":"sk:Trenčianska elektrická železnica","description":"Trenčianska Teplá - Trenčianske Teplice","owner:wikidata":"Q393524"},"2406863":{"ref":"803","name":"Piešťany – Vrbové","type":"route","route":"railway","wikidata":"Q15628458","wikipedia":"sk:Železničná trať Piešťany – Vrbové"},"2410200":{"name":"Nitrianska poľná železnica","type":"route","gauge":"760","route":"railway","website":"http://npz.yw.sk/","operator":"Slovenské poľnohospodárske múzeum Nitra","wikidata":"Q12772550","wikipedia":"sk:Nitrianska poľná železnica"},"2414723":{"name":"Pozemná lanovka Starý Smokovec – Hrebienok","type":"route","gauge":"1000","route":"railway","name:de":"Standseilbahn Starý Smokovec–Hrebienok","name:hu":"Ótátrafüredi Siklóvasút","name:pl":"Kolejka na Smokowieckie Siodełko","operator":"Tatry mountain resorts","wikidata":"Q842453","wikipedia":"sk:Pozemná lanová dráha Starý Smokovec – Hrebienok"},"2417421":{"name":"Historická lesná úvraťová železnica","type":"route","gauge":"760","route":"railway","website":"https://www.kysuckemuzeum.sk/","operator":"Kysucké múzeum","wikidata":"Q837155","wikipedia":"sk:Historická lesná úvraťová železnica"},"2417875":{"name":"Košická detská železnica","type":"route","gauge":"1000","route":"railway","website":"http://www.detskazeleznica.sk/","operator":"OZ Detská železnica","wikidata":"Q2655053","wikipedia":"sk:Čermeľská železnica"},"2448612":{"name":"Oravská lesná železnica","type":"route","gauge":"760","route":"railway","name:pl":"Orawska Kolej Leśna","website":"http://www.oravamuzeum.sk/","operator":"Oravské múzeum","wikidata":"Q3507956","wikipedia":"sk:Oravská lesná železnica"},"13288402":{"via":"Muránska Lehota","name":"Gemerské spojky:Revúca - Tisovec","type":"route","route":"railway","wikidata":"Q37813579","wikipedia":"sk:Gemerské spojky"},"14866521":{"name":"Gemerské spojky:Slavošovce - Lubeník","type":"route","route":"railway","wikidata":"Q37813579","wikipedia":"sk:Gemerské spojky"}}