{"2668592":{"ref":"6","name":"خط تونس - القصرين","type":"route","route":"railway","name:ar":"خط تونس - القصرين","name:fr":"Ligne Tunis - Kasserine","operator":"الشركة الوطنية للسكك الحديدية التونسية","operator:ar":"الشركة الوطنية للسكك الحديدية التونسية","operator:website":"http://www.sncft.com.tn/Ar/","operator:wikidata":"Q2297197","operator:wikipedia":"ar:الشركة الوطنية للسكك الحديدية التونسية","operator:wikipedia:ar":"الشركة الوطنية للسكك الحديدية التونسية"},"2668593":{"ref":"9","name":"خط فاج تامر - تاجروين","type":"route","route":"railway","name:ar":"خط فاج تامر - تاجروين","name:fr":"Ligne De Fej Tameur - Tajerouine","network":"الشركة الوطنية للسكك الحديدية التونسية","operator":"الشركة الوطنية للسكك الحديدية التونسية","wikidata":"Q3239532","operator:ar":"الشركة الوطنية للسكك الحديدية التونسية","operator:website":"http://www.sncft.com.tn/Ar/","operator:wikidata":"Q2297197","operator:wikipedia":"ar:الشركة الوطنية للسكك الحديدية التونسية","operator:wikipedia:ar":"الشركة الوطنية للسكك الحديدية التونسية"},"6775020":{"name":"ضاحية الساحل سوسة - المهدية","type":"route","route":"railway","name:ar":"ضاحية الساحل سوسة - المهدية","name:fr":"Banlieue Sahel Sousse - Mahdia","network":"الشركة الوطنية للسكك الحديدية التونسية","operator":"الشركة الوطنية للسكك الحديدية التونسية","wikidata":"Q3333809","operator:ar":"الشركة الوطنية للسكك الحديدية التونسية","operator:website":"http://www.sncft.com.tn/Ar/","operator:wikidata":"Q2297197","operator:wikipedia":"ar:الشركة الوطنية للسكك الحديدية التونسية","operator:wikipedia:ar":"الشركة الوطنية للسكك الحديدية التونسية"},"6776536":{"name":"الرديف - المتلوي","type":"route","gauge":"1000;1435","route":"railway","name:ar":"الرديف - المتلوي","name:en":"Redeyef - Metlaoui","operator":"الشركة الوطنية للسكك الحديدية التونسية","wikidata":"Q3239946","operator:ar":"الشركة الوطنية للسكك الحديدية التونسية","operator:website":"http://www.sncft.com.tn/Ar/","operator:wikidata":"Q2297197","operator:wikipedia":"ar:الشركة الوطنية للسكك الحديدية التونسية","operator:wikipedia:ar":"الشركة الوطنية للسكك الحديدية التونسية"},"6792885":{"name":"خط الجنوب الكبير","type":"route","route":"railway","name:ar":"خط الجنوب الكبير","name:fr":"Ligne du Grand Sud","operator":"الشركة الوطنية للسكك الحديدية التونسية","operator:ar":"الشركة الوطنية للسكك الحديدية التونسية","operator:website":"http://www.sncft.com.tn/Ar/","operator:wikidata":"Q2297197","operator:wikipedia":"ar:الشركة الوطنية للسكك الحديدية التونسية","operator:wikipedia:ar":"الشركة الوطنية للسكك الحديدية التونسية"},"6795063":{"to":"الملاحات","from":"الكاف","name":"الكاف - الملاحات","type":"route","route":"railway","to:ar":"الملاحات","from:ar":"الكاف","name:ar":"الكاف - الملاحات","name:fr":"El Kef - Les Salines","network":"الشركة الوطنية للسكك الحديدية التونسية","operator":"الشركة الوطنية للسكك الحديدية التونسية","operator:ar":"الشركة الوطنية للسكك الحديدية التونسية","operator:website":"http://www.sncft.com.tn/Ar/","operator:wikidata":"Q2297197","operator:wikipedia":"ar:الشركة الوطنية للسكك الحديدية التونسية","operator:wikipedia:ar":"الشركة الوطنية للسكك الحديدية التونسية"}}