{"1180009":{"name":"İZBAN Kuzey Aksı","type":"route","gauge":"1435","route":"railway","colour":"orange","name:de":"İZBAN 3","name:en":"İZBAN Northern line","operator":"İZBAN","wikidata":"Q7058666"},"1302026":{"line":"rail","name":"Yolçatı - Kurtalan hattı","type":"route","route":"railway","name:en":"Yolçatı - Kurtalan line","network":"TR-railway","operator":"TCDD","description":"Railway line from Yolçatı via Diyarbakır and Batman to Kurtalan","operator:wikidata":"Q28220824"},"1305921":{"name":"Kayseri - Sivas hattı","type":"route","route":"railway","name:en":"Kayseri - Sivas line","network":"TR-railway"},"1308636":{"name":"Toprakkale - İskenderun hattı","type":"route","route":"railway","name:en":"Toprakkale - İskenderun line","network":"TR-railway","operator":"TCDD","operator:wikidata":"Q28220824"},"1309101":{"name":"Adana - Toprakkale hattı","type":"route","route":"railway","name:en":"Adana - Toprakkale line","network":"TR-railway"},"1309102":{"name":"Toprakkale - Fevzipaşa hattı","type":"route","route":"railway","name:de":"Bahnstrecke Toprakkale - Fevzipaşa","name:en":"Toprakkale - Fevzipaşa line","network":"TR-railway"},"1309103":{"to":"Köprüağzı","from":"Kahramanmaraş","name":"Kahramanmaraş - Köprüağzı hattı","type":"route","route":"railway","name:en":"Kahramanmaraş - Köprüağzı lıne","network":"TR-railway","operator":"TCDD","operator:wikidata":"Q28220824"},"1309104":{"to":"Narlı","from":"Fevzipaşa","name":"Fevzipaşa - Narlı hattı","type":"route","route":"railway","name:en":"Fevzipaşa - Narlı line","network":"TR-railway","operator":"TCDD","operator:wikidata":"Q28220824"},"1309569":{"to":"Suriye hudut hatt","from":"Fevzipaşa","name":"Fevzipaşa - Tahtaköprü - Suriye hudut hattı","type":"route","route":"railway","name:en":"Fevzipaşa - Tahtaköprü - Syria border line","network":"TR-railway","operator":"TCDD","operator:wikidata":"Q28220824"},"1309912":{"name":"Narlı - Malatya hattı","type":"route","route":"railway","name:en":"Narlı - Malatya line","network":"TR-railway"},"1311773":{"name":"Kangal hattı","type":"route","route":"railway","name:en":"Kangal line","network":"TR-railway"},"1311774":{"name":"Malatya - Yolçatı hattı","type":"route","route":"railway","name:en":"Malatya - Yolçatı line","network":"TR-railway"},"1314387":{"name":"Gümüşgün - Eğirdir hattı","type":"route","gauge":"1435","route":"railway","disused":"yes","name:en":"Gümüşgün - Eğirdir line","network":"TR-railway"},"1314389":{"name":"Karakuyu - Burdur hattı","type":"route","gauge":"1435","route":"railway","name:en":"Karakuyu - Burdur line","network":"TR-railway"},"1314421":{"to":"Denizli","from":"Izmir Alsancak","line":"rail","name":"Alsancak - Denizli hattı","type":"route","route":"railway","name:en":"İzmir (Alsancak) - Denizli railway","network":"TR-railway","operator":"TCDD","operator:wikidata":"Q28220824"},"1314422":{"name":"Goncalı (Denizli) - Karakuyu hattı","type":"route","gauge":"1435","route":"railway","name:en":"Goncalı (Denizli) - Dinar- Karakuyu line","network":"TR-railway"},"1315616":{"line":"rail","name":"Ortaklar - Söke hattı","type":"route","route":"railway","name:en":"Ortaklar - Söke line","operator":"TCDD"},"1315978":{"line":"rail","name":"Torbalı - Çatal - Ödemiş hattı","type":"route","route":"railway","name:en":"Torbalı - Çatal - Ödemiş line","network":"TR-railway","operator":"TCDD","operator:wikidata":"Q28220824"},"1315979":{"to":"Tire","from":"Çatal","name":"Çatal - Tire hattı","type":"route","route":"railway","name:en":"Çatal - Tire line","network":"TR-railway","operator":"TCDD"},"1316775":{"name":"Balıkesir - Kütahya hattı","type":"route","route":"railway","name:en":"Balıkesir - Kütahya railway line","network":"TR-railway","operator":"TCDD","operator:wikidata":"Q28220824"},"1316776":{"name":"Balıkesir - Bandırma hattı","type":"route","route":"railway","name:en":"Balıkesir - Bandırma line","network":"TR-railway"},"1317857":{"name":"Kütahya - Afyon hattı","type":"route","route":"railway","name:en":"Kütahya - Afyon line","network":"TR-railway","operator":"TCDD","operator:wikidata":"Q28220824"},"1318125":{"name":"Konya - Afyon hattı","type":"route","gauge":"1435","route":"railway","name:en":"Konya - Afyon line","network":"TR-railway"},"1318160":{"name":"Afyon - Karakuyu hattı","type":"route","route":"railway","name:en":"Afyon - Karakuyu railway line","network":"TR-railway"},"1318375":{"name":"Manisa - Balıkesir hattı","type":"route","gauge":"1435","route":"railway","name:en":"Manisa - Balıkesir line","name:tr":"Manisa - Balıkesir hattı","network":"TR-railway"},"1320904":{"name":"Polatlı - Irmak hattı","type":"route","gauge":"1435","route":"railway","name:en":"Polatlı - Irmak line","network":"TR-railway"},"1320905":{"name":"Irmak - Zonguldak demiryolu","type":"route","route":"railway","name:en":"Irmak - Zonguldak line"},"1320906":{"name":"Irmak - Kayseri hattı","type":"route","route":"railway","name:en":"Irmak - Kayseri line","network":"TR-railway"},"1323253":{"name":"Sirkeci - Uzunköprü - Hudut hattı","type":"route","gauge":"1435","route":"railway","name:en":"Sirkeci - Uzunköprü railway line","network":"TR-railway","alt_name":"Bağdat Demiryolu","operator":"TCDD","description":"Railway line from the Greek border to Sirkeci station in Istanbul","network:type":"mainline","operator:wikidata":"Q28220824","operator:wikipedia":"tr:TCDD Taşımacılık"},"1323254":{"name":"Alpullu - Kırklareli hattı","type":"route","gauge":"1435","route":"railway","name:en":"Alpullu - Kırklareli railway line","operator":"TCDD","operator:wikidata":"Q28220824"},"1483167":{"name":"Çetinkaya - Ermenistan hudut hattı","type":"route","route":"railway","name:en":"Çetinkaya - Armenia border line","network":"TR-railway","description":"Railway line from Çetinkaya via Erzincan, Erzurum, Kars to Armenia border"},"1752960":{"name":"Bostankaya - Sivas hattı","type":"route","route":"railway","name:en":"Bostankaya - Sivas line","network":"TR-railway"},"1752961":{"name":"Bostankaya - Çetinkaya hattı","type":"route","route":"railway","name:en":"Bostankaya - Çetinkaya line","network":"TR-railway"},"2195006":{"name":"Menemen - Aliağa hattı","type":"route","gauge":"1435","route":"railway","name:en":"Menemen - Aliağa line","network":"TR-railway"},"2195007":{"name":"Menemen - Manisa hattı","type":"route","gauge":"1435","route":"railway","name:en":"Menemen - Manisa line","network":"TR-railway"},"2284188":{"name":"Malatya - Çetinkaya hattı","type":"route","route":"railway","name:en":"Malatya - Çetinkaya line","network":"TR-railway"},"2362262":{"name":"Çobanisa-Kemalpaşa demiryolu","type":"route","route":"railway","name:en":"Çobanisa-Kemalpaşa railway line","network":"TR-railway","alt_name":"Turgutlu-Kemalpaşa demiryolu","wikidata":"Q5995181"},"2678516":{"name":"Hanlı Bostankaya Hattı","type":"route","route":"railway","network":"TR-railway","operator":"TCDD"},"2812688":{"name":"Ereğli Armutcuk line","type":"route","route":"railway","network":"TR-railways","operator":"TCDD"},"3671015":{"name":"Manisa - Afyon hattı","type":"route","gauge":"1435","route":"railway","name:en":"Manisa - Afyon railway line","network":"TR-railway","operator":"TCDD","operator:wikidata":"Q28220824"},"3671431":{"to":"Afyon","via":"Uşak","from":"Izmir","name":"Izmir Afyon Uşak Hattı","type":"route","gauge":"1435","route":"railway","name:en":"Izmir Afyon railway via Uşak","network":"TCDD","operator":"TCDD Taşımacılık","network:short":"TCDD","network:wikidata":"Q499967","network:wikipedia":"tr:Türkiye Cumhuriyeti Devlet Demiryolları","operator:wikidata":"Q28220824","operator:wikipedia":"tr:TCDD Taşımacılık","public_transport:version":"2"},"3705467":{"name":"Muratlı - Tekirdag Hattı","type":"route","route":"railway","name:en":"Muratlı - Tekirdağ Railway","operator":"TCDD","operator:wikidata":"Q28220824"},"4511370":{"to":"Sirkeci","from":"Edirne","name":"Edirne - Sirkeci","type":"route","route":"railway"},"7809415":{"name":"Çetinkaya - Kars","type":"route","route":"railway","name:en":"Çetinkaya - Kars line"},"9111421":{"name":"Adapazarı to Arifye hattı","type":"route","route":"railway","name:en":"Adapazarı to Arifye railway","network":"TR-railways","operator":"TCDD","operator:wikidata":"Q28220824"},"15395038":{"name":"Sincan-Ayaş-Nallıhan-Mudurnu-İstanbul yüksek hızlı demiryolu","type":"route","route":"railway","name:en":"Sincan-Ayaş-Nallıhan-Mudurnu-İstanbul high-speed railway"},"15737594":{"from":"Kayaş","name":"Başkentray","type":"route","route":"railway","name:de":"S-Bahn Ankara"}}