{"1941061":{"ref":"L","name":"JR舞鶴線","type":"route","route":"railway","colour":"#4682B4","name:en":"JR Maizuru Line","name:ja":"JR舞鶴線","operator":"西日本旅客鉄道","operator:en":"West Japan Railway Company","operator:ja":"西日本旅客鉄道","operator:wikidata":"Q502125"},"5149859":{"to":"菁桐","ref":"ㄆㄑㄒ","from":"三貂嶺","name":"平溪線","type":"route","gauge":"1067","route":"railway","name:en":"Pingxi Line","name:zh":"平溪線","network":"臺灣鐵路","distance":"12.9","name:nan":"Pêng-khoe-soaⁿ","operator":"臺灣鐵路管理局","wikidata":"Q7195849","wikipedia":"zh:平溪線","network:en":"TRA","start_date":"1921-07","electrified":"no","name:nan-TL":"Pîng-khue-suann","name:nan-POJ":"Pêng-khoe-soaⁿ","public_transport:version":"1"},"5149860":{"to":"海科館","ref":"ㄣㄠㄒ","from":"瑞芳","name":"深澳線","type":"route","gauge":"1067","route":"railway","usage":"branch","name:en":"Shen'ao Line","name:zh":"深澳線","distance":"6.0","name:nan":"Chhim-ò-soaⁿ","operator":"臺灣鐵路管理局","wikidata":"Q11153409","wikipedia":"zh:深澳線","electrified":"no","name:nan-TL":"Tshim-ò-suann","operator:en":"Taiwan Railways Administration","operator:zh":"臺灣鐵路管理局","name:nan-POJ":"Chhim-ò-soaⁿ","operator:wikidata":"Q697926"},"5867231":{"ref":"一ㄌㄒ","name":"宜蘭線 (逆行)","type":"route","gauge":"1067","route":"railway","usage":"main","name:en":"Ilan Line (Oppsite Run)","name:zh":"宜蘭線 (逆行)","network":"臺鐵","voltage":"25000","distance":"93.6","name:nan":"Gî-lân-soaⁿ (Ge̍k-hêng)","operator":"臺灣鐵路管理局","wikidata":"Q8053591","wikipedia":"zh:宜蘭線","network:en":"TRA","short_name":"台鐵","start_date":"1924-11-30","name:nan-TL":"Gî-lân-suann (Gi̍k-hîng)","operator:en":"Taiwan Railways Administration","operator:zh":"臺灣鐵路管理局","name:nan-POJ":"Gî-lân-soaⁿ (Ge̍k-hêng)","operator:hak":"Thòi-vân Thiet-lu Kón-lî-khiu̍k","operator:nan":"Tâi-oân Thih-lō͘ Koán-lí-kio̍k","short_name:en":"TRA","short_name:zh":"台鐵","short_name:nan":"Tâi-thih","operator:nan-HJ":"臺灣鐵路管理局","operator:nan-TL":"Tâi-uân Thih-lōo Kuán-lí-kio̍k","operator:nan-POJ":"Tâi-oân Thih-lō͘ Koán-lí-kio̍k","operator:wikidata":"Q697926","short_name:nan-HJ":"台鐵","short_name:nan-TL":"Tâi-thih","short_name:nan-POJ":"Tâi-thih"},"5867232":{"ref":"一ㄌㄒ","name":"宜蘭線 (順行)","type":"route","gauge":"1067","route":"railway","usage":"main","name:en":"Ilan Line (Right Run)","name:zh":"宜蘭線 (順行)","network":"臺鐵","voltage":"25000","distance":"93.6","name:nan":"Gî-lân-soaⁿ (Sūn-hêng)","operator":"臺灣鐵路管理局","wikidata":"Q8053591","wikipedia":"zh:宜蘭線","network:en":"TRA","short_name":"台鐵","start_date":"1924-11-30","name:nan-TL":"Gî-lân-suann (Sūn-hîng)","operator:en":"Taiwan Railways Administration","operator:zh":"臺灣鐵路管理局","name:nan-POJ":"Gî-lân-soaⁿ (Sūn-hêng)","operator:hak":"Thòi-vân Thiet-lu Kón-lî-khiu̍k","operator:nan":"Tâi-oân Thih-lō͘ Koán-lí-kio̍k","short_name:en":"TRA","short_name:zh":"台鐵","short_name:nan":"Tâi-thih","operator:nan-HJ":"臺灣鐵路管理局","operator:nan-TL":"Tâi-uân Thih-lōo Kuán-lí-kio̍k","operator:nan-POJ":"Tâi-oân Thih-lō͘ Koán-lí-kio̍k","operator:wikidata":"Q697926","short_name:nan-HJ":"台鐵","short_name:nan-TL":"Tâi-thih","short_name:nan-POJ":"Tâi-thih"},"5867233":{"ref":"ㄗㄍㄒ","name":"縱貫線(北上)","type":"route","gauge":"1067","route":"railway","usage":"main","name:en":"West Coast Line (Northbound)","name:zh":"縱貫線(北上)","network":"臺鐵","voltage":"25000","alt_name":"西部幹線(北上)","distance":"125.4","name:nan":"Chhiòng-koàn-sòaⁿ (Chiūⁿ-pak)","operator":"臺灣鐵路管理局","wikidata":"Q11608157","wikipedia":"zh:縱貫線 (鐵路)","network:en":"TRA","short_name":"台鐵","start_date":"1902-08-10","name:nan-TL":"Tshiòng-kuàn-suann (Tsiūnn-pak)","operator:en":"Taiwan Railways Administration","operator:zh":"臺灣鐵路管理局","name:nan-POJ":"Chhiòng-koàn-sòaⁿ (Chiūⁿ-pak)","operator:hak":"Thòi-vân Thiet-lu Kón-lî-khiu̍k","operator:nan":"Tâi-oân Thih-lō͘ Koán-lí-kio̍k","short_name:en":"TRA","short_name:zh":"台鐵","short_name:nan":"Tâi-thih","operator:nan-HJ":"臺灣鐵路管理局","operator:nan-TL":"Tâi-uân Thih-lōo Kuán-lí-kio̍k","operator:nan-POJ":"Tâi-oân Thih-lō͘ Koán-lí-kio̍k","operator:wikidata":"Q697926","short_name:nan-HJ":"台鐵","short_name:nan-TL":"Tâi-thih","short_name:nan-POJ":"Tâi-thih"},"5867234":{"ref":"ㄗㄍㄒ","name":"縱貫線(南下)","type":"route","gauge":"1067","route":"railway","usage":"main","network":"臺鐵","voltage":"25000","alt_name":"西部幹線 (南下)","distance":"125.4","name:nan":"Chhiòng-koàn-soaⁿ (Lo̍h-lâm)","operator":"臺灣鐵路管理局","wikidata":"Q11608157","wikipedia":"zh:縱貫線 (鐵路)","network:en":"TRA","short_name":"台鐵","start_date":"1902-08-10","name:nan-TL":"Tsiòng-kuàn-suann (Lo̍h-lâm)","operator:en":"Taiwan Railways Administration","operator:zh":"臺灣鐵路管理局","name:nan-POJ":"Chhiòng-koàn-soaⁿ (Lo̍h-lâm)","operator:hak":"Thòi-vân Thiet-lu Kón-lî-khiu̍k","operator:nan":"Tâi-oân Thih-lō͘ Koán-lí-kio̍k","short_name:en":"TRA","short_name:zh":"台鐵","short_name:nan":"Tâi-thih","operator:nan-HJ":"臺灣鐵路管理局","operator:nan-TL":"Tâi-uân Thih-lōo Kuán-lí-kio̍k","operator:nan-POJ":"Tâi-oân Thih-lō͘ Koán-lí-kio̍k","operator:wikidata":"Q697926","short_name:nan-HJ":"台鐵","short_name:nan-TL":"Tâi-thih","short_name:nan-POJ":"Tâi-thih"}}