{"3466974":{"ref":"40-049","name":"дільниця 40-049 «Миколаїв — Херсон» (Основна тарифна дільниця)","type":"route","route":"railway","source":"Тарифное руководство № 4. Книга I","name:ru":"участок 40-049 «Николаев — Херсон» (Основной тарифный участок)","name:uk":"дільниця 40-049 «Миколаїв — Херсон» (Основна тарифна дільниця)","operator":"Одеська залізниця","operator:en":"Odessa Railways","operator:uk":"Одеська залізниця","operator:wikidata":"Q166574"},"3466991":{"ref":"40-048","name":"дільниця 40-048 «Снігурівка — Миколаїв» (Основна тарифна дільниця)","type":"route","route":"railway","source":"Тарифное руководство № 4. Книга I","name:ru":"участок 40-048 «Снигирёвка — Николаев» (Основной тарифный участок)","name:uk":"дільниця 40-048 «Снігурівка — Миколаїв» (Основна тарифна дільниця)","operator":"Одеська залізниця"},"3467034":{"ref":"40-047","name":"дільниця 40-047 «Долинська — Миколаїв» (Основна тарифна дільниця)","type":"route","route":"railway","source":"Тарифное руководство № 4. Книга I","name:ru":"участок 40-047 «Долинская — Николаев» (Основной тарифный участок)","name:uk":"дільниця 40-047 «Долинська — Миколаїв» (Основна тарифна дільниця)","operator":"Одеська залізниця","operator:en":"Odessa Railways","operator:uk":"Одеська залізниця","operator:wikidata":"Q166574"},"3468494":{"ref":"40-054","name":"дільниця 40-054 «Колосівка — Миколаїв» (Основна тарифна дільниця)","type":"route","route":"railway","source":"Тарифное руководство № 4. Книга I","name:ru":"участок 40-054 «Колосовка — Николаев» (Основной тарифный участок)","name:uk":"дільниця 40-054 «Колосівка — Миколаїв» (Основна тарифна дільниця)","operator":"Одеська залізниця"},"6664442":{"to":"Олевськ","ref":"6481;6483","from":"Коростень","name":"Коростень - Олевськ (6481, 6483)","type":"route","route":"railway","name:uk":"Коростень - Олевськ (6481, 6483)","operator":"Південно-Західна Залізниця"},"7079903":{"ref":"Ізюм - Харків","name":"Ізюм <-> Харків-Левада","type":"route","route":"railway","name:uk":"Ізюм <-> Харків-Левада"},"10039254":{"ref":"40-055","name":"дільниця 40-055 «Кульбакине — Жовтнева» (Основна тарифна дільниця)","type":"route","route":"railway","source":"Тарифное руководство № 4. Книга I","name:ru":"участок 40-055 «Кульбакино — Жовтневая» (Основной тарифный участок)","name:uk":"дільниця 40-055 «Кульбакине — Жовтнева» (Основна тарифна дільниця)","operator":"Одеська залізниця","operator:en":"Odessa Railways","operator:uk":"Одеська залізниця","operator:wikidata":"Q166574"},"10060196":{"ref":"40-062","name":"дільниця 40-062 «Миколаїв — Миколаїв-Вантажний» (Основна тарифна дільниця)","type":"route","route":"railway","source":"Тарифное руководство № 4. Книга I","name:ru":"участок 40-062 «Николаев — Николаев-Грузовой» (Основной тарифный участок)","name:uk":"дільниця 40-062 «Миколаїв — Миколаїв-Вантажний» (Основна тарифна дільниця)","operator":"Одеська залізниця"},"10060197":{"ref":"40-001","name":"дільниця 40-001 «Серпневе I — Арциз» (Основна тарифна дільниця)","type":"route","route":"railway","source":"Тарифное руководство № 4. Книга I","name:de":"Bahnstrecke Serpnewe I–Arzys","name:ru":"участок 40-001 «Серпнево I — Арцыз» (Основной тарифный участок)","name:uk":"дільниця 40-001 «Серпневе I — Арциз» (Основна тарифна дільниця)","operator":"Одеська залізниця","wikidata":"Q62104163","operator:en":"Odessa Railways","operator:uk":"Одеська залізниця","operator:wikidata":"Q166574"},"10060239":{"ref":"40-046","name":"дільниця 40-046 «Знам’янка — Долинська» (Основна тарифна дільниця)","type":"route","route":"railway","source":"Тарифное руководство № 4. Книга I","name:ru":"участок 40-046 «Знаменка — Долинская» (Основной тарифный участок)","name:uk":"дільниця 40-046 «Знам’янка — Долинська» (Основна тарифна дільниця)","operator":"Одеська залізниця"},"10060622":{"ref":"40-002","name":"дільниця 40-002 «Арциз — Ізмаїл» (Основна тарифна дільниця)","type":"route","route":"railway","source":"Тарифное руководство № 4. Книга I","name:ru":"участок 40-002 «Арцыз — Измаил» (Основной тарифный участок)","name:uk":"дільниця 40-002 «Арциз — Ізмаїл» (Основна тарифна дільниця)","operator":"Одеська залізниця","operator:en":"Odessa Railways","operator:uk":"Одеська залізниця","operator:wikidata":"Q166574"},"10065104":{"ref":"40-003","name":"дільниця 40-003 «Арциз — Одеса-Застава I» (Основна тарифна дільниця)","type":"route","route":"railway","source":"Тарифное руководство № 4. Книга I","name:de":"Bahnstrecke Odessa–Arzys","name:ru":"участок 40-003 «Арцыз — Одесса-Застава I» (Основной тарифный участок)","name:uk":"дільниця 40-003 «Арциз — Одеса-Застава I» (Основна тарифна дільниця)","operator":"Одеська залізниця","wikidata":"Q62104163","operator:en":"Odessa Railways","operator:uk":"Одеська залізниця","operator:wikidata":"Q166574"},"12492319":{"to":"Teresva","ref":"411","via":"Câmpulung la Tisa","from":"Sighetu Marmației","name":"Secția 411 Sighetu Marmației - Teresva","type":"route","route":"railway"},"12493091":{"to":"Berlibas","ref":"423","from":"Valea Vișeului","name":"Secția 423 Valea Vișeului - Berlibas","type":"route","route":"railway"}}