{"4726204":{"ref":"POB","name":"Peaks of the Balkans","type":"route","route":"hiking","colour":"red","network":"iwn","distance":"179","operator":"peaksofthebalkans.com","wikidata":"Q19298341","roundtrip":"yes","wikipedia":"de:Peaks of the Balkans"},"7347441":{"ref":"TT","name":"Thematic Trail","type":"route","route":"hiking","network":"lwn"},"7405796":{"name":"Rruga e Marashit","type":"route","route":"foot","name:de":"Marash-Weg","name:en":"Marash Trail","name:sq":"Rruga e Marashit","name:sr":"Staza Maraš","name:tr":"Maraş Yolu"},"7405797":{"name":"Rrugëtimi i Gurit","type":"route","route":"foot","name:de":"Reise des Steins","name:en":"Journey of the Stone","name:sr":"Putovanje Kamena","name:tr":"Taş Yolculuğu"},"7405798":{"ref":"Kalaja","name":"Përjetoni Kalanë e Prizrenit","type":"route","route":"foot","name:de":"Erleben Sie die Festung von Prizren","name:en":"Experience Prizren Castle","name:sq":"Përjetoni Kalanë e Prizrenit","name:sr":"Doživite Prizrensku Tvrđavu","name:tr":"Prizren Kalesini Yaşayin"},"7883603":{"name":"Oshlak Trail","type":"route","route":"hiking"},"8341488":{"ref":"1","name":"Derince Piknik Alanı-Yeşilköy-Esenköy","type":"route","route":"hiking","network":"lwn"},"8341499":{"ref":"2","name":"Derince piknik alanı -Yeşilköy","type":"route","route":"hiking","network":"lwn"},"8357831":{"name":"Afentrika Piknik Alanı","type":"route","route":"hiking","network":"lwn"},"11630515":{"ref":"AM-NW","name":"North to West Hiking Trail","type":"route","route":"hiking","network":"lwn"},"13051182":{"ref":"AM-SW","name":"South to West Hiking Trail","type":"route","route":"hiking","network":"lwn"},"13051563":{"ref":"KS01","name":"Vjellak Peak Trail","type":"route","route":"hiking","network":"lwn"},"13051632":{"ref":"KS02","name":"Guri i Kuq Peak Trail","type":"route","route":"hiking","network":"lwn"},"14274263":{"to":"Ayphlon","from":"Dipkarpaz","name":"Karpaz Ayphlon","type":"route","route":"hiking","colour":"green"},"14646121":{"name":"Symvoulos Dam Trail","type":"route","route":"hiking","network":"lwn","network:type":"lwn"},"14646318":{"name":"Apollo Hylates Nature Trail","type":"route","route":"hiking","network":"lwn","network:type":"lwn"},"14651389":{"name":"Agia Tillyria Nature Trail","type":"route","route":"hiking","network":"lwn","network:type":"lwn"},"15951884":{"name":"Via Dinarica","type":"route","route":"hiking","stage":"Stage 7","state":"proposed","network":"rwn"},"15951894":{"name":"Via Dinarica","type":"route","route":"hiking","stage":"Stage 1","state":"proposed","network":"rwn"},"15951956":{"name":"Via Dinarica","type":"route","route":"hiking","stage":"Stage 2","state":"proposed","network":"rwn"},"15951966":{"name":"Via Dinarica","type":"route","route":"hiking","stage":"Stage 3","state":"proposed","network":"rwn"},"15951973":{"name":"Via Dinarica","type":"route","route":"hiking","stage":"Stage 4","state":"proposed","network":"rwn"},"15952004":{"name":"Via Dinarica","type":"route","route":"hiking","stage":"Stage 5","state":"proposed","network":"rwn"},"15952034":{"name":"Via Dinarica","type":"route","route":"hiking","stage":"Stage 6","state":"proposed","network":"rwn"}}