{"3360496":{"ref":"HRP","name":"HRP Étape 31","type":"route","route":"hiking","name:ca":"HRP Etapa 31","network":"nwn"},"3360574":{"ref":"HRP","name":"HRP Étape 32","type":"route","route":"hiking","name:ca":"HRP Etapa 32","network":"nwn"},"3509400":{"to":"Arinsal","ref":"GR11","from":"Encamp","name":"GR11 E14 - Encamp - Arinsal","type":"route","route":"hiking","name:ca":"GR11 E14 - Encamp - Arinsal","network":"nwn","distance":"17","roundtrip":"no","description":"GR11 Etape 14 - Encamp - Arinsal"},"3509467":{"to":"Refugi de Vallferrera","ref":"GR11","from":"Encamp","name":"GR11 E15 - Arinsal - Refugi de Vallferrera","type":"route","route":"hiking","name:ca":"GR11 E15 - Arinsal - Refugi de Vallferrera","network":"nwn","distance":"19","roundtrip":"no","description":"GR11 Etape 15 - Arinsal - Refugi de Vallferrera"},"5330798":{"ref":"GR 7","name":"GR 7 Andorra - Estret de Gibraltar","type":"route","route":"hiking","name:ca":"GR 7 Andorra - Estret de Gibraltar","name:es":"GR 7 Andorra - Estrecho de Gibraltar","network":"nwn","operator":"Federació d'Entitats Excursionistes de Catalunya","osmc:symbol":"red:white:red_lower:4:black"},"5511185":{"ref":"CO","name":"Camí de l'Ossa","type":"route","route":"hiking","name:ca":"Camí de l'Ossa","network":"lwn","website":"http://www.camidelossa.com","distance":"36"},"5511920":{"ref":"GRP","name":"GRP La volta a Andorra","type":"route","route":"hiking","source":"http://visitandorra.com/ca/summer/itineraris/grp-d-andorra-la-volta-a-tot-un-pais/","name:ca":"GRP La volta a Andorra","network":"rwn","distance":"107","roundtrip":"yes","osmc:symbol":"red:orange:red_lower:GRP:black"},"6955560":{"to":"Cavana dels Esparvers","ref":"GR 11.10","from":"Cortals de Ramió","name":"GR 11.10","type":"route","route":"hiking","ascent":"3489","symbol":"white strip on top of red strip","descent":"1421","name:ca":"GR 11.10","network":"nwn","distance":"32.1","operator":"FEEC","wikidata":"Q3176636","wikipedia":"ca:GR 11","osmc:symbol":"red:white:red_lower:11.10:black"},"7091760":{"ref":"HRP Var.","name":"HRP Variante 31.1","type":"route","route":"hiking","name:ca":"HRP Variant 31.1","network":"nwn"},"7091815":{"ref":"HRP Var.","name":"HRP Variante 32.1","type":"route","route":"hiking","name:ca":"HRP Variant 32.1","network":"nwn"},"10603161":{"ref":"GR 11","name":"GR 11 Senda Pirenaica - E14","type":"route","route":"hiking","symbol":"white strip on top of red strip","name:ca":"GR-11 Sender del Pirineu","name:eu":"GR 11 Piriniotako Hegoaldeko Ibilbidea","network":"nwn","wikidata":"Q3176636","wikipedia":"ca:GR 11","osmc:symbol":"red:white:red_lower:11:black"},"10603859":{"ref":"GR 11","name":"GR 11 Senda Pirenaica - E15","type":"route","route":"hiking","symbol":"white strip on top of red strip","name:ca":"GR-11 Sender del Pirineu","name:eu":"GR 11 Piriniotako Hegoaldeko Ibilbidea","network":"nwn","wikidata":"Q3176636","wikipedia":"ca:GR 11","osmc:symbol":"red:white:red_lower:11:black"}}