{"1382462":{"name":"Planinarska staza na Maglaj","type":"route","route":"hiking","network":"lwn"},"1388685":{"name":"Planinska staza do Mračne pećine","type":"route","route":"hiking","network":"lwn"},"1466204":{"name":"Planinarska staza na Konj I","type":"route","route":"foot","network":"lwn"},"1466207":{"name":"Planinarska staza na Konj II","type":"route","route":"foot","network":"lwn"},"1466208":{"name":"Planinarska staza Podgradina-Konj","type":"route","route":"foot","network":"lwn"},"1474762":{"name":"Planinarska staza od Gljeva do Kurtagića Dolca","type":"route","route":"foot","network":"lwn"},"1479510":{"name":"planinska staza iz Tribića do Kurtagića dolca","type":"route","route":"foot","network":"lwn"},"1479827":{"name":"Planinska staza Kurtagić dolac-Trovrsi","type":"route","route":"foot","network":"lwn"},"1480046":{"name":"Planinaska staza Kurtagić dolac-Burnjaća-Garjata","type":"route","route":"foot","network":"lwn"},"1481922":{"name":"Planinska staza od Vagnja-Rosni dolac-Kurtagić dolac","type":"route","route":"foot","network":"lwn"},"1481929":{"name":"Planinska staza od prijevoja Vaganj - Gola kosa - planinarsko sklonište u Kurtagića dolcu","type":"route","route":"foot","network":"lwn"},"1517414":{"name":"Vrdovo - planinarsko sklonište PU Dinarida","type":"route","route":"foot","network":"lwn"},"1527145":{"name":"Planinska staza planinarski dom sv. Jakov planinarsko sklonište PU Dinaridi (ratnim putem)","type":"route","route":"foot","network":"lwn"},"1771039":{"name":"Podgradina-Konj","type":"route","route":"foot","network":"lwn"},"1771061":{"name":"Korita-Bunarić-Kamešnica","type":"route","route":"foot","network":"lwn"},"1780828":{"name":"Gospin put-marianska staza","type":"route","route":"foot","network":"lwn"},"1783553":{"name":"Rupe-Lišanjski vrh","type":"route","route":"hiking","network":"lwn"},"1791423":{"name":"planinska staza na Troglav","type":"route","route":"hiking","network":"lwn"},"1791431":{"name":"planinska staza na Troglav - dijelom kolskim putem","type":"route","route":"foot","network":"lwn"},"1837888":{"name":"Put Oluje","type":"route","route":"hiking","network":"rwn","operator":"PU Dinaridi"},"1838702":{"name":"Boračko Jezero","type":"route","route":"hiking","network":"lwn"},"1966959":{"name":"Kurtagić - Vaganj - Vrdovo","type":"route","route":"hiking","network":"lwn"},"2117889":{"name":"Glavaš-Dinara","type":"route","route":"hiking"},"2148504":{"ref":"lwn","name":"Banjalučka transverzala","type":"route","route":"hiking","network":"lwn"},"2313355":{"name":"Velika Duvjakuša","type":"route","route":"hiking"},"2419688":{"name":"Konj-Kruge-Žlabina","type":"route","route":"hiking"},"2505479":{"name":"sklonište \\\"Pume\\\"-Troglav","type":"route","route":"hiking","operator":"PD Svilaja"},"2617227":{"name":"Glavaš-Dinara_brezovac","type":"route","route":"hiking"},"2617290":{"name":"Uniški batovi","type":"route","route":"hiking"},"3009259":{"name":"CrniLug-Veliki Bat","type":"route","route":"hiking"},"3009267":{"name":"Crni Lug-Veliki Bat","type":"route","route":"hiking"},"3104148":{"name":"Ježević - Velika Duvjakuša","note":"Ježević - Sutina - Kozja Jama - Velika Duvjakuša - Pl. dom Puma","type":"route","route":"hiking","network":"lwn","duration":"04:00","operator":"PU Dinaridi","osmc:symbol":"red:white:red_frame:J-VD:black"},"3117693":{"name":"Šator","type":"route","route":"hiking"},"3225796":{"name":"Uništa-Dinara","type":"route","route":"hiking"},"3229126":{"name":"Uništa-Martinove košare","type":"route","route":"hiking"},"3229129":{"name":"Martinove košare-Leurdovac-Dinara","type":"route","route":"hiking"},"3739879":{"name":"Korenica-Gola Plješivica","type":"route","route":"hiking","network":"lwn","distance":"9.560","description":"pl.staza od Korenice do Gole plješivice"},"4074203":{"name":"Ljubunčić - Velika Golija","type":"route","route":"hiking","network":"lwn"},"4749302":{"jel":"km","ref":"M02/58","name":"Marijin put M02/58 (Široki Brijeg-Međugorje)","type":"route","route":"hiking","state":"proposed","name:bs":"Marijin put M02/58 (Široki Brijeg-Međugorje)","name:hr":"Marijin put M02/58 (Široki Brijeg-Međugorje)","name:hu":"Mária Út M02/58 (Široki Brijeg-Međugorje)","network":"nwn","website":"http://mariaut.hu","operator":"MUTKE","pilgrimage":"yes","osmc:symbol":"blue:white:::M:blue"},"4798319":{"jel":"km","ref":"M02/45","name":"Marijin put M02/45 (Derventa-Kotorsko)","type":"route","route":"hiking","state":"proposed","name:bs":"Marijin put M02/45 (Derventa-Kotorsko)","name:hr":"Marijin put M02/45 (Derventa-Kotorsko)","name:hu":"Mária Út M02/45 (Derventa-Kotorsko)","name:sr":"Маријин пут M02/45 (Дервента-Которско)","network":"nwn","website":"http://mariaut.hu","operator":"MUTKE","pilgrimage":"yes","osmc:symbol":"blue:white:::M:blue","name:sr-Latn":"Marijin put M02/45 (Derventa-Kotorsko)"},"4798320":{"jel":"km","ref":"M02/46","name":"Marijin put M02/46 (Kotorsko-Doboj)","type":"route","route":"hiking","state":"proposed","name:bs":"Marijin put M02/46 (Kotorsko-Doboj)","name:hr":"Marijin put M02/46 (Kotorsko-Doboj)","name:hu":"Mária Út M02/46 (Kotorsko-Doboj)","name:sr":"Маријин пут M02/46 (Которско-Добој)","network":"nwn","website":"http://mariaut.hu","operator":"MUTKE","pilgrimage":"yes","osmc:symbol":"blue:white:::M:blue","name:sr-Latn":"Marijin put M02/46 (Kotorsko-Doboj)"},"4800756":{"jel":"km","ref":"M02/48","name":"Marijin put M02/48 (Maglaj-Žepče)","type":"route","route":"hiking","state":"proposed","name:bs":"Marijin put M02/48 (Maglaj-Žepče)","name:hr":"Marijin put M02/48 (Maglaj-Žepče)","name:hu":"Mária Út M02/48 (Maglaj-Žepče)","network":"nwn","website":"http://mariaut.hu","operator":"MUTKE","pilgrimage":"yes","osmc:symbol":"blue:white:::M:blue"},"4800843":{"jel":"km","ref":"M02/49","name":"Marijin put M02/49 (Žepče-Nemila)","type":"route","route":"hiking","state":"proposed","name:bs":"Marijin put M02/49 (Žepče-Nemila)","name:hr":"Marijin put M02/49 (Žepče-Nemila)","name:hu":"Mária Út M02/49 (Žepče-Nemila)","network":"nwn","website":"http://mariaut.hu","operator":"MUTKE","pilgrimage":"yes","osmc:symbol":"blue:white:::M:blue"},"4800876":{"jel":"km","ref":"M02/50","name":"Marijin put M02/50 (Nemila-Zenica)","type":"route","route":"hiking","state":"proposed","name:bs":"Marijin put M02/50 (Nemila-Zenica)","name:hr":"Marijin put M02/50 (Nemila-Zenica)","name:hu":"Mária Út M02/50 (Nemila-Zenica)","network":"nwn","website":"http://mariaut.hu","operator":"MUTKE","pilgrimage":"yes","osmc:symbol":"blue:white:::M:blue"},"4800877":{"jel":"km","ref":"M02/51","name":"Marijin put M02/51 (Zenica-Novi Travnik)","type":"route","route":"hiking","name:bs":"Marijin put M02/51 (Zenica-Novi Travnik)","name:hr":"Marijin put M02/51 (Zenica-Novi Travnik)","name:hu":"Mária Út M02/51 (Zenica-Novi Travnik)","network":"nwn","website":"http://mariaut.hu","operator":"MUTKE","pilgrimage":"yes","osmc:symbol":"blue:white:::M:blue"},"4800931":{"jel":"km","ref":"M02/52","name":"Marijin put M02/52 (Novi Travnik-Bugojno)","type":"route","route":"hiking","name:bs":"Marijin put M02/52 (Novi Travnik-Bugojno)","name:hr":"Marijin put M02/52 (Novi Travnik-Bugojno)","name:hu":"Mária Út M02/52 (Novi Travnik-Bugojno)","network":"nwn","website":"http://mariaut.hu","operator":"MUTKE","pilgrimage":"yes","osmc:symbol":"blue:white:::M:blue"},"4802262":{"jel":"km","ref":"M02/53","name":"Marijin put M02/53 (Bugojno-Kupres)","type":"route","route":"hiking","state":"proposed","name:bs":"Marijin put M02/53 (Bugojno-Kupres)","name:hr":"Marijin put M02/53 (Bugojno-Kupres)","name:hu":"Mária Út M02/53 (Bugojno-Kupres)","network":"nwn","website":"http://mariaut.hu","operator":"MUTKE","pilgrimage":"yes","osmc:symbol":"blue:white:::M:blue"},"4802263":{"jel":"km","ref":"M02/54","name":"Marijin put M02/54 (Kupres-Šuica)","type":"route","route":"hiking","state":"proposed","name:bs":"Marijin put M02/54 (Kupres-Šuica)","name:hr":"Marijin put M02/54 (Kupres-Šujica)","name:hu":"Mária Út M02/54 (Kupres-Šuica)","network":"nwn","website":"http://mariaut.hu","operator":"MUTKE","pilgrimage":"yes","osmc:symbol":"blue:white:::M:blue"},"4802264":{"jel":"km","ref":"M02/55","name":"Marijin put M02/55 (Šuica-Donji Brišnik)","type":"route","route":"hiking","state":"proposed","name:bs":"Marijin put M02/55 (Šuica-Donji Brišnik)","name:hr":"Marijin put M02/55 (Šujica-Donji Brišnik)","name:hu":"Mária Út M02/55 (Šuica-Donji Brišnik)","network":"nwn","website":"http://mariaut.hu","operator":"MUTKE","pilgrimage":"yes","osmc:symbol":"blue:white:::M:blue"},"4802265":{"jel":"km","ref":"M02/56","name":"Marijin put M02/56 (Donji Brišnik-Posušje)","type":"route","route":"hiking","state":"proposed","name:bs":"Marijin put M02/56 (Donji Brišnik-Posušje)","name:hr":"Marijin put M02/56 (Donji Brišnik-Posušje)","name:hu":"Mária Út M02/56 (Donji Brišnik-Posušje)","network":"nwn","website":"http://mariaut.hu","operator":"MUTKE","pilgrimage":"yes","osmc:symbol":"blue:white:::M:blue"},"4802266":{"jel":"km","ref":"M02/57","name":"Marijin put M02/57 (Posušje-Široki Brijeg)","type":"route","route":"hiking","state":"proposed","name:bs":"Marijin put M02/57 (Posušje-Široki Brijeg)","name:hr":"Marijin put M02/57 (Posušje-Široki Brijeg)","name:hu":"Mária Út M02/57 (Posušje-Široki Brijeg)","network":"nwn","website":"http://mariaut.hu","operator":"MUTKE","pilgrimage":"yes","osmc:symbol":"blue:white:::M:blue"},"5601177":{"name":"Zahum Idovac","type":"route","route":"hiking","network":"lwn","operator":"HPD Rama"},"6170819":{"ref":"107","name":"BREZOVAC - BADANJ","note":"S ruba polja Brezovac ( oko 500 m od doma) (x) s pl.p.1 kod kolibe Maglova-uz i. greben na vrh","type":"route","route":"hiking","source":"http://info.hps.hr/","network":"lwn","duration":"00:50","operator":"HPD Dinara, Knin","ref:hr:hps":"17.01.07"},"6828757":{"name":"Tušila-Vito","type":"route","route":"hiking","network":"lwn","osmc:symbol":"red:red_circle"},"6845585":{"name":"Fojnica-Veselica","type":"route","route":"hiking","network":"lwn","osmc:symbol":"red:red_circle"},"6848370":{"name":"Banja (Lučice) - Malkoć - Kik - Zarastin","type":"route","route":"hiking","network":"lwn","distance":"35","osmc:symbol":"yellow:red_circle:yellow_dot"},"6967910":{"name":"PL. dom Puma","type":"route","route":"hiking","network":"lwn","duration":"00:25","operator":"PU Dinaridi","osmc:symbol":"red:white:red_frame:PUMA:black"},"7115934":{"name":"ČorinLacman_Duvjakuša","type":"route","route":"hiking"},"7234381":{"name":"Tušila-Drstva","type":"route","route":"hiking","network":"lwn","osmc:symbol":"red:red_round:white_dot"},"7234382":{"name":"Vito-Drstva","type":"route","route":"hiking","network":"lwn","osmc:symbol":"red:red_circle"},"7239228":{"name":"Tušila-Prut","type":"route","route":"hiking","network":"lwn","osmc:symbol":"red:red_round:white_dot"},"7239229":{"name":"Tušila-Šabići","type":"route","route":"hiking","network":"lwn","osmc:symbol":"red:red_round:white_dot"},"7239230":{"name":"Tušila-Subar","type":"route","route":"hiking","network":"lwn","osmc:symbol":"red:red_circle"},"7389345":{"ref":"HR-W-23","name":"Put preko vrha Dinare","type":"route","route":"hiking","name:de":"Der Weg über den Gipfel der Dinara","name:en":"Path across the peak of Dinara","website":"https://trail.viadinarica.com/tour/hiking/16008868/","operator":"Via Dinarica"},"7391340":{"ref":"BH-W-01","name":"Staza Gospi Sinjskoj","type":"route","route":"foot","network":"lwn","website":"https://trail.viadinarica.com/tour/hiking/17224574","operator":"Via Dinarica"},"7391366":{"ref":"BH-W-02","name":"Preko Grabovičke planine do Bukovice i Duvanjskog polja","type":"route","route":"hiking","name:en":"Via Grabovička planina to Bukovica and Duvanjsko polje","network":"lwn","website":"https://trail.viadinarica.com/tour/hiking/16347579","operator":"Via Dinarica"},"7391590":{"ref":"BH-W-03","name":"Lib i Svinjar","type":"route","route":"hiking","name:en":"Lib and Svinjar","network":"lwn","website":"https://trail.viadinarica.com/tour/hiking/17302882","operator":"Via Dinarica"},"7392490":{"ref":"BH-W-04","name":"Planina Vran i jezero Blidinje","type":"route","route":"hiking","network":"lwn","website":"https://trail.viadinarica.com/tour/hiking/17302916","operator":"Via Dinarica"},"7392600":{"ref":"BH-W-05","name":"Planina Čvrsnica i grad Jablanica","type":"route","route":"hiking","network":"lwn","website":"https://trail.viadinarica.com/tour/hiking/17302945","operator":"Via Dinarica"},"7393053":{"ref":"BH-W-06","name":"Planina Prenj","type":"route","route":"hiking","network":"lwn","website":"https://trail.viadinarica.com/tour/hiking/17302956","operator":"Via Dinarica","osmc:symbol":"red:red_round:white_dot"},"7393620":{"ref":"BH-W-08","name":"Kanjonima Neretve i Rakitnice do sela Lukomir","type":"route","route":"foot","network":"lwn","website":"https://trail.viadinarica.com/tour/hiking/17302968","operator":"Via Dinarica"},"7393625":{"ref":"BH-W-09","name":"Iz sela Lukomir preko planine Visočice do sela Ljuta","type":"route","route":"foot","network":"lwn","website":"https://trail.viadinarica.com/tour/hiking/17302987","operator":"Via Dinarica","osmc:symbol":"red:red_round:white_dot"},"7393712":{"ref":"BH-W-10","name":"Iz Ljute, oko Treskavice, do Kalinovika","type":"route","route":"foot","network":"lwn","website":"https://trail.viadinarica.com/tour/hiking/17302995","operator":"Via Dinarica"},"7393735":{"ref":"BH-W-11","name":"Preko planina Lelije i Zelengore do Nacionalnog parka Sutjeska","type":"route","route":"hiking","network":"lwn","website":"https://trail.viadinarica.com/tour/hiking/17303001","operator":"Via Dinarica","osmc:symbol":"red:red_round:white_dot"},"8229119":{"name":"Troglav iz Sajkovića","type":"route","route":"hiking"},"9119441":{"name":"Korita-Glavaš","type":"route","route":"hiking","network":"lwn"},"9340193":{"name":"Mery","type":"route","route":"hiking"},"10357955":{"name":"Olympic Circles Selfi Trail","type":"route","route":"hiking","hiking":"footway","wiki:symbol":"OlympicIcon.svg"},"10521166":{"ref":"H1","name":"Pješačka staza br. 1","type":"route","route":"hiking","network":"lwn","operator":"Planinarski savez BiH","description":"Sarajevo - Trebević","osmc:symbol":"red:red_circle"},"10590877":{"to":"vrh Trebevića","ref":"1","from":"Istočno Sarajevo","name":"Pješačka staza br. 1","type":"route","image":"https://imgur.com/wrJ50Pu","route":"hiking","name:en":"Hiking Trail No. 1","network":"lwn","distance":"11 km","operator":"PD Trebević, Istočno Sarajevo","osmc:symbol":"red:red_round:white_dot"},"10755243":{"name":"PED Majevica Hiking Trail 2","type":"route","route":"hiking","network":"lwn"},"10757768":{"name":"PED Majevica Hiking Trail","type":"route","route":"hiking","network":"lwn"},"11129903":{"name":"Trešnjička ruta","type":"route","route":"hiking","ascent":"349","descent":"74","network":"lwn","distance":"3.7","description":"Glavna šumska ruta do izletišta Trešnjik"},"11594664":{"to":"Vrh Trebevića","name":"Vrh Trebevića preko grebena","type":"route","route":"hiking","network":"lwn"},"11612099":{"to":"Skakavac","from":"Uževica","name":"Kružna tura Skakavac","type":"route","route":"hiking","description":"Kruzna tura ide oko vodopada Skakavac i nazad.","osmc:symbol":"red:red_circle"},"11646901":{"to":"Hajdučka vrata","from":"Diva Grabovica","name":"Hajdučka vrata","type":"route","route":"hiking"},"11658987":{"name":"Travnik - Devečani","type":"route","route":"hiking"},"11723974":{"ref":"28","name":"Дикава - Јањач","type":"route","route":"hiking","source":"pk_tara","name:sr":"Дикава - Јањач","network":"lwn","website":"http://www.planinarskiklubtara.org/planinarske-staze/s28/","distance":"1.2 km","operator":"PK Tara","roundtrip":"no","osmc:symbol":"red:red_round::28:white","name:sr-Latn":"Dikava – Janjač"},"11899227":{"name":"PD Jakov","type":"route","route":"hiking","network":"lwn"},"12485158":{"name":"Metkova ruta","type":"route","route":"hiking","network":"lwn","roundtrip":"yes"},"12545614":{"name":"Bobovac","type":"route","route":"hiking","network":"lwn","osmc:symbol":"circle"},"12567630":{"to":"Vrh Trebevica","ref":"1","from":"Lukavica","name":"Trebevic Hiking trail","type":"route","route":"hiking","operator":"PD Trebevic","osmc:symbol":"red:red_round:white_dot"},"12848456":{"name":"Vjetar sa Dinare-Pume","type":"route","route":"hiking"},"12860177":{"name":"Edukativna staza","note":"staza nije mapirana u potpunosti","type":"route","route":"hiking","name:sr":"Едукативна стаза","network":"lwn","name:sr-Latn":"Edukativna staza"},"12865336":{"ref":"T1","name":"Vidikovac - Ravne / Prvi šumar - Pitine stijene","note":"staza nije mapirana u potpunosti","type":"route","route":"hiking","name:sr":"Видиковац - Равне / Први шумар - Питине стијене","network":"lwn","roundtrip":"yes"},"12865337":{"ref":"K1","name":"Vidikovac - Ravne / Prvi šumar","type":"route","route":"hiking","name:sr":"Видиковац - Равне / Први шумар","network":"lwn","roundtrip":"no"},"12993316":{"name":"Marš mira","type":"route","route":"foot","wikidata":"Q13085359","wikipedia":"bs:Marš mira"},"13079664":{"name":"Galica-Šantić","type":"route","route":"hiking"},"13306497":{"name":"Uspon na Zelenu Glavu","type":"route","route":"hiking","network":"lwn","osmc:symbol":"red:red_round:white_dot"},"13306499":{"name":"Uspon na Otiš","type":"route","route":"hiking","network":"lwn","osmc:symbol":"red:red_round:white_dot"},"13306851":{"name":"Bijela - Rakov Laz - Jezerce","type":"route","route":"hiking","network":"lwn","osmc:symbol":"red:red_round:white_dot"},"13307093":{"name":"Jezerce - Vrutak","type":"route","route":"hiking","network":"lwn","osmc:symbol":"red:red_round:white_dot"},"13307605":{"name":"Do izvora Lonče","type":"route","route":"hiking","network":"lwn","osmc:symbol":"red:red_round:white_dot"},"13310184":{"name":"Rupe - Lupoglav","type":"route","route":"hiking","network":"lwn","osmc:symbol":"red:red_round:white_dot"},"13324916":{"name":"Jezerce - Lasni do - Bijele Vode","type":"route","route":"hiking","network":"lwn","osmc:symbol":"red:red_round:white_dot"},"13469299":{"to":"Pale","from":"Sarajevo","name":"Sarajevo - Pale","type":"route","route":"hiking"},"13469618":{"to":"Hum","from":"Mostar","name":"Mostar - Hum","type":"route","route":"hiking"},"14527117":{"to":"Lukomir","via":"Obalj","from":"Gradina","name":"Gradina - Obalj - Lukomir","type":"route","route":"hiking"},"14527118":{"to":"Lukomir","from":"Gradina","name":"Gradina - Studeni Potok - Lukomir","type":"route","route":"hiking"},"15883652":{"name":"Bobovica - Rakitnica - Bjelasnica","type":"route","route":"hiking"},"15883795":{"name":"Javorov Do - Bijele Vode","type":"route","route":"hiking","osmc:symbol":"red:red_round:white_dot"},"15904210":{"name":"Babin Do - Javorov Do","type":"route","route":"hiking","osmc:symbol":"red:red_round:white_dot"}}