{"1941318":{"name":"Trilha Parque Morumbi Sul","type":"route","route":"hiking","network":"lwn"},"2502058":{"flag":"http://upload.wikimedia.org/wikipedia/commons/c/c3/Flag_of_France.svg","name":"Guyane","note":"Fusion de la Région et du Département conformément à la loi de 2015 qui a créé la Collectivité Territoriale Unique","type":"route","route":"foot","name:af":"Frans-Guyana","name:ak":"Frɛnkye Gayana","name:am":"የፈረንሳይ ጉዊአና","name:ar":"غيانا","name:az":"Fransız Quyanası","name:be":"Французская Гвіяна","name:bg":"Френска Гвиана","name:bm":"Faransi ka gwiyani","name:bn":"ফরাসী গায়ানা","name:br":"Gwiana c’hall","name:bs":"Francuska Gvajana","name:ca":"Guaiana Francesa","name:cs":"Francouzská Guyana","name:cy":"Guyane","name:da":"Fransk Guyana","name:de":"Französisch-Guayana","name:dz":"གུའི་ཡ་ན་ ཕྲནས྄་མངའ་ཁོངས","name:ee":"Frentsi Gayana nutome","name:el":"Γαλλική Γουιάνα","name:en":"French Guiana","name:eo":"Franca Gviano","name:es":"Guayana Francesa","name:et":"Prantsuse Guajaana","name:eu":"Guyana Frantsesa","name:fa":"گویان فرانسه","name:ff":"Giyaan Farayse","name:fi":"Ranskan Guayana","name:fo":"Fransk Gujana","name:fr":"Guyane","name:fy":"Frânsk Guyana","name:ga":"Guáin na Fraince","name:gd":"Guiana Fhrangach","name:gl":"Güiana Francesa","name:gn":"Gujána Hyãsiapegua","name:gu":"ફ્રેંચ ગયાના","name:ha":"Gini Ta Faransa","name:he":"גיאנה הצרפתית","name:hi":"फ़्रांसीसी गिआना","name:hr":"Francuska Gvajana","name:hu":"Francia Guyana","name:ia":"Guyana francese","name:id":"Guyana Perancis","name:is":"Franska Gvæjana","name:it":"Guyana francese","name:ja":"仏領ギアナ","name:ki":"Gwiyana ya Ufaransa","name:km":"ហ្វ្វេន​ហ្គៀណា","name:kn":"ಫ್ರೆಂಚ್ ಗಯಾನಾ","name:ko":"프랑스령 기아나","name:ks":"فرٛانسِسی گِانا","name:la":"Guiana Francica","name:lg":"Guyana enfalansa","name:li":"Frans Guyana","name:ln":"Giyanɛ ya Falánsɛ","name:lo":"ເຟັນສກິວນາ","name:lt":"Prancūzijos Gviana","name:lv":"Franču Gviāna","name:mg":"Guyana frantsay","name:mi":"Kaiana Wīwī","name:mk":"Француска Гвајана","name:ml":"ഫ്രഞ്ച് ഗയാന","name:mn":"Франц Гвиана","name:mr":"फ्रेंच गयाना","name:ms":"French Guiana","name:mt":"Gujana Franċiża","name:my":"ပြင်သစ် ဂီယာနာ","name:ne":"फ्रान्सेली गायना","name:nl":"Frans-Guyana","name:nn":"Fransk Guyana","name:no":"Fransk Guyana","name:or":"ଫ୍ରେଞ୍ଚ ଗୁଇନା","name:pl":"Gujana Francuska","name:pt":"Guiana Francesa","name:rm":"Guyana Franzosa","name:rn":"Gwayana y'Abafaransa","name:ro":"Guyana Franceză","name:ru":"Французская Гвиана","name:se":"Frankriikka Guayana","name:sg":"Güyâni tî farânzi","name:si":"ප්රංශ ගයනාව","name:sk":"Francúzska Guyana","name:sl":"Francoska Gvajana","name:sn":"French Guiana","name:so":"French Guiana","name:sr":"Француска Гвајана","name:sv":"Franska Guyana","name:sw":"Gwiyana ya Ufaransa","name:te":"ఫ్రెంచ్ గియానా","name:th":"เฟรนช์เกียนา","name:ti":"የፈረንሳይ ጉዊአና","name:to":"Falanise Kuiana","name:tr":"Fransız Guyanası","name:tt":"Француз Гвианасы","name:uk":"Французька Гвіана","name:ur":"فرینچ گیانا","name:vi":"Guyane thuộc Pháp","name:yo":"Orílẹ́ède Firenṣi Guana","name:zh":"法属圭亚那 / 法屬圭亞那","name:zu":"isi-French Guiana","website":"http://www.cr-guyane.fr/","name:ast":"Guyana Francesa","name:chr":"ᎠᏂᎦᎸᏥ ᎩᎠ","name:fur":"Guiana francês","name:kab":"Ɣana tafransist","name:ksh":"Franzüüsesch Jujaana","name:yue":"法屬圭亞那","wikidata":"Q3769","ISO3166-1":"GF","ISO3166-2":"FR-973","land_area":"administrative","ref:INSEE":"973R","wikipedia":"fr:Guyane","population":"276128","ref:nuts:2":"FRY3","ref:nuts:3":"FRY30","admin_level":"4","alt_name:ru":"Французская Гвиана","description":"France, départements et régions d'outre-mer, territoire régi par l’article 73 de la Constitution","old_name:fr":"Guyane française","name:zh-Hans":"法属圭亚那","name:zh-Hant":"法屬圭亞那","official_name":"Collectivité Territoriale Unique de la Guyane","population:date":"2018","ISO3166-1:alpha2":"GF","ISO3166-1:alpha3":"GUF","source:ref:INSEE":"https://www.insee.fr/fr/information/3528272","ISO3166-1:numeric":"254","source:population":"https://www.insee.fr/fr/statistiques/6007534#tableau-figure2"},"2910931":{"name":"Zona de Caminhada","type":"route","route":"hiking","source":"Bing","network":"lwn"},"3465371":{"name":"Trilha de Caminhada","type":"route","route":"hiking"},"6426622":{"name":"Calçadão da Beira Mar de São José","type":"route","route":"foot"},"6534461":{"name":"Caminhada Vila Itoupava","type":"route","route":"foot","oneway":"no","network":"lwn","website":"https://www.caminhadadavila.tur.br","distance":"10.5"},"6906578":{"name":"Trilha Transcarioca","type":"route","route":"hiking","colour":"yellow","symbol":"yellow foot","network":"rwn","distance":"180","roundtrip":"no"},"6906964":{"name":"Acesso a Trilha Transcarioca","type":"route","route":"hiking"},"6907019":{"name":"Acesso a Trilha Transcarioca","type":"route","route":"hiking"},"6907022":{"name":"Acesso a Trilha Transcarioca","type":"route","route":"hiking"},"6907025":{"name":"Acesso a Trilha Transcarioca","type":"route","route":"hiking"},"6907182":{"name":"Acesso a Trilha TransCarioca","type":"route","route":"hiking"},"6907308":{"name":"Acesso a Trilha Transcarioca","type":"route","route":"hiking"},"6907309":{"name":"Acesso a Trilha Transcarioca","type":"route","route":"hiking"},"8545933":{"name":"Trilha Pedra Santa","type":"route","route":"hiking","network":"lwn","distance":"5.753","operator":"Instituto Chico Mendes de Conservação da Biodiversidade","description":"Passa pela Gruta do Monge, Pedra Branca e Monumento a Varnhagen. É possível vivenciar aspectos ligados ao ambiente, geologia e fatos históricos. Requer condutor cadastrado na Flona."},"8555850":{"name":"Trilha Afonso Sardinha","type":"route","route":"hiking","network":"lwn","distance":"1.279","operator":"Instituto Chico Mendes de Conservação da Biodiversidade","roundtrip":"yes","description":"Abriga algumas das ruínas dos fornos construídas por Afonso Sardinha em 1589. Percorre área de floresta em avançado processo de regeneração e em vários pontos cruza o Ribeirão do Ferro por meio de pontes rústicas. Requer condutor cadastrado na Flona."},"9438522":{"name":"Bonete Jungle Trail","type":"route","route":"hiking","name:en":"Bonete Jungle Trail","name:pt":"Trilha do Bonete"},"9500064":{"ref":"2131","name":"Caminhada Ribeirão Souto","type":"route","route":"foot","oneway":"yes","network":"lwn","website":"https://www.ecobooking.com.br","distance":"9","operator":"Anda Brasil","roundtrip":"yes","description":"Evento anual anunciado no website. Ocorre normalmente em abril."},"9500110":{"name":"Caminhada Wunderwald","type":"route","route":"foot","oneway":"yes","network":"lwn","website":"https://www.ecobooking.com.br","operator":"Anda Brasil","roundtrip":"yes","description":"Evento anual anunciado no website."},"9500111":{"ref":"2039","name":"Caminhada Noturna na Rota do Enxaimel","type":"route","route":"foot","oneway":"yes","network":"lwn","website":"https://www.ecobooking.com.br","distance":"12","operator":"Anda Brasil","roundtrip":"yes","description":"Evento anual anunciado no website. Ocorre normalmente em julho."},"9500112":{"ref":"2040","name":"Caminhada Vale do Selke","type":"route","route":"foot","oneway":"yes","network":"lwn","website":"https://www.ecobooking.com.br","distance":"10.5","operator":"Anda Brasil","roundtrip":"yes","description":"Evento anual anunciado no website. Ocorre normalmente em março."},"10330654":{"to":"pessoas","ref":"64","from":"pessoas","name":"Rua","type":"route","route":"foot","network":"lwn"},"10698539":{"to":"Santuário Nacional de São José de Anchieta","from":"Catedral Metropolitana de Vitória","name":"Os Passos de Anchieta","type":"route","route":"hiking","network":"BR:ES","distance":"100","operator":"ABAPA","contact:website":"https://www.abapa.org.br/"},"10975728":{"to":"Itanhaém","from":"Parelheiros","name":"Trilha do Rio Branquinho","note":"Caminho em análise. Pendente levantamento de campo.","type":"route","route":"hiking","network":"lwn","surface":"ground","distance":"58 km"},"10975729":{"name":"Trilha Cachoeia Três Quedas","type":"route","route":"hiking"},"11379327":{"to":"Pico Paraná","from":"Primeiro planalto paranaense","name":"Trilha do Pico Paraná","type":"route","route":"hiking","name:en":"Pico Parana Trail","network":"lwn","sac_scale":"demanding_mountain_hiking","network:type":"Local","trail_visibility":"intermediate"},"11555305":{"ref":"TMTQ","name":"Trecho Pedra Grande - Trilha Transmantiqueira","type":"route","route":"hiking","network":"rwn","website":"http://www.trilhatransmantiqueira.com.br/w3/index.php","operator":"Associação Trilha Transmantiqueira - ATT","osmc:symbol":"yellow:black:yellow_bar"},"11758272":{"name":"Trilha Sucupira","type":"route","route":"hiking","network":"lwn","operator":"ICMBio"},"12017153":{"to":"Morretes","from":"Quatro Barras","name":"Caminho do Itupava","type":"route","route":"hiking","network":"lwn","operator":"IAT","network:type":"Local"},"12605826":{"ref":"TMTQ","name":"Trecho Serra da Cantareira - Transmantiqueira","type":"route","route":"hiking","network":"rwn","website":"http://www.trilhatransmantiqueira.com.br/w3/index.php","operator":"Associação Trilha Transmantiqueira - ATT","osmc:symbol":"yellow:black:yellow_bar"},"13186774":{"name":"Trilha da Pedra da Gávea","type":"route","route":"hiking","network":"lwn","operator":"ICMBio","network:type":"lcn"},"13186775":{"name":"Caminho da Pedra Bonita","type":"route","route":"hiking","network":"lwn","operator":"ICMBio","network:type":"lcn"},"13209324":{"to":"Porto Estrela","from":"Ouro Preto","name":"Estrada Real - Caminho Novo","type":"route","route":"hiking","operator":"Instituto Estrada Real"},"13651878":{"name":"Trilha da Fortaleza à Galheta","type":"route","route":"hiking","network":"lwn"},"13651879":{"name":"Trilha da Boa Vista - Barra da Lagoa","type":"route","route":"hiking","network":"lwn"},"13651880":{"name":"Caminho dos Pescadores","type":"route","route":"hiking","network":"lwn"},"13885681":{"name":"Caminho da Gurita","type":"route","route":"hiking","source":"https://repositorio.ufsc.br/handle/123456789/227976","network":"lwn","description":"Caminho da Gurita: antigo caminho localizado nas dependências do Parque Municipal da Lagoa do Peri. O caminho margeia a lagoa e é utilizado como trilha de acesso a uma cachoeira do parque. Acredita-se que tenha sido construído por escravos. Em alguns  tre"},"13885682":{"name":"Caminho do Sertão do Ribeirão","type":"route","route":"hiking","network":"lwn"},"14050736":{"to":"Estação Santo Amaro","from":"Nossa Praça","name":"Trilha do Rio Pinheiros","type":"route","route":"foot","network":"lwn"},"14632031":{"to":"Vale do Pati","from":"Andaraí","name":"Acesso Vale do Pati - Ladeira do império - Andaraí","type":"route","route":"hiking","natural":"cliff"},"14632032":{"to":"Vale do Pati","from":"Guiné","name":"Acesso Vale do Pati - Ladeira do Beco - Guiné","type":"route","route":"hiking"},"14729252":{"name":"Bananal Waterfall Trail","type":"route","route":"hiking","network":"lwn"},"14738418":{"name":"Pico do Baepi Trail","type":"route","route":"hiking","network":"lwn"},"15024357":{"name":"Trilha do Pico mais alto do Vale do Jamari","type":"route","route":"hiking","network":"lwn"},"15051162":{"name":"Trilha da Cachoeira do Funil","type":"route","route":"hiking","network":"lwn"},"15051184":{"name":"Trilha Cachoeira da Graça","type":"route","route":"hiking","network":"lwn"},"15092572":{"name":"Seriema","type":"route","route":"hiking","colour":"#0f93cc","network":"lwn","roundtrip":"yes","network:type":"basic_network"},"15092573":{"name":"Cânion II e Cariocas","type":"route","route":"hiking","colour":"red","network":"lwn","network:type":"basic_network"},"15092574":{"name":"Saltos, Carrossel e Corredeiras","type":"route","route":"hiking","colour":"yellow","network":"lwn","network:type":"basic_network"},"15322027":{"name":"Trilha Cachoeira do Rio Bonito","type":"route","route":"hiking","network":"lwn"},"15322028":{"name":"Trilha das Arapongas","type":"route","route":"hiking","network":"lwn"},"15322029":{"name":"Trilha do Juquiá","type":"route","route":"hiking","network":"lwn"},"15389999":{"to":"Salto dos Macacos","from":"Caminho do Itupava","name":"Trilha Salto dos Macacos","type":"route","route":"hiking","colour":"white","network":"lwn","operator":"Parque Estadual do Marumbi","description":"Trilha de caminhada com dificuldade moderada. Requer travessia de três rios maiores, além de outros menores.                                                                                                                                                                                                                                                                                                                                                                                                                                                                                                                                                                                                                                                                                                                                                                                                                                                                                                                                                                                                                                                                                                                                                                                                                                                                                                                                                                                                                                                                                                                                                                                                                                                                                                                                                                                                                                                                                                                                                                                                                                                                                                                                                                                                                                                                                                                                                                                                                                                                                                                                                                                                                                                                                                                                                                                                                                                                                                                                                                                                                                                                                                                                                                                                                                                                                                                                                                                                                                                                                                                                                                                                                                                                                                                                                                                                                                                                                                                                                                                                         "},"15831979":{"name":"Spassweg - Caminho dos Pinheiros","type":"route","route":"hiking","ascent":"556 m","colour":"red","descent":"334 m","network":"lcn","website":"http://www.linhanova.rs.gov.br/web/spassweg","distance":"22","roundtrip":"yes"},"15831980":{"name":"Spassweg - Caminho dos Manacás","type":"route","route":"hiking","ascent":"401 m","colour":"green","descent":"71 m","network":"lcn","website":"http://www.linhanova.rs.gov.br/web/spassweg","distance":"13","roundtrip":"yes"},"15831981":{"name":"Spassweg - Caminho das Paineiras","type":"route","route":"hiking","ascent":"413 m","colour":"blue","descent":"111 m","network":"lcn","website":"http://www.linhanova.rs.gov.br/web/spassweg","distance":"14.4","roundtrip":"yes"},"15831982":{"name":"Spassweg - Caminho das Acácias","type":"route","route":"hiking","ascent":"543 m","colour":"yellow","descent":"338 m","network":"lcn","website":"http://www.linhanova.rs.gov.br/web/spassweg","distance":"13.1","roundtrip":"yes"},"15846384":{"name":"Trilha Frontal (branca)","type":"route","route":"hiking","colour":"#FFFFFF","network":"lwn","operator":"Parque Estadual Pico Marumbi"},"15846385":{"name":"Trilha Noroeste (vermelha)","type":"route","route":"hiking","colour":"#FF0000","network":"lwn","operator":"Parque Estadual Marumbi"},"15846386":{"name":"Trilha Rochedinho (azul)","type":"route","route":"hiking","colour":"blue","network":"lwn","operator":"Parque Estadual Marumbi"},"15971417":{"name":"Torre da Prata","type":"route","route":"hiking","colour":"white","network":"lwn","operator":"CPM","network:type":"lwn"}}