{"4185663":{"ref":"420","name":"Маршрут № 420 \\\"Купалінка\\\"","type":"route","route":"hiking","name:be":"Маршрут № 420 \\\"Купалінка\\\"","name:en":"Route 420 \\\"Kupalinka\\\"","name:ru":"Маршрут № 420 \\\"Купалинка\\\"","name:uk":"Маршрут № 420 \\\"Купалінка\\\"","network":"lwn","distance":"4.25 km","int_name":"Maršrut № 420 \\\"Kupalinka\\\"","roundtrip":"yes","description":"Маршрут кольцевой от санатория \\\"Жемчужина\\\" вдоль реки Неман через место отдыха \\\"Купалинка\\\" к месту отдыха \\\"Жемчужина\\\" к началу маршрута"},"4185664":{"ref":"421","name":"Маршрут № 421 \\\"Жамчужны\\\"","type":"route","route":"hiking","name:be":"Маршрут № 421 \\\"Жамчужны\\\"","name:en":"Route 421 \\\"Zhemchuzhina\\\"","name:ru":"Маршрут № 421 \\\"Жемчужный\\\"","name:uk":"Маршрут № 421 \\\"Перлинний\\\"","network":"lwn","distance":"5 km","int_name":"Maršrut № 421 \\\"Žamčužny\\\"","roundtrip":"yes","description":"Маршрут кольцевой от санатория \\\"Жемчужина\\\" вдоль реки Неман через место отдыха \\\"Жемчужина\\\" к озеру Синька к началу маршрута"},"7315154":{"name":"Азёрны пярсцёнак","type":"route","route":"hiking","name:be":"Азёрны пярсцёнак","name:ru":"Озёрное кольцо","name:uk":"Озерне кільце","network":"lwn","distance":"5.8","roundtrip":"yes"},"7315155":{"name":"Запаведная дубрава","type":"route","route":"hiking","name:be":"Запаведная дубрава","name:ru":"Заповедная дубрава","name:uk":"Заповідна діброва","network":"lwn","roundtrip":"yes"},"7809062":{"name":"Былая УЖД \\\"Малькавічы - Забярэззе\\\"","type":"route","route":"hiking","name:be":"Былая УЖД \\\"Малькавічы - Забярэззе\\\"","name:ru":"Бывшая УЖД \\\"Мальковичи - Заберезье\\\"","name:uk":"Колишня УЗ \\\"Мальковичі - Заберез'я\\\""},"8297637":{"ref":"3","name":"Міцкевічы","type":"route","route":"hiking","name:be":"Міцкевічы","name:ru":"Мицкевичи","name:uk":"Міцкевичі","network":"lwn","distance":"4.5 km","operator":"yt"},"9298241":{"name":"Экасцежка «Азёраўкі»","type":"route","route":"hiking","name:be":"Экасцежка «Азёраўкі»","name:en":"Eco-path \\\"Aziorauki\\\"","name:ru":"Экотропа «Озёровки»","name:uk":"Екотропа «Озерівки»","website":"http://tourvitebsk.gov.by/object/ekologicheskaya-tropa-ozeravki-elnya","alt_name":"Экотропа «Озёравки-Ельня»","distance":"1.53","int_name":"Ekasciežka «Azioraŭki»","start_date":"2014-07-25","alt_name:ru":"Экотропа «Озёравки-Ельня»"},"9349345":{"name":"Ад старажытнасці да сучаснасці","type":"route","route":"foot","name:be":"Ад старажытнасці да сучаснасці","name:ru":"От древности до современности","name:uk":"Від давнини до сьогодення","network":"lwn","description":"Однодневный пешеходный маршрут по городу Лида","description:be":"Аднадзённы пешаходны маршрут па горадзе Ліда","description:ru":"Однодневный пешеходный маршрут по городу Лида"},"9671777":{"ref":"101","name":"Сцежка здароўя","time":"0.25","type":"route","route":"foot","name:be":"Сцежка здароўя","name:ru":"Тропа здоровья","name:uk":"Стежка здоров'я","network":"lcn","tourism":"viewpoint","distance":"1.2"},"9671778":{"ref":"102","name":"Шпанцырны","time":"0.333","type":"route","route":"foot","name:be":"Шпанцырны","name:ru":"Прогулочный","name:uk":"Прогулянковий","network":"lcn","tourism":"viewpoint","distance":"1.3"},"9796538":{"name":"Экалагічная сцежка Белакорац","type":"route","route":"foot","colour":"#d400b0","name:be":"Экалагічная сцежка Белакорац","name:ru":"Экологическая тропа Белокорец","name:uk":"Екологічна стежка Білокорець","network":"lwn","distance":"1.8 km","operator":"Воложинский лесхоз","description":"Можно проехать на инвалидной коляске"},"11159083":{"name":"Экасцежка","type":"route","route":"foot","name:be":"Экасцежка","name:ru":"Экотропа","name:uk":"Екотропа","network":"lwn"},"11898876":{"name":"Экасцежка Дуб Пажэжынскі","type":"route","route":"hiking","name:be":"Экасцежка Дуб Пажэжынскі","name:ru":"Экотропа Дуб Пожежинский","name:uk":"Екотропа Дуб Пожежинський"},"12711974":{"name":"Сцежка здароўя","type":"route","route":"hiking","name:be":"Сцежка здароўя","name:ru":"Тропа здоровья","name:uk":"Стежка здоров'я"},"12990372":{"ref":"SW-North","name":"Дарога цішыні, паўночная ветка","type":"route","route":"hiking","colour":"blue","name:be":"Дарога цішыні, паўночная ветка","name:ru":"Дорога тишины, северная ветка","name:uk":"Дорога тиші, північна гілка","network":"rwn","distance":"40","operator":"Center for Environmental solutions Ecoidea.by","description":"Silent-way.by"},"12994108":{"ref":"SW-south","name":"Дарога цішыні, паўдневая ветка","type":"route","route":"hiking","colour":"yellow","symbol":"white-yellow-white_bar","name:be":"Дарога цішыні, паўдневая ветка","name:ru":"Дорога тишины, южная ветка","name:uk":"Дорога тиші, південна гілка","network":"rwn","distance":"40","operator":"Center for Environmental solutions Ecoidea.by","description":"silent-way.by"},"13065475":{"to":"Stary Bubel","from":"Stary Bubel","name":"Ścieżka Przyrodnicza \\\"KALINIK\\\"","type":"route","route":"foot","operator":"Park Krajobrazowy Podlaski Przełom Bugu"},"13224179":{"name":"Ezertaka: Piedruja-Indrica-Krāslava","type":"route","route":"hiking","network":"nwn","distance":"28","osmc:symbol":"green:white:green_bar:white"},"13497234":{"name":"Экалагічная сцежка \\\"Маляўкі\\\"","type":"route","route":"foot","name:be":"Экалагічная сцежка \\\"Маляўкі\\\"","name:ru":"Экологическая тропа \\\"Малявки\\\"","name:uk":"Екологічна стежка \\\"Малявки\\\"","network":"lwn","educational":"yes"},"14310512":{"name":"Сцежка здароўя","type":"route","route":"hiking","name:be":"Сцежка здароўя","name:ru":"Тропа здоровья","name:uk":"Стежка здоров'я"},"14454467":{"name":"Экалагічная сцежка \\\"У гармоніі з прыродай\\\"","type":"route","route":"hiking","name:be":"Экалагічная сцежка \\\"У гармоніі з прыродай\\\"","name:ru":"Экологическая тропа \\\"В гармонии с природой\\\"","name:uk":"Екологічна стежка \\\"У гармонії з природою\\\"","survey:date":"2022-08-12"},"14454468":{"name":"Маршрут творчасці","type":"route","route":"hiking","name:be":"Маршрут творчасці","name:ru":"Маршрут творчества","name:uk":"Маршрут творчості","network":"lwn","distance":"1.1","roundtrip":"yes","educational":"yes","survey:date":"2022-08-12","signed_direction":"yes"},"14454469":{"name":"Маршрут даследчыкаў","type":"route","route":"hiking","name:be":"Маршрут даследчыкаў","name:ru":"Маршрут исследователей","name:uk":"Маршрут дослідників","network":"lwn","distance":"1.5","roundtrip":"yes","educational":"yes","survey:date":"2022-08-12","signed_direction":"yes"},"14454470":{"name":"Маршрут эрудытаў","type":"route","route":"hiking","name:be":"Маршрут эрудытаў","name:ru":"Маршрут эрудитов","name:uk":"Маршрут ерудитів","network":"lwn","distance":"1.1","roundtrip":"yes","educational":"yes","survey:date":"2022-08-12","signed_direction":"yes"},"14653828":{"name":"Экалагічная сцежка \\\"Блакітныя азёры\\\"","type":"route","email":"turism@narochpark.by","phone":"+375 1797 29884;+375 1797 29807","route":"hiking","name:be":"Экалагічная сцежка \\\"Блакітныя азёры\\\"","name:lt":"Ekologinis takas","name:pl":"Ścieżka ekologiczna \\\"Błękitne jeziora\\\"","name:ru":"Экологическая тропа \\\"Голубые озёра\\\"","name:uk":"Екологічна стежка \\\"Блакитні озера\\\"","network":"lwn","tourism":"attraction","website":"https://narochpark.by/%D1%82%D1%83%D1%80%D0%B8%D0%B7%D0%BC/%D1%8D%D0%BA%D0%BE%D0%BB%D0%BE%D0%B3%D0%B8%D1%87%D0%B5%D1%81%D0%BA%D0%B0%D1%8F-%D1%82%D1%80%D0%BE%D0%BF%D0%B0-%D0%B3%D0%BE%D0%BB%D1%83%D0%B1%D1%8B%D0%B5-%D0%BE%D0%B7%D0%B5%D1%80%D0%B0/","operator":"?"},"14783074":{"name":"Жук-трэйл Лагойск 10 км","type":"route","route":"hiking","sport":"hiking;trailrunning","oneway":"yes","name:be":"Жук-трэйл Лагойск 10 км","name:ru":"Жук-трейл Логойск 10 км","name:uk":"Жук-трейл Логойськ 10 км","operator":"Федерация Приключенческих Гонок"},"14783080":{"name":"Жук-трэйл Лагойск 5 км","type":"route","route":"hiking","sport":"hiking;trailrunning","oneway":"yes","name:be":"Жук-трэйл Лагойск 5 км","name:ru":"Жук-трейл Логойск 5 км","name:uk":"Жук-трейл Логойськ 5 км","operator":"Федерация Приключенческих Гонок"},"14783101":{"name":"Жук-трэйл Лагойск 7 км","type":"route","route":"hiking","sport":"hiking;trailrunning","oneway":"yes","name:be":"Жук-трэйл Лагойск 7 км","name:ru":"Жук-трейл Логойск 7 км","name:uk":"Жук-трейл Логойськ 7 км","operator":"Федерация Приключенческих Гонок"},"15473615":{"name":"Экалагічная сцежка","type":"route","route":"foot","name:be":"Экалагічная сцежка","name:ru":"Экологическая тропа","name:uk":"Екологічна стежка","network":"lwn"}}