{"1412055":{"ref":"C61","name":"元荃古道 Yuen Tsuen Ancient Trail","type":"route","owner":"郊野公園及海岸公園管理局 Country and Marine Parks Authority","route":"hiking","name:en":"Yuen Tsuen Ancient Trail","name:zh":"元荃古道","network":"rwn","operator":"漁農自然護理署 Agriculture, Fisheries and Conservation Department","owner:en":"Country and Marine Parks Authority","owner:zh":"郊野公園及海岸公園管理局","operation":"government","ownership":"government","operator:en":"Agriculture, Fisheries and Conservation Department","operator:zh":"漁農自然護理署","network:area":"regional","operator:wikidata":"Q841909"},"4072403":{"name":"鶴藪郊遊徑 Hok Tau Country Trail","type":"route","route":"hiking","name:en":"Hok Tau Country Trail","name:zh":"鶴藪郊遊徑","operator":"Country and Marine Parks Authority, A.F.C.D."},"4072460":{"name":"流水嚮郊遊徑 Lau Shui Heung Country Trail","type":"route","route":"hiking","name:en":"Lau Shui Heung Country Trail","name:zh":"流水嚮郊遊徑","operator":"Country and Marine Parks Authority, A.F.C.D."},"4072505":{"name":"南涌郊遊徑 Nam Chung Country Trail","type":"route","route":"hiking","name:en":"Nam Chung Country Trail","name:zh":"南涌郊遊徑","operator":"Country and Marine Parks Authority, A.F.C.D."},"4088899":{"name":"甲龍古道郊遊徑 Kap Lung Ancient Trail","type":"route","route":"hiking","name:en":"Kap Lung Ancient Trail","name:zh":"甲龍古道郊遊徑","operator":"Country and Marine Parks Authority, A.F.C.D."},"4094956":{"name":"昂坪360救援徑 Ngong Ping 360 Rescue Trail","type":"route","route":"hiking","name:en":"Ngong Ping 360 Rescue Trail","name:zh":"昂坪360救援徑"},"4095071":{"name":"彌勒山郊遊徑 Nei Lak Shan Country Trail","type":"route","route":"hiking","name:en":"Nei Lak Shan Country Trail","name:zh":"彌勒山郊遊徑","operator":"Country and Marine Parks Authority, A.F.C.D."},"4112948":{"name":"老虎頭郊遊徑 Lo Fu Tau Country Trail","type":"route","route":"hiking","name:en":"Lo Fu Tau Country Trail","name:zh":"老虎頭郊遊徑","operator":"Country and Marine Parks Authority, A.F.C.D."},"4119835":{"name":"烏蛟騰郊遊徑 Wu Kau Tang Country Trail","type":"route","route":"hiking","name:en":"Wu Kau Tang Country Trail","name:zh":"烏蛟騰郊遊徑","operator":"Country and Marine Parks Authority, A.F.C.D."},"4215091":{"name":"大欖涌郊遊徑 Tai Lam Chung Country Trail","type":"route","route":"hiking","name:en":"Tai Lam Chung Country Trail","name:zh":"大欖涌郊遊徑"},"4222697":{"name":"康柏郊遊徑 Hong Pak Country Trail","type":"route","route":"hiking","name:en":"Hong Pak Country Trail","name:zh":"康柏郊遊徑"},"4227648":{"name":"大潭郊遊徑 Tai Tam Country Trail/ 黃泥涌峽徑 Wong Nai Chung Gap Trail","type":"route","route":"hiking","name:en":"Tai Tam Country Trail/ Wong Nai Chung Gap Trail","name:zh":"大潭郊遊徑/ 黃泥涌峽徑"},"4284711":{"name":"大灘郊遊徑 Tai Tan Country Trail","type":"route","route":"hiking","name:en":"Tai Tan Country Trail","name:zh":"大灘郊遊徑"},"4423658":{"name":"馬鞍山郊遊徑 Ma On Shan Country Trail","type":"route","route":"hiking","name:en":"Ma On Shan Country Trail","name:zh":"馬鞍山郊遊徑"},"4446178":{"name":"南大嶼郊遊徑 South Lantau Country Trail","type":"route","route":"hiking","name:en":"South Lantau Country Trail","name:zh":"南大嶼郊遊徑"},"4454912":{"name":"釣魚翁郊遊徑 High Junk Peak Country Trail","type":"route","route":"hiking","name:en":"High Junk Peak Country Trail","name:zh":"釣魚翁郊遊徑"},"4455063":{"name":"龍蝦灣郊遊徑 Lung Ha Wan Country Trail","type":"route","route":"hiking","name:en":"Lung Ha Wan Country Trail","name:zh":"龍蝦灣郊遊徑"},"4486045":{"name":"上窰郊遊徑 Sheung Yiu Country Trail","type":"route","route":"hiking","name:en":"Sheung Yiu Country Trail","name:zh":"上窰郊遊徑","operator":"Country and Marine Parks Authority, A.F.C.D."},"4486282":{"name":"北潭郊遊徑 Pak Tam Country Trail","type":"route","route":"hiking","name:en":"Pak Tam Country Trail","name:zh":"北潭郊遊徑","operator":"Country and Marine Parks Authority, A.F.C.D."},"4501945":{"name":"黃龍坑郊遊徑 Wong Lung Hang Country Trail","type":"route","route":"hiking","name:en":"Wong Lung Hang Country Trail","name:zh":"黃龍坑郊遊徑"},"4502078":{"name":"地塘仔郊遊徑 Tei Tong Tsai Country Trail","type":"route","route":"hiking","name:en":"Tei Tong Tsai Country Trail","name:zh":"地塘仔郊遊徑"},"4513397":{"name":"石壁郊遊徑 Shek Pik Country Trail","type":"route","route":"hiking","name:en":"Shek Pik Country Trail","name:zh":"石壁郊遊徑"},"4522680":{"name":"分流郊遊徑 Fan Lau Country Trail","type":"route","route":"hiking","name:en":"Fan Lau Country Trail","name:zh":"分流郊遊徑"},"4522732":{"name":"羌山郊遊徑 Keung Shan Country Trail","type":"route","route":"hiking","name:en":"Keung Shan Country Trail","name:zh":"羌山郊遊徑"},"4548555":{"name":"鹿湖郊遊徑 Luk Wu Country Trail","type":"route","route":"hiking","name:en":"Luk Wu Country Trail","name:zh":"鹿湖郊遊徑"},"4548721":{"name":"嶂上郊遊徑 Cheung Sheung Country Trail","type":"route","route":"hiking","name:en":"Cheung Sheung Country Trail","name:zh":"嶂上郊遊徑"},"4576815":{"name":"芝麻灣郊遊徑 Chi Ma Wan Country Trail","type":"route","route":"hiking","name:en":"Chi Ma Wan Country Trail","name:zh":"芝麻灣郊遊徑"},"4595849":{"name":"砵甸乍山郊遊徑 Pottinger Peak Country Trail","type":"route","route":"hiking","name:en":"Pottinger Peak Country Trail","name:zh":"砵甸乍山郊遊徑"},"4601710":{"ref":"C63","name":"圓墩郊遊徑 Yuen Tun Country Trail","type":"route","owner":"郊野公園及海岸公園管理局 Country and Marine Parks Authority","route":"hiking","name:en":"Yuen Tun Country Trail","name:zh":"圓墩郊遊徑","network":"lwn","operator":"漁農自然護理署 Agriculture, Fisheries and Conservation Department","owner:en":"Country and Marine Parks Authority","owner:zh":"郊野公園及海岸公園管理局","operation":"government","ownership":"government","operator:en":"Agriculture, Fisheries and Conservation Department","operator:zh":"漁農自然護理署","network:area":"local","operator:wikidata":"Q841909"},"4630689":{"name":"船灣淡水湖郊遊徑 Plover Cove Reservoir Country Trail","type":"route","route":"hiking","name:en":"Plover Cove Reservoir Country Trail","name:zh":"船灣淡水湖郊遊徑"},"4741957":{"name":"龍門郊遊徑 Lung Mun Country Trail","type":"route","route":"hiking","name:en":"Lung Mun Country Trail","name:zh":"龍門郊遊徑"},"7533180":{"name":"南丫島家樂徑 Lamma Island Family Walk","type":"route","route":"hiking","name:en":"Lamma Island Family Walk","name:zh":"南丫島家樂徑","network":"lwn"},"7638379":{"name":"香港奧運徑 Hong Kong Olympic Trail","type":"route","route":"hiking","name:en":"Hong Kong Olympic Trail","name:zh":"香港奧運徑","alt_name":"Islands Nature Heritage Trail - Mui Wo Section"},"7638414":{"name":"Ngong Ping Fun Trail","type":"route","route":"hiking"},"7638424":{"name":"Aberdeen Nature Trail","type":"route","route":"hiking"},"7639940":{"name":"Pok Fu Lam Family Walk","type":"route","route":"hiking"},"7639954":{"name":"大潭家樂徑 Tai Tam Family Walk","type":"route","route":"hiking","name:en":"Tai Tam Family Walk","name:zh":"大潭家樂徑"},"7639957":{"name":"Wan Chai Green Trail","type":"route","route":"hiking"},"7640038":{"name":"Central Green Trail","type":"route","route":"hiking"},"7641247":{"name":"川龍家樂徑 Chuen Lung Family Walk","type":"route","route":"hiking","name:en":"Chuen Lung Family Walk","name:zh":"川龍家樂徑"},"7644096":{"name":"Tai Pau Kau Forest Walk","type":"route","route":"hiking","colour":"yellow"},"7717098":{"name":"High Island Geo Trail","type":"route","route":"hiking"},"7717106":{"name":"荔枝窩自然步道 Lai Chi Wo Nature Trail","type":"route","route":"foot","hiking":"no","name:en":"Lai Chi Wo Nature Trail","name:zh":"荔枝窩自然步道","network":"lwn","educational":"yes","network:area":"local"},"7858184":{"name":"八仙嶺自然教育徑 Pat Sin Leng Nature Trail","type":"route","route":"hiking","name:en":"Pat Sin Leng Nature Trail","name:zh":"八仙嶺自然教育徑"},"7858185":{"name":"新娘潭自然教育徑 Bride's Pool Nature Trail","type":"route","route":"hiking","name:en":"Bride's Pool Nature Trail","name:zh":"新娘潭自然教育徑","network":"lwn","educational":"yes"},"8539068":{"name":"黃路 Yellow Walk","type":"route","route":"hiking","name:en":"Yellow Walk","name:zh":"黃路","network":"lwn","name:yue":"黃路"},"8539069":{"name":"啡路 Brown Walk","type":"route","route":"hiking","name:en":"Brown Walk","name:zh":"啡路","network":"lwn","name:yue":"啡路"},"8539070":{"name":"藍路 Blue Walk","type":"route","route":"hiking","name:en":"Blue Walk","name:zh":"藍路","network":"lwn","name:yue":"藍路"},"8539071":{"name":"紅路 Red Walk","type":"route","route":"hiking","name:en":"Red Walk","name:zh":"紅路","network":"lwn","name:yue":"紅路"},"9234762":{"name":"龍躍徑 Leaping Dragon Walk","type":"route","route":"hiking","name:en":"Leaping Dragon Walk","name:zh":"龍躍徑"},"9668445":{"name":"鶴藪水塘家樂徑 Hok Tau Reservoir Family Walk","type":"route","route":"hiking","name:en":"Hok Tau Reservoir Family Walk","name:zh":"鶴藪水塘家樂徑"},"9668448":{"name":"鷹巢山自然教育徑 Eagle's Nest Nature Trail","type":"route","route":"hiking"},"9668461":{"name":"扶輪公園自然教育徑 Rotary Park Nature Trail","type":"route","route":"hiking"},"9668462":{"name":"荃錦自然教育徑 Twisk Nature Trail","type":"route","route":"hiking"},"9668463":{"name":"大帽山家樂徑 Tai Mo Shan Family Walk","type":"route","route":"hiking"},"9729476":{"name":"虎地郊遊徑 Fu Tei Country Trail","type":"route","route":"hiking","name:en":"Fu Tei Country Trail","name:zh":"虎地郊遊徑","operator":"Country and Marine Parks Authority, A.F.C.D."},"11216215":{"name":"Ho Pui Reservoir Family Walk","type":"route","route":"hiking","network":"lwn"},"11216263":{"name":"Ngau Kwu Leng Hiking Trail","type":"route","route":"hiking","network":"lwn"},"11814648":{"ref":"H","name":"港島徑第8段 Hong Kong Trail Section 8","type":"route","owner":"郊野公園及海岸公園管理局 Country and Marine Parks Authority","route":"hiking","name:en":"Hong Kong Trail Section 8","name:zh":"港島徑第8段","network":"nwn","operator":"漁農自然護理署 Agriculture, Fisheries and Conservation Department","owner:en":"Country and Marine Parks Authority","owner:zh":"郊野公園及海岸公園管理局","ownership":"government","operator:en":"Agriculture, Fisheries and Conservation Department","operator:zh":"漁農自然護理署","operator:wikidata":"Q841909","operator:ownership":"government"},"11814649":{"ref":"H","name":"港島徑第7段 Hong Kong Trail Section 7","type":"route","owner":"郊野公園及海岸公園管理局 Country and Marine Parks Authority","route":"hiking","name:en":"Hong Kong Trail Section 7","name:zh":"港島徑第7段","network":"nwn","operator":"漁農自然護理署 Agriculture, Fisheries and Conservation Department","owner:en":"Country and Marine Parks Authority","owner:zh":"郊野公園及海岸公園管理局","ownership":"government","operator:en":"Agriculture, Fisheries and Conservation Department","operator:zh":"漁農自然護理署","operator:wikidata":"Q841909","operator:ownership":"government"},"11814650":{"ref":"H","name":"港島徑第6段 Hong Kong Trail Section 6","type":"route","owner":"郊野公園及海岸公園管理局 Country and Marine Parks Authority","route":"hiking","name:en":"Hong Kong Trail Section 6","name:zh":"港島徑第6段","network":"nwn","operator":"漁農自然護理署 Agriculture, Fisheries and Conservation Department","owner:en":"Country and Marine Parks Authority","owner:zh":"郊野公園及海岸公園管理局","ownership":"government","operator:en":"Agriculture, Fisheries and Conservation Department","operator:zh":"漁農自然護理署","operator:wikidata":"Q841909","operator:ownership":"government"},"11814651":{"ref":"H","name":"港島徑第5段 Hong Kong Trail Section 5","type":"route","owner":"郊野公園及海岸公園管理局 Country and Marine Parks Authority","route":"hiking","name:en":"Hong Kong Trail Section 5","name:zh":"港島徑第5段","network":"nwn","operator":"漁農自然護理署 Agriculture, Fisheries and Conservation Department","owner:en":"Country and Marine Parks Authority","owner:zh":"郊野公園及海岸公園管理局","ownership":"government","operator:en":"Agriculture, Fisheries and Conservation Department","operator:zh":"漁農自然護理署","operator:wikidata":"Q841909","operator:ownership":"government"},"11814652":{"ref":"H","name":"港島徑第4段 Hong Kong Trail Section 4","type":"route","owner":"郊野公園及海岸公園管理局 Country and Marine Parks Authority","route":"hiking","name:en":"Hong Kong Trail Section 4","name:zh":"港島徑第4段","network":"nwn","operator":"漁農自然護理署 Agriculture, Fisheries and Conservation Department","owner:en":"Country and Marine Parks Authority","owner:zh":"郊野公園及海岸公園管理局","ownership":"government","operator:en":"Agriculture, Fisheries and Conservation Department","operator:zh":"漁農自然護理署","route_master":"hiking","operator:wikidata":"Q841909","operator:ownership":"government"},"11814653":{"ref":"H","name":"港島徑第3段 Hong Kong Trail Section 3","type":"route","owner":"郊野公園及海岸公園管理局 Country and Marine Parks Authority","route":"hiking","name:en":"Hong Kong Trail Section 3","name:zh":"港島徑第3段","network":"nwn","operator":"漁農自然護理署 Agriculture, Fisheries and Conservation Department","owner:en":"Country and Marine Parks Authority","owner:zh":"郊野公園及海岸公園管理局","ownership":"government","operator:en":"Agriculture, Fisheries and Conservation Department","operator:zh":"漁農自然護理署","operator:wikidata":"Q841909","operator:ownership":"government"},"11814654":{"ref":"H","name":"港島徑第2段 Hong Kong Trail Section 2","type":"route","owner":"郊野公園及海岸公園管理局 Country and Marine Parks Authority","route":"hiking","name:en":"Hong Kong Trail Section 2","name:zh":"港島徑第2段","network":"nwn","operator":"漁農自然護理署 Agriculture, Fisheries and Conservation Department","owner:en":"Country and Marine Parks Authority","owner:zh":"郊野公園及海岸公園管理局","ownership":"government","operator:en":"Agriculture, Fisheries and Conservation Department","operator:zh":"漁農自然護理署","route_master":"hiking","operator:wikidata":"Q841909","operator:ownership":"government"},"11814655":{"ref":"H","name":"港島徑第1段 Hong Kong Trail Section 1","type":"route","owner":"郊野公園及海岸公園管理局 Country and Marine Parks Authority","route":"hiking","name:en":"Hong Kong Trail Section 1","name:zh":"港島徑第1段","network":"nwn","operator":"漁農自然護理署 Agriculture, Fisheries and Conservation Department","owner:en":"Country and Marine Parks Authority","owner:zh":"郊野公園及海岸公園管理局","ownership":"government","operator:en":"Agriculture, Fisheries and Conservation Department","operator:zh":"漁農自然護理署","operator:wikidata":"Q841909","operator:ownership":"government"},"11815068":{"ref":"W","name":"衛奕信徑第10段 Wilson Trail Section 10","type":"route","owner":"郊野公園及海岸公園管理局 Country and Marine Parks Authority","route":"hiking","name:en":"Wilson Trail Section 10","name:zh":"衛奕信徑第10段","network":"nwn","operator":"漁農自然護理署 Agriculture, Fisheries and Conservation Department","owner:en":"Country and Marine Parks Authority","owner:zh":"郊野公園及海岸公園管理局","wikidata":"Q8023239","ownership":"government","operator:en":"Agriculture, Fisheries and Conservation Department","operator:zh":"漁農自然護理署","operator:wikidata":"Q841909","operator:ownership":"government"},"11815069":{"ref":"W","name":"衛奕信徑第9段 Wilson Trail Section 9","type":"route","owner":"郊野公園及海岸公園管理局 Country and Marine Parks Authority","route":"hiking","name:en":"Wilson Trail Section 9","name:zh":"衛奕信徑第9段","network":"nwn","operator":"漁農自然護理署 Agriculture, Fisheries and Conservation Department","owner:en":"Country and Marine Parks Authority","owner:zh":"郊野公園及海岸公園管理局","wikidata":"Q8023239","ownership":"government","operator:en":"Agriculture, Fisheries and Conservation Department","operator:zh":"漁農自然護理署","operator:wikidata":"Q841909","operator:ownership":"government"},"11815070":{"ref":"W","name":"衛奕信徑第8段 Wilson Trail Section 8","type":"route","owner":"郊野公園及海岸公園管理局 Country and Marine Parks Authority","route":"hiking","name:en":"Wilson Trail Section 8","name:zh":"衛奕信徑第8段","network":"nwn","operator":"漁農自然護理署 Agriculture, Fisheries and Conservation Department","owner:en":"Country and Marine Parks Authority","owner:zh":"郊野公園及海岸公園管理局","wikidata":"Q8023239","ownership":"government","operator:en":"Agriculture, Fisheries and Conservation Department","operator:zh":"漁農自然護理署","operator:wikidata":"Q841909","operator:ownership":"government"},"11815071":{"ref":"W","name":"衛奕信徑第7段 Wilson Trail Section 7","type":"route","owner":"郊野公園及海岸公園管理局 Country and Marine Parks Authority","route":"hiking","name:en":"Wilson Trail Section 7","name:zh":"衛奕信徑第7段","network":"nwn","operator":"漁農自然護理署 Agriculture, Fisheries and Conservation Department","owner:en":"Country and Marine Parks Authority","owner:zh":"郊野公園及海岸公園管理局","wikidata":"Q8023239","ownership":"government","operator:en":"Agriculture, Fisheries and Conservation Department","operator:zh":"漁農自然護理署","operator:wikidata":"Q841909","operator:ownership":"government"},"11815072":{"ref":"W","name":"衛奕信徑第6段 Wilson Trail Section 6","type":"route","owner":"郊野公園及海岸公園管理局 Country and Marine Parks Authority","route":"hiking","name:en":"Wilson Trail Section 6","name:zh":"衛奕信徑第6段","network":"nwn","operator":"漁農自然護理署 Agriculture, Fisheries and Conservation Department","owner:en":"Country and Marine Parks Authority","owner:zh":"郊野公園及海岸公園管理局","wikidata":"Q8023239","ownership":"government","operator:en":"Agriculture, Fisheries and Conservation Department","operator:zh":"漁農自然護理署","operator:wikidata":"Q841909","operator:ownership":"government"},"11815073":{"ref":"W","name":"衛奕信徑第5段 Wilson Trail Section 5","type":"route","owner":"郊野公園及海岸公園管理局 Country and Marine Parks Authority","route":"hiking","name:en":"Wilson Trail Section 5","name:zh":"衛奕信徑第5段","network":"nwn","operator":"漁農自然護理署 Agriculture, Fisheries and Conservation Department","owner:en":"Country and Marine Parks Authority","owner:zh":"郊野公園及海岸公園管理局","wikidata":"Q8023239","ownership":"government","operator:en":"Agriculture, Fisheries and Conservation Department","operator:zh":"漁農自然護理署","route_master":"hiking","operator:wikidata":"Q841909","operator:ownership":"government"},"11815074":{"ref":"W","name":"衛奕信徑第4段 Wilson Trail Section 4","type":"route","owner":"郊野公園及海岸公園管理局 Country and Marine Parks Authority","route":"hiking","name:en":"Wilson Trail Section 4","name:zh":"衛奕信徑第4段","network":"nwn","operator":"漁農自然護理署 Agriculture, Fisheries and Conservation Department","owner:en":"Country and Marine Parks Authority","owner:zh":"郊野公園及海岸公園管理局","wikidata":"Q8023239","ownership":"government","operator:en":"Agriculture, Fisheries and Conservation Department","operator:zh":"漁農自然護理署","operator:wikidata":"Q841909","operator:ownership":"government"},"11815075":{"ref":"W","name":"衛奕信徑第3段 Wilson Trail Section 3","type":"route","owner":"郊野公園及海岸公園管理局 Country and Marine Parks Authority","route":"hiking","name:en":"Wilson Trail Section 3","name:zh":"衛奕信徑第3段","network":"nwn","operator":"漁農自然護理署 Agriculture, Fisheries and Conservation Department","owner:en":"Country and Marine Parks Authority","owner:zh":"郊野公園及海岸公園管理局","wikidata":"Q8023239","ownership":"government","operator:en":"Agriculture, Fisheries and Conservation Department","operator:zh":"漁農自然護理署","operator:wikidata":"Q841909","operator:ownership":"government"},"11815076":{"ref":"W","name":"衛奕信徑第2段 Wilson Trail Section 2","type":"route","owner":"郊野公園及海岸公園管理局 Country and Marine Parks Authority","route":"hiking","name:en":"Wilson Trail Section 2","name:zh":"衛奕信徑第2段","network":"nwn","alt_name":"衛奕信徑太古段 Wilson Trail Taikoo Section","operator":"漁農自然護理署 Agriculture, Fisheries and Conservation Department","owner:en":"Country and Marine Parks Authority","owner:zh":"郊野公園及海岸公園管理局","wikidata":"Q8023239","ownership":"government","alt_name:en":"Wilson Trail Taikoo Section","alt_name:zh":"衛奕信徑太古段","operator:en":"Agriculture, Fisheries and Conservation Department","operator:zh":"漁農自然護理署","operator:wikidata":"Q841909","operator:ownership":"government"},"11815077":{"ref":"W","name":"衛奕信徑第1段 Wilson Trail Section 1","type":"route","owner":"郊野公園及海岸公園管理局 Country and Marine Parks Authority","route":"hiking","name:en":"Wilson Trail Section 1","name:zh":"衛奕信徑第1段","network":"nwn","alt_name":"衛亦信徑鴻燊段 Wilson Trail Stanley Section","operator":"漁農自然護理署 Agriculture, Fisheries and Conservation Department","owner:en":"Country and Marine Parks Authority","owner:zh":"郊野公園及海岸公園管理局","wikidata":"Q8023239","ownership":"government","alt_name:en":"Wilson Trail Stanley Section","alt_name:zh":"衛亦信徑鴻燊段","operator:en":"Agriculture, Fisheries and Conservation Department","operator:zh":"漁農自然護理署","operator:wikidata":"Q841909","operator:ownership":"government"},"11815648":{"ref":"M","name":"麥理浩徑第10段 MacLehose Trail Section 10","type":"route","owner":"郊野公園及海岸公園管理局 Country and Marine Parks Authority","route":"hiking","name:en":"MacLehose Trail Section 10","name:zh":"麥理浩徑第10段","network":"nwn","operator":"漁農自然護理署 Agriculture, Fisheries and Conservation Department","owner:en":"Country and Marine Parks Authority","owner:zh":"郊野公園及海岸公園管理局","operation":"government","ownership":"government","operator:en":"Agriculture, Fisheries and Conservation Department","operator:zh":"漁農自然護理署","network:area":"national","operator:wikidata":"Q841909"},"11815649":{"ref":"M","name":"麥理浩徑第9段 MacLehose Trail Section 9","type":"route","owner":"郊野公園及海岸公園管理局 Country and Marine Parks Authority","route":"hiking","name:en":"MacLehose Trail Section 9","name:zh":"麥理浩徑第9段","network":"nwn","operator":"漁農自然護理署 Agriculture, Fisheries and Conservation Department","owner:en":"Country and Marine Parks Authority","owner:zh":"郊野公園及海岸公園管理局","ownership":"government","operator:en":"Agriculture, Fisheries and Conservation Department","operator:zh":"漁農自然護理署","operator:wikidata":"Q841909","operator:ownership":"government"},"11815650":{"ref":"M","name":"麥理浩徑第8段 MacLehose Trail Section 8","type":"route","owner":"郊野公園及海岸公園管理局 Country and Marine Parks Authority","route":"hiking","name:en":"MacLehose Trail Section 8","name:zh":"麥理浩徑第8段","network":"nwn","operator":"漁農自然護理署 Agriculture, Fisheries and Conservation Department","owner:en":"Country and Marine Parks Authority","owner:zh":"郊野公園及海岸公園管理局","ownership":"government","operator:en":"Agriculture, Fisheries and Conservation Department","operator:zh":"漁農自然護理署","operator:wikidata":"Q841909","operator:ownership":"government"},"11815651":{"ref":"M","name":"麥理浩徑第7段 MacLehose Trail Section 7","type":"route","owner":"郊野公園及海岸公園管理局 Country and Marine Parks Authority","route":"hiking","name:en":"MacLehose Trail Section 7","name:zh":"麥理浩徑第7段","network":"nwn","operator":"漁農自然護理署 Agriculture, Fisheries and Conservation Department","owner:en":"Country and Marine Parks Authority","owner:zh":"郊野公園及海岸公園管理局","ownership":"government","operator:en":"Agriculture, Fisheries and Conservation Department","operator:zh":"漁農自然護理署","operator:wikidata":"Q841909","operator:ownership":"government"},"11815652":{"ref":"M","name":"麥理浩徑第6段 MacLehose Trail Section 6","type":"route","owner":"郊野公園及海岸公園管理局 Country and Marine Parks Authority","route":"hiking","name:en":"MacLehose Trail Section 6","name:zh":"麥理浩徑第6段","network":"nwn","operator":"漁農自然護理署 Agriculture, Fisheries and Conservation Department","owner:en":"Country and Marine Parks Authority","owner:zh":"郊野公園及海岸公園管理局","ownership":"government","operator:en":"Agriculture, Fisheries and Conservation Department","operator:zh":"漁農自然護理署","operator:wikidata":"Q841909","operator:ownership":"government"},"11815653":{"ref":"M","name":"麥理浩徑第5段 MacLehose Trail Section 5","type":"route","owner":"郊野公園及海岸公園管理局 Country and Marine Parks Authority","route":"hiking","name:en":"MacLehose Trail Section 5","name:zh":"麥理浩徑第5段","network":"nwn","operator":"漁農自然護理署 Agriculture, Fisheries and Conservation Department","owner:en":"Country and Marine Parks Authority","owner:zh":"郊野公園及海岸公園管理局","ownership":"government","operator:en":"Agriculture, Fisheries and Conservation Department","operator:zh":"漁農自然護理署","operator:wikidata":"Q841909","operator:ownership":"government"},"11815654":{"ref":"M","name":"麥理浩徑第4段 MacLehose Trail Section 4","type":"route","owner":"郊野公園及海岸公園管理局 Country and Marine Parks Authority","route":"hiking","name:en":"MacLehose Trail Section 4","name:zh":"麥理浩徑第4段","network":"nwn","operator":"漁農自然護理署 Agriculture, Fisheries and Conservation Department","owner:en":"Country and Marine Parks Authority","owner:zh":"郊野公園及海岸公園管理局","ownership":"government","operator:en":"Agriculture, Fisheries and Conservation Department","operator:zh":"漁農自然護理署","operator:wikidata":"Q841909","operator:ownership":"government"},"11815655":{"ref":"M","name":"麥理浩徑第3段 MacLehose Trail Section 3","type":"route","owner":"郊野公園及海岸公園管理局 Country and Marine Parks Authority","route":"hiking","name:en":"MacLehose Trail Section 3","name:zh":"麥理浩徑第3段","network":"nwn","operator":"漁農自然護理署 Agriculture, Fisheries and Conservation Department","owner:en":"Country and Marine Parks Authority","owner:zh":"郊野公園及海岸公園管理局","ownership":"government","operator:en":"Agriculture, Fisheries and Conservation Department","operator:zh":"漁農自然護理署","operator:wikidata":"Q841909","operator:ownership":"government"},"11815656":{"ref":"M","name":"麥理浩徑第2段 MacLehose Trail Section 2","type":"route","owner":"郊野公園及海岸公園管理局 Country and Marine Parks Authority","route":"hiking","name:en":"MacLehose Trail Section 2","name:zh":"麥理浩徑第2段","network":"nwn","operator":"漁農自然護理署 Agriculture, Fisheries and Conservation Department","owner:en":"Country and Marine Parks Authority","owner:zh":"郊野公園及海岸公園管理局","ownership":"government","operator:en":"Agriculture, Fisheries and Conservation Department","operator:zh":"漁農自然護理署","operator:wikidata":"Q841909","operator:ownership":"government"},"11815657":{"ref":"M","name":"麥理浩徑第1段 MacLehose Trail Section 1","type":"route","owner":"郊野公園及海岸公園管理局 Country and Marine Parks Authority","route":"hiking","name:en":"MacLehose Trail Section 1","name:zh":"麥理浩徑第1段","network":"nwn","operator":"漁農自然護理署 Agriculture, Fisheries and Conservation Department","owner:en":"Country and Marine Parks Authority","owner:zh":"郊野公園及海岸公園管理局","ownership":"government","operator:en":"Agriculture, Fisheries and Conservation Department","operator:zh":"漁農自然護理署","operator:wikidata":"Q841909","operator:ownership":"government"},"11816201":{"ref":"L","name":"鳳凰徑第12段 Lantau Trail Section 12","type":"route","owner":"郊野公園及海岸公園管理局 Country and Marine Parks Authority","route":"hiking","name:en":"Lantau Trail Section 12","name:zh":"鳳凰徑第12段","network":"nwn","operator":"漁農自然護理署 Agriculture, Fisheries and Conservation Department","owner:en":"Country and Marine Parks Authority","owner:zh":"郊野公園及海岸公園管理局","wikidata":"Q548255","ownership":"government","operator:en":"Agriculture, Fisheries and Conservation Department","operator:zh":"漁農自然護理署","operator:wikidata":"Q841909","operator:ownership":"government"},"11816202":{"ref":"L","name":"鳳凰徑第11段 Lantau Trail Section 11","type":"route","owner":"郊野公園及海岸公園管理局 Country and Marine Parks Authority","route":"hiking","name:en":"Lantau Trail Section 11","name:zh":"鳳凰徑第11段","network":"nwn","operator":"漁農自然護理署 Agriculture, Fisheries and Conservation Department","owner:en":"Country and Marine Parks Authority","owner:zh":"郊野公園及海岸公園管理局","wikidata":"Q548255","ownership":"government","operator:en":"Agriculture, Fisheries and Conservation Department","operator:zh":"漁農自然護理署","operator:wikidata":"Q841909","operator:ownership":"government"},"11816203":{"to":"東涌道 Tung Chung Road","ref":"L","from":"水口 Shui Hau","name":"鳳凰徑第十段 Lantau Trail Section 10","type":"route","owner":"郊野公園及海岸公園管理局 Country and Marine Parks Authority","route":"hiking","to:en":"Tung Chung Road","to:zh":"東涌道","from:en":"Shui Hau","from:zh":"水口","name:en":"Lantau Trail Section 10","name:zh":"鳳凰徑第十段","network":"nwn","operator":"漁農自然護理署 Agriculture, Fisheries and Conservation Department","owner:en":"Country and Marine Parks Authority","owner:zh":"郊野公園及海岸公園管理局","wikidata":"Q548255","ownership":"government","operator:en":"Agriculture, Fisheries and Conservation Department","operator:zh":"漁農自然護理署","operator:wikidata":"Q841909","operator:ownership":"government"},"11816204":{"ref":"L","name":"鳳凰徑第9段 Lantau Trail Section 9","type":"route","owner":"郊野公園及海岸公園管理局 Country and Marine Parks Authority","route":"hiking","name:en":"Lantau Trail Section 9","name:zh":"鳳凰徑第9段","network":"nwn","operator":"漁農自然護理署 Agriculture, Fisheries and Conservation Department","owner:en":"Country and Marine Parks Authority","owner:zh":"郊野公園及海岸公園管理局","wikidata":"Q548255","ownership":"government","operator:en":"Agriculture, Fisheries and Conservation Department","operator:zh":"漁農自然護理署","operator:wikidata":"Q841909","operator:ownership":"government"},"11816205":{"ref":"L","name":"鳳凰徑第8段 Lantau Trail Section 8","type":"route","owner":"郊野公園及海岸公園管理局 Country and Marine Parks Authority","route":"hiking","name:en":"Lantau Trail Section 8","name:zh":"鳳凰徑第8段","network":"nwn","operator":"漁農自然護理署 Agriculture, Fisheries and Conservation Department","owner:en":"Country and Marine Parks Authority","owner:zh":"郊野公園及海岸公園管理局","wikidata":"Q548255","ownership":"government","operator:en":"Agriculture, Fisheries and Conservation Department","operator:zh":"漁農自然護理署","operator:wikidata":"Q841909","operator:ownership":"government"},"11816206":{"ref":"L","name":"鳳凰徑第7段 Lantau Trail Section 7","type":"route","owner":"郊野公園及海岸公園管理局 Country and Marine Parks Authority","route":"hiking","name:en":"Lantau Trail Section 7","name:zh":"鳳凰徑第7段","network":"nwn","operator":"漁農自然護理署 Agriculture, Fisheries and Conservation Department","owner:en":"Country and Marine Parks Authority","owner:zh":"郊野公園及海岸公園管理局","wikidata":"Q548255","ownership":"government","operator:en":"Agriculture, Fisheries and Conservation Department","operator:zh":"漁農自然護理署","operator:wikidata":"Q841909","operator:ownership":"government"},"11816207":{"ref":"L","name":"鳳凰徑第6段 Lantau Trail Section 6","type":"route","owner":"郊野公園及海岸公園管理局 Country and Marine Parks Authority","route":"hiking","name:en":"Lantau Trail Section 6","name:zh":"鳳凰徑第6段","network":"nwn","operator":"漁農自然護理署 Agriculture, Fisheries and Conservation Department","owner:en":"Country and Marine Parks Authority","owner:zh":"郊野公園及海岸公園管理局","wikidata":"Q548255","ownership":"government","operator:en":"Agriculture, Fisheries and Conservation Department","operator:zh":"漁農自然護理署","operator:wikidata":"Q841909","operator:ownership":"government"},"11816208":{"ref":"L","name":"鳳凰徑第5段 Lantau Trail Section 5","type":"route","owner":"郊野公園及海岸公園管理局 Country and Marine Parks Authority","route":"hiking","name:en":"Lantau Trail Section 5","name:zh":"鳳凰徑第5段","network":"nwn","operator":"漁農自然護理署 Agriculture, Fisheries and Conservation Department","owner:en":"Country and Marine Parks Authority","owner:zh":"郊野公園及海岸公園管理局","wikidata":"Q548255","ownership":"government","operator:en":"Agriculture, Fisheries and Conservation Department","operator:zh":"漁農自然護理署","operator:wikidata":"Q841909","operator:ownership":"government"},"11816209":{"ref":"L","name":"鳳凰徑第4段 Lantau Trail Section 4","type":"route","owner":"郊野公園及海岸公園管理局 Country and Marine Parks Authority","route":"hiking","name:en":"Lantau Trail Section 4","name:zh":"鳳凰徑第4段","network":"nwn","operator":"漁農自然護理署 Agriculture, Fisheries and Conservation Department","owner:en":"Country and Marine Parks Authority","owner:zh":"郊野公園及海岸公園管理局","wikidata":"Q548255","ownership":"government","operator:en":"Agriculture, Fisheries and Conservation Department","operator:zh":"漁農自然護理署","operator:wikidata":"Q841909","operator:ownership":"government"},"11816210":{"ref":"L","name":"鳳凰徑第3段 Lantau Trail Section 3","type":"route","owner":"郊野公園及海岸公園管理局 Country and Marine Parks Authority","route":"hiking","name:en":"Lantau Trail Section 3","name:zh":"鳳凰徑第3段","network":"nwn","operator":"漁農自然護理署 Agriculture, Fisheries and Conservation Department","owner:en":"Country and Marine Parks Authority","owner:zh":"郊野公園及海岸公園管理局","wikidata":"Q548255","ownership":"government","operator:en":"Agriculture, Fisheries and Conservation Department","operator:zh":"漁農自然護理署","operator:wikidata":"Q841909","operator:ownership":"government"},"11816211":{"ref":"L","name":"鳳凰徑第2段 Lantau Trail Section 2","type":"route","owner":"郊野公園及海岸公園管理局 Country and Marine Parks Authority","route":"hiking","name:en":"Lantau Trail Section 2","name:zh":"鳳凰徑第2段","network":"nwn","operator":"漁農自然護理署 Agriculture, Fisheries and Conservation Department","owner:en":"Country and Marine Parks Authority","owner:zh":"郊野公園及海岸公園管理局","wikidata":"Q548255","ownership":"government","operator:en":"Agriculture, Fisheries and Conservation Department","operator:zh":"漁農自然護理署","operator:wikidata":"Q841909","operator:ownership":"government"},"12110701":{"name":"Tuen Mun Trail","type":"route","route":"hiking"},"12472884":{"name":"黃泥涌樹木研習徑 Wong Nai Chung Tree Walk","type":"route","route":"foot","hiking":"no","name:en":"Wong Nai Chung Tree Walk","name:zh":"黃泥涌樹木研習徑","network":"lwn","subject":"樹木 trees","subject:en":"Trees","subject:zh":"樹木","educational":"yes","subject:wikidata":"Q10884"},"12472885":{"name":"金督馳馬徑 Sir Cecil's Ride","type":"route","route":"foot","sport":"running","hiking":"no","name:en":"Sir Cecil's Ride","name:zh":"金督馳馬徑","network":"rwn"},"12477205":{"name":"鰂魚涌樹木研習徑 Quarry Bay Tree Walk","type":"route","route":"foot","hiking":"no","name:en":"Quarry Bay Tree Walk","name:zh":"鰂魚涌樹木研習徑","network":"lwn","subject":"樹木 trees","subject:en":"Trees","subject:zh":"樹木","educational":"yes","subject:wikidata":"Q10884"},"12613953":{"name":"寶聯徑 Po Luen Path","type":"route","route":"foot","name:en":"Po Luen Path","name:zh":"寶聯徑"},"12842010":{"to":"赤柱 Stanley","via":"摩星嶺 Mount Davis","from":"堅尼地城 Kennedy Town","name":"南區海濱長廊 Southern District Coastal Trail","type":"route","fixme":"Check Chung Hom Kok -- Stanely section","owner":"南區區議會 Southern District District Council","route":"foot","to:en":"Stanley","to:zh":"赤柱","hiking":"no","via:en":"Mount Davis","via:zh":"摩星嶺","from:en":"Kennedy Town","from:zh":"堅尼地城","name:en":"Southern District Coastal Trail","name:zh":"南區海濱長廊","network":"rwn","operator":"南區民政事務處 Southern District Office","owner:en":"Southern District District Council","owner:zh":"南區區議會","operation":"government","ownership":"public","operator:en":"Southern District Office","operator:zh":"南區民政事務處","owner:wikidata":"Q7569875","operator:wikidata":"Q2303929"},"13335255":{"name":"大欖自然教育徑 Tai Lam Nature Trail","type":"route","route":"hiking","name:en":"Tai Lam Nature Trail","name:zh":"大欖自然教育徑","network":"lwn","educational":"yes","network:area":"local"},"14021391":{"to":"荔枝窩 Lai Chi Wo","ref":"C27","via":"三椏村 Sam A Tsuen","from":"烏蛟騰 Wu Kau Tang","name":"印洲塘郊遊徑 Double Haven Country Trail","type":"route","route":"hiking","to:en":"Lai Chi Wo","to:zh":"荔枝窩","via:en":"Sam A Tsuen","via:zh":"三椏村","from:en":"Wu Kau Tang","from:zh":"烏蛟騰","name:en":"Double Haven Country Trail","name:zh":"印洲塘郊遊徑","network":"rwn","network:ref":"C","network:area":"regional","network:name":"郊遊徑 Country Trail","network:name:en":"Country Trail","network:name:zh":"郊遊徑"}}