{"282071":{"name":"שביל ישראל","type":"route","image":"https://upload.wikimedia.org/wikipedia/commons/9/90/PikiWiki_Israel_12132_Geography_of_Israel.jpg","route":"hiking","name:ar":"ممر إسرائيل الوطني","name:de":"Israel National Trail","name:en":"Israel National Trail","name:he":"שביל ישראל","network":"nwn","int_name":"Israel Trail","name:en1":"Shvil Israel","operator":"itc","wikidata":"Q583897","wikipedia":"he:שביל ישראל","short_name":"INT","int_name:en":"Israel Trail","osmc:symbol":"orange:orange:white_right:blue_stripe","wikipedia:en":"Israel National Trail"},"364191":{"name":"שביל ישו","type":"route","route":"hiking","name:ar":"ممر عيسى","name:de":"Jesusweg","name:en":"Jesus Trail","name:he":"שביל ישו","network":"rwn","website":"https://jesustrail.com/","name:he1":"דרך הבשורה","operator":"itc","wikidata":"Q1149449","wikipedia":"he:שביל ישו","osmc:symbol":"orange:white:orange_stripe","wikipedia:en":"Jesus Trail","wikipedia:he":"שביל ישו"},"568661":{"name":"שביל הגולן","type":"route","route":"hiking","name:ar":"ممر الجولان","name:en":"Golan Trail","name:he":"שביל הגולן","network":"rwn","website":"https://tourgolan.org.il/golan-trail/","operator":"itc","wikidata":"Q6883092","wikipedia":"he:שביל הגולן","description":"שביל באורך 130 ק\\\"מ לאורך הצד המזרחי של רמת הגולן. השביל מתחיל בצפון באתר החרמון (הקופות) ובדרום הרמה בעין עקוב (תאופיק). השביל מסומן בסימון שבילים בצבעים לבן, כחול וירוק וסומן ע\\\"י הוועדה לשבילי ישראל ביוזמת עמותת תיירות גולן.","osmc:symbol":"green:green:white_right:blue_stripe","wikipedia:he":"שביל הגולן","description:he":"שביל באורך 130 ק\\\"מ לאורך הצד המזרחי של רמת הגולן. השביל מתחיל בצפון באתר החרמון (הקופות) ובדרום הרמה בעין עקוב (תאופיק). השביל מסומן בסימון שבילים בצבעים לבן, כחול וירוק וסומן ע\\\"י הוועדה לשבילי ישראל ביוזמת עמותת תיירות גולן."},"1281646":{"ref":"9362","name":"דרך נוף דרומית","type":"route","route":"hiking","name:en":"Southern Scenic Route","name:he":"דרך נוף דרומית","network":"lwn","operator":"itc","osmc:symbol":"blue:white:blue_stripe"},"1281678":{"ref":"9344","name":"דרך נוף צפונית","type":"route","route":"hiking","name:en":"Northen Scenic Route","name:he":"דרך נוף צפונית","network":"lwn","operator":"itc","osmc:symbol":"black:white:black_stripe"},"1281833":{"ref":"9347","name":"דרך דיפנבייקר","type":"route","route":"hiking","name:en":"Diefenbaker Route","name:he":"דרך דיפנבייקר","network":"lwn","operator":"itc","description":"ע\\\"ש ראש ממשלת קנדה. הדרך עוברת על רכס המשלטים.","osmc:symbol":"red:white:red_stripe","description:he":"ע\\\"ש ראש ממשלת קנדה. הדרך עוברת על רכס המשלטים."},"1281869":{"ref":"9329","name":"נחל כסלון","type":"route","image":"https://upload.wikimedia.org/wikipedia/commons/0/04/IHM_נחל_כסלון.jpeg","route":"hiking","name:ar":"واد كسلون","name:en":"Nahal Kisalon","name:he":"נחל כסלון","network":"lwn","operator":"itc","alt_name:ar":"وادي كسلون","osmc:symbol":"red:white:red_stripe"},"1282167":{"ref":"1532","name":"למפל גמלא","type":"route","route":"hiking","network":"lwn","operator":"itc","description":"מפל גמלא","osmc:symbol":"red:white:red_stripe","description:he":"מפל גמלא"},"1282499":{"ref":"11260","name":"נחל כידוד עילי","type":"route","route":"hiking","name:he":"נחל כידוד עילי","network":"lwn","operator":"itc","description":"נחל כידוד מסלול מעגלי","osmc:symbol":"green:white:green_stripe","description:he":"נחל כידוד מסלול מעגלי"},"1282503":{"ref":"11250","name":"עוקף נחל פראים","type":"route","route":"hiking","name:he":"עוקף נחל פראים","network":"lwn","operator":"itc","osmc:symbol":"red:white:red_stripe"},"1282589":{"name":"מערת אצבע","type":"route","route":"hiking","name:he":"מערת אצבע","network":"lwn","operator":"itc","osmc:symbol":"black:white:black_stripe"},"1283056":{"name":"הר פיתולים","type":"route","route":"hiking","name:en":"Har Pitulim","name:he":"הר פיתולים","network":"lwn","operator":"itc","osmc:symbol":"black:white:black_stripe"},"1283911":{"ref":"9322","name":"צובה-נחל שורק","type":"route","route":"hiking","name:en":"Zova - Nahal Sorek","name:he":"צובה-נחל שורק","network":"lwn","operator":"itc","osmc:symbol":"green:white:green_stripe"},"1283913":{"name":"נחל רפאים תחתון","type":"route","route":"hiking","name:en":"Nahal Sorek","name:he":"נחל רפאים תחתון","network":"lwn","operator":"itc","osmc:symbol":"red:white:red_stripe"},"1288369":{"ref":"17182","name":"ציר הנפט","type":"route","route":"hiking","name:en":"Zir HaNeft","name:he":"ציר הנפט","network":"lwn","operator":"itc","osmc:symbol":"black:white:black_stripe"},"1291776":{"name":"נוף הכרמל","type":"route","route":"hiking","name:en":"Nof HaCarmel","name:he":"נוף הכרמל","network":"lwn","operator":"itc","osmc:symbol":"black:white:black_stripe"},"1293248":{"name":"נוף הכרמל","type":"route","route":"hiking","name:en":"Nof HaCarmel","name:he":"נוף הכרמל","network":"lwn","operator":"itc","osmc:symbol":"green:white:green_stripe"},"1298758":{"ref":"3250","name":"שביל הפסגה הר תבור","type":"route","route":"hiking","name:en":"Summit Trail","network":"lwn","operator":"itc","osmc:symbol":"black:white:black_stripe"},"1299516":{"ref":"9422","name":"נחל מערה","type":"route","route":"hiking","name:en":"Nahal Meara","name:he":"נחל מערה","network":"lwn","name:en1":"Meara stream","operator":"itc","description":"נחל מערה","osmc:symbol":"red:white:red_stripe","description:he":"נחל מערה"},"1300400":{"ref":"9423","name":"חורבת עתאב","type":"route","route":"hiking","name:en":"Itab ruins","name:he":"חורבת עתאב","network":"lwn","operator":"itc","osmc:symbol":"blue:white:blue_stripe"},"1302132":{"ref":"9446","name":"חורבת מדרס - מצפה משואה","note":"הודעה מקק\\\"ל - השביל האדום 9446 ממצפה משואה לחירבית מידרס סגור זמנית לטיול ,עקב בעיות בטיחות בחציית כביש 38 (שדה ראייה מוגבל). אנו נערכים לאיתור מסלול חלופי שישרת את המטיילים הרבים הפוקדים את האזור.","type":"route","route":"hiking","bicycle":"yes","name:en":"Midras ruins - Masua observatory","name:he":"חורבת מדרס - מצפה משואה","network":"lwn","note:url":"https://www.teva.org.il/?CategoryID=279&ArticleID=430","operator":"itc","osmc:symbol":"red:white:red_stripe"},"1306119":{"ref":"9437","name":"עדולם שחור","type":"route","route":"hiking","bicycle":"yes","name:en":"Adulam Black","name:he":"עדולם שחור","network":"lwn","operator":"itc","osmc:symbol":"black:white:black_stripe"},"1307934":{"ref":"9356","name":"יתלה","type":"route","route":"hiking","bicycle":"yes","name:en":"Yitle","name:he":"יתלה","network":"lwn","operator":"itc","osmc:symbol":"black:white:black_stripe"},"1308552":{"ref":"9351","name":"דרך הג'יפים","type":"route","name1":"דרך בורמה","route":"hiking","name:en":"The Jeeps road","name:he":"דרך הג'יפים","network":"lwn","name:en1":"Burma Road","operator":"itc","osmc:symbol":"red:white:red_stripe"},"1341960":{"name":"שורק - דרך נוף דרומית","type":"route","route":"hiking","name:en":"Sorek - Southern Scenic Route","name:he":"שורק - דרך נוף דרומית","network":"lwn","operator":"itc","osmc:symbol":"black:white:black_stripe"},"1341961":{"name":"הר יעלה","type":"route","route":"hiking","name:en":"Har Yaala","name:he":"הר יעלה","network":"lwn","operator":"itc","osmc:symbol":"blue:white:blue_stripe"},"1341983":{"name":"מחסיה-יעלה","type":"route","route":"hiking","name:en":"Mahseya - Yaala","name:he":"מחסיה-יעלה","network":"lwn","operator":"itc","osmc:symbol":"red:white:red_stripe"},"1344267":{"ref":"9359","name":"יד אנה פרנק","note":"partial","type":"route","image":"https://upload.wikimedia.org/wikipedia/commons/8/80/IHM_יד_אנה_פרנק.jpeg","route":"hiking","image1":"https://upload.wikimedia.org/wikipedia/commons/a/a5/IHM_יד_אנה_פרנק_1.jpeg","name:en":"Megilat HaEsh","name:he":"יד אנה פרנק","network":"lwn","operator":"itc","description":"סטיה קלה משביל ישראל לאנדרטה של פיט כהן שהושפע מעץ הערמונים שאנה פרנק מתארת ביומנה","osmc:symbol":"green:white:green_stripe","description:he":"סטיה קלה משביל ישראל לאנדרטה של פיט כהן שהושפע מעץ הערמונים שאנה פרנק מתארת ביומנה"},"1347071":{"name":"לעין מטע","type":"route","route":"hiking","name:en":"red to ein-mata","name:he":"לעין מטע","network":"lwn","operator":"itc","osmc:symbol":"red:white:red_stripe"},"1347072":{"name":"בין זנוח לסיפלה","type":"route","route":"hiking","name:en":"zanoach-sifla","name:he":"בין זנוח לסיפלה","network":"lwn","operator":"itc","osmc:symbol":"green:white:green_stripe"},"1348956":{"ref":"9380","name":"יער הנשיא - ירוק","type":"route","route":"hiking","name:en":"Hanasi forest - green","name:he":"יער הנשיא - ירוק","network":"lwn","operator":"itc","osmc:symbol":"green:white:green_stripe"},"1348957":{"ref":"9379","name":"דרך נוף צרעה","type":"route","route":"hiking","name:en":"Tzoraa scenic route","name:he":"דרך נוף צרעה","network":"lwn","operator":"itc","osmc:symbol":"red:white:red_stripe"},"1370862":{"name":"דרך בורמה המצרית","type":"route","image":"https://amudanan.co.il/w/images/20220307_102026_2.jpg","route":"hiking","name:en":"Egyptian Burma Road","name:he":"דרך בורמה המצרית","network":"lwn","description":"דרך בורמה המצרית הוא כינוי לדרך ששימשה כקו עורפי במערך המצרי ב-1948 בין עיראק סוידאן לפלוג'ה, מדרום לכביש מג'דל [אשקלון]- בית ג'ברין. דרך זו הייתה מוגנת ע\\\"י מערך משלטים מצריים מבוצרים.","osmc:symbol":"black:white:black_stripe","description:he":"דרך בורמה המצרית הוא כינוי לדרך ששימשה כקו עורפי במערך המצרי ב-1948 בין עיראק סוידאן לפלוג'ה, מדרום לכביש מג'דל [אשקלון]- בית ג'ברין. דרך זו הייתה מוגנת ע\\\"י מערך משלטים מצריים מבוצרים."},"1371045":{"ref":"12461","name":"הר להבים","type":"route","route":"hiking","name:en":"Har Lehavim","name:he":"הר להבים","network":"lwn","operator":"itc","osmc:symbol":"red:white:red_stripe"},"1371475":{"ref":"11247","name":"נחל טביה","type":"route","route":"hiking","name:en":"Nahal Tavia","name:he":"נחל טביה","network":"lwn","operator":"itc","osmc:symbol":"blue:white:blue_stripe"},"1373434":{"ref":"17195","name":"נחל אפור","type":"route","route":"hiking","name:en":"Nahal Afor","name:he":"נחל אפור","network":"lwn","name:en1":"Afor Stream","operator":"itc","osmc:symbol":"red:white:red_stripe"},"1373435":{"ref":"17190","name":"נחל ארדון","type":"route","route":"hiking","name:en":"Nahal Ardon","name:he":"נחל ארדון","network":"lwn","name:en1":"Ardon Stream","operator":"itc","osmc:symbol":"black:white:black_stripe"},"1373446":{"ref":"17188","name":"שביל נחל אדום","type":"route","route":"hiking","name:en":"Nahal Adom Trail","name:he":"שביל נחל אדום","network":"lwn","operator":"itc","osmc:symbol":"red:white:red_stripe"},"1373447":{"name":"גבעת חרוט","note":"transparent trail colour","type":"route","route":"hiking","name:en":"Harut Hill","name:he":"גבעת חרוט","network":"lwn","operator":"itc","osmc:symbol":"black:white"},"1373448":{"ref":"17186","name":"הר ארדון","type":"route","route":"hiking","name:en":"Har Ardon","name:he":"הר ארדון","network":"lwn","operator":"itc","osmc:symbol":"blue:white:blue_stripe"},"1397878":{"ref":"9321","name":"סובב הר איתן","type":"route","image":"https://upload.wikimedia.org/wikipedia/commons/5/5c/Israel_Hiking_Map_סובב_הר_איתן.jpeg","route":"hiking","name:he":"סובב הר איתן","network":"lwn","website":"http://nelech.co.il/2020/04/26/%d7%a9%d7%91%d7%99%d7%9c-%d7%94%d7%a8-%d7%90%d7%99%d7%aa%d7%9f/","operator":"itc","description":"שביל נופי מסביב לפסגתו של הר איתן","osmc:symbol":"red:white:red_stripe","description:he":"שביל נופי מסביב לפסגתו של הר איתן"},"1532628":{"name":"שביל האירוסים","type":"route","route":"hiking","name:en":"HaIrisim Trail","name:he":"שביל האירוסים","network":"lwn","name:en1":"Iris Path","operator":"itc","osmc:symbol":"green:white:green_stripe"},"1534064":{"ref":"17430","name":"נחל ברק","type":"route","image":"https://upload.wikimedia.org/wikipedia/commons/c/c8/BarakRiver.jpg","route":"hiking","name:en":"Nahal Barak","name:he":"נחל ברק","network":"lwn","operator":"itc","wikipedia":"he:נחל ברק","osmc:symbol":"blue:white:blue_stripe","wikipedia:he":"נחל ברק"},"1534156":{"ref":"17290","name":"ציר הנפט","type":"route","route":"hiking","name:en":"Zir HaNeft","name:he":"ציר הנפט","network":"lwn","operator":"itc","osmc:symbol":"black:white:black_stripe"},"1534214":{"ref":"17260","name":"דרך הבשמים","type":"route","route":"hiking","name:en":"Spice Route","name:he":"דרך הבשמים","network":"lwn","name:en1":"Derech HaBsamim","operator":"itc","osmc:symbol":"red:white:red_stripe"},"1558739":{"name":"מפל זוויתן","type":"route","route":"hiking","name:en":"Zavitan Falls","name:he":"מפל זוויתן","network":"lwn","operator":"itc","osmc:symbol":"blue:white:blue_stripe"},"1626817":{"name":"שביל נחל יהודיה","type":"route","route":"hiking","name:en":"Nahal Yehudiya Trail","name:he":"שביל נחל יהודיה","network":"lwn","name:en1":"Yehudiya Stream","operator":"itc","osmc:symbol":"red:white:red_stripe"},"1675835":{"name":"שביל הבעל","type":"route","route":"hiking","name:en":"Shvil HaBaal","name:he":"שביל הבעל","network":"lwn","operator":"itc","osmc:symbol":"blue:white:blue_stripe"},"1675851":{"name":"שביל השומרות","type":"route","route":"hiking","name:en":"Shomerot Trail","name:he":"שביל השומרות","network":"lwn","operator":"itc","osmc:symbol":"red:white:red_stripe"},"2142320":{"name":"רמת סהרונים","type":"route","route":"hiking","source":"GPS","name:en":"Ramat Saharonim","name:he":"רמת סהרונים","network":"lwn","operator":"itc","osmc:symbol":"blue:white:blue_stripe"},"2162274":{"ref":"9324","name":"עין טייסים - הר טייסים","type":"route","route":"hiking","name:en":"Ein Tayasim - Har Tayasim","name:he":"עין טייסים - הר טייסים","network":"lwn","website":"https://nelech.co.il/2020/11/17/%D7%9E%D7%94%D7%A8-%D7%94%D7%98%D7%99%D7%99%D7%A1%D7%99%D7%9D-%D7%9C%D7%A2%D7%99%D7%9F-%D7%98%D7%99%D7%99%D7%A1%D7%99%D7%9D/","operator":"itc","osmc:symbol":"black:white:black_stripe"},"2162503":{"ref":"9316","name":"ציר המעיינות","type":"route","route":"hiking","name:he":"ציר המעיינות","network":"lwn","operator":"kkl","osmc:symbol":"green:white:green_stripe"},"2162505":{"name":"חרבת סעדים - עין תמר","type":"route","route":"hiking","name:en":"Hirbat Se'adim - Ein Tamar","name:he":"חרבת סעדים - עין תמר","network":"lwn","operator":"kkl","osmc:symbol":"blue:white:blue_stripe"},"2164248":{"ref":"15130","name":"המכתש הגדול - מעלה אברהם","type":"route","route":"hiking","name:he":"המכתש הגדול - מעלה אברהם","network":"lwn","operator":"itc","osmc:symbol":"red:white:red_stripe"},"2165457":{"ref":"17042","name":"קניון מסור","type":"route","route":"hiking","name:he":"קניון מסור","network":"lwn","operator":"itc","osmc:symbol":"red:white:red_stripe"},"2165458":{"ref":"17040","name":"נחל מסור","type":"route","route":"hiking","name:en":"Nahal Masor","name:he":"נחל מסור","network":"lwn","operator":"itc","osmc:symbol":"green:white:green_stripe"},"2165459":{"ref":"17042","name":"הר מסור","type":"route","route":"hiking","name:he":"הר מסור","network":"lwn","operator":"itc","osmc:symbol":"green:white:green_stripe"},"2165713":{"ref":"11422","name":"נחל פרצים עליון","type":"route","route":"hiking","name:he":"נחל פרצים עליון","network":"lwn","operator":"itc","osmc:symbol":"black:white:black_stripe"},"2165741":{"name":"ציר המצלעות","type":"route","route":"hiking","name:he":"ציר המצלעות","network":"lwn","operator":"itc","osmc:symbol":"blue:white:blue_stripe"},"2167314":{"ref":"14125","name":"שביל נחל אביה","type":"route","route":"hiking","name:en":"Nahal Aviya Trail","name:he":"שביל נחל אביה","network":"lwn","operator":"itc","description":"נחל אביה","osmc:symbol":"black:white:black_stripe","description:he":"נחל אביה"},"2167315":{"ref":"14362","name":"ציר המעינות","type":"route","route":"hiking","name:he":"ציר המעינות","network":"lwn","operator":"itc","osmc:symbol":"black:white:black_stripe"},"2189106":{"ref":"14264","name":"נחל גוב","type":"route","image":"https://upload.wikimedia.org/wikipedia/commons/5/5d/IHM_נחל_גוב.jpeg","route":"hiking","image1":"https://upload.wikimedia.org/wikipedia/commons/1/1e/IHM_נחל_גוב_1.jpeg","image3":"https://upload.wikimedia.org/wikipedia/commons/a/a1/IHM_נחל_גוב_3.jpeg","image5":"https://upload.wikimedia.org/wikipedia/commons/c/c1/IHM_נחל_גוב_5.jpeg","image6":"https://upload.wikimedia.org/wikipedia/commons/d/da/IHM_נחל_גוב_6.jpeg","image7":"https://upload.wikimedia.org/wikipedia/commons/5/5d/IHM_נחל_גוב_7.jpeg","image11":"https://upload.wikimedia.org/wikipedia/commons/8/89/IHM_נחל_גוב_11.jpeg","image13":"https://upload.wikimedia.org/wikipedia/commons/0/09/IHM_נחל_גוב_13.jpeg","image14":"https://upload.wikimedia.org/wikipedia/commons/9/9e/IHM_נחל_גוב_14.jpeg","image15":"https://upload.wikimedia.org/wikipedia/commons/7/7d/IHM_נחל_גוב_15.jpeg","name:en":"Nahal Gov","name:he":"נחל גוב","network":"lwn","operator":"itc","osmc:symbol":"green:white:green_stripe"},"2189112":{"ref":"14266","name":"מעלה צפיר","type":"route","route":"hiking","name:en":"Tzafir Ascend","name:he":"מעלה צפיר","network":"lwn","alt_name":"מעלה עקרבים הרומי","operator":"itc","alt_name:en":"Roman Akrabim Ascend","alt_name:he":"מעלה עקרבים הרומי","osmc:symbol":"blue:white:blue_stripe"},"2189151":{"ref":"18369","name":"מעגלי בורות לוץ","type":"route","route":"hiking","name:en":"Lots Cisterns circuit","name:he":"מעגלי בורות לוץ","network":"lwn","operator":"itc","description":"בורות לוץ מעגלי","osmc:symbol":"red:white:red_stripe","description:he":"בורות לוץ מעגלי"},"2193374":{"name":"שביל אזורי גליל עליון","type":"route","route":"hiking","name:ar":"ممر إقليمي الجليل الأعلى","name:en":"Northern Galilee Regional Trail","name:he":"שביל אזורי גליל עליון","network":"rwn","operator":"itc","osmc:symbol":"purple:white:purple_stripe"},"2199295":{"name":"נחל הבשור - נחל הרועה","type":"route","route":"hiking","name:he":"נחל הבשור - נחל הרועה","network":"lwn","operator":"itc","osmc:symbol":"red:white:red_stripe"},"2199298":{"name":"נחל משורה","type":"route","route":"hiking","name:he":"נחל משורה","network":"lwn","operator":"itc","osmc:symbol":"black:white:black_stripe"},"2200398":{"name":"נחל זיתן","type":"route","route":"hiking","name:en":"Nahal Zeitan","name:he":"נחל זיתן","network":"lwn","operator":"itc","osmc:symbol":"green:white:green_stripe"},"2204587":{"name":"שביל נחל ראש פינה","type":"route","image":"https://upload.wikimedia.org/wikipedia/commons/f/f2/Israel_Hiking_Map_%D7%A0%D7%97%D7%9C_%D7%A8%D7%90%D7%A9_%D7%A4%D7%99%D7%A0%D7%94.jpeg","route":"hiking","name:en":"Nahal Rosh Pina Trail","name:he":"שביל נחל ראש פינה","network":"lwn","website":"http://www.nelech.co.il/%D7%9E%D7%A1%D7%9C%D7%95%D7%9C%D7%99%D7%9D/%D7%9E%D7%99%D7%93%D7%A2/%D7%A0%D7%97%D7%9C-%D7%A8%D7%90%D7%A9-%D7%A4%D7%99%D7%A0%D7%94","operator":"itc","description":"מסלול קצר לארכו של חלק מנחל ראש פינה","osmc:symbol":"black:white:black_stripe","description:he":"מסלול קצר לארכו של חלק מנחל ראש פינה"},"2207779":{"name":"דרך נוף יער עמוקה","type":"route","route":"hiking","name:en":"Amuka Forest Scenic Road","name:he":"דרך נוף יער עמוקה","network":"lwn","operator":"itc","osmc:symbol":"green:white:green_stripe"},"2240076":{"name":"נחל כזיב","type":"route","image":"https://upload.wikimedia.org/wikipedia/commons/a/a3/IHM_נחל_כזיב.jpeg","route":"hiking","name:en":"Nahal Kziv","name:he":"נחל כזיב","network":"lwn","operator":"itc","osmc:symbol":"green:white:green_stripe"},"2306852":{"name":"חורבת קרתא","type":"route","route":"hiking","name:he":"חורבת קרתא","network":"lwn","operator":"itc","osmc:symbol":"blue:white:blue_stripe"},"2459025":{"name":"בורות רמליה","type":"route","image":"https://upload.wikimedia.org/wikipedia/commons/7/71/Israel_Hiking_Map_בורות_רמליה_2.jpeg","route":"hiking","image1":"https://upload.wikimedia.org/wikipedia/commons/a/ab/Israel_Hiking_Map_בורות_רמליה_3.jpeg","name:he":"בורות רמליה","network":"lwn","operator":"itc","osmc:symbol":"black:white:black_stripe"},"2459066":{"name":"שביל נחל עבדת","type":"route","route":"hiking","name:en":"Nahal Avdat Trail","name:he":"שביל נחל עבדת","network":"lwn","operator":"itc","osmc:symbol":"red:white:red_stripe"},"2459321":{"name":"נחל ניצנה","type":"route","route":"hiking","name:en":"Nahal Nitsana","name:he":"נחל ניצנה","network":"lwn","operator":"itc","osmc:symbol":"black:white:black_stripe"},"2504605":{"name":"נחל קטלב","type":"route","image":"https://upload.wikimedia.org/wikipedia/commons/d/d6/NahalKtalav02_ST_06.jpg","route":"hiking","name:en":"Nahal Katlav","name:he":"נחל קטלב","network":"lwn","operator":"itc","wikipedia":"he:נחל קטלב","osmc:symbol":"black:white:black_stripe","wikipedia:he":"נחל קטלב"},"2534589":{"name":"נחל דולב","type":"route","route":"hiking","name:en":"Nahal Dolev","name:he":"נחל דולב","network":"lwn","name:en1":"Dolev Creek","operator":"itc","osmc:symbol":"black:white:black_stripe"},"2717928":{"name":"עין יואל","type":"route","route":"hiking","name:en":"Ein Yoel","name:he":"עין יואל","network":"lwn","operator":"itc","osmc:symbol":"blue:white:blue_stripe"},"2747463":{"name":"נחל הבשור - דרך נוף","type":"route","image":"https://upload.wikimedia.org/wikipedia/commons/4/4f/Israel_Hiking_Map_%D7%A0%D7%97%D7%9C_%D7%94%D7%91%D7%A9%D7%95%D7%A8_-_%D7%93%D7%A8%D7%9A_%D7%A0%D7%95%D7%A3.jpeg","route":"hiking","name:he":"נחל הבשור - דרך נוף","network":"lwn","website":"http://www.nelech.co.il/%D7%9E%D7%A1%D7%9C%D7%95%D7%9C%D7%99%D7%9D/%D7%9E%D7%99%D7%93%D7%A2/%D7%93%D7%A8%D7%9A-%D7%A0%D7%95%D7%A3-%D7%A0%D7%97%D7%9C-%D7%94%D7%91%D7%A9%D7%95%D7%A8","operator":"itc","description":"דרך נופית לאורכו של נחל הבשור עם מס' נקודות עצירה","osmc:symbol":"blue:white:blue_stripe","description:he":"דרך נופית לאורכו של נחל הבשור עם מס' נקודות עצירה"},"2796001":{"name":"קניון הבזלת - נחל תבור","type":"route","route":"hiking","name:en":"Basalt Canyon - Tabor Stream","name:he":"קניון הבזלת - נחל תבור","network":"lwn","operator":"itc","description":"קניון בזלת נחל תבור","osmc:symbol":"blue:white:blue_stripe","description:he":"קניון בזלת נחל תבור"},"2806536":{"name":"נחל זיו ונחל רמז","type":"route","route":"hiking","name:he":"נחל זיו ונחל רמז","network":"lwn","operator":"itc","description":"השביל חסום על ידי עצים שנפלו בעקבות השריפה","osmc:symbol":"red:white:red_stripe","description:he":"08/12/2017                                                                                                                                                                                                                                                                                                                                                                                                                                                                                                                                                                                                                                                                                                                                                                                                                                                                                                                                                                                                                                                                                                                                                                                                                                                                                                                                                                                                                                                                                                                                                                                                                                                                                                                                                                                                                                                                                                                                                                                                                                                                                                                                                                                                                                                                                                                                                                                                                                                                                                                                                                                                                                                                                                                                                                                                                                                                                                                                                                                                                                                                                                                                                                                                                                                                                                                                                                                                                                                                                                                                                                                                                                                                                                                                                                                                                                                                                                                                                                                                                                                                                "},"2810565":{"name":"דרך נוף נחל שקמה","type":"route","route":"hiking","name:en":"Nahal Shikma scenic road","name:he":"דרך נוף נחל שקמה","network":"lwn","operator":"itc","osmc:symbol":"blue:white:blue_stripe"},"2846837":{"name":"הר תנופה","type":"route","route":"hiking","colour":"blue","name:he":"הר תנופה","network":"lwn","operator":"kkl"},"2860967":{"name":"מסע מים אל ים","type":"route","name2":"ים אל ים","route":"hiking","name:en":"Sea to Sea Hiking Trail","name:he":"מסע מים אל ים","network":"rwn","website":"https://he.wikivoyage.org/wiki/%D7%9E%D7%A1%D7%A2_%D7%9E%D7%99%D7%9D_%D7%90%D7%9C_%D7%99%D7%9D","name:en1":"From Sea to Sea","name:en3":"From Coast to Coast","name:en4":"Sea to Sea","name:he1":"חוף אל חוף","operator":"itc","website1":"https://en.wikivoyage.org/wiki/Sea_to_Sea_(Yam_el_Yam)","wikipedia":"he:מסע מים אל ים","osmc:symbol":"purple:white:purple_stripe","wikipedia:en":"Sea to Sea Hiking Trail","wikipedia:he":"מסע מים אל ים"},"2895128":{"name":"נחל לבן","type":"route","route":"hiking","name:en":"Nahal Lavan","name:he":"נחל לבן","network":"lwn","operator":"itc","osmc:symbol":"red:white:red_stripe"},"3200049":{"name":"נחל זויתן תחתון","type":"route","route":"hiking","name:en":"Lower Nahal Zavitan","name:he":"נחל זויתן תחתון","network":"lwn","operator":"itc","osmc:symbol":"black:white:black_stripe"},"3218946":{"ref":"18280","name":"נחל אלות","type":"route","route":"hiking","name:en":"Nahal Alot","name:he":"נחל אלות","network":"lwn","operator":"itc","osmc:symbol":"blue:white:blue_stripe"},"3218950":{"name":"נחל חרשה","type":"route","route":"hiking","name:he":"נחל חרשה","network":"lwn","operator":"itc","osmc:symbol":"black:white:black_stripe"},"3432589":{"ref":"14183","name":"הסנפיר הקטן","type":"route","image":"https://upload.wikimedia.org/wikipedia/commons/3/38/Israel_Hiking_Map_%D7%A1%D7%A0%D7%A4%D7%99%D7%A8_%D7%A7%D7%98%D7%9F.jpeg","route":"hiking","name:he":"הסנפיר הקטן","network":"lwn","operator":"itc","description":"מסלול קצר ומאד מומלץ עם תצפית נהדרת לכיוון המכתש ולכיוון החולות הצבעוניים עוד מידעל על המסלול בקישור https://goo.gl/bSf3vu","osmc:symbol":"green:white:green_stripe","description:he":"מסלול קצר ומאד מומלץ עם תצפית נהדרת לכיוון המכתש ולכיוון החולות הצבעוניים עוד מידעל על המסלול בקישור https://goo.gl/bSf3vu"},"3438295":{"name":"נחל קרקש","type":"route","route":"hiking","name:he":"נחל קרקש","network":"lwn","operator":"itc","osmc:symbol":"green:white:green_stripe"},"3441022":{"ref":"4171","name":"שוויצריה הקטנה","type":"route","image":"https://upload.wikimedia.org/wikipedia/commons/2/28/IHM_שוויצריה_הקטנה.jpeg","route":"hiking","image1":"https://upload.wikimedia.org/wikipedia/commons/b/b1/IHM_שוויצריה_הקטנה_1.jpeg","image2":"https://upload.wikimedia.org/wikipedia/commons/a/a3/IHM_שוויצריה_הקטנה_2.jpeg","image3":"https://upload.wikimedia.org/wikipedia/commons/a/a3/IHM_שוויצריה_הקטנה_3.jpeg","image4":"https://upload.wikimedia.org/wikipedia/commons/3/39/IHM_שוויצריה_הקטנה_4.jpeg","image5":"https://upload.wikimedia.org/wikipedia/commons/d/db/IHM_שוויצריה_הקטנה_5.jpeg","image6":"https://upload.wikimedia.org/wikipedia/commons/7/75/IHM_שוויצריה_הקטנה_6.jpeg","name:en":"Little Switzerland","name:he":"שוויצריה הקטנה","network":"lwn","operator":"itc","osmc:symbol":"red:white:red_stripe"},"3445561":{"name":"הר יעלה","type":"route","route":"hiking","name:he":"הר יעלה","network":"lwn","operator":"itc","osmc:symbol":"green:white:green_stripe"},"3467324":{"name":"נחל קינה","type":"route","route":"hiking","name:en":"Nahal Kina","name:he":"נחל קינה","network":"lwn","name:en1":"Kina Stream","operator":"itc","osmc:symbol":"green:white:green_stripe"},"3472179":{"ref":"1","name":"שביל חיפה - העיר התחתית","type":"route","route":"hiking","colour":"#336699","length":"3.75","name:en":"Haifa Trail - Downtown","name:he":"שביל חיפה - העיר התחתית","network":"lwn","website":"https://www.haifatrail.com/haifa-trail-segment01-heb.htm","operator":"Haifa Trail","description":"מקטע 1: העיר התחתית - מלידתה של עיר הנמל אל הפנים לעתיד"},"3480489":{"name":"מעקף נחל גוב","type":"route","route":"hiking","name:he":"מעקף נחל גוב","network":"lwn","operator":"itc","osmc:symbol":"black:white:black_stripe"},"3640190":{"ref":"2332","name":"שביל הפסגה","type":"route","route":"hiking","name:en":"Shvil Hapasgah","name:he":"שביל הפסגה","network":"lwn","website":"https://nelech.co.il/2020/05/17/%d7%a9%d7%91%d7%99%d7%9c-%d7%94%d7%a4%d7%a1%d7%92%d7%94-%d7%91%d7%94%d7%a8-%d7%9e%d7%99%d7%a8%d7%95%d7%9f/","operator":"itc","description":"מסלול מעגלי מול נוף מדהים","osmc:symbol":"red:white:red_stripe","description:he":"מסלול מעגלי מול נוף מדהים"},"3656477":{"name":"דרך החלמוניות","type":"route","route":"hiking","name:he":"דרך החלמוניות","network":"lwn","operator":"itc","osmc:symbol":"black:white:black_stripe"},"3658049":{"name":"דרך המאגר","type":"route","route":"hiking","name:he":"דרך המאגר","network":"lwn","operator":"itc","osmc:symbol":"blue:white:blue_stripe"},"3668304":{"ref":"19177","name":"הקניון הלבן","type":"route","route":"hiking","name:he":"הקניון הלבן","network":"lwn","operator":"itc","osmc:symbol":"green:white:green_stripe"},"3670393":{"name":"חולות כיסוי","type":"route","image":"https://upload.wikimedia.org/wikipedia/commons/5/5f/Israel_Hiking_Map_%D7%97%D7%95%D7%9C%D7%95%D7%AA_%D7%9B%D7%99%D7%A1%D7%95%D7%99.jpeg","route":"hiking","image1":"https://upload.wikimedia.org/wikipedia/commons/0/09/IHM_חולות_כיסוי.jpeg","image2":"https://upload.wikimedia.org/wikipedia/commons/d/d4/IHM_חולות_כיסוי_1.jpeg","image3":"https://upload.wikimedia.org/wikipedia/commons/5/59/IHM_חולות_כיסוי_2.jpeg","image4":"https://upload.wikimedia.org/wikipedia/commons/9/95/IHM_חולות_כיסוי_3.jpeg","image5":"https://upload.wikimedia.org/wikipedia/commons/4/4b/IHM_חולות_כיסוי_4.jpeg","image6":"https://upload.wikimedia.org/wikipedia/commons/7/7a/IHM_חולות_כיסוי_5.jpeg","image7":"https://upload.wikimedia.org/wikipedia/commons/b/b6/IHM_חולות_כיסוי_6.jpeg","image8":"https://upload.wikimedia.org/wikipedia/commons/f/f8/IHM_חולות_כיסוי_7.jpeg","image9":"https://upload.wikimedia.org/wikipedia/commons/3/31/IHM_חולות_כיסוי_8.jpeg","image10":"https://upload.wikimedia.org/wikipedia/commons/4/45/IHM_חולות_כיסוי_9.jpeg","name:en":"Kasuy Sands","name:he":"חולות כסוי","network":"lwn","operator":"itc","osmc:symbol":"red:white:red_stripe"},"3724556":{"name":"שביל המעיין","type":"route","route":"hiking","name:ar":"درب العين","name:en":"Spring Trail","name:he":"שביל המעיין","network":"lwn","operator":"Ramat HaNadiv"},"3724557":{"name":"שביל האחוזה","type":"route","route":"hiking","name:ar":"درب المزرعة","name:en":"Manor Trail","name:he":"שביל האחוזה","network":"lwn","operator":"Ramat HaNadiv"},"3730770":{"ref":"11448","name":"מצפור הר צבאים","type":"route","route":"hiking","name:he":"מצפור הר צבאים","network":"lwn","operator":"itc","osmc:symbol":"green:white:green_stripe"},"3734116":{"name":"שביל ואדיות חיפה","type":"route","route":"hiking","name:en":"Haifa Wadis Trail","name:he":"שביל ואדיות חיפה","network":"rwn","website":"https://www.facebook.com/WadisTrail","alt_name":"Wadis Trail","int_name":"Haifa Wadis Trail","operator":"Yarok Balev NGO"},"3743660":{"name":"חזורי","type":"route","route":"hiking","name:he":"חזורי","network":"lwn","operator":"itc","osmc:symbol":"blue:white:blue_stripe"},"3743661":{"name":"גובתה","type":"route","route":"hiking","name:en":"Guvta","name:he":"גובתה","network":"lwn","operator":"itc","osmc:symbol":"black:white:black_stripe"},"3745748":{"name":"חוות תמרת","type":"route","route":"hiking","name:en":"Timrat Farm","name:he":"חוות תמרת","network":"lwn","operator":"itc","osmc:symbol":"blue:white:blue_stripe"},"3806756":{"name":"דרך חרובית","type":"route","image":"https://upload.wikimedia.org/wikipedia/commons/3/3b/IHM_דרך_חרובית.jpeg","route":"hiking","colour":"red","name:en":"Derech Haruvit","name:he":"דרך חרובית","network":"lwn","operator":"kkl"},"3855661":{"ref":"9462","name":"שביל הבורות והבארות","type":"route","route":"hiking","name:he":"שביל הבורות והבארות","network":"lwn","website":"https://inature.info/wiki/%D7%A9%D7%91%D7%99%D7%9C_%D7%94%D7%91%D7%95%D7%A8%D7%95%D7%AA_%D7%95%D7%94%D7%91%D7%90%D7%A8%D7%95%D7%AA","operator":"itc","osmc:symbol":"red:white:red_stripe"},"3952979":{"ref":"13203","name":"דרך נוף נחל שקמה","type":"route","route":"hiking","name:en":"Nahal Shikma Scenic Route","name:he":"דרך נוף נחל שקמה","network":"lwn","operator":"itc","osmc:symbol":"blue:white:blue_stripe"},"3955312":{"ref":"9417","name":"עין מטע - שייח אחמד","type":"route","route":"hiking","name:he":"עין מטע - שייח אחמד","network":"lwn","operator":"itc","osmc:symbol":"blue:white:blue_stripe"},"4001972":{"ref":"9424","name":"שביל הקיסר","type":"route","route":"hiking","name:en":"Caesar Trail","name:he":"שביל הקיסר","network":"lwn","operator":"itc","osmc:symbol":"red:white:red_stripe"},"4036873":{"name":"דרך השיזף","type":"route","route":"hiking","name:he":"דרך השיזף","network":"lwn","operator":"itc","osmc:symbol":"green:white:green_stripe"},"4079129":{"ref":"17059","name":"נחל חגור","type":"route","route":"hiking","name:en":"Nahal Hagor","name:he":"נחל חגור","network":"lwn","operator":"itc","osmc:symbol":"black:white:black_stripe"},"4141240":{"name":"דרך נוף יער טורען","type":"route","route":"hiking","name:he":"דרך נוף יער טורען","network":"lwn","alt_name":"דרך נוף יער תורען","operator":"itc","osmc:symbol":"blue:white:blue_stripe"},"4169083":{"name":"דרך נוף יער קרית אתא","type":"route","route":"hiking","name:he":"דרך נוף יער קרית אתא","network":"lwn","surface":"paved","operator":"itc","osmc:symbol":"green:white:green_stripe"},"4179428":{"name":"הר צרור","type":"route","route":"hiking","name:he":"הר צרור","network":"lwn","operator":"itc","osmc:symbol":"green:white:green_stripe"},"4179429":{"name":"נחל צרור","type":"route","route":"hiking","name:en":"Nahal Zaror","name:he":"נחל צרור","network":"lwn","operator":"itc","osmc:symbol":"blue:white:blue_stripe"},"4179718":{"name":"חוד עקב","type":"route","route":"hiking","name:he":"חוד עקב","network":"lwn","operator":"itc","osmc:symbol":"red:white:red_stripe"},"4250947":{"ref":"11011","name":"מעלה ישי","type":"route","route":"hiking","name:en":"Maale Yishai","name:he":"מעלה ישי","network":"lwn","operator":"itc","osmc:symbol":"black:white:black_stripe"},"4255164":{"ref":"14141","name":"נחל צפית תיכון","type":"route","route":"hiking","name:he":"נחל צפית תיכון","network":"lwn","operator":"itc","osmc:symbol":"black:white:black_stripe"},"4515449":{"name":"גיא סלעים","type":"route","route":"hiking","name:en":"Ge Selaim","name:he":"גיא סלעים","network":"lwn","operator":"itc","osmc:symbol":"black:white:black_stripe"},"4738527":{"name":"נחל נוקד","type":"route","route":"hiking","name:en":"Nahal Noked","name:he":"נחל נוקד","network":"lwn","operator":"itc","osmc:symbol":"red:white:red_stripe"},"4763281":{"name":"נוף גבעת המורה","type":"route","route":"hiking","name:he":"נוף גבעת המורה","network":"lwn","operator":"itc","osmc:symbol":"blue:white:blue_stripe"},"5145441":{"name":"שביל סובב כנרת","type":"route","route":"hiking","name:en":"Kinneret Trail","name:he":"שביל סובב כנרת","network":"rwn","operator":"itc","osmc:symbol":"blue:blue:white_right:purple_stripe"},"5441009":{"ref":"1452","name":"קצרין-זויתן-חניון יהודיה","type":"route","route":"hiking","name:he":"קצרין-זויתן-חניון יהודיה","network":"lwn","operator":"itc","osmc:symbol":"black:white:black_stripe"},"5441761":{"name":"נחל שועלים","type":"route","route":"hiking","name:en":"Nahal Shualim","name:he":"נחל שועלים","network":"lwn","operator":"itc","osmc:symbol":"green:white:green_stripe"},"5473959":{"name":"מהשומר הראשון לאסטרונאוט הראשון","type":"route","route":"hiking","name:he":"מהשומר הראשון לאסטרונאוט הראשון","network":"lwn","operator":"itc","osmc:symbol":"blue:white:blue_stripe"},"5637837":{"ref":"11344","name":"מעלה זרון הרגלי","type":"route","route":"hiking","name:he":"מעלה זרון הרגלי","network":"lwn","operator":"itc","osmc:symbol":"red:white:red_stripe"},"5737466":{"name":"מבית הכנסת לעין ארבל","type":"route","route":"hiking","network":"lwn","operator":"itc","osmc:symbol":"green:white:green_stripe"},"5819232":{"name":"שביל הצניר","type":"route","route":"hiking","name:he":"שביל הצניר","network":"lwn","operator":"itc","osmc:symbol":"green:white:green_stripe"},"5978930":{"name":"ציר המצלעות","type":"route","route":"hiking","name:he":"ציר המצלעות","network":"lwn","operator":"itc","osmc:symbol":"blue:white:blue_stripe"},"6048411":{"name":"דרך נוף שלוחת צבאים","type":"route","route":"hiking","name:he":"דרך נוף שלוחת צבאים","network":"lwn","operator":"itc","osmc:symbol":"green:white:green_stripe"},"6048412":{"name":"דרך נוף שלוחת צבאים","type":"route","route":"hiking","name:he":"דרך נוף שלוחת צבאים","network":"lwn","operator":"itc","osmc:symbol":"green:white:green_stripe"},"6085788":{"name":"שביל אדמונית החורש","type":"route","route":"hiking","name:he":"שביל אדמונית החורש","network":"lwn","operator":"itc","osmc:symbol":"black:white:black_stripe"},"6130576":{"name":"מסלול חבושית","type":"route","route":"hiking","name:en":"Habushit Trail","name:he":"מסלול חבושית","network":"lwn","operator":"itc","description":"נדרש תאום בטחוני","osmc:symbol":"green:white:green_stripe","description:he":"נדרש תאום בטחוני"},"6146510":{"name":"הר ההר","type":"route","route":"hiking","name:en":"Hor HaHar","name:he":"הר ההר","network":"lwn","operator":"itc","osmc:symbol":"green:white:green_stripe"},"6148296":{"name":"סובב מכתש רמון","type":"route","route":"hiking","colour":"#800080","name:en":"Ramon Crater Loop","name:he":"סובב מכתש רמון","network":"rwn","website":"https://mitzpe-ramon.co.il/%D7%A1%D7%95%D7%91%D7%91-%D7%9E%D7%9B%D7%AA%D7%A9-%D7%A8%D7%9E%D7%95%D7%9F-%D7%94%D7%9E%D7%93%D7%A8%D7%99%D7%9A-%D7%94%D7%A8%D7%A9%D7%9E%D7%99-%D7%94%D7%A9%D7%9C%D7%9D/","name:en1":"Makhtesh Ramon Loop","operator":"itc","wikidata":"Q105811485","osmc:symbol":"purple:white:purple_stripe"},"6148872":{"name":"שביל הר הנגב","type":"route","route":"hiking","name:en":"Negev Highland Trail","name:he":"שביל הר הנגב","network":"rwn","operator":"itc","osmc:symbol":"purple:white:purple_stripe"},"6158070":{"name":"שביל נחל עכברה","type":"route","route":"hiking","name:en":"Nahal Akbara Trail","name:he":"שביל נחל עכברה","network":"lwn","operator":"itc","osmc:symbol":"blue:white:blue_stripe"},"6158141":{"name":"שביל הלוחמים","type":"route","route":"hiking","name:en":"Warriors Trail","name:he":"שביל הלוחמים","network":"lwn","operator":"itc","osmc:symbol":"red:white:red_stripe"},"6159782":{"name":"גבעת חלב","type":"route","route":"hiking","name:he":"גבעת חלב","network":"lwn","operator":"itc","osmc:symbol":"black:white:black_stripe"},"6159874":{"name":"מצוק רמות נפתלי","type":"route","route":"hiking","name:he":"מצוק רמות נפתלי","network":"lwn","operator":"itc","osmc:symbol":"red:white:red_stripe"},"6172482":{"name":"פקיעין-חרשים","type":"route","route":"hiking","name:he":"פקיעין-חרשים","network":"lwn","operator":"itc","osmc:symbol":"black:white:black_stripe"},"6174837":{"name":"תל חצור למערת עלמה","type":"route","route":"hiking","name:he":"תל חצור למערת עלמה","network":"lwn","operator":"itc","osmc:symbol":"black:white:black_stripe"},"6359565":{"name":"שביל יזרעאל","type":"route","route":"hiking","name:ar":"ممر يزراعيل","name:en":"Jezreel Trail","name:he":"שביל יזרעאל","network":"rwn","operator":"itc","osmc:symbol":"orange:white:orange_stripe"},"6371673":{"name":"שביל יער בלפור","type":"route","route":"hiking","name:en":"Balfour Forest Trail","name:he":"שביל יער בלפור","network":"lwn","operator":"itc","osmc:symbol":"red:white:red_stripe"},"6413906":{"ref":"18295","name":"מעגלי ראש אלות","type":"route","route":"hiking","name:en":"Rosh Alot circuit","name:he":"מעגלי ראש אלות","network":"lwn","operator":"itc","osmc:symbol":"green:white:green_stripe"},"6414088":{"name":"שביל עריף - כרכום","type":"route","route":"hiking","name:he":"שביל עריף - כרכום","network":"lwn","operator":"itc","osmc:symbol":"black:white:black_stripe"},"6414604":{"name":"מתל שימרון לאבן השבת","type":"route","route":"hiking","name:he":"מתל שימרון לאבן השבת","network":"lwn","operator":"itc","osmc:symbol":"green:white:green_stripe"},"6425309":{"name":"Wadi Vardiya","type":"route","route":"hiking","name:en":"Wadi Vardiya","network":"lwn","operator":"Yarok Balev NGO","osmc:symbol":"red:white"},"6436605":{"name":"שביל הדסה","type":"route","image":"https://upload.wikimedia.org/wikipedia/commons/4/40/IHM_שביל_הדסה.jpeg","route":"hiking","name:en":"Hadassah Trail","name:he":"שביל הדסה","network":"lwn","operator":"Hadassah","description":"מסלול רגלי הסובב את בית החולים הדסה עין כרם","description:he":"מסלול רגלי הסובב את בית החולים הדסה עין כרם"},"6532687":{"name":"מסדרון אקולוגי גבעת העיזים","type":"route","route":"hiking","name:en":"Goats' Hill Eco-Corridor","name:he":"מסדרון אקולוגי גבעת העיזים","network":"lwn","operator":"Yarok Balev NGO","osmc:symbol":"red:red:white:red_right"},"6543734":{"name":"דרך הלב","type":"route","route":"hiking","name:en":"HaLev Trail","name:he":"דרך הלב","network":"lwn","website":"https://www.lev-hasharon.com/275/","name:en1":"Derech HaLev","operator":"Lev HaSharon regional council"},"6752114":{"ref":"11009","name":"שביל צפית","type":"route","route":"hiking","name:en":"Tsafit Trail","name:he":"שביל צפית","network":"lwn","operator":"itc","osmc:symbol":"red:white:red_stripe"},"6907062":{"name":"נאות קדומים","type":"route","image":"https://upload.wikimedia.org/wikipedia/commons/b/b1/IHM_נאות_קדומים_1.jpeg","route":"hiking","colour":"black","image1":"https://upload.wikimedia.org/wikipedia/commons/3/3d/IHM_נאות_קדומים.jpeg","name:en":"Neot Kedumim","name:he":"נאות קדומים","network":"lwn","operator":"kkl"},"6968703":{"ref":"17580","name":"שביל נחל אוביל","type":"route","route":"hiking","name:en":"Nahal Ovil Trail","name:he":"שביל נחל אוביל","network":"lwn","name:en1":"Ovil Stream trail","operator":"itc","osmc:symbol":"green:white:green_stripe"},"6991124":{"name":"שביל סובב באר שבע","type":"route","route":"hiking","name:en":"Beer-Sheva Circuit Track","name:he":"שביל סובב באר שבע","network":"rwn","operator":"itc"},"7095080":{"name":"שביל נחל יחיעם","type":"route","route":"hiking","name:en":"Nahal Yehiam Trail","name:he":"שביל נחל יחיעם","network":"lwn","operator":"itc","osmc:symbol":"green:white:green_stripe"},"7121629":{"name":"שביל עמק המעיינות","type":"route","route":"hiking","name:en":"Valley of Springs Trail","name:he":"שביל עמק המעיינות","network":"rwn","operator":"kkl","wikipedia":"he:שביל עמק המעיינות","description":"ייחודו של העמק במעיינות הרבים שבו, הנובעים למרגלות הגלבוע. נחל חרוד זורם כל השנה. בריכות דגים רבות, עופות מים. בעונות הנדידה חולפים מאות אלפי עופות. השביל מסומן לכל אורכו גם במפת סימון שבילים הגליל התחתון.","osmc:symbol":"orange:white:orange_stripe","wikipedia:he":"שביל עמק המעיינות","description:he":"ייחודו של העמק במעיינות הרבים שבו, הנובעים למרגלות הגלבוע. נחל חרוד זורם כל השנה. בריכות דגים רבות, עופות מים. בעונות הנדידה חולפים מאות אלפי עופות. השביל מסומן לכל אורכו גם במפת סימון שבילים הגליל התחתון."},"7127257":{"name":"ואדי אל ג'ורם","type":"route","route":"hiking","name:he":"ואדי אל ג'ורם","network":"lwn","operator":"itc","osmc:symbol":"blue:white:blue_stripe"},"7137363":{"name":"שביל הנשרים","type":"route","route":"hiking","name:ar":"درب النسور","name:en":"Vultures Trail","name:he":"שביל הנשרים","network":"lwn","operator":"Ramat HaNadiv","osmc:symbol":"green:white:green_stripe"},"7145773":{"name":"Ovadia Caves","type":"route","route":"hiking","name:en":"Ovadia Caves","name:he":"מערות עובדיה","network":"lwn","operator":"Yarok Balev NGO"},"7892853":{"name":"שביל ת'מילת עתק","type":"route","route":"hiking","name:he":"שביל ת'מילת עתק","network":"lwn","operator":"itc","osmc:symbol":"black:white:black_stripe"},"7894161":{"ref":"18381","name":"מעגלי באר חורשה","type":"route","route":"hiking","name:en":"Be'er Horsha circuit","name:he":"מעגלי באר חורשה","network":"lwn","operator":"itc","osmc:symbol":"black:white:black_stripe"},"7897741":{"name":"Sakin Yotam","type":"route","route":"hiking","name:he":"סכין יותם","network":"lwn","operator":"itc","osmc:symbol":"blue:white:blue_stripe"},"8206964":{"ref":"14170","name":"שביל נחל ממשית","type":"route","route":"hiking","name:he":"שביל נחל ממשית","network":"lwn","operator":"itc","osmc:symbol":"blue:white:blue_stripe"},"8949205":{"name":"שביל נחל צפונות","type":"route","route":"hiking","name:en":"Nahal Tsfunot Trail","name:he":"שביל נחל צפונות","network":"lwn","operator":"itc","osmc:symbol":"red:white:red_stripe"},"9155266":{"ref":"19410","name":"נחל קטורה","type":"route","route":"hiking","name:en":"Nahal Ketura","name:he":"נחל קטורה","network":"lwn","operator":"itc","osmc:symbol":"green:white:green_stripe"},"9333016":{"name":"נחל יעלים מעגלי","type":"route","route":"hiking","name:he":"נחל יעלים מעגלי","network":"lwn","operator":"itc","osmc:symbol":"black:white:black_stripe"},"9577127":{"name":"שביל הכלניות","type":"route","route":"foot","name:en":"HaKalaniyot Trail","name:he":"שביל הכלניות","network":"lwn","name:en1":"Anemone Coronarian"},"9747426":{"name":"אגמון חפר","type":"route","route":"foot","name:he":"אגמון חפר","network":"lwn"},"10025315":{"name":"שביל ישראל ישן","type":"route","route":"hiking","name:en":"Old Israel Trail","name:he":"שביל ישראל ישן","network":"nwn","name:en1":"Old Shvil Israel","operator":"itc","short_name":"INT","osmc:symbol":"orange:orange:white_right:blue_stripe"},"10067472":{"name":"טיילת קריית חרושת","type":"route","route":"foot","name:he":"טיילת קריית חרושת"},"10553683":{"ref":"11248","name":"שביל הנוף","type":"route","route":"hiking","name:he":"שביל הנוף","network":"lwn","operator":"itc","osmc:symbol":"black:white:black_stripe"},"10712995":{"name":"עמק הנהר הנעלם","type":"route","route":"foot","name:en":"Hidden River Trail","name:he":"עמק הנהר הנעלם","alt_name":"פארק הנהר הנעלם","wikidata":"Q70231956","start_date":"1990","alt_name:en":"Hidden River Park"},"10742578":{"name":"סובב עין כרם","type":"route","route":"hiking","name:he":"סובב עין כרם","network":"lwn","operator":"itc","description":"הולכים","osmc:symbol":"green:white:green_stripe","description:he":"הולכים"},"10751899":{"name":"שביל אילן","type":"route","route":"hiking","name:en":"Ilan's trail","name:he":"שביל אילן","network":"lwn","operator":"itc","osmc:symbol":"green:white:green_stripe"},"11776457":{"ref":"9446","name":"סובב מצפה משואה","type":"route","route":"hiking","source":"https://www.eyarok.org.il/trip.aspx?id=2400","name:he":"סובב מצפה משואה","network":"lwn","operator":"itc","osmc:symbol":"red:white:red_stripe"},"11904919":{"ref":"14142","name":"נחל צפית עליון","type":"route","route":"hiking","name:he":"נחל צפית עליון","network":"lwn","operator":"itc","osmc:symbol":"black:white:black_stripe"},"11912539":{"name":"שביל המערות ובור המים","type":"route","route":"hiking","name:he":"שביל המערות ובור המים","network":"lwn","operator":"kkl"},"12377710":{"name":"צוקי גשרון","type":"route","route":"hiking","name:he":"צוקי גשרון","network":"lwn","operator":"itc","osmc:symbol":"black:white:black_stripe"},"12485248":{"name":"סובב רמת אלון","type":"route","route":"hiking","colour":"yellow","name:en":"Ramat Alon Circuit","name:he":"סובב רמת אלון","network":"lwn","operator":"Yarok Balev NGO"},"12485296":{"name":"תל אהרון","type":"route","route":"hiking","name:en":"Tell Aharon","name:he":"תל אהרון","network":"lwn","operator":"Yarok Balev NGO"},"12508770":{"name":"ואדי שנק","type":"route","route":"hiking","colour":"green","name:ar":"شناق الحرش","name:en":"Wadi Shanak","name:he":"ואדי שנק","network":"lwn","operator":"Yarok Balev NGO"},"12508800":{"name":"שביל סביוני הכרמל","type":"route","route":"hiking","name:en":"Savionei HaCarmel Path","name:he":"שביל סביוני הכרמל","network":"lwn","operator":"Municipality of Haifa"},"12508801":{"name":"ואדי בן-דור","type":"route","route":"hiking","name:en":"Wadi Ben-Dor","name:he":"ואדי בן-דור","network":"lwn","operator":"Yarok Balev NGO"},"12876760":{"name":"שביל כורזים–כפר נחום","type":"route","route":"hiking","name:he":"שביל כורזים–כפר נחום","network":"lwn","operator":"itc","osmc:symbol":"blue:white:blue_stripe"},"12876859":{"ref":"3048","name":"נחל צלמון תחתון","type":"route","route":"hiking","name:he":"נחל צלמון תחתון","network":"lwn","operator":"itc","osmc:symbol":"blue:white:blue_stripe"},"12886803":{"name":"נחל יבנאל תחתון","type":"route","route":"hiking","name:he":"נחל יבנאל תחתון","network":"lwn","operator":"itc","osmc:symbol":"black:white:black_stripe"},"12886804":{"name":"נחל יבנאל תחתון","type":"route","route":"hiking","name:he":"נחל יבנאל תחתון","network":"lwn","website":"https://nelech.co.il/2020/03/12/%D7%A0%D7%97%D7%9C-%D7%99%D7%91%D7%A0%D7%90%D7%9C-%D7%AA%D7%97%D7%AA%D7%95%D7%9F-%D7%A2%D7%99%D7%9F-%D7%9B%D7%95%D7%A9-%D7%95%D7%A2%D7%99%D7%9F-%D7%A4%D7%98%D7%9C/","operator":"itc","description":"מסלול נחמד ליד החלק התחתון של נחל יבנאל","osmc:symbol":"blue:white:blue_stripe"},"12887039":{"ref":"2393","name":"שביל נחל יצהר","type":"route","route":"hiking","name:en":"Nahal Yitzhar Trail","name:he":"שביל נחל יצהר","network":"lwn","operator":"itc","osmc:symbol":"blue:white:blue_stripe"},"12887051":{"ref":"2219","name":"מעיליא–עין טמיר","type":"route","route":"hiking","name:he":"מעיליא–עין טמיר","network":"lwn","operator":"itc","osmc:symbol":"red:white:red_stripe"},"12887611":{"name":"השביל הנסתר","type":"route","route":"hiking","name:he":"השביל הנסתר","network":"lwn","operator":"Amirim","osmc:symbol":"blue:white:blue_stripe"},"12887612":{"name":"שביל החורש - רימונים","type":"route","route":"hiking","name:he":"שביל החורש - רימונים","network":"lwn","operator":"Amirim","osmc:symbol":"yellow:white:yellow_stripe"},"13137517":{"name":"מקטע ראשון ישן של שביל ישראל","type":"route","route":"hiking","name:en":"Old Israel Trail","network":"nwn","name:en1":"Old First Section of Shvil Israel","operator":"itc"},"13207704":{"name":"שביל חיפה","note":"This is a super relation for all Haifa Trail segments","type":"route","route":"hiking","name:en":"Haifa Trail","name:he":"שביל חיפה","network":"lwn","website":"https://www.haifatrail.com/","int_name":"Haifa Trail","operator":"Haifa Trail","description":"21 מסלולים היוצרים טרק מעגלי של 70 קילומטר של עיר וטבע"},"13363169":{"ref":"2","name":"שביל חיפה - הדר הכרמל","type":"route","route":"hiking","colour":"#ff0066","length":"3.3","name:en":"Haifa Trail - Hadar Ha'Carmel","name:he":"שביל חיפה - הדר הכרמל","network":"lwn","website":"https://www.haifatrail.com/haifa-trail-segment02-heb.htm","operator":"Haifa Trail","description":"מקטע 2: הדר הכרמל – ראשיתה של חיפה היהודית"},"13363223":{"ref":"3","name":"שביל חיפה - הדר עליון ורמת הדר","type":"route","route":"hiking","colour":"#CC0000","length":"3","name:en":"Haifa Trail - Upper Hadar and Ramat Hadar","name:he":"שביל חיפה - הדר עליון ורמת הדר","network":"lwn","website":"https://www.haifatrail.com/haifa-trail-segment03-heb.htm","operator":"Haifa Trail","description":"מקטע 3: הדר עליון ורמת הדר - שיק חיפאי ומודרניזם הררי בשיאו"},"13619903":{"name":"נחל סעיפים","type":"route","route":"hiking","name:he":"נחל סעיפים","network":"lwn","operator":"itc","osmc:symbol":"green:white:green_stripe"},"13669254":{"name":"שביל תל רכש","type":"route","route":"hiking","name:he":"שביל תל רכש","network":"lwn","operator":"itc","osmc:symbol":"red:white:red_stripe"},"13855821":{"name":"שביל עוקף אבירים","type":"route","route":"hiking","name:he":"שביל עוקף אבירים","network":"rwn","description":"שביל מסומן בסימון צהוב לא רשמי כחלופה לתוואי הרשמי של ים אל ים.","description:he":"שביל מסומן בסימון צהוב לא רשמי כחלופה לתוואי הרשמי של ים אל ים."},"14034242":{"name":"שביל כרמל צרפתי","type":"route","route":"hiking","name:en":"French Carmel trail","name:he":"שביל כרמל צרפתי","network":"lwn","operator":"Yarok Balev NGO"},"14048191":{"ref":"9471","name":"שביל רכסים","type":"route","route":"hiking","name:en":"Rekhasim Trail","name:he":"שביל רכסים","network":"lwn","operator":"itc","osmc:symbol":"blue:white:blue_stripe"},"14234104":{"name":"סובב אמירים","type":"route","route":"hiking","name:he":"סובב אמירים","network":"lwn","operator":"Amirim","osmc:symbol":"red:white:red_stripe"},"14293307":{"name":"שביל החצבים","type":"route","route":"foot","network":"lwn","operator":"רט\\\"ג"},"14609265":{"name":"תל חדיד","type":"route","image":"https://upload.wikimedia.org/wikipedia/commons/8/8e/IHM_תל_חדיד_1.jpeg","route":"hiking","colour":"red","name:en":"Tel Hadid","name:he":"תל חדיד","network":"lwn","operator":"kkl"},"14610314":{"name":"שיזפים עתיקים","type":"route","image":"https://upload.wikimedia.org/wikipedia/commons/3/32/IHM_שיזפים_עתיקים.jpeg","route":"hiking","colour":"black","name:en":"The Ancient Shizafim Trees","name:he":"שיזפים עתיקים","network":"lwn","operator":"kkl"},"14632721":{"name":"שביל התצפית","type":"route","route":"hiking","colour":"red","name:en":"Viewpoint Path","name:he":"שביל התצפית","network":"lwn","operator":"Yarok Balev NGO"},"14642613":{"name":"מצפה מודיעין","type":"route","image":"https://upload.wikimedia.org/wikipedia/commons/d/d0/IHM_מצפה_מודיעין.jpeg","route":"hiking","colour":"red","image1":"https://upload.wikimedia.org/wikipedia/commons/5/55/IHM_מצפה_מודיעין_1.jpeg","name:en":"Mitzpe Modiin","name:he":"מצפה מודיעין","network":"lwn","operator":"kkl"},"14642794":{"name":"בקעת הנזירים","type":"route","image":"https://upload.wikimedia.org/wikipedia/commons/0/01/IHM_בקעת_הנזירים.jpeg","route":"hiking","colour":"blue","image1":"https://upload.wikimedia.org/wikipedia/commons/a/a9/IHM_בקעת_הנזירים_1.jpeg","name:en":"Valley of the Monks","name:he":"בקעת הנזירים","network":"lwn","operator":"kkl"},"14730532":{"name":"Jerusalem Trail","type":"route","fixme":"Verify and complete on the spot","route":"hiking","name:en":"Jerusalem Trail","name:he":"שביל ירושלים","network":"rwn","wikipedia":"en:Jerusalem Trail"},"15066345":{"ref":"1531","name":"חניון דליות - גמלא","type":"route","route":"hiking","network":"lwn","operator":"itc","osmc:symbol":"blue:white:blue_stripe"},"15066570":{"name":"דרך נוף","type":"route","image":"https://upload.wikimedia.org/wikipedia/commons/a/ac/IHM_דרך_נוף.jpeg","route":"hiking","colour":"blue","name:en":"Scenic Route","name:he":"דרך נוף","network":"lwn","operator":"kkl"},"15314621":{"name":"מתל דן לנחל שניר","type":"route","route":"hiking","name:he":"מתל דן לנחל שניר","network":"lwn","operator":"itc","osmc:symbol":"blue:white:blue_stripe"},"15338589":{"name":"הפגודה","type":"route","image":"https://upload.wikimedia.org/wikipedia/commons/b/b6/IHM_הפגודה_4.jpeg","route":"hiking","colour":"red","image1":"https://upload.wikimedia.org/wikipedia/commons/8/80/IHM_הפגודה_5.jpeg","name:en":"The Pogada","name:he":"הפגודה","network":"lwn","operator":"kkl"},"15350065":{"name":"דרך היער הראשית","type":"route","image":"https://upload.wikimedia.org/wikipedia/commons/4/40/IHM_נחל_נטוף.jpeg","route":"hiking","colour":"green","name:en":"The Main Forest Road","name:he":"דרך היער הראשית","network":"lwn","website":"https://www.kkl.org.il/parks_and_forests/ben_shemen_forest/","operator":"kkl","description":"שביל עביר לכל כלי רכב, שמתפתל לתוך כל היער בן שמן ממערב למזרח, משער תל חדיד עד שער שילת, בעזרת חץ ירוק בעמודי שלטי כיוון.","description:he":"שביל עביר לכל כלי רכב, שמתפתל לתוך כל היער בן שמן ממערב למזרח, משער תל חדיד עד שער שילת, בעזרת חץ ירוק בעמודי שלטי כיוון."},"15478051":{"name":"דרך לח\\\"י","type":"route","image":"https://upload.wikimedia.org/wikipedia/commons/0/0e/IHM_דרך_לח\\\"י_1.jpeg","route":"hiking","colour":"green","image1":"https://upload.wikimedia.org/wikipedia/commons/a/a1/IHM_דרך_לח\\\"י.jpeg","name:en":"Lehi Road","name:he":"דרך לח\\\"י","network":"lwn","website":"https://inature.info/wiki/%D7%99%D7%A2%D7%A8_%D7%9E%D7%A9%D7%9E%D7%A8_%D7%90%D7%99%D7%99%D7%9C%D7%95%D7%9F","operator":"kkl","description":"דרך עפר זו עבירה לכל סוגי הרכבים. הוא מקיף את היער בעזרת חץ ירוק על שלטי הכוונה.","description:en":"This dirt road is passable to all types of vehicles. It circles the forest with the help of a green arrow on direction signposts.","description:he":"דרך עפר זו עבירה לכל סוגי הרכבים. הוא מקיף את היער בעזרת חץ ירוק על שלטי הכוונה."},"15582430":{"ref":"GT","name":"Gospel Trail","type":"route","fixme":"verify entire route, continue towards the Sea of Galilee","route":"hiking","name:en":"Gospel Trail","name:hu":"Evangélium-ösvény","network":"rwn","operator":"Ministry of Tourism","pilgrimage":"yes","start_date":"2011-11-29"},"15663329":{"ref":"17519","name":"סכין כיפת עשת","type":"route","route":"hiking","name:he":"סכין כיפת עשת","network":"lwn","operator":"itc","osmc:symbol":"red:white:red_stripe"},"15681832":{"name":"שביל סובב רעננה","type":"route","image":"https://upload.wikimedia.org/wikipedia/commons/5/5c/IHM_שביל_רעננה.jpeg","route":"foot","name:en":"Raanana Trail","name:he":"שביל סובב רעננה","network":"lwn","website":"https://raanana-muni.maps.arcgis.com/apps/instant/nearby/index.html?appid=2d8d4b401fbb41cb9c801ddc58fe058f","operator":"עיריית רעננה","description":"שביל סובב רעננה כולל 8 מקטעים שכל אחד מהם מאופיין בהתאם למרחב שבו הוא עובר. לאורך השביל שלטים דקורטיביים.","description:he":"שביל סובב רעננה כולל 8 מקטעים שכל אחד מהם מאופיין בהתאם למרחב שבו הוא עובר. לאורך השביל שלטים דקורטיביים."},"15694474":{"name":"דרך מצפור דוד קרון","type":"route","route":"hiking","colour":"black","name:en":"David Karon Scenic Lookout","name:he":"דרך מצפור דוד קרון","network":"lwn","operator":"kkl"},"15807788":{"name":"שביל ישראל ישן","type":"route","image":"https://upload.wikimedia.org/wikipedia/commons/7/76/IHM_שביל_ישראל_ישן.jpeg","route":"hiking","colour":"gray","name:en":"Old Israel Trail","name:he":"שביל ישראל ישן","network":"rwn","name:en1":"Old Shvil Israel","abandoned:osmc:symbol":"orange:orange:white_right:blue_stripe"},"15854313":{"name":"סובב הר טייסים","type":"route","route":"hiking","name:he":"סובב הר טייסים","network":"lwn","operator":"itc","osmc:symbol":"red:white:red_stripe"},"15870596":{"name":"שביל ישראל ישן","type":"route","image":"https://upload.wikimedia.org/wikipedia/commons/0/07/IHM_שביל_ישראל_ישן_1.jpeg","route":"hiking","colour":"gray","name:en":"Old Israel Trail","name:he":"שביל ישראל ישן","network":"lwn","description":"ללא דמי כניסה לגן לאומי מקורות הירקון, ופתוח 24/7","description:en":"No entrance fee to Mekorot Ha'Yarkon National Park, and open 24/7.","description:he":"ללא דמי כניסה לגן לאומי מקורות הירקון, ופתוח 24/7","abandoned:osmc:symbol":"orange:orange:white_right:blue_stripe"},"15898284":{"name":"חוצה דן","type":"route","route":"hiking","name:en":"Cross Dan","name:he":"חוצה דן","network":"rwn"},"15914374":{"name":"מסלול גבתון","type":"route","image":"https://upload.wikimedia.org/wikipedia/commons/0/0c/IHM_לולאת_גבעתון.jpeg","route":"hiking","name:en":"Givton Loop","name:he":"לולאת גבתון","network":"rwn","direction":"clockwise"}}