{"1216428":{"ref":"1号路","name":"自然研究路1号路","type":"route","route":"foot","name:en":"Nature Research Trail 1st Trail","network":"lwn"},"7026140":{"ref":"はけの道","name":"hake no michi","type":"route","route":"foot","name:en":"hake no michi","name:ja":"はけの道","network":"lwn"},"7165820":{"ref":"5号路","name":"自然研究路5号路","type":"route","route":"foot","name:en":"Nature Research Trail 5th Trail","network":"lwn"},"7165821":{"ref":"4号路","name":"自然研究路4号路","type":"route","route":"foot","name:en":"Nature Research Trail 4th Trail","network":"lwn"},"7165822":{"ref":"3号路","name":"自然研究路3号路","type":"route","route":"foot","name:en":"Nature Research Trail 3rd Trail","network":"lwn"},"7165823":{"ref":"2号路","name":"自然研究路2号路","type":"route","route":"foot","name:en":"Nature Research Trail 2nd Trail","network":"lwn"},"7165824":{"ref":"6号路","name":"自然研究路6号路","type":"route","route":"foot","name:en":"Nature Research Trail 6th Trail","network":"lwn"},"7165825":{"ref":"稲荷山","name":"稲荷山コース","type":"route","route":"foot","network":"lwn"},"9287775":{"ref":"4 芝高輪コース","name":"歴史と文化の散歩道　芝高輪コース","type":"route","route":"foot","network":"rwn","historic":"yes","educational":"yes"},"14230969":{"ref":"Bコース","name":"遠州灘海浜公園ウォーキングコース","type":"route","route":"foot","network":"lwn","website":"https://www.city.hamamatsu.shizuoka.jp/documents/13929/enshunada.pdf","distance":"1","operator":"浜松市","roundtrip":"yes","signed_direction":"yes"},"14230970":{"ref":"Aコース","name":"遠州灘海浜公園ウォーキングコース","type":"route","route":"foot","network":"lwn","website":"https://www.city.hamamatsu.shizuoka.jp/documents/13929/enshunada.pdf","distance":"1.5","operator":"浜松市","roundtrip":"yes","signed_direction":"yes"},"15347100":{"ref":"石神井川コース","name":"武蔵野の路　石神井川コース","type":"route","route":"foot","network":"rwn","distance":"16.7"}}