{"1019939":{"name":"петля Адыгене","type":"route","route":"hiking","name:en":"Adygene Loop Trail","name:ru":"петля Адыгене","network":"lwn","surface":"dirt","roundtrip":"yes"},"9426379":{"name":"маршрут на Боз-Учук","type":"route","route":"hiking","colour":"#00CF00","name:en":"Boz Uchuk Trek","name:ru":"маршрут на Боз-Учук","network":"lwn","wikidata":"Q64787490"},"9426396":{"name":"Кескенкийская петля","type":"route","route":"hiking","colour":"#0000CF","name:en":"Keskenkiya Loop","name:ru":"Кескенкийская петля","network":"lwn","wikidata":"Q64799997"},"9431282":{"name":"Тропа к перевалу Арча-Тор","type":"route","route":"hiking","colour":"#444444","name:en":"Archa Tor Pass Trail","name:ru":"Тропа к перевалу Арча-Тор","network":"lwn","wikidata":"Q105635817"},"9431330":{"name":"тропа Кызыл-Ой","type":"route","route":"hiking","name:en":"Kyzyl-Oy path","name:ru":"тропа Кызыл-Ой","network":"lwn"},"9431474":{"name":"Аламединское ущелье - Иссык-Ата","type":"route","route":"hiking","name:en":"Alamedin Gorge - Issyk Ata Trail","name:ru":"Аламединское ущелье - Иссык-Ата","network":"lwn"},"9431475":{"name":"Ущелье Аламедин - Аль-Арча","type":"route","route":"hiking","name:en":"Alamedin Gorge - Al-Archa (Trail)","name:ru":"Ущелье Аламедин - Аль-Арча","network":"lwn"},"12350207":{"name":"Каракольское ущелье - Ала-Куль - Алтын-Арашан - село Ак-Суу","type":"route","route":"hiking","colour":"#22CA54","name:en":"Karakol Gorge - Ala-Kul - Altyn Arashan - Ak-Suu village","name:ru":"Каракольское ущелье - Ала-Куль - Алтын-Арашан - село Ак-Суу","network":"lwn","website":"https://en.wikivoyage.org/wiki/Karakol","wikidata":"Q105634448"},"12350279":{"name":"Джети-Огюз - Каракольское ущелье - Ала-Куль","type":"route","route":"hiking","colour":"#615CF3","name:en":"Jeti-Ögüz – Karakol Gorge – Ala-Kul","name:ru":"Джети-Огюз - Каракольское ущелье - Ала-Куль","network":"lwn","website":"https://en.wikivoyage.org/wiki/Karakol","wikidata":"Q105635068"},"12350280":{"name":"Круговой маршрут по ущелью Каракол","type":"route","route":"hiking","colour":"#CC0000","name:en":"Karakol Gorge Circuit","name:ru":"Круговой маршрут по ущелью Каракол","network":"lwn","website":"https://en.wikivoyage.org/wiki/Karakol","wikidata":"Q105635607"},"12350368":{"name":"Чон-Кызыл-Суу - Джети-Огюз","type":"route","route":"hiking","colour":"#FFC41F","name:en":"Chon-Kyzyl-Suu – Jeti-Ögüz","name:ru":"Чон-Кызыл-Суу - Джети-Огюз","network":"lwn","website":"https://en.wikivoyage.org/wiki/Karakol","wikidata":"Q105635634"},"15630903":{"name":"Адыгене","type":"route","route":"hiking","network":"lwn"},"15631890":{"name":"Водопад Текетор","type":"route","route":"hiking","ascent":"310","network":"lwn","distance":"5.6","sac_scale":"alpine_hiking"},"15631925":{"name":"тропа до березовой рощи Бойрок","type":"route","route":"hiking","ascent":"330","network":"lwn","distance":"3500","sac_scale":"alpine_hiking"},"15632103":{"name":"Кок-Мойнок","type":"route","route":"hiking","ascent":"1000","network":"lwn","distance":"9500"},"15687456":{"name":"Тропа наркоманов","type":"route","route":"hiking","network":"lwn","alt_name":"Таштар-Ата","loc_name":"Тропа наркоманов","pilgrimage":"yes","description":"Тропа поломничества в знак отказа от употребления наркотиков"}}