{"1807238":{"name":"Daedeok science path 1","type":"route","route":"hiking","network":"lwn"},"2220301":{"name":"HomoNomad Guesthouse","type":"route","route":"hiking"},"2452055":{"ref":"2코스","name":"2코스 (Course 2)","type":"route","route":"hiking","colour":"#ADD8E6","name:en":"Course 2","name:ko":"2코스"},"2452056":{"ref":"3코스","name":"3코스 (Course 3)","type":"route","route":"hiking","colour":"#FFC0CB","name:en":"Course 3","name:ko":"3코스"},"2457967":{"name":"유안청폭포 (Yuanchang Waterfall)","type":"route","route":"hiking","colour":"#483D8B","name:en":"Yuanchang Waterfall","name:ko":"유안청폭포"},"2863235":{"ref":"1코스","name":"당동 - 금귀봉 (Dangdong - Geumguibong)","type":"route","route":"hiking","colour":"#EE597B","name:en":"Dangdong - Geumguibong","name:ko":"당동 - 금귀봉"},"2863236":{"ref":"2코스","name":"구례 - 금귀봉 (Gurye - Geumguibong)","type":"route","route":"hiking","colour":"#94288B","name:en":"Gurye - Geumguibong","name:ko":"구례 - 금귀봉"},"2863237":{"ref":"3코스","name":"위동 - 금귀봉 (Uidong - Geumguibong)","type":"route","route":"hiking","colour":"#0094DE","name:en":"Uidong - Geumguibong","name:ko":"위동 - 금귀봉"},"2863271":{"ref":"9코스","name":"구산 - 취우령 (Gusan - Chuiuryeong)","type":"route","route":"hiking","colour":"#9DBA73","name:en":"Gusan - Chuiuryeong","name:ko":"구산 - 취우령"},"2920265":{"ref":"8코수","name":"넘터 - 취우령 (Neomteo - Chuiuryeong)","type":"route","route":"hiking","colour":"#f69800","name:en":"Neomteo - Chuiuryeong","name:ko":"넘터 - 취우령"},"2926685":{"ref":"11코스","name":"지내 - 취우령 (Jinae - Chuiuryeong)","type":"route","route":"hiking","colour":"#bd996a","name:en":"Jinae - Chuiuryeong","name:ko":"지내 - 취우령"},"2926686":{"ref":"11코스","name":"지내 - 건흥산 (Jinae - Geonheungsan)","type":"route","route":"hiking","colour":"#bd996a","name:en":"Jinae - Geonheungsan","name:ko":"지내 - 건흥산"},"2926687":{"ref":"7코스","name":"원당 - 취우령 (Wondang - Chuiuryeong)","type":"route","route":"hiking","colour":"#cda56a","name:en":"Wondang - Chuiuryeong","name:ko":"원당 - 취우령"},"2945920":{"ref":"1코스","name":"건계정 - 망실봉 (Geongyejeong - Mangsilbong)","type":"route","route":"hiking","colour":"#f69800","name:en":"Geongyejeong - Mangsilbong","name:ko":"건계정 - 망실봉"},"2945921":{"ref":"5코스","name":"금강도 - 망실봉 (Geumgangdo - Mangsilbong)","type":"route","route":"hiking","colour":"#e65572","name:en":"Geumgangdo - Mangsilbong","name:ko":"금강도 - 망실봉"},"3234519":{"ref":"코수1","name":"남령 - 금원산","type":"route","route":"hiking","colour":"#F69220"},"3234667":{"ref":"코수2","name":"월성 - 월봉산","type":"route","route":"hiking","colour":"#949594"},"3304304":{"ref":"2코스","name":"도리 - 비계산 (Dori - Bigyesan)","type":"route","route":"hiking","name:en":"Dori - Bigyesan","name:ko":"도리 - 비계산#"},"3323408":{"ref":"2코스","name":"고겨사주차장 - 장군봉 (Gogyeon Temple Car Park - Jangunbong)","note":"Jangunbong routes have not been surveyed yet.","type":"route","route":"hiking","colour":"#9C409C","name:en":"Gogyeon Temple Car Park - Jangunbong","name:ko":"고겨사주차장 - 장군봉"},"3323409":{"ref":"1코스","name":"거창항노화힐링랜드 주차장 - 장군봉 (Gogyeon Temple Car Park - Jangunbong)","note":"Jangunbong routes have not been surveyed yet.","type":"route","route":"hiking","colour":"#20A2DE","name:ko":"거창항노화힐링랜드 주차장 - 장군봉"},"3323410":{"ref":"1코스","name":"거창항노화힐링랜드 주차장 - 의상봉 (Gogyeon Temple Car Park - Uisangbong)","type":"route","route":"hiking","colour":"#EE597C","name:ko":"거창항노화힐링랜드 주차장 - 의상봉"},"3323411":{"ref":"2코스","name":"거창항노화힐링랜드 주차장 - 의상봉 (Gogyeon Temple Car Park - Uisangbong)","type":"route","route":"hiking","colour":"#EE597C","name:en":"Gogyeon Temple Car Park - Uisangbong","name:ko":"거창항노화힐링랜드 주차장 - 의상봉"},"3323412":{"ref":"1코스","name":"산재치 - 비계산 (Sanjaechi - Bigyesan)","note":"This route is unfinished.","type":"route","route":"hiking","colour":"#F69220","name:en":"Sanjaechi - Bigyesan","name:ko":"산재치 - 비계산"},"3793143":{"name":"Jeju Olle trail 7","type":"route","route":"hiking","name:en":"Olle trail 7","name:ko":"올레길7"},"3793206":{"ref":"JOT6","name":"올레길6 (Ollegil 6)","type":"route","route":"hiking","name:en":"Olle trail 6","name:ko":"올레길6","network":"rwn"},"3809942":{"ref":"JOT4","name":"올레길4 (Ollegil 4)","type":"route","route":"hiking","name:en":"Olle trail 4","network":"rwn","name:ko-Latn":"올레길4"},"3878188":{"ref":"JOT5","name":"올레길5 (Ollegil 5)","type":"route","route":"hiking","name:en":"Olle trail 5","name:ko":"올레길5","network":"rwn","name:ko-Latn":"Ollegil 5"},"4208010":{"ref":"구로올레길 하천형 2코스","name":"구로올레길 하천형 2코스","type":"route","route":"hiking"},"4225982":{"name":"송도 일몰 감상 도보 코스","type":"route","route":"hiking","operator":"Keonsoon Hwang <sayzard@gmail.com>"},"4869085":{"ref":"JOT2","name":"올레길2","note":"Jeju-do walking trail","type":"route","route":"hiking","name:en":"Ollegil 2","name:ko":"올레길2","network":"rwn","name:ko-Latn":"Ollegil 2"},"5232945":{"ref":"JOT1","name":"올레길1","type":"route","route":"hiking","name:en":"Olle trail 1","name:ko":"올레길1","network":"rwn","name:ko-Latn":"Ollegil 1"},"5285394":{"name":"백두대간 등산로","type":"route","route":"hiking","name:en":"Baekdu Daegan Trail - Section 12","network":"백두대간"},"5458299":{"ref":"JOT3","name":"올레길3 (Ollegil 3)","type":"route","route":"hiking","name:en":"Olle trail 3","network":"rwn","name:ko-Latn":"Ollegil 3"},"5637062":{"ref":"JOT6B","name":"Olle trail 6(B)","type":"route","route":"hiking","name:ko":"올레길6(B)","name:ko-Latn":"Ollegil 6(B)"},"6083165":{"name":"인천둘레길 2코스","type":"route","route":"hiking"},"6083186":{"name":"인천둘레길 1코스","type":"route","route":"hiking"},"6089470":{"ref":"JOT3A","name":"올레길3A","type":"route","route":"hiking","name:en":"Ollegil 3A","network":"rwn"},"6089589":{"ref":"JOT3B","name":"올레길3B","type":"route","route":"hiking","name:en":"Ollegil 3B","network":"rwn"},"6353945":{"name":"늠내길 2코스 갯골길","type":"route","route":"foot"},"6718844":{"name":"1.631 km","type":"route","route":"foot"},"6718845":{"name":"3.01 km","type":"route","route":"foot"},"6718846":{"name":"5.822 km","type":"route","route":"foot"},"6760627":{"ref":"3코스","name":"내촌 - 단지봉","type":"route","route":"hiking","colour":"#ba55d3","name:en":"Naechon - Danjibong","name:ko":"내촌 - 단지봉"},"7077853":{"name":"부산외국어대학교 도보길","type":"route","route":"foot"},"7212986":{"name":"부천둘레길 1코스","type":"route","route":"hiking"},"7248520":{"name":"Ollegil 8","type":"route","route":"foot"},"7248522":{"name":"Ollegil 10","type":"route","route":"foot"},"7248523":{"name":"Ollegil 11","type":"route","route":"foot"},"7605214":{"name":"첨단 둘레길","type":"route","route":"foot","operator":"첨단1동; 첨단2동"},"8246395":{"ref":"JOT5","name":"올레길5 (Ollegil 5) wheelchair","type":"route","route":"hiking","name:en":"Olle trail 5 wheelchair","name:ko":"올레길5","network":"rwn","name:ko-Latn":"Ollegil 5"},"8731814":{"name":"서울로 7017","type":"route","route":"foot","name:en":"Seoullo 7017","name:zh":"首尔路 7017","network":"lwn","wikidata":"Q30275918","wikipedia":"ko:서울로 7017"},"9149293":{"name":"올레길 17코스","type":"route","route":"hiking","name:en":"Jeju Olle Trail 17","name:ko":"올레길 17코스","network":"rcn","wikidata":"Q2656801","wikipedia":"ko:올레길"},"9149294":{"name":"올레길 16코스","type":"route","route":"hiking","name:en":"Jeju Olle Trail 16","name:ko":"올레길 16코스","network":"rcn","wikidata":"Q2656801","wikipedia":"ko:올레길"},"9149725":{"name":"올레길 18코스","type":"route","route":"hiking","name:en":"Jeju Olle Trail 18","name:ko":"올레길 18코스","network":"rcn","wikidata":"Q2656801","wikipedia":"ko:올레길"},"9173551":{"name":"올레길 19코스","type":"route","route":"hiking","name:en":"Jeju Olle Trail 19","name:ko":"올레길 19코스","network":"rcn","wikidata":"Q2656801","wikipedia":"ko:올레길"},"9180869":{"name":"올레길 20코스","type":"route","route":"hiking","name:en":"Jeju Olle Trail 20","name:ko":"올레길 20코스","network":"rcn","wikidata":"Q2656801","wikipedia":"ko:올레길"},"9439787":{"name":"백두대간","type":"route","fixme":"incomplete","route":"hiking","name:en":"Baekdudaegan","name:ko":"백두대간","name:zh":"白頭大幹","network":"nwn","website":"http://www.openbaekdudaegan.org","name:ko-Hani":"白頭大幹","name:ko-Latn":"Baekdudaegan"},"9849095":{"name":"불곡산 등산로","type":"route","route":"hiking","name:ko":"불곡산 등산로","network":"rwn"},"10267987":{"name":"평화누리길 10코스(고랑포길)","type":"route","route":"hiking"},"10267988":{"name":"평화누리길 11코스(임진적벽길)","type":"route","route":"hiking"},"10275197":{"to":"장남교","from":"율곡습지공원","name":"평화누리길 9코스(율곡길)","type":"route","route":"hiking","distance":"19km"},"10275760":{"to":"율곡습지공원","from":"반구정","name":"평화누리길 8코스 (반구정길)","type":"route","route":"hiking"},"10275761":{"to":"반구정","from":"성동사거리","name":"평화누리길 7코스 (헤이리길)","type":"route","route":"hiking","name:en":"Pyeonghwanurigil 7 Course (Heirigil)","name:ko":"평화누리길 7코스 (헤이리길)"},"10287215":{"to":"역고드름","from":"군남홍수조절지","name":"평화누리길 12코스 (통일이음길)","type":"route","route":"hiking","name:en":"Pyeonghwanurigil 12 Course (Tong-irieumgil)","name:ko":"평화누리길 12코스 (통일이음길)","distance":"28km"},"10287476":{"to":"성동사거리","from":"동패지하차로","name":"평화누리길 6코스 (출판도시길)","type":"route","route":"hiking","name:en":"Pyeonghwanurigil 6 Course (Chulpandosigil)","name:ko":"평화누리길 6코스 (출판도시길)"},"10287543":{"to":"동패지하차도","from":"호수공원 (선인장 전시관)","name":"평화누리길 5코스 (킨텍스길)","type":"route","route":"hiking","name:en":"Pyeonghwanurigil 5 Course (Kintekseugil)","name:ko":"평화누리길 5코스 (킨텍스길)"},"10997594":{"name":"Seoul City Trail","type":"route","route":"hiking","network":"lwn","website":"http://seoulcitywall.seoul.go.kr/"},"11046025":{"name":"한국 트레킹 노선","type":"route","route":"hiking","name:en":"Korea Trail","name:ko":"한국 트레킹 노선","network":"ncn","website":"http://koreatrail.org/","distance":"430","operator":"한국 트레킹 협회"},"11173464":{"name":"호명산 등산로","type":"route","route":"hiking","name:ko":"호명산 등산로","network":"lwn"},"11274316":{"name":"북한산둘레길","type":"route","route":"hiking"},"11274540":{"name":"북한산둘레길","type":"route","route":"hiking","name:en":"Bukhansan Dulle-gil","name:ko":"북한산둘레길","operator":"북한산국립공원관리공단"},"11288178":{"to":"정릉탐방지원센터 주차장 앞","from":"북한산생태숲 앞","name":"[북한산둘레길] 4구간 솔샘길","type":"route","route":"hiking","name:en":"[Bukhansan Dulle-gil] Route 4 - Solsaem-gil","name:ko":"[북한산둘레길] 4구간 솔샘길","operator":"북한산국립공원관리공단"},"11288179":{"name":"북한산둘레길 5구간 흰구름길","type":"route","route":"hiking"},"11288180":{"name":"북한산둘레길","type":"route","route":"hiking","name:en":"Bukhansan Dulle-gil","name:ko":"북한산둘레길","operator":"북한산국립공원관리공단"},"11304602":{"to":"다락원","from":"원도봉입구","name":"[북한산둘레길] 17구간 다락원길","type":"route","route":"hiking"},"11304603":{"name":"[북한산둘레길] 18구간 도봉옛길","type":"route","route":"hiking"},"11304604":{"name":"[북한산둘레길] 19구간 방학동길","type":"route","route":"hiking"},"11312768":{"name":"북한산둘레길","type":"route","route":"hiking","name:en":"Bukhansan Dulle-gil","name:ko":"북한산둘레길","operator":"북한산국립공원관리공단"},"11312769":{"to":"북한산생태숲 앞","from":"이준열사묘역 입구","name":"[북한산둘레길] 3구간 흰구름길","type":"route","route":"hiking","name:en":"[Bukhansan Dulle-gil] Huingureum-gil","name:ko":"[북한산둘레길] 3구간 흰구름길"},"11340574":{"to":"이준열사묘역 입구","from":"솔밭근린공원 상단","name":"[북한산둘레길] 2구간 순례길","type":"route","route":"hiking","name:en":"[Bukhansan Dulle-gil] Sullye-gil","name:ko":"[북한산둘레길] 2구간 순례길"},"11340616":{"to":"솔밭근린공원 상단","from":"우이우이령길 입구","name":"[북한산둘레길] 1구간 소나무숲길","type":"route","route":"hiking","name:en":"[Bukhansan Dulle-gil] Route 1 - Sonamusup-gil","name:ko":"[북한산둘레길] 1구간 소나무숲길","operator":"북한산국립공원관리공단"},"11361877":{"name":"서울둘레길","type":"route","route":"hiking","name:en":"Seoul Dulle-gil","name:ko":"서울둘레길","operator":"서울시"},"11361878":{"to":"철쭉동산","from":"도봉산역","name":"서울둘레길 1코스 수락-불암산코스","type":"route","route":"hiking","name:en":"[Seoul Dulle-gil] Course 1 - Suraksan and Bulamsan Mountain","name:ko":"서울둘레길 1코스 수락-불암산코스","operator":"서울시"},"11378651":{"to":"은대리성","from":"차탄교","name":"차탄천 에움길","type":"route","route":"hiking","name:ko":"차탄천 에움길"},"11485443":{"to":"직포","from":"두포","name":"여수 금오도 비렁길 2코스","type":"route","route":"hiking","name:en":"Yeosu Geumodo Bireong-gil, Course 2","name:ko":"여수 금오도 비렁길 2코스","distance":"3.5km"},"11485444":{"to":"학동","from":"직포","name":"여수 금오도 비렁길 3코스","type":"route","route":"hiking","name:en":"Yeosu Geumodo Bireong-gil, Course 3","name:ko":"여수 금오도 비렁길 3코스","distance":"3.5km"},"11485470":{"to":"심포","from":"학동","name":"여수 금오도 비렁길 4코스","type":"route","route":"hiking","name:en":"Yeosu Geumodo Bireong-gil, Course 4","name:ko":"여수 금오도 비렁길 4코스","distance":"3.2km"},"11494404":{"name":"오대산 월정사 전나무숲길","type":"route","route":"hiking","name:en":"Odaesan Mountain Woljeongsa Temple Spruce Forest Walkway","name:ko":"오대산 월정사 전나무숲길","website":"https://bit.ly/3asWt7r"},"11514826":{"to":"안골계곡","from":"원각사입구","name":"[북한산둘레길] 14구간 산너미길","type":"route","route":"hiking","name:en":"[Bukhansan Dulle-gil] Route 14 - Sanneomi-gil","name:ko":"[북한산둘레길] 14구간 산너미길","operator":"북한산국립공원관리공단"},"11514831":{"to":"회룡탐방지원센터","from":"안골계곡","name":"[북한산둘레길] 15구간 안골길","type":"route","route":"hiking","name:en":"[Bukhansan Dulle-gil] Route 15 - Angol-gil","name:ko":"[북한산둘레길] 15구간 안골길","operator":"북한산국립공원관리공단"},"11589490":{"to":"원각사 입구","from":"교현 우이령길 입구","name":"[북한산둘레길] 15구간 송추마을길","type":"route","route":"hiking","name:en":"[Bukhansan Dulle-gil] Route 15 - Songchumaeul-gil","name:ko":"[북한산둘레길] 15구간 송추마을길","network":"rwn","operator":"북한산국립공원"},"11606773":{"to":"사기막골","from":"효자동 공설묘지","name":"[북한산둘레길] 11구간 효자길","type":"route","route":"hiking","name:en":"[Bukhansan Dulle-gil] Section 11 - Hyoja-gil","name:ko":"[북한산둘레길] 11구간 효자길"},"11606774":{"to":"교현 우이령길 입구","ref":"12","from":"사기막골 입구","name":"[북한산둘레길] 12구간 - 충의길","type":"route","route":"hiking","name:en":"[Bukhansan Dulle-gil] Section 12 - Chungui-gil","name:ko":"[북한산둘레길] 12구간 - 충의길","network":"rwn","operator":"북한산국립공원관리공단"},"11627660":{"to":"우이 우이령길 입구","from":"교현 우이령길 입구","name":"[북한산둘레길] 21구간 우이령길","type":"route","route":"hiking","name:en":"[Bukhansan Dulle-gil] Route 21 - Uiryeong-gil","name:ko":"[북한산둘레길] 21구간 우이령길","operator":"북한산국립공원관리공단"},"11627661":{"to":"원도봉입구","from":"회룡탐방지원센터","name":"[북한산둘레길] 16구간 보루길","type":"route","route":"hiking","name:en":"[Bukhanasan Dulle-gil] Route 16 - Boru-gil","name:ko":"[북한산둘레길] 16구간 보루길","operator":"북한산국립공원관리공단"},"11639674":{"to":"북한산생태공원 상단","from":"탕춘대성암문 입구","name":"[북한산둘레길] 7구간 옛성길","type":"route","route":"hiking","name:en":"[Bukhansan Dulle-gil] Route 7 - Yetseong-gil","name:ko":"[북한산둘레길] 7구간 옛성길"},"11639675":{"to":"탕춘대성암문 입구","from":"형제봉 입구","name":"[북한산둘레길] 6구간 평창마을길","type":"route","route":"hiking","name:en":"[Bukhansan Dulle-gil] Route 6 - Pyeongchangmaeul-gil","name:ko":"[북한산둘레길] 6구간 평창마을길","operator":"북한산국립공원관리공단"},"11639676":{"to":"형제봉 매표소","from":"정릉탐방안내소 주차장","name":"[북한산둘레길] 5구간 명상길","type":"route","route":"hiking","name:en":"[Bukhansan Dulle-gil] Route 5 - Myeongsang-gil","name:ko":"[북한산둘레길] 5구간 명상길","operator":"북한산국립공원관리공단"},"11639794":{"to":"진관생태다리 앞","from":"북한산생태공원 상단","name":"[북한산둘레길] 8구간 구름정원길","type":"route","route":"hiking","name:en":"[Bukhansan Dulle-gil] Route 8 - Gureumjeongwon-gil","name:ko":"[북한산둘레길] 8구간 구름정원길","network":"lwn","operator":"북한산국립공원관리공단"},"11879980":{"name":"산성산 등산로","type":"route","route":"hiking","name:ko":"산성산 등산로","network":"lwn"},"11880001":{"name":"도락산 등산로","type":"route","route":"hiking","name:ko":"도락산 등산로","network":"rwn"},"15597750":{"name":"낙동정맥","type":"route","route":"hiking","name:en":"Nakdongj Jeongmaek (trail)","name:ko":"낙동정맥","name:zh":"洛東正脈","network":"nwn","name:ko-Latn":"Nakdongjeongmaek"},"15635353":{"name":"지리산둘레길 (가탄-송정)","type":"route","route":"hiking","name:en":"Jirisan Trail (Gatan - Songjeong)","name:ko":"지리산둘레길 (가탄-송정)","network":"lwn","website":"http://jirisantrail.kr"},"15635389":{"name":"지리산둘레길 (금계-동강)","type":"route","route":"hiking","name:en":"Jirisan Trail (Geumgye - Donggang)","name:ko":"지리산둘레길 (금계-동강)","network":"lwn","website":"http://jirisantrail.kr"},"15635509":{"name":"지리산둘레길 (수철-성심원)","type":"route","route":"hiking","name:en":"Jirisan Trail (Soocheol-Sungsimwon)","name:ko":"지리산둘레길 (수철-성심원)","network":"lwn","website":"http://jirisantrail.kr"},"15635510":{"name":"지리산둘레길 (동강-수철)","type":"route","route":"hiking","name:en":"Jirisan Trail (Donggang-Soocheol)","name:ko":"지리산둘레길 (동강-수철)","network":"lwn","website":"http://jirisantrail.kr"},"15635568":{"name":"지리산둘레길 (성심원-어천-운리)","type":"route","route":"hiking","name:en":"Jirisan Trail (Sungsimwon-Ucheon-Woonri)","name:ko":"지리산둘레길 (성심원-어천-운리)","network":"lwn","website":"http://jirisantrail.kr"},"15635696":{"name":"지리산둘레길 (위태-하동호)","type":"route","route":"hiking","name:en":"Jirisan Trail (Witae_Hadongho(lake))","name:ko":"지리산둘레길 (위태-하동호)","network":"lwn"},"15635697":{"name":"지리산둘레길 (덕산-위태)","type":"route","route":"hiking","name:en":"Jirisan Trail (Deoksan-Witae_Hadong lake)","name:ko":"지리산둘레길 (덕산-위태)","network":"lwn","website":"http://jirisantrail.kr"},"15635698":{"name":"지리산둘레길 (운리-덕산)","type":"route","route":"hiking","name:en":"Jirisan Trail (Woonri-Deoksan)","name:ko":"지리산둘레길 (운리-덕산)","network":"lwn","website":"http://jirisantrail.kr"},"15635711":{"name":"지리산둘레길 (인월-금계)","type":"route","route":"hiking","name:en":"Jirisan Trail (Inwol-Geumgye)","name:ko":"지리산둘레길 (인월-금계)","network":"lwn","website":"http://jirisantrail.kr"},"15662694":{"name":"지리산둘레길 (대축-원부춘)","type":"route","route":"hiking","name:en":"Jirisan Trail (Daechook-Wonboochoon)","name:ko":"지리산둘레길 (대축-원부춘)","network":"lwn","website":"http://jirisantrail.kr"},"15662861":{"name":"지리산둘레길 (방광–산동)","type":"route","route":"hiking","name:en":"Jirisan Trail (Banggwang - Sandongs)","name:ko":"지리산둘레길 (방광–산동)","network":"lwn","website":"http://jirisantrail.kr"},"15663108":{"name":"지리산둘레길 (하동호–삼화실)","type":"route","route":"hiking","name:en":"Jirisan Trail (Hadongho_lake-Samhwasil)","name:ko":"지리산둘레길 (하동호–삼화실)","network":"lwn","website":"http://jirisantrail.kr"},"15663109":{"name":"지리산둘레길 (산동-주천)","type":"route","route":"hiking","name:en":"Jirisan Trail (Sandong-Joocheon)","name:ko":"지리산둘레길 (산동-주천)","network":"lwn","website":"http://jirisantrail.kr"},"15664473":{"name":"지리산둘레길 (삼화실-대축)","type":"route","route":"hiking","name:en":"Jirisan Trail (Samhwasil-Daechook)","name:ko":"지리산둘레길 (삼화실-대축)","network":"lwn","website":"http://jirisantrail.kr"},"15664838":{"name":"지리산둘레길 (송정-오미)","type":"route","route":"hiking","name:en":"Jirisan Trail ( Songjeong-Omi)","name:ko":"지리산둘레길 (송정-오미)","network":"lwn","website":"http://jirisantrail.kr"},"15664903":{"name":"지리산둘레길 (오미-난동)","type":"route","route":"hiking","name:en":"Jirisan Trail ( Omi-Nandong)","name:ko":"지리산둘레길 (오미-난동)","network":"lwn","website":"http://jirisantrail.kr"},"15688853":{"name":"지리산둘레길 (오미-방광)","type":"route","route":"hiking","name:en":"Jirisan Trail (Omi-Bangkwang)","name:ko":"지리산둘레길 (오미-방광)","network":"lwn","website":"http://jirisantrail.kr"},"15688948":{"name":"지리산둘레길 (운봉-인월)","type":"route","route":"hiking","name:en":"Jirisan Trail (Woonbong-Inwol)","name:ko":"지리산둘레길 (운봉-인월)","network":"lwn","website":"http://jirisantrail.kr"},"15688970":{"name":"지리산둘레길 (원부춘-가탄)","type":"route","route":"hiking","name:en":"Jirisan Trail (Wonboochoon - Gatan)","name:ko":"지리산둘레길 (원부춘-가탄)","network":"lwn","website":"http://jirisantrail.kr"},"15689317":{"name":"지리산둘레길 (하동읍–서당)","type":"route","route":"hiking","name:en":"Jirisan Trail (Hadongeup-Seodang)","name:ko":"지리산둘레길 (하동읍–서당)","network":"lwn","website":"http://jirisantrail.kr"},"15691452":{"name":"지리산둘레길 (주천-운봉)","type":"route","route":"hiking","name:en":"Jirisan Trail (Joocheon-Woonbong)","name:ko":"지리산둘레길 (주천-운봉)","network":"lwn","website":"http://jirisantrail.kr"}}