{"1352787":{"name":"נחל עיון מסלול ארוך","type":"route","route":"hiking","name:en":"Nahal Ayun Long Trail","name:he":"נחל עיון מסלול ארוך","network":"lwn","operator":"itc","description":"מסלול ליום חמישי 18.5.2023","osmc:symbol":"blue:white:blue_stripe","description:he":"מסלול ליום חמישי 18.5.2023"},"1352836":{"name":"נחל עיון מסלול קצר","type":"route","route":"hiking","name:en":"Nahal Ayun Short Trail","name:he":"נחל עיון מסלול קצר","network":"lwn","operator":"itc","osmc:symbol":"green:white:green_stripe"},"2835340":{"ref":"LMT 18","name":"Lebanon Mountain Trail","type":"route","route":"hiking","symbol":"white bar over purple bar","name:en":"Lebanon Mountain Trail","name:fr":"Sentier de Montagne du Liban","network":"nwn","website":"https://www.lebanontrail.org/","osmc:symbol":"purple:white:purple_lower","contact:facebook":"LebanonMountainTrailAssociation"},"2837420":{"ref":"LMT 20","name":"Lebanon Mountain Trail","type":"route","route":"hiking","symbol":"white bar over purple bar","name:fr":"Sentier de Montagne du Liban","network":"nwn","website":"https://www.lebanontrail.org/","osmc:symbol":"purple:white:purple_lower","contact:facebook":"LebanonMountainTrailAssociation"},"2837421":{"ref":"LMT 19","name":"Lebanon Mountain Trail","type":"route","route":"hiking","symbol":"white bar over purple bar","name:fr":"Sentier de Montagne du Liban","network":"nwn","website":"https://www.lebanontrail.org/","osmc:symbol":"purple:white:purple_lower","contact:facebook":"LebanonMountainTrailAssociation"},"2838589":{"ref":"LMT 21","name":"Lebanon Mountain Trail","type":"route","route":"hiking","symbol":"white bar over purple bar","name:fr":"Sentier de Montagne du Liban","network":"nwn","website":"https://www.lebanontrail.org/","osmc:symbol":"purple:white:purple_lower","contact:facebook":"LebanonMountainTrailAssociation"},"2839723":{"ref":"LMT 23","name":"درب الجبل اللبناني","type":"route","route":"hiking","name:ar":"درب الجبل اللبناني","name:en":"Lebanon Mountain Trail","name:fr":"Sentier de Montagne du Liban","network":"nwn","website":"https://www.lebanontrail.org/","wikidata":"Q6511108","wikipedia":"en:Lebanon Mountain Trail","osmc:symbol":"purple:white:purple_lower","contact:facebook":"LebanonMountainTrailAssociation"},"2839724":{"ref":"LMT 22","name":"Lebanon Mountain Trail","type":"route","route":"hiking","name:fr":"Sentier de Montagne du Liban","network":"nwn","website":"https://www.lebanontrail.org/","osmc:symbol":"purple:white:purple_lower","contact:facebook":"LebanonMountainTrailAssociation"},"2841933":{"ref":"LMT 24","name":"درب الجبل اللبناني","type":"route","route":"hiking","name:ar":"درب الجبل اللبناني","name:en":"Lebanon Mountain Trail","name:fr":"Sentier de Montagne du Liban","network":"nwn","website":"https://www.lebanontrail.org/","wikidata":"Q6511108","wikipedia":"en:Lebanon Mountain Trail","osmc:symbol":"purple:white:purple_lower","contact:facebook":"LebanonMountainTrailAssociation"},"2848147":{"ref":"LMT 17","name":"Lebanon Mountain Trail","type":"route","route":"hiking","symbol":"white bar over purple bar","name:en":"Lebanon Mountain Trail","name:fr":"Sentier de Montagne du Liban","network":"nwn","website":"https://www.lebanontrail.org/","wikipedia":"en:Lebanon Mountain Trail","osmc:symbol":"purple:white:purple_lower","contact:facebook":"LebanonMountainTrailAssociation"},"3523418":{"ref":"LMT 15","name":"Lebanon Mountain Trail","type":"route","route":"hiking","symbol":"white bar over purple bar","name:en":"Lebanon Mountain Trail","network":"nwn","website":"https://www.lebanontrail.org/","wikipedia":"en:Lebanon Mountain Trail","osmc:symbol":"purple:white:purple_lower","contact:facebook":"LebanonMountainTrailAssociation"},"3523419":{"ref":"LMT 16","name":"Lebanon Mountain Trail","type":"route","route":"hiking","symbol":"white bar over purple bar","name:en":"Lebanon Mountain Trail","network":"nwn","website":"https://www.lebanontrail.org/","wikipedia":"en:Lebanon Mountain Trail","osmc:symbol":"purple:white:purple_lower","contact:facebook":"LebanonMountainTrailAssociation"},"3578673":{"ref":"LMT 13","name":"Lebanon Mountain Trail","type":"route","route":"hiking","symbol":"white bar over purple bar","name:en":"Lebanon Mountain Trail","network":"nwn","website":"https://www.lebanontrail.org/","wikipedia":"en:Lebanon Mountain Trail","osmc:symbol":"purple:white:purple_lower","contact:facebook":"LebanonMountainTrailAssociation"},"3578813":{"name":"Baskinta Literary Trail","type":"route","route":"hiking","name:en":"Baskinta Literary Trail","network":"lwn"},"3734413":{"ref":"LMT 12","name":"Sentier de Montagne du Liban","type":"route","route":"hiking","symbol":"white bar over purple bar","name:en":"Lebanon Mountain Trail","name:fr":"Sentier de Montagne du Liban","network":"nwn","website":"https://www.lebanontrail.org/","osmc:symbol":"purple:white:purple_lower","contact:facebook":"LebanonMountainTrailAssociation"},"3887782":{"ref":"LMT 11","name":"Lebanon Mountain Trail","type":"route","route":"hiking","symbol":"white bar over purple bar","name:fr":"Sentier de Montagne du Liban","network":"nwn","website":"https://www.lebanontrail.org/","osmc:symbol":"purple:white:purple_lower","contact:facebook":"LebanonMountainTrailAssociation"},"4598965":{"ref":"LMT 10","name":"Sentier de Montagne du Liban","type":"route","route":"hiking","name:en":"Lebanon Mountain Trail","name:fr":"Sentier de Montagne du Liban","network":"nwn","website":"https://www.lebanontrail.org/","osmc:symbol":"purple:white:purple_lower","contact:facebook":"LebanonMountainTrailAssociation"},"4613723":{"ref":"LMT 8","name":"Lebanon Mountain Trail","type":"route","route":"hiking","symbol":"white and purple","name:fr":"Sentier de Montagne du Liban","network":"nwn","website":"https://www.lebanontrail.org/","osmc:symbol":"purple:white:purple_lower","contact:facebook":"LebanonMountainTrailAssociation"},"4638358":{"ref":"LMT 6","name":"Sentier de Montagne du Liban","type":"route","route":"hiking","symbol":"white and purple","name:ar":"درب جبل لبنان","name:en":"Lebanon Mountain Trail","name:fr":"Sentier de Montagne du Liban","network":"nwn","website":"https://www.lebanontrail.org/","wikipedia":"en:Lebanon Mountain Trail","osmc:symbol":"purple:white:purple_lower","contact:facebook":"LebanonMountainTrailAssociation"},"4638359":{"ref":"LMT 7","name":"Lebanon Mountain Trail","type":"route","route":"hiking","symbol":"white and purple","name:fr":"Sentier de Montagne du Liban","network":"nwn","website":"https://www.lebanontrail.org/","osmc:symbol":"purple:white:purple_lower","contact:facebook":"LebanonMountainTrailAssociation"},"4638411":{"ref":"LMT 5","name":"Lebanon Mountain Trail","type":"route","route":"hiking","symbol":"white bar over purple bar","name:en":"Lebanon Mountain Trail","name:fr":"Sentier de Montagne du Liban","network":"nwn","website":"https://www.lebanontrail.org/","osmc:symbol":"purple:white:purple_lower","contact:facebook":"LebanonMountainTrailAssociation"},"4638417":{"ref":"LMT 4","name":"Lebanon Mountain Trail","type":"route","route":"hiking","symbol":"white bar over purple bar","name:en":"Lebanon Mountain Trail","name:fr":"Sentier de Montagne du Liban","network":"nwn","website":"https://www.lebanontrail.org/","osmc:symbol":"purple:white:purple_lower","contact:facebook":"LebanonMountainTrailAssociation"},"4678290":{"ref":"LMT 2","name":"Lebanon Mountain Trail","type":"route","route":"hiking","symbol":"white bar over purple bar","name:en":"Lebanon Mountain Trail","name:fr":"Sentier de Montagne du Liban","network":"nwn","website":"https://www.lebanontrail.org/","osmc:symbol":"purple:white:purple_lower","contact:facebook":"LebanonMountainTrailAssociation"},"4678291":{"ref":"LMT 3","name":"Lebanon Mountain Trail","type":"route","route":"hiking","symbol":"white bar over purple bar","name:en":"Lebanon Mountain Trail","name:fr":"Sentier de Montagne du Liban","network":"nwn","website":"https://www.lebanontrail.org/","osmc:symbol":"purple:white:purple_lower","contact:facebook":"LebanonMountainTrailAssociation"},"4682294":{"ref":"LMT 1","name":"Lebanon Mountain Trail","type":"route","route":"hiking","symbol":"white bar over purple bar","name:en":"Lebanon Mountain Trail","name:fr":"Sentier de Montagne du Liban","network":"nwn","website":"https://www.lebanontrail.org/","wikipedia":"en:Lebanon Mountain Trail","osmc:symbol":"purple:white:purple_lower","contact:facebook":"LebanonMountainTrailAssociation"}}