{"7060545":{"name":"路環步行徑 Trilho de Coloane","type":"route","route":"hiking","colour":"red","name:en":"Coloane Trail","name:pt":"Trilho de Coloane","name:zh":"路環步行徑","distance":"8100 m"},"7060546":{"name":"黑沙水庫家樂徑 Circuito da Barragem de Hác-Sá","type":"route","route":"hiking","name:en":"Hac Sá Reservoir Family Trail","name:pt":"Circuito da Barragem de Hác-Sá","name:zh":"黑沙水庫家樂徑","distance":"2650 m"},"7060560":{"name":"黑沙水庫健康徑 Circuito de Manutenção da Barragem de Hác-Sá","type":"route","route":"hiking","name:en":"Hac Sá Reservoir Fitness Trail","name:pt":"Circuito de Manutenção da Barragem de Hác-Sá","name:zh":"黑沙水庫健康徑","distance":"1505 m"},"7060604":{"name":"九澳高頂家樂徑 Trilho do Altinho de Ká-Hó","type":"route","route":"hiking","name:en":"Ká Hó Height Family Trail","name:pt":"Trilho do Altinho de Ká-Hó","name:zh":"九澳高頂家樂徑","distance":"1490 m"},"7060614":{"name":"九澳水庫環湖徑 Circuito da Barragem de Ká Hó","type":"route","route":"hiking"},"7060967":{"name":"Trilho da Taipa Grande","type":"route","route":"hiking"},"7065552":{"name":"路環石面盆古道 Caminho Antigo de Seac Min Pun de Coloane","type":"route","route":"hiking","colour":"blue","name:en":"Coloane Seac Min Pun Ancient Path","name:pt":"Caminho Antigo de Seac Min Pun de Coloane","name:zh":"路環石面盆古道","distance":"1375 m"},"11311824":{"name":"路環健康徑 Circuito de Manutenção de Coloane","type":"route","route":"hiking","name:en":"Coloane Fitness Trail","name:pt":"Circuito de Manutenção de Coloane","name:zh":"路環健康徑","distance":"1250 m"},"11311825":{"name":"金像步行徑 Trilho do Óscar","type":"route","route":"hiking","colour":"orange","name:en":"Oscar Trail","name:pt":"Trilho do Óscar","name:zh":"金像步行徑","distance":"1150 m"}}