{"1307935":{"ref":"9217","name":"עין כפירה","type":"route","route":"hiking","name:en":"Ein Kfira","name:he":"עין כפירה","network":"lwn","operator":"itc","osmc:symbol":"green:white:green_stripe"},"3433926":{"name":"Via Crucis","type":"route","route":"foot","name:ar":"طريق الآلام","name:el":"Οδός του Μαρτυρίου","name:en":"Via Crucis","name:fi":"Kärsimysten tie","name:he":"ויה דולורוזה","name:ja":"苦難の道（ヴィア・ドロローサ）","name:la":"Via Crucis","name:ro":"Drumul Crucii","name:ru":"Крестный путь","name:uk":"Хресний шлях","name:chu":"Страстны́й пꙋ́ть","name:grc":"Ὁδός τοῦ μαρτυρίου","wikidata":"Q214077","pilgrimage":"yes","alt_name:ar":"فيا دولوروزا"},"3667020":{"name":"דרך הפטרולים","type":"route","route":"hiking","name:en":"Derekh HaPatrolim","name:he":"דרך הפטרולים","network":"lwn","operator":"itc","osmc:symbol":"red:white:red_stripe"},"3667102":{"name":"בריכת צאנן","type":"route","route":"hiking","name:he":"בריכת צאנן","network":"lwn","operator":"kkl"},"3667103":{"name":"דרך צנובר","type":"route","route":"hiking","name:he":"דרך צנובר","network":"lwn","operator":"kkl","osmc:symbol":"blue:white"},"3867534":{"name":"שביל יער אייל","type":"route","route":"hiking","name:en":"Eyal Forest Trail","name:he":"שביל יער אייל","network":"lwn","operator":"itc","osmc:symbol":"blue:white:blue_stripe"},"4762614":{"name":"היקפי עתניאל","type":"route","route":"foot","name:ar":"الأجهزة الطرفية عتنيئيل","name:he":"היקפי עתניאל"},"5942861":{"name":"באר אמאוס","type":"route","route":"hiking","name:en":"Amaus Well","name:he":"באר אמאוס","network":"lwn","operator":"itc","osmc:symbol":"black:white:black_stripe"},"6023081":{"to":"רוג'ום א־נאקה","ref":"8445","name":"דרך תקוע–עין גדי","type":"route","route":"hiking","name:he":"דרך תקוע–עין גדי","network":"lwn","operator":"itc","osmc:symbol":"red:white:red_stripe"},"6244701":{"ref":"5544","name":"שביל המפקדים","type":"route","route":"hiking","name:he":"שביל המפקדים","network":"lwn","website":"https://inature.info/wiki/%D7%A9%D7%91%D7%99%D7%9C_%D7%94%D7%9E%D7%A4%D7%A7%D7%93%D7%99%D7%9D","operator":"itc","osmc:symbol":"red:white:red_stripe"},"7308905":{"name":"Pilgrimage Route","type":"route","route":"foot","name:ar":"طريق الحجاج","name:ru":"Тропы паломников","network":"lwn"},"7819122":{"name":"שביל הפרחים","type":"route","route":"hiking","colour":"green","name:he":"שביל הפרחים","network":"lwn","operator":"itc","osmc:symbol":"green:white:green_stripe"},"8407745":{"name":"דרך האבות","type":"route","route":"hiking","name:en":"Derekh HaAvot","name:he":"דרך האבות","network":"lwn","name:en1":"Avot Road","operator":"itc","osmc:symbol":"red:white:red_stripe"},"12876300":{"to":"עין גדי","ref":"8530","from":"רוג'ום א־נאקה","name":"דרך תקוע–עין גדי","type":"route","route":"hiking","name:he":"דרך תקוע–עין גדי","network":"lwn","operator":"itc","osmc:symbol":"red:white:red_stripe"},"13264973":{"ref":"5369","name":"דרך נוף הר כביר","type":"route","route":"hiking","name:he":"דרך נוף הר כביר","network":"lwn","operator":"itc","osmc:symbol":"black:white:black_stripe"},"14463170":{"to":"סוסיא העתיקה","from":"סוסיא","name":"סוסיא–סוסיא העתיקה","type":"route","route":"hiking","name:he":"סוסיא–סוסיא העתיקה","network":"lwn","operator":"itc","osmc:symbol":"black:white:black_stripe"},"14613232":{"name":"עין מבוע - ארמונות החורף ביריחו","type":"route","route":"hiking","name:he":"עין מבוע - ארמונות החורף ביריחו","network":"lwn","operator":"itc","osmc:symbol":"blue:white:blue_stripe"},"14723569":{"name":"אנדרדה","type":"route","image":"https://upload.wikimedia.org/wikipedia/commons/c/c0/IHM_אנדרטה_2.jpeg","route":"hiking","colour":"black","name:en":"Monument","name:he":"אנדרטה","network":"lwn","operator":"kkl"},"14784456":{"name":"נחל נטוף","type":"route","image":"https://upload.wikimedia.org/wikipedia/commons/4/40/IHM_נחל_נטוף.jpeg","route":"hiking","colour":"black","name:en":"Nahal Natuf","name:he":"נחל נטוף","network":"lwn","name:en1":"Natuf Stream","operator":"kkl"}}