{"2064956":{"to":"Ciucaru Mare","from":"DN57","name":"Traseul ecoturistic Ciucaru Mare – Cazanele Mari","type":"route","route":"hiking","symbol":"yellow triangle","network":"lwn","website":"http://www.danubegates.eu/ro/turism/trasee-turistice/8-ciucarul-mare/","distance":"4.9","website:en":"http://www.danubegates.eu/en/tourism/hiking-trails/8-ciucarul-mare/","osmc:symbol":"yellow:white:yellow_triangle"},"2783755":{"name":"Чемерник","type":"route","route":"hiking","name:en":"Cemernik","name:sr":"Чемерник","network":"lwn","name:sr-Latn":"Čemernik"},"2783817":{"name":"Власина Рид","type":"route","route":"hiking","name:en":"Vlasina Rid","name:sr":"Власина Рид","network":"lwn","name:sr-Latn":"Vlasina Rid"},"2784014":{"name":"Вртоп","type":"route","route":"hiking","name:en":"Vrtop","name:sr":"Вртоп","network":"lwn","name:sr-Latn":"Vrtop"},"5652183":{"name":"Tricule - Eibental – Bigăr (yellow tourist path)","type":"route","route":"hiking","network":"lwn","complete":"no","operator":"cz:KČT","kct_yellow":"major","osmc:symbol":"yellow:white:yellow_bar","destinations":"Tricule - Eibental - Bigar"},"5674515":{"to":"Cioaca Cremeneasca","from":"DN57","name":"Traseul ecoturistic Cioaca Cremeneasca – Rudina","type":"route","route":"hiking","symbol":"red triangle","network":"lwn","website":"http://www.danubegates.eu/ro/turism/trasee-turistice/10-cremeneasca-rudina/","distance":"8.2","website:en":"http://www.danubegates.eu/en/tourism/hiking-trails/10-cremeneasca-rudina/","osmc:symbol":"red:white:red_triangle"},"5687259":{"to":"Trescovăț","from":"DN57","name":"Traseul ecoturistic Trescovăț","type":"route","route":"hiking","symbol":"triangle","network":"lwn","website":"http://www.danubegates.eu/ro/turism/trasee-turistice/13-trescovat/","distance":"10.0","website:en":"http://www.danubegates.eu/en/tourism/hiking-trails/13-trescovat/","osmc:symbol":"red:white:red_triangle"},"5690432":{"to":"Cazanele mici","from":"Dubova","name":"Traseul ecoturistic Dubova – Cazanele mici (yellow triangle)","type":"route","route":"hiking","symbol":"yellow triangle","network":"lwn","website":"http://www.danubegates.eu/ro/turism/trasee-turistice/7-dubova-cazanele-mici/","distance":"9.0","website:en":"http://www.danubegates.eu/en/tourism/hiking-trails/7-dubova-cazanele-mici/","osmc:symbol":"yellow:white:yellow_triangle"},"5690433":{"to":"Ciucarul mic","from":"DN57","name":"Traseul ecoturistic Ciucarul mic (red triangle)","type":"route","route":"hiking","symbol":"red triangle","network":"lwn","website":"http://www.danubegates.eu/ro/turism/trasee-turistice/6-ciucarul-mic/","distance":"2","website:en":"http://www.danubegates.eu/en/tourism/hiking-trails/6-ciucarul-mic/","osmc:symbol":"red:white:red_triangle"},"5690999":{"name":"blue dot Sf. elena","type":"route","route":"hiking","symbol":"blue dot","osmc:symbol":"blue:white:blue_dot"},"5691000":{"name":"Green dot Sf. elena","type":"route","route":"hiking","symbol":"green dot","osmc:symbol":"green:white:green_dot"},"6257599":{"name":"Велики Штрбац","note":"korišćenje staze potrebno je najaviti upravljaču zaštićenog područja, Javnom preuzeću „Nacionalni park Đerdap“","type":"route","route":"hiking","source":"jp_nacionalni_park_djerdap","name:sr":"Велики Штрбац","network":"lwn","website":"https://npdjerdap.rs/veliki-strbac/","distance":"7.6 km","operator":"JP Nacionalni park Đerdap","roundtrip":"no","name:sr-Latn":"Veliki Štrbac"},"6543719":{"name":"Peștera Ponicova","type":"route","route":"hiking","network":"lwn","osmc:symbol":"yellow:white:yellow_triangle"},"6791193":{"name":"Oreovac - Gradac - Pleš","type":"route","route":"hiking"},"6791194":{"name":"Нишка Трансверзала","type":"route","route":"hiking","name:sr":"Нишка Трансверзала","network":"rwn","name:sr-Latn":"Niška Transverzala"},"6791195":{"name":"Sićevo - Buke","type":"route","route":"hiking"},"6791197":{"name":"Gradište - Pleš","type":"route","route":"hiking"},"7002294":{"name":"Markirana pešačka staza kroz Subotičku peščaru","type":"route","route":"hiking","network":"rwn"},"7059679":{"name":"Sichevița – Ravensca (blue path)","type":"route","route":"hiking","operator":"cz:KČT","osmc:symbol":"blue:white:blue_bar"},"7395330":{"name":"Palić, centar (Linija 6) - Majkin salaš (R0)","type":"route","horse":"yes","route":"foot","bicycle":"yes"},"7593828":{"name":"Мали Штрбац","note":"korišćenje staze potrebno je najaviti upravljaču zaštićenog područja, Javnom preuzeću „Nacionalni park Đerdap“","type":"route","route":"hiking","source":"jp_nacionalni_park_djerdap","name:sr":"Мали Штрбац","network":"lwn","website":"https://npdjerdap.rs/mali-strbac/","distance":"7.1 km","operator":"JP Nacionalni park Đerdap","roundtrip":"no","name:sr-Latn":"Mali Štrbac"},"10009195":{"name":"Приправнички источни маратон","type":"route","route":"hiking","name:en":"Novice east marathon","name:sr":"Приправнички источни маратон","network":"lwn","website":"https://www.fruskogorski-maraton.com/pripravnicki-istocni-maraton/","distance":"16.3","operator":"Fruškogorski maraton","osmc:symbol":"green:white_round::♥:red","name:sr-Latn":"Pripravnički istočni maraton"},"10035113":{"name":"Traseul ecoturistic Valea morilor de apa","type":"route","route":"hiking","symbol":"blue stripe","network":"lwn","website":"http://www.danubegates.eu/ro/turism/trasee-turistice/14-valea-morilor-de-apa/","distance":"22.3","website:en":"http://www.danubegates.eu/en/tourism/hiking-trails/14-valea-morilor-de-apa/","osmc:symbol":"blue:white:blue_stripe"},"10035146":{"to":"Ponicova","from":"DN57","name":"Traseul ecoturistic Ciucarul mare – Ponicova","type":"route","route":"hiking","symbol":"blue triangle","network":"lwn","website":"http://www.danubegates.eu/ro/turism/trasee-turistice/9-ciucarul-mare-ponicova/","distance":"1.6","website:en":"http://www.danubegates.eu/en/tourism/hiking-trails/9-ciucarul-mare-ponicova/","osmc:symbol":"blue:white:blue_triangle"},"10035577":{"to":"Mănăstirea Vodița","from":"DN6","name":"Traseul ecoturistic Vodița – Dealul Duhovnei","type":"route","route":"hiking","symbol":"yellow dot","network":"lwn","website":"http://www.danubegates.eu/ro/turism/trasee-turistice/2-vodita-dealul-duhovnei/","distance":"12.8","website:en":"http://www.danubegates.eu/en/tourism/hiking-trails/2-vodita-dealul-duhovnei/","osmc:symbol":"yellow:white:yellow_dot"},"10048054":{"to":"Svinița","from":"DN57","name":"Traseul ecoturistic Svinita – Trikule","type":"route","route":"hiking","symbol":"yellow triangle","network":"lwn","website":"http://www.danubegates.eu/ro/turism/trasee-turistice/12-svinita-trikule/","distance":"9.2","website:en":"http://www.danubegates.eu/en/tourism/hiking-trails/12-svinita-trikule-2/","osmc:symbol":"blue:white:yellow_triangle"},"10117093":{"name":"Studena mountain - Kavgalija","type":"route","route":"hiking","state":"alternate","ascent":"660","name:sr":"Студена планина - Кавгалија","network":"lwn","roundtrip":"yes","description":"Mostly abendoned forest trails","name:sr-Latn":"Studena planina - Kavgalija"},"10808656":{"ref":"4-49-2","name":"Јежевац, Манастир Горњак - Лалин кладенац","type":"route","route":"hiking","ascent":"498","source":"pss_staze","descent":"512","name:sr":"Јежевац, Манастир Горњак - Лалин кладенац","network":"rwn","website":"https://pss.rs/terenipp/jezevac-manastir-gornjak-lalin-kladenac/","distance":"9.2 km","operator":"Gornjak PD","roundtrip":"no","description":"Na startu i cilju ima mesta za parkiranje vozila. Iz oba smera se jednim delom ide nasutim ili zemljenim putem, dok ostatak čine planinarske staze sa većinski zemljanom podlogom. Staza nije strma i prikladna je za početnike i osobe sa slabijom kondicijom.","osmc:symbol":"red:red_round::2:white","name:sr-Latn":"Ježevac, Manastir Gornjak-Lalin kladenac"},"10886455":{"ref":"3-14-5","name":"Таорска врела - с. Радановци - Таорска врела","type":"route","route":"hiking","ascent":"430","source":"pss_staze","descent":"430","name:sr":"Таорска врела - с. Радановци - Таорска врела","network":"rwn","website":"https://pss.rs/terenipp/taorska-vrela-s-radanovci-spomenik-zikici-jovanovicu-spancu-taorska-vrela/","distance":"9.5 km","operator":"Povlen PK","roundtrip":"yes","osmc:symbol":"red:red_round::5:white","name:sr-Latn":"Taorska vrela – s. Radanovci – Taorska vrela"},"10923377":{"name":"Стаза здравља Јегричка Сириг","type":"route","route":"foot","name:sr":"Стаза здравља Јегричка Сириг","network":"lwn","operator":"PSK Sirig","name:sr-Latn":"Staza zdravlja Jegrička Sirig"},"10967037":{"name":"Језеро Зуце","type":"route","route":"hiking","name:sr":"Језеро Зуце","network":"lwn","name:sr-Latn":"Jezero Zuce"},"11038377":{"ref":"4-4-3","name":"Од манастира Горњак до Крупајског врела","type":"route","route":"hiking","ascent":"845","source":"pss_staze","descent":"795","name:sr":"Од манастира Горњак до Крупајског врела","network":"rwn","website":"https://pss.rs/terenipp/od-manastira-gornjak-do-krupajskog-vrela/","distance":"18.5 km","operator":"Gornjak PD","roundtrip":"no","osmc:symbol":"red:red_round::3:white","name:sr-Latn":"Od manastira Gornjak do Krupajskog vrela"},"11038409":{"ref":"4-48-1","name":"Велики Вукан од манастира Горњак до извиђачког дома у Ждрелу","type":"route","route":"hiking","ascent":"640","source":"pss_staze","descent":"615","name:sr":"Велики Вукан од манастира Горњак до извиђачког дома у Ждрелу","network":"rwn","website":"https://pss.rs/terenipp/veliki-vukan-od-manastira-gornjak-do-izvidjackog-doma-u-zdrelu/","distance":"10.3 km","int_name":"Veliki Vukan od manastira Gornjak do izvidjackog doma u Zdrelu","operator":"Gornjak PD","roundtrip":"no","osmc:symbol":"red:red_round::1:white","name:sr-Latn":"Veliki Vukan od manastira Gornjak do izviđačkog doma u Ždrelu"},"11038427":{"ref":"4-48-3","name":"Мали Вукан од Четири луле до манастира Ждрело","type":"route","route":"hiking","ascent":"556","source":"pss_staze","descent":"476","name:sr":"Мали Вукан од Четири луле до манастира Ждрело","network":"rwn","website":"https://pss.rs/terenipp/mali-vukan-od-cetiri-lule-do-manastira-zdrelo/","distance":"6.3 km","operator":"Gornjak PD","roundtrip":"no","osmc:symbol":"red:red_round::3:white","name:sr-Latn":"Mali Vukan od Četiri lule do manastira Ždrelo"},"11038474":{"ref":"4-49-1","name":"Јежевац преко Козјег Грба","type":"route","route":"hiking","ascent":"517","source":"pss_staze","descent":"498","name:sr":"Јежевац преко Козјег Грба","network":"rwn","website":"https://pss.rs/terenipp/jezevac-preko-kozjeg-grba/","distance":"7.2 km","operator":"Gornjak PD","roundtrip":"no","osmc:symbol":"red:red_round::1:white","name:sr-Latn":"Ježevac preko Kozjeg Grba"},"11038526":{"ref":"4-48-4","name":"Велики Вукан од Ждрела","type":"route","route":"hiking","ascent":"620","source":"pss_staze","descent":"620","name:sr":"Велики Вукан од Ждрела","network":"rwn","website":"https://pss.rs/terenipp/veliki-vukan-od-zdrela/","distance":"8.4 km","operator":"Gornjak PD","roundtrip":"yes","osmc:symbol":"red:red_round::4:white","name:sr-Latn":"Veliki Vukan od Ždrela"},"11038554":{"ref":"4-48-2","name":"Мали и Велики Вукан од дома Ждрело","type":"route","route":"hiking","ascent":"710","source":"pss_staze","descent":"710","name:sr":"Мали и Велики Вукан од дома Ждрело","network":"rwn","website":"https://pss.rs/terenipp/mali-i-veliki-vukan-od-doma-zdrelo/","distance":"11 km","operator":"Gornjak PD","roundtrip":"yes","osmc:symbol":"red:red_round::2:white","name:sr-Latn":"Mali i Veliki Vukan od doma Ždrelo"},"11043157":{"ref":"4-4-2","name":"Хомољски планински полумаратон","type":"route","route":"hiking","ascent":"800","source":"pss_staze","descent":"800","name:sr":"Хомољски планински полумаратон","network":"rwn","website":"https://pss.rs/terenipp/homoljski-planinarski-polumaraton/","distance":"16.0 km","operator":"Vukan PK","roundtrip":"yes","osmc:symbol":"red:red_round::2:white","name:sr-Latn":"Homoljski planinarski polumaraton"},"11043232":{"ref":"4-4-1","name":"Хомољски планински маратон","type":"route","route":"hiking","ascent":"1800","source":"pss_staze","descent":"1800","name:sr":"Хомољски планински маратон","network":"rwn","website":"https://pss.rs/terenipp/homoljski-planinarski-maraton/","distance":"35.0 km","operator":"Vukan PK","roundtrip":"yes","osmc:symbol":"red:red_round::1:white","name:sr-Latn":"Homoljski planinarski maraton"},"11043543":{"ref":"2-5-6","name":"Аранђеловац - Букуља - Гарашко језеро - Букуља - Аранђеловац","type":"route","route":"hiking","ascent":"1114","source":"pss_staze","descent":"1114","name:sr":"Аранђеловац - Букуља - Гарашко језеро - Букуља - Аранђеловац","network":"rwn","website":"https://pss.rs/terenipp/arandjelovac-bukulja-garasko-jezero-bukulja-arandjelovac/","distance":"18.7 km","int_name":"Arandjelovac – Bukulja – Garasko jezero – Bukulja – Arandjelovac","operator":"Bukulja PD","roundtrip":"yes","osmc:symbol":"red:red_round::6:white","name:sr-Latn":"Aranđelovac – Bukulja – Garaško jezero – Bukulja – Aranđelovac"},"11046762":{"ref":"3-22-1","name":"Меморијал „Миле Обрадовић”","type":"route","route":"hiking","ascent":"650","source":"pss_staze","descent":"650","name:sr":"Меморијал „Миле Обрадовић”","network":"rwn","website":"https://pss.rs/terenipp/memorijal-mile-obradovic/","distance":"12 km","operator":"Magleš PSD","roundtrip":"yes","osmc:symbol":"red:red_round::1:white","name:sr-Latn":"Memorijal „Mile Obradović”"},"11046859":{"ref":"3-8-3","name":"Ђачка стаза, Кањон Трешњице - Горње Кошље","type":"route","route":"hiking","ascent":"747","source":"pss_staze","descent":"747","name:sr":"Ђачка стаза, Кањон Трешњице - Горње Кошље","network":"rwn","website":"https://pss.rs/terenipp/djacka-staza-kanjon-tresnjice-gornje-koslje/","distance":"12.5 km","int_name":"Djacka staza, Kanjon Tresnjice – Gornje Koslje","operator":"Avala PSK","roundtrip":"no","osmc:symbol":"red:red_round::3:white","name:sr-Latn":"Đačka staza, Kanjon Trešnjice – Gornje Košlje"},"11046907":{"ref":"3-8-1","name":"Бобија (рудник - врх - Добра вода - Разбојиште)","type":"route","route":"hiking","ascent":"591","source":"pss_staze","descent":"361","name:sr":"Бобија (рудник - врх - Добра вода - Разбојиште)","network":"rwn","website":"https://pss.rs/terenipp/bobija-rudnik-vrh-dobra-voda-razbojiste/","distance":"13.5 km","operator":"Avala PSK","roundtrip":"no","osmc:symbol":"red:red_round::1:white","name:sr-Latn":"Bobija (rudnik – vrh – Dobra voda – Razbojište)"},"11049687":{"ref":"3-8-2","name":"Три манастира, Друга етапа: Љубовија - Беле воде - Торничка Бобија","type":"route","route":"hiking","ascent":"1263","source":"pss_staze","descent":"411","name:sr":"Три манастира, Друга етапа: Љубовија - Беле воде - Торничка Бобија","network":"rwn","website":"https://pss.rs/terenipp/tri-manastira-druga-etapa-ljubovija-bele-vode-tornicka-bobija/","distance":"25.4 km","operator":"Avala PSK","roundtrip":"no","osmc:symbol":"red:red_round::2:white","name:sr-Latn":"Tri manastira, Druga etapa: Ljubovija – Bele vode – Tornička Bobija"},"11059141":{"ref":"3-7-1","name":"Три манастира, Прва етапа: Љубовија - Соко Град","type":"route","route":"hiking","ascent":"542","source":"pss_staze","descent":"403","name:sr":"Три манастира, Прва етапа: Љубовија - Соко Град","network":"rwn","website":"https://pss.rs/terenipp/tri-manastira-prva-etapa-ljubovija-soko-grad/","distance":"16.5 km","operator":"Avala PSK","roundtrip":"no","osmc:symbol":"red:red_round::1:white","name:sr-Latn":"Tri manastira, Prva etapa: Ljubovija – Soko Grad"},"11066834":{"ref":"2-15-1","name":"Крагујевачка планинарска стаза Жежељ-Бешњаја","type":"route","route":"hiking","ascent":"773","source":"pss_staze","descent":"696","name:sr":"Крагујевачка планинарска стаза Жежељ-Бешњаја","network":"rwn","website":"https://pss.rs/terenipp/kragujevacka-planinarska-staza-zezelj-besnjaja/","distance":"19.1","operator":"Gora PEK","roundtrip":"no","osmc:symbol":"red:red_round::1:white","name:sr-Latn":"Kragujevačka planinarska staza Žeželj-Bešnjaja"},"11069677":{"ref":"2-15-2","name":"Букоровац - кањон Вољевице - Бешњаја ( село ) - Букоровац","type":"route","route":"hiking","ascent":"970","source":"pss_staze","descent":"970","name:sr":"Букоровац - кањон Вољевице - Бешњаја ( село ) - Букоровац","network":"rwn","website":"https://pss.rs/terenipp/bukorovac-kanjon-voljevice-besnjaja-selo-bukovorac/","distance":"19 km","operator":"Gora PEK","roundtrip":"yes","osmc:symbol":"red:red_round::2:white","name:sr-Latn":"Bukorovac – kanjon Voljevice – Bešnjaja (selo) – Bukovorac"},"11072572":{"ref":"4-31-1","name":"Оштра чука - село Језеро","type":"route","route":"hiking","ascent":"104","source":"pss_staze","descent":"316","name:sr":"Оштра чука - село Језеро","network":"rwn","website":"https://pss.rs/terenipp/ostra-cuka-selo-jezero/","distance":"5.1 km","operator":"Oštra čuka PD","roundtrip":"no","description":"Spaja sledeće staze/puteve: \\\"Vlasina - Leskovik\\\", \\\"Sokobanja - Golemi kamen - Oštra Čuka\\\" i \\\"Sokobanja - Kalinovica - Oštra Čuka\\\"","osmc:symbol":"red:red_round::1:white","name:sr-Latn":"Oštra čuka - selo Jezero"},"11073423":{"ref":"2-14-19","name":"Ман. Ралетинац - Кременац - ман. Манастирак - Богалинац - Жупањевац - Говор вода - ман. Каленић (”Манастирска тура”)","type":"route","route":"hiking","ascent":"1570","source":"pss_staze","descent":"1400","name:sr":"Ман. Ралетинац - Кременац - ман. Манастирак - Богалинац - Жупањевац - Говор вода - ман. Каленић (”Манастирска тура”)","network":"rwn","website":"https://pss.rs/terenipp/man-raletinac-kremenac-man-manastirak-bogalinac-zupanjevac-govor-voda-man-kalenic-manastirska-tura/","distance":"33 km","operator":"Žeželj PD","roundtrip":"no","osmc:symbol":"red:red_round::19:white","name:sr-Latn":"Man. Raletinac – Kremenac – man. Manastirak – Bogalinac – Županjevac – Govor voda – man. Kalenić (“Manastirska tura”)"},"11076236":{"ref":"2-13-1","name":"Лесковац - Котлењача - Гружанско језеро - Кнић","type":"route","route":"hiking","ascent":"1260","source":"pss_staze","descent":"1230","name:sr":"Лесковац - Котлењача - Гружанско језеро - Кнић","network":"rwn","website":"https://pss.rs/terenipp/leskovac-kotlenjaca-gruzansko-jezero-knic/","distance":"26.5 km","roundtrip":"no","osmc:symbol":"red:red_round::1:white","name:sr-Latn":"Leskovac – Kotlenjača – Gružansko jezero – Knić"},"11090410":{"name":"Планинарска кућа \\\"Ратко Курузовић\\\" - Мали Штурац - Велики Штурац","type":"route","route":"hiking","name:sr":"Планинарска кућа \\\"Ратко Курузовић\\\" - Мали Штурац - Велики Штурац","network":"lwn","osmc:symbol":"green::::","name:sr-Latn":"Planinarska kuća \\\"Ratko Kuruzović\\\" - Mali Šturac - Veliki Šturac"},"11090419":{"name":"Планинарска кућа \\\"Ратко Курузовић\\\" - Велики Штурац","type":"route","route":"hiking","name:sr":"Планинарска кућа \\\"Ратко Курузовић\\\" - Велики Штурац","network":"lwn","osmc:symbol":"yellow","name:sr-Latn":"Planinarska kuća \\\"Ratko Kuruzović\\\" - Veliki Šturac"},"11092714":{"ref":"4-53-1","name":"Манастир Раваница - Бостава - Манастир Раваница","note":"staza nije mapirana u potpunosti, na (43.98857, 21.468790) postoji neslaganje","type":"route","route":"hiking","ascent":"750","source":"pss_staze","descent":"750","name:sr":"Манастир Раваница - Бостава - Манастир Раваница","network":"rwn","website":"https://pss.rs/terenipp/manastir-ravanica-bostava-manastir-ravanica/","distance":"21 km","operator":"Zubrova PD","roundtrip":"yes","osmc:symbol":"red:red_round::1:white","name:sr-Latn":"Manastir Ravanica – Bostava – Manastir Ravanica"},"11095303":{"ref":"4-26-1","name":"ПД Грза - Велики Козји Рог - Вис - Црни врх - Јаворак - ПД Грза","type":"route","route":"hiking","ascent":"1230","source":"pss_staze","descent":"1230","name:sr":"ПД Грза - Велики Козји Рог - Вис - Црни врх - Јаворак - ПД Грза","network":"rwn","website":"https://pss.rs/terenipp/pd-grza-veliki-kozji-rog-vis-crni-vrh-javorak-pd-grza/","distance":"21 km","operator":"Javorak PK","roundtrip":"yes","osmc:symbol":"red:red_round::1:white","name:sr-Latn":"PD Grza – Veliki Kozji Rog – Vis – Crni vrh – Javorak – PD Grza"},"11097107":{"ref":"4-27-7","name":"Ртањ","type":"route","route":"hiking","ascent":"1207","source":"pss_staze","descent":"971","name:sr":"Ртањ","network":"rwn","website":"https://pss.rs/terenipp/rtanj/","distance":"13.7 km","operator":"Dragan Radosavljević OPSD","roundtrip":"no","osmc:symbol":"red:red_round::7:white","name:sr-Latn":"Rtanj"},"11097820":{"ref":"4-27-2","name":"Томићева колиба - Шиљак","note":"deluje da postoji greška u podacima o visinskoj razlici","type":"route","route":"hiking","ascent":"746","source":"pss_staze","descent":"746","name:sr":"Томићева колиба - Шиљак","network":"rwn","website":"https://pss.rs/terenipp/tomiceva-koliba-siljak/","distance":"6 km","operator":"Oštra čuka PD","roundtrip":"no","osmc:symbol":"red:red_round::2:white","name:sr-Latn":"Tomićeva koliba – Šiljak"},"11097832":{"ref":"4-27-4","name":"Томићева колиба – Јама Леденица","type":"route","route":"hiking","ascent":"102","source":"pss_staze","descent":"0","name:sr":"Томићева колиба – Јама Леденица","network":"lwn","website":"https://pss.rs/terenipp/tomiceva-koliba-jama-ledenica/","distance":"1.1 km","operator":"Oštra čuka PD","roundtrip":"no","osmc:symbol":"red:red_round::4:white","name:sr-Latn":"Tomićeva koliba – Jama Ledenica"},"11097850":{"ref":"4-27-3","name":"Мужинац - Томићева колиба (подножје Ртња)","type":"route","route":"hiking","ascent":"316","source":"pss_staze","descent":"18","name:sr":"Мужинац - Томићева колиба (подножје Ртња)","network":"rwn","website":"https://pss.rs/terenipp/muzinac-tomiceva-koliba-podnozje-rtnja/","distance":"6.6 km","operator":"Oštra čuka PD","roundtrip":"no","osmc:symbol":"red:red_round::3:white","name:sr-Latn":"Mužinac – Tomićeva koliba (podnožje Rtnja)"},"11098411":{"ref":"4-27-6","name":"Шарбановац - В. Порица - Баба","note":"staza nije mapirana u potpunosti","type":"route","route":"hiking","ascent":"781","source":"pss_staze","descent":"779","name:sr":"Шарбановац - В. Порица - Баба","network":"rwn","website":"https://pss.rs/terenipp/sarbanovac-v-porica-baba/","distance":"22 km","operator":"Oštra čuka PD","roundtrip":"no","osmc:symbol":"red:red_round::6:white","name:sr-Latn":"Šarbanovac – V. Porica – Baba"},"11098424":{"ref":"4-27-5","name":"Гола планина","note":"staza nije mapirana u potpunosti","type":"route","route":"hiking","ascent":"583","source":"pss_staze","descent":"17","name:sr":"Гола планина","network":"rwn","website":"https://pss.rs/terenipp/sarbanovac-gola-planina/","distance":"8 km","operator":"Oštra čuka PD","roundtrip":"no","osmc:symbol":"red:red_round::5:white","name:sr-Latn":"Gola planina"},"11102761":{"ref":"4-27-1","name":"Врмџа (кружна стаза)","note":"staza nije mapirana u potpunosti","type":"route","route":"hiking","ascent":"300","source":"pss_staze","descent":"360","name:sr":"Врмџа (кружна стаза)","network":"rwn","website":"https://pss.rs/terenipp/vrmdza-kruzna-staza/","distance":"14 km","operator":"Oštra čuka PD","roundtrip":"no","osmc:symbol":"red:red_round::1:white","name:sr-Latn":"Vrmdža (kružna staza)"},"11105001":{"ref":"4-29-1","name":"Врбовац - Ђурков врх","type":"route","route":"hiking","ascent":"357","source":"pss_staze","descent":"177","name:sr":"Врбовац - Ђурков врх","network":"rwn","website":"https://pss.rs/terenipp/vrbovac-djurkov-vrh/","distance":"7 km","int_name":"Vrbovac- Djurkov vrh","operator":"Oštra čuka PD","roundtrip":"no","osmc:symbol":"red:red_round::1:white","name:sr-Latn":"Vrbovac- Đurkov vrh"},"11105694":{"ref":"4-37-1","name":"Сесалац - Сесалачка пећина","type":"route","route":"hiking","ascent":"165","source":"pss_staze","descent":"0","name:sr":"Сесалац - Сесалачка пећина","network":"rwn","website":"https://pss.rs/terenipp/sesalac-sesalacka-pecina-2/","distance":"3 km","operator":"Oštra čuka PD","roundtrip":"no","osmc:symbol":"red:red_round::1:white","name:sr-Latn":"Sesalac – Sesalačka pećina"},"11121993":{"ref":"T-6-1","name":"Планинарска трансверзала „Јосиф Панчић“","type":"route","route":"hiking","ascent":"1207","descent":"1207","name:sh":"Planinarska transverzala „Josif Pančić“","name:sr":"Планинарска трансверзала „Јосиф Панчић“","network":"nwn","website":"https://pss.rs/terenipp/josif-pancic-kopaonik/","distance":"45","operator":"ПСД Копаоник","roundtrip":"yes","osmc:symbol":"red:red_round::1:white","name:sr-Latn":"Planinarska transverzala „Josif Pančić“"},"11126446":{"ref":"4-45-1","name":"Милушинац - Крстатац","note":"staza nije mapirana u potpunosti","type":"route","route":"hiking","ascent":"620","source":"pss_staze","descent":"0","name:sr":"Милушинац - Крстатац","network":"rwn","website":"https://pss.rs/terenipp/milusinac-krstatac-2/","complete":"no","distance":"6 km","operator":"Oštra čuka PD","roundtrip":"no","osmc:symbol":"red:red_round::1:white","name:sr-Latn":"Milušinac – Krstatac"},"11126557":{"ref":"4-37-2","name":"Милушинац - Слемен","type":"route","route":"hiking","ascent":"649","source":"pss_staze","descent":"0","name:sr":"Милушинац - Слемен","network":"rwn","website":"https://pss.rs/terenipp/milusinac-slemen-2/","distance":"7 km","operator":"Oštra čuka PD","roundtrip":"no","osmc:symbol":"red:red_round::2:white","name:sr-Latn":"Milušinac – Slemen"},"11128849":{"ref":"3-3-3","name":"Етно насеље Сунчана река - Кам - Црхи врх (Гучево)","note":"staza nije mapirana u potpunosti","type":"route","route":"hiking","ascent":"708","source":"pss_staze","descent":"57","name:sr":"Етно насеље Сунчана река - Кам - Црхи врх (Гучево)","network":"rwn","website":"https://pss.rs/terenipp/etno-naselje-suncana-reka-kam-crni-vrh-gucevo/","complete":"no","distance":"5.8 km","operator":"Gučevo PK","roundtrip":"no","osmc:symbol":"red:red_round::3:white","name:sr-Latn":"Etno naselje Sunčana reka – Kam – Crni vrh (Gučevo)"},"11129769":{"ref":"3-3-1","name":"Три чесме - Ковиљачка коса - Црни врх (Гучево)","note":"staza nije mapirana u potpunosti","type":"route","route":"hiking","ascent":"690","source":"pss_staze","descent":"42","name:sr":"Три чесме - Ковиљачка коса - Црни врх (Гучево)","network":"rwn","website":"https://pss.rs/terenipp/tri-cesme-koviljacka-kosa-crni-vrh-gucevo/","complete":"no","distance":"6 km","operator":"Gučevo PK","roundtrip":"no","osmc:symbol":"red:red_round::1:white","name:sr-Latn":"Tri česme – Koviljačka kosa – Crni vrh (Gučevo)"},"11132794":{"ref":"4-49-3","name":"Кружна стаза Јежевац","type":"route","route":"hiking","ascent":"570","source":"pss_staze","descent":"582","name:sr":"Кружна стаза Јежевац","network":"rwn","website":"https://pss.rs/terenipp/kruzna-staza-jezevac/","distance":"12 km","operator":"Vukan PK","roundtrip":"no","osmc:symbol":"red:red_round::3:white","name:sr-Latn":"Kružna staza Ježevac"},"11144136":{"name":"Црни Врх - Велики Козомор","type":"route","route":"hiking","name:sr":"Црни Врх - Велики Козомор","network":"rwn","operator":"ПСК Балкан","name:sr-Latn":"Crni Vrh - Veliki Kozomor"},"11163991":{"ref":"6-14-1","name":"Мечје стене","type":"route","route":"hiking","ascent":"567","source":"pss_staze","descent":"567","name:sr":"Мечје стене","network":"rwn","website":"https://pss.rs/terenipp/mecje-stene/","distance":"10.3 km","operator":"Jastrebac PSK","roundtrip":"yes","osmc:symbol":"red:red_round::1:white","name:sr-Latn":"Mečje stene"},"11164146":{"ref":"4-42-1","name":"Вршка чука - Влашки до - кружна стаза","type":"route","route":"hiking","ascent":"350","source":"pss_staze","descent":"462","name:sr":"Вршка чука - Влашки до - кружна стаза","network":"rwn","website":"https://pss.rs/terenipp/vrska-cuka-vlaski-do-kruzna-staza/","distance":"18 km","operator":"Ljuba Nešić PSD","roundtrip":"yes","osmc:symbol":"red:red_round::1:white","name:sr-Latn":"Vrška čuka – Vlaški do – kružna staza"},"11166660":{"ref":"4-42-2","name":"Ветрен - полукружна стаза","type":"route","route":"hiking","ascent":"350","source":"pss_staze","descent":"353","name:sr":"Ветрен - полукружна стаза","network":"rwn","website":"https://pss.rs/terenipp/vetren-polukruzna-staza/","distance":"11 km","operator":"Ljuba Nešić PSD","roundtrip":"no","osmc:symbol":"red:red_round::2:white","name:sr-Latn":"Vetren – polukružna staza"},"11169649":{"ref":"4-36-2","name":"Мариновац - Глоговачки врх","type":"route","route":"hiking","ascent":"714","source":"pss_staze","descent":"714","name:sr":"Мариновац - Глоговачки врх","network":"rwn","website":"https://pss.rs/terenipp/marinovac-glogovacki-vrh/","distance":"12.2 km","operator":"Dragan Radosavljević OPSD","roundtrip":"yes","osmc:symbol":"red:red_round::2:white","name:sr-Latn":"Marinovac – Glogovački vrh"},"11182558":{"ref":"4-36-1","name":"Кожељ - Леднички врх","type":"route","route":"hiking","ascent":"701","source":"pss_staze","descent":"701","name:sr":"Кожељ - Леднички врх","network":"rwn","website":"https://pss.rs/terenipp/kozelj-ledenicki-vrh/","distance":"12.6 km","operator":"Dragan Radosavljević OPSD","roundtrip":"yes","osmc:symbol":"red:red_round::1:white","name:sr-Latn":"Koželj – Ledenički vrh"},"11185515":{"ref":"4-31-6","name":"Кањон Ждрело на Девици (Левовик)","type":"route","route":"hiking","ascent":"759","source":"pss_staze","descent":"762","name:sr":"Кањон Ждрело на Девици (Левовик)","network":"rwn","website":"https://pss.rs/terenipp/kanjon-zdrelo-na-devici-levovik/","distance":"13 km","operator":"Oštra čuka PD","roundtrip":"yes","osmc:symbol":"red:red_round::6:white","name:sr-Latn":"Kanjon Ždrelo na Devici (Levovik)"},"11189246":{"ref":"4-31-7","name":"Велика и Мала Пропаст на Девици","type":"route","route":"hiking","ascent":"851","source":"pss_staze","descent":"851","name:sr":"Велика и Мала Пропаст на Девици","network":"rwn","website":"https://pss.rs/terenipp/velika-i-mala-propast-na-devici/","distance":"16.8 km","operator":"Oštra čuka PD","roundtrip":"yes","osmc:symbol":"red:red_round::7:white","name:sr-Latn":"Velika i Mala Propast na Devici"},"11189458":{"ref":"4","name":"Грабова коса","type":"route","route":"hiking","source":"pd_kablar","name:sr":"Грабова коса","network":"lwn","website":"https://www.kablar.org.rs/index.php/planinarske-staze-ovcara-i-kablara","distance":"5.7 km","operator":"PD Kablar","roundtrip":"no","osmc:symbol":"red:red_round::4:white","name:sr-Latn":"Grabova kosa"},"11189476":{"ref":"3-28-3","name":"Каблар","type":"route","route":"hiking","ascent":"607","source":"pss_staze","descent":"0","name:sr":"Каблар","network":"rwn","website":"https://pss.rs/terenipp/kablar/","distance":"6.4 km","operator":"Kablar PD","roundtrip":"no","osmc:symbol":"red:red_round::3:white","name:sr-Latn":"Kablar"},"11189523":{"ref":"3-28-2","name":"Свети Сава","type":"route","route":"hiking","ascent":"595","source":"pss_staze","descent":"0","name:sr":"Свети Сава","network":"rwn","website":"https://pss.rs/terenipp/sveti-sava/","distance":"3.4 km","operator":"Kablar PD","roundtrip":"no","osmc:symbol":"red:red_round::2:white","name:sr-Latn":"Sveti Sava"},"11189613":{"ref":"3-28-5","name":"Кота 889","type":"route","route":"hiking","ascent":"599","source":"pss_staze","descent":"0","name:sr":"Кота 889","network":"rwn","website":"https://pss.rs/terenipp/kota-889/","distance":"2.45 km","operator":"Kablar PD","roundtrip":"no","osmc:symbol":"red:red_round::5:white","name:sr-Latn":"Kota 889"},"11189634":{"ref":"3-28-1","name":"Девојачка стена","type":"route","route":"hiking","ascent":"595","source":"pss_staze","descent":"0","name:sr":"Девојачка стена","network":"rwn","website":"https://pss.rs/terenipp/devojacka-stena/","distance":"2.5 km","operator":"Kablar PD","roundtrip":"no","osmc:symbol":"red:red_round::1:white","name:sr-Latn":"Devojačka stena"},"11189670":{"ref":"4A","name":"4А","type":"route","route":"hiking","source":"pd_kablar","name:sr":"4А","network":"lwn","website":"https://www.kablar.org.rs/index.php/planinarske-staze-ovcara-i-kablara","operator":"PD Kablar","roundtrip":"no","osmc:symbol":"red:red_round::4A:white","name:sr-Latn":"4A"},"11189756":{"ref":"4B","name":"4Б","type":"route","route":"hiking","source":"pd_kablar","name:sr":"4Б","network":"lwn","website":"https://www.kablar.org.rs/index.php/planinarske-staze-ovcara-i-kablara","operator":"PD Kablar","roundtrip":"no","osmc:symbol":"red:red_round::4B:white","name:sr-Latn":"4B"},"11192825":{"ref":"4-31-8","name":"Три бунара на Девици - Извор Моравице","type":"route","route":"hiking","ascent":"942","source":"pss_staze","descent":"989","name:sr":"Три бунара на Девици - Извор Моравице","network":"rwn","website":"https://pss.rs/terenipp/tri-bunara-na-devici-izvor-moravice/","distance":"19 km","operator":"Oštra čuka PD","roundtrip":"no","osmc:symbol":"red:red_round::8:white","name:sr-Latn":"Tri bunara na Devici – Izvor Moravice"},"11211290":{"ref":"2A","name":"2А","type":"route","route":"hiking","source":"pd_kablar","name:sr":"2А","network":"lwn","website":"https://www.kablar.org.rs/index.php/planinarske-staze-ovcara-i-kablara","distance":"1.2 km","operator":"PD Kablar","roundtrip":"no","osmc:symbol":"red:red_round::2A:white","name:sr-Latn":"2A"},"11211353":{"ref":"MO","name":"Стаза Милоша Обреновића","type":"route","route":"hiking","source":"pd_kablar","name:sr":"Стаза Милоша Обреновића","network":"lwn","website":"https://www.kablar.org.rs/index.php/planinarske-staze-ovcara-i-kablara","distance":"22.6 km","operator":"PD Kablar","roundtrip":"no","osmc:symbol":"red:red_round::MO:white","name:sr-Latn":"Staza Miloša Obrenovića"},"11214224":{"ref":"6","name":"Дебела гора","type":"route","route":"hiking","source":"pd_kablar","name:sr":"Дебела гора","network":"lwn","website":"https://www.kablar.org.rs/index.php/planinarske-staze-ovcara-i-kablara","distance":"8.4 km","operator":"PD Kablar","roundtrip":"yes","osmc:symbol":"red:red_round::6:white","name:sr-Latn":"Debela gora"},"11214225":{"ref":"5-17-1","name":"Овчар","type":"route","route":"hiking","ascent":"708","source":"pss_staze","descent":"708","name:sr":"Овчар","network":"rwn","website":"https://pss.rs/terenipp/ovcar/","distance":"9.54 km","operator":"Kablar PD","roundtrip":"no","osmc:symbol":"red:red_round::1:white","name:sr-Latn":"Ovčar"},"11216827":{"ref":"7-3-8","name":"Велики Крчимир - Литица","type":"route","route":"hiking","ascent":"1163","source":"pss_staze","descent":"0","name:sr":"Велики Крчимир - Литица","network":"rwn","website":"https://pss.rs/terenipp/veliki-krcimir-litica/","distance":"6 km","operator":"Železničar PK Niš","roundtrip":"no","osmc:symbol":"red:red_round::8:white","name:sr-Latn":"Veliki Krčimir – Litica"},"11216896":{"ref":"7-3-9","name":"Велики Вртоп - Големо Стражиште","type":"route","route":"hiking","ascent":"1149","source":"pss_staze","descent":"0","name:sr":"Велики Вртоп - Големо Стражиште","network":"rwn","website":"https://pss.rs/terenipp/veliki-vrtop-golemo-straziste/","distance":"6.3 km","operator":"Železničar PK Niš","roundtrip":"no","osmc:symbol":"red:red_round::9:white","name:sr-Latn":"Veliki Vrtop – Golemo Stražište"},"11220788":{"ref":"7-3-3","name":"Бежиште - Пасарело","type":"route","route":"hiking","ascent":"1072","source":"pss_staze","descent":"0","name:sr":"Бежиште - Пасарело","network":"rwn","website":"https://pss.rs/terenipp/beziste-pasarelo/","distance":"14.9 km","operator":"Železničar PK Niš","roundtrip":"no","osmc:symbol":"red:red_round::3:white","name:sr-Latn":"Bežište – Pasarelo"},"11221138":{"ref":"7-3-4","name":"Дивљана - Пасарело","type":"route","route":"hiking","ascent":"1072","source":"pss_staze","descent":"0","name:sr":"Дивљана - Пасарело","network":"rwn","website":"https://pss.rs/terenipp/divljana-pasarelo/","distance":"8.8 km","operator":"Železničar PK Niš","roundtrip":"no","osmc:symbol":"red:red_round::4:white","name:sr-Latn":"Divljana – Pasarelo"},"11232073":{"ref":"4-31-2","name":"Сокобања - Калиновица - Оштра Чука","type":"route","route":"hiking","ascent":"780","source":"pss_staze","descent":"47","name:sr":"Сокобања - Калиновица - Оштра Чука","network":"rwn","website":"https://pss.rs/terenipp/sokobanja-kalinovica-ostra-cuka/","distance":"9 km","operator":"Oštra čuka PD","roundtrip":"no","osmc:symbol":"red:red_round::2:white","name:sr-Latn":"Sokobanja – Kalinovica – Oštra Čuka"},"11232158":{"ref":"4-31-5","name":"Сокобања - Кулин врх - Оштра Чука","type":"route","route":"hiking","ascent":"834","source":"pss_staze","descent":"90","name:de":"E4: Sokobanja – Kulin vrh – Oštra Čuka","name:sr":"Сокобања - Кулин врх - Оштра Чука","network":"rwn","website":"https://pss.rs/terenipp/sokobanja-kulin-vrh-ostra-cuka/","distance":"8 km","operator":"Oštra čuka PD","roundtrip":"no","osmc:symbol":"red:red_round::5:white","name:sr-Latn":"Sokobanja – Kulin vrh – Oštra Čuka"},"11232313":{"ref":"4-31-12","name":"Око Оштре чуке","type":"route","route":"hiking","ascent":"1065","source":"pss_staze","descent":"578","name:sr":"Око Оштре чуке","network":"rwn","website":"https://pss.rs/terenipp/oko-ostre-cuke/","distance":"21 km","operator":"Oštra čuka PD","roundtrip":"no","osmc:symbol":"red:red_round::12:white","name:sr-Latn":"Oko Oštre čuke"},"11252310":{"name":"Ковилово","note":"korišćenje staze potrebno je najaviti upravljaču zaštićenog područja, Javnom preuzeću „Nacionalni park Đerdap“","type":"route","route":"hiking","source":"jp_nacionalni_park_djerdap","name:sr":"Ковилово","network":"lwn","website":"https://npdjerdap.rs/kovilovo/","distance":"1.2 km","operator":"JP Nacionalni park Đerdap","roundtrip":"no","name:sr-Latn":"Kovilovo"},"11258223":{"ref":"7-15-1","name":"Велики и Мали Вртоп - Грамада, Власина","type":"route","route":"hiking","ascent":"601","source":"pss_staze","descent":"601","name:sr":"Велики и Мали Вртоп - Грамада, Власина","network":"rwn","website":"https://pss.rs/terenipp/veliki-i-mali-vrtop-gramada-vlasina/","distance":"20 km","operator":"Vlasina SPK","roundtrip":"yes","osmc:symbol":"red:red_round::1:white","name:sr-Latn":"Veliki i Mali Vrtop – Gramada, Vlasina"},"11258277":{"ref":"7-3-6","name":"Доња Студена - Трем","type":"route","route":"hiking","ascent":"1445","source":"pss_staze","descent":"0","name:sr":"Доња Студена - Трем","network":"rwn","website":"https://pss.rs/terenipp/donja-studena-trem/","distance":"12.9 km","operator":"Železničar PK Niš","roundtrip":"no","osmc:symbol":"red:red_round::6:white","name:sr-Latn":"Donja Studena – Trem"},"11260540":{"ref":"4-33-6","name":"Сокобања - Рипаљка","type":"route","route":"hiking","ascent":"140","source":"pss_staze","descent":"0","name:sr":"Сокобања - Рипаљка","network":"rwn","website":"https://pss.rs/terenipp/sokobanja-ripaljka/","distance":"3 km","operator":"Oštra čuka PD","roundtrip":"no","osmc:symbol":"red:red_round::6:white","name:sr-Latn":"Sokobanja – Ripaljka"},"11260582":{"ref":"4-33-7","name":"Власина - Оштра чука","type":"route","route":"hiking","ascent":"146","source":"pss_staze","descent":"25","name:sr":"Власина - Оштра чука","network":"rwn","website":"https://pss.rs/terenipp/vlasina-ostra-cuka/","distance":"1.8 km","operator":"Oštra čuka PD","roundtrip":"no","osmc:symbol":"red:red_round::7:white","name:sr-Latn":"Vlasina – Oštra čuka"},"11260598":{"ref":"4-33-1","name":"Власина - Лесковик","type":"route","route":"hiking","ascent":"235","source":"pss_staze","descent":"0","name:sr":"Власина - Лесковик","network":"rwn","website":"https://pss.rs/terenipp/vlasina-leskovik-2/","distance":"7 km","operator":"Oštra čuka PD","roundtrip":"no","osmc:symbol":"red:red_round::1:white","name:sr-Latn":"Vlasina – Leskovik"},"11263261":{"ref":"7-3-7","name":"Тасковићи - Црни камен","type":"route","route":"hiking","source":"pss_staze","name:sr":"Тасковићи - Црни камен","network":"rwn","website":"https://pss.rs/terenipp/taskovici-crni-kamen/","distance":"6 km","operator":"Železničar PK Niš","roundtrip":"no","osmc:symbol":"red:red_round::7:white","name:sr-Latn":"Taskovići – Crni kamen"},"11263354":{"ref":"7-3-10","name":"Коритњак - Девојачки гроб","type":"route","route":"hiking","ascent":"1398","source":"pss_staze","descent":"697","name:sr":"Коритњак - Девојачки гроб","network":"rwn","website":"https://pss.rs/terenipp/koritnjak-devojacki-grob/","distance":"17.2 km","operator":"Mosor PAK","roundtrip":"no","osmc:symbol":"red:red_round::10:white","name:sr-Latn":"Koritnjak – Devojački grob"},"11263389":{"ref":"4-39-3","name":"Крупац - Зелени врх","type":"route","route":"hiking","ascent":"1084","source":"pss_staze","descent":"0","name:sr":"Крупац - Зелени врх","network":"rwn","website":"https://pss.rs/terenipp/krupac-zeleni-vrh/","distance":"6.6 km","operator":"Železničar PK Niš","roundtrip":"no","osmc:symbol":"red:red_round::3:white","name:sr-Latn":"Krupac – Zeleni vrh"},"11263559":{"ref":"4-39-4","name":"Ћирин пролаз - Градиште - Плеш","type":"route","route":"hiking","ascent":"1017","source":"pss_staze","descent":"0","name:sr":"Ћирин пролаз - Градиште - Плеш","network":"rwn","website":"https://pss.rs/terenipp/cirin-prolaz-gradiste-ples/","distance":"7.9 km","operator":"Železničar PK Niš","roundtrip":"no","osmc:symbol":"red:red_round::4:white","name:sr-Latn":"Ćirin prolaz – Gradište – Pleš"},"11263606":{"ref":"7-47-1","name":"Островица - Облик","type":"route","route":"hiking","ascent":"556","source":"pss_staze","descent":"556","name:sr":"Островица - Облик","network":"rwn","website":"https://pss.rs/terenipp/ostrovica-oblik/","distance":"8 km","operator":"Mosor PAK","roundtrip":"yes","osmc:symbol":"red:red_round::1:white","name:sr-Latn":"Ostrovica – Oblik"},"11275807":{"ref":"2","name":"Дивчибаре - Тометино Поље","note":"staza nije mapirana u potpunosti","type":"route","route":"hiking","name:sr":"Дивчибаре - Тометино Поље","network":"lwn","name:sr-Latn":"Divčibare - Tometino Polje"},"11275808":{"ref":"K","name":"Врховима Дивчибара","type":"route","route":"hiking","name:sr":"Врховима Дивчибара","network":"lwn","name:sr-Latn":"Vrhovima Divčibara"},"11278968":{"name":"Подбукови","note":"staza nije mapirana u potpunosti","type":"route","route":"hiking","name:sr":"Подбукови","network":"lwn","name:sr-Latn":"Podbukovi"},"11278969":{"name":"Голубац","type":"route","route":"hiking","name:sr":"Голубац","network":"lwn","name:sr-Latn":"Golubac"},"11278970":{"name":"Љути крш","type":"route","route":"hiking","name:sr":"Љути крш","network":"lwn","name:sr-Latn":"Ljuti krš"},"11279532":{"name":"Црни Врх","type":"route","route":"hiking","name:sr":"Црни Врх","network":"lwn","name:sr-Latn":"Crni Vrh"},"11279533":{"name":"Велика Плећа","type":"route","route":"hiking","name:sr":"Велика Плећа","network":"lwn","name:sr-Latn":"Velika Pleća"},"11282897":{"ref":"7-3-11","name":"Бањица - Кусача","type":"route","route":"hiking","ascent":"700","source":"pss_staze","descent":"700","name:sr":"Бањица - Кусача","network":"rwn","website":"https://pss.rs/terenipp/banjica-kusaca/","distance":"11 km","operator":"Mosor PAK","roundtrip":"yes","osmc:symbol":"red:red_round::11:white","name:sr-Latn":"Banjica – Kusača"},"11286225":{"ref":"4-39-6","name":"Белоиље - Плеш - Белоиње","type":"route","route":"hiking","ascent":"842","source":"pss_staze","descent":"842","name:sr":"Белоиље - Плеш - Белоиње","network":"rwn","website":"https://pss.rs/terenipp/beloinje-ples-beloinje/","distance":"13.5 km","operator":"Preslap PD","roundtrip":"yes","osmc:symbol":"red:red_round::6:white","name:sr-Latn":"Beloinje – Pleš – Beloinje"},"11286263":{"ref":"4-39-5","name":"Преконошка пећина","type":"route","route":"hiking","ascent":"243","source":"pss_staze","descent":"243","name:sr":"Преконошка пећина","network":"rwn","website":"https://pss.rs/terenipp/prekonoska-pecina/","distance":"4.3 km","operator":"Preslap PD","roundtrip":"yes","osmc:symbol":"red:red_round::5:white","name:sr-Latn":"Prekonoška pećina"},"11289071":{"ref":"4-47-6","name":"Кнез Село - Градац - Силва - Калафат - ман. Св. Јована - Горњи Матејевац","type":"route","route":"hiking","ascent":"660","source":"pss_staze","descent":"758","name:sr":"Кнез Село - Градац - Силва - Калафат - ман. Св. Јована - Горњи Матејевац","network":"rwn","website":"https://pss.rs/terenipp/knez-selo-gradac-sliva-kalafat-man-sv-jovana-gornji-matejevac/","distance":"16 km","operator":"Preslap PD","roundtrip":"no","osmc:symbol":"red:red_round::6:white","name:sr-Latn":"Knez Selo - Gradac - Sliva - Kalafat - man. Sv.Jovana - Gornji Matejevac"},"11289209":{"ref":"4-47-7","name":"Калафат - Тврђава Ниш","type":"route","route":"hiking","ascent":"149","source":"pss_staze","descent":"811","name:sr":"Калафат - Тврђава Ниш","network":"rwn","website":"https://pss.rs/terenipp/kalafat-tvrdjava-nis/","distance":"18 km","int_name":"Kalafat – Tvrdjava Nis","operator":"Mosor PAK","roundtrip":"no","osmc:symbol":"red:red_round::7:white","name:sr-Latn":"Kalafat – Tvrđava Niš"},"11294577":{"ref":"4-47-2","name":"Церје - Љути врх - Провалија","type":"route","route":"hiking","ascent":"346","source":"pss_staze","descent":"346","name:sr":"Церје - Љути врх - Провалија","network":"rwn","website":"https://pss.rs/terenipp/cerje-ljuti-vrh-provalija/","distance":"9.2 km","operator":"Železničar PK Niš","roundtrip":"yes","osmc:symbol":"red:red_round::2:white","name:sr-Latn":"Cerje – Ljuti vrh – Provalija"},"11297467":{"ref":"4-47-1","name":"Церје - Голи врх - Дебели врх","type":"route","route":"hiking","ascent":"335","source":"pss_staze","descent":"335","name:sr":"Церје - Голи врх - Дебели врх","network":"rwn","website":"https://pss.rs/terenipp/cerje-goli-vrh-debeli-vrh/","distance":"9.3 km","operator":"Železničar PK Niš","roundtrip":"yes","osmc:symbol":"red:red_round::1:white","name:sr-Latn":"Cerje – Goli vrh – Debeli vrh"},"11301866":{"ref":"4-47-5","name":"Кравље - Пећурина - Љути врх","type":"route","route":"hiking","ascent":"483","source":"pss_staze","descent":"0","name:sr":"Кравље - Пећурина - Љути врх","network":"rwn","website":"https://pss.rs/terenipp/kravlje-pecurina-ljuti-vrh/","distance":"4.2 km","operator":"Železničar PK Niš","roundtrip":"no","osmc:symbol":"red:red_round::5:white","name:sr-Latn":"Kravlje – Pećurina – Ljuti vrh"},"11301905":{"ref":"4-47-4","name":"Кравље - Голи врх","type":"route","route":"hiking","ascent":"421","source":"pss_staze","descent":"0","name:sr":"Кравље - Голи врх","network":"rwn","website":"https://pss.rs/terenipp/kravlje-goli-vrh/","distance":"3.5 km","operator":"Železničar PK Niš","roundtrip":"no","osmc:symbol":"red:red_round::4:white","name:sr-Latn":"Kravlje – Goli vrh"},"11305864":{"ref":"4-33-3","name":"Поздрав пролећу / Алексинац - Сокобања (Рипаљка)","type":"route","route":"hiking","ascent":"837","source":"pss_staze","descent":"499","name:sr":"Поздрав пролећу / Алексинац - Сокобања (Рипаљка)","network":"rwn","website":"https://pss.rs/terenipp/pozdrav-prolecu-aleksinac-sokobanja-ripaljka/","distance":"27 km","operator":"Brđanka PSK","roundtrip":"no","osmc:symbol":"red:red_round::3:white","name:sr-Latn":"Pozdrav proleću / Aleksinac – Sokobanja (Ripaljka)"},"11310324":{"ref":"4-33-4","name":"Виа Милитарис / Липовац - Бованско језеро","type":"route","route":"hiking","ascent":"404","source":"pss_staze","descent":"459","name:sr":"Виа Милитарис / Липовац - Бованско језеро","network":"rwn","website":"https://pss.rs/terenipp/via-militaris-lipovac-bovansko-jezero/","distance":"20 km","operator":"Brđanka PSK","roundtrip":"no","osmc:symbol":"red:red_round::4:white","name:sr-Latn":"Via militaris / Lipovac – Bovansko jezero"},"11313503":{"ref":"4-31-4","name":"Ново Село - Крст - Раденковац","type":"route","route":"hiking","ascent":"372","source":"pss_staze","descent":"392","name:sr":"Ново Село - Крст - Раденковац","network":"rwn","website":"https://pss.rs/terenipp/novo-selo-krst-radenkovac/","distance":"9 km","operator":"Oštra čuka PD","roundtrip":"no","osmc:symbol":"red:red_round::4:white","name:sr-Latn":"Novo Selo – Krst – Radenkovac"},"11313552":{"ref":"4-31-11","name":"Маљица","type":"route","route":"hiking","ascent":"505","source":"pss_staze","descent":"494","name:sr":"Маљица","network":"rwn","website":"https://pss.rs/terenipp/maljica/","distance":"12.3 km","operator":"Oštra čuka PD","roundtrip":"no","osmc:symbol":"red:red_round::11:white","name:sr-Latn":"Maljica"},"11313703":{"ref":"4-33-2","name":"Лесковик - кружна стаза","type":"route","route":"hiking","ascent":"780","source":"pss_staze","descent":"780","name:sr":"Лесковик - кружна стаза","network":"rwn","website":"https://pss.rs/terenipp/leskovik-kruzna-staza/","distance":"14 km","operator":"Brđanka PSK","roundtrip":"yes","osmc:symbol":"red:red_round::2:white","name:sr-Latn":"Leskovik – kružna staza"},"11313879":{"ref":"4-33-5","name":"Ковиљача / Станци - Липовац","type":"route","route":"hiking","ascent":"403","source":"pss_staze","descent":"145","name:sr":"Ковиљача / Станци - Липовац","network":"rwn","website":"https://pss.rs/terenipp/koviljaca-stanci-lipovac/","distance":"9.8 km","operator":"Brđanka PSK","roundtrip":"no","osmc:symbol":"red:red_round::5:white","name:sr-Latn":"Koviljača / Stanci – Lipovac"},"11314365":{"ref":"1-13-2","name":"Чортановачка магија","type":"route","route":"hiking","ascent":"381","source":"pss_staze","descent":"381","name:sr":"Чортановачка магија","network":"rwn","website":"https://pss.rs/terenipp/cortanovacka-magija/","distance":"14.9 km","operator":"Železničar PD Beograd","roundtrip":"yes","osmc:symbol":"red:red_round::2:white","name:sr-Latn":"Čortanovačka magija"},"11314960":{"ref":"1-3-3","name":"Буковачки маратон – Велика стаза","type":"route","route":"hiking","ascent":"1350","source":"pss_staze","descent":"1350","name:en":"Bukovac Marathon – Long track","name:sr":"Буковачки маратон – Велика стаза","network":"rwn","website":"https://pss.rs/terenipp/bukovacki-maraton-velika-staza/","distance":"47.8 km","operator":"Vilina vodica PD","roundtrip":"yes","osmc:symbol":"red:red:white_triangle_turned::3:red","name:sr-Latn":"Bukovački maraton – Velika staza"},"11317382":{"ref":"1-3-1","name":"Буковачки маратон – Основна стаза","type":"route","route":"hiking","ascent":"580","source":"pss_staze","descent":"580","name:en":"Bukovac Marathon – Basic track","name:sr":"Буковачки маратон – Основна стаза","network":"rwn","website":"https://pss.rs/terenipp/bukovacki-maraton-osnovna-staza/","distance":"16 km","operator":"Vilina vodica PD","roundtrip":"yes","osmc:symbol":"red:red:white_triangle_turned::1:red","name:sr-Latn":"Bukovački maraton – Osnovna staza"},"11321138":{"ref":"1-3-2","name":"Буковачки маратон – Средња стаза","type":"route","route":"hiking","ascent":"980","source":"pss_staze","descent":"980","name:en":"Bukovac Marathon – Medium track","name:sr":"Буковачки маратон – Средња стаза","network":"rwn","website":"https://pss.rs/terenipp/bukovacki-maraton-srednja-staza/","distance":"35.2 km","operator":"Vilina vodica PD","roundtrip":"yes","osmc:symbol":"red:red:white_triangle_turned::2:red","name:sr-Latn":"Bukovački maraton – Srednja staza"},"11334200":{"ref":"1-15-1","name":"Бојчинска шума","type":"route","route":"hiking","ascent":"5","source":"pss_staze","descent":"5","name:sr":"Бојчинска шума","network":"rwn","website":"https://pss.rs/terenipp/bojcinska-suma/","distance":"6 km","operator":"Železničar PD Beograd","roundtrip":"yes","osmc:symbol":"red:red_round::1:white","name:sr-Latn":"Bojčinska šuma"},"11338783":{"ref":"5-12-1","name":"Златибор - Торник - Водице","type":"route","route":"hiking","ascent":"1007","source":"pss_staze","descent":"918","name:sr":"Златибор - Торник - Водице","network":"rwn","website":"https://pss.rs/terenipp/zlatibor-tornik-vodice/","distance":"22 km","operator":"Tornik PK","roundtrip":"no","osmc:symbol":"red:red_round::1:white","name:sr-Latn":"Zlatibor – Tornik – Vodice"},"11349334":{"ref":"5-12-2","name":"Ски центар „Торник” (Рибница) - Водице","type":"route","route":"hiking","ascent":"327","source":"pss_staze","descent":"379","name:sr":"Ски центар „Торник” (Рибница) - Водице","network":"rwn","website":"https://pss.rs/terenipp/ski-centar-tornik-ribnica-vodice/","distance":"9.9 km","operator":"Tornik PK","roundtrip":"no","osmc:symbol":"red:red_round::2:white","name:sr-Latn":"Ski centar „Tornik” (Ribnica) – Vodice"},"11349461":{"ref":"5-12-3","name":"Тетребовац","type":"route","route":"hiking","ascent":"617","source":"pss_staze","descent":"617","name:sr":"Тетребовац","network":"rwn","website":"https://pss.rs/terenipp/tetrebovac/","distance":"14.2 km","operator":"Tornik PK","roundtrip":"yes","osmc:symbol":"red:red_round::3:white","name:sr-Latn":"Tetrebovac"},"11353060":{"name":"Школска планинарска стаза","type":"route","route":"hiking","colour":"red","name:sr":"Школска планинарска стаза","network":"lwn","operator":"ПЕК Гора Крагујевац","roundtrip":"yes","osmc:symbol":"red:red_round::2:white","name:sr-Latn":"Školska planinarska staza","network:type":"Local"},"11362168":{"name":"Стазом Петрушких монаха","type":"route","route":"hiking","name:sr":"Стазом Петрушких монаха","network":"lwn","name:sr-Latn":"Stazom Petruških monaha"},"11478100":{"ref":"5-15-2","name":"Кађеница","type":"route","route":"hiking","ascent":"20","source":"pss_staze","descent":"513","name:sr":"Кађеница","network":"rwn","website":"https://pss.rs/terenipp/kadjenica/","distance":"4.35 km","operator":"Kablar PD","roundtrip":"no","osmc:symbol":"red:red_round::2:white","name:sr-Latn":"Kađenica"},"11478294":{"ref":"7A","name":"Варијанта стазе 7","type":"route","route":"hiking","source":"to_cacak","name:sr":"Варијанта стазе 7","network":"lwn","website":"https://www.kablar.org.rs/index.php/planinarske-staze-ovcara-i-kablara","distance":"0.6 km","operator":"PD Kablar","roundtrip":"no","osmc:symbol":"red:red_round::7A:white","name:sr-Latn":"Varijanta staze 7"},"11483846":{"name":"Парцански вис","note":"staza nije mapirana u potpunosti","type":"route","route":"hiking","name:sr":"Парцански вис","network":"lwn","name:sr-Latn":"Parcanski vis"},"11489032":{"ref":"5-17-2","name":"Дуле Крњајић","type":"route","route":"hiking","ascent":"365","source":"pss_staze","descent":"0","name:sr":"Дуле Крњајић","network":"rwn","website":"https://pss.rs/terenipp/dule-krnjajic/","distance":"5.6 km","operator":"Kablar PD","roundtrip":"no","osmc:symbol":"red:red_round::2:white","name:sr-Latn":"Dule Krnjajić"},"11489086":{"ref":"8A","name":"Варијанта стазе 8","type":"route","route":"hiking","source":"to_cacak","name:sr":"Варијанта стазе 8","network":"lwn","website":"https://www.kablar.org.rs/index.php/planinarske-staze-ovcara-i-kablara","distance":"2.4 km","operator":"PD Kablar","roundtrip":"no","osmc:symbol":"red:red_round::8A:white","name:sr-Latn":"Varijanta staze 8"},"11489136":{"ref":"9","name":"Раткова стаза","type":"route","route":"hiking","source":"to_cacak","name:sr":"Раткова стаза","network":"lwn","website":"https://www.kablar.org.rs/index.php/planinarske-staze-ovcara-i-kablara","distance":"2.4 km","operator":"PD Kablar","roundtrip":"no","osmc:symbol":"red:red_round::9:white","name:sr-Latn":"Ratkova staza"},"11499127":{"ref":"T-5-8","name":"Овчарско-кабларска трансверзала","type":"route","route":"hiking","source":"to_cacak","name:sr":"Овчарско-кабларска трансверзала","network":"nwn","website":"https://pss.rs/terenipp/ovcarsko-kablarska-transverzala/","distance":"45 km","operator":"ПД Каблар","roundtrip":"no","osmc:symbol":"yellow:red_round::ОКТ:white","name:sr-Latn":"Ovčarsko-kablarska transverzala"},"11510161":{"to":"Stražilovo","ref":"T-1-9","from":"Stražilovo","name":"Фрушкогорска трансверзала","type":"route","route":"hiking","ascent":"5560","colour":"red","symbol":"red and white triangle","descent":"5560","name:en":"Fruška Gora transversal","name:sr":"Фрушкогорска трансверзала","network":"nwn","website":"http://planinari.org.rs/transverzale/fruskogorska.html#","distance":"167","operator":"Planinarski savez Vojvodine","osmc:symbol":"black:white:red_triangle_line","name:sr-Latn":"Fruškogorska transverzala","description:en":"The longest (~160 km) and most demanding traditional route across Fruška gora","description:sr":"Najduža i najzahtevnija ruta na Fruškoj gori"},"11512754":{"ref":"4-4-4","name":"Стрњак - Трест","type":"route","route":"hiking","ascent":"333","source":"pss_staze","descent":"0","name:sr":"Стрњак - Трест","network":"rwn","website":"https://pss.rs/terenipp/strnjak-trest/","distance":"6.5 km","operator":"Gornjak PD","roundtrip":"no","osmc:symbol":"red:red_round::4:white","name:sr-Latn":"Strnjak – Trest"},"11515769":{"ref":"4-4-5","name":"Штубеј од Церомошње","type":"route","route":"hiking","ascent":"400","source":"pss_staze","descent":"400","name:sr":"Штубеј од Церомошње","network":"rwn","website":"https://pss.rs/terenipp/stubej-od-ceremosnje/","distance":"9.6 km","operator":"Gornjak PD","roundtrip":"yes","osmc:symbol":"red:red_round::5:white","name:sr-Latn":"Štubej od Ceremošnje"},"11515913":{"ref":"4-4-6","name":"Велики Суморовац од Бистрице","type":"route","route":"hiking","ascent":"627","source":"pss_staze","descent":"627","name:sr":"Велики Суморовац од Бистрице","network":"rwn","website":"https://pss.rs/terenipp/veliki-sumorovac-od-bistrice/","distance":"12.5 km","operator":"Gornjak PD","roundtrip":"yes","osmc:symbol":"red:red_round::6:white","name:sr-Latn":"Veliki Sumorovac od Bistrice"},"11515931":{"ref":"4-4-7","name":"Велики Врањ од Крепољина","type":"route","route":"hiking","ascent":"630","source":"pss_staze","descent":"630","name:sr":"Велики Врањ од Крепољина","network":"rwn","website":"https://pss.rs/terenipp/veliki-vranj-od-krepoljina/","distance":"12.5 km","operator":"Gornjak PD","roundtrip":"yes","osmc:symbol":"red:red_round::7:white","name:sr-Latn":"Veliki Vranj od Krepoljina"},"11518648":{"ref":"4-48-5","name":"Мали Вукан гребеном од Четири луле","type":"route","route":"hiking","ascent":"556","source":"pss_staze","descent":"556","name:sr":"Мали Вукан гребеном од Четири луле","network":"rwn","website":"https://pss.rs/terenipp/mali-vukan-grebenom-od-cetiri-lule/","distance":"6 km","operator":"Gornjak PD","roundtrip":"yes","osmc:symbol":"red:red_round::5:white","name:sr-Latn":"Mali Vukan grebenom od Četiri lule"},"11518703":{"ref":"4-86-6","name":"Велики Вукан од Ждрела до манастира Рашковице","type":"route","route":"hiking","ascent":"620","source":"pss_staze","descent":"450","name:sr":"Велики Вукан од Ждрела до манастира Рашковице","network":"rwn","website":"https://pss.rs/terenipp/veliki-vukan-od-zdrela-do-manastira-reskovice/","distance":"9.7 km","operator":"Gornjak PD","roundtrip":"no","osmc:symbol":"red:red_round::6:white","name:sr-Latn":"Veliki Vukan od Ždrela do manastira Reškovice"},"11518753":{"ref":"4-49-4","name":"Извор реке Дубочице","type":"route","route":"hiking","ascent":"497","source":"pss_staze","descent":"387","name:sr":"Извор реке Дубочице","network":"rwn","website":"https://pss.rs/terenipp/izvor-reke-dubocice/","distance":"8.5 km","operator":"Gornjak PD","roundtrip":"no","osmc:symbol":"red:red_round::4:white","name:sr-Latn":"Izvor reke Dubočice"},"11573882":{"ref":"1","name":"Калуђерске Баре - Збориште","type":"route","route":"hiking","source":"pk_tara","name:sr":"Калуђерске Баре - Збориште","network":"lwn","website":"http://www.planinarskiklubtara.org/planinarske-staze/s01/","distance":"13.3 km","operator":"PK Tara","roundtrip":"no","osmc:symbol":"red:red_round::1:white","name:sr-Latn":"Kaluđerske Bare – Zborište"},"11576719":{"ref":"2","name":"Калуђерске Баре - Јаревац","type":"route","route":"hiking","source":"pk_tara","name:sr":"Калуђерске Баре - Јаревац","network":"lwn","website":"http://www.planinarskiklubtara.org/planinarske-staze/s02/","distance":"3.6 km","operator":"PK Tara","roundtrip":"no","osmc:symbol":"red:red_round::2:white","name:sr-Latn":"Kaluđerske Bare – Jarevac"},"11576828":{"ref":"3","name":"Калуђерске Баре - Манастир Рача","type":"route","route":"hiking","source":"pk_tara","name:sr":"Калуђерске Баре - Манастир Рача","network":"lwn","website":"http://www.planinarskiklubtara.org/planinarske-staze/s03/","distance":"7.7 km","operator":"PK Tara","roundtrip":"no","osmc:symbol":"red:red_round::3:white","name:sr-Latn":"Kaluđerske Bare – Manastir Rača"},"11579746":{"ref":"3A","name":"Манастирски станови - Борово брдо","type":"route","route":"hiking","source":"pk_tara","name:sr":"Манастирски станови - Борово брдо","network":"lwn","website":"http://www.planinarskiklubtara.org/planinarske-staze/s03a/","distance":"1.9 km","operator":"PK Tara","roundtrip":"no","osmc:symbol":"red:red_round::3A:white","name:sr-Latn":"Manastirski stanovi – Borovo brdo"},"11579755":{"ref":"3B","name":"Црњесково - Градина - Борово брдо","type":"route","route":"hiking","source":"pk_tara","name:sr":"Црњесково - Градина - Борово брдо","network":"lwn","website":"http://www.planinarskiklubtara.org/planinarske-staze/s03b/","distance":"2.7 km","operator":"PK Tara","roundtrip":"no","osmc:symbol":"red:red_round::3B:white","name:sr-Latn":"Crnjeskovo – Gradina – Borovo brdo"},"11579760":{"ref":"3C","name":"Ђурино брдо - Јаревац - Борово брдо","type":"route","route":"hiking","source":"pk_tara","name:sr":"Ђурино брдо - Јаревац - Борово брдо","network":"lwn","website":"http://www.planinarskiklubtara.org/planinarske-staze/s03c/","distance":"2.1 km","operator":"PK Tara","roundtrip":"no","osmc:symbol":"red:red_round::3C:white","name:sr-Latn":"Đurino brdo – Jarevac – Borovo brdo"},"11579782":{"ref":"3D","name":"Лађевац - Ланишта","type":"route","route":"hiking","source":"pk_tara","name:sr":"Лађевац - Ланишта","network":"lwn","website":"http://www.planinarskiklubtara.org/planinarske-staze/s03d/","distance":"1.3 km","operator":"PK Tara","roundtrip":"no","osmc:symbol":"red:red_round::3D:white","name:sr-Latn":"Lađevac – Laništa"},"11625862":{"ref":"4","name":"Калуђерске Баре - Солотник","type":"route","route":"hiking","source":"pk_tara","name:sr":"Калуђерске Баре - Солотник","network":"lwn","website":"http://www.planinarskiklubtara.org/planinarske-staze/s04/","distance":"8 km","operator":"PK Tara","roundtrip":"no","osmc:symbol":"red:red_round::4:white","name:sr-Latn":"Kaluđerske Bare – Solotnik"},"11626051":{"ref":"5","name":"Калуђерске Баре - Кадињача","note":"proveriti mapiranje","type":"route","route":"hiking","source":"pk_tara","name:sr":"Калуђерске Баре - Кадињача","network":"lwn","website":"http://www.planinarskiklubtara.org/planinarske-staze/s05/","distance":"19.9 km","operator":"PK Tara","roundtrip":"no","osmc:symbol":"red:red_round::5:white","name:sr-Latn":"Kaluđerske Bare – Kadinjača"},"11630008":{"ref":"6","name":"Митровац - Збориште","type":"route","route":"hiking","source":"pk_tara","name:sr":"Митровац - Збориште","network":"lwn","website":"http://www.planinarskiklubtara.org/planinarske-staze/s06/","distance":"11.5 km","operator":"PK Tara","roundtrip":"no","osmc:symbol":"red:red_round::6:white","name:sr-Latn":"Mitrovac – Zborište"},"11630025":{"ref":"7","name":"Митровац - Доњи Јелисавчићи","type":"route","route":"hiking","source":"pk_tara","name:sr":"Митровац - Доњи Јелисавчићи","network":"lwn","website":"http://www.planinarskiklubtara.org/planinarske-staze/s07/","distance":"3.6 km","operator":"PK Tara","roundtrip":"no","osmc:symbol":"red:red_round::7:white","name:sr-Latn":"Mitrovac – Donji Jelisavčići"},"11635202":{"ref":"8","name":"Митровац - Предов Крст","type":"route","route":"hiking","source":"pk_tara","name:sr":"Митровац - Предов Крст","network":"lwn","website":"http://www.planinarskiklubtara.org/planinarske-staze/s08/","distance":"14.6 km","operator":"PK Tara","roundtrip":"no","osmc:symbol":"red:red_round::8:white","name:sr-Latn":"Mitrovac – Predov Krst"},"11635224":{"ref":"9","name":"Митровац - Бањска стена","type":"route","route":"hiking","source":"pk_tara","name:sr":"Митровац - Бањска стена","network":"lwn","website":"http://www.planinarskiklubtara.org/planinarske-staze/s09/","distance":"6 km","operator":"PK Tara","roundtrip":"no","osmc:symbol":"red:red_round::9:white","name:sr-Latn":"Mitrovac – Banjska stena"},"11639509":{"ref":"9A","name":"Митровац - Велика ливада - Бањска стена","type":"route","route":"hiking","source":"pk_tara","name:sr":"Митровац - Велика ливада - Бањска стена","network":"lwn","website":"http://www.planinarskiklubtara.org/planinarske-staze/s09a/","distance":"6.2 km","operator":"PK Tara","roundtrip":"no","osmc:symbol":"red:red_round::9A:white","name:sr-Latn":"Mitrovac – Velika livada – Banjska stena"},"11639736":{"ref":"10","name":"Митровац - Луке","type":"route","route":"hiking","source":"pk_tara","name:sr":"Митровац - Луке","network":"lwn","website":"http://www.planinarskiklubtara.org/planinarske-staze/s10/","distance":"12.8 km","operator":"PK Tara","roundtrip":"no","osmc:symbol":"red:red_round::10:white","name:sr-Latn":"Mitrovac – Luke"},"11643826":{"ref":"11","name":"Предов Крст - Омарска врела","type":"route","route":"hiking","source":"pk_tara","name:sr":"Предов Крст - Омарска врела","network":"lwn","website":"http://www.planinarskiklubtara.org/planinarske-staze/s11/","distance":"3.4 km","operator":"PK Tara","roundtrip":"no","osmc:symbol":"red:red_round::11:white","name:sr-Latn":"Predov Krst – Omarska vrela"},"11643849":{"ref":"12","name":"Предов Крст - Велики Столац","type":"route","route":"hiking","source":"pk_tara","name:sr":"Предов Крст - Велики Столац","network":"lwn","website":"http://www.planinarskiklubtara.org/planinarske-staze/s12/","distance":"8.6 km","operator":"PK Tara","roundtrip":"no","osmc:symbol":"red:red_round::12:white","name:sr-Latn":"Predov Krst – Veliki Stolac"},"11650505":{"ref":"12A","name":"Мрка Коса - Козји Рид","type":"route","route":"hiking","source":"pk_tara","name:sr":"Мрка Коса - Козји Рид","network":"lwn","website":"http://www.planinarskiklubtara.org/planinarske-staze/s12a/","distance":"1.9 km","operator":"PK Tara","roundtrip":"no","osmc:symbol":"red:red_round::12A:white","name:sr-Latn":"Mrka Kosa – Kozji Rid"},"11650519":{"ref":"12B","name":"Витмировац - Сјенич - Капетанова вода","type":"route","route":"hiking","source":"pk_tara","name:sr":"Витмировац - Сјенич - Капетанова вода","network":"lwn","website":"http://www.planinarskiklubtara.org/planinarske-staze/s12b/","distance":"3 km","operator":"PK Tara","roundtrip":"no","osmc:symbol":"red:red_round::12B:white","name:sr-Latn":"Vitmirovac – Sjenič – Kapetanova voda"},"11655322":{"ref":"13","name":"Предов Крст - Велики Крај","type":"route","route":"hiking","source":"pk_tara","name:sr":"Предов Крст - Велики Крај","network":"lwn","website":"http://www.planinarskiklubtara.org/planinarske-staze/s13/","distance":"10.9 km","operator":"PK Tara","roundtrip":"no","osmc:symbol":"red:red_round::13:white","name:sr-Latn":"Predov Krst – Veliki Kraj"},"11655373":{"ref":"14","name":"Предов Крст - Биљешке стене","type":"route","route":"hiking","source":"pk_tara","name:sr":"Предов Крст - Биљешке стене","network":"lwn","website":"http://www.planinarskiklubtara.org/planinarske-staze/s14/","distance":"6 km","operator":"PK Tara","roundtrip":"no","osmc:symbol":"red:red_round::14:white","name:sr-Latn":"Predov Krst – Bilješke stene"},"11658918":{"ref":"15","name":"Чехова кућа - Чопин бор","type":"route","route":"hiking","source":"pk_tara","name:sr":"Чехова кућа - Чопин бор","network":"lwn","website":"http://www.planinarskiklubtara.org/planinarske-staze/s15/","distance":"5.6 km","operator":"PK Tara","roundtrip":"no","osmc:symbol":"red:red_round::15:white","name:sr-Latn":"Čehova kuća – Čopin bor"},"11658963":{"ref":"16","name":"Чехова кућа - Јагоштица - Велики крај","type":"route","route":"hiking","source":"pk_tara","name:sr":"Чехова кућа - Јагоштица - Велики крај","network":"lwn","website":"http://www.planinarskiklubtara.org/planinarske-staze/s16/","distance":"8.3 km","operator":"PK Tara","roundtrip":"no","osmc:symbol":"red:red_round::16:white","name:sr-Latn":"Čehova kuća – Jagoštica – Veliki kraj"},"11662305":{"ref":"16A","name":"Кнезови - Мирзини видиковци","type":"route","route":"hiking","source":"pk_tara","name:sr":"Кнезови - Мирзини видиковци","network":"lwn","website":"http://www.planinarskiklubtara.org/planinarske-staze/s16a/","distance":"0.6 km","operator":"PK Tara","roundtrip":"no","osmc:symbol":"red:red_round::16A:white","name:sr-Latn":"Knezovi – Mirzini vidikovci"},"11662329":{"ref":"17","name":"Биљешке стене - Дрлије","type":"route","route":"hiking","source":"pk_tara","name:sr":"Биљешке стене - Дрлије","network":"lwn","website":"http://www.planinarskiklubtara.org/planinarske-staze/s17/","distance":"3.3 km","operator":"PK Tara","roundtrip":"no","osmc:symbol":"red:red_round::17:white","name:sr-Latn":"Bilješke stene – Drlije"},"11671443":{"ref":"18","name":"Предов Крст - Галине - Предов Крст","type":"route","route":"hiking","source":"pk_tara","name:sr":"Предов Крст - Галине - Предов Крст","network":"lwn","website":"http://www.planinarskiklubtara.org/planinarske-staze/s18/","distance":"5.8 km","operator":"PK Tara","roundtrip":"yes","osmc:symbol":"red:red_round::18:white","name:sr-Latn":"Predov Krst – Galine – Predov Krst"},"11671473":{"ref":"18A","name":"Галине - Галиник","type":"route","route":"hiking","source":"pk_tara","name:sr":"Галине - Галиник","network":"lwn","website":"http://www.planinarskiklubtara.org/planinarske-staze/s18a/","distance":"1.4 km","operator":"PK Tara","roundtrip":"no","osmc:symbol":"red:red_round::18A:white","name:sr-Latn":"Galine – Galinik"},"11681900":{"ref":"19","name":"Седаљка - Орлов вис - Невељ","type":"route","route":"hiking","source":"pk_tara","name:sr":"Седаљка - Орлов вис - Невељ","network":"lwn","website":"http://www.planinarskiklubtara.org/planinarske-staze/s19/","distance":"6.7 km","operator":"PK Tara","roundtrip":"no","osmc:symbol":"red:red_round::19:white","name:sr-Latn":"Sedaljka – Orlov vis – Nevelj"},"11682171":{"ref":"20","name":"Седаљка - Бањска стена","type":"route","route":"hiking","source":"pk_tara","name:sr":"Седаљка - Бањска стена","network":"lwn","website":"http://www.planinarskiklubtara.org/planinarske-staze/s20/","distance":"6.9 km","operator":"PK Tara","roundtrip":"no","osmc:symbol":"red:red_round::20:white","name:sr-Latn":"Sedaljka – Banjska stena"},"11685545":{"ref":"21","name":"Седаљка - Чемеришта","note":"proveriti mapiranje","type":"route","route":"hiking","source":"pk_tara","name:sr":"Седаљка - Чемеришта","network":"lwn","website":"http://www.planinarskiklubtara.org/planinarske-staze/s21/","distance":"5.5 km","operator":"PK Tara","roundtrip":"no","osmc:symbol":"red:red_round::21:white","name:sr-Latn":"Sedaljka – Čemerišta"},"11685571":{"ref":"22","name":"Луке - Склопови","type":"route","route":"hiking","source":"pk_tara","name:sr":"Луке - Склопови","network":"lwn","website":"http://www.planinarskiklubtara.org/planinarske-staze/s22/","distance":"4.8 km","operator":"PK Tara","roundtrip":"no","osmc:symbol":"red:red_round::22:white","name:sr-Latn":"Luke – Sklopovi"},"11701433":{"ref":"23","name":"Солотуша - Солотник","type":"route","route":"hiking","source":"pk_tara","name:sr":"Солотуша - Солотник","network":"lwn","website":"http://www.planinarskiklubtara.org/planinarske-staze/s23/","distance":"3 km","operator":"PK Tara","roundtrip":"no","osmc:symbol":"red:red_round::23:white","name:sr-Latn":"Solotuša – Solotnik"},"11701457":{"ref":"24","name":"Манастир Рача - Лађевац","type":"route","route":"hiking","source":"pk_tara","name:sr":"Манастир Рача - Лађевац","network":"lwn","website":"http://www.planinarskiklubtara.org/planinarske-staze/s24/","distance":"2.2 km","operator":"PK Tara","roundtrip":"no","osmc:symbol":"red:red_round::24:white","name:sr-Latn":"Manastir Rača – Lađevac"},"11719926":{"ref":"25","name":"Соколина - Лађевац","type":"route","route":"hiking","source":"pk_tara","name:sr":"Соколина - Лађевац","network":"lwn","website":"http://www.planinarskiklubtara.org/planinarske-staze/s25/","distance":"3.6 km","operator":"PK Tara","roundtrip":"no","osmc:symbol":"red:red_round::25:white","name:sr-Latn":"Sokolina – Lađevac"},"11719951":{"ref":"26","name":"Бесеровина - Ослуша видиковац","type":"route","route":"hiking","source":"pk_tara","name:sr":"Бесеровина - Ослуша видиковац","network":"lwn","website":"http://www.planinarskiklubtara.org/planinarske-staze/s26/","distance":"4.8 km","operator":"PK Tara","roundtrip":"no","osmc:symbol":"red:red_round::26:white","name:sr-Latn":"Beserovina – Osluša vidikovac"},"11723958":{"ref":"27","name":"Седаљка - Кремићи","type":"route","route":"hiking","source":"pk_tara","name:sr":"Седаљка - Кремићи","network":"lwn","website":"http://www.planinarskiklubtara.org/planinarske-staze/s27/","distance":"3 km","operator":"PK Tara","roundtrip":"no","osmc:symbol":"red:red_round::27:white","name:sr-Latn":"Sedaljka – Kremići"},"11728077":{"ref":"29","name":"Луке - Равна стена (Град)","type":"route","route":"hiking","source":"pk_tara","name:sr":"Луке - Равна стена (Град)","network":"lwn","website":"http://www.planinarskiklubtara.org/planinarske-staze/s29/","distance":"1.1 km","operator":"PK Tara","roundtrip":"no","osmc:symbol":"red:red_round::29:white","name:sr-Latn":"Luke – Ravna stena (Grad)"},"11728146":{"ref":"30","name":"Седаљка - Мраморје","type":"route","route":"hiking","source":"pk_tara","name:sr":"Седаљка - Мраморје","network":"lwn","website":"http://www.planinarskiklubtara.org/planinarske-staze/s30/","distance":"1.4 km","operator":"PK Tara","roundtrip":"no","osmc:symbol":"red:red_round::30:white","name:sr-Latn":"Sedaljka – Mramorje"},"11731614":{"ref":"D","name":"Via Dinarica - Зелена рута Тара","type":"route","route":"hiking","source":"pk_tara","name:sr":"Виа динарика - Зелена рута Тара","network":"lwn","website":"http://www.planinarskiklubtara.org/planinarske-staze/via-dinarica/","distance":"19.8 km","operator":"PK Tara","roundtrip":"no","name:sr-Latn":"Via Dinarica – Zelena ruta Тара"},"11750282":{"ref":"E7","name":"Европски пешачки пут E7 - део НП Тара","type":"route","route":"hiking","source":"pk_tara","name:de":"E7: NP Tara","name:en":"E7: NP Tara","name:sr":"Европски пешачки пут E7 - део НП Тара","network":"iwn","website":"http://www.planinarskiklubtara.org/planinarske-staze/e7/","operator":"European Ramblers Association","wikidata":"Q2914372","wikipedia":"en:E7 European long distance path","wiki:symbol":"Symbol_E7.png","name:sr-Latn":"Evropski pešački put E7 - deo NP Tara"},"11753312":{"to":"Sjenica","ref":"E7-12","from":"Brijač","name":"E7: Бријач - Увац - Сопотница - Сјеница","type":"route","route":"hiking","source":"pss_staze","name:de":"E7: Brijač – Uvac – Sopotnica – Sjenica","name:en":"E7: Brijač – Uvac – Sopotnica – Sjenica","name:sr":"E7: Бријач - Увац - Сопотница - Сјеница","network":"iwn","website":"https://pss.rs/terenipp/brijac-uvac-sopotnica-sjenica/","operator":"European Ramblers Association","wikidata":"Q2914372","wikipedia":"en:E7 European long distance path","wiki:symbol":"Symbol_E7.png","name:sr-Latn":"E7: Brijač – Uvac – Sopotnica – Sjenica"},"11896695":{"name":"Жујан","type":"route","route":"hiking","name:sr":"Жујан","network":"lwn","name:sr-Latn":"Žujan"},"11902248":{"name":"Соколовац","note":"korišćenje staze potrebno je najaviti upravljaču zaštićenog područja, Javnom preuzeću „Nacionalni park Đerdap“","type":"route","route":"hiking","source":"jp_nacionalni_park_djerdap","name:sr":"Соколовац","network":"lwn","website":"https://npdjerdap.rs/bosman-sokolovac/","distance":"3.27 km","operator":"JP Nacionalni park Đerdap","roundtrip":"no","name:sr-Latn":"Sokolovac"},"11906544":{"name":"Кањон Бољетинске реке","note":"korišćenje staze potrebno je najaviti upravljaču zaštićenog područja, Javnom preuzeću „Nacionalni park Đerdap“","type":"route","route":"hiking","source":"jp_nacionalni_park_djerdap","name:sr":"Кањон Бољетинске реке","network":"lwn","website":"https://npdjerdap.rs/kanjon-boljetinske-reke/","distance":"1.6 kkm","operator":"JP Nacionalni park Đerdap","roundtrip":"no","name:sr-Latn":"Kanjon Boljetinske reke"},"11910455":{"name":"Гребен","note":"korišćenje staze potrebno je najaviti upravljaču zaštićenog područja, Javnom preuzeću „Nacionalni park Đerdap“","type":"route","route":"hiking","source":"jp_nacionalni_park_djerdap","name:sr":"Гребен","network":"lwn","website":"https://npdjerdap.rs/greben/","distance":"2.4 km","operator":"JP Nacionalni park Đerdap","roundtrip":"no","name:sr-Latn":"Greben"},"11914722":{"name":"Златно језеро","note":"korišćenje staze potrebno je najaviti upravljaču zaštićenog područja, Javnom preuzeću „Nacionalni park Đerdap“","type":"route","route":"hiking","source":"jp_nacionalni_park_djerdap","name:sr":"Златно језеро","network":"lwn","website":"https://npdjerdap.rs/zlatno-jezero/","distance":"4 km","operator":"JP Nacionalni park Đerdap","roundtrip":"no","name:sr-Latn":"Zlatno jezero"},"11919353":{"name":"Градишница","note":"korišćenje staze potrebno je najaviti upravljaču zaštićenog područja, Javnom preuzeću „Nacionalni park Đerdap“","type":"route","route":"hiking","source":"jp_nacionalni_park_djerdap","name:sr":"Градишница","network":"lwn","website":"https://npdjerdap.rs/gradasnica/","distance":"1.7 km","operator":"JP Nacionalni park Đerdap","roundtrip":"no","name:sr-Latn":"Gradišnica"},"11922472":{"name":"Плоче","note":"korišćenje staze potrebno je najaviti upravljaču zaštićenog područja, Javnom preuzeću „Nacionalni park Đerdap“","type":"route","route":"hiking","source":"jp_nacionalni_park_djerdap","name:sr":"Плоче","network":"lwn","website":"https://npdjerdap.rs/ploce/","distance":"3.5 km","operator":"JP Nacionalni park Đerdap","roundtrip":"no","name:sr-Latn":"Ploče"},"11925850":{"ref":"1","name":"Стаза потковице","type":"route","route":"hiking","source":"jp_vojvodinasume","name:sr":"Стаза потковице","network":"lwn","distance":"4.8 km","operator":"JP Vojvodinašume","roundtrip":"no","name:sr-Latn":"Staza potkovice"},"11962460":{"name":"Љути крш - Пејар","note":"potvrditi ime staze","type":"route","route":"hiking","name:sr":"Љути крш - Пејар","network":"lwn","name:sr-Latn":"Ljuti krš - Pejar"},"11962544":{"name":"Рубенов круг","type":"route","route":"hiking","ascent":"271","colour":"yellow","descent":"271","name:en":"Ruben's circle","name:sr":"Рубенов круг","network":"lwn","circular":"yes","distance":"6.6","operator":"ПСД Поштар Нови Сад","osmc:symbol":"yellow:white_round:yellow_dot","name:sr-Latn":"Rubenov krug","network:type":"Local"},"11965948":{"ref":"2","name":"Стаза Дебела гора","type":"route","route":"hiking","source":"jp_vojvodinasume","name:sr":"Стаза Дебела гора","network":"lwn","distance":"1.7 km","operator":"JP Vojvodinašume","roundtrip":"yes","name:sr-Latn":"Staza Debela gora"},"11971142":{"ref":"4","name":"Стаза Рибњак","type":"route","route":"hiking","source":"jp_vojvodinasume","name:sr":"Стаза Рибњак","network":"lwn","distance":"550 m","operator":"JP Vojvodinašume","roundtrip":"no","name:sr-Latn":"Staza Ribnjak"},"11971189":{"ref":"5","name":"Кружна едукативна стаза","type":"route","route":"hiking","source":"jp_vojvodinasume","name:sr":"Кружна едукативна стаза","network":"lwn","distance":"9 km","operator":"JP Vojvodinašume","roundtrip":"yes","name:sr-Latn":"Kružna edukativna staza"},"11976032":{"ref":"6","name":"Стаза Чењин","type":"route","route":"hiking","source":"jp_vojvodinasume","name:sr":"Стаза Чењин","network":"lwn","distance":"8.9 km","operator":"JP Vojvodinašume","roundtrip":"no","name:sr-Latn":"Staza Čenjin"},"11978744":{"ref":"7","name":"Стаза Мајке Ангелине","type":"route","route":"hiking","source":"jp_vojvodinasume","name:sr":"Стаза Мајке Ангелине","network":"lwn","distance":"6.2 km","operator":"JP Vojvodinašume","roundtrip":"no","name:sr-Latn":"Staza Majke Angeline"},"12010768":{"name":"Жута стаза","type":"route","route":"hiking","name:en":"Yellow trail","name:sr":"Жута стаза","network":"lwn","distance":"6.45 km","operator":"Divčibare Ski Resort","roundtrip":"yes","description":"Скијалиште - Краљев сто - Вражији вир","osmc:symbol":"yellow:white:yellow_bar","name:sr-Latn":"Žuta staza"},"12017137":{"ref":"1","name":"Врела","type":"route","route":"hiking","source":"jp_vojvodinasume","name:sr":"Врела","network":"lwn","distance":"12 km","operator":"PD Jelenak","roundtrip":"yes","name:sr-Latn":"Vrela"},"12017209":{"ref":"2","name":"Борови брег","type":"route","route":"hiking","source":"jp_vojvodinasume","name:sr":"Борови брег","network":"lwn","distance":"15 km","operator":"PD Jelenak","roundtrip":"yes","name:sr-Latn":"Borovi breg"},"12022982":{"ref":"3","name":"Копривић","note":"20210206, nakon obilaska staze, postoji deo staze koji ide kroz sumu i nije mapiran","type":"route","route":"hiking","source":"jp_vojvodinasume","name:sr":"Копривић","network":"lwn","distance":"7 km","operator":"PD Jelenak","roundtrip":"yes","name:sr-Latn":"Koprivić"},"12023017":{"ref":"4","name":"Стаза радости","type":"route","route":"hiking","source":"jp_vojvodinasume","name:sr":"Стаза радости","network":"lwn","distance":"5 km","operator":"PD Jelenak","roundtrip":"yes","name:sr-Latn":"Staza radosti"},"12026845":{"ref":"5","name":"Стаза здравља","type":"route","route":"hiking","source":"jp_vojvodinasume","name:sr":"Стаза здравља","network":"lwn","distance":"3.5 km","operator":"PD Jelenak","roundtrip":"yes","name:sr-Latn":"Staza zdravlja"},"12026935":{"ref":"6","name":"Еко стаза","type":"route","route":"hiking","source":"jp_vojvodinasume","name:sr":"Еко стаза","network":"lwn","distance":"3.5 km","operator":"PD Jelenak","roundtrip":"yes","name:sr-Latn":"Eko staza"},"12047784":{"ref":"3","name":"Стаза шумска колиба","type":"route","route":"hiking","source":"jp_vojvodinasume","name:sr":"Стаза шумска колиба","network":"lwn","distance":"2 km","operator":"JP Vojvodinašume","roundtrip":"yes","name:sr-Latn":"Staza šumska koliba"},"12086876":{"ref":"2-3-1","name":"Ритопек - Винча","type":"route","route":"hiking","ascent":"174","source":"pss_staze","descent":"152","name:sr":"Ритопек - Винча","network":"rwn","website":"https://pss.rs/terenipp/ritopek-vinca/","distance":"8.6 km","operator":"Železničar PD Beograd","roundtrip":"no","osmc:symbol":"red:red_round::1:white","name:sr-Latn":"Ritopek – Vinča"},"12091435":{"ref":"2-3-2","name":"Авала, стаза 1","type":"route","route":"hiking","ascent":"582","source":"pss_staze","descent":"582","name:sr":"Авала, стаза 1","network":"rwn","website":"https://pss.rs/terenipp/avala-staza-1/","distance":"9.13 km","operator":"Avala PD","roundtrip":"yes","osmc:symbol":"red:red_round::2:white","name:sr-Latn":"Avala, staza 1"},"12094994":{"ref":"2-3-3","name":"Авала, стаза 2","type":"route","route":"hiking","ascent":"376","source":"pss_staze","descent":"145","name:sr":"Авала, стаза 2","network":"rwn","website":"https://pss.rs/terenipp/avala-staza-2/","distance":"3.34 km","operator":"Avala PD","roundtrip":"no","osmc:symbol":"red:red_round::3:white","name:sr-Latn":"Avala, staza 2"},"12098640":{"ref":"2-3-4","name":"Авала, стаза 3","type":"route","route":"hiking","ascent":"273","source":"pss_staze","descent":"52","name:sr":"Авала, стаза 3","network":"rwn","website":"https://pss.rs/terenipp/avala-staza-3/","distance":"2.28 km","operator":"Avala PD","roundtrip":"no","osmc:symbol":"red:red_round::4:white","name:sr-Latn":"Avala, staza 3"},"12102740":{"ref":"2-3-5","name":"Авала, стаза 4","type":"route","route":"hiking","ascent":"369","source":"pss_staze","descent":"103","name:sr":"Авала, стаза 4","network":"rwn","website":"https://pss.rs/terenipp/avala-staza-4/","distance":"3.8 km","operator":"Avala PD","roundtrip":"no","osmc:symbol":"red:red_round::5:white","name:sr-Latn":"Avala, staza 4"},"12107165":{"ref":"2-3-6","name":"Авала, стаза 5","type":"route","route":"hiking","ascent":"293","source":"pss_staze","descent":"30","name:sr":"Авала, стаза 5","network":"rwn","website":"https://pss.rs/terenipp/avala-staza-5/","distance":"2.3 km","operator":"Avala PD","roundtrip":"no","osmc:symbol":"red:red_round::6:white","name:sr-Latn":"Avala, staza 5"},"12111398":{"ref":"2-3-7","name":"Авала, стаза 6","type":"route","route":"hiking","ascent":"228","source":"pss_staze","descent":"43","name:sr":"Авала, стаза 6","network":"rwn","website":"https://pss.rs/terenipp/avala-staza-6/","distance":"2 km","operator":"Avala PD","roundtrip":"no","osmc:symbol":"red:red_round::7:white","name:sr-Latn":"Avala, staza 6"},"12111419":{"ref":"2-3-8","name":"Авала, стаза 7","type":"route","route":"hiking","ascent":"234","source":"pss_staze","descent":"235","name:sr":"Авала, стаза 7","network":"rwn","website":"https://pss.rs/terenipp/avala-staza-7/","distance":"4.2 km","operator":"Avala PD","roundtrip":"no","osmc:symbol":"red:red_round::8:white","name:sr-Latn":"Avala, staza 7"},"12115780":{"ref":"4-39-7","name":"Сићево - Јечава","type":"route","route":"hiking","ascent":"305","source":"pss_staze","descent":"222","name:sr":"Сићево - Јечава","network":"rwn","website":"https://pss.rs/terenipp/sicevo-jecava/","distance":"6 km","operator":"Mosor PAK","roundtrip":"no","osmc:symbol":"red:red_round::7:white","name:sr-Latn":"Sićevo – Ječava"},"12122154":{"name":"Нишка Трансверзала","type":"route","route":"hiking","network":"rwn"},"12140605":{"name":"Пејар","type":"route","route":"hiking","source":"survey","name:sr":"Пејар","network":"lwn","name:sr-Latn":"Pejar"},"12140606":{"name":"Велико брдо","type":"route","route":"hiking","source":"survey","name:sr":"Велико брдо","network":"lwn","roundtrip":"yes","name:sr-Latn":"Veliko brdo"},"12140623":{"name":"Маљен","note":"staza nije mapirana u potpunosti","type":"route","route":"hiking","name:sr":"Маљен","network":"lwn","complete":"no","name:sr-Latn":"Maljen"},"12150508":{"ref":"1-1-2","name":"Водоторањ - Тресетиште - Палић центар","note":"staza nije mapirana u potpunosti, prelazak pruge","type":"route","route":"hiking","ascent":"25","source":"pss_staze","descent":"25","name:sr":"Водоторањ - Тресетиште - Палић центар","network":"rwn","website":"https://pss.rs/terenipp/vodotoranj-tresetiste-palic-centar/","distance":"13.3 km","operator":"Spartak PSK","roundtrip":"yes","osmc:symbol":"red:red_round::2:white","name:sr-Latn":"Vodotoranj - Tresetište - Palić centar"},"12154094":{"ref":"5-6-1","name":"Велики Бич","type":"route","route":"hiking","ascent":"1016","source":"pss_staze","descent":"0","name:sr":"Велики Бич","network":"rwn","website":"https://pss.rs/terenipp/veliki-bic/","distance":"16 km","operator":"Ljeskovac ŽKP","roundtrip":"no","osmc:symbol":"red:red_round::1:white","name:sr-Latn":"Veliki Bič"},"12163308":{"ref":"5-6-2","name":"Прибој - Тврђава Јагат","type":"route","route":"hiking","ascent":"530","source":"pss_staze","descent":"0","name:sr":"Прибој - Тврђава Јагат","network":"rwn","website":"https://pss.rs/terenipp/mali-bic/","distance":"9.5 km","operator":"Ljeskovac ŽKP","roundtrip":"no","osmc:symbol":"red:red_round::2:white","name:sr-Latn":"Priboj – Tvrđava Jagat"},"12167007":{"ref":"5-11-1","name":"Бања - Бањско брдо","type":"route","route":"hiking","ascent":"957","source":"pss_staze","descent":"957","name:sr":"Бања - Бањско брдо","network":"rwn","website":"https://pss.rs/terenipp/banja-banjsko-brdo/","distance":"17 km","operator":"Ljeskovac ŽKP","roundtrip":"yes","osmc:symbol":"red:red_round::1:white","name:sr-Latn":"Banja – Banjsko brdo"},"12173165":{"ref":"5-11-2","name":"Кањон Кратовске реке","note":"proveriti geometriju duž kanjona","type":"route","route":"hiking","ascent":"150","source":"pss_staze","descent":"315","name:sr":"Кањон Кратовске реке","network":"rwn","website":"https://pss.rs/terenipp/kanjon-kratovske-reke/","distance":"7 km","operator":"Ljeskovac ŽKP","roundtrip":"no","osmc:symbol":"red:red_round::2:white","name:sr-Latn":"Kanjon Kratovske reke"},"12185187":{"ref":"5-40-1","name":"Насеље - Полин поток - Лиса стена - Стан и Градац пећина - Насеље","type":"route","route":"hiking","ascent":"1104","source":"pss_staze","descent":"1104","name:sr":"Насеље - Полин поток - Лиса стена - Стан и Градац пећина - Насеље","network":"rwn","website":"https://pss.rs/terenipp/naselje-polin-potok-lisa-stena-stan-i-gradac-pecina-naselje/","distance":"17.3 km","operator":"Ljeskovac ŽKP","roundtrip":"yes","osmc:symbol":"red:red_round::1:white","name:sr-Latn":"Naselje - Polin potok - Lisa stena - Stan i Gradac pećina - Naselje"},"12185208":{"ref":"7-3-12","name":"Нишка Бања - Коритник - Раутово - Нишка Бања","type":"route","route":"hiking","ascent":"651","source":"pss_staze","descent":"651","name:sr":"Нишка Бања - Коритник - Раутово - Нишка Бања","network":"rwn","website":"https://pss.rs/terenipp/niska-banja-koritnik-rautovo-niska-banja/","distance":"14 km","operator":"Mosor PAK","roundtrip":"yes","osmc:symbol":"red:red_round::12:white","name:sr-Latn":"Niška Banja – Koritnik – Rautovo – Niška Banja"},"12190325":{"ref":"T-3-13","name":"Нишка Бања - Девојачки гроб - Трем - Бојанине воде","type":"route","route":"hiking","ascent":"2110","source":"pss_staze","descent":"1512","name:sr":"Нишка Бања - Девојачки гроб - Трем - Бојанине воде","network":"rwn","website":"https://pss.rs/terenipp/niska-banja-devojacki-grob-trem-bojanine-vode/","distance":"29.5 km","operator":"Mosor PAK","roundtrip":"no","osmc:symbol":"red:red_round::13:white","name:sr-Latn":"Niška Banja – Devojački grob – Trem – Bojanine vode"},"12204224":{"ref":"7-3-14","name":"Бојанине воде - Соколов камен - Бојанине воде","type":"route","route":"hiking","ascent":"645","source":"pss_staze","descent":"645","name:sr":"Бојанине воде - Соколов камен - Бојанине воде","network":"rwn","website":"https://pss.rs/terenipp/bojanine-vode-sokolov-kamen-bojanine-vode/","distance":"14.4 km","operator":"Mosor PAK","roundtrip":"yes","osmc:symbol":"red:red_round::14:white","name:sr-Latn":"Bojanine vode – Sokolov kamen – Bojanine vode"},"12204344":{"ref":"7-3-15","name":"Suva trail – Niška Banja – Trem – Niška Banja","type":"route","route":"hiking","ascent":"2436","source":"pss_staze","descent":"2432","name:sr":"Сува трејл - Нишка Бања - Трем - Нишка Бања","network":"rwn","website":"https://pss.rs/terenipp/sokolov-put/","distance":"43.5 km","operator":"Mosor PAK","roundtrip":"yes","osmc:symbol":"red:red_round::15:white","name:sr-Latn":"Suva trail – Niška Banja – Trem – Niška Banja"},"12208585":{"ref":"E7","name":"E7: део Сува планина","note":"staza je unešena prema https://pss.rs/terenipp/koritnjak-devojacki-grob/ i https://pss.rs/terenipp/sokolov-put/","type":"route","route":"hiking","name:de":"E7: Suva planina","name:en":"E7: Suva planina","name:sr":"E7: део Сува планина","network":"iwn","website":"https://pss.rs/planinarski-objekti-i-tereni/tereni/?tip=evropski-pesacki-putevi-u-srbiji","operator":"European Ramblers Association","wikidata":"Q2914372","wikipedia":"en:E7 European long distance path","wiki:symbol":"Symbol_E7.png","name:sr-Latn":"E7: deo Suva planina"},"12220381":{"ref":"E7","name":"E7: део Ниш","note":"staza je unešena prema https://pss.rs/terenipp/kalafat-tvrdjava-nis/","type":"route","route":"hiking","name:de":"E7: Niš","name:en":"E7: Niš","name:sr":"E7: део Ниш","network":"iwn","website":"https://pss.rs/planinarski-objekti-i-tereni/tereni/?tip=evropski-pesacki-putevi-u-srbiji","operator":"European Ramblers Association","wikidata":"Q2914372","wikipedia":"en:E7 European long distance path","wiki:symbol":"Symbol_E7.png","name:sr-Latn":"E7: deo Niš"},"12320948":{"name":"Велики Козомор - Скакавци","note":"staza nije mapirana u potpunosti","type":"route","route":"hiking","name:sr":"Велики Козомор - Скакавци","network":"rwn","complete":"no","operator":"ПСК Балкан","roundtrip":"no","name:sr-Latn":"Veliki Kozomor - Skakavci"},"12331424":{"name":"Совина шумска радионица","type":"route","route":"foot","network":"lwn"},"12338347":{"name":"Приправнички западни маратон","type":"route","route":"hiking","name:en":"Novice west marathon","name:sr":"Приправнички западни маратон","network":"lwn","website":"https://www.fruskogorski-maraton.com/pripravnicki-zapad-maraton/","distance":"18.86","operator":"Fruškogorski maraton","osmc:symbol":"green:white_round::♥:red","name:sr-Latn":"Pripravnički istočni maraton"},"12338348":{"name":"Мали западни маратон","type":"route","route":"hiking","name:en":"Small west marathon","name:sr":"Мали западни маратон","network":"lwn","website":"https://www.fruskogorski-maraton.com/mali-zapadni-maraton/","distance":"33.1","operator":"Fruškogorski maraton","osmc:symbol":"green:white_round::♥:red","name:sr-Latn":"Mali zapadni maraton"},"12364190":{"name":"Мали источни маратон","type":"route","route":"hiking","colour":"green","name:en":"Small east marathon","name:sr":"Мали источни маратон","network":"lwn","website":"https://www.fruskogorski-maraton.com/mali-istocni-maraton/","distance":"32.25","operator":"Fruškogorski maraton","osmc:symbol":"green:white_round::♥:red","name:sr-Latn":"Mali istočni maraton","network:type":"lwn"},"12364191":{"name":"Велики источни маратон","type":"route","route":"hiking","colour":"green","name:en":"Big east marathon","name:sr":"Велики источни маратон","network":"lwn","website":"https://www.fruskogorski-maraton.com/veliki-istocni-maraton/","distance":"81.37","operator":"Fruškogorski maraton","osmc:symbol":"green:white_round::♥:red","name:sr-Latn":"Veliki istočni maraton","network:type":"lwn"},"12374177":{"name":"Маркови чанци","type":"route","route":"hiking","name:sr":"Маркови чанци","network":"lwn","roundtrip":"yes","name:sr-Latn":"Markovi čanci"},"12417737":{"name":"Стрелиште - Големи камен","type":"route","route":"hiking","source":"https://commons.wikimedia.org/wiki/File:Streliste-Golemi_Kamen.jpg","name:sr":"Стрелиште - Големи камен","network":"lwn","operator":"Србијашуме","roundtrip":"no","name:sr-Latn":"Strelište - Golemi kamen"},"12417738":{"name":"Сокоград - Големи камен","type":"route","route":"hiking","source":"https://commons.wikimedia.org/wiki/File:Lepterija-Sokograd-staze.jpg","name:sr":"Сокоград - Големи камен","network":"lwn","operator":"Србијашуме","roundtrip":"no","name:sr-Latn":"Sokograd - Golemi kamen"},"12433998":{"ref":"2-14-20","name":"Планинарски дом Аџине Ливаде - Манастир Каменац","type":"route","route":"hiking","ascent":"617","source":"pss_staze","descent":"617","name:sr":"Планинарски дом Аџине Ливаде - Манастир Каменац","network":"rwn","website":"https://pss.rs/terenipp/planinarski-dom-adzine-livade-manastir-kamenac/","distance":"16.6 km","operator":"Žeželj PD","roundtrip":"yes","osmc:symbol":"red:red_round::20:white","name:sr-Latn":"Planinarski dom Adžine Livade – Manastir Kamenac"},"12433999":{"ref":"T-2-31","name":"Гледићка трансверзала","note":"Додата кружна стаза са пречицама ка упоредним контролним тачкама.","type":"route","route":"hiking","ascent":"3434","descent":"3434","name:sr":"Гледићка трансверзала","network":"nwn","website":"https://pss.rs/terenipp/gledicka-transverzala/","distance":"101 km","operator":"Žeželj PD","roundtrip":"yes","osmc:symbol":"red:red_round::31:white","name:sr-Latn":"Gledićka transverzala"},"12434519":{"ref":"2-14-21","name":"Бајчетина - Гледићки Црни врх - Бајчетина","type":"route","route":"hiking","ascent":"431","source":"pss_staze","descent":"431","name:sr":"Бајчетина - Гледићки Црни врх - Бајчетина","network":"rwn","website":"https://pss.rs/terenipp/bajcetina-gledicki-crni-vrh-bajcetina/","distance":"9.5 km","operator":"Žeželj PD","roundtrip":"yes","osmc:symbol":"red:red_round::21:white","name:sr-Latn":"Bajčetina – Gledićki Crni vrh – Bajčetina"},"12441058":{"name":"Маљен","note":"20210313 стаза је обележена од Краљевог стола таблама ”Мањен”, мапирана до врха Забалац","type":"route","route":"hiking","name:sr":"Маљен","network":"lwn","complete":"no","roundtrip":"no","name:sr-Latn":"Maljen"},"12452310":{"ref":"3-14-1","name":"3 врха Повлена","type":"route","route":"hiking","ascent":"512","source":"pss_staze","descent":"512","name:sr":"3 врха Повлена","network":"rwn","website":"https://pss.rs/terenipp/3-vrha-povlena/","distance":"9.0 km","operator":"Povlen PK","roundtrip":"yes","osmc:symbol":"red:red_round::1:white","name:sr-Latn":"3 vrha Povlena"},"12452381":{"ref":"3-14-2","name":"4 извора Повлена","type":"route","route":"hiking","ascent":"845","source":"pss_staze","descent":"845","name:sr":"4 извора Повлена","network":"rwn","website":"https://pss.rs/terenipp/4-izvora-povlena/","distance":"14.0 km","operator":"Povlen PK","roundtrip":"yes","osmc:symbol":"red:red_round::2:white","name:sr-Latn":"4 izvora Povlena"},"12456657":{"ref":"3-14-3","name":"Мрка стена - Беден","type":"route","route":"hiking","ascent":"346","source":"pss_staze","descent":"346","name:sr":"Мрка стена - Беден","network":"rwn","website":"https://pss.rs/terenipp/mrka-stena-beden/","distance":"8.0 km","operator":"Povlen PK","roundtrip":"yes","osmc:symbol":"red:red_round::3:white","name:sr-Latn":"Mrka stena – Beden"},"12456767":{"ref":"3-14-4","name":"Пл. кућа ”Повленски кућерак” - с. Пашна раван - Јабланик","type":"route","route":"hiking","ascent":"689","source":"pss_staze","descent":"689","name:sr":"Пл. кућа ”Повленски кућерак” - с. Пашна раван - Јабланик","network":"rwn","website":"https://pss.rs/terenipp/pl-kuca-povlenski-kucerak-s-pasna-ravan-zaseok-prokici-jablanik-debelo-brdo-pl-kuca-povlenski-kucerak/","distance":"18.0 km","operator":"Povlen PK","roundtrip":"yes","osmc:symbol":"red:red_round::4:white","name:sr-Latn":"Pl. kuća “Povlenski kućerak” – s. Pašna ravan – Jablanik"},"12464587":{"ref":"3-14-6","name":"Жел. ст. Самари - планинарска кућа ”Повленски кућерак”","type":"route","route":"hiking","ascent":"962","source":"pss_staze","descent":"310","name:sr":"Жел. ст. Самари - планинарска кућа ”Повленски кућерак”","network":"rwn","website":"https://pss.rs/terenipp/zel-st-samari-s-mravinjci-planinarska-kuca-povlenski-kucerak/","distance":"16 km","operator":"Povlen PK","roundtrip":"no","osmc:symbol":"red:red_round::6:white","name:sr-Latn":"Žel. st. Samari – planinarska kuća “Povlenski kućerak”"},"12481140":{"ref":"3-14-7","name":"Жел. ст. Самари - Мравињци","type":"route","route":"hiking","ascent":"982","source":"pss_staze","descent":"982","name:sr":"Жел. ст. Самари - Мравињци","network":"rwn","website":"https://pss.rs/terenipp/zel-st-samari-s-mravinjci-vrh-maglesa-zel-st-samari/","distance":"20 km","operator":"Povlen PK","roundtrip":"yes","osmc:symbol":"red:red_round::7:white","name:sr-Latn":"Žel. st. Samari – Mravinjci"},"12485559":{"ref":"7-9-1","name":"Стаза бр. 1 ”Стругара”","type":"route","route":"hiking","ascent":"1038","source":"pss_staze","descent":"153","name:sr":"Стаза бр. 1 ”Стругара”","network":"rwn","website":"https://pss.rs/terenipp/staza-br-1-strugara/","distance":"13.7 km","operator":"Kukavica PSK","roundtrip":"no","osmc:symbol":"red:red_round::1:white","name:sr-Latn":"Staza br. 1 “Strugara”"},"12485631":{"ref":"7-9-3","name":"Стаза бр. 3 ”Репушница”","type":"route","route":"hiking","ascent":"1226","source":"pss_staze","descent":"342","name:sr":"Стаза бр. 3 ”Репушница”","network":"rwn","website":"https://pss.rs/terenipp/staza-br-3-repusnica/","distance":"14.4 km","operator":"Kukavica PSK","roundtrip":"no","osmc:symbol":"red:red_round::3:white","name:sr-Latn":"Staza br. 3 “Repušnica”"},"12499130":{"ref":"E7","name":"E7: део Фрушка гора","note":"https://wiki.openstreetmap.org/wiki/Serbia/Projekti/Evropski_pešački_put_E7","type":"route","route":"hiking","name:de":"E7: Fruška gora","name:en":"E7: Fruška gora","name:sr":"E7: део Фрушка гора","network":"iwn","website":"https://pss.rs/planinarski-objekti-i-tereni/tereni/?tip=evropski-pesacki-putevi-u-srbiji","operator":"European Ramblers Association","wikidata":"Q2914372","wikipedia":"en:E7 European long distance path","wiki:symbol":"Symbol_E7.png","name:sr-Latn":"E7: deo Fruška gora"},"12525280":{"ref":"3-20-1","name":"Славковица - Сувобор (врх)","type":"route","route":"hiking","ascent":"740","source":"pss_staze","descent":"110","name:sr":"Славковица - Сувобор (врх)","network":"rwn","website":"https://pss.rs/terenipp/slavkovica-suvobor-vrh/","distance":"14 km","operator":"Pobeda PK","roundtrip":"no","osmc:symbol":"red:red_round::1:white","name:sr-Latn":"Slavkovica - Suvobor (vrh)"},"12525333":{"ref":"3-20-7","name":"Сувобор (врх) - Маљен, Дивчибаре (Пл. дом „Маглеш”)","type":"route","route":"hiking","source":"pss_staze","name:sr":"Сувобор (врх) - Маљен, Дивчибаре (Пл. дом „Маглеш”)","network":"rwn","website":"https://pss.rs/terenipp/suvobor-vrh-maljen-divcibare-pl-dom-magles/","operator":"Pobeda PK","osmc:symbol":"red:red_round::7:white","name:sr-Latn":"Suvobor (vrh) - Maljen, Divčibare (Pl. dom „Magleš”)"},"12534771":{"name":"Скакавци - Субјел","note":"staza nije mapirana u potpunosti","type":"route","route":"hiking","name:sr":"Скакавци - Субјел","network":"rwn","operator":"ПСК Балкан","name:sr-Latn":"Skakavci - Subjel"},"12576152":{"name":"Мали источни екстремни маратон","type":"route","route":"hiking","colour":"green","name:en":"Small east extreme marathon","name:sr":"Мали источни екстремни маратон","network":"lwn","website":"https://www.fruskogorski-maraton.com/mali-istocni-ekstremni-maraton/","distance":"42.2","operator":"Fruškogorski maraton","osmc:symbol":"green:white_round::♥:red","name:sr-Latn":"Mali istočni ekstremni maraton","network:type":"lwn"},"12609888":{"to":"PD Vojvodina","from":"PD Vojvodina","name":"Доситејевим стазама","type":"route","route":"hiking","colour":"blue","name:en":"Dositej's Trails","name:sr":"Доситејевим стазама","network":"lwn","website":"https://pss.rs/terenipp/dositejevim-stazama/","distance":"21","operator":"PSD Dr Laza Marković, Irig","roundtrip":"yes","osmc:symbol":"blue:blue:white::✝:","name:sr-Latn":"Dositejevim stazama"},"12635755":{"name":"Приправнички јужни маратон","type":"route","route":"hiking","name:en":"Novice south marathon","name:sr":"Приправнички јужни маратон","network":"lwn","website":"https://www.fruskogorski-maraton.com/pripravnicki-juzni-maraton/","distance":"22.7","operator":"Fruškogorski maraton","osmc:symbol":"green:white_round::♥:red","name:sr-Latn":"Pripravnički južni maraton"},"12635756":{"name":"Средњи јужни маратон","type":"route","route":"hiking","name:en":"Medium south marathon","name:sr":"Средњи јужни маратон","network":"lwn","website":"https://www.fruskogorski-maraton.com/srednji-juzni-maraton-2/","distance":"49.7","operator":"Fruškogorski maraton","osmc:symbol":"green:white_round::♥:red","name:sr-Latn":"Srednji južni maraton"},"12635757":{"name":"Велики јужни маратон","type":"route","route":"hiking","name:en":"Big south marathon","name:sr":"Велики јужни маратон","network":"lwn","website":"https://www.fruskogorski-maraton.com/veliki-juzni-maraton/","distance":"91.5","operator":"Fruškogorski maraton","osmc:symbol":"green:white_round::♥:red","name:sr-Latn":"Veliki južni maraton"},"12652618":{"name":"Плаво - бела стаза","note":"стаза није мапирана у потпуности, име стазе је добијено на основу коришћене ознаке","type":"route","route":"hiking","name:sr":"Плаво - бела стаза","network":"lwn","osmc:symbol":"blue:none:blue_bar::","name:sr-Latn":"Plavo - bela staza"},"12661194":{"name":"Маркова столица","type":"route","route":"hiking","name:sr":"Маркова столица","network":"lwn","operator":"ПК Повлен","name:sr-Latn":"Markova stolica"},"12661195":{"name":"Видрак","note":"стаза није мапирана у потпуности","type":"route","route":"hiking","name:sr":"Видрак","network":"lwn","operator":"ПК Повлен","name:sr-Latn":"Vidrak"},"12661196":{"name":"Ваљево - центар","note":"стаза није мапирана у потпуности","type":"route","route":"hiking","name:sr":"Ваљево - центар","network":"lwn","operator":"ПК Повлен","name:sr-Latn":"Valjevo - centar"},"12693206":{"ref":"T-3-2","name":"Чика Душкове рајачке стазе","note":"Унет преостали део кружне стазе. Потребно је средити стазе 2а/б/ц/д, 3/3а, 8, 9.","type":"route","route":"hiking","ascent":"1600","source":"pss_staze","descent":"1600","name:sr":"Чика Душкове рајачке стазе","network":"nwn","website":"https://pss.rs/terenipp/cika-duskove-rajacke-staze/","distance":"44 km","operator":"Pobeda PK","roundtrip":"yes","osmc:symbol":"yellow:red_round::2:white","name:sr-Latn":"Čika Duškove rajačke staze"},"12721371":{"ref":"3-20-8","name":"Љиг (центар) - Рајац (Чика Душков пл. дом)","type":"route","route":"hiking","ascent":"960","source":"pss_staze","descent":"490","name:sr":"Љиг (центар) - Рајац (Чика Душков пл. дом)","network":"rwn","website":"https://pss.rs/terenipp/ljig-centar-rajac-cika-duskov-pl-dom/","distance":"17 km","operator":"Pobeda PK","roundtrip":"no","osmc:symbol":"red:red_round::8:white","name:sr-Latn":"Ljig (centar) - Rajac (Čika Duškov pl. dom)"},"12721535":{"ref":"3-20-9","name":"Бања Врујци - Пл. дом на Рајцу","type":"route","route":"hiking","ascent":"960","source":"pss_staze","descent":"490","name:sr":"Бања Врујци - Пл. дом на Рајцу","network":"rwn","website":"https://pss.rs/terenipp/banja-vrujci-pl-dom-na-rajcu/","distance":"19.5 km","operator":"Pobeda PK","roundtrip":"no","osmc:symbol":"red:red_round::9:white","name:sr-Latn":"Banja Vrujci - Pl. dom na Rajcu"},"12721684":{"ref":"3-20-12","name":"Коштунићи - Данилов врх","type":"route","route":"hiking","ascent":"250","source":"pss_staze","descent":"10","name:sr":"Коштунићи - Данилов врх","network":"rwn","website":"https://pss.rs/terenipp/kostunici-danilov-vrh/","distance":"5.5 km","operator":"Pobeda PK","roundtrip":"no","osmc:symbol":"red:red_round::12:white","name:sr-Latn":"Koštunići - Danilov vrh"},"12726079":{"ref":"3-20-3","name":"Славковица - Чика Душков дом на Рајцу","type":"route","route":"hiking","ascent":"480","source":"pss_staze","descent":"75","name:sr":"Славковица - Чика Душков дом на Рајцу","network":"rwn","website":"https://pss.rs/terenipp/slavkovica-cika-duskov-dom-na-rajcu/","distance":"5.5 km","operator":"Pobeda PK","roundtrip":"no","osmc:symbol":"red:red_round::3:white","name:sr-Latn":"Slavkovica - Čika Duškov dom na Rajcu"},"12726586":{"ref":"3-20-11","name":"Таково - Рајац (Пл. дом)","type":"route","route":"hiking","ascent":"425","source":"pss_staze","descent":"170","name:sr":"Таково - Рајац (Пл. дом)","network":"rwn","website":"https://pss.rs/terenipp/takovo-rajac-pl-dom/","distance":"20 km","operator":"Pobeda PK","roundtrip":"no","osmc:symbol":"red:red_round::11:white","name:sr-Latn":"Takovo - Rajac (Pl. dom)"},"12894646":{"name":"Црвена стаза","type":"route","route":"hiking","name:en":"Red trail","name:sr":"Црвена стаза","network":"lwn","distance":"6.98 km","operator":"Divčibare Ski Resort","roundtrip":"yes","description":"Скијалиште - Велика плећа - Вражији вир","osmc:symbol":"red:white:red_bar","name:sr-Latn":"Crvena staza"},"12894647":{"name":"Плава стаза","type":"route","route":"hiking","name:en":"Blue trail","name:sr":"Плава стаза","network":"lwn","distance":"1.61 km","operator":"Divčibare Ski Resort","roundtrip":"yes","description":"Скијалиште - Велика плећа","osmc:symbol":"blue:white:blue_bar","name:sr-Latn":"Plava staza"},"12899375":{"ref":"4-27-8","name":"Сесалац - Тумба - Сесалачка пећина","type":"route","route":"hiking","ascent":"636","source":"pss_staze","descent":"636","name:sr":"Сесалац - Тумба - Сесалачка пећина","network":"rwn","website":"https://pss.rs/terenipp/sesalac-tumba-sesalacka-pecina/","distance":"12.9 km","operator":"Ozren PK","roundtrip":"yes","osmc:symbol":"red:red_round::8:white","name:sr-Latn":"Sesalac – Tumba – Sesalačka pećina"},"12902283":{"ref":"4-31-13","name":"Лептерија - Сокоград - Големи камен","type":"route","route":"hiking","ascent":"398","source":"pss_staze","descent":"398","name:sr":"Лептерија - Сокоград - Големи камен","network":"rwn","website":"https://pss.rs/terenipp/lepterija-sokograd-golemi-kamen/","distance":"4.9 km","operator":"Ozren PK","roundtrip":"yes","osmc:symbol":"red:red_round::13:white","name:sr-Latn":"Lepterija – Sokograd – Golemi kamen"},"12902454":{"ref":"4-31-14","name":"Излетишта и видиковци Сокобање","type":"route","route":"hiking","ascent":"597","source":"pss_staze","descent":"597","name:sr":"Излетишта и видиковци Сокобање","network":"rwn","website":"https://pss.rs/terenipp/izletista-i-vidikovci-sokobanje/","distance":"11.5 km","operator":"Ozren PK","roundtrip":"yes","osmc:symbol":"red:red_round::14:white","name:sr-Latn":"Izletišta i vidikovci Sokobanje"},"12918979":{"ref":"3-32-1","name":"Субјел - Дивчибаре","type":"route","route":"hiking","ascent":"730","source":"pss_staze","descent":"680","name:sr":"Субјел - Дивчибаре","network":"rwn","website":"https://pss.rs/terenipp/subjel-divcibare/","distance":"17 km","operator":"Pobeda PK","roundtrip":"no","osmc:symbol":"red:red_round::1:white","name:sr-Latn":"Subjel – Divčibare"},"12922283":{"name":"Субјел - Црква Св. апостола Луке","note":"staza nije mapirana u potpunosti","type":"route","route":"hiking","name:sr":"Субјел - Црква Св. апостола Луке","network":"lwn","name:sr-Latn":"Subjel - Crkva Sv. apostola Luke"},"12922284":{"name":"Скакавци - Црни Врх","type":"route","route":"hiking","name:sr":"Скакавци - Црни Врх","network":"rwn","name:sr-Latn":"Skakavci - Crni Vr"},"12922285":{"name":"Скакавци - Велики Козомор","note":"staza nije mapirana u potpunosti","type":"route","route":"hiking","name:sr":"Скакавци - Велики Козомор","network":"rwn","name:sr-Latn":"Skakavci - Veliki Kozomor"},"13029672":{"name":"Kraljev Sto - Tometino Polje","type":"route","route":"hiking","network":"lwn"},"13029681":{"name":"Tometino Polje - Kraljev Sto","type":"route","route":"hiking","network":"lwn","trailblazed":"yes"},"13029717":{"name":"Planinarska staza Tometino Polje - Veliki Maljen","type":"route","route":"hiking","network":"lwn","trailblazed":"no"},"13029837":{"name":"Divčibare - Markovi Čanci","type":"route","route":"hiking"},"13029919":{"ref":"se","name":"Osečinska Straža kružna tura","type":"route","route":"hiking","ascent":"200","descent":"200","network":"lwn","distance":"9","condition":"fair","trailblazed":"no"},"13121965":{"name":"Кружна стаза","type":"route","route":"hiking","name:sr":"Кружна стаза","network":"lwn","name:sr-Latn":"Kružna staza"},"13145926":{"ref":"T-1-3","name":"Вршачка трансверзала","type":"route","route":"hiking","ascent":"1162","source":"pss_staze","descent":"1332","name:sr":"Вршачка трансверзала","network":"nwn","website":"https://pss.rs/terenipp/vrsacka-transverzala/","complete":"no","distance":"32 km","operator":"ПСД Вршачка кула","roundtrip":"no","osmc:symbol":"red:red_round::3:white","name:sr-Latn":"Vršačka transverzala"},"13185966":{"ref":"2-16-2","name":"Рекреативна стаза „Рибаре - Кочин храст”","type":"route","route":"hiking","ascent":"10","source":"pss_staze","descent":"20","name:sr":"Рекреативна стаза „Рибаре - Кочин храст”","network":"rwn","website":"https://pss.rs/terenipp/rekreativna-staza-ribare-kocin-hrast/","distance":"6 km","operator":"Planinski duh PD","roundtrip":"no","osmc:symbol":"red:red_round::2:white","name:sr-Latn":"Rekreativna staza „Ribare - Kočin hrast”"},"13190049":{"ref":"4-33-8","name":"Сокобања - Рипаљка - Јерменчић","type":"route","route":"hiking","ascent":"384","source":"pss_staze","descent":"384","name:sr":"Сокобања - Рипаљка - Јерменчић","network":"rwn","website":"https://pss.rs/terenipp/13405/","distance":"9.6 km","operator":"Ozren PK","roundtrip":"yes","osmc:symbol":"red:red_round::8:white","name:sr-Latn":"Sokobanja - Ripaljka - Jermenčić"},"13190234":{"ref":"4-33-9","name":"Рипаљка - Јерменчић - Лесковик - Озренска врата","type":"route","route":"hiking","ascent":"892","source":"pss_staze","descent":"892","name:sr":"Рипаљка - Јерменчић - Лесковик - Озренска врата","network":"rwn","website":"https://pss.rs/terenipp/ripaljka-jermencic-leskovik-ozrenska-vrata/","distance":"15.9 km","operator":"Ozren PK","roundtrip":"yes","osmc:symbol":"red:red_round::9:white","name:sr-Latn":"Ripaljka - Jermenčić - Leskovik - Ozrenska vrata"},"13190270":{"ref":"4-37-3","name":"Сесалац - Слемен - Сесалачка пећина","type":"route","route":"hiking","ascent":"675","source":"pss_staze","descent":"675","name:sr":"Сесалац - Слемен - Сесалачка пећина","network":"rwn","website":"https://pss.rs/terenipp/sesalac-slemen-sesalacka-pecina/","distance":"18.3 km","operator":"Ozren PK","roundtrip":"yes","osmc:symbol":"red:red_round::3:white","name:sr-Latn":"Sesalac - Slemen - Sesalačka pećina"},"13190651":{"ref":"7-9-6","name":"Стаза бр. 6 „Фурниште”","type":"route","route":"hiking","ascent":"833","source":"pss_staze","descent":"275","name:sr":"Стаза бр. 6 „Фурниште”","network":"rwn","website":"https://pss.rs/terenipp/staza-br-6-furniste/","distance":"13.4 km","operator":"Kukavica PSK","roundtrip":"no","osmc:symbol":"red:red_round::6:white","name:sr-Latn":"Staza br. 6 „Furnište”"},"13190747":{"ref":"7-9-8","name":"Стаза бр. 8 „Марков град”","type":"route","route":"hiking","ascent":"969","source":"pss_staze","descent":"316","name:sr":"Стаза бр. 8 „Марков град”","network":"rwn","website":"https://pss.rs/terenipp/staza-br-8-markov-grad/","distance":"11.8 km","operator":"Kukavica PSK","roundtrip":"no","osmc:symbol":"red:red_round::8:white","name:sr-Latn":"Staza br. 8 „Markov grad”"},"13190823":{"ref":"7-9-12","name":"Стаза бр. 12 „Соколица”","type":"route","route":"hiking","ascent":"673","source":"pss_staze","descent":"685","name:sr":"Стаза бр. 12 „Соколица”","network":"rwn","website":"https://pss.rs/terenipp/staza-br-12-sokolica/","distance":"10.5 km","operator":"Kukavica PSK","roundtrip":"yes","osmc:symbol":"red:red_round::12:white","name:sr-Latn":"Staza br. 12 „Sokolica”"},"13191274":{"ref":"4-45-4","name":"Милушинац - Богова врата","type":"route","route":"hiking","ascent":"390","source":"pss_staze","descent":"390","name:sr":"Милушинац - Богова врата","network":"rwn","website":"https://pss.rs/terenipp/milusinac-bogova-vrata/","distance":"8.0 km","operator":"Ozren PK","roundtrip":"yes","osmc:symbol":"red:red_round::4:white","name:sr-Latn":"Milušinac - Bogova vrata"},"13191393":{"ref":"7-3-5","name":"Доња Коритница - Пасарело","note":"доста неслагања са GPX снимком, мапирано према постојећим путевима","type":"route","route":"hiking","ascent":"1122","source":"pss_staze","descent":"0","name:sr":"Доња Коритница - Пасарело","network":"rwn","website":"https://pss.rs/terenipp/d-koritnica-pasarelo/","distance":"10 km","operator":"Železničar PK Niš","roundtrip":"no","osmc:symbol":"red:red_round::5:white","name:sr-Latn":"Donja Koritnica - Pasarelo"},"13218038":{"name":"Стаза патријарха Павла","type":"route","route":"hiking","ascent":"150","source":"to_cacak","descent":"100","name:sr":"Стаза патријарха Павла","network":"lwn","distance":"7","operator":"Манастир Вујан","description":"Шетња планинским стазама, планинска вода и манастирски мир помогли су 1946. да се излечи Гојко Стојчевић који је касније наставио монашки пут и постао патријарх Павле","osmc:symbol":"blue:green:hiker","name:sr-Latn":"Staza patrijarha Pavla"},"13219870":{"ref":"2-11-1","name":"Три врха Атомске бање","type":"route","route":"hiking","ascent":"1375","descent":"1300","name:sr":"Три врха Атомске бање","network":"rwn","distance":"28.2","operator":"ФРА ПК","roundtrip":"yes","osmc:symbol":"red:red_round::1:white","name:sr-Latn":"Tri vrha Atomske banje"},"13219871":{"ref":"T-2-25","name":"Трансверзала ФРА","type":"route","route":"hiking","ascent":"2048","descent":"2048","name:sr":"Трансверзала ФРА","network":"nwn","website":"https://pss.rs/terenipp/transverzala-fra/","distance":"51","operator":"ФРА ПК","roundtrip":"yes","osmc:symbol":"red:red_round::25:white","name:sr-Latn":"Transverzala FRA"},"13220117":{"name":"Манастир Стјеник-Јелица","type":"route","route":"hiking","name:sr":"Манастир Стјеник-Јелица","network":"lwn","roundtrip":"yes","osmc:symbol":"red:white:red_circle","name:sr-Latn":"Manastir Stjenik-Jelica"},"13223536":{"ref":"2-8-2","name":"Рудник - Благовештење","type":"route","route":"hiking","ascent":"777","descent":"835","name:sr":"Рудник - Благовештење","network":"rwn","website":"https://pss.rs/terenipp/rudnik-blagovestenje/","distance":"11.8","operator":"ПТТ ПОСК","osmc:symbol":"red:red_round::2:white","name:sr-Latn":"Rudnik - Blagoveštenje"},"13226266":{"ref":"T-2-33","name":"Стаза Другог српског устанка","type":"route","route":"hiking","name:sr":"Стаза Другог српског устанка","network":"nwn","distance":"62","osmc:symbol":"red:red_round::33:white","name:sr-Latn":"Staza Drugog srpskog ustanka"},"13233413":{"ref":"T-2-6","name":"Рудничке стазе","type":"route","route":"hiking","ascent":"777","descent":"835","name:sr":"Рудничке стазе","network":"nwn","website":"https://pss.rs/terenipp/rudnicke-staze/","distance":"72","operator":"ПТТ ПОСК","osmc:symbol":"yellow:red_round::6:white","name:sr-Latn":"Rudničke staze"},"13234240":{"ref":"6-3-4","name":"Оштра главица, наранџаста стаза","type":"route","route":"hiking","ascent":"518","descent":"518","name:sr":"Оштра главица, наранџаста стаза","network":"rwn","website":"https://pss.rs/terenipp/ostra-glavica-narandzasta-staza/","distance":"4.3","operator":"Краљево ПАК","osmc:symbol":"orange:red_round::4:white","name:sr-Latn":"Oštra glavica, narandžasta staza"},"13234241":{"ref":"6-3-5","name":"Оштра главица, зелена стаза","type":"route","route":"hiking","ascent":"518","descent":"518","name:sr":"Оштра главица, зелена стаза","network":"rwn","website":"https://pss.rs/terenipp/ostra-glavica-zelena-staza/","distance":"4.6","operator":"Краљево ПАК","osmc:symbol":"green:red_round::5:white","name:sr-Latn":"Oštra glavica, zelena staza"},"13234242":{"ref":"6-3-6","name":"Оштра главица, црвена стаза","type":"route","route":"hiking","ascent":"518","descent":"518","name:sr":"Оштра главица, црвена стаза","network":"rwn","website":"https://pss.rs/terenipp/ostra-glavica-crvena-staza/","distance":"5.86","operator":"Краљево ПАК","osmc:symbol":"red:red_round::6:white","name:sr-Latn":"Oštra glavica, crvena staza"},"13234243":{"ref":"6-3-7","name":"Оштра главица, плава стаза","type":"route","route":"hiking","ascent":"518","descent":"518","name:sr":"Оштра главица, плава стаза","network":"rwn","website":"https://pss.rs/terenipp/ostra-glavica-plava-staza/","distance":"7.5","operator":"Краљево ПАК","osmc:symbol":"blue:red_round::7:white","name:sr-Latn":"Oštra glavica, plava staza"},"13234244":{"name":"Маглич - Чикер - Усовица","type":"route","route":"hiking","name:sr":"Маглич - Чикер - Усовица","network":"lwn","osmc:symbol":"red:white:red_circle","name:sr-Latn":"Maglič - Čiker - Usovica"},"13234245":{"name":"Маглич - Усовица","type":"route","route":"hiking","name:sr":"Маглич - Усовица","network":"lwn","osmc:symbol":"red:white:red_circle","name:sr-Latn":"Maglič - Usovica"},"13234299":{"ref":"5-26-1","name":"Маглич - Троглав - Станча","type":"route","route":"hiking","ascent":"964","descent":"821","name:sr":"Маглич - Троглав - Станча","network":"rwn","website":"https://pss.rs/terenipp/maglic-troglav-stanca/","distance":"18","operator":"Железничар ПСК Краљево","osmc:symbol":"red:red_round::1:white","name:sr-Latn":"Maglič - Troglav - Stanča"},"13235986":{"name":"Еко-стаза манастир Јежевица - Грујине ливаде - Црна стена","type":"route","route":"hiking","name:sr":"Еко-стаза манастир Јежевица - Грујине ливаде - Црна стена","network":"lwn","alt_name":"Шумска стаза здравља на Јелици","distance":"16.5","operator":"Удружење „Евгенија”","osmc:symbol":"blue:green:hiker","name:sr-Latn":"Eko-staza manastir Ježevica - Grujine livade - Crna stena"},"13236066":{"ref":"T-5-4","name":"Голијска трансверзала","note":"Наставља се ка Одвраћеници, Јанковом Камену, и Дугој пољани.","type":"route","route":"hiking","ascent":"5377","descent":"4234","name:sr":"Голијска трансверзала","network":"nwn","website":"https://pss.rs/terenipp/golijska-transverzala/","distance":"129.7","operator":"Железничар ПСК Краљево","osmc:symbol":"red:red_round::4:white","name:sr-Latn":"Golijska transverzala"},"13236166":{"name":"Стаза здравља СЦ Младост - Парменачко језеро","type":"route","route":"foot","name:sr":"Стаза здравља СЦ Младост - Парменачко језеро","network":"lwn","distance":"4.5","operator":"Град Чачак","osmc:symbol":"green:green_round::СЗ:white","name:sr-Latn":"Staza zdavlja SC Mladost - Parmenačko jezero"},"13237362":{"ref":"T-3-7","name":"Стазама Цера","type":"route","route":"hiking","ascent":"546","source":"pss_staze","descent":"686","name:sr":"Стазама Цера","network":"nwn","website":"https://pss.rs/terenipp/stazama-cera/","distance":"23","operator":"ПСД Цер","osmc:symbol":"red:red_round::7:white","name:sr-Latn":"Stazama Cera"},"13237511":{"ref":"T-3-29","name":"Вукове богазе","type":"route","route":"hiking","ascent":"700","source":"pss_staze","descent":"700","name:sr":"Вукове богазе","network":"nwn","website":"https://pss.rs/terenipp/vukove-bogaze/","distance":"45","operator":"ПСД Цер","osmc:symbol":"red:red_round::29:white","name:sr-Latn":"Vukove bogaze"},"13239017":{"ref":"T-4-12","name":"Хомољска трансверзала","type":"route","route":"hiking","ascent":"7700","source":"pss_staze","descent":"7600","name:sr":"Хомољска трансверзала","network":"nwn","distance":"119","operator":"ПК Вукан Пожаревац","osmc:symbol":"red:red_round::12:white","name:sr-Latn":"Homoljska transverzala"},"13239147":{"ref":"T-4-41","name":"Бастионска трансверзала","type":"route","route":"hiking","ascent":"1606","source":"pss_staze","descent":"1611","name:de":"Bastionen-Rundweg","name:sr":"Бастионска трансверзала","network":"lwn","website":"https://pss.rs/terenipp/bastionska-transverzala/","distance":"68.75","operator":"ОПСД Драган Радосављевић","roundtrip":"yes","description":"Бастионска трансверзала осмишљена је тако да обухвата већи број знаменитости из околине Зајечара које су привлачне како за планинаре тако и за обичне туристе.","osmc:symbol":"yellow:red_round::41:white","name:sr-Latn":"Bastionska transverzala"},"13244993":{"ref":"T-7-38","name":"Власинска трансверзала","type":"route","route":"hiking","ascent":"5004","descent":"3830","name:sr":"Власинска трансверзала","network":"nwn","website":"https://pss.rs/terenipp/vlasinska-transverzala/","distance":"90","operator":"ПД Чемерник","osmc:symbol":"red:red_round::38:white","name:sr-Latn":"Vlasinska transverzala"},"13244999":{"ref":"T-2-36","name":"Јухорска трансверзала","type":"route","route":"hiking","ascent":"1681","source":"pss_staze","descent":"1698","name:sr":"Јухорска трансверзала","network":"nwn","website":"https://pss.rs/terenipp/juhorska-transverzala/","distance":"38.1","operator":"ПК Рунолист","osmc:symbol":"red:red_round::36:white","name:sr-Latn":"Juhorska transverzala"},"13250176":{"ref":"T-6-34","name":"Жарачка трансверзала","type":"route","route":"hiking","ascent":"1200","descent":"700","name:sr":"Жарачка трансверзала","network":"nwn","website":"https://pss.rs/terenipp/zaracka-transverzala/","distance":"23.4","operator":"ПАК Краљево","description":"Повезује језеро Гвоздачке реке са местом Ушће на Ибарској магистрали.","osmc:symbol":"red:red_round::34:white","name:sr-Latn":"Žaračka transverzala"},"13250571":{"name":"Нарцису у походе","type":"route","route":"hiking","ascent":"1270","source":"to_kraljevo","descent":"1375","name:sr":"Нарцису у походе","network":"lwn","distance":"21","description":"Нарцису у походе је републичка планинарска акција која се организује на планини Столови у мају сваке године. Једна је од најстаријих и најмасовнијих манифестација ове врсте у Србији.","osmc:symbol":"red:white:red_circle","name:sr-Latn":"Narcisu u pohode"},"13906712":{"ref":"1-2-1","name":"Мала стаза 15 км","type":"route","route":"hiking","ascent":"63","source":"pss_staze","descent":"63","name:sr":"Мала стаза 15 км","network":"rwn","website":"https://pss.rs/terenipp/mala-staza/","distance":"15.3 km","operator":"Zrenjanin KP","roundtrip":"yes","osmc:symbol":"red:red_round::1:white","name:sr-Latn":"Mala staza 15 km"},"13913437":{"ref":"1-2-2","name":"Средња стаза 20 км","type":"route","route":"hiking","ascent":"81","source":"pss_staze","descent":"81","name:sr":"Средња стаза 20 км","network":"rwn","website":"https://pss.rs/terenipp/srednja-staza-20-km/","distance":"20.7 km","operator":"Zrenjanin KP","roundtrip":"yes","osmc:symbol":"red:red_round::2:white","name:sr-Latn":"Srednja staza 20 km"},"13916548":{"ref":"1-2-3","name":"Велика стаза 30 км","type":"route","route":"hiking","ascent":"105","source":"pss_staze","descent":"105","name:sr":"Велика стаза 30 км","network":"rwn","website":"https://pss.rs/terenipp/velika-staza-30-km/","distance":"30.3 km","operator":"Zrenjanin KP","roundtrip":"yes","osmc:symbol":"red:red_round::3:white","name:sr-Latn":"Velika staza 30 km"},"13918042":{"name":"Бела стаза","type":"route","route":"hiking","name:en":"White trail","name:sr":"Бела стаза","network":"lwn","distance":"2.83 km","operator":"Divčibare Ski Resort","roundtrip":"yes","description":"Скијалиште - Црни врх - Дрво љубави","osmc:symbol":"white:white:white_bar","name:sr-Latn":"Bela staza"},"13918050":{"name":"Стаза до центра","type":"route","route":"hiking","name:en":"Trail to center","name:sr":"Стаза до центра","network":"lwn","operator":"Divčibare Ski Resort","roundtrip":"no","osmc:symbol":"black:white:circle","name:sr-Latn":"Staza do centra"},"13922554":{"ref":"4-27-9","name":"Гребеном Ртња","type":"route","route":"hiking","ascent":"869","source":"pss_staze","descent":"869","name:sr":"Гребеном Ртња","network":"rwn","website":"https://pss.rs/terenipp/grebenom-rtnja/","distance":"13.3 km","operator":"Ozren PK","roundtrip":"yes","osmc:symbol":"red:red_round::9:white","name:sr-Latn":"Grebenom Rtnja"},"13933124":{"ref":"4-31-15","name":"4 врха Девице","type":"route","route":"hiking","ascent":"668","source":"pss_staze","descent":"668","name:sr":"4 врха Девице","network":"rwn","website":"https://pss.rs/terenipp/4-vrha-device/","distance":"12.5 km","operator":"Ozren PK","roundtrip":"yes","osmc:symbol":"red:red_round::15:white","name:sr-Latn":"4 vrha Device"},"13935770":{"ref":"7-1-1","name":"„Црни Камен“","type":"route","route":"hiking","ascent":"529","source":"pss_staze","descent":"529","name:sr":"„Црни Камен“","network":"rwn","website":"https://pss.rs/terenipp/crni-kamen/","distance":"6.3 km","operator":"Kukavica PSK","roundtrip":"no","osmc:symbol":"red:red_round::1:white","name:sr-Latn":"„Crni Kamen“"},"13936069":{"ref":"7-1-2","name":"Јарсеново - Г. Купиновица - Крива Бука","type":"route","route":"hiking","ascent":"717","source":"pss_staze","descent":"176","name:sr":"Јарсеново - Г. Купиновица - Крива Бука","network":"rwn","website":"https://pss.rs/terenipp/jarsenovo-g-kupinovica-kriva-buka/","distance":"13 km","operator":"Kukavica PSK","roundtrip":"no","osmc:symbol":"red:red_round::2:white","name:sr-Latn":"Jarsenovo – G. Kupinovica – Kriva Buka"},"13938905":{"ref":"2-8-3","name":"Стаза здравља манастир Драча","type":"route","route":"hiking","ascent":"240","source":"pss_staze","descent":"240","name:sr":"Стаза здравља манастир Драча","network":"rwn","website":"https://pss.rs/terenipp/staza-zdravlja-manastir-draca/","distance":"5 km","operator":"Žeželj PD","roundtrip":"yes","osmc:symbol":"red:red_round::3:white","name:sr-Latn":"Staza zdravlja manastir Drača"},"14041560":{"ref":"3-14-8","name":"Беле воде - Таорска врела","type":"route","route":"hiking","ascent":"108","source":"pss_staze","descent":"486","name:sr":"Беле воде - Таорска врела","network":"rwn","website":"https://pss.rs/terenipp/bele-vode-taorska-vrela/","distance":"10.6 km","operator":"Povlen PK","roundtrip":"no","osmc:symbol":"red:red_round::8:white","name:sr-Latn":"Bele vode – Taorska vrela"},"14041583":{"ref":"3-34-1","name":"Клисура реке Градац","type":"route","route":"hiking","ascent":"251","source":"pss_staze","descent":"151","name:sr":"Клисура реке Градац","network":"rwn","website":"https://pss.rs/terenipp/klisura-reke-gradac/","distance":"8.8 km","operator":"Povlen PK","roundtrip":"no","osmc:symbol":"red:red_round::1:white","name:sr-Latn":"Klisura reke Gradac"},"14124085":{"ref":"3-20-5","name":"Дићи - Пл. дом на Рајцу","type":"route","route":"hiking","ascent":"700","source":"pss_staze","descent":"300","name:sr":"Дићи - Пл. дом на Рајцу","network":"rwn","website":"https://pss.rs/terenipp/dici-pl-dom-na-rajcu/","distance":"13 km","operator":"Pobeda PK","roundtrip":"no","osmc:symbol":"red:red_round::5:white","name:sr-Latn":"Dići – Pl. dom na Rajcu"},"14177412":{"to":"Divčibare","ref":"E7-8","from":"Krupanj","name":"E7: Крупањ - Љубовија - Ваљево - Дивчибаре","type":"route","route":"hiking","source":"pss_staze","name:de":"E7: Krupanj - Ljubovija - Valjevo - Divčibare","name:en":"E7: Krupanj - Ljubovija - Valjevo - Divčibare","name:sr":"E7: Крупањ - Љубовија - Ваљево - Дивчибаре","network":"iwn","website":"https://pss.rs/terenipp/krupanj-ljubovija-valjevo-divcibare/","operator":"Brđanka PSK;Magleš PSD;Povlen PK;Subjel PED;Tornička Bobija PK","wikidata":"Q2914372","wikipedia":"en:E7 European long distance path","wiki:symbol":"Symbol_E7.png","name:sr-Latn":"E7: Krupanj - Ljubovija - Valjevo - Divčibare"},"14180878":{"to":"Ovčar banja","ref":"E7-9","from":"Divčibare","name":"E7: Дивчибаре - Рајац - Рудник - Овчар бања","type":"route","route":"hiking","source":"pss_staze","name:de":"E7: Divčibare – Rajac – Rudnik – Ovčar banja","name:en":"E7: Divčibare – Rajac – Rudnik – Ovčar banja","name:sr":"E7: Дивчибаре - Рајац - Рудник - Овчар бања","network":"iwn","website":"https://pss.rs/terenipp/divcibare-rajac-rudnik-ovcar-banja/","operator":"Kablar PD;Pobeda PK;Povlen PK;PTT POSK;Rudnik PSD;Železničar PD Beograd","wikidata":"Q2914372","wikipedia":"en:E7 European long distance path","wiki:symbol":"Symbol_E7.png","name:sr-Latn":"E7: Divčibare – Rajac – Rudnik – Ovčar banja"},"14185390":{"to":"G. Trnava","ref":"E7-16","from":"Selova","name":"E7: Селова - Блаце - Велики Јастребац - Мали Јастребац - Тешица - Г. Трнава","type":"route","route":"hiking","source":"pss_staze","name:de":"E7: Selova – Blace – Veliki Jastrebac – Mali Jastrebac – Tešica – G. Trnava","name:en":"E7: Selova – Blace – Veliki Jastrebac – Mali Jastrebac – Tešica – G. Trnava","name:sr":"E7: Селова - Блаце - Велики Јастребац - Мали Јастребац - Тешица - Г. Трнава","network":"iwn","website":"https://pss.rs/terenipp/selova-blace-v-jastrebac-m-jastrebac-tesica-g-trnava/","complete":"no","operator":"Brđanka PSK;Jastrebac PSK;Toplica PSK","wikidata":"Q2914372","wikipedia":"en:E7 European long distance path","wiki:symbol":"Symbol_E7.png","name:sr-Latn":"E7: Selova – Blace – Veliki Jastrebac – Mali Jastrebac – Tešica – G. Trnava"},"14191834":{"to":"Зрењанин","ref":"E4-2","from":"Ада","name":"E4: Ada – Zrenjanin","type":"route","route":"hiking","length":"129","source":"pss_staze","name:sr":"E4: Ада – Зрењанин","network":"iwn","website":"https://pss.rs/terenipp/ada-zrenjanin/","complete":"yes","operator":"Kinđa PD;Zrenjanin KP","wikidata":"Q151658","wikipedia":"en:E4 European long distance path","osmc:symbol":"blue:blue::E4:yellow","wiki:symbol":"E 4 sign.jpg","name:sr-Latn":"E4: Ada – Zrenjanin"},"14192820":{"to":"Падина","ref":"E4-3","from":"Зрењанин","name":"E4: Zrenjanin – Padina","type":"route","route":"hiking","length":"63","source":"pss_staze","name:sr":"E4: Зрењанин – Падина","network":"iwn","website":"https://pss.rs/terenipp/zrenjanin-padina/","complete":"yes","operator":"Jelenak PD;Soko PEK;Zrenjanin KP","wikidata":"Q151658","wikipedia":"en:E4 European long distance path","osmc:symbol":"blue:blue::E4:yellow","wiki:symbol":"E 4 sign.jpg","name:sr-Latn":"E4: Zrenjanin – Padina"},"14194463":{"to":"Крњача (Београд)","ref":"E4-4","from":"Падина","name":"E4: Padina – Krnjača (Beograd)","type":"route","route":"hiking","length":"99","source":"pss_staze","name:sr":"E4: Падина – Крњача (Београд)","network":"iwn","website":"https://pss.rs/terenipp/padina-krnjaca-beograd/","complete":"yes","operator":"Jelenak PD;Karpati PD;Soko PEK;Vršačka kula PSD;Zrenjanin KP","wikidata":"Q151658","wikipedia":"en:E4 European long distance path","osmc:symbol":"blue:blue::E4:yellow","wiki:symbol":"E 4 sign.jpg","name:sr-Latn":"E4: Padina – Krnjača (Beograd)"},"14206054":{"to":"Сокобања","ref":"E4-11","from":"Кривељ","name":"E4: Krivelj – Sokobanja","type":"route","route":"hiking","length":"74","source":"pss_staze","name:sr":"E4: Кривељ – Сокобања","network":"iwn","website":"https://pss.rs/terenipp/krivelj-soko-banja/","complete":"yes","operator":"Crni vrh PSD;Dubašnica PK;Ljuba Nešić PSD;Ozren PK;Šiljak PK","wikidata":"Q151658","wikipedia":"en:E4 European long distance path","osmc:symbol":"blue:blue::E4:yellow","wiki:symbol":"E_4_sign.jpg","name:sr-Latn":"E4: Krivelj – Sokobanja"},"14206055":{"to":"Кривељ","ref":"E4-10","via":"Неготин","from":"Манастир Вратна","name":"E4: Vratna – Negotin – Krivelj","note":"The trail is not waymarked in landscape. The published booklet does describe the route only blurred. These relation should be very close to the intentioned route in published booklet.","type":"route","route":"hiking","length":"153","source":"Branislav Božović & Boris Mićić & Momčilo Vuković & Veroljub Kovačević: Durch Serbien mit leichtem Schritt. Wanderwege E4 und E7. Hrsg.: European Ramblers Association. Planinarski Savez Srbije. Belgrad 2011.","name:de":"E4: Kloster Vratna – Negotin – Krivelj","name:sr":"E4: Манастир Вратна – Неготин – Кривељ (незванично)","network":"iwn","website":"https://pss.rs/terenipp/vratna-krivelj/","complete":"no","operator":"Planinarski savez Srbije (PSS)","wikidata":"Q151658","osmc:name":"E4 Serbia","wikipedia":"en:E4 European long distance path","osmc:symbol":"blue:blue::E4:yellow","wiki:symbol":"E_4_sign.jpg","name:sr-Latn":"E4: Monastir Vratna – Negotin – Krivelj"},"14274559":{"ref":"3-13-1","name":"Дебело Брдо - Јабланик - Бебића Лука","type":"route","route":"hiking","ascent":"263","source":"pss_staze","descent":"794","name:sr":"Дебело Брдо - Јабланик - Бебића Лука","network":"rwn","website":"https://pss.rs/terenipp/debelo-brdo-jablanik-bebica-luka/","distance":"10.3 km","operator":"Magleš PSD","roundtrip":"no","osmc:symbol":"red:red_round::1:white","name:sr-Latn":"Debelo Brdo – Jablanik – Bebića Luka"},"14274591":{"ref":"3-13-2","name":"Планинарски дом „Дебело брдо” - Поћута","type":"route","route":"hiking","ascent":"250","source":"pss_staze","descent":"823","name:sr":"Планинарски дом „Дебело брдо” - Поћута","network":"rwn","website":"https://pss.rs/terenipp/planinarski-dom-debelo-brdo-pocuta/","distance":"13.4 km","operator":"Magleš PSD","roundtrip":"no","osmc:symbol":"red:red_round::2:white","name:sr-Latn":"Planinarski dom „Debelo brdo“- Poćuta"},"14274639":{"ref":"3-18-1","name":"Село Радановици - „Обрадовићи”","type":"route","route":"hiking","ascent":"376","source":"pss_staze","descent":"500","name:sr":"Село Радановици - „Обрадовићи”","network":"rwn","website":"https://pss.rs/terenipp/selo-radanovci-obradovic/","distance":"14.8 km","operator":"Povlen PK","roundtrip":"no","osmc:symbol":"red:red_round::1:white","name:sr-Latn":"Selo Radanovci – „Obradovići“"},"14280882":{"ref":"3-22-2","name":"Планинарски дом „На Пољанама” - Паљба","type":"route","route":"hiking","ascent":"290","source":"pss_staze","descent":"224","name:sr":"Планинарски дом „На Пољанама” - Паљба","network":"rwn","website":"https://pss.rs/terenipp/planinarski-dom-na-poljanama-paljba/","distance":"7.8 km","operator":"Magleš PSD","roundtrip":"no","osmc:symbol":"red:red_round::2:white","name:sr-Latn":"Planinarski dom „Na Poljanama“ – Paljba"},"14280939":{"ref":"3-22-3","name":"Дивчибаре центар - Велика Плећа","type":"route","route":"hiking","ascent":"162","source":"pss_staze","descent":"80","name:sr":"Дивчибаре центар - Велика Плећа","network":"rwn","website":"https://pss.rs/terenipp/divcibare-centar-velika-pleca/","distance":"5.1 km","operator":"Magleš PSD","roundtrip":"no","osmc:symbol":"red:red_round::3:white","name:sr-Latn":"Divčibare centar – Velika Pleća"},"14280954":{"ref":"3-22-4","name":"Дивчибаре центар - Голубац","type":"route","route":"hiking","ascent":"116","source":"pss_staze","descent":"25","name:sr":"Дивчибаре центар - Голубац","network":"rwn","website":"https://pss.rs/terenipp/divcibare-centar-golubac/","distance":"6.1 km","operator":"Magleš PSD","roundtrip":"no","osmc:symbol":"red:red_round::4:white","name:sr-Latn":"Divčibare centar – Golubac"},"14281022":{"ref":"3-22-5","name":"Дивчибаре центар - Планинарски дом „На Пољанама”","type":"route","route":"hiking","ascent":"170","source":"pss_staze","descent":"149","name:sr":"Дивчибаре центар - Планинарски дом „На Пољанама”","network":"rwn","website":"https://pss.rs/terenipp/divcibare-centar-planinarski-dom-na-poljanama/","distance":"5.9 km","operator":"Magleš PSD","roundtrip":"no","osmc:symbol":"red:red_round::5:white","name:sr-Latn":"Divčibare centar – Planinarski dom „Na Poljanama“"},"14281136":{"ref":"4-30-1","name":"Трубаревац - Бованско језеро","type":"route","route":"hiking","ascent":"565","source":"pss_staze","descent":"565","name:sr":"Трубаревац - Бованско језеро","network":"rwn","website":"https://pss.rs/terenipp/trubarevac-bovansko-jezero/","distance":"14.9 km","operator":"Ozren PK","roundtrip":"yes","osmc:symbol":"red:red_round::1:white","name:sr-Latn":"Trubarevac – Bovansko jezero"},"14281196":{"ref":"4-45-2","name":"Милушинац - Крстатац - Богова врата","type":"route","route":"hiking","ascent":"724","source":"pss_staze","descent":"724","name:sr":"Милушинац - Крстатац - Богова врата","network":"rwn","website":"https://pss.rs/terenipp/krstatac-bogova-vrata/","distance":"13 km","operator":"Ozren PK","roundtrip":"yes","osmc:symbol":"red:red_round::2:white","name:sr-Latn":"Milušinac – Krstatac – Bogova vrata"},"14283620":{"ref":"6-21-1","name":"Сретењски сусрети / Копривница - Велики Дреновац","type":"route","route":"hiking","ascent":"539","source":"pss_staze","descent":"479","name:sr":"Сретењски сусрети / Копривница - Велики Дреновац","network":"rwn","website":"https://pss.rs/terenipp/sretenjski-susreti-koprivnica-v-drenovac/","distance":"18.2 km","operator":"Brđanka PSK","roundtrip":"no","osmc:symbol":"red:red_round::1:white","name:sr-Latn":"Sretenjski susreti / Koprivnica – Veliki Drenovac"},"14287193":{"ref":"7-9-2","name":"Стаза бр. 2 „Крстовски рид”","type":"route","route":"hiking","ascent":"935","source":"pss_staze","descent":"50","name:sr":"Стаза бр. 2 „Крстовски рид”","network":"rwn","website":"https://pss.rs/terenipp/staza-br-2-krstovski-rid/","distance":"14.6 km","operator":"Kukavica PSK","roundtrip":"no","osmc:symbol":"red:red_round::2:white","name:sr-Latn":"Staza br. 2 „Krstovski rid“"},"14287208":{"ref":"7-9-9","name":"Стаза бр. 9 „Шијанка”","type":"route","route":"hiking","source":"pss_staze","name:sr":"Стаза бр. 9 „Шијанка”","network":"rwn","website":"https://pss.rs/terenipp/staza-br-9-sijanka/","distance":"16.7 km","operator":"Kukavica PSK","roundtrip":"no","osmc:symbol":"red:red_round::9:white","name:sr-Latn":"Staza br. 9 „Šijanka“"},"14287232":{"ref":"7-9-10","name":"Стаза бр. 10 „Врх Влајна 1442”","type":"route","route":"hiking","source":"pss_staze","name:sr":"Стаза бр. 10 „Врх Влајна 1442”","network":"rwn","website":"https://pss.rs/terenipp/staza-br-10-vrh-vlajna-1442/","distance":"13 km","operator":"Kukavica PSK","roundtrip":"no","osmc:symbol":"red:red_round::10:white","name:sr-Latn":"Staza br. 10. „Vrh Vlajna 1442“"},"14287283":{"ref":"7-9-13","name":"Стаза бр. 13 „Стаза здравља”","type":"route","route":"hiking","ascent":"220","source":"pss_staze","descent":"220","name:sr":"Стаза бр. 13 „Стаза здравља”","network":"rwn","website":"https://pss.rs/terenipp/staza-br-13-staza-zdravlja/","distance":"5 km","operator":"Kukavica PSK","roundtrip":"no","osmc:symbol":"red:red_round::13:white","name:sr-Latn":"Staza br. 13 „Staza zdravlja“"},"14287354":{"ref":"7-9-15","name":"Стаза бр. 15 „Кита”","type":"route","route":"hiking","ascent":"958","source":"pss_staze","descent":"918","name:sr":"Стаза бр. 15 „Кита”","network":"rwn","website":"https://pss.rs/terenipp/staza-br-15-kita/","distance":"18.6 km","operator":"Kukavica PSK","roundtrip":"yes","osmc:symbol":"red:red_round::15:white","name:sr-Latn":"Staza br. 15 „Kita”"},"14300658":{"to":"Вратна","ref":"E4-9","via":"Ђердап","from":"Мосна","name":"E4: (Mosna –) Derdap – Vratna","note":"The trail is not waymarked in landscape. The published booklet does describe the route only blurred. These relation should be very close to the intentioned route in published booklet.","type":"route","route":"hiking","length":"157","source":"Branislav Božović & Boris Mićić & Momčilo Vuković & Veroljub Kovačević: Durch Serbien mit leichtem Schritt. Wanderwege E4 und E7. Hrsg.: European Ramblers Association. Planinarski Savez Srbije. Belgrad 2011.","name:de":"E4: (Mosna –) Eisernes Tor – Kloster Vratna","name:en":"E4: (Mosna –) Derdap – Monastery Vratna","name:sr":"E4: (Мосна –) Ђердап – Манастир Вратна (незванично)","network":"iwn","website":"https://pss.rs/terenipp/mosna-vratna/","complete":"no","operator":"Planinarski savez Srbije (PSS)","wikidata":"Q151658","wikipedia":"en:E4 European long distance path","osmc:symbol":"blue:blue::E4:yellow","wiki:symbol":"E_4_sign.jpg","name:sr-Latn":"E4: (Mosna –) Derdap – Monastir Vratna"},"14300659":{"ref":"N09","name":"Veliko livađe – Reka Zamna – Dudićeva i Canetova pećina – Prerast (Rajska)","type":"route","route":"hiking","length":"6","symbol":"white dot in red circle","network":"lwn","website":"https://www.toon.org.rs/sta-videti/aktivni-odmor/planinarenje-i-pesacke-staze","complete":"no","operator":"Turistička organizacija opštine Negotin","osmc:symbol":"red:red_circle:white_dot:09","wiki:symbol":"Ring_rot.svg"},"14300660":{"ref":"N10","name":"Stevanske livade – Mali Deli Jovan – Veliki Deli Jovan – TV repetitor","type":"route","route":"hiking","length":"8","symbol":"white dot in red circle","network":"lwn","website":"https://www.toon.org.rs/sta-videti/aktivni-odmor/planinarenje-i-pesacke-staze","complete":"yes","operator":"Turistička organizacija opštine Negotin","osmc:symbol":"red:red_circle:white_dot:10:black","wiki:symbol":"Ring_rot.svg"},"14300661":{"ref":"N08","name":"Jabukovac – Suvi kornjet – Kanjon Soje – Velika prerast","type":"route","route":"hiking","length":"8","symbol":"white dot in red circle","network":"lwn","website":"https://www.toon.org.rs/sta-videti/aktivni-odmor/planinarenje-i-pesacke-staze","complete":"no","operator":"Turistička organizacija opštine Negotin","osmc:symbol":"red:red_circle:white_dot:08","wiki:symbol":"Ring_rot.svg"},"14300662":{"ref":"N02","name":"Manastir – Mala kapija – Velika kapija – Vidikovac","type":"route","route":"hiking","length":"1","symbol":"white dot in red circle","network":"lwn","website":"https://www.toon.org.rs/sta-videti/aktivni-odmor/planinarenje-i-pesacke-staze","complete":"yes","operator":"Turistička organizacija opštine Negotin","osmc:symbol":"red:red_circle:white_dot:02","wiki:symbol":"Ring_rot.svg"},"14300664":{"ref":"N04","name":"Velika kapija – Vidikovac – (desnom obalom do) Suve kapije","type":"route","route":"hiking","length":"4","symbol":"white dot in red circle","network":"lwn","website":"https://www.toon.org.rs/sta-videti/aktivni-odmor/planinarenje-i-pesacke-staze","complete":"yes","operator":"Turistička organizacija opštine Negotin","osmc:symbol":"red:red_circle:white_dot:04","wiki:symbol":"Ring_rot.svg"},"14300665":{"ref":"N05","name":"Manastir – Kraku Bogdan – Kornjet – Suva kapija (levom obalom)","type":"route","route":"hiking","length":"5","symbol":"white dot in red circle","network":"lwn","website":"https://www.toon.org.rs/sta-videti/aktivni-odmor/planinarenje-i-pesacke-staze","complete":"yes","operator":"Turistička organizacija opštine Negotin","osmc:symbol":"red:red_circle:white_dot:05","wiki:symbol":"Ring_rot.svg"},"14300666":{"ref":"N06","name":"Manastir – Kraku Bogdan – Trailov šot – Biger","type":"route","route":"hiking","length":"6","symbol":"white dot in red circle","network":"lwn","website":"https://www.toon.org.rs/sta-videti/aktivni-odmor/planinarenje-i-pesacke-staze","complete":"no","operator":"Turistička organizacija opštine Negotin","osmc:symbol":"red:red_circle:white_dot:06","wiki:symbol":"Ring_rot.svg"},"14300667":{"ref":"N12","name":"Selo Mokranje – Mokranjske stene (ograda i kamenjar)","type":"route","route":"hiking","length":"2","symbol":"white dot in red circle","network":"lwn","website":"https://www.toon.org.rs/sta-videti/aktivni-odmor/planinarenje-i-pesacke-staze","complete":"yes","operator":"Turistička organizacija opštine Negotin","osmc:symbol":"red:red_circle:white_dot:12:black","wiki:symbol":"Ring_rot.svg"},"14300668":{"ref":"N13","name":"Selo Mokranje – Alija – Rogljevske pivnice","type":"route","route":"hiking","length":"8","symbol":"white dot in red circle","network":"lwn","website":"https://www.toon.org.rs/sta-videti/aktivni-odmor/planinarenje-i-pesacke-staze","complete":"yes","operator":"Turistička organizacija opštine Negotin","osmc:symbol":"red:red_circle:white_dot:13:black","wiki:symbol":"Ring_rot.svg"},"14344695":{"ref":"N14","name":"Rogljevske pivnice - Rajačke pivnice","type":"route","route":"hiking","length":"8","symbol":"white dot in red circle","network":"lwn","website":"https://www.toon.org.rs/sta-videti/aktivni-odmor/planinarenje-i-pesacke-staze","complete":"yes","operator":"Turistička organizacija opštine Negotin","osmc:symbol":"red:red_circle:white_dot:14:black","wiki:symbol":"Ring_rot.svg"},"14363628":{"name":"Драчић - Баћевци","note":"staza nije mapirana u potpunosti","type":"route","route":"hiking","network":"rwn","complete":"no"},"14371597":{"ref":"N11","name":"Popovica – Crna glava – Crni vrh – TV repetitor","type":"route","route":"hiking","length":"9","symbol":"white dot in red circle","network":"lwn","website":"https://www.toon.org.rs/sta-videti/aktivni-odmor/planinarenje-i-pesacke-staze","complete":"no","operator":"Turistička organizacija opštine Negotin","osmc:symbol":"red:red_circle:white_dot:11:black","wiki:symbol":"Ring_rot.svg"},"14377012":{"name":"Veliki krš – Stol","type":"route","route":"hiking","symbol":"white dot in red circle","name:sr":"Велики крш – Стол","network":"lwn","complete":"yes","osmc:symbol":"red:red_circle:white_dot","wiki:symbol":"Ring_rot.svg","name:sr-Latn":"Veliki krš – Stol"},"14377013":{"name":"Krivelj – Veliki krš","type":"route","route":"hiking","symbol":"white dot in red circle","name:sr":"Кривељ – Велики крш","network":"lwn","osmc:symbol":"red:red_circle:white_dot","wiki:symbol":"Ring_rot.svg","name:sr-Latn":"Krivelj – Veliki krš"},"14386033":{"to":"Боговина","ref":"E4-11a","from":"Кривељ","name":"E4: Krivelj – Gamzigrad – Bogovina","note":"The trail is not waymarked in landscape. The published booklet does describe the route only blurred. These relation should be very close to the intentioned route in published booklet.","type":"route","route":"hiking","source":"Branislav Božović & Boris Mićić & Momčilo Vuković & Veroljub Kovačević: Durch Serbien mit leichtem Schritt. Wanderwege E4 und E7. Hrsg.: European Ramblers Association. Planinarski Savez Srbije. Belgrad 2011.","name:sr":"E4: Кривељ – Гамзиград – Боговина (незванично)","network":"iwn","complete":"no","operator":"Planinarski savez Srbije (PSS)","wikidata":"Q151658","osmc:name":"E4 Serbia","osmc:symbol":"blue:blue::E4:yellow","wiki:symbol":"E_4_sign.jpg","name:sr-Latn":"E4: Krivelj – Gamzigrad – Bogovina"},"14392122":{"name":"On Tilva Njagra","type":"route","route":"hiking","symbol":"white dot in red circle","network":"lwn","osmc:symbol":"red:red_circle:white_dot","wiki:symbol":"Ring_rot.svg"},"14400795":{"name":"Zlot – Malinik","type":"route","route":"hiking","symbol":"white dot in red circle","name:sr":"Злот – Малиник","network":"lwn","complete":"no","osmc:symbol":"red:red_circle:white_dot","wiki:symbol":"Ring_rot.svg"},"14405400":{"ref":"4-31-16","name":"Плато Девице до извора Моравице","type":"route","route":"hiking","ascent":"638","source":"pss_staze","descent":"1182","name:sr":"Плато Девице до извора Моравице","network":"rwn","website":"https://pss.rs/terenipp/plato-device-do-izvora-moravice/","distance":"18.2 km","operator":"Ozren PK","roundtrip":"no","osmc:symbol":"red:red_round::16:white","name:sr-Latn":"Plato Device do izvora Moravice"},"14405401":{"to":"Јаловик извор","ref":"E4-12","from":"Сокобања","name":"E4: Sokobanja – Jalovik izvor","note":"https://wiki.openstreetmap.org/wiki/Serbia/Beleske/Evropski_pesacki_putevi","type":"route","route":"hiking","length":"70,7","source":"Branislav Božović & Boris Mićić & Momčilo Vuković & Veroljub Kovačević: Durch Serbien mit leichtem Schritt. Wanderwege E4 und E7. Hrsg.: European Ramblers Association. Planinarski Savez Srbije. Belgrad 2011.","name:de":"E4: Sokobanja – Jalovik izvor","name:sr":"E4: Сокобања – Јаловик извор","network":"iwn","website":"https://pss.rs/terenipp/soko-banja-jalovik-izvor/","complete":"yes","operator":"Babin zub PD;Ozren PK","wikidata":"Q151658","osmc:name":"E4 Serbia","wikipedia":"en:E4 European long distance path","osmc:symbol":"blue:blue::E4:yellow","wiki:symbol":"E 4 sign.jpg","name:sr-Latn":"E4: Sokobanja – Jalovik izvor"},"14419424":{"name":"Lazarev kanjon","type":"route","route":"hiking","source":"white dot in red circle","name:sr":"Лазарев кањон","network":"lwn","osmc:symbol":"red:red_circle:white_dot","wiki:symbol":"Ring_rot.svg"},"14435896":{"name":"Pešačka staza","type":"route","route":"foot"},"14608920":{"name":"Стаза здравља „Липовача“","type":"route","route":"foot","name:sr":"Стаза здравља „Липовача“","network":"lwn","distance":"3.6 km","operator":"ТО Шид","roundtrip":"yes","name:sr-Latn":"Staza zdravlja „Lipovača“"},"14641685":{"name":"Белегиш велика стаза","type":"route","route":"hiking","name:sr":"Белегиш велика стаза","network":"lwn","distance":"9.995","operator":"PSD Stara Pazova","roundtrip":"yes","survey:date":"2022-09-30","name:sr-Latn":"Belegiš velika staza"},"14650691":{"to":"Мајдан","from":"Мајдан","name":"Стаза здравља Мајдан","type":"route","route":"hiking","ascent":"93","descent":"93","name:sr":"Стаза здравља Мајдан","network":"lwn","website":"https://pozelizelju.org.rs/staza-zdravlja-majdan/","distance":"6.4 km","operator":"Удружење Пожели жељу","roundtrip":"yes","osmc:symbol":"orange:white::♥:orange","name:sr-Latn":"Staza zdravlja Majdan"},"14906749":{"ref":"1-4-1","name":"Успон на Гудурички врх","type":"route","route":"hiking","ascent":"815","source":"pss_staze","descent":"415","name:sr":"Успон на Гудурички врх","network":"rwn","website":"https://pss.rs/terenipp/uspon-na-guduricki-vrh/","distance":"16 km","operator":"Vršačka kula PSD","roundtrip":"no","osmc:symbol":"red:red_round::1:white","name:sr-Latn":"Uspon na Gudurički vrh"},"14911970":{"ref":"1-4-2","name":"Манастир Средиште - Гудурички врх","type":"route","route":"hiking","ascent":"438","source":"pss_staze","descent":"0","name:sr":"Манастир Средиште - Гудурички врх","network":"rwn","website":"https://pss.rs/terenipp/manastir-srediste-guduricki-vrh/","distance":"8 km","operator":"Vršačka kula PSD","roundtrip":"no","osmc:symbol":"red:red_round::2:white","name:sr-Latn":"Manastir Središte – Gudurički vrh"},"14912124":{"ref":"1-4-3","name":"Манастир Месић","type":"route","route":"hiking","source":"pss_staze","name:sr":"Манастир Месић","network":"rwn","website":"https://pss.rs/terenipp/manastir-mesic/","distance":"15 km","operator":"Vršačka kula PSD","roundtrip":"no","osmc:symbol":"red:red_round::3:white","name:sr-Latn":"Manastir Mesić"},"14916943":{"ref":"1-4-4","name":"Каменарице преко Лисичије главе","type":"route","route":"hiking","ascent":"471","source":"pss_staze","descent":"471","name:sr":"Каменарице преко Лисичије главе","network":"rwn","website":"https://pss.rs/terenipp/kamenarice-preko-lisic-glave/","distance":"10 km","operator":"Vršačka kula PSD","roundtrip":"но","osmc:symbol":"red:red_round::4:white","name:sr-Latn":"Kamenarice preko Lisičije glave"},"14921298":{"ref":"1-4-5","name":"Гудурички врх преко Лисичије главе","type":"route","route":"hiking","ascent":"1065","source":"pss_staze","descent":"1065","name:sr":"Гудурички врх преко Лисичије главе","network":"rwn","website":"https://pss.rs/terenipp/guduricki-vrh-preko-lisicije-glave/","distance":"19 km","operator":"Vršačka kula PSD","roundtrip":"no","osmc:symbol":"red:red_round::5:white","name:sr-Latn":"Gudurički vrh preko Lisičije glave"},"14989345":{"ref":"2-8-1","name":"Манастирска стаза","type":"route","route":"hiking","ascent":"586","source":"pss_staze","descent":"641","name:sr":"Манастирска стаза","network":"rwn","website":"https://pss.rs/terenipp/manastirska-staza/","distance":"12.5 km","operator":"Žeželj PD","roundtrip":"no","osmc:symbol":"red:red_round::1:white","name:sr-Latn":"Manastirska staza"},"14998522":{"ref":"7-9-16","name":"Стаза бр. 16. „Бисер Кукавице”","type":"route","route":"hiking","ascent":"233","source":"pss_staze","descent":"202","name:sr":"Стаза бр. 16. „Бисер Кукавице”","network":"rwn","website":"https://pss.rs/terenipp/staza-br-16-biser-kukavice/","distance":"5.2 km","operator":"Kukavica PSK","roundtrip":"no","osmc:symbol":"red:red_round::16:white","name:sr-Latn":"Staza br. 16. „Biser Kukavice“"},"15002235":{"ref":"2-16-1","name":"Едукативна стаза","type":"route","route":"hiking","ascent":"200","source":"pss_staze","descent":"200","name:sr":"Едукативна стаза","network":"rwn","website":"https://pss.rs/terenipp/pesacka-staza-jagodina-djurdjevo-brdo/","distance":"9 km","operator":"Planinski duh PD","roundtrip":"yes","osmc:symbol":"red:red_round::1:white","name:sr-Latn":"Edukativna staza"},"15015633":{"ref":"4-31-9","name":"Клисура Изгарске реке - „Дикулићева стаза”","note":"staza nije mapirana u potpunosti","type":"route","route":"hiking","ascent":"572","source":"pss_staze","descent":"566","name:sr":"Клисура Изгарске реке - „Дикулићева стаза”","network":"rwn","website":"https://pss.rs/terenipp/klisura-izgarske-reke-dikuliceva-staza/","distance":"9 km","operator":"Oštra čuka PD","roundtrip":"yes","osmc:symbol":"red:red_round::9:white","name:sr-Latn":"Klisura Izgarske reke – „Dikulićeva staza“"},"15093199":{"name":"Крлетова стаза","type":"route","route":"hiking","ascent":"200","colour":"green","descent":"200","name:en":"Krle's path","name:sr":"Крлетова стаза","network":"lwn","circular":"yes","distance":"5,0","operator":"ПСД Поштар Нови Сад","osmc:symbol":"green:white_round:green_dot","name:sr-Latn":"Krletova staza","network:type":"Local"},"15420590":{"name":"Ножеви","type":"route","route":"hiking","network":"lwn","osmc:symbol":"red:white::НОЖ:frame"},"15485351":{"ref":"15","name":"Selo Šarkamen – Lokalitet Vrelo","type":"route","route":"hiking","length":"5,5"},"15628650":{"ref":"5-12-4","name":"Стаза бр. 14: Манастир Увац - Крвавац","type":"route","route":"hiking","ascent":"710","source":"pss_staze","descent":"710","name:sr":"Стаза бр. 14: Манастир Увац - Крвавац","network":"rwn","website":"https://pss.rs/terenipp/staza-br-14-manastir-uvac-krvavac/","distance":"10.3 km","operator":"Aleksandar Džavović PD","roundtrip":"yes","osmc:symbol":"red:red_round::4:white","name:sr-Latn":"Staza br. 14: Manastir Uvac – Krvavac"},"15632160":{"ref":"5-12-5","name":"Стаза бр. 15: Колијевка - Орлић","type":"route","route":"hiking","ascent":"760","source":"pss_staze","descent":"760","name:sr":"Стаза бр. 15: Колијевка - Орлић","network":"rwn","website":"https://pss.rs/terenipp/staza-br-15-kolijevka-orlic/","distance":"10.9 km","operator":"Aleksandar Džavović PD","roundtrip":"yes","osmc:symbol":"red:red_round::5:white","name:sr-Latn":"Staza br. 15: Kolijevka – Orlić"},"15632353":{"ref":"5-12-6","name":"Стаза бр. 16: Јабланица - Љуљаш","type":"route","route":"hiking","ascent":"790","source":"pss_staze","descent":"790","name:sr":"Стаза бр. 16: Јабланица - Љуљаш","network":"rwn","website":"https://pss.rs/terenipp/staza-br-16-jablanica-ljuljas/","distance":"18.7 km","operator":"Aleksandar Džavović PD","roundtrip":"yes","osmc:symbol":"red:red_round::6:white","name:sr-Latn":"Staza br. 16: Jablanica – Ljuljaš"},"15640271":{"ref":"5-12-7","name":"Стаза бр. 2: Муртеница - Тавничко језеро","type":"route","route":"hiking","ascent":"700","source":"pss_staze","descent":"700","name:sr":"Стаза бр. 2: Муртеница - Тавничко језеро","network":"rwn","website":"https://pss.rs/terenipp/staza-br-2-murtenica-tavnicko-jezero/","distance":"16.8 km","operator":"Tornik PK","roundtrip":"yes","osmc:symbol":"red:red_round::7:white","name:sr-Latn":"Staza br. 2: Murtenica – Tavničko jezero"},"15671294":{"ref":"5-12-8","name":"Стаза бр. 4: Гостиље - Чигота","type":"route","route":"hiking","ascent":"850","source":"pss_staze","descent":"850","name:sr":"Стаза бр. 4: Гостиље - Чигота","network":"rwn","website":"https://pss.rs/terenipp/staza-br-4-gostilje-cigota/","distance":"17.6 km","operator":"Tornik PK","roundtrip":"yes","osmc:symbol":"red:red_round::8:white","name:sr-Latn":"Staza br. 4: Gostilje – Čigota"},"15688573":{"ref":"5-12-9","name":"Стаза бр. 5: Јокина ћурија - Јеље - Коњодер","note":"није обележен почетак стазе јер се на необлеженом месту прелази примарни пут","type":"route","route":"hiking","ascent":"550","source":"pss_staze","descent":"550","name:sr":"Стаза бр. 5: Јокина ћурија - Јеље - Коњодер","network":"rwn","website":"https://pss.rs/terenipp/staza-br-5-jokina-cuprija-jelje-konjoder/","distance":"14.5 km","operator":"Tornik PK","roundtrip":"yes","osmc:symbol":"red:red_round::9:white","name:sr-Latn":"Staza br. 5: Jokina ćuprija – Jelje – Konjoder"},"15699116":{"ref":"5-12-10","name":"Стаза бр. 6: Златибор - Споменик - Чукер","type":"route","route":"hiking","ascent":"790","source":"pss_staze","descent":"790","name:sr":"Стаза бр. 6: Златибор - Споменик - Чукер","network":"rwn","website":"https://pss.rs/terenipp/staza-br-6-zlatibor-spomenik-cuker/","distance":"21.7 km","operator":"Tornik PK","roundtrip":"yes","osmc:symbol":"red:red_round::10:white","name:sr-Latn":"Staza br. 6: Zlatibor – Spomenik – Čuker"},"15711357":{"ref":"5-12-11","name":"Стаза бр. 18: Јечмиште - врх Бандера (Торник)","type":"route","route":"hiking","ascent":"670","source":"pss_staze","descent":"670","name:sr":"Стаза бр. 18: Јечмиште - врх Бандера (Торник)","network":"rwn","website":"https://pss.rs/terenipp/staza-br-18-jecmiste-vrh-bandera-tornik/","distance":"16.1 km","operator":"Tornik PK","roundtrip":"yes","osmc:symbol":"red:red_round::11:white","name:sr-Latn":"Staza br. 18: Ječmište – vrh Bandera (Tornik)"},"15720466":{"ref":"5-12-12","name":"Стаза бр. 1: Негбина - Караула","type":"route","route":"hiking","ascent":"450","source":"pss_staze","descent":"450","name:sr":"Стаза бр. 1: Негбина - Караула","network":"rwn","website":"https://pss.rs/terenipp/staza-br-1-negbina-karaula/","distance":"14.1 km","operator":"Omorika PD","roundtrip":"yes","osmc:symbol":"red:red_round::12:white","name:sr-Latn":"Staza br. 1: Negbina – Karaula"},"15731914":{"ref":"5-12-13","name":"Стаза бр. 3: Љубиш - Муртеница","note":"недостаје operator биће унешен","type":"route","route":"hiking","ascent":"810","source":"pss_staze","descent":"810","name:sr":"Стаза бр. 3: Љубиш - Муртеница","network":"rwn","website":"https://pss.rs/terenipp/staza-br-3-ljubis-murtenica/","distance":"18.1 km","roundtrip":"yes","osmc:symbol":"red:red_round::13:white","name:sr-Latn":"Staza br. 3: Ljubiš – Murtenica"},"15745815":{"ref":"5-12-14","name":"Стаза бр. 7 - Семегњево - Савино Брдо","note":"недостаје operator, биће унешен","type":"route","route":"hiking","ascent":"460","source":"pss_staze","descent":"460","name:sr":"Стаза бр. 7 - Семегњево - Савино Брдо","network":"rwn","website":"https://pss.rs/terenipp/staza-br-7-semegnjevo-savino-brdo/","distance":"14.4 km","roundtrip":"yes","osmc:symbol":"red:red_round::14:white","name:sr-Latn":"Staza br. 7: Semegnjevo – Savino Brdo"},"15772472":{"ref":"5-12-15","name":"Стаза бр. 8: Семегњево - Виогор","note":"недостаје operator, биће унешен","type":"route","route":"hiking","ascent":"680","source":"pss_staze","descent":"680","name:sr":"Стаза бр. 8: Семегњево - Виогор","network":"rwn","website":"https://pss.rs/terenipp/staza-br-8-semegnjevo-viogor/","distance":"17.2 km","roundtrip":"yes","osmc:symbol":"red:red_round::15:white","name:sr-Latn":"Staza br. 8: Semegnjevo – Viogor"},"15777952":{"ref":"5-12-16","name":"Стаза бр. 9: Чавловац - Кобиља глава","note":"недостаје operator, биће унешен","type":"route","route":"hiking","ascent":"550","source":"pss_staze","descent":"550","name:sr":"Стаза бр. 9: Чавловац - Кобиља глава","network":"rwn","website":"https://pss.rs/terenipp/staza-br-9-cavlovac-kobilja-glava/","distance":"13.8 km","roundtrip":"yes","osmc:symbol":"red:red_round::16:white","name:sr-Latn":"Staza br. 9: Čavlovac – Kobilja glava"},"15786003":{"ref":"5-12-17","name":"Стаза бр. 10: Семегњево - Лечића врх","note":"недостаје operator, биће унешен","type":"route","route":"hiking","ascent":"730","source":"pss_staze","descent":"730","name:sr":"Стаза бр. 10: Семегњево - Лечића врх","network":"rwn","website":"https://pss.rs/terenipp/staza-br-10-semegnjevo-lecica-vrh/","distance":"15.5 km","roundtrip":"yes","osmc:symbol":"red:red_round::17:white","name:sr-Latn":"Staza br. 10: Semegnjevo – Lečića vrh"},"15790126":{"ref":"5-12-18","name":"Стаза бр. 12: Доброселица - Марића стена","note":"недостаје operator, биће унешен","type":"route","route":"hiking","ascent":"630","source":"pss_staze","descent":"630","name:sr":"Стаза бр. 12: Доброселица - Марића стена","network":"rwn","website":"https://pss.rs/terenipp/staza-br-12-dobroselica-marica-stena/","distance":"15.1 km","roundtrip":"yes","osmc:symbol":"red:red_round::18:white","name:sr-Latn":"Staza br. 12: Dobroselica – Marića stena"},"15793365":{"ref":"5-12-19","name":"Стаза бр. 13: Стубло - Омарски поток","note":"недостаје operator, биће унешен","type":"route","route":"hiking","ascent":"520","source":"pss_staze","descent":"520","name:sr":"Стаза бр. 13: Стубло - Омарски поток","network":"rwn","website":"https://pss.rs/terenipp/19291/","distance":"9 km","roundtrip":"yes","osmc:symbol":"red:red_round::19:white","name:sr-Latn":"Staza br. 13: Stublo – Omarski potok"},"15796504":{"ref":"5-12-20","name":"Стаза бр. 17: Доње Село - Дубрава","note":"недостаје operator, биће унешен","type":"route","route":"hiking","ascent":"630","source":"pss_staze","descent":"630","name:sr":"Стаза бр. 17: Доње Село - Дубрава","network":"rwn","website":"https://pss.rs/terenipp/staza-br-17-donje-selo-dubrava/","distance":"14.9 km","roundtrip":"yes","osmc:symbol":"red:red_round::20:white","name:sr-Latn":"Staza br. 17: Donje Selo – Dubrava"},"15801273":{"ref":"5-12-21","name":"Стаза бр. 19: Рибница - Лиска","note":"недостаје operator, биће унешен","type":"route","route":"hiking","ascent":"570","source":"pss_staze","descent":"570","name:sr":"Стаза бр. 19: Рибница - Лиска","network":"rwn","website":"https://pss.rs/terenipp/staza-br-19-ribnica-liska/","distance":"12.9 km","roundtrip":"yes","osmc:symbol":"red:red_round::21:white","name:sr-Latn":"Staza br. 19: Ribnica – Liska"},"15817623":{"ref":"5-12-22","name":"Стаза бр. 20: Семегњево - Лупоглав","note":"недостаје operator, биће унешен","type":"route","route":"hiking","ascent":"480","source":"pss_staze","descent":"480","name:sr":"Стаза бр. 20: Семегњево - Лупоглав","network":"rwn","website":"https://pss.rs/terenipp/staza-br-20-semegnjevo-lupoglav/","distance":"13.3 km","roundtrip":"yes","osmc:symbol":"red:red_round::22:white","name:sr-Latn":"Staza br. 20: Semegnjevo – Lupoglav"},"15978884":{"to":"Garnavica","from":"Ilino","name":"Ilino – Garnavica","type":"route","route":"hiking","symbol":"white dot in red circle","network":"lwn","complete":"no","osmc:symbol":"red:red_circle:white_dot","wiki:symbol":"Ring_rot.svg"},"15978885":{"name":"Red way","type":"route","route":"hiking","symbol":"white dot in red circle","network":"lwn","osmc:symbol":"red:red_circle:white_dot","wiki:symbol":"Ring_rot.svg"},"16028424":{"name":"Red way","type":"route","route":"hiking","symbol":"white dot in red circle","network":"lwn","osmc:symbol":"red:red_circle:white_dot","wiki:symbol":"Ring_rot.svg"},"16066347":{"name":"Red way","type":"route","route":"hiking","symbol":"white dot in red circle","network":"lwn","osmc:symbol":"red:red_circle:white_dot","wiki:symbol":"Ring_rot.svg"},"16088826":{"to":"Градина","ref":"E4-13","via":"Бабин зуб","from":"Кривељ – Градина","name":"E4: Кривељ","note":"https://wiki.openstreetmap.org/wiki/Serbia/Beleske/Evropski_pesacki_putevi","type":"route","route":"hiking","length":"108,5","source":"Branislav Božović & Boris Mićić & Momčilo Vuković & Veroljub Kovačević: Durch Serbien mit leichtem Schritt. Wanderwege E4 und E7. Hrsg.: European Ramblers Association. Planinarski Savez Srbije. Belgrad 2011.","name:de":"E4: Jalovik izvor – Gradina","name:sr":"E4: Jalovik izvor – Gradina","network":"iwn","website":"https://pss.rs/terenipp/jalovik-izvor-gradina-granica-sa-bugarskom/","complete":"no","operator":"Planinarski savez Srbije (PSS)","wikidata":"Q151658","wikipedia":"en:E4 European long distance path","osmc:symbol":"blue:blue::E4:yellow","wiki:symbol":"E 4 sign.jpg","name:sr-Latn":"E4: Jalovik izvor – Gradina"}}