{"86438":{"ref":"POT","name":"Pot spominov in tovarištva","type":"route","route":"foot","ascent":"152 m","colour":"#008000","bicycle":"yes","descent":"152 m","name:de":"Weg der Erinnerungen und der Kameradschaft","name:en":"Path of remembrance and comradeship","name:it":"Il Sentiero delle rimembranze e della solidarietà","name:sl":"Pot spominov in tovarištva","network":"lwn","website":"https://www.visitljubljana.com/sl/obiskovalci/nacrtujte-svoj-obisk/pohodne-poti/pot-spominov-in-tovaristva-2/","distance":"32500 m","wikidata":"Q2363829","roundtrip":"yes","wikipedia":"sl:Pot spominov in tovarištva","short_name":"PST","start_date":"1985","signed_direction":"no"},"1424317":{"ref":"1","name":"Gozdna učna pot Bojtina (učna pot)","type":"route","route":"foot","osmc:symbol":"blue:blue_circle:yellow_dot"},"3896050":{"ref":"1","name":"Slovenska planinska pot","type":"route","route":"foot","operator":"PZS"},"7389262":{"ref":"SI-W","name":"Postojna via Snežnik do Prezida","type":"route","route":"foot","name:en":"Postojna via Snežnik to Prezid","network":"lwn"},"14256335":{"ref":"B4","name":"Pot iz Slog v Log","type":"route","route":"foot","ascent":"194","network":"lwn","website":"https://lasko.info/aktivnosti/b4-pot-iz-slog-v-log/","distance":"5.9","description":"Pot po trasi stare železnice"}}