{"192031":{"to":"Vyšný Komárnik","ref":"E8","from":"Petržalka","name":"European long distance path E8 - part Slovakia","type":"route","route":"hiking","name:de":"Europäischer Fernwanderweg E8, Slowakei","name:en":"European long distance path E8 - part Slovakia","name:pl":"Europejski długodystansowy szlak pieszy E8 - część Słowacja","name:sk":"Medzinárodná diaľková turistická trasa E8, Slovensko","network":"iwn","website":"http://www.era-ewv-ferp.com/index.php?topmenu_id=29&id=29&page_id=112&module=text","complete":"yes","operator":"European Ramblers Association","wikidata":"Q106129138","operator:sk":"Klub slovenských turistov","osmc:symbol":":blue::E8:yellow","description:sk":"Atlantik - Porýnie - Podunajsko - Karpaty - Rila - Rodopi - Bosporus","related:wikipedia":"en:E8 European long distance path"},"253206":{"ref":"2270","name":"[M] Hutisko - Kasárne","type":"route","route":"hiking","network":"rwn","complete":"no","kct_blue":"major","operator":"cz:KČT","osmc:symbol":"blue:white:blue_bar","destinations":"Hutisko - Kasárne"},"276594":{"name":"Timravin chodník","type":"route","route":"hiking","colour":"red","symbol":"local","network":"lwn","complete":"yes","operator":"KST","description":"Okružná turistická trasa Políchno-Timrava-Políchno","osmc:symbol":"red:white:red_corner"},"326280":{"ref":"0804b","name":"Rudná magistrála","type":"route","route":"hiking","colour":"red","symbol":"major","network":"nwn","complete":"yes","operator":"KST","wikidata":"Q9323741","description":"Nová Baňa, stanica - Sedlo Lachtriská","osmc:symbol":"red:white:red_bar"},"366546":{"name":"Náučný chodník Ipeľ","type":"route","route":"hiking","colour":"green","symbol":"education","network":"lwn","complete":"no","operator":"Enel","description":"Kokava, Háj - Šoltýska - Ďubákovo","osmc:symbol":"green:white:green_backslash"},"376307":{"ref":"0706a","name":"Ponitrianska magistrála","type":"route","route":"hiking","colour":"red","symbol":"major","network":"nwn","complete":"yes","operator":"KST","wikidata":"Q24877737","description":"Nitra, kasárne - Zlatno","osmc:symbol":"red:white:red_bar"},"389034":{"ref":"0707","name":"Rudná magistrála","type":"route","route":"hiking","symbol":"major","network":"nwn","complete":"yes","operator":"KST","wikidata":"Q9323741","description":"Zlaté Moravce, stanica - Veľký Inovec, vyhliadka","osmc:symbol":"red:white:red_bar"},"538368":{"to":"Dobrá Voda","ref":"0701f","from":"Brezinky, chata","name":"Štefánikova magistrála","type":"route","route":"hiking","ascent":"821","colour":"red","symbol":"major","descent":"914","network":"nwn","complete":"yes","distance":"22,6 km","operator":"KST","wikidata":"Q9351791","wikipedia":"sk:Štefánikova magistrála","description":"Brezinky,chata - Dobrá Voda","osmc:symbol":"red:white:red_bar"},"538370":{"ref":"0701e","name":"Štefánikova magistrála","type":"route","route":"hiking","colour":"red","symbol":"major","network":"nwn","complete":"yes","operator":"KST","wikidata":"Q9351791","description":"Sedlo Skalka - Brezinky, chata","osmc:symbol":"red:white:red_bar"},"538371":{"ref":"0701d","name":"Štefánikova magistrála","type":"route","route":"hiking","colour":"red","symbol":"major","network":"nwn","complete":"yes","operator":"KST","wikidata":"Q9351791","description":"Pezinská Baba - Sedlo Skalka","osmc:symbol":"red:white:red_bar"},"538372":{"ref":"0701c","name":"Štefánikova magistrála","type":"route","route":"hiking","colour":"red","symbol":"major","network":"nwn","complete":"yes","operator":"KST","wikidata":"Q9351791","description":"Biely kríž - Pezinská Baba","osmc:symbol":"red:white:red_bar"},"540016":{"ref":"0702","name":"Chodník Jurka Szomolanyiho","type":"route","route":"hiking","colour":"red","symbol":"major","network":"nwn","complete":"yes","operator":"KST","wikidata":"Q12777865","wikipedia":"sk:Turistická značkovaná trasa číslo 0702","description":"Vojenská nemocnica - Košarisko","osmc:symbol":"red:white:red_bar"},"546406":{"name":"Lesnícky náučný chodník Bolešov - Krivoklát","type":"route","route":"hiking","colour":"green","symbol":"education","network":"lwn","complete":"yes","osmc:symbol":"green:white:green_backslash"},"555705":{"name":"Trnavská stovka","type":"route","route":"foot","complete":"yes"},"568998":{"name":"Lesný náučný chodník Zabíjaná","type":"route","route":"hiking","colour":"green","symbol":"education","network":"lwn","website":"http://past.slspo.sk/skolske-hospodarstvo/naucne-chodniky/","complete":"yes","operator":"SLŠ Prešov","osmc:symbol":"green:white:green_backslash"},"569003":{"name":"Čertov kameň","type":"route","route":"hiking","colour":"red","symbol":"interesting_object","network":"lwn","complete":"yes","description":"ojedinelý blok žilného kremeňa","osmc:symbol":"red:white:red_turned_T"},"569510":{"ref":"8114","name":"Chodník Rudolfa Drozda","type":"route","route":"hiking","colour":"yellow","symbol":"major","network":"rwn","complete":"yes","operator":"KST","osmc:name":"Nové Mesto nad Váhom - Čachtický hrad","description":"Nové Mesto nad Váhom - Čachtický hrad","osmc:symbol":"yellow:white:yellow_bar"},"570575":{"ref":"0773","name":"Záhorácka magistrála","type":"route","route":"hiking","colour":"red","symbol":"major","network":"nwn","complete":"yes","operator":"KST","wikidata":"Q25108275","description":"Lakšárska Nová Ves - Závod, zast.","osmc:symbol":"red:white:red_bar"},"570576":{"ref":"0772","name":"Záhorácka magistrála","note":"red","type":"route","route":"hiking","colour":"red","symbol":"major","network":"nwn","complete":"yes","operator":"KST","wikidata":"Q25108275","description":"Senica nad Myjavou, stanica - Lakšárska Nová Ves","osmc:symbol":"red:white:red_bar"},"571363":{"ref":"2428","name":"Chodník Ľudovíta Štúra","type":"route","route":"hiking","colour":"blue","symbol":"major","network":"rwn","complete":"yes","operator":"KST","description":"Modra, cintorín - Veľká homoľa","osmc:symbol":"blue:white:blue_bar"},"571381":{"ref":"5107","name":"Chodník Jána Hollého","type":"route","route":"hiking","colour":"green","symbol":"major","network":"rwn","complete":"yes","operator":"KST","description":"Hradište pod Vrátnom - Pustá Ves, pam. SNP","osmc:symbol":"green:white:green_bar"},"572165":{"ref":"0770","name":"Záhorácka magistrála","type":"route","route":"hiking","colour":"red","symbol":"major","network":"nwn","complete":"yes","operator":"KST","wikidata":"Q25108275","description":"Skalica, stanica - Vrbovce, rozc.","osmc:symbol":"red:white:red_bar"},"572166":{"ref":"8166","name":"(Ž) Skalica, stanica - Skalica, nám.","type":"route","route":"hiking","colour":"yellow","symbol":"major","network":"rwn","complete":"yes","operator":"KST","description":"Skalica, stanica - Skalica, nám.","osmc:symbol":"yellow:white:yellow_bar"},"897982":{"ref":"7589","name":"[Ž] Popov (žst.) - Pod Okršliskom (CZ/SK)","note":"yellow hiking","type":"route","route":"hiking","network":"nwn","complete":"yes","operator":"cz:KČT","kct_yellow":"major","osmc:symbol":"yellow:white:yellow_bar","destinations":"Popov žst.;Brumov Bylnice;Pod Okršliskom"},"906674":{"ref":"0913","name":"Rudná magistrála","type":"route","route":"hiking","colour":"red","symbol":"major","network":"nwn","complete":"yes","operator":"KST","wikidata":"Q9323741","description":"Studňa na Muránskej planine - Stolica","osmc:symbol":"red:white:red_bar"},"944472":{"name":"Duchovná cesta Štóske sedlo","type":"route","route":"hiking","colour":"yellow","symbol":"local","network":"lwn","complete":"yes","operator":"OÚ Smolník","description":"Kostol svetej Kataríny - Námestie Smolník","osmc:symbol":"red:white:red_corner"},"1100334":{"ref":"0852b","name":"Chodník Martina Kukučína","type":"route","route":"hiking","colour":"red","symbol":"major","network":"nwn","complete":"yes","operator":"KST","description":"Veľký Choč - Jasenová","osmc:symbol":"red:white:red_bar","name:etymology:wikidata":"Q1384769"},"1105509":{"name":"Náučný chodník Lakšárska Nová Ves – Tomky","type":"route","route":"hiking","colour":"green","symbol":"education","network":"lwn","website":"http://naucnechodniky.eu/laksarska-nova-ves-tomky/","complete":"yes","description":"Lakšárska Nová Ves - Tomky, chaty","osmc:symbol":"green:white:green_backslash"},"1106848":{"ref":"2665","name":"Chodník Andreja Kmeťa","type":"route","route":"hiking","colour":"blue","symbol":"major","network":"rwn","complete":"yes","operator":"KST","wikidata":"Q25107798","description":"Prenčov - Bzenica","osmc:symbol":"blue:white:blue_bar"},"1110214":{"ref":"5422b","name":"Huculská magistrála","type":"route","route":"hiking","colour":"green","symbol":"major","network":"rwn","complete":"yes","operator":"KST","description":"Fabova hoľa-sedlo Burda-Tisovec, stanica","osmc:symbol":"green:white:green_bar"},"1110216":{"ref":"0804l","name":"Rudná magistrála","type":"route","route":"hiking","colour":"red","symbol":"major","network":"nwn","complete":"yes","operator":"KST","wikidata":"Q9323741","description":"Zbojská-Studňa na Muránskej Planine","osmc:symbol":"red:white:red_bar"},"1110217":{"ref":"0804k","name":"Rudná magistrála","type":"route","route":"hiking","colour":"red","symbol":"major","network":"nwn","complete":"yes","operator":"KST","wikidata":"Q9323741","description":"Tlstý javor-Klenovský Vepor-Zbojská","osmc:symbol":"red:white:red_bar"},"1116993":{"ref":"0804j","name":"Rudná magistrála","type":"route","route":"hiking","colour":"red","symbol":"major","network":"nwn","complete":"yes","operator":"KST","wikidata":"Q9323741","description":"Sedlo pod Hrbom, chata - Hronček - Tlstý javor","osmc:symbol":"red:white:red_bar"},"1118942":{"ref":"9083","name":"Náučný chodník Stratený Budzogáň","type":"route","route":"hiking","symbol":"education","network":"lwn","complete":"yes","operator":"KST","description":"Rajecké Teplice - Žibrid","osmc:symbol":"green:white:green_backslash"},"1126871":{"ref":"0918a","name":"Východokarpatská magistrála","type":"route","route":"hiking","colour":"red","symbol":"major","network":"nwn","complete":"yes","operator":"KST","wikidata":"Q25482025","description":"Nová Sedlica - Riaba skala","osmc:symbol":"red:white:red_bar"},"1132402":{"name":"náučný chodník Pukanec","type":"route","route":"hiking","symbol":"education","network":"lwn","operator":"Terra Bannensium","osmc:symbol":"green:white:green_backslash"},"1140812":{"ref":"43","name":"Náučný chodník Boky","type":"route","route":"hiking","colour":"green","symbol":"education","network":"lwn","complete":"yes","distance":"5.1","operator":"Štátna ochrana prírody Slovenskej Republiky","roundtrip":"no","osmc:symbol":"green:white:green_backslash"},"1143080":{"ref":"0706b","name":"Ponitrianska magistrála","type":"route","route":"hiking","colour":"red","symbol":"major","network":"nwn","complete":"yes","operator":"KST","wikidata":"Q24877737","description":"Zlatno - Veľké Pole","osmc:symbol":"red:white:red_bar"},"1156593":{"name":"Náučný chodník - J. D. Matejovie","type":"route","route":"hiking","colour":"green","symbol":"education","network":"lwn","complete":"no","operator":"Lesy S.R.","wikidata":"Q67284442","osmc:symbol":"green:white:green_backslash"},"1208331":{"ref":"0771","name":"Záhorácka magistrála","type":"route","route":"hiking","colour":"red","symbol":"major","network":"nwn","complete":"yes","operator":"KST","wikidata":"Q25108275","wikipedia":"sk:Záhorácka magistrála","description":"Vrbovce, štátna hranica - Senica nad Myjavou, stanica","osmc:symbol":"red:white:red_bar"},"1208337":{"ref":"8123","name":"Chodník Karla Domina","type":"route","route":"hiking","colour":"yellow","symbol":"major","network":"rwn","complete":"yes","operator":"KST","wikidata":"Q16519049","wikipedia":"sk:Turistická značkovaná trasa číslo 8123","description":"Piešťany, žel. stanica - Čertova pec, motorest","osmc:symbol":"yellow:white:yellow_bar"},"1208342":{"ref":"2442","name":"Chodník sv. Cyrila a Metoda","type":"route","route":"hiking","colour":"blue","symbol":"major","network":"rwn","complete":"yes","operator":"KST","pilgrimage":"yes","description":"Piešťany, kolonádový most - Podhradie","osmc:symbol":"blue:white:blue_bar"},"1208354":{"ref":"0930","name":"Tatranská magistrála","type":"route","route":"hiking","colour":"red","symbol":"major","name:hu":"Magisztrálé","name:pl":"Magistrala Tatrzańska","network":"nwn","complete":"yes","operator":"TANAP","wikidata":"Q723089","wikipedia":"sk:Tatranská magistrála","alt_name:hu":"Felső-turistaút","description":"Podbanské - Veľké Biele pleso","osmc:symbol":"red:white:red_bar"},"1230232":{"name":"Najväčší strom gaštana jedlého na Slovensku","type":"route","route":"hiking","symbol":"education","complete":"yes","operator":"OZ Červenokamenské panstvo","description":"Starý Gaštan, chránený strom"},"1236002":{"name":"Náučný chodník Beckovské Skalice","type":"route","route":"hiking","colour":"green","symbol":"education","network":"lwn","complete":"no","osmc:symbol":"green:white:green_backslash"},"1236003":{"name":"Včelársky náučný chodník J.M. Hurbana","type":"route","route":"hiking","symbol":"education","network":"lwn","complete":"yes","operator":"Tibor Valovič","osmc:symbol":"green:white:green_backslash"},"1252026":{"ref":"0918j","name":"Východokarpatská magistrála","type":"route","route":"hiking","colour":"red","symbol":"major","network":"nwn","complete":"yes","operator":"KST","wikidata":"Q25482025","description":"Obručné - Minčol","osmc:symbol":"red:white:red_bar"},"1252537":{"name":"Náučný chodník Vasiľovská hoľa","type":"route","route":"hiking","symbol":"education","network":"lwn","complete":"yes","operator":"Koliba u Kuba","osmc:symbol":"green:white:green_backslash"},"1261618":{"name":"Chodník zvedavých myšiek","type":"route","route":"hiking","symbol":"education","network":"lwn","complete":"yes","osmc:symbol":"green:white:green_backslash"},"1262718":{"name":"Lesný náučný chodník Tajch - Veľký okruh","type":"route","route":"hiking","symbol":"education","network":"lwn","complete":"no","operator":"Lesy SR","osmc:symbol":"green:white:green_backslash"},"1272893":{"ref":"0870","name":"Veľkofatranská magistrála","type":"route","route":"hiking","colour":"red","symbol":"major","network":"nwn","complete":"yes","operator":"KST","wikidata":"Q67287179","description":"Ľubochnianske sedlo - Krížna","osmc:symbol":"red:white:red_bar"},"1280565":{"name":"Náučný chodník Horné lúky","type":"route","route":"hiking","symbol":"education","network":"lwn","complete":"no","osmc:symbol":"green:white:green_backslash"},"1295809":{"name":"Hermanovský turistický okruh","note":"it used to be blue circular symbol","type":"route","route":"hiking","colour":"red","symbol":"local","network":"lwn","complete":"yes","operator":"KST","osmc:symbol":"red:white:red_corner"},"1347170":{"name":"Náučný chodník \\\"Okolo Vršatca - koruny Bielych Karpát\\\"","type":"route","route":"hiking","colour":"green","symbol":"education","network":"lwn","complete":"yes","osmc:symbol":"green:white:green_backslash"},"1348071":{"ref":"8644","name":"Chodník oslobodenia","type":"route","route":"hiking","colour":"yellow","symbol":"major","network":"rwn","complete":"yes","operator":"KST","description":"Lipovec - Chata na Kľačianskej Magure","osmc:symbol":"yellow:white:yellow_bar"},"1351712":{"ref":"8404","name":"Chodník Zoltána Kissa","type":"route","route":"hiking","colour":"yellow","symbol":"major","network":"rwn","complete":"yes","operator":"KST","description":"Fačkovské sedlo - Kľak","osmc:symbol":"yellow:white:yellow_bar"},"1360374":{"ref":"2724","name":"Chodník Janka Bojmíra","type":"route","route":"hiking","colour":"blue","symbol":"major","network":"rwn","complete":"yes","operator":"KST","description":"Ústie Konského dolu - Ústie Vápennej doliny","osmc:symbol":"blue:white:blue_bar"},"1400283":{"name":"Náučný chodník Ku Kráľovej studni","type":"route","route":"hiking","symbol":"education","network":"lwn","complete":"yes","operator":"OZ Dedinka, Kostoľany nad Hornádom","osmc:symbol":"green:white:green_backslash"},"1439835":{"ref":"5671","name":"Chodník drotárov","type":"route","route":"hiking","colour":"green","symbol":"major","network":"rwn","complete":"yes","operator":"KST","description":"Kolárovice - Dlhé Pole","osmc:symbol":"green:white:green_bar"},"1441256":{"ref":"2681","name":"Cesta Vila Galvánka","type":"route","route":"hiking","colour":"blue","symbol":"major","network":"rwn","complete":"yes","operator":"KST","description":"Kysucké Nové Mesto, nám. - Zákopčie, Majer","osmc:symbol":"blue:white:blue_bar"},"1444498":{"ref":"2675","name":"Cesta Rudolfa Mattera","type":"route","route":"hiking","colour":"blue","symbol":"major","network":"rwn","complete":"yes","operator":"KST","description":"Makov, centrum - Makov, Kopanice","osmc:symbol":"blue:white:blue_bar"},"1475295":{"name":"Okolo Bučieho Lazu","type":"route","route":"hiking","colour":"red","symbol":"local","network":"lwn","complete":"yes","operator":"Obec Juskova Voľa","osmc:symbol":"red:white:red_corner"},"1482238":{"ref":"2620","name":"Chodník Kamila Linharta","type":"route","route":"hiking","colour":"blue","symbol":"major","network":"rwn","complete":"yes","operator":"KST","description":"Banská Bystrica, Tulská - Skalka, rekr. stred.","osmc:symbol":"blue:white:blue_bar"},"1484098":{"ref":"0804d","name":"Rudná magistrála","type":"route","route":"hiking","colour":"red","symbol":"major","network":"nwn","complete":"yes","operator":"KST","wikidata":"Q9323741","description":"Evičkino jazero - Banský Studenec, pod Vŕškom","osmc:symbol":"red:white:red_bar"},"1493097":{"ref":"5721a","name":"Chodník Pavla Jozefa Šafárika","type":"route","route":"hiking","colour":"green","symbol":"major","network":"rwn","complete":"no","operator":"KST","wikidata":"Q25107817","description":"Rožňava - Stolica","osmc:symbol":"green:white:green_bar"},"1516284":{"name":"Povrchový náučný chodník","note":"it is really red despite of standards","type":"route","route":"hiking","colour":"red","symbol":"education","network":"lwn","operator":"Slovenské opálove bane","osmc:symbol":"red:white:red_backslash"},"1520546":{"to":"Ústie Lesnického potoka","ref":"0905","from":"Nižné Ružbachy, kostol","name":"Pieninská cesta","type":"route","route":"hiking","colour":"red","symbol":"major","network":"nwn","complete":"yes","distance":"30,50","operator":"KST","osmc:symbol":"red:white:red_bar"},"1520558":{"ref":"0860","name":"Tatranská magistrála","type":"route","route":"hiking","colour":"red","symbol":"major","name:hu":"Magisztrálé","name:pl":"Magistrala Tatrzańska","network":"nwn","complete":"yes","operator":"KST","wikidata":"Q723089","description":"Na Tokarinách - Podbanské","osmc:symbol":"red:white:red_bar"},"1522216":{"ref":"0804e","name":"Rudná magistrála","type":"route","route":"hiking","colour":"red","symbol":"major","network":"nwn","complete":"yes","operator":"KST","wikidata":"Q9323741","description":"Banský Studenec, pod Vŕškom - Zaježová OcÚ","osmc:symbol":"red:white:red_bar"},"1536032":{"name":"Vlčí okruh","type":"route","route":"hiking","colour":"yellow","symbol":"local","network":"lwn","complete":"yes","operator":"Obec Juskova Voľa","osmc:symbol":"yellow:white:yellow_corner"},"1537028":{"ref":"8408","name":"Prievidzský okruh","type":"route","route":"hiking","colour":"yellow","symbol":"major","network":"rwn","complete":"yes","operator":"KST","description":"Kopanice, podchody - Kopanice, Lesný park","osmc:symbol":"yellow:white:yellow_bar"},"1539017":{"name":"turisticko-náučný banský chodník","type":"route","route":"hiking","symbol":"education","network":"lwn","website":"http://web.handlova.sk/web/tnbch/","complete":"no","osmc:symbol":"green:white:green_backslash"},"1548003":{"ref":"0708","name":"Chodník Ľ. Štúra a A. Dubčeka","type":"route","route":"hiking","colour":"red","symbol":"major","network":"nwn","complete":"yes","operator":"KST","description":"Uhrovec - Chata Homôlka","osmc:symbol":"red:white:red_bar","name:etymology:wikidata":"Q315222;Q150543"},"1548243":{"name":"Náučný chodník Bojnice/Dubnica - Hradište","type":"route","route":"hiking","symbol":"education","network":"lwn","complete":"no","operator":"OZ Klub Melenčiarov Bojnice-Dubnice","osmc:symbol":"green:white:green_backslash"},"1552726":{"ref":"9860","name":"Náučný chodník Fraňa Madvu","type":"route","route":"hiking","colour":"green","symbol":"education","network":"lwn","complete":"no","osmc:symbol":"green:white:green_backslash"},"1557390":{"ref":"9803N","name":"Kvetnica - Zámčisko - Kvetnica","type":"route","route":"hiking","colour":"green","symbol":"education","network":"lwn","complete":"yes","operator":"KST","osmc:symbol":"green:white:green_backslash"},"1573367":{"ref":"0914","name":"Cesta Márie Széchy","type":"route","route":"hiking","colour":"red","symbol":"major","network":"nwn","complete":"yes","operator":"KST","wikidata":"Q25107816","description":"Chata pod Muránskym hradom - Tŕstie","osmc:symbol":"red:white:red_bar"},"1573368":{"name":"Náučný chodník k Muránskemu hradu","type":"route","route":"hiking","colour":"green","symbol":"education","network":"lwn","complete":"yes","osmc:symbol":"green:white:green_backslash"},"1592122":{"ref":"0804f","name":"Rudná magistrála","type":"route","route":"hiking","colour":"red","symbol":"major","network":"nwn","complete":"yes","operator":"KST","wikidata":"Q9323741","description":"Zaježová OcÚ - Sliačska poľana","osmc:symbol":"red:white:red_bar"},"1613037":{"name":"Banský náučný chodník Pezinok","type":"route","route":"hiking","symbol":"education","network":"lwn","complete":"yes","operator":"Malokarpatský banícky spolok","osmc:symbol":"green:white:green_corner"},"1619732":{"name":"Náučný chodník Kvašná voda","type":"route","route":"hiking","colour":"green","symbol":"education","network":"lwn","complete":"yes","osmc:symbol":"green:white:green_backslash"},"1627613":{"ref":"0804i","name":"Rudná magistrála","type":"route","route":"hiking","colour":"red","symbol":"major","network":"nwn","complete":"yes","operator":"KST","wikidata":"Q9323741","description":"Sedlo Jasenová - Sedlo pod Hrbom, chata","osmc:symbol":"red:white:red_bar"},"1632838":{"ref":"0870a","name":"Veľkofatranská magistrála","type":"route","route":"hiking","colour":"red","symbol":"major","network":"nwn","complete":"yes","operator":"KST","wikidata":"Q67287179","description":"Ľubochňa - Ľubochnianske sedlo","osmc:symbol":"red:white:red_bar"},"1642271":{"name":"Lesný náučný chodník Tajch - Detský okruh","type":"route","route":"hiking","symbol":"education","network":"lwn","complete":"yes","operator":"Lesy SR","osmc:symbol":"green:white:green_backslash"},"1662403":{"name":"Bežecké chodníky na Kramároch","type":"route","FIXME":"divna relacia","route":"hiking"},"1688539":{"name":"Náučný chodník Klepáč","type":"route","route":"hiking","colour":"red","symbol":"education","network":"lwn","complete":"yes","operator":"Mesto Trenčianske Teplice","educational":"yes","osmc:symbol":"red:white:red_backslash"},"1689362":{"ref":"5720","name":"Chodník Pavla Jozefa Šafárika","type":"route","route":"hiking","colour":"green","symbol":"major","network":"rwn","complete":"yes","operator":"KST","wikidata":"Q25107817","description":"Rožňava - Nálepkovo, stanica","osmc:symbol":"green:white:green_bar"},"1691231":{"ref":"0804g","name":"Rudná magistrála","type":"route","route":"hiking","colour":"red","symbol":"major","network":"nwn","complete":"yes","operator":"KST","wikidata":"Q9323741","description":"Sliačska poľana - Detva, stanica","osmc:symbol":"red:white:red_bar"},"1691232":{"ref":"0804h","name":"Rudná magistrála","type":"route","route":"hiking","colour":"red","symbol":"major","network":"nwn","complete":"yes","operator":"KST","wikidata":"Q9323741","description":"Detva, stanica - Sedlo Jasenová","osmc:symbol":"red:white:red_bar"},"1692063":{"name":"Náučný chodník Juráňova dolina","type":"route","route":"hiking","colour":"green","symbol":"education","network":"lwn","complete":"yes","osmc:symbol":"green:white:green_backslash"},"1693067":{"ref":"0805","name":"Cesta Márie Széchy","type":"route","route":"hiking","colour":"red","symbol":"major","network":"nwn","complete":"yes","operator":"KST","wikidata":"Q25107816","description":"Fiľakovo, stanica - Tŕstie","osmc:symbol":"red:white:red_bar"},"1694310":{"name":"Zlatobanský náučný chodník","type":"route","route":"hiking","colour":"green","symbol":"education","network":"lwn","complete":"yes","operator":"Zlatá Baňa","description":"Zlatobanský náučný chodník","osmc:symbol":"green:white:green_backslash"},"1694394":{"ref":"0816","name":"Partizánska cesta","type":"route","route":"hiking","colour":"red","symbol":"major","network":"nwn","complete":"yes","operator":"KST","description":"Nemecká - Mýto pod Ďumbierom","osmc:symbol":"red:white:red_bar"},"1697334":{"ref":"8163","name":"Chodník Viktora Beniaka","type":"route","route":"hiking","colour":"yellow","symbol":"major","network":"rwn","complete":"yes","operator":"KST","description":"Kunov, ihrisko - Podbranč, Majer","osmc:symbol":"yellow:white:yellow_bar"},"1702821":{"ref":"2819","name":"Chodník Horskej služby","type":"route","route":"hiking","colour":"blue","symbol":"major","network":"rwn","complete":"yes","operator":"KST","description":"Podlesok, ATC - Pod Tomašovským výhľadom","osmc:symbol":"blue:white:blue_bar"},"1704445":{"ref":"0815","name":"Partizánsky chodník","type":"route","route":"hiking","colour":"red","symbol":"major","network":"nwn","complete":"yes","operator":"KST","description":"Špania dolina - Staré Hory, pri kaplnke","osmc:symbol":"red:white:red_bar"},"1705721":{"ref":"8621","name":"Prostredná poľana – Račkovo sedlo","type":"route","route":"hiking","colour":"yellow","symbol":"major","network":"rwn","complete":"yes","operator":"KST","description":"Rázcestie Jamnickej a Račkovej doliny - Račkovo sedlo","osmc:symbol":"yellow:white:yellow_bar"},"1705988":{"ref":"8772","name":"Veľký sokol","type":"route","route":"hiking","colour":"yellow","symbol":"major","network":"rwn","complete":"yes","operator":"KST","description":"Sokol, horáreň - Glacká cesta","osmc:symbol":"yellow:white:yellow_bar"},"1706933":{"ref":"2604","name":"Chodník Petra Školnu","type":"route","route":"hiking","colour":"blue","symbol":"major","network":"rwn","complete":"yes","operator":"KST","description":"Bystričany - Vtáčnik","osmc:symbol":"blue:white:blue_bar"},"1707110":{"name":"Náučný chodník Remetské Hámre - Morské oko","type":"route","route":"hiking","colour":"green","symbol":"education","network":"lwn","osmc:symbol":"green:white:green_backslash"},"1707117":{"name":"Náučný chodník Zádielska tiesňava","type":"route","route":"hiking","colour":"green","symbol":"education","network":"lwn","complete":"yes","operator":"KST","osmc:symbol":"green:white:green_backslash"},"1707120":{"name":"Náučný chodník Jasovská skala","type":"route","route":"hiking","colour":"green","symbol":"education","network":"lwn","complete":"yes","osmc:symbol":"green:white:green_backslash"},"1707132":{"name":"Náučný chodník Kameňolom Mačacia","type":"route","route":"hiking","colour":"green","symbol":"education","network":"lwn","osmc:symbol":"green:white:green_backslash"},"1707133":{"name":"Náučný chodník Šomoška","type":"route","route":"hiking","colour":"green","symbol":"education","network":"lwn","operator":"KST","osmc:symbol":"green:white:green_backslash"},"1707136":{"name":"Náučný chodník Čajkovské bralie","type":"route","route":"hiking","colour":"green","symbol":"education","network":"lwn","osmc:symbol":"green:white:green_backslash"},"1707147":{"name":"Náučný chodník Kováčovské kopce - juh","type":"route","route":"hiking","colour":"green","symbol":"education","network":"lwn","osmc:symbol":"green:white:green_backslash"},"1707155":{"name":"Náučný chodník Bratislavské luhy","type":"route","route":"hiking","colour":"green","symbol":"education","network":"lwn","osmc:symbol":"green:white:green_backslash"},"1707161":{"name":"Náučný chodník Kamenná Baba - Lačnov","type":"route","route":"hiking","colour":"green","symbol":"education","network":"lwn","osmc:symbol":"green:white:green_backslash"},"1707162":{"name":"Náučný chodník Prielom Hornádu","type":"route","route":"hiking","colour":"green","symbol":"education","name:hu":"Hernád-áttörés tanösvény","network":"lwn","complete":"yes","osmc:symbol":"green:white:green_backslash"},"1707165":{"name":"Náučný chodník Slovenský raj - juh","type":"route","route":"hiking","colour":"green","symbol":"education","network":"lwn","osmc:symbol":"green:white:green_backslash"},"1707168":{"name":"Náučný chodník Súľovské skaly","type":"route","route":"hiking","colour":"green","symbol":"education","network":"lwn","wikidata":"Q112865615","educational":"yes","osmc:symbol":"green:white:green_backslash"},"1707174":{"name":"Náučný chodník k prameňu Ipľa","type":"route","route":"hiking","colour":"green","symbol":"education","network":"lwn","osmc:symbol":"green:white:green_backslash"},"1707179":{"name":"Náučný chodník Sitno","type":"route","route":"hiking","colour":"green","symbol":"education","network":"lwn","complete":"yes","osmc:symbol":"green:white:green_backslash"},"1707182":{"name":"Náučný chodník Janka Miklasa","type":"route","route":"hiking","colour":"green","symbol":"education","network":"lwn","complete":"yes","osmc:symbol":"green:white:green_backslash"},"1707190":{"name":"Náučný chodník Prosiecka a Kvačianska dolina","type":"route","route":"hiking","colour":"green","symbol":"education","network":"lwn","osmc:symbol":"none"},"1707931":{"name":"Náučný chodník Roháčske plesá","type":"route","route":"hiking","colour":"green","symbol":"education","network":"lwn","osmc:symbol":"green:white:green_backslash"},"1707933":{"name":"Náučný chodník Červený most - Železná studienka - Kamzík","type":"route","route":"hiking","colour":"green","symbol":"education","network":"lwn","educational":"yes","osmc:symbol":"green:white:green_backslash"},"1707941":{"name":"Náučný chodník Smolenický kras","type":"route","route":"hiking","colour":"green","symbol":"education","network":"lwn","osmc:symbol":"green:white:green_backslash"},"1707943":{"name":"Náučný chodník Majdan","type":"route","route":"hiking","colour":"green","symbol":"education","network":"lwn","website":"http://www.horneoresany.sk/naucny-chodnik/","osmc:symbol":"green:white:green_backslash"},"1707950":{"name":"Náučný chodník Katarínka","type":"route","route":"hiking","colour":"green","symbol":"education","network":"lwn","complete":"no","osmc:symbol":"green:white:green_backslash"},"1707957":{"name":"Náučný chodník Čierny Balog - Hronec","type":"route","route":"hiking","colour":"green","symbol":"education","network":"lwn","osmc:symbol":"green:white:green_backslash"},"1707965":{"name":"Náučný chodník Stožky","type":"route","route":"hiking","colour":"green","symbol":"education","network":"lwn","osmc:symbol":"green:white:green_backslash"},"1707977":{"name":"Náučný chodník Fiľakovský hrad","type":"route","route":"hiking","network":"lwn","osmc:symbol":"none"},"1707978":{"name":"Náučný chodník K Belianskej jaskyni","type":"route","route":"hiking","colour":"green","symbol":"education","network":"lwn","complete":"yes","osmc:symbol":"green:white:green_backslash"},"1707982":{"name":"Náučný chodník históriou Sobotišťa","type":"route","route":"hiking","colour":"green","symbol":"education","network":"lwn","complete":"no","osmc:symbol":"green:white:green_backslash"},"1707983":{"name":"Náučný chodník Gazárka – Lásek","type":"route","route":"hiking","colour":"green","symbol":"education","network":"lwn","website":"http://naucnechodniky.eu/naucny-chodnik-gazarka-lasek/","osmc:symbol":"green:white:green_backslash"},"1707987":{"name":"Lesnícky náučný chodník Pece - Čertov kopec","type":"route","route":"hiking","colour":"green","symbol":"education","network":"lwn","osmc:symbol":"green:white:green_backslash"},"1707995":{"name":"Náučný chodník K Harmaneckej jaskyni","type":"route","route":"hiking","colour":"green","symbol":"education","network":"lwn","osmc:symbol":"green:white:green_backslash"},"1710190":{"jel":"z","name":"Z (O.h. – Szaladmandra-ház – O.h.)","type":"route","route":"hiking","network":"lwn","operator":"Borsod-Abaúj-Zemplén Megyei Természetjáró Szövetség","ref:MTSZ":"A_08_01","symbol:hu":"zöld sáv","osmc:symbol":"green:white:green_bar"},"1711601":{"name":"Markova skratka","type":"route","route":"hiking","colour":"blue","symbol":"peak","network":"rwn","complete":"no","operator":"KST","osmc:symbol":"blue:white:blue_triangle"},"1733469":{"name":"Náučný banský turistický chodník","type":"route","route":"hiking","colour":"green","oneway":"yes","symbol":"education","network":"lwn","website":"http://naucnechodniky.eu/naucny-bansky-turisticky-chodnik/","complete":"no","operator":"Spolok priateľov bane Nováky","description":"Náučný banský turistický chodník","osmc:symbol":"green:white:green_backslash"},"1735589":{"ref":"5601","name":"Suchá dolina","type":"route","route":"hiking","colour":"green","symbol":"major","network":"rwn","complete":"yes","operator":"KST","description":"Vyšná Revúca - Rybovské sedlo","osmc:symbol":"green:white:green_bar"},"1753624":{"name":"Lesnícky náučný chodník Udava - Solinka","type":"route","route":"hiking","symbol":"education","description":"LNCH Udava - Solinka"},"1764114":{"ref":"9861","name":"Náučný chodník Vtáčnik","type":"route","route":"hiking","symbol":"education","network":"lwn","complete":"yes","operator":"KST","description":"Gepniarova dolina - Vtáčnik","osmc:symbol":"green:white:green_backslash"},"1782802":{"name":"Sivá Brada - Dreveník","type":"route","route":"hiking","colour":"green","symbol":"education","network":"lwn","complete":"no","osmc:symbol":"green:white:green_backslash"},"1810447":{"ref":"0804a","name":"Rudná magistrála","type":"route","route":"hiking","colour":"red","symbol":"major","network":"nwn","complete":"yes","operator":"KST","wikidata":"Q9323741","description":"Veľký Inovec, vyhl. - Nová Baňa, stanica","osmc:symbol":"red:white:red_bar"},"1825101":{"name":"Náučný chodník Slnečné skaly","type":"route","route":"hiking","symbol":"education","network":"lwn","complete":"no","description":"Rajecké Teplice - Porúbka","osmc:symbol":"green:white:green_backslash"},"1833782":{"ref":"0918g","name":"Východokarpatská magistrála","type":"route","route":"hiking","colour":"red","symbol":"major","network":"nwn","complete":"yes","operator":"KST","wikidata":"Q25482025","description":"Sedlo Regetovská voda - Sedlo Cigeľka","osmc:symbol":"red:white:red_bar"},"1840066":{"ref":"0804c","name":"Rudná magistrála","type":"route","route":"hiking","colour":"red","symbol":"major","network":"nwn","complete":"yes","operator":"KST","wikidata":"Q9323741","description":"Sedlo Lachtriská - Evičkino jazero","osmc:symbol":"red:white:red_bar"},"1844955":{"ref":"0904b","name":"Kuriérsky chodník","type":"route","route":"hiking","colour":"red","symbol":"major","network":"nwn","complete":"no","operator":"KST","description":"Stará Ľubovňa - Sulínka, min.prameň","osmc:symbol":"red:white:red_bar"},"1855505":{"ref":"2828","name":"Chodník Arnošta Guldana","type":"route","route":"hiking","colour":"blue","symbol":"major","network":"rwn","complete":"yes","operator":"KST","description":"Teplička nad Hornádom, zastávka - Pod Medveďou hlavou","osmc:symbol":"blue:white:blue_bar"},"1927647":{"name":"Náučný chodník Andreja Kmeťa","type":"route","route":"hiking","colour":"green","symbol":"education","network":"lwn","osmc:symbol":"green:white:green_backslash"},"1948877":{"name":"Náučný chodník Molpír","type":"route","route":"hiking","colour":"grey","symbol":"education","network":"lwn","osmc:symbol":"grey:white:grey_backslash"},"1958859":{"name":"Náučný chodník Milochov","type":"route","route":"hiking","colour":"green","symbol":"education","network":"lwn","complete":"yes","operator":"CVČ PB","educational":"yes","osmc:symbol":"green:white:green_backslash"},"1967940":{"name":"Náučný chodník Ipeľ","type":"route","route":"foot","colour":"green","symbol":"education","network":"lwn","complete":"yes","operator":"Enel","description":"Kokava, Háj - Šoltýska - Ďubákovo","osmc:symbol":"blue:white:green_backslash"},"1981340":{"ref":"E3","name":"European long distance path E3 - part Slovakia","note":"part Slovakia","type":"route","route":"hiking","name:de":"Europäischer Fernwanderweg E3, Slowakei","name:en":"European long distance path E3 - part Slovakia","name:pl":"Europejski długodystansowy szlak pieszy E3 - część Słowacja","name:sk":"Medzinárodná diaľková turistická trasa E3, Slovensko","network":"iwn","website":"http://www.era-ewv-ferp.com/index.php?topmenu_id=29&id=29&page_id=102&module=text","complete":"yes","operator":"European Ramblers Association","wikidata":"Q606415","wikipedia":"sk:Medzinárodná diaľková turistická trasa E3","operator:sk":"Klub slovenských turistov","osmc:symbol":":blue::E3:yellow","wiki:symbol":"E 3 sign.jpg"},"2066380":{"name":"Náučný chodník Domica","type":"route","route":"hiking","colour":"green","symbol":"education","name:en":"Domica educational path","name:hu":"A Domica tanösvény","network":"lwn","complete":"yes","operator":"KST","osmc:symbol":"green:white:green_backslash"},"2078390":{"name":"Lesnícky náučný chodník \\\"Bila hura\\\"","type":"route","route":"hiking","colour":"green","symbol":"education","network":"lwn","complete":"yes","operator":"ZŠ Lúčna","osmc:symbol":"green:white:green_backslash"},"2090995":{"name":"Baranie","type":"route","route":"hiking","network":"lwn","complete":"yes","description":"Čergovský náučný chodník"},"2090996":{"name":"Priehyby","type":"route","route":"hiking","network":"lwn","complete":"yes","description":"Čergovský náučný chodník"},"2090997":{"name":"Tokáreň","type":"route","route":"hiking","network":"lwn","complete":"yes","description":"Čergovský náučný chodník"},"2105693":{"name":"Hanigovská hradná cesta","type":"route","route":"hiking"},"2137400":{"name":"Zelená cesta","type":"route","route":"hiking","colour":"green","symbol":"education","network":"lwn","osmc:symbol":"green:white:green_backslash"},"2181688":{"ref":"8413","name":"Chodník Kolomana Matušku","type":"route","route":"hiking","colour":"yellow","symbol":"major","network":"rwn","complete":"no","operator":"KST","description":"Horný dom - Kláštorská skala","osmc:symbol":"yellow:white:yellow_bar"},"2202703":{"name":"Náučný chodník zbojníka Jakuba Surovca","type":"route","route":"hiking","colour":"green","oneway":"yes","symbol":"education","network":"lwn","complete":"yes","distance":"4.7","operator":"Zbojská s.r.o.","roundtrip":"yes","osmc:symbol":"green:white:green_backslash"},"2244000":{"name":"Lesnícky náučný chodník Sobranecké kúpele","type":"route","route":"hiking","symbol":"education","network":"lwn","complete":"yes","operator":"LESY SR š.p.","start_date":"2011-10-16","osmc:symbol":"green:white:green_backslash"},"2270382":{"name":"Náučný chodník Monkova dolina","type":"route","route":"hiking","symbol":"education","network":"lwn","operator":"KST","description":"Monkova dolina - Široké sedlo - Kopské sedlo","osmc:symbol":"green:white:green_backslash"},"2315645":{"name":"Prielom Muráňa","type":"route","route":"hiking","colour":"green","symbol":"education","network":"lwn","complete":"yes","operator":"KST","osmc:symbol":"green:white:green_backslash"},"2320295":{"name":"Lesnícky skanzen - Vydrovská dolina (Trasa A)","type":"route","route":"hiking","colour":"red","symbol":"education","network":"lwn","complete":"yes","duration":"03:00","operator":"Lesy SR Banská Bystrica","osmc:symbol":"red:white:red_backslash"},"2320296":{"name":"Lesnícky skanzen - Vydrovská dolina (Trasa B)","type":"route","route":"hiking","colour":"green","symbol":"education","network":"lwn","complete":"yes","duration":"02:00","operator":"Lesy SR Banská Bystrica","osmc:symbol":"green:white:green_backslash"},"2320297":{"name":"Lesnícky skanzen - Vydrovská dolina (Trasa C)","type":"route","route":"hiking","colour":"blue","symbol":"education","network":"lwn","complete":"yes","duration":"01:30","operator":"Lesy SR Banská Bystrica","osmc:symbol":"blue:white:blue_backslash"},"2404977":{"ref":"2678b","name":"Gajdošský chodníček","type":"route","route":"hiking","colour":"blue","symbol":"major","network":"rwn","operator":"KST","osmc:symbol":"blue:white:blue_bar","network:type":"rwn"},"2405241":{"name":"Dendrologický náučný chodník","type":"route","route":"hiking","colour":"green","symbol":"education","name:en":"Dendrological (Tree Science) Educational Trail","network":"lwn","website":"http://www.ba-lesy.sk/vismo/dokumenty2.asp?id_org=451035&id=1005&p1=1015","operator":"Mestské lesy v Bratislave","osmc:symbol":"green:white:green_backslash"},"2498805":{"name":"Lesnícky náučný chodník Zubria zvernica","type":"route","route":"hiking","colour":"green","symbol":"education","network":"lwn","osmc:symbol":"green:white:green_backslash"},"2499778":{"name":"Cestujeme v čase! Banská Hodruša (Internetový náučný chodník)","type":"route","route":"hiking","colour":"green","symbol":"education","network":"lwn","complete":"no","osmc:symbol":"green:white:green_backslash"},"2552979":{"name":"Dreviny","type":"route","route":"hiking","symbol":"education","network":"lwn","operator":"KST","osmc:symbol":"green:white:green_backslash"},"2573166":{"name":"Po stopách baníctva v Dobšinej","note":"Strašne zle značený náučný chodník","type":"route","route":"hiking","colour":"green","symbol":"education","network":"lwn","complete":"no","operator":"KST","osmc:symbol":"green:white:green_backslash"},"2596204":{"ref":"5721c","name":"Chodník Pavla Jozefa Šafárika","type":"route","route":"hiking","colour":"green","symbol":"major","network":"rwn","complete":"no","operator":"KST","wikidata":"Q25107817","osmc:symbol":"green:white:green_bar"},"2877612":{"jel":"k+","name":"K+ (Kishuta – Pálháza – Füzérradvány – Füzérkajata – Füzér – Országhatár - OKT)","type":"route","route":"hiking","symbol":"blue cross","network":"lwn","operator":"Borsod-Abaúj-Zemplén Megyei Természetjáró Szövetség","ref:MTSZ":"Z_01_23","symbol:hu":"kék kereszt","osmc:symbol":"blue:white:blue_cross"},"2879560":{"jel":"s4","name":"S4","type":"route","route":"hiking","symbol":"yellow square","network":"lwn","symbol:hu":"sárga négyzet","osmc:symbol":"yellow:white:yellow_rectangle"},"2879562":{"jel":"k4","name":"K■ (Senyánszki-rét – Pusztafalu – oh.)","type":"route","route":"hiking","symbol":"blue square","network":"lwn","operator":"Borsod-Abaúj-Zemplén Megyei Természetjáró Szövetség","ref:MTSZ":"Z_01_24","symbol:hu":"kék négyzet","osmc:symbol":"blue:white:blue_rectangle"},"2910839":{"name":"Vlcinec","type":"route","route":"hiking","colour":"blue","symbol":"peak","network":"lwn","complete":"yes","operator":"KST","osmc:symbol":"blue:white:blue_triangle"},"2927102":{"name":"Chodník do minulosti a k zdraviu","type":"route","route":"hiking","complete":"no","operator":"Občianské združenie Dobrá MyšLIENKA"},"2927103":{"name":"Lesnícky náučný chodník Čierná mláka","type":"route","route":"hiking","colour":"green","symbol":"education","network":"lwn","complete":"no","operator":"KST","osmc:symbol":"green:white:green_backslash"},"2947204":{"ref":"8571","name":"Chodník Mila Urbana","type":"route","route":"hiking","colour":"yellow","symbol":"major","network":"rwn","complete":"yes","operator":"KST","description":"Slaná voda, chata - Markowe Szczawiny, PL","osmc:symbol":"yellow:white:yellow_bar"},"2958479":{"jel":"ste","name":"Szent Erzsébet-út","type":"route","route":"hiking","colour":"red","symbol":"red flower on white background","name:de":"Elisabethpfad","name:en":"The Way of St. Elizabeth","name:hu":"Szent Erzsébet-út","name:pl":"Droga św. Elżbiety","name:sk":"Cesta svätej Alžbety","network":"iwn","website":"https://www.szenterzsebetut.hu/","complete":"yes","operator":"Szent Erzsébet Út Alapítvány","pilgrimage":"yes","osmc:symbol":"red:white:red_flower"},"3000732":{"ref":"0841","name":"Kysucká magistrála","type":"route","route":"hiking","colour":"red","symbol":"major","network":"nwn","complete":"yes","operator":"KST","wikidata":"Q25107876","description":"Korcháňovci - Makov, chata","osmc:symbol":"red:white:red_bar"},"3004940":{"ref":"5721b","name":"Chodník Pavla Jozefa Šafárika","type":"route","route":"hiking","colour":"green","symbol":"major","network":"rwn","complete":"no","operator":"KST","wikidata":"Q25107817","description":"Stolica - Jelšava, námestie","osmc:symbol":"green:white:green_bar"},"3017197":{"ref":"5145","name":"Štefánikova magistrála","type":"route","route":"hiking","colour":"green","symbol":"major","network":"rwn","complete":"yes","operator":"KST","wikidata":"Q9351791","description":"Štefánikova mohyla - Biely kríž","osmc:symbol":"green:white:green_bar"},"3067898":{"name":"Považský hrad","type":"route","route":"hiking","colour":"green","symbol":"education","network":"lwn","complete":"yes"},"3073222":{"ref":"5615","name":"Chodník Zdenka Hochmutha","type":"route","route":"hiking","colour":"green","symbol":"major","network":"nwn","complete":"yes","operator":"KST","description":"Ružomberok, stanica - Predný Čebrať","osmc:symbol":"green:white:green_bar"},"3089705":{"name":"Jánošíkovym chotárom","type":"route","route":"hiking","colour":"green","symbol":"education","network":"lwn","complete":"yes","osmc:symbol":"green:white:green_slash"},"3126678":{"name":"Náučný chodník Čierny Balog","type":"route","route":"hiking","colour":"green","symbol":"education","network":"lwn","complete":"yes","operator":"Obec Čierny Balog","description":"Náučný chodník históriou a tradíciami","osmc:symbol":"green:white:green_backslash"},"3155058":{"name":"Spišská Magura","type":"route","route":"hiking","operator":"KST"},"3224881":{"name":"Regetovské rašelinisko","type":"route","route":"hiking","colour":"green","symbol":"education","network":"lwn","complete":"no","operator":"KST","osmc:symbol":"green:white:green_backslash"},"3225154":{"name":"Náučný chodník Rakytovské plieska","type":"route","route":"hiking","colour":"yellow","symbol":"education","network":"lwn","osmc:symbol":"yellow:white:yellow_backslash"},"3227201":{"name":"Lesnícky náučný chodník Malý Borkút","type":"route","route":"hiking","colour":"green","symbol":"education","network":"lwn","website":"https://www.tsmp.sk/sk/prevadzka-msl/lesnicky-naucny-chodnik-v-lokalite-maly-borkut","complete":"yes","osmc:symbol":"green:white:green_bowl"},"3268052":{"name":"skratka na modrú na Chopok","type":"route","route":"hiking","network":"lwn"},"3270940":{"name":"Malý banský okruh","type":"route","route":"hiking","colour":"green","symbol":"roundtrip","network":"lwn","complete":"yes","osmc:symbol":"green:white:green_dot"},"3284442":{"jel":"k3","name":"K▲ (Pusztafalu – Dávid-ortás)","type":"route","route":"hiking","colour":"blue","network":"lwn","operator":"Borsod-Abaúj-Zemplén Megyei Természetjáró Szövetség","ref:MTSZ":"Z_01_27","osmc:symbol":"blue:white:blue_triangle"},"3294934":{"name":"O2 - Kyslíková trasa","type":"route","route":"hiking","network":"lwn","operator":"O2","osmc:symbol":"white:none"},"3307375":{"name":"Náučný chodník Koháryho dub","type":"route","route":"hiking","colour":"green","symbol":"education","network":"lwn","complete":"yes","wikidata":"Q12772758","description":"Hontianske Nemce - Koháryho dub","osmc:symbol":"green:white:green_backslash"},"3316320":{"name":"Banícky náučný chodník","type":"route","route":"hiking","colour":"red","symbol":"local","network":"lwn","complete":"no","operator":"Lesy mesta Spišská Nová Ves","osmc:symbol":"red:white:red_corner"},"3330744":{"ref":"3","name":"Pútnický chodník","type":"route","route":"hiking","colour":"blue","symbol":"local","network":"lwn","complete":"yes","operator":"Združenie rozvoja cestovného ruchu Čierna hora","osmc:symbol":"blue:white:blue_corner"},"3330747":{"ref":"4","name":"Krajinný chodník","type":"route","route":"hiking","colour":"green","symbol":"local","network":"lwn","complete":"yes","operator":"Združenie rozvoja cestovného ruchu Čierna hora","osmc:symbol":"green:white:green_corner"},"3333951":{"name":"Náučný chodník Karola Brančíka","type":"route","route":"hiking","colour":"green","symbol":"education","network":"lwn","complete":"yes","osmc:symbol":"green:white:green_backslash"},"3341116":{"ref":"5","name":"Čiernohorský chodník","type":"route","route":"hiking","colour":"red","symbol":"major","network":"lwn","complete":"yes","operator":"Združenie rozvoja cestovného ruchu Čierna hora","osmc:symbol":"red:white:red_corner"},"3360329":{"name":"Polana Pod Wołoszynem - Droga Oswalda Balzera","type":"route","route":"hiking","colour":"red","network":"rwn","distance":"1,2","description":"0:20 h / 0:35 h","osmc:symbol":"red:white:red_bar"},"3360359":{"name":"Palenica Białczańska - Wodogrzmoty Mickiewicza","type":"route","route":"hiking","colour":"red","network":"rwn","distance":"2.9","description":"1:05 h / 0:55 h","osmc:symbol":"red:white:red_bar"},"3360362":{"name":"Wodogrzmoty Mickiewicza - Schronisko PTTK przy Morskim Oku","type":"route","route":"hiking","colour":"red","network":"rwn","distance":"4.9","description":"1:50 h / 1:35 h","osmc:symbol":"red:white:red_bar"},"3360396":{"name":"Czarny Staw Pod Rysami - Rysy","type":"route","route":"hiking","colour":"red","network":"rwn","distance":"2.8","description":"3:20 h / 2:30 h","osmc:symbol":"red:white:red_bar"},"3360422":{"name":"Dolina Roztoki - Wodogrzmoty Mickiewicza","type":"route","route":"hiking","colour":"green","network":"rwn","distance":"0,7","description":"0:15 h / 0:10 h","osmc:symbol":"green:white:green_bar"},"3394001":{"ref":"1","name":"Hubársky chodník","type":"route","route":"hiking","colour":"green","symbol":"local","network":"lwn","complete":"yes","operator":"Združenie rozvoja cestovného ruchu Čierna hora","osmc:symbol":"green:white:green_corner"},"3397101":{"name":"Náučný chodník Brestovec - Stará Myjava - Topolecká","type":"route","route":"hiking","colour":"green","symbol":"education","network":"lwn","complete":"no","osmc:symbol":"green:white:green_backslash"},"3397114":{"ref":"6","name":"Kamenný chodník","type":"route","route":"hiking","colour":"blue","network":"lwn","complete":"yes","operator":"Združenie rozvoja cestovného ruchu Čierna hora","osmc:symbol":"blue:white:blue_corner"},"3399655":{"ref":"8","name":"Historický chodník","type":"route","route":"hiking","colour":"red","symbol":"local","network":"lwn","complete":"yes","operator":"Združenie rozvoja cestovného ruchu Čierna hora","osmc:symbol":"red:white:red_corner"},"3399656":{"ref":"7","name":"Minerálny chodník","type":"route","route":"hiking","colour":"blue","symbol":"local","network":"lwn","complete":"yes","operator":"Združenie rozvoja cestovného ruchu Čierna hora","osmc:symbol":"blue:white:blue_corner"},"3404072":{"name":"Vyhliadková trasa","type":"route","route":"hiking","name:de":"Aussichtsweg","name:en":"Scenic Route","name:sk":"Vyhliadková trasa","network":"lwn","complete":"yes","operator":"Lesy s.r.o.","osmc:symbol":"black:none"},"3421002":{"name":"Bartošova Lehôtka - Jazierko Slobodné","type":"route","route":"hiking","colour":"yellow","symbol":"local","network":"lwn","complete":"no","operator":"KST ZH","osmc:symbol":"yellow:white:yellow_corner"},"3424014":{"name":"Morová kaplnka na Háji","type":"route","route":"hiking","colour":"yellow","symbol":"major","network":"rwn","complete":"yes","operator":"Nitrianske biskupstvo","description":"Hronský Beňadik - Morová kaplnka","osmc:symbol":"yellow:white:yellow_bar"},"3434840":{"name":"Čaroles","type":"route","route":"foot","description:sk":"úsek s rozprávkami po stromoch"},"3436962":{"name":"Náučný chodník Mikušovské bradlá","type":"route","fixme":"Resurvey.Pozicie tabul c.6 a 7 neseda podla map dostypnych na nete.","route":"hiking","colour":"green","symbol":"education","network":"lwn","complete":"no","osmc:symbol":"green:white:green_backslash"},"3467548":{"name":"Lesný náučný chodník Herlica","type":"route","route":"hiking","colour":"green","symbol":"education","network":"lwn","complete":"yes","operator":"Lesy SR","osmc:symbol":"green:white:green_backslash"},"3506786":{"ref":"8569","name":"Cesta na slovenský \\\"severný pól\\\"","type":"route","route":"hiking","colour":"yellow","symbol":"major","network":"rwn","complete":"yes","operator":"KST","description":"Oravská Polhora - Modralová","osmc:symbol":"yellow:white:yellow_bar"},"3511161":{"name":"Bukovinská skala","type":"route","route":"hiking","colour":"blue","symbol":"peak","network":"rwn","complete":"yes","operator":"KST","osmc:symbol":"blue:white:blue_triangle"},"3511175":{"name":"Náučný chodník Slatinským krasom","type":"route","route":"hiking","colour":"green","symbol":"education","network":"lwn","complete":"no","osmc:symbol":"green:white:green_backslash"},"3517219":{"name":"Dunitová skalka","type":"route","route":"hiking","colour":"green","symbol":"education","network":"lwn","complete":"yes","osmc:symbol":"green:white:green_backslash"},"3535208":{"name":"Náučný chodník Mesteckým chotárom","type":"route","route":"hiking","colour":"green","symbol":"education","network":"lwn","complete":"yes","osmc:symbol":"green:white:green_backslash"},"3549478":{"name":"Náučný chodník Apollo","type":"route","route":"hiking","colour":"green","symbol":"education","network":"lwn","complete":"yes","osmc:symbol":"green:white:green_backslash"},"3569954":{"name":"Trstenecka cesta","type":"route","route":"hiking","network":"lwn"},"3603025":{"name":"Stratenský kaňon","type":"route","route":"hiking","colour":"green","symbol":"education","network":"lwn","complete":"yes","osmc:symbol":"green:white:green_backslash"},"3603316":{"name":"Chodník k Ľadovni","type":"route","route":"hiking","colour":"yellow","symbol":"local","network":"lwn","complete":"no","osmc:symbol":"yellow:white:yellow_corner"},"3616229":{"name":"Koniarska spojka","type":"route","route":"hiking","colour":"red","symbol":"local","network":"lwn","complete":"yes","operator":"Slovenský cykloklub Slovenský kras Gemerská Hôrka","osmc:symbol":"red:white:red_corner"},"3621192":{"name":"Náučný chodník Malá - Veľká Skalka","type":"route","route":"hiking","colour":"green","symbol":"education","network":"lwn","complete":"yes","osmc:symbol":"green:white:green_backslash"},"3662965":{"name":"Náučný chodník osady Mladoňov","note":"colour not known, setted up default green","type":"route","route":"hiking","colour":"green","symbol":"education","network":"lwn","complete":"yes","osmc:symbol":"green:white:green_backslash"},"3667059":{"name":"Lesnícky náučný chodník Trenčianske Teplice","type":"route","route":"hiking","colour":"green","symbol":"education","network":"lwn","complete":"yes","operator":"Mesto Trenčianske Teplice","educational":"yes","osmc:symbol":"green:white:green_backslash"},"3667060":{"name":"Náučný chodník Jeleň - Baračka","type":"route","route":"hiking","colour":"yellow","symbol":"education","network":"lwn","complete":"yes","operator":"Mesto Trenčianske Teplice","educational":"yes","osmc:symbol":"yellow:white:yellow_backslash"},"3668343":{"name":"Ihráč – Chomový grúň","type":"route","route":"hiking","colour":"blue, yellow","hiking":"yes","symbol":"local","network":"lwn","complete":"yes","osmc:symbol":"blue:yellow:blue_corner"},"3672243":{"name":"Náučný chodník Stromy čebovských lesov","type":"route","route":"hiking","colour":"green","symbol":"education","network":"lwn","complete":"yes","osmc:symbol":"green:white:green_backslash"},"3688007":{"name":"NCH Priedolia","type":"route","route":"hiking","colour":"green","symbol":"education","network":"lwn","complete":"yes","osmc:symbol":"green:white:green_backslash"},"3688201":{"name":"NCH Pohanský vrch","type":"route","route":"hiking","colour":"green","symbol":"education","network":"lwn","complete":"yes","osmc:symbol":"green:white:green_backslash"},"3706018":{"name":"Banícky náučný chodník","type":"route","route":"hiking","colour":"blue","symbol":"local","network":"lwn","complete":"no","operator":"Lesy mesta Spišská Nová Ves","osmc:symbol":"blue:white:blue_corner"},"3706019":{"name":"Banícky náučný chodník","type":"route","route":"hiking","colour":"yellow","symbol":"local","network":"lwn","complete":"yes","operator":"Lesy mesta Spišská Nová Ves","osmc:symbol":"yellow:white:yellow_corner"},"3735257":{"ref":"A","name":"Radar","note":"marking is mostly missing","type":"route","route":"hiking","colour":"red","complete":"yes","osmc:symbol":"red:white:red_dot"},"3735258":{"ref":"C","name":"Margita","note":"marking is mostly missing","type":"route","route":"hiking","colour":"green","network":"lwn","complete":"yes","osmc:symbol":"green:white:green_dot"},"3748762":{"name":"[M] Makyta - Francova Lhota","type":"route","route":"hiking","network":"nwn","complete":"no","kct_blue":"major","operator":"cz:KČT","osmc:symbol":"blue:white:blue_bar"},"3768512":{"ref":"Medveďou cestičkou - Krpáčovo","name":"Medveďou cestičkou (dlhšia)","type":"route","route":"hiking","colour":"orange","symbol":"education","network":"lwn","complete":"yes","osmc:symbol":"orange:white:orange_backslash"},"3833673":{"name":"Náučný chodník Prírodné klenoty Šúru","type":"route","route":"hiking","symbol":"education","network":"lwn","osmc:symbol":"green:white:green_backslash"},"3841977":{"name":"Náučný chodník Žitavský luh","type":"route","route":"hiking","colour":"green","symbol":"education","network":"lwn","osmc:symbol":"green:white:green_backslash"},"3843001":{"jel":"z+","name":"Z+","type":"route","route":"hiking","network":"lwn","osmc:symbol":"green:white:green_cross"},"3848242":{"jel":"p3","name":"P▲ (Karancs)","type":"route","route":"hiking","network":"lwn","osmc:symbol":"red:white:red_triangle"},"3848246":{"jel":"z","name":"Z, Északi Zöld","type":"route","route":"hiking","colour":"green","network":"rwn","osmc:symbol":"green:white:green_bar"},"3854930":{"name":"Lesnícky náučný chodník Haluzická tiesňava/Školský náučný chodník","type":"route","route":"hiking","colour":"green","symbol":"education","network":"lwn","complete":"yes","osmc:symbol":"green:white:green_backslash"},"3857111":{"name":"9 zastavení na Rakovského chodníku - trasa A","type":"route","route":"hiking","symbol":"education","network":"lwn","description":"Historicko-prírodovedný náučný chodník","osmc:symbol":"green:white:green_backslash"},"3857112":{"name":"9 zastavení na Rakovského chodníku - trasa B","type":"route","route":"hiking","symbol":"education","network":"lwn","description":"Historicko-prírodovedný náučný chodník","osmc:symbol":"yellow:white:yellow_backslash"},"3857113":{"name":"9 zastavení na Rakovského chodníku - trasa C","type":"route","route":"hiking","symbol":"education","network":"lwn","description":"Historicko-prírodovedný náučný chodník","osmc:symbol":"blue:white:blue_backslash"},"3864981":{"name":"Rybníky Uzovský Šalgov","type":"route","route":"hiking","network":"lwn","complete":"yes","osmc:symbol":"green:none"},"3875337":{"name":"Okolím Liptovskej Tepličky","type":"route","route":"hiking","colour":"green","symbol":"education","network":"lwn","complete":"no","operator":"KST","osmc:symbol":"green:white:green_backslash"},"3875350":{"jel":"p","name":"P, Mátra-Murány turistaút Mo.-i szakasz (Karancs – Hatvan)","type":"route","route":"hiking","symbol":"red bar","network":"rwn","symbol:hu":"piros sáv","osmc:symbol":"red:white:red_bar"},"3885495":{"name":"Náučný poľovnícky a lesnícky chodník Nemšová - Ľuborčianska dolina","type":"route","route":"hiking","colour":"green","symbol":"education","network":"lwn","complete":"yes","osmc:symbol":"green:white:green_backslash"},"3897939":{"jel":"z+","name":"Z+ Ipolytarnóc – Nagy-Hallgató","type":"route","route":"hiking","network":"lwn","osmc:symbol":"green:white:green_cross"},"3897941":{"jel":"zl","name":"Z▙ (Ipolytarnóc ősmaradványok)","type":"route","route":"hiking","network":"lwn","osmc:symbol":"green:white:green_L"},"3904590":{"ref":"Náučný chodník Šári most - Jánošíkova stupaj","name":"Náučný chodník Šári most - Jánošíkova stupaj","type":"route","route":"hiking","colour":"yellow","network":"lwn","complete":"no"},"3920573":{"jel":"p","name":"P (Sárospatak – Mikóháza – Sátoraljaújhely, oh.)","type":"route","route":"hiking","symbol":"red bar","network":"rwn","operator":"Borsod-Abaúj-Zemplén Megyei Természetjáró Szövetség","ref:MTSZ":"Z_05","symbol:hu":"piros sáv","osmc:symbol":"red:white:red_bar"},"3923372":{"jel":"t","name":"Biológiai tanösvény, Ipolytarnóc","type":"route","route":"hiking","name:en":"Biological, Ipolytarnóc","name:sk":"Biologický, Ipolytarnóc","network":"lwn","osmc:symbol":"green:white:::T:green"},"3923373":{"jel":"t","name":"Geológiai tanösvény, Ipolytarnóc","type":"route","route":"hiking","name:en":"Geological, Ipolytarnóc","name:sk":"Geologický, Ipolytarnóc","network":"lwn","osmc:symbol":"black:white:::T:black"},"3929493":{"name":"Náučný chodník Sever","type":"route","route":"hiking","symbol":"education","network":"lwn","complete":"yes"},"3929494":{"name":"Vznik a vývoj lesa","type":"route","route":"hiking","symbol":"none","network":"lwn","complete":"yes"},"3929600":{"name":"Lesná železnica Trenčín - Selec","type":"route","route":"hiking","colour":"black","symbol":"education","network":"lwn","complete":"no","osmc:symbol":"black:white"},"3956451":{"name":"NCH Kotlište","type":"route","route":"hiking","colour":"yellow","symbol":"education","network":"lwn","operator":"NCH Kamenica","osmc:symbol":"yellow:white:yellow_corner"},"3956452":{"name":"NCH Rampa","type":"route","route":"hiking","colour":"blue","symbol":"education","network":"lwn","operator":"NCH Kamenica","osmc:symbol":"blue:white:blue_corner"},"3956453":{"name":"Náučný chodník Kamenica - Stará Kremnička","type":"route","route":"hiking","colour":"green","symbol":"education","network":"lwn","operator":"NCH Kamenica","osmc:symbol":"green:white:green_backslash"},"3999752":{"name":"NCH Hrad Šášov","type":"route","route":"hiking","colour":"green","symbol":"education","network":"lwn","complete":"no","operator":"NCH Kamenica","osmc:symbol":"green:white:green_backslash"},"3999753":{"name":"NCH Šášov","type":"route","route":"hiking","colour":"green","symbol":"education","network":"lwn","operator":"NCH Kamenica","osmc:symbol":"green:white:green_corner"},"3999754":{"name":"NCH Šibeničný vrch","type":"route","route":"hiking","colour":"green","symbol":"education","network":"lwn","complete":"no","operator":"NCH Kamenica","osmc:symbol":"green:white:green_backslash"},"4006211":{"name":"Banícky chodník Staré Hory, cesta medi","type":"route","route":"hiking","colour":"green","symbol":"education","network":"lwn","complete":"no","osmc:symbol":"green:white:green_backslash"},"4057061":{"name":"Náučný chodník Sychrov","type":"route","route":"hiking","colour":"blue","symbol":"local","network":"lwn","complete":"yes","osmc:symbol":"blue:white:blue_corner"},"4106670":{"name":"Cesta minerálnych prameňov","type":"route","route":"hiking","colour":"green","symbol":"local","network":"lwn","complete":"no","osmc:symbol":"green:white:green_triangle"},"4108814":{"url":"http://naucnechodniky.eu/naucny-chodnik-stupava-biofarma-priroda/","name":"Náučný chodník Stupava - Biofarma Príroda","note":"Chodník je v teréne značený ˝pásovou˝ značkou, symbol NCH bol zvolený preto, aby sa v mapách (napr. mapy.cz) nezobrazoval ako zelená turistická trasa. Značky sú striekané (sprejom), na viacerých miestach sú vyblednuté alebo chýbajú.","type":"route","route":"hiking","colour":"green","symbol":"education","network":"lwn","complete":"yes","osmc:name":"Stupava - námestie sv. Trojica - Biofarma Príroda","description":"Stupava - námestie sv. Trojica - Biofarma Príroda","osmc:symbol":"green:white:green_backslash"},"4119865":{"name":"Po stopách banskej činnosti","note":"symbol is croossed hammers","type":"route","route":"hiking","colour":"green","symbol":"education","network":"lwn","complete":"yes","osmc:symbol":"green:white:green_mine"},"4155092":{"name":"Zámutovská kolejka","type":"route","route":"hiking","colour":"green","symbol":"education","network":"lwn","complete":"yes","operator":"Lesy SR","osmc:symbol":"green:white:green_backslash"},"4155268":{"name":"Kyslíková dráha","note":"bez farebneho znacenia","type":"route","route":"hiking","symbol":"education","network":"lwn","website":"https://kamnahorehroni.sk/miesta/kyslikova-draha/","complete":"no","osmc:symbol":"green:white:green_backslash"},"4165266":{"name":"Tajovský okruh","type":"route","route":"hiking","colour":"red","network":"lwn","operator":"Okresná organizácia cestovného ruchu Stredné Slovensko","description":"Tajovský okruh","osmc:symbol":"red:white:red_corner"},"4172275":{"name":"Barborská cesta","type":"route","route":"hiking","colour":"black","source":"Skeyemap, s.r.o.;survey","network":"lwn","website":"https://barborskacesta.sk/","complete":"yes","operator":"Občianske združenie Banský Región - Terra Montanae","osmc:symbol":"black:yellow:black_tower"},"4175886":{"jel":"p3","name":"P▲ (Csata-réti eh. – Pusztafalu)","type":"route","route":"hiking","colour":"red","symbol":"triangle","network":"lwn","ref:MTSZ":"Z-235","osmc:symbol":"red:white:red_triangle"},"4185619":{"name":"Telekia","type":"route","route":"hiking","colour":"green","symbol":"education","network":"lwn","complete":"yes","osmc:symbol":"green:white:green_backslash"},"4203708":{"name":"Náučný chodník \\\"Mesta kráľovien\\\"","type":"route","route":"hiking","symbol":"education","network":"lwn","operator":"Bátovčan, o.z.","osmc:symbol":"green:white:green_backslash"},"4245351":{"name":"Lesný náučný chodník Smolnícka osada","type":"route","route":"hiking","colour":"orange","symbol":"education","network":"lwn","complete":"yes","osmc:symbol":"orange:orange_arrow"},"4430915":{"name":"Náučný chodník Hrádok - Rohatá skala","type":"route","route":"hiking","colour":"green","symbol":"education","network":"lwn","complete":"yes","osmc:symbol":"green:white:green_backslash"},"4430916":{"name":"Náučný chodník k prameňom Bebravy","type":"route","route":"hiking","colour":"green","symbol":"education","network":"lwn","complete":"yes","osmc:symbol":"green:white:green_backslash"},"4445306":{"name":"Janošíkov stôl","type":"route","route":"hiking","colour":"red","symbol":"education","network":"lwn","complete":"yes","operator":"Turistická Liptovská oblasť","osmc:symbol":"green:white:green_backslash"},"4454582":{"name":"Náučný chodník \\\"Obec Papradno\\\"","type":"route","fixme":"doplnit dalsie informacne tabule chodnika","route":"hiking","symbol":"education","network":"lwn","educational":"yes","osmc:symbol":"green:green:white_backslash"},"4495053":{"name":"Náučný chodník Považský Inovec","type":"route","route":"hiking","colour":"green","symbol":"education","network":"lwn","complete":"no","osmc:symbol":"green:white:green_backslash"},"4524894":{"jel":"s","name":"S (Jóbarát-zsomboly – Tornanádaska)","type":"route","route":"hiking","network":"rwn","operator":"Borsod-Abaúj-Zemplén Megyei Természetjáró Szövetség","ref:MTSZ":"A_09","osmc:symbol":"yellow:white:yellow_bar"},"4554494":{"jel":"sq","name":"S● (Salgóbánya – Zagyva-forrás)","type":"route","route":"hiking","source":"turistautak.hu","network":"rwn","osmc:symbol":"yellow:white:yellow_dot"},"4573907":{"jel":"pm","name":"Mária-út, M05-21 (Bény – Márianosztra)","type":"route","route":"hiking","symbol":"local","network":"lwn","website":"http://mariaut.sk","operator":"Via Mariae Pt","mapillary":"483729389558650","pilgrimage":"yes","osmc:symbol":"red:white:::M:red"},"4574002":{"jel":"ptmp","name":"Mária Út M05-20a","type":"route","route":"hiking","state":"proposed","network":"lwn","operator":"MUTKE","pilgrimage":"yes"},"4574003":{"jel":"pm","ref":"M05-20","name":"Máriánska Cesta M05-20 Rubán - Bíňa","type":"route","route":"hiking","symbol":"local","name:hu":"Mária-út, M05-20 Fűr (Cigléd) - Bény","network":"lwn","website":"http://mariaut.sk","operator":"Via Mariae Pt","pilgrimage":"yes","osmc:symbol":"red:white:::M:red"},"4575997":{"ref":"M05-18","name":"Máriánska Cesta M05-18 Kolárovo - Nové Zámky","type":"route","route":"hiking","symbol":"local","name:hu":"Mária-út, M05-18 Gúta - Érsekújvár","network":"lwn","complete":"proposed","operator":"Via Mariae Pt","pilgrimage":"yes","osmc:symbol":"red:white::VM:red"},"4593383":{"name":"Náučný chodník Okolo Červenokamenského bradla","type":"route","route":"hiking","colour":"green","symbol":"education","network":"lwn","complete":"yes","osmc:symbol":"green:white:green_backslash"},"4640213":{"ref":"8161","name":"(Ž) Holič okružní","type":"route","route":"hiking","colour":"yellow","symbol":"major","network":"rwn","complete":"yes","operator":"KST","description":"Holíč, Dom turistiky - Holíč, Dom turistiky (okruh)","osmc:symbol":"yellow:white:yellow_bar"},"4643970":{"ref":"M05-19","name":"Máriánska Cesta M05-19 Nové Zámky - Rúbaň","type":"route","route":"hiking","symbol":"local","name:hu":"Mária-út, M05-19 Érsekújvár - Fűr (Cigléd)","network":"lwn","complete":"proposed","name:int":"Via Mariae","operator":"Via Mariae Pt","pilgrimage":"yes","osmc:symbol":"red:white::VM:red"},"4673482":{"to":"Budapest","ref":"EB","from":"Eisenach","name":"Internationaler Bergwanderweg Eisenach–Budapest (Slowakei West)","note":"part Slovakia west / consistent with red hiking trails in Slovakia","type":"route","route":"hiking","symbol":"rotes \\\"EB\\\" unter rotem Gipfel in rotem Rahmen","name:cs":"Mezinárodní horská turistická trasa Eisenach–Budapešt (Slovensko západ)","name:de":"Internationaler Bergwanderweg Eisenach–Budapest (Slowakei West)","name:en":"International friendship trail Eisenach–Budapest (Slovakia west)","name:hu":"Barátság nevű nemzetközi turista út Eisenach–Budapest (Szlovákia nyugati)","name:pl":"Międzynarodowy Górski Szlak Przyjaźni Eisenach–Budapeszt (Słowacja zachód)","name:sk":"Medzinárodná horská turistická pešia trasa Eisenach–Budapešt (Slovensko západ)","network":"iwn","note:en":"including checkpoints","complete":"yes","wikidata":"Q880680","osmc:note":"EB","roundtrip":"no","wikipedia":"de:Internationaler Bergwanderweg der Freundschaft Eisenach–Budapest","osmc:symbol":"red:white::EB"},"4734248":{"ref":"EB","name":"Internationaler Bergwanderweg Eisenach–Budapest (Slowakei Ost)","note":"einschließlich Kontrollpunkte","type":"route","route":"hiking","symbol":"rotes \\\"EB\\\" unter rotem Gipfel in rotem Rahmen","name:cs":"Mezinárodní horská turistická trasa Eisenach–Budapešt (Slovensko východ)","name:de":"Internationaler Bergwanderweg Eisenach–Budapest (Slowakei Ost)","name:en":"International friendship trail Eisenach–Budapest (Slovakia east)","name:hu":"Barátság nevű nemzetközi turista út Eisenach–Budapest (Szlovákia kelet)","name:pl":"Międzynarodowy Górski Szlak Przyjaźni Eisenach–Budapeszt (Słowacja wschód)","name:sk":"Medzinárodná horská turistická pesia trasa Eisenach–Budapešt (Slovensko východ)","network":"iwn","note:en":"including checkpoints","complete":"yes","wikidata":"Q880680","osmc:note":"EB","roundtrip":"no","wikipedia":"de:Internationaler Bergwanderweg der Freundschaft Eisenach–Budapest"},"4753423":{"jel":"z3","name":"Z▲ (Szurok-hegy)","type":"route","route":"hiking","network":"lwn","osmc:symbol":"green:white:green_triangle"},"4756952":{"ref":"M05-13","name":"Mariánska Cesta M05-13","type":"route","route":"hiking","symbol":"local","name:hu":"Mária-út, M05-13 Pozsony - Dénesd","network":"lwn","website":"http://mariaut.hu","complete":"proposed","operator":"Via Mariae Pt","pilgrimage":"yes","osmc:symbol":"red:white::VM:red"},"4758625":{"name":"Mariánska Cesta M05-14 Dunajská Lužná - Báč","type":"route","route":"hiking","symbol":"local","name:hu":"Mária-út, M05-14 Dénesd - Bacsfa-Szentantal","network":"lwn","website":"http://mariaut.hu","complete":"proposed","operator":"Via Mariae Pt","pilgrimage":"yes","osmc:symbol":"red:white::VM:red"},"4761658":{"jel":"s4","name":"S■","type":"route","route":"hiking","network":"lwn","osmc:symbol":"yellow:white:yellow_rectangle"},"4762854":{"ref":"M05-15","name":"Mariánska Cesta M05-15 Báč - Jurová","type":"route","route":"hiking","symbol":"local","name:hu":"Mária-út, M05-15 Bacsfa-Szentantal - Dercsika","network":"lwn","website":"http://mariaut.hu","complete":"proposed","operator":"Via Mariae Pt","pilgrimage":"yes","osmc:symbol":"red:white::VM:red"},"4763806":{"jel":"s","name":"S ( Salgóbánya – Rónabánya)","type":"route","route":"hiking","network":"rwn","ref:MTSZ":"Nograd09C","osmc:symbol":"yellow:white:yellow_bar"},"4763886":{"jel":"p+","name":"P+ (Somoskő)","type":"route","route":"hiking","network":"lwn","osmc:symbol":"red:white:red_cross"},"4770212":{"ref":"M05-16","name":"Mariánska Cesta M05-16 Jurová - Veľký Meder","type":"route","route":"hiking","symbol":"local","name:hu":"Mária-út, M05-16 Dercsika - Nagymegyer","network":"lwn","website":"http://mariaut.hu","complete":"proposed","operator":"Via Mariae Pt","pilgrimage":"yes","osmc:symbol":"red:white::VM:red"},"4770220":{"ref":"M05-17","name":"Mariánska Cesta 05-17 Veľký Meder - Kolárovo","type":"route","route":"hiking","symbol":"local","name:hu":"Mária-út, M05-17 Nagymegyer - Gúta","network":"lwn","website":"http://mariaut.hu","complete":"proposed","operator":"Via Mariae Pt","pilgrimage":"yes","osmc:symbol":"red:white::VM:red"},"4774747":{"name":"Krasové javy hôrky","type":"route","route":"hiking","colour":"green","symbol":"education","network":"lwn","complete":"yes","operator":"Slovenský cykloklub Slovenský kras Gemerská Hôrka","osmc:symbol":"green:white:green_backslash"},"4780332":{"jel":"k3","name":"K▲ (Nagy-nyugodó – Zsólyomka – Sátoraljaújhely, Táncsics tér)","type":"route","route":"hiking","symbol":"green triangle","network":"lwn","operator":"Borsod-Abaúj-Zemplén Megyei Természetjáró Szövetség","ref:MTSZ":"Z_01_19","symbol:hu":"zöld háromszög","osmc:symbol":"blue:white:blue_triangle"},"4782144":{"name":"Náučný chodník Vojšín","type":"route","route":"hiking","colour":"green","symbol":"education","network":"lwn","complete":"yes","description":"Stará Huta - Starohutský Vodopád - Jašekova skala - Sedlová skala - Jazerec - Bujakov vrch - Vojšín - Andezitové kamenné more","osmc:symbol":"green:white:green_backslash"},"4801054":{"ref":"EB","name":"Barátság nemzetközi turistaút (Eisenach – Budapest – Boldogkőváralja – oh.)","type":"route","route":"hiking","symbol":"rotes \\\"EB","name:de":"Internationaler Bergwanderweg Eisenach–Budapest (Ungarn: Boldogkőváralja–Országhatár)","name:en":"International friendship trail Eisenach–Budapest (Hungary: Boldogkőváralja–Országhatár)","network":"iwn","complete":"yes","wikidata":"Q880680","osmc:note":"EB","roundtrip":"no","wikipedia":"de:Internationaler Bergwanderweg der Freundschaft Eisenach–Budapest","wikipedia:hu":"Barátság nemzetközi hegyi túra Eisenach–Budapest","official:osmc:symbol":"red:white::EB"},"4805357":{"to":"SK/HU boarder/határ/hranice/granica","ref":"M02-24A","from":"Plášťovce","name":"KM, Mária-út, M02-24A (Palást – Kemence)","type":"route","route":"hiking","name:hu":"KM, Mária-út, M02-24A (Palást – Kemence)","name:pl":"Szlak Maryjny","network":"nwn","operator":"Via Mariae Pt","pilgrimage":"yes","osmc:symbol":"blue:white::VM:blue"},"4805799":{"jel":"km","ref":"M02-22","name":"Mária Út M02-22 (Banská Stiavnica-Hontianske Nemce)","type":"route","route":"hiking","state":"proposed","network":"nwn","website":"http://mariaut.hu","pilgrimage":"yes","osmc:symbol":"blue:white:::M:blue"},"4805801":{"jel":"km","ref":"M02-23","name":"Mária Út M02-23 (Hontianske Nemce-Plášťovce)","type":"route","route":"hiking","state":"proposed","network":"nwn","website":"http://mariaut.hu","pilgrimage":"yes","osmc:symbol":"blue:white:::M:blue"},"4808555":{"jel":"km","ref":"M02-20","name":"Mária Út M02-20 (Banská Bystrica-Zvolen)","type":"route","route":"hiking","state":"proposed","network":"nwn","website":"http://mariaut.hu","pilgrimage":"yes","osmc:symbol":"blue:white:::M:blue"},"4808556":{"ref":"M02-21","name":"Mária Út M02-21 (Zvolen-Banská Štiavnica)","type":"route","route":"hiking","state":"proposed","network":"nwn","website":"http://mariaut.hu","pilgrimage":"yes","osmc:symbol":"none"},"4808952":{"jel":"km","ref":"M02-19","name":"Mária Út M02-19 (Staré Hory-Banská Bystrica)","type":"route","route":"hiking","state":"proposed","network":"nwn","website":"http://mariaut.hu","pilgrimage":"yes","osmc:symbol":"blue:white:::M:blue"},"4809147":{"jel":"km","ref":"M02-18","name":"Mária Út M02-18 (Liptovská Osada-Staré Hory)","type":"route","route":"hiking","state":"proposed","network":"nwn","website":"http://mariaut.hu","pilgrimage":"yes","osmc:symbol":"blue:white:::M:blue"},"4814564":{"jel":"km","ref":"M02-17","name":"Mária Út M02-17 (Ruzomberok-Liptovská Osada)","type":"route","route":"hiking","state":"proposed","network":"nwn","website":"http://mariaut.hu","pilgrimage":"yes","osmc:symbol":"blue:white:::M:blue"},"4814762":{"to":"Ružomberok","jel":"km","ref":"M02-16","from":"Kvačany","name":"Mariánska Cesta","type":"route","route":"hiking","state":"proposed","name:en":"St. Mary's Trail","name:hu":"Mária Út M02-16 (Kvacsany-Rózsahegy)","name:pl":"Szlak Maryjny","network":"nwn","website":"http://mariaut.hu","name:int":"Via Mariae M02 - The Central-European Pilgrimway M02","operator":"Via Mariae Pt","pilgrimage":"yes","osmc:symbol":"blue:white::VM:blue"},"4814802":{"jel":"km","ref":"M02/13","name":"Mária Út M02/13a (Trstena-Zuberec)","type":"route","route":"hiking","state":"proposed","network":"nwn","website":"http://mariaut.hu","pilgrimage":"yes","osmc:symbol":"blue:white:::M:blue"},"4848958":{"name":"Žalostiná - Chvojnica","type":"route","route":"hiking","colour":"green","symbol":"education","network":"lwn","complete":"yes","description":"Chodníčky za poznaním slovensko-moravského pohraničia","osmc:symbol":"green:white:green_backslash"},"4851122":{"name":"Brezová - Košariská","type":"route","route":"hiking","colour":"green","symbol":"education","network":"lwn","complete":"no","operator":"KST","description":"Chodníčky za poznaním slovensko-moravského pohraničia","osmc:symbol":"green:white:green_backslash"},"4870480":{"jel":"t","name":"Kőszikla tanösvény, Ipolytarnóc","type":"route","route":"hiking","name:en":"Boulder-cliff, Ipolytarnóc","name:sk":"Skalný, Ipolytarnóc","network":"lwn","osmc:symbol":"blue:white:::T:blue"},"4874049":{"name":"Svätokrížsky chodník","type":"route","route":"hiking","colour":"orange","symbol":"education","network":"lwn","complete":"no","operator":"OZ Kamenica"},"5186223":{"jel":"s3","name":"S▲ (Karancs)","type":"route","route":"hiking","network":"lwn","osmc:symbol":"yellow:white:yellow_triangle"},"5205393":{"name":"Muszyna - Muszynka","type":"route","route":"hiking","colour":"yellow","network":"rwn","operator":"PTTK Krynica","osmc:symbol":"yellow:white:yellow_bar"},"5291433":{"name":"Rudohorská 100","type":"route","route":"foot","state":"proposed","network":"lwn"},"5291535":{"name":"Východniarska 100","type":"route","route":"hiking","state":"proposed","network":"lwn","website":"http://v100.sk/"},"5304239":{"name":"Hámorský náučný chodník","type":"route","route":"hiking","network":"lwn","website":"http://www.zemplinskehamre.sk/hnch/en/hamorsky-naucny-chodnik/","complete":"no"},"5310734":{"name":"Vojensko-historický náučný chodník Výrava","type":"route","route":"hiking","colour":"green","symbol":"education","network":"lwn","complete":"no","osmc:symbol":"green:white:green_backslash"},"5326591":{"url":"https://naucnechodniky.eu/naucny-chodnik-markusovce-matejovce-nad-hornadom/","name":"Náučný chodník Markušovce - Matejovce nad Hornádom","type":"route","route":"hiking","colour":"green","symbol":"education","network":"lwn","complete":"yes","osmc:symbol":"green:white:green_backslash"},"5326592":{"name":"Náučný chodník Smižianska Maša - Čingov","type":"route","route":"hiking","colour":"green","symbol":"education","network":"lwn","osmc:symbol":"green:white:green_backslash"},"5331150":{"name":"Naucny chodnik Serpentiny Urpina","type":"route","fixme":"name","route":"foot","colour":"green","source":"site survey","network":"lwn","complete":"no","osmc:symbol":"green:white:green_slash"},"5343190":{"name":"Náučný chodník Mestskej časti Košice - Sídlisko KVP","note":"no symbols, map depicted on boards is very inaccurate, some board positions are completely off, this relation is best effort to connect all boards in the order intended","type":"route","route":"hiking","network":"lwn","website":"http://www.mckvp.sk/mckvp/30-vyrocie/445/","complete":"yes","operator":"Miestny úrad KVP"},"5353858":{"name":"Urpín vyhliadka","type":"route","fixme":"name","route":"foot","colour":"blue","source":"survey","network":"lwn","complete":"no","osmc:symbol":"blue:white:blue_triangle"},"5356201":{"name":"Beh hrebeňom Volovských vrchov","type":"route","route":"foot","state":"proposed","operator":"Vitalcity.sk"},"5356202":{"name":"Po stopách smolníckych baníkov","type":"route","route":"foot","operator":"Vitalcity.sk"},"5357149":{"name":"Lazová 100","type":"route","route":"hiking","network":"rwn","website":"http://www.lazovka.wbl.sk/"},"5365302":{"name":"Havrania skala","type":"route","route":"hiking","network":"lwn","operator":"KST","osmc:symbol":"yellow:white:yellow_triangle"},"5390400":{"ref":"B","name":"Náučný chodník históriou baníctva v Hnilčíku, trasa Bindt","type":"route","route":"hiking","colour":"red","symbol":"education","network":"lwn","complete":"yes","osmc:symbol":"green:white:green_backslash"},"5390529":{"ref":"A","name":"Náučný chodník históriou baníctva v Hnilčíku, trasa Roztoky","type":"route","route":"hiking","colour":"purple","symbol":"education","network":"lwn","complete":"yes","osmc:symbol":"green:white:green_backslash"},"5407517":{"jel":"p+","name":"P+ (Szt.Margit-forrás)","type":"route","route":"hiking","network":"lwn","osmc:symbol":"red:white:red_cross"},"5407519":{"jel":"z3","name":"Z▲ (Karancs)","type":"route","route":"hiking","network":"lwn","osmc:symbol":"green:white:green_triangle"},"5407979":{"name":"Slovenský Raj - Nízke Tatry","type":"route","route":"hiking","colour":"green","symbol":"education","network":"lwn","operator":"OZVA","osmc:symbol":"green:white:green_slash"},"5420205":{"ref":"E3","name":"E3 európai hosszútávú turistaút (Mo.-i szakasz)","type":"route","route":"hiking","name:de":"Europäischer Fernwanderweg E3, Ungarn","name:en":"European long distance path E3 - part Hungary","name:pl":"Europejski długodystansowy szlak pieszy E3 - część Węgry","name:sk":"Medzinárodná diaľková turistická trasa E3, Maďarsko","network":"iwn","complete":"yes","operator":"European Ramblers Association","operator:hu":"Magyar Természetjáró Szövetség","osmc:symbol":"blue:blue::E3:yellow","wiki:symbol":"Image:E 3 sign.jpg"},"5441709":{"name":"Náučný chodník Hrad Lietava","type":"route","route":"hiking","colour":"red","symbol":"education","network":"lwn","complete":"yes","osmc:symbol":"red:white:red_backslash"},"5523719":{"ref":"0925 - E8","name":"Východokarpatská magistrála","type":"route","route":"hiking","colour":"red","symbol":"major","network":"nwn","complete":"yes","operator":"KST","wikidata":"Q25482025","description":"Ubľa - Nová Sedlica","osmc:symbol":"red:white:red_bar"},"5573774":{"ref":"1113N","name":"Svätojurský náučný chodník","type":"route","route":"hiking","network":"lwn","website":"http://www.ainova.sk/sk/naucny-chodnik/","complete":"yes","operator":"KST;Mesto Svätý Jur","description":"Svätojurský náučný chodník","educational":"yes","osmc:symbol":"green:white:green_backslash"},"5609614":{"ref":"O7","name":"7. okruh - severná časť","type":"route","route":"foot","state":"proposed","colour":"green","network":"lcn"},"5614448":{"name":"Klátovské meteority","type":"route","route":"hiking","network":"lwn"},"5640988":{"name":"Náučný chodník Buchlov","type":"route","route":"hiking","symbol":"education","network":"lwn","osmc:symbol":"green:white:green_backslash"},"5645114":{"ref":"5415","name":"(Z)","type":"route","route":"hiking","colour":"green","symbol":"major","network":"rwn","complete":"yes","operator":"KST","description":"Holíč, Dom turistiky - Holíč, Dom turistiky (okruh)","osmc:symbol":"green:white:green_bar"},"5645123":{"ref":"5140","name":"(Z) Skalica - Trnovec","type":"route","route":"hiking","colour":"green","symbol":"major","network":"rwn","complete":"yes","operator":"KST","description":"Trnovec, most - Skalica, nám.","osmc:symbol":"green:white:green_bar"},"5653425":{"name":"Pilgerweg Groißenbrunn - Marianka","type":"route","route":"hiking","name:sk":"Pútnická cesta Groißenbrunn - Marianka","network":"rcn","complete":"no","wikidata":"Q1467383","wikipedia":"de:Mariabründlkapelle (Groißenbrunn)#Pilgerweg","pilgrimage":"yes"},"5672529":{"name":"Vrabčie skaly","type":"route","route":"hiking","colour":"green","symbol":"education","network":"lwn","complete":"yes","operator":"Mestské lesy Košice","osmc:symbol":"green:white:green_backslash"},"5697082":{"name":"Vihorlatskými bučinami","note":"no real marking, only on boards","type":"route","fixme":"add mising boards","route":"hiking","symbol":"education","network":"lwn","complete":"yes","osmc:symbol":"green:none"},"5716181":{"jel":"pt","name":"PT, Ősrög tanösvény","type":"route","route":"hiking","network":"lwn","osmc:symbol":"red:white:::T:red"},"5721198":{"name":"Banícky náučný chodník","type":"route","route":"hiking","colour":"blue","symbol":"peak","network":"lwn","complete":"yes","operator":"Lesy mesta Spišská Nová Ves","osmc:symbol":"blue:white:blue_triangle"},"5730828":{"ref":"M02","name":"Mariánska cesta","size":"M02","type":"route","route":"hiking","colour":"tmavo modrá","name:hu":"Mária Út","complete":"yes"},"5765861":{"name":"NS Moravské kopanice","type":"route","route":"hiking","network":"lwn","complete":"no","kct_blue":"learning","operator":"cz:KČT","osmc:symbol":"blue:white:blue_corner","destinations":"Boky;Skaličí"},"5808780":{"name":"Kanec","type":"route","route":"hiking","complete":"no","description":"Singletrail Kanec"},"5808781":{"name":"Koťogó","type":"route","route":"hiking","complete":"yes","description":"Singletrail Koťogó"},"5809637":{"name":"Náučný chodník Turecká","type":"route","route":"hiking","colour":"green","symbol":"education","network":"lwn","complete":"yes","osmc:symbol":"green:white:green_backslash"},"5832241":{"name":"Horný vrch","type":"route","route":"hiking","colour":"green","symbol":"education","network":"lwn","osmc:symbol":"green:white:green_backslash"},"6016748":{"name":"Diery","type":"route","route":"hiking","colour":"green","symbol":"education","network":"lwn","complete":"yes","operator":"OOCR Malá Fatra","osmc:symbol":"green:white:green_backslash"},"6046457":{"ref":"B","name":"Orechový les","note":"weak marking, may not be 100% accurate","type":"route","route":"hiking","colour":"blue","network":"lwn","complete":"yes","osmc:symbol":"blue:white:blue_dot"},"6051180":{"name":"Lesnícky náučný chodník Dolná hora","type":"route","route":"hiking","symbol":"education","network":"lwn","complete":"yes","osmc:symbol":"green:white:green_backslash"},"6054750":{"name":"Memoriál Luisa Crossa","type":"route","route":"hiking","colour":"yellow","symbol":"major","network":"rwn","complete":"yes","description":"Rajec - Vrchteplá","osmc:symbol":"yellow:white:yellow_bar"},"6066659":{"name":"Vinohradnícky náučný chodník","type":"route","route":"hiking","symbol":"education","network":"lwn","website":"https://www.pezinok.sk/?yggid=247","complete":"yes","wikidata":"Q95433631","wikipedia":"sk:Vinohradnícky náučný chodník"},"6083042":{"name":"Hrad Kamenica","type":"route","route":"hiking","colour":"green","symbol":"education","network":"lwn","complete":"yes","osmc:symbol":"green:white:green_backslash"},"6102345":{"name":"Náučný chodník Sedliská","type":"route","route":"hiking","colour":"green","symbol":"education","network":"lwn","osmc:symbol":"green:white:green_backslash"},"6197545":{"name":"Utekáč - Pasiečky – Slopovo","note":"presny nazov chodnika ani jeho ucel neviem.","type":"route","route":"hiking","colour":"yellow","network":"lwn","complete":"no","operator":"Miestna akčná skupina MALOHONT","osmc:symbol":"green:white:yellow_corner"},"6226830":{"name":"Senica, DAV - Salaš Sobotišťan - Senica, pod hrádzou","type":"route","route":"hiking","colour":"yellow","symbol":"major","network":"lwn","complete":"no","operator":"mesto Senica","osmc:symbol":"yellow:white:yellow_bar"},"6250963":{"name":"Rybky - Rovensko - Senica, vodojem","type":"route","route":"hiking","colour":"green","symbol":"major","network":"rwn","complete":"yes","operator":"mesto Senica","osmc:symbol":"green:white:green_bar"},"6309723":{"name":"Poznanie nepoznaného","type":"route","route":"hiking","ascent":"330","symbol":"education","network":"lwn","complete":"yes","distance":"5","operator":"OZ Černovský chotár","wikidata":"Q67725543","wikipedia":"cs:Naučná stezka Čutkovská dolina","description":"Známe neznáma","osmc:symbol":"yellow:white:yellow_corner"},"6361224":{"name":"Kováčova, kúpele - Sielnica","type":"route","route":"hiking","colour":"green","symbol":"local","operator":"KST","osmc:symbol":"green:white:green_corner"},"6390106":{"name":"Baba","type":"route","route":"hiking","colour":"green","symbol":"education","network":"lwn","complete":"yes","osmc:symbol":"green:white:green_backslash"},"6391084":{"name":"Kimbiark","type":"route","fixme":"survey","route":"hiking","colour":"green","symbol":"education","network":"lwn","complete":"no","osmc:symbol":"green:white:green_backslash"},"6416854":{"name":"Náučný chodník mestom Sliač","type":"route","route":"hiking","symbol":"education","network":"lwn","complete":"yes","osmc:symbol":"green:white:green_backslash"},"6439780":{"name":"Včelársky náučný chodník v botanickej záhrade UPJŠ v Košiciach","type":"route","route":"foot","network":"lwn","complete":"no","osmc:symbol":"no"},"6495469":{"name":"Náučný chodník Čebrať - Skalky","type":"route","route":"hiking","ascent":"330","symbol":"education","network":"lwn","complete":"yes","distance":"3","operator":"Likavský urbár","description":"Náučný chodník Čebrať - Skalky","osmc:symbol":"yellow:white:yellow_corner"},"6519601":{"jel":"z3","name":"Z▲ (Nagy-Arany-hegy)","type":"route","route":"hiking","network":"lwn","osmc:symbol":"green:white:green_triangle"},"6532043":{"name":"Kulíškova stezka","type":"route","route":"hiking","network":"lwn","website":"https://www.valachy.cz/aktuality/kuliskova-stezka.aspx","complete":"yes","operator":"Resort Valachy","kct_green":"learning","description":"Cesta je značena pouze ukazateli","osmc:symbol":"green:white:green_backslash"},"6608243":{"name":"Švošovský Turisticko-Náučný chodník","type":"route","route":"hiking","ascent":"473","symbol":"education","network":"lwn","complete":"yes","distance":"8","operator":"Švošovský turistický klub","description":"Švošovský Turisticko-Náučný chodník","osmc:symbol":"blue:white:blue_corner"},"6707337":{"url":"http://naucnechodniky.eu/naucny-chodnik-cvirigovec/","name":"Náučný chodník Čvirigovec","type":"route","route":"hiking","colour":"blue","symbol":"education","network":"lwn","complete":"no","osmc:symbol":"blue:white:blue_backslash"},"6707338":{"name":"Skautský chodník k pamätníku Badena Powella","type":"route","route":"hiking","network":"lwn","website":"http://87zbor.skauting.sk/znacka/naucny-chodnik/","complete":"yes"},"6712775":{"name":"Náučný chodník Jakub","type":"route","route":"hiking","colour":"green","symbol":"education","network":"lwn","complete":"yes","operator":"Národný park Nízke Tatry","osmc:symbol":"green:white:green_backslash"},"6792300":{"name":"Náučný banský chodník Banisko - Brezno","type":"route","route":"hiking","colour":"green","oneway":"no","symbol":"education","network":"lwn","website":"http://hbc.szm.com/pages/01.htm","complete":"no","operator":"Horehronská banská cesta","roundtrip":"no","osmc:symbol":"green:white:green_backslash"},"6801598":{"name":"Turisticko-náučný chodník Tri duby","type":"route","route":"hiking","colour":"green","symbol":"major","network":"lwn","complete":"yes","operator":"OZ Tuhrianka","osmc:symbol":"green:white:green_bar"},"6816987":{"name":"Náučný chodník Lisková","type":"route","route":"hiking","colour":"green","symbol":"education","network":"lwn","complete":"yes","operator":"obec Lisková","osmc:symbol":"green:white:green_backslash"},"6882796":{"name":"Osobnosti a história Kluknavy","type":"route","route":"hiking","colour":"green","symbol":"education","network":"lwn","complete":"no","operator":"Košický Samosprávny Kraj","osmc:symbol":"green:white:green_backslash"},"7036805":{"ref":"miss","name":"miss","type":"route","fixme":"co su tie vsetky hodnoty \\\"miss\\\" ?","route":"hiking","colour":"green","network":"lcn","complete":"no","operator":"miss","description":"miss","osmc:symbol":"white:green_backslash"},"7080377":{"name":"náučný chodník Zoborské hradisko","type":"route","route":"hiking","colour":"green","symbol":"education","network":"lwn","complete":"yes","osmc:symbol":"green:white:green_backslash"},"7128181":{"name":"Náučný chodník \\\"Spoznaj, chráň a zachovaj krásy našej prírody\\\"","type":"route","route":"hiking","colour":"green","symbol":"education","network":"lwn","complete":"no","osmc:symbol":"green:white:green_backslash"},"7135402":{"name":"Dedečková chata","type":"route","route":"hiking","colour":"red","symbol":"major","network":"rwn","complete":"yes","operator":"Dedečková chata","description":"Brezno - Dedečková chata","osmc:symbol":"red:white:red_bar"},"7188595":{"name":"Náučný chodník Vlkolínec","type":"route","route":"hiking","colour":"green","symbol":"education","network":"lwn","complete":"yes","operator":"Občianske združenie Vlkolínec","osmc:symbol":"green:white:green_backslash"},"7210277":{"name":"Náučný chodník Malé Leváre","type":"route","route":"hiking","symbol":"education","network":"lwn","website":"http://naucnechodniky.eu/naucny-chodnik-male-levare/","educational":"yes"},"7219107":{"name":"Hubovský okruh","type":"route","route":"hiking","symbol":"education","network":"lwn","complete":"yes","wikidata":"Q68039733","wikipedia":"cs:Naučná stezka Hubovský okruh","osmc:symbol":"green:white:green_corner"},"7227078":{"ref":"Náučný banský chodník Ľubietová","name":"Náučný banský chodník Ľubietová","type":"route","route":"hiking","symbol":"education","network":"lwn","complete":"no","description":"Náučný banský chodník Ľubietová"},"7229311":{"name":"Lubochňa dolina","type":"route","route":"hiking","symbol":"education","network":"lwn","complete":"yes","wikidata":"Q68039732","wikipedia":"cs:Naučná stezka Ľubochňa – Ľubochnianska dolina","osmc:symbol":"green:white:green_corner"},"7242618":{"ref":"Medveďou cestičkou - Krpáčovo","name":"Medveďou cestičkou (kratšia)","type":"route","route":"hiking","colour":"green","symbol":"education","network":"lwn","complete":"yes","osmc:symbol":"green:white:green_backslash"},"7249089":{"name":"Náučný chodník Jánska dolina","type":"route","route":"hiking","symbol":"education","network":"lwn","complete":"yes","distance":"0.1","description":"Jánska dolina","osmc:symbol":"yellow:white:yellow_corner"},"7262578":{"name":"Chodník lesom medzi plesom a Plesom","type":"route","route":"hiking","network":"lwn","complete":"yes","education":"yes"},"7269642":{"name":"Chodník sv. Cyrila a Metoda","type":"route","route":"hiking","colour":"green","symbol":"education","network":"lwn","complete":"yes","osmc:symbol":"green:white:green_backslash"},"7271974":{"name":"Náučný chodník k minerálnemu prameňu","note":"http://www.liptjan.sk/chodnik.html","type":"route","route":"hiking","colour":"green","symbol":"education","network":"lwn","complete":"yes","operator":"obec Liptovský Ján","osmc:symbol":"green:white:green_backslash"},"7271988":{"name":"Naučný chodník Kalameny - Liptovský hrad","type":"route","route":"hiking","colour":"green","symbol":"education","network":"lwn","complete":"yes","osmc:symbol":"green:white:green_backslash"},"7273458":{"name":"Náučný chodník Jelšie","note":"http://www.visitliptov.sk/trasy/naucny-chodnik-pavcina-lehota/?lang=sk","type":"route","route":"hiking","colour":"green","symbol":"education","network":"lwn","complete":"yes","operator":"obec Pavčina Lehota","osmc:symbol":"green:white:green_backslash"},"7278010":{"name":"Náučný chodník - Karpatská včela","type":"route","route":"hiking","symbol":"education","network":"lwn","complete":"yes","operator":"Mestské lesy v Bratislave","osmc:symbol":"green:white:green_backslash"},"7310950":{"name":"Havránok","type":"route","route":"hiking","colour":"green","symbol":"education","network":"lwn","complete":"yes","osmc:symbol":"green:white:green_backslash"},"7328180":{"name":"Náučný chodník \\\"Pečenice\\\"","type":"route","route":"hiking","symbol":"education","network":"lwn","osmc:symbol":"green:white:green_backslash"},"7339099":{"name":"Náučný chodník Tiesňava","type":"route","route":"hiking","network":"lwn","osmc:symbol":"none"},"7380108":{"name":"Náučný chodník Remata","type":"route","route":"hiking","colour":"green","symbol":"education","network":"rwn","complete":"no","osmc:symbol":"green:white:green_backslash"},"7401288":{"name":"Náučný chodník Drienok","type":"route","fixme":"survey beginning and end","route":"hiking","colour":"green","symbol":"education","network":"lcn","complete":"no","osmc:symbol":"green:white:green_backslash"},"7402841":{"ref":"1/12","name":"Náučný chodník Brestovec -Stará Myjava - Poriadie - Topolecká","note":"green","type":"route","route":"hiking","colour":"green","symbol":"education","network":"rwn","complete":"no","operator":"KST","description":"Náučný chodník Brestovec -Stará Myjava - Poriadie - Topolecká","osmc:symbol":"green:white:green_backslash"},"7507833":{"name":"Náučný chodník Poniklec","type":"route","route":"hiking","colour":"green","symbol":"education","network":"lwn","complete":"yes","operator":"KST","osmc:symbol":"green:white:green_backslash"},"7509506":{"name":"Náučný chodník","type":"route","route":"hiking","colour":"green","symbol":"education","network":"lwn","complete":"yes","osmc:symbol":"green:white:green_backslash"},"7516447":{"name":"Náučný chodník Veľký vrch","type":"route","route":"hiking","colour":"green","symbol":"education","network":"lwn","complete":"yes","operator":"KST - obec Divinka","osmc:symbol":"green:white:green_backslash"},"7522007":{"jel":"zt","name":"ZT, Magyar-bánya, Kőpark","type":"route","route":"hiking","symbol":"green slash","network":"lwn","symbol:hu":"zöld átló","osmc:symbol":"green:white:::T:green"},"7528027":{"jel":"k+","name":"K+ (Szabó-pallag-eh.)","type":"route","route":"hiking","network":"lwn","operator":"Borsod-Abaúj-Zemplén Megyei Természetjáró Szövetség","ref:MTSZ":"A_01_09","osmc:symbol":"blue:white:blue_cross"},"7567572":{"name":"Kendickým chotárom","type":"route","route":"hiking","colour":"green","symbol":"education","network":"lwn","complete":"yes","operator":"KST","osmc:symbol":"green:white:green_backslash"},"7578861":{"name":"Náučno-historický chodník v Radoli","type":"route","route":"hiking","colour":"green","symbol":"education","network":"lwn","complete":"yes","operator":"obec Radola","osmc:symbol":"green:white:green_backslash"},"7579974":{"ref":"5147","name":"Chodník J. M. Hurbana","type":"route","route":"hiking","colour":"green","symbol":"major","network":"rwn","complete":"yes","operator":"KST","description":"Senica, MsÚ - Hlboké, nám. - Senica, autobusová stanica","osmc:symbol":"green:white:green_bar"},"7580222":{"ref":"2656M","name":"Sebechleby okruh","type":"route","route":"hiking","colour":"blue","symbol":"local","network":"lwn","complete":"yes","operator":"KST","osmc:symbol":"blue:white:blue_corner"},"7595719":{"jel":"zb","name":"ZΩ (Vecsembükki-zsomboly)","type":"route","route":"hiking","network":"lwn","operator":"Borsod-Abaúj-Zemplén Megyei Természetjáró Szövetség","ref:MTSZ":"A_08_03","osmc:symbol":"green:white:green_arch"},"7636092":{"jel":"zt","name":"ZT, Eresztvényi bányák tanösvény","type":"route","route":"hiking","network":"lwn","osmc:symbol":"green:white:::T:green"},"7641558":{"name":"Mučínska jaskyňa","type":"route","route":"hiking","colour":"green","symbol":"education","network":"lwn","complete":"yes","operator":"Obec Mučín","osmc:symbol":"green:white:green_backslash"},"7659711":{"name":"Keltské chodníčky","type":"route","route":"hiking","colour":"green","symbol":"education","network":"lcn","complete":"yes","operator":"GENIUS LOCI SLOVACIAE","osmc:symbol":"green:white:green_backslash"},"7662739":{"name":"Po stopách Maginhradu","note":"so far the marking is only on temporary boards","type":"route","route":"hiking","colour":"green","symbol":"education","network":"lcn","complete":"yes","operator":"Malohont","osmc:symbol":"green:white:green_backslash"},"7738832":{"name":"Medvedia cesta","note":"Zážitková naučná trasa Medvedia cesta","type":"route","route":"hiking","colour":"green","symbol":"education","network":"lwn","complete":"yes","operator":"Občianske združenie Hrabovská dolina","osmc:symbol":"green:white:green_backslash"},"7741846":{"to":"Špania Dolina","ref":"5223N","from":"Banská Bystrica","name":"Banskobystrickeho Permona","type":"route","route":"hiking","network":"lwn","distance":"11.2","operator":"KST","start_date":"2016-12-09","osmc:symbol":"green:white:green_backslash"},"7797410":{"name":"Náučný chodník - Vodná cesta na Zbojnícky hrad","type":"route","route":"hiking","colour":"green","symbol":"education","network":"lwn","complete":"yes","osmc:symbol":"green:white:green_backslash"},"8060109":{"url":"https://hiking.dennikn.sk/ar/4916/bansky_naucny_chodnik_rakos_pri_roznave.html","name":"Banský náučný chodník Rákoš","type":"route","route":"hiking","symbol":"education","network":"lcn","website":"https://naucnechodniky.eu/bansky-naucny-chodnik-rakos/","complete":"yes","operator":"KST","osmc:symbol":"green:white:green_backslash"},"8249552":{"name":"Náučný chodník Humenský Sokol","type":"route","route":"hiking","colour":"gray","symbol":"education","network":"lcn","tourism":"information","complete":"yes","operator":"KST","information":"board","osmc:symbol":"green:white:green_backslash"},"8254749":{"name":"Výstup na Salášky","type":"route","route":"hiking","colour":"blue","source":"gps;survey;local knowledge","network":"lcn","complete":"yes","distance":"3.3","description":"Miestna turistická trasa na vrchol Salášiek (588 m n.m.). Je značená pomocou symbolu modrého trojuholníka v bielom orámovaní. Na oboch koncoch sa trasa napája na žltú miestnu značku Hrušové - NM.","osmc:symbol":"blue::white_turned_V:blue_triangle"},"8262042":{"name":"Náučný chodník okolo Ostrého vrchu","type":"route","route":"hiking","colour":"green","symbol":"education","network":"lwn","complete":"yes","operator":"Turistická Liptovská oblasť","osmc:symbol":"green:white:green_backslash"},"8264516":{"name":"Náučný chodník obce Kocurany","type":"route","route":"hiking","symbol":"education","network":"lwn","complete":"yes","roundtrip":"yes","osmc:symbol":"green:white:green_backslash"},"8315868":{"name":"Neoficiálna modrá trasa","type":"route","route":"hiking","colour":"blue","symbol":"major","network":"nwn","complete":"yes","operator":"unknown","description":"Sološnícka dolina - Veľký Petrklín","osmc:symbol":"blue:white:blue_bar"},"8335505":{"jel":"z4","name":"Z■ (Karancs P – Sátorosi átjáró)","type":"route","route":"hiking","network":"lwn","osmc:symbol":"green:white:green_rectangle"},"8360511":{"jel":"zq","name":"Z●","type":"route","route":"hiking","network":"lwn","osmc:symbol":"green:white:green_dot"},"8377235":{"name":"Banský náučný chodník Rudňany","type":"route","route":"hiking","colour":"green","symbol":"education","network":"lcn","website":"http://www.banickycechrudnany.estranky.sk/clanky/bansky-naucny-chodnik-rudnany/","complete":"no","operator":"Banícky cech Rudňany","osmc:symbol":"green:white:green_backslash"},"8377236":{"ref":"2","name":"Poráčsky banícky chodník","type":"route","route":"hiking","colour":"green","symbol":"education","network":"lwn","complete":"yes","osmc:symbol":"green:white:green_backslash"},"8412377":{"name":"Náučný chodník Horné Pršany - Kremenia","type":"route","route":"hiking","colour":"yellow","symbol":"interesting_object","network":"lwn","complete":"yes","operator":"KST","osmc:symbol":"yellow:white:yellow_turned_T"},"8421034":{"name":"Náučný chodník Horné Pršany - Lažtek, rozhľadňa","type":"route","route":"hiking","symbol":"education","network":"lwn","complete":"yes","operator":"obec Horné Pršany","osmc:symbol":"none"},"8444764":{"name":"Lesnícky náučný chodník Morské oko","type":"route","route":"hiking","colour":"blue","symbol":"education","network":"lwn","complete":"yes","osmc:symbol":"blue:white:blue_backslash"},"8474610":{"name":"Prechod Hrušové - NM","type":"route","route":"hiking","colour":"yellow","network":"lwn","complete":"yes","distance":"6.5","description":"Miestna turistická trasa spájajúca obec Hrušové s Novým Mestom nad Váhom. Je značená pomocou symbolu žltého trojuholníka v bielom orámovaní.","osmc:symbol":"yellow::white_turned_V:yellow_triangle"},"8480504":{"name":"Spoločne k poznaniu a ochrane prírody","type":"route","route":"hiking","colour":"green","symbol":"education","network":"lwn","complete":"yes","osmc:symbol":"green:white:green_slash"},"8480570":{"name":"Vyhliadková veža Dubeň","type":"route","route":"hiking","colour":"green","network":"lwn","complete":"yes","operator":"Mesto Žilina","osmc:symbol":"green:white:green_backslash"},"8482527":{"name":"Na trase kultúr pohraničia","type":"route","route":"hiking","colour":"green","symbol":"education","network":"lwn","complete":"yes","osmc:symbol":"green:white:green_backslash"},"8482674":{"ref":"2686M/1.4a","name":"Sihelné, Dušák - Limier","note":"na trase je len jedna značka","type":"route","route":"hiking","colour":"blue","network":"rwn","complete":"yes","operator":"KST","description":"Sihelné, Dušák - Limier","osmc:symbol":"blue:white:blue_bar"},"8495867":{"name":"Lesnícky náučný chodník","note":"green","type":"route","route":"hiking","colour":"green","symbol":"education","network":"lwn","complete":"no","description":"Lesnícky náučný chodník","osmc:symbol":"green:white:green_backslash"},"8531242":{"jel":"z","name":"Medvesi Zöld","type":"route","route":"hiking","network":"rwn","osmc:symbol":"green:white:green_bar"},"8531243":{"jel":"z+","name":"Z+","type":"route","route":"hiking","network":"lwn","osmc:symbol":"green:white:green_cross"},"8531244":{"jel":"zq","name":"Z● (Losonczy Anna-forrás)","type":"route","route":"hiking","network":"lwn","osmc:symbol":"green:white:green_dot"},"8610484":{"name":"Malokarpatský vlastivedný náučný chodník (I. úsek: Lamač – Kačín)","type":"route","route":"hiking","symbol":"education","network":"lwn","complete":"yes","osmc:symbol":"green:white:green_backslash"},"8613764":{"name":"Náučný lesný chodník Košická Belá","type":"route","route":"hiking","colour":"green","symbol":"education","network":"lwn","complete":"yes","operator":"Mestské lesy Košice","osmc:symbol":"green:white:green_backslash"},"8632273":{"name":"Náučný chodník A. Kocyana v Oraviciach - Okruh B","type":"route","route":"hiking","colour":"green","symbol":"education","network":"lwn","complete":"yes","osmc:symbol":"green:white:green_backslash"},"8632732":{"name":"Náučný chodník A. Kocyana v Oraviciach - Okruh A","type":"route","route":"hiking","colour":"green","symbol":"education","network":"lwn","complete":"yes","osmc:symbol":"green:white:green_backslash"},"8761934":{"name":"Kalvária v Zuberci","type":"route","route":"foot"},"8813928":{"name":"Náučný chodník Čierny kameň","type":"route","route":"hiking","colour":"green","symbol":"education","network":"lwn","complete":"yes","operator":"Združenie na podporu a rozvoj cestovného ruchu v obci Liptovské Revúce","osmc:symbol":"green:white:green_backslash"},"8826068":{"name":"Náučný chodník údolím rieky Slatina","type":"route","route":"hiking","colour":"green","symbol":"education","network":"lwn","complete":"yes","osmc:symbol":"green:white:green_backslash"},"8832357":{"name":"Lesnícky náučný chodník Oravská Lesná","type":"route","route":"hiking","colour":"green","symbol":"education","network":"lwn","complete":"yes","operator":"LESY SR, š. p. Odštepný závod Námestovo","osmc:symbol":"green:white:green_backslash"},"8855885":{"name":"Náučný chodník Premeny lesa","type":"route","route":"hiking","colour":"green","symbol":"education","network":"lwn","website":"https://www.kamnavylet.sk/atrakcia/naucny-chodnik-premeny-lesa-v-kline-klin","description":"Náučný chodník Premeny lesa","osmc:symbol":"green:white:green_backslash"},"8905295":{"name":"Sigordské kolečko","type":"route","route":"foot","symbol":"education","network":"lwn","operator":"OZ Čavargy"},"8908314":{"name":"Duby v Kováčovej","type":"route","route":"hiking","colour":"green","symbol":"education","network":"lwn","complete":"no","operator":"Správa CHKO Poľana","osmc:symbol":"green:white:green_backslash"},"9059189":{"name":"Omsenie - Bartosovica","type":"route","route":"hiking","colour":"yellow","symbol":"local","network":"lcn","complete":"no","osmc:symbol":"yellow:white:yellow_corner"},"9063129":{"name":"k Mergancovmu kameňu","type":"route","route":"hiking","colour":"green","symbol":"education","network":"lcn","complete":"yes","osmc:symbol":"green:white:green_backslash"},"9137276":{"name":"Náučný chodník Zlatými Moravcami","type":"route","route":"hiking","symbol":"education","network":"lwn","complete":"no","operator":"KST","osmc:symbol":"green:white:green_backslash"},"9397036":{"name":"Okruh Kaskády","type":"route","route":"hiking","colour":"blue","symbol":"local","operator":"KST","osmc:symbol":"blue:white:blue_corner"},"9405453":{"name":"Vtáčí chodník","type":"route","route":"hiking","colour":"green","symbol":"education","network":"lwn","complete":"yes","operator":"Občianske združenie Vlkolínec","osmc:symbol":"green:white:green_backslash"},"9428521":{"name":"NCH mestských lesov Košice","type":"route","route":"hiking","colour":"green","symbol":"education","network":"lcn","complete":"yes","education":"yes","osmc:symbol":"green:white:green_backslash"},"9451883":{"name":"Po skale na Baske","type":"route","route":"hiking","colour":"red","symbol":"local","network":"lwn","complete":"no","osmc:symbol":"red:white:red_corner"},"9505251":{"name":"Náučný chodník Horná Roveň - Richňavské jazerá","type":"route","route":"hiking","colour":"green","symbol":"education","network":"lwn","complete":"no","osmc:symbol":"green:white:green_backslash"},"9505252":{"name":"Náučný chodník Milana Kapustu po žile Terézia","type":"route","route":"hiking","colour":"green","symbol":"education","network":"lwn","complete":"no","osmc:symbol":"green:white:green_backslash"},"9505253":{"name":"Po stopách baníckej činnosti vo Vyhniach","type":"route","route":"hiking","colour":"yellow","symbol":"education","network":"lwn","complete":"no","osmc:symbol":"yellow:black:yellow:X"},"9514986":{"name":"Náučný chodník potok Svinica a okolie","type":"route","route":"hiking","colour":"blue","symbol":"education","network":"lwn","complete":"yes","operator":"Štátna ochrana prírody správa Chránenej krajinnej oblasti Biele Karpaty","description":"7 zastávok, jedinečné hodnoty Prírodnej pamiatky Svinica a okolie","osmc:symbol":"blue:white:blue_bar"},"9604376":{"name":"Náučný chodník Paradajs","type":"route","route":"hiking","symbol":"education"},"9695922":{"name":"Urpín vyhliadka","type":"route","route":"hiking","network":"lwn","osmc:symbol":"yellow:white:yellow_triangle"},"9698550":{"name":"Králická tiesňava","type":"route","route":"hiking","network":"lwn","osmc:symbol":"yellow:white:yellow_dot"},"9741431":{"ref":"Has50","name":"Hasprunská 50","type":"route","route":"hiking","colour":"green","network":"lwn","distance":"50","operator":"KST Studienka","roundtrip":"yes"},"9749221":{"name":"Po mohylách","type":"route","route":"hiking","colour":"orange","symbol":"education","network":"lwn","complete":"no","osmc:symbol":"orange:white:orange_backslash"},"9755999":{"to":"Soblahov","from":"Soblahov","name":"Soblahovská 35-ka - 15km okruh","note":"https://www.soblahov.sk/soblahovska-35-ka/","type":"route","route":"hiking","colour":"red","symbol":"major","network":"lwn","website":"https://www.soblahov.sk/soblahovska-35-ka/","complete":"yes","distance":"15","roundtrip":"clockwise","description":"https://www.soblahov.sk/soblahovska-35-ka/ 15 km: Soblahov, Chata OSP Kubrica, Lúčky, Ostrý vrch, Chata po Ostrým vrchom, kyselka Soblahov, štadión TJ Soblahov","osmc:symbol":"red:white:red_dot","signed_direction":"yes"},"9802753":{"to":"Soblahov","from":"Soblahov","name":"Soblahovská 35-ka","note":"https://www.soblahov.sk/soblahovska-35-ka/","type":"route","route":"hiking","colour":"red","symbol":"major","network":"lwn","website":"https://www.soblahov.sk/soblahovska-35-ka/","complete":"yes","distance":"35","roundtrip":"clockwise","description":"https://www.soblahov.sk/soblahovska-35-ka/ 35 km: Soblahov, Kubra – križovatka červenej a zelenej turistickej značky, Trubárka, Lúčky, Ostrý vrch, Chata po Ostrým vrchom – Černachov, Hýheľka, Járky, baňa nad Mníchovou Lehotou, kyselka Soblahov, štadión TJ","osmc:symbol":"red:white:red_dot","signed_direction":"yes"},"9846666":{"to":"Rožňovské Mitice","from":"Rožňovské Mitice","name":"Mitická dvadsiatka - TRASA B – 10 km","note":"https://www.trencianskemitice.sk/oznamy/miticka-dvadsiatka-2018.html","type":"route","route":"hiking","colour":"yellow","symbol":"major","network":"lwn","website":"https://www.trencianskemitice.sk/oznamy/miticka-dvadsiatka-2018.html","complete":"yes","distance":"10 km","roundtrip":"ccw","description":"Po hlavnej ceste prídete do Zemianskych Mitíc. Za obecným úradom zabočíte doľava na poľnú cestu. Po vlastnom značení prídete na lúku pod Čiernachovom, celú ju prejdete a napojíte sa na červenú značku, po ktorej zídete k chate pod Ostrým vrchom (kontrola).","osmc:symbol":"yellow:red:yellow_bar","signed_direction":"yes"},"9849978":{"to":"Rožňovské Mitice","from":"Rožňovské Mitice","name":"Mitická dvadsiatka - TRASA A – 20 km","note":"https://www.trencianskemitice.sk/oznamy/miticka-dvadsiatka-2018.html","type":"route","route":"hiking","colour":"yellow","symbol":"major","network":"lwn","website":"https://www.trencianskemitice.sk/oznamy/miticka-dvadsiatka-2018.html","complete":"yes","distance":"20","roundtrip":"ccw","description":"Po hlavnej ceste prídete cez Zemianske Mitice do Kostolných Mitíc. Tam pri autobusovej zastávke odbočíte doľava po vlastnom značení sa dostanete na futbalové ihrisko a odtiaľ na vrchol Babiek. Ďalej trasa pokračuje vlastným značením až na vrchol Ostrého","osmc:symbol":"yellow:red:yellow_bar","signed_direction":"yes"},"9849979":{"to":"Rožňovské Mitice","from":"Rožňovské Mitice","name":"Mitická dvadsiatka - TRASA D – 25 km","note":"https://www.trencianskemitice.sk/oznamy/miticka-dvadsiatka-2018.html","type":"route","route":"hiking","colour":"yellow","symbol":"major","network":"lwn","website":"https://www.trencianskemitice.sk/oznamy/miticka-dvadsiatka-2018.html","complete":"yes","distance":"25","roundtrip":"ccw","description":"Po hlavnej ceste prídete cez Zemianske Mitice do Kostolných Mitíc. Tam pri autobusovej zastávke odbočíte doľava po vlastnom značení sa dostanete na futbalové ihrisko a odtiaľ na vrchol Babiek. Ďalej trasa pokračuje vlastným značením až na vrchol Ostrého v","osmc:symbol":"yellow:red:yellow_bar","signed_direction":"yes"},"9877785":{"name":"Kyslíková dráha","type":"route","route":"hiking","colour":"blue","symbol":"major","network":"lwn","website":"http://stary.trencin.sk/index.php?s-cv-contentID=12288&s-cv-embeddedID=kyslikova_draha","complete":"yes","distance":"4","roundtrip":"clockwise","description":"http://stary.trencin.sk/index.php?s-cv-contentID=12288&s-cv-embeddedID=kyslikova_draha","osmc:symbol":"blue:white:blue_stripe"},"9877828":{"ref":"IVV1","name":"Martinov chodník (kočíkova trasa)","type":"route","route":"hiking","symbol":"none","network":"lwn","website":"http://krizom-krazom.eu/regiony/miestne-turisticke-chodniky-v-okrese-trencin","complete":"yes","operator":"KST","roundtrip":"ccw","description":"IVV1 – najkratšia trasa. Prechádza súbežne s červeno značeným turistickým chodníkom /0705/ od železničnej stanice ulicami mesta, pokračuje okolo Trenčianskeho hradu do lesoparku Brezina. Po spevnených cestách prechádza lesopark, pri hoteli Brezina opúšťa","osmc:symbol":"green:gray::IVV:white"},"9880026":{"ref":"IVV2","name":"Jirkov chodník (dôchodcovská trasa)","type":"route","route":"hiking","symbol":"none","network":"lwn","website":"http://krizom-krazom.eu/regiony/miestne-turisticke-chodniky-v-okrese-trencin","complete":"yes","operator":"KST","roundtrip":"ccw","description":"IVV2 – dlhšia trasa. K hoteli Brezina má trasu zhodnú s chodníkom IVV1. Ďalej pokračuje stále po červeno značenom turistickom chodníku /0705/ ku kóte 320,1m, kde turistický chodník opúšťa a severným smerom po spevnených cestách pokračuje na Kubranskú ulic","osmc:symbol":"green:gray::IVV:white"},"9905077":{"ref":"IVV3","name":"Stanov chodník (krátka rodinná trasa)","type":"route","route":"hiking","symbol":"none","network":"lwn","website":"http://krizom-krazom.eu/regiony/miestne-turisticke-chodniky-v-okrese-trencin","complete":"yes","operator":"KST","roundtrip":"ccw","description":"IVV3 – Stanov chodník /krátka rodinná trasa/. Opäť ku kóte 320,1m má trasu zhodnú s chodníkom IVV2. Ďalej pokračuje po červeno značenom turistickom chodníku /0705/. Nad záhradkárskou osadou chodník opúšťa a popod vrch Dúbravky /363,0m/ prechádza do dolin","osmc:symbol":"green:gray::IVV:white"},"9906713":{"ref":"IVV4","name":"Ankin chodník (stredná rodinná trasa)","type":"route","route":"hiking","symbol":"none","network":"lwn","website":"http://krizom-krazom.eu/regiony/miestne-turisticke-chodniky-v-okrese-trencin","complete":"yes","operator":"KST","roundtrip":"ccw","description":"IVV4 – Ankin chodník /stredná rodinná trasa/. Opäť nad záhradkársku osadu má trasu zhodnú s chodníkom IVV3. Ďalej pokračuje po červeno značenom turistickom chodníku /0705/ cez Soblahov až k ústiu Mitickej doliny. Tu turistický chodník opúšťa a pokračuje v","osmc:symbol":"green:gray::IVV:white"},"9928697":{"ref":"IVV5","name":"Janov chodník (dlhá rodinná trasa)","type":"route","route":"hiking","symbol":"none","network":"lwn","website":"http://krizom-krazom.eu/regiony/miestne-turisticke-chodniky-v-okrese-trencin","complete":"yes","operator":"KST","roundtrip":"ccw","description":"IVV5 – Janov chodník /dlhá rodinná trasa/. Opäť k ústiu Mitickej doliny má trasu zhodnú s chodníkom IVV4. Ďalej pokračuje po červeno značenom chodníku /0705/ k chate pod Ostrým vrchom. Odtiaľ pokračuje po modro značenom turistickom chodníku /2423/ do sedl","osmc:symbol":"green:gray::IVV:white"},"9981479":{"name":"Náučný chodník Putovanie za živou vodou","type":"route","route":"hiking","symbol":"none","network":"lwn","complete":"no"},"9987251":{"ref":"IVV6","name":"Vladov chodník (maratónska trasa)","type":"route","route":"hiking","symbol":"none","network":"lwn","website":"http://krizom-krazom.eu/regiony/miestne-turisticke-chodniky-v-okrese-trencin","complete":"yes","operator":"KST","roundtrip":"ccw","description":"IVV6 – Vladov chodník /maratónska trasa/. Najdlhšia trasa chodníkov IVV má opäť do sedla Lúčky trasu zhodnú s chodníkom IVV5. Ďalej pokračuje po modro značenom turistickom chodníku /2423/ do Trenčianskych Teplíc, odkiaľ sa do Trenčína vracia po červeno zn","osmc:symbol":"green:gray::IVV:white"},"10039638":{"name":"Po stopách našich predkov","type":"route","route":"hiking","colour":"green","symbol":"education","network":"lcn","complete":"yes","osmc:symbol":"green:white:green_backslash"},"10046336":{"name":"Jastrabská \\\"25\\\"","type":"route","route":"hiking","symbol":"white:black","network":"lwn","distance":"15.18","operator":"Obec Trenčianske Jastrabie","roundtrip":"yes","description":"Pešia turistika"},"10148539":{"name":"Naúčný chodník Strekov - Svodín","type":"route","route":"hiking","colour":"green","name:hu":"Kürt - Szőgyén Tanösvény","network":"lwn","osmc:symbol":"green:white:green_backslash"},"10156171":{"name":"Náučný chodník Dve veže","type":"route","route":"hiking","colour":"green","symbol":"education","network":"lwn","complete":"yes","operator":"GOTHAL Liptovská Osada","osmc:symbol":"green:white:green_backslash"},"10184967":{"name":"Lesnícky náučný chodník Chalmová - Malý Ľubín","note":"Historický okruh","type":"route","route":"hiking","symbol":"education","network":"lwn","complete":"no","osmc:symbol":"green:white:green_backslash"},"10184968":{"name":"Lesnícky náučný chodník Chalmová - Malý Ľubín","note":"lesnícky okruh","type":"route","route":"hiking","symbol":"education","network":"lwn","complete":"yes","osmc:symbol":"green:white:green_backslash"},"10206103":{"name":"Náučno - poznávací Brezovský turistický chodník","type":"route","route":"hiking","colour":"green","symbol":"education","network":"lwn","complete":"yes","operator":"KST","description":"Cesta poznania a zdravia","osmc:symbol":"green:white:green_backslash"},"10236816":{"name":"Náučný chodník Pramenisko","type":"route","route":"hiking","network":"lwn","complete":"no","operator":"TANAP","educational":"yes","osmc:symbol":"green:white:green_backslash"},"10347539":{"ref":"2452","name":"(M) Rieka Morava, lávka - Kostol sv. Margity","type":"route","route":"hiking","colour":"blue","symbol":"major","network":"rwn","complete":"yes","operator":"KST","description":"Rieka Morava, lávka - Kostol sv. Margity, rázc.","osmc:symbol":"blue:white:blue_bar"},"10405774":{"to":"Kvačany","jel":"km","ref":"M02-15","from":"Oravice","name":"Mariánska Cesta","type":"route","route":"hiking","state":"proposed","name:en":"St. Mary's Trail","name:hu":"Mária Út M02-15 (Oravice - Kvacsany)","name:pl":"Slak Maryjny","network":"nwn","complete":"no","name:int":"Via Mariae M02 - The Central-European Pilgrimway M02","operator":"Via Mariae Pt","pilgrimage":"yes","osmc:symbol":"blue:white::VM:blue"},"10487250":{"name":"Na Ostrý vrch","type":"route","route":"hiking","colour":"green","symbol":"major","network":"lwn","complete":"yes","osmc:symbol":"green:brown:green_bar"},"10578576":{"name":"Banský náučný chodník - Trasa B","type":"route","route":"hiking","colour":"green","symbol":"education","network":"lwn","complete":"yes","description":"Po stopách baníckej činnosti v Novej Bani","osmc:symbol":"green:white:green_backslash"},"10627101":{"name":"Banský náučný chodník - Trasa A","type":"route","route":"hiking","colour":"black","symbol":"education","network":"lwn","complete":"no","description":"Po stopách baníckej činnosti v Novej Bani","osmc:symbol":"black:white:black_backslash"},"10632525":{"ref":"5564","name":"Chodník Zákamenským Chotárom","type":"route","route":"hiking","colour":"green","symbol":"major","network":"rwn","operator":"KST","osmc:symbol":"green:white:green_bar","network:type":"rwn"},"10722594":{"name":"Náučný chodník Beša-Čičarovce","type":"route","route":"foot","colour":"#008100","name:cs":"Naučná stezka Beša-Čičarovce","name:sk":"Náučný chodník Beša-Čičarovce","network":"lwn","operator":"SOS/BirdLife Slovensko","wikidata":"Q76533093","educational":"yes","osmc:symbol":"green:white:green_backslash"},"10842494":{"name":"Turisticko-náučný chordník Meričkovka","type":"route","route":"hiking","colour":"green","symbol":"education","network":"lwn","complete":"yes","osmc:symbol":"green:white:green_backslash"},"11007268":{"name":"Turisticko-náučný chodník Nitrica","type":"route","route":"hiking","symbol":"education","network":"lwn","complete":"no","osmc:symbol":"green:white:green_backslash"},"11064668":{"name":"Poklady Drnavy","type":"route","route":"hiking","colour":"green","symbol":"education","name:hu":"Dernő kincsei","network":"lwn","complete":"yes","osmc:symbol":"green:white:green_backslash"},"11078356":{"name":"Svätojakubská cesta: Skratka pod Zoborom","note":"Sväťojakubská cesta, časť západ, Skratka pod Zoborom","type":"route","route":"hiking","state":"alternate","name:de":"Jakobsweg in der Slowakei: Abkürzung unter Zobor","name:es":"Camino de Santiago en Eslovaquia: Atajo debajo de Zoborberg","network":"nwn","website":"https://www.caminodesantiago.sk/","complete":"yes","name:int":"Way of St. James in Slovakia: Shortcut under the Zobor mountain","operator":"Priatelia Svätojakubskej cesty na Slovensku – Camino de Santiago","religion":"christian","roundtrip":"no","pilgrimage":"yes","description":"Svätojakubská cesta na Slovensku: Skratka pod Zoborom","osmc:symbol":"purple:blue:shell_modern","denomination":"roman_catholic","signed_direction":"yes"},"11111265":{"name":"Zvonica na bojisku I. sv. vojny pod vrchom Skory","type":"route","route":"hiking","colour":"green","symbol":"education","network":"lwn","complete":"yes","operator":"Klub vojenskej histórie Beskydy a obec Hostovice","osmc:symbol":"green:white:green_backslash"},"11126935":{"name":"Chodník malých netopierov","type":"route","route":"hiking","colour":"green","symbol":"education","network":"lwn","complete":"yes","operator":"KST","osmc:symbol":"green:white:green_backslash"},"11128009":{"to":"Veterný Vrch","from":"Na Poľane","name":"Veterný Vrch - hrebeňovka","type":"route","route":"hiking","colour":"yellow","network":"lwn","osmc:symbol":"yellow:white:yellow_corner"},"11142800":{"name":"Náučný chodník Fľak","type":"route","route":"hiking","network":"lwn","website":"https://spisskabela.sk/navstevnik/vylety-do-okolia/naucny-lesnicky-chodnik-flak/","operator":"Lesy mesta Spišská Belá, s.r.o.","educational":"yes","osmc:symbol":"green:none"},"11206798":{"name":"Náučný chodník Vtáčím rajom","type":"route","route":"foot","name:cs":"Naučná stezka Ptačím rájem","name:sk":"Náučný chodník Vtáčím rajom","network":"lwn","operator":"SOS/Birdlife Slovensko","wikidata":"Q66425194","educational":"yes","osmc:symbol":"green:white:green_backslash"},"11247510":{"name":"Kalvária na Peknú vyhliadku","type":"route","route":"hiking","colour":"yellow","network":"lcn"},"11249593":{"name":"Náučný chodník Hrebienok","type":"route","fixme":"Vracia sa trasa od Dlheho vodopadu naspat na Hrebienok?","route":"hiking","colour":"green","network":"lwn","complete":"no","educational":"yes","osmc:symbol":"green:white:green_backslash","signed_direction":"yes"},"11287712":{"name":"Náučný chodník Glanzenberg","type":"route","route":"hiking","colour":"green","symbol":"education","network":"lwn","osmc:symbol":"green:white:green_backslash"},"11296963":{"name":"Náučný chodník Rožok","type":"route","route":"hiking","colour":"green","symbol":"education","network":"lwn","operator":"NP Poloniny","osmc:symbol":"green:white:green_backslash"},"11327397":{"name":"Náučný chodník Slaná Voda - Babia hora","type":"route","route":"hiking","colour":"green","symbol":"education","network":"lwn","osmc:symbol":"green:white:green_backslash"},"11355235":{"name":"na vyhliadku","type":"route","fixme":"divny nazov","route":"hiking","colour":"green","symbol":"peak","network":"lwn","osmc:symbol":"green:white:green_triangle"},"11524921":{"name":"Náučný chodník Mikuláša Esterházyho / za cestou skla","type":"route","route":"hiking","colour":"green","network":"lwn","complete":"yes","operator":"obec Detvianska huta","osmc:symbol":"green:white:green_backslash"},"11547135":{"name":"Cyrilometodejská cesta","type":"route","route":"hiking","colour":"blue","network":"iwn","website":"https://www.putujmebezhranic.cz/skalka-velehrad/","complete":"yes","pilgrimage":"yes","osmc:symbol":"blue:white:blue_bar"},"11567411":{"name":"Náučný chodník Strečnianskym chotárom","type":"route","route":"hiking","colour":"green","symbol":"education","network":"lwn","complete":"no"},"11572486":{"name":"Miocén erdő tanösvény, Ipolytarnóc","type":"route","route":"hiking","name:en":"Miocene forest, Ipolytarnóc","name:sk":"Miocénový les, Ipolytarnóc","network":"lwn"},"11572487":{"name":"Kőzetparki tanösvény, Ipolytarnóc","type":"route","route":"hiking","name:en":"Rock park, Ipolytarnóc","name:sk":"Park hornín, Ipolytarnóc"},"11608036":{"name":"Náučný chodník Dubnickým chotárom","type":"route","route":"hiking","symbol":"education","network":"lwn","complete":"no"},"11623285":{"name":"Lemešanská špacírka","note":"symbol for all 4 routes is actually green backslash but routes have separate colors on guideposts","type":"route","route":"hiking","colour":"gray","network":"lwn","operator":"Záhrada pohybu","osmc:symbol":"green:white:green_backslash"},"11623286":{"name":"Lemešanská špacírka","note":"symbol for all 4 routes is actually green backslash but routes have separate colors on guideposts","type":"route","route":"hiking","colour":"yellow","network":"lwn","operator":"Záhrada pohybu","osmc:symbol":"yellow:white:yellow_backslash"},"11623287":{"name":"Lemešanská špacírka","note":"symbol for all 4 routes is actually green backslash but routes have separate colors on guideposts","type":"route","route":"hiking","colour":"red","network":"lwn","operator":"Záhrada pohybu","osmc:symbol":"red:white:red_backslash"},"11623288":{"name":"Lemešanská špacírka","note":"symbol for all 4 routes is actually green backslash but routes have separate colors on guideposts","type":"route","route":"hiking","colour":"blue","network":"lwn","operator":"Záhrada pohybu","osmc:symbol":"blue:white:blue_backslash"},"11627204":{"name":"Náučný chodník ŠTERUSY - REBRO - SPROSNÁ - ORLIE SKALY","type":"route","route":"hiking","colour":"green","symbol":"education","network":"lwn","website":"https://www.sterusy.sk/naucny-chodnik/","complete":"yes","distance":"5.5","operator":"EPH","osmc:symbol":"green:white:green_bar"},"11664125":{"name":"Chodník na Sokolovu skalu","type":"route","route":"hiking","colour":"yellow","symbol":"local","network":"lwn","operator":"KST Mladosť-odeva Lipany","osmc:symbol":"yellow:white:yellow_corner"},"11681114":{"name":"Magurský zlatý chodník","type":"route","route":"hiking","colour":"green","symbol":"education","network":"lwn","complete":"yes","operator":"chata Magurka","osmc:symbol":"green:white:green_backslash"},"11743200":{"name":"Blajzloch","type":"route","route":"hiking","colour":"green","symbol":"education","network":"lwn","osmc:symbol":"green:white:green_backslash"},"11743592":{"name":"NCH Dobšinská Maša","type":"route","route":"hiking","colour":"green","symbol":"education","network":"lwn","operator":"Mestské lesy Dobšiná","osmc:symbol":"green:white:green_backslash"},"11743910":{"ref":"C","name":"Náučný chodník históriou baníctva v Hnilčíku, trasa Cechy - Grétla","type":"route","route":"hiking","colour":"blue","symbol":"education","network":"lwn","complete":"no","osmc:symbol":"green:white:green_backslash"},"11760205":{"name":"Náučný chodník Dechtice","type":"route","route":"hiking","colour":"yellow","symbol":"education","network":"lwn","osmc:symbol":"green:white:green_backslash"},"11760206":{"name":"Náučný chodník Hájiček","type":"route","route":"hiking","colour":"green","symbol":"education","network":"lwn","osmc:symbol":"green:white:green_backslash"},"11768701":{"name":"Trebejovska-Lemešanska špacírka","type":"route","fixme":"continue","route":"hiking","network":"lwn","osmc:symbol":"blue:blue:white_bar"},"11822628":{"name":"Náučný chodník Plešovica","type":"route","route":"hiking","colour":"green","symbol":"education","network":"lwn","osmc:symbol":"green:white:green_backslash"},"11845542":{"name":"Čučma - Banská obec. Náúčný chodník na Železnej ceste","type":"route","fixme":"continue","route":"hiking","symbol":"education","network":"lwn"},"11860712":{"name":"Náučný chodník Miroslava Poliščuka","type":"route","route":"hiking","colour":"green","symbol":"education","network":"lcn","complete":"yes","osmc:symbol":"green:white:green_backslash"},"11924168":{"name":"Náučný chodník Zverovka","type":"route","route":"hiking","colour":"green","symbol":"education","network":"lwn","osmc:symbol":"green:white:green_backslash"},"11925839":{"name":"náučný chodník o moruši čiernej","type":"route","route":"hiking","symbol":"education","network":"lwn"},"12078779":{"name":"Poľovnícky náučný chodník Pilsko","type":"route","route":"hiking","colour":"green","symbol":"education","network":"lwn","osmc:symbol":"green:white:green_backslash"},"12096098":{"name":"NCH lesopark Ťahanovce","type":"route","route":"hiking","colour":"green","symbol":"education","network":"lwn","operator":"Mestské lesy Košice","osmc:symbol":"green:white:green_backslash"},"12378001":{"name":"Náučný chodník Klapy","type":"route","fixme":"continue - total 16 information boards in Uhry, Jasenica and back to board nr.2 above Udica","route":"hiking","colour":"green","network":"lwn","complete":"no","educational":"yes","osmc:symbol":"green:white:green_corner"},"12383531":{"jel":"stmp","name":"Szt. Margit kápolna","type":"route","route":"hiking","network":"lwn"},"12385397":{"name":"Náučný chodník Gombasek","type":"route","route":"hiking","colour":"green","symbol":"education","network":"lwn","osmc:symbol":"green:white:green_backslash"},"12476870":{"name":"Klin, studnička s runovým písmom","type":"route","route":"hiking","colour":"yellow","network":"lwn"},"12502049":{"to":"Sovia Poľana","name":"Rekreačný chodník Sovia Poľana","type":"route","route":"hiking","colour":"green","network":"lwn","roundtrip":"yes","osmc:symbol":"green:white:green_corner","network:type":"lwn"},"12502989":{"name":"Náučný chodník Spoznaj a chráň v Štiavnických vrchoch","type":"route","route":"hiking","colour":"green","symbol":"education","network":"lwn","complete":"yes","operator":"Občianske združenie Demian","osmc:symbol":"green:white:green_backslash"},"12657834":{"name":"Náučný chodník Svätého Martina z Tours","type":"route","route":"hiking","network":"lwn","operator":"OZ Šenviž","educational":"yes","osmc:symbol":"green:none"},"12702844":{"name":"Náučný chodník Stredná lesnícka škola Prešov","type":"route","route":"hiking","symbol":"education","website":"http://past.slspo.sk/skolske-hospodarstvo/naucne-chodniky/","operator":"Stredná lesnícka škola Prešov","osmc:symbol":"green:white:green_backslash"},"12719649":{"name":"Okužná trasa Dubinou","type":"route","route":"hiking","colour":"blue","source":"information board","symbol":"local","network":"lwn","complete":"yes","osmc:symbol":"blue:white:blue_corner"},"12734518":{"name":"Zámocký poznávací okruh","note":"http://naucnechodniky.eu/naucny-chodnik-zamocky-poznavaci-okruh/?print=pdf","type":"route","route":"hiking","colour":"green","symbol":"education","network":"lwn","complete":"yes","operator":"Mestský úrad v Hlohovci,M.R. Štefánika 1, 920 01 Hlohovec, tel. +42133 7368111, mail: info@hlohovec.sk","educational":"yes","osmc:symbol":"green:white:green_backslash"},"12736490":{"name":"Náučný chodník Po stopách predkov","type":"route","route":"hiking","colour":"green","symbol":"education","network":"lcn","complete":"no","operator":"obec Ladzany, obec Baďan","osmc:symbol":"green:white:green_backslash"},"12822126":{"name":"Okruh stepného dobytka","type":"route","route":"hiking","colour":"yellow","symbol":"major","network":"lwn","complete":"yes","operator":"BROZ","osmc:symbol":"yellow:white:yellow_bar"},"12822129":{"name":"Okruh bobra","type":"route","route":"hiking","colour":"green","symbol":"major","network":"lwn","complete":"yes","operator":"BROZ","osmc:symbol":"green:white:green_bar"},"12840534":{"name":"Prechádzkový chodník v Humennom","type":"route","route":"foot","colour":"yellow","symbol":"blue and yellow corner","network":"lwn","osmc:symbol":"blue:white:yellow_corner"},"12864939":{"name":"Náučný chodník Hrádok","type":"route","route":"hiking","network":"lwn","website":"https://www.hotelhradok.sk/naucny-chodnik-hradok/","operator":"Mestské lesy Jelšava s.r.o. a SMZ - Služby, a.s. Jelšava","osmc:symbol":"green:none"},"12875983":{"name":"Prvá humenská nordic walking trasa","type":"route","route":"foot","colour":"purple","name:en":"The First Humenné Nordic Walking Route","name:pl":"Pierwsza trasa Nordic Walking w Humennem","network":"lwn","signed_direction":"yes"},"12920326":{"name":"Včelársky náučný chodník","type":"route","route":"foot","network":"lwn","complete":"no"},"12922165":{"name":"Náučný chodník Párnické jazerá – studnica pokladov","type":"route","route":"hiking","symbol":"education","network":"lwn","complete":"yes","distance":"2","operator":"Občianske združenie Párnický rybár","description":"Náučný chodník Párnické jazerá – studnica pokladov","osmc:symbol":"green:white:green_corner"},"13003994":{"name":"Náučný chodník umelcov","type":"route","route":"hiking","symbol":"education","network":"lwn","complete":"yes","distance":"3","operator":"Kúpele Lúčky","description":"Náučný chodník umelcov","osmc:symbol":"green:white:red_corner"},"13021578":{"name":"prírodovedný chodník Kamenné more - Tiesňava","type":"route","route":"hiking","colour":"green","network":"lwn","osmc:symbol":"green:white:green_backslash"},"13021579":{"name":"okruh Skalka","type":"route","fixme":"continue","route":"hiking","colour":"green","network":"lwn","osmc:symbol":"green:white:green_backslash"},"13021580":{"name":"historický chodník","type":"route","fixme":"continue","route":"hiking","colour":"yellow","network":"lwn","osmc:symbol":"yellow:white:yellow_backslash"},"13021582":{"name":"prírodovedný chodník Ľadové diery - Ortútske jazierko","type":"route","route":"hiking","colour":"green","network":"lwn","osmc:symbol":"green:white:green_backslash"},"13021583":{"name":"banský chodník Ortúty","type":"route","route":"hiking","colour":"black","network":"lwn","osmc:symbol":"black:white:black_backslash"},"13021584":{"name":"chodník banskobystrického permona","type":"route","fixme":"continue","route":"hiking","colour":"yellow","network":"lwn","operator":"Banskobystrický Geopark","osmc:symbol":"yellow:white:yellow_backslash"},"13087619":{"name":"História a súčasnosť obce Trávnica","type":"route","route":"hiking","colour":"green","symbol":"education","network":"lwn","website":"https://www.obectravnica.sk/obec-2/turista/naucny-chodnik-1/naucny-chodnik/","distance":"13","osmc:symbol":"green:white:green_backslash"},"13088874":{"to":"Tisovec","from":"Tisovec","name":"Náučný chodník - Poďte s nami za sysľami","type":"route","route":"hiking","colour":"green","symbol":"education","network":"lwn","complete":"yes","distance":"7","roundtrip":"yes","osmc:symbol":"green:white:green_backslash"},"13094632":{"name":"Chodník Michala Kirschnera","type":"route","route":"hiking","colour":"yellow","symbol":"yellow bar","network":"rwn","osmc:symbol":"yellow:white:yellow_bar"},"13108045":{"name":"Ekochodník - Spoznávajme svoj kraj a spoznáme samých seba","type":"route","route":"hiking","colour":"green","symbol":"education","network":"lwn","complete":"no","operator":"Mesto Krupina","osmc:symbol":"green:white:green_backslash"},"13119635":{"name":"Náučný chodník Vŕšok - Kyjatice","type":"route","fixme":"continue","route":"hiking","colour":"green","symbol":"education","network":"lwn","osmc:symbol":"green:white:green_backslash"},"13189780":{"name":"Lesoparkom \\\"Sever\\\" Kežmarok","type":"route","route":"hiking","colour":"green","symbol":"education","network":"lwn","osmc:symbol":"green:white:green_backslash"},"13207724":{"name":"Dúbravský banský chodník","type":"route","route":"hiking","symbol":"education","network":"lwn","complete":"yes","distance":"6","operator":"Dúbravský banský cech","description":"Dúbravský banský chodník","osmc:symbol":"green:white:red_corner"},"13234775":{"name":"Gemerská zelená cesta","type":"route","route":"hiking","network":"lwn","website":"http://cyklo.sk/cyklomobilita/gemerske-zelene-cesty/","alt_name":"Ekotrasa","complete":"yes","operator":"Mesto Revúca"},"13254845":{"jel":"s","ref":"S","name":"S, Szent Márton-vándorút (Szombathely – Rajka)","type":"route","route":"hiking","network":"rwn","symbol:hu":"sárga sáv","pilgrimage":"yes","osmc:symbol":"yellow:white:yellow_bar"},"13261119":{"name":"Náučný chodník Oborín","type":"route","route":"hiking","colour":"green","symbol":"enducation","network":"lwn","complete":"yes","distance":"0.6","osmc:symbol":"green:white:green_backslash"},"13264921":{"to":"Píla","from":"Píla","name":"Historicko-Náučný chodník \\\"Stopy Histórie\\\"","type":"route","route":"hiking","colour":"green","symbol":"education","network":"lwn","educational":"yes","osmc:symbol":"green:white:green_backslash"},"13287165":{"name":"Červená skala","type":"route","route":"hiking","colour":"green","symbol":"education","network":"lwn","complete":"yes","operator":"Cykloklub Podbiel","osmc:symbol":"green:white:green_backslash"},"13288712":{"name":"NCH Zvonička","type":"route","route":"hiking","colour":"green","symbol":"education","network":"lwn","osmc:symbol":"green:white:green_backslash"},"13288776":{"name":"Richtárikov chodník","type":"route","fixme":"Operator?","route":"hiking","colour":"yellow","network":"lwn","osmc:symbol":"yellow:white:yellow_bar"},"13318304":{"name":"Náučný chodník obcou Rybník","route":"hiking","colour":"green","symbol":"education","network":"lwn","osmc:symbol":"green:white:green_backslash","proposed:type":"route"},"13319638":{"name":"Náučný chodník na Bubeník","type":"route","route":"hiking","colour":"green","symbol":"education","network":"lwn","complete":"yes","operator":"Interreg","osmc:symbol":"green:white:green_backslash"},"13332826":{"name":"Náučný chodník Okolím Rajeckého hradu","type":"route","route":"hiking","colour":"red","symbol":"education","network":"lwn","website":"http://naucnechodniky.eu/naucny-chodnik-okolim-rajeckeho-hradu/","complete":"yes","distance":"7.9","osmc:symbol":"red:white:red_backslash"},"13415699":{"ref":"D","name":"Náučný chodník históriou baníctva v Hnilčíku, trasa pozdĺž Želez. potoka","type":"route","route":"hiking","colour":"orange","symbol":"education","network":"lwn","complete":"yes","osmc:symbol":"none"},"13479597":{"name":"Obecné chránené územie Trenčiansky luh","type":"route","route":"hiking","symbol":"education","network":"lwn","complete":"yes"},"13490630":{"name":"Lesnícky náučný chodník Duchonka - Kulháň","type":"route","route":"hiking","symbol":"education","network":"lwn","operator":"Lesy SR, š.p.","osmc:symbol":"green"},"13500060":{"name":"Náučný chodník Dubie","type":"route","route":"hiking","colour":"green","symbol":"enducation","network":"lwn","website":"https://zilina-gallery.sk/picture.php?/97976/category/6060","complete":"yes","osmc:symbol":"green:white:green_backslash"},"13503992":{"name":"Lesnícky náučný chodník Diana","type":"route","route":"hiking","colour":"green","symbol":"local","network":"lwn","complete":"yes","operator":"Lesy mesta Spišská Nová Ves","osmc:symbol":"green:white:green_backslash"},"13513042":{"name":"Náučný chodník Krivý kút","type":"route","route":"hiking","colour":"green","symbol":"enducation","network":"lwn","website":"http://naucnechodniky.eu/naucny-chodnik-krivy-kut/","complete":"yes","distance":"0.5","osmc:symbol":"green:white:green_backslash"},"13583642":{"name":"Náučný chodník Šumiac - Kráľova Hoľa","type":"route","fixme":"resurvey","route":"hiking","colour":"green","symbol":"education","network":"lwn","operator":"Obec Šumiac","osmc:symbol":"none"},"13630722":{"name":"Náučný chodník obcou Dobrá niva","type":"route","route":"hiking","colour":"green","symbol":"education","network":"lwn","osmc:symbol":"green:white:green_backslash"},"13643157":{"to":"Spiaci mních","from":"Kamenica","name":"Chodník Kamenica - Spiaci mních","type":"route","route":"hiking","colour":"blue","symbol":"local","network":"lwn","description":"Kamenica - Spiaci mních Turistická trasa značená miestnym turistickým značením. Hiking trail marked by local tourist signs.","osmc:symbol":"blue:white:blue_corner","network:type":"lwn"},"13643299":{"to":"Buková","from":"Kamenica","name":"Chodník na Bukovú","type":"route","route":"hiking","colour":"red","symbol":"local","network":"lwn","osmc:symbol":"red:white:red_corner","network:type":"lwn"},"13703198":{"to":"Vinohrady nad Váhom","via":"Bereg","from":"Viecha Jašter","name":"Náučný chodník hlohoveckými vinohradmi","type":"route","route":"hiking","network":"lwn","complete":"yes","operator":"Cech vinárov Hlohovecka, o. z.","educational":"yes","network:type":"basic_network"},"13715429":{"ref":"1114N","name":"Svätojurský náučný chodník","note":"Bez turistického značenia, nachádzajú sa tu len smerovníky na oboch koncoch trasy (január 2022).","type":"route","route":"hiking","network":"lwn","complete":"yes","operator":"KST;Mesto Svätý Jur","description":"Svätojurský náučný chodník","educational":"yes","osmc:symbol":"green:white:green_backslash"},"13715430":{"ref":"1115N","name":"Svätojurský náučný chodník","type":"route","route":"hiking","network":"lwn","complete":"yes","operator":"KST;Mesto Svätý Jur","description":"Svätojurský náučný chodník","educational":"yes","osmc:symbol":"green:white:green_backslash"},"13774998":{"name":"Štefánikova magistrála","type":"superroute","route":"hiking","symbol":"major","network":"nwn","complete":"yes","operator":"KST","wikidata":"Q9351791"},"13967820":{"url":"http://naucnechodniky.eu/lesnicky-naucny-chodnik-chraneny-historicky-park-palarikovo/","name":"Chránený historický park Palárikovo","type":"route","route":"foot","symbol":"education","network":"lwn","website":"https://www.palarikovo.lesy.sk/","osmc:symbol":"green:white:green_bar"},"14042516":{"name":"Zemianske Podhradie - Kykula","type":"route","route":"hiking","colour":"yellow","network":"rwn","operator":"KST","osmc:symbol":"yellow:white:yellow_bar"},"14310913":{"to":"Hájovňa na Rovniach","ref":"8571","from":"Slaná voda, chata","name":"Hviezdoslavova aleja","type":"route","route":"hiking","colour":"yellow","symbol":"major","network":"rwn","complete":"yes","operator":"KST","description":"Slaná voda, chata - Hájovňa na Rovniach","osmc:symbol":"yellow:white:yellow_bar"},"14325038":{"name":"Náučný chodník Drienčanský kras","type":"route","fixme":"continue","route":"hiking","colour":"green","symbol":"education","network":"lwn","operator":"local","osmc:symbol":"green:white:green_backslash"},"14327488":{"name":"Vinohradnický náučný chodník","type":"route","fixme":"continue","route":"hiking","colour":"red","network":"lwn","website":"https://www.vinne.sk/vinna-turistika.html","osmc:symbol":"red:white:red_grape"},"14387775":{"name":"Včelársky náučný chodník","type":"route","route":"foot","symbol":"education","network":"lwn","website":"https://www.hubertluborca.sk/node/239","operator":"Občianske združenie Hubert Ľuborča","osmc:symbol":"green:white:green_backslash"},"14402704":{"name":"Timravin náučný chodník","type":"route","route":"hiking","colour":"green","symbol":"local","network":"lwn","operator":"obec Polichno","osmc:symbol":"green:white:green_backslash"},"14405345":{"name":"Tuhársky kras","type":"route","fixme":"continue","route":"hiking","colour":"green","symbol":"education","network":"lwn","osmc:symbol":"green:white:green_backslash"},"14599439":{"name":"Náučný chodník Staré Mesto","note":"tags moved from way 22772544","type":"route","fixme":"resurvey","route":"hiking","symbol":"education"},"14619728":{"name":"Náučný chodník Jozefa Kronera","type":"route","fixme":"dokončiť","route":"hiking","symbol":"education","network":"lwn","complete":"no","distance":"16","osmc:symbol":"green:white:green_backslash"},"14884463":{"name":"Náučný chodník obce Heľpa","type":"route","route":"hiking","oneway":"no","symbol":"education","network":"lwm","distance":"7.4","operator":"Obec Heľpa","roundtrip":"yes"},"14923930":{"to":"Timoradza","via":"Ondrejkovec","from":"Timoradza","name":"Malý timoradzský okruh","type":"route","route":"hiking","network":"lwn"},"14930398":{"ref":"M05-12","name":"Mariánska Cesta M05-12","type":"route","route":"hiking","symbol":"local","name:hu":"Mária-út, M05-12 Máriavölgy - Pozsony","network":"lwn","website":"http://mariaut.sk","complete":"proposed","operator":"Via Mariae Pt","pilgrimage":"yes","osmc:symbol":"red:white::VM:red"},"14940645":{"name":"Stará cesta cez Dargovský priesmyk","type":"route","route":"hiking","colour":"green","symbol":"education","operator":"KSK","description":"zážitkový náučný chodník","osmc:symbol":"green:white:green_backslash"},"15067579":{"name":"Náučný chodník \\\"Horná Poruba\\\"","type":"route","route":"hiking","colour":"green","symbol":"education","network":"lwn","complete":"yes","osmc:symbol":"green:white:green_backslash"},"15334514":{"to":"Kamenica","via":"Rohov","from":"Kamenica","name":"Chodník na Rohov","type":"route","route":"hiking","colour":"Blue","network":"lwn","osmc:symbol":"blue:white:blue_corner","network:type":"lwn"},"15360991":{"name":"Pamätihodnosti obce Betliar","type":"route","route":"hiking","network":"lwn","operator":"Obec Betliar"},"15414770":{"name":"Sterminy nad Hamriskami","type":"route","route":"hiking","colour":"blue","network":"lwn","website":"https://www.rejdova.sk/-zazitkovy-chodnik","osmc:symbol":"blue:none"},"15414771":{"name":"Sterminy nad Hamriskami","type":"route","route":"hiking","colour":"red","network":"lwn","website":"https://www.rejdova.sk/-zazitkovy-chodnik","osmc:symbol":"red:none"},"15442183":{"name":"Via Slovakia (Bratislava - Komárno)","type":"route","route":"hiking","source":"survey","network":"nwn","complete":"yes","operator":"Via Slovakia"},"15460636":{"name":"Via Slovakia (Šahy - Šiatorská Bukovinka)","type":"route","route":"hiking","source":"survey","network":"nwn","complete":"yes","operator":"Via Slovakia"},"15460904":{"name":"Via Slovakia (Šiatorská Bukovinka - Domica)","type":"route","route":"hiking","source":"survey","network":"nwn","complete":"yes","operator":"Via Slovakia"},"15461737":{"name":"Via Slovakia (Domica - Kechnec)","type":"route","route":"hiking","source":"survey","network":"nwn","operator":"Via Slovakia"},"15461841":{"name":"Via Slovakia (Kechnec - Kráľovský Chlmec)","type":"route","route":"hiking","source":"survey","network":"nwn","complete":"yes","operator":"Via Slovakia"},"15462734":{"name":"Ekocentrum Dedinky","type":"route","route":"hiking","colour":"none","network":"lwn","osmc:symbol":"none"},"15462854":{"name":"Via Slovakia (Kráľovský Chlmec - Ubľa)","type":"route","route":"hiking","source":"survey","network":"nwn","complete":"yes","operator":"Via Slovakia"},"15466389":{"name":"Via Slovakia (Ubľa - Dukla)","type":"route","route":"hiking","source":"survey","network":"nwn","complete":"yes","operator":"Via Slovakia"},"15471092":{"name":"Vyhliadka z Dobšinského kopca","type":"route","route":"hiking","colour":"none","network":"lwn","operator":"Mestské lesy Dobšiná","osmc:symbol":"none"},"15471093":{"name":"Vyhliadka nad Dobšinskou Mašou","type":"route","route":"hiking","colour":"none","network":"lwn","operator":"Mestské lesy Dobšiná","osmc:symbol":"none"},"15476865":{"name":"Mestská rekreačná trasa na Giglovo","type":"route","route":"hiking","colour":"green","symbol":"education","network":"lwn","osmc:symbol":"green:white:green_backslash"},"15478050":{"name":"Via Slovakia (Zuberec - Námestovo)","type":"route","route":"hiking","source":"survey","network":"nwn","complete":"yes","operator":"Via Slovakia"},"15480740":{"url":"https://naucnechodniky.eu/naucny-chodnik-skalnate-pleso/","name":"Skalnaté pleso","type":"route","route":"hiking","colour":"green","symbol":"education","network":"lwn","complete":"yes","osmc:symbol":"green:white:green_backslash"},"15482388":{"name":"Via Slovakia (Námestovo - Stará Bystrica)","type":"route","route":"hiking","source":"survey","network":"nwn","complete":"yes","operator":"Via Slovakia"},"15484405":{"name":"Via Slovakia (Stará Bystrica - Makovský priesmyk)","type":"route","route":"hiking","source":"survey","network":"nwn","complete":"yes","operator":"Via Slovakia"},"15513389":{"name":"Via Slovakia (Štrbské pleso - Zuberec)","type":"route","route":"hiking","source":"survey","network":"nwn","complete":"yes","operator":"Via Slovakia"},"15513545":{"name":"Via Slovakia (Drietoma - Skalica)","type":"route","route":"hiking","source":"survey","network":"nwn","complete":"yes","operator":"Via Slovakia"},"15519983":{"name":"Via Slovakia (Skalica - Bratislava)","type":"route","route":"hiking","source":"survey","network":"nwn","complete":"yes","operator":"Via Slovakia"},"15520865":{"name":"Via Slovakia (Makovský priesmyk - Drietoma)","type":"route","route":"hiking","source":"survey","network":"nwn","complete":"yes","operator":"Via Slovakia"},"15579108":{"name":"Zimná cesta na Choč","type":"route","route":"hiking","ascent":"67","symbol":"education","network":"lwn","complete":"yes","operator":"KST","description":"Zimná cesta na Choč","osmc:symbol":"blue:white:red_corner"},"15751504":{"name":"Betliarska mokraď","type":"route","route":"foot","colour":"none","network":"lwn","osmc:symbol":"none"},"15798910":{"name":"Svätojakubská cesta na Slovensku: Etapa Spišské Podhradie – Levoča","type":"route","route":"hiking","parent":"Úsek Košice – Levoča","name:cs":"Svatojakubská cesta na Slovensku: Etapa Spišské Podhradie – Levoča","name:de":"Jakobsweg in der Slowakei: Etappe Spišské Podhradie – Levoča","name:en":"Way of St. James in Slovakia: Stage Spišské Podhradie – Levoča","name:es":"Camino de Santiago en Eslovaquia: Etapa Spišské Podhradie – Levoča","name:hu":"Szent Jakab-út Szlovákiában: Szakasz Szepesváralja – Lőcse kiválasztása","name:pl":"Droga św. Jakuba na Słowacji: Scena Spišské Podhradie – Levoča","name:sk":"Svätojakubská cesta na Slovensku: Etapa Spišské Podhradie – Levoča","name:uk":"Шлях Святого Якова в Словаччині: Етап Spišské Podhradie – Levoča","network":"nwn","website":"https://www.caminodesantiago.sk/","complete":"yes","name:int":"Way of St. James in Slovakia: Stage Spišské Podhradie – Levoča","operator":"Priatelia Svätojakubskej cesty na Slovensku – Camino de Santiago","religion":"christian","roundtrip":"no","pilgrimage":"yes","osmc:symbol":"purple:blue:shell_modern","denomination":"roman_catholic","signed_direction":"yes"},"15798911":{"name":"Svätojakubská cesta na Slovensku: Etapa Krompachy – Spišské Podhradie","type":"route","route":"hiking","parent":"Úsek Košice – Levoča","name:cs":"Svatojakubská cesta na Slovensku: Etapa Krompachy – Spišské Podhradie","name:de":"Jakobsweg in der Slowakei: Etappe Krompachy – Spišské Podhradie","name:en":"Way of St. James in Slovakia: Stage Krompachy – Spišské Podhradie","name:es":"Camino de Santiago en Eslovaquia: Etapa Krompachy – Spišské Podhradie","name:hu":"Szent Jakab-út Szlovákiában: Szakasz Korompa – Szepesváralja kiválasztása","name:pl":"Droga św. Jakuba na Słowacji: Scena Krompachy – Spišské Podhradie","name:sk":"Svätojakubská cesta na Slovensku: Etapa Krompachy – Spišské Podhradie","name:uk":"Шлях Святого Якова в Словаччині: Етап Krompachy – Spišské Podhradie","network":"nwn","website":"https://www.caminodesantiago.sk/","complete":"yes","name:int":"Way of St. James in Slovakia: Stage Krompachy – Spišské Podhradie","operator":"Priatelia Svätojakubskej cesty na Slovensku – Camino de Santiago","religion":"christian","roundtrip":"no","pilgrimage":"yes","osmc:symbol":"purple:blue:shell_modern","denomination":"roman_catholic","signed_direction":"yes"},"15798912":{"name":"Svätojakubská cesta na Slovensku: Etapa Gelnica – Krompachy","type":"route","route":"hiking","parent":"Úsek Košice – Levoča","name:cs":"Svatojakubská cesta na Slovensku: Etapa Gelnica – Krompachy","name:de":"Jakobsweg in der Slowakei: Etappe Gelnica – Krompachy","name:en":"Way of St. James in Slovakia: Stage Gelnica – Krompachy","name:es":"Camino de Santiago en Eslovaquia: Etapa Gelnica – Krompachy","name:hu":"Szent Jakab-út Szlovákiában: Szakasz Gölnicbánya – Korompa kiválasztása","name:pl":"Droga św. Jakuba na Słowacji: Scena Gelnica – Krompachy","name:sk":"Svätojakubská cesta na Slovensku: Etapa Gelnica – Krompachy","name:uk":"Шлях Святого Якова в Словаччині: Етап Gelnica – Krompachy","network":"nwn","website":"https://www.caminodesantiago.sk/","complete":"yes","name:int":"Way of St. James in Slovakia: Stage Gelnica – Krompachy","operator":"Priatelia Svätojakubskej cesty na Slovensku – Camino de Santiago","religion":"christian","roundtrip":"no","pilgrimage":"yes","osmc:symbol":"purple:blue:shell_modern","denomination":"roman_catholic","signed_direction":"yes"},"15798913":{"name":"Svätojakubská cesta na Slovensku: Etapa Chata Lajoška – Gelnica","type":"route","route":"hiking","parent":"Úsek Košice – Levoča","name:cs":"Svatojakubská cesta na Slovensku: Etapa Chata Lajoška – Gelnica","name:de":"Jakobsweg in der Slowakei: Etappe Chata Lajoška – Gelnica","name:en":"Way of St. James in Slovakia: Stage Chata Lajoška – Gelnica","name:es":"Camino de Santiago en Eslovaquia: Etapa Chata Lajoška – Gelnica","name:hu":"Szent Jakab-út Szlovákiában: Szakasz Lajoska turistaszálló – Gölnicbánya kiválasztása","name:pl":"Droga św. Jakuba na Słowacji: Scena Chata Lajoška – Gelnica","name:sk":"Svätojakubská cesta na Slovensku: Etapa Chata Lajoška – Gelnica","name:uk":"Шлях Святого Якова в Словаччині: Етап Chata Lajoška – Gelnica","network":"nwn","website":"https://www.caminodesantiago.sk/","complete":"yes","name:int":"Way of St. James in Slovakia: Stage Chata Lajoška – Gelnica","operator":"Priatelia Svätojakubskej cesty na Slovensku – Camino de Santiago","religion":"christian","roundtrip":"no","pilgrimage":"yes","osmc:symbol":"purple:blue:shell_modern","denomination":"roman_catholic","signed_direction":"yes"},"15798914":{"name":"Svätojakubská cesta na Slovensku: Etapa Košice – Chata Lajoška","type":"route","route":"hiking","parent":"Úsek Košice – Levoča","name:cs":"Svatojakubská cesta na Slovensku: Etapa Košice – Chata Lajoška","name:de":"Jakobsweg in der Slowakei: Sektion Košice – Levoča","name:en":"Way of St. James in Slovakia: Stage Košice – Chata Lajoška","name:es":"Camino de Santiago en Eslovaquia: Etapa Košice – Chata Lajoška","name:hu":"Szent Jakab-út Szlovákiában: Szakasz Kassa – Lőcse","name:sk":"Svätojakubská cesta na Slovensku: Etapa Košice – Chata Lajoška","name:uk":"Шлях Святого Якова в Словаччині: Етап Košice – Chata Lajoška","network":"nwn","website":"https://www.caminodesantiago.sk/","complete":"yes","name:int":"Way of St. James in Slovakia: Section Košice – Levoča","operator":"Priatelia Svätojakubskej cesty na Slovensku – Camino de Santiago","religion":"christian","roundtrip":"no","pilgrimage":"yes","osmc:symbol":"purple:blue:shell_modern","denomination":"roman_catholic","signed_direction":"yes"},"15800236":{"name":"Svätojakubská cesta na Slovensku: Etapa Marianka – Bratislava","type":"route","route":"hiking","name:cs":"Svatojakubská cesta na Slovensku: Etapa Marianka – Bratislava","name:de":"Jakobsweg in der Slowakei: Etappe Marianka – Bratislava","name:en":"Way of St. James in Slovakia: Stage Marianka – Bratislava","name:es":"Camino de Santiago en Eslovaquia: Etapa Marianka – Bratislava","name:hu":"Szent Jakab-út Szlovákiában: Szakasz Máriavölgy – Pozsony kiválasztása","name:pl":"Droga św. Jakuba na Słowacji: Scena Marianka – Bratislava","name:sk":"Svätojakubská cesta na Slovensku: Etapa Marianka – Bratislava","name:uk":"Шлях Святого Якова в Словаччині: Етап Marianka – Bratislava","network":"nwn","website":"https://www.caminodesantiago.sk/","complete":"yes","name:int":"Way of St. James in Slovakia: Stage Marianka – Bratislava","operator":"Priatelia Svätojakubskej cesty na Slovensku – Camino de Santiago","religion":"christian","roundtrip":"no","pilgrimage":"yes","osmc:symbol":"purple:blue:shell_modern","denomination":"roman_catholic","signed_direction":"yes"},"15800237":{"name":"Svätojakubská cesta na Slovensku: Etapa Pezinok – Marianka","type":"route","route":"hiking","name:cs":"Svatojakubská cesta na Slovensku: Etapa Pezinok – Marianka","name:de":"Jakobsweg in der Slowakei: Etappe Pezinok – Marianka","name:en":"Way of St. James in Slovakia: Stage Pezinok – Marianka","name:es":"Camino de Santiago en Eslovaquia: Etapa Pezinok – Marianka","name:hu":"Szent Jakab-út Szlovákiában: Szakasz Bazin – Máriavölgy kiválasztása","name:pl":"Droga św. Jakuba na Słowacji: Scena Pezinok – Marianka","name:sk":"Svätojakubská cesta na Slovensku: Etapa Pezinok – Marianka","name:uk":"Шлях Святого Якова в Словаччині: Етап Pezinok – Marianka","network":"nwn","website":"https://www.caminodesantiago.sk/","complete":"yes","name:int":"Way of St. James in Slovakia: Stage Pezinok – Marianka","operator":"Priatelia Svätojakubskej cesty na Slovensku – Camino de Santiago","religion":"christian","roundtrip":"no","pilgrimage":"yes","osmc:symbol":"purple:blue:shell_modern","denomination":"roman_catholic","signed_direction":"yes"},"15800238":{"name":"Svätojakubská cesta na Slovensku: Etapa Budmerice – Pezinok","type":"route","route":"hiking","name:cs":"Svatojakubská cesta na Slovensku: Etapa Budmerice – Pezinok","name:de":"Jakobsweg in der Slowakei: Etappe Budmerice – Pezinok","name:en":"Way of St. James in Slovakia: Stage Budmerice – Pezinok","name:es":"Camino de Santiago en Eslovaquia: Etapa Budmerice – Pezinok","name:hu":"Szent Jakab-út Szlovákiában: Szakasz Gidrafa – Bazin kiválasztása","name:pl":"Droga św. Jakuba na Słowacji: Scena Budmerice – Pezinok","name:sk":"Svätojakubská cesta na Slovensku: Etapa Budmerice – Pezinok","name:uk":"Шлях Святого Якова в Словаччині: Етап Budmerice – Pezinok","network":"nwn","website":"https://www.caminodesantiago.sk/","complete":"yes","name:int":"Way of St. James in Slovakia: Stage Budmerice – Pezinok","operator":"Priatelia Svätojakubskej cesty na Slovensku – Camino de Santiago","religion":"christian","roundtrip":"no","pilgrimage":"yes","osmc:symbol":"purple:blue:shell_modern","denomination":"roman_catholic","signed_direction":"yes"},"15800239":{"name":"Svätojakubská cesta na Slovensku: Etapa Trnava – Budmerice","type":"route","route":"hiking","name:cs":"Svatojakubská cesta na Slovensku: Etapa Trnava – Budmerice","name:de":"Jakobsweg in der Slowakei: Etappe Trnava – Budmerice","name:en":"Way of St. James in Slovakia: Stage Trnava – Budmerice","name:es":"Camino de Santiago en Eslovaquia: Etapa Trnava – Budmerice","name:hu":"Szent Jakab-út Szlovákiában: Szakasz Nagyszombat – Gidrafa kiválasztása","name:pl":"Droga św. Jakuba na Słowacji: Scena Trnava – Budmerice","name:sk":"Svätojakubská cesta na Slovensku: Etapa Trnava – Budmerice","name:uk":"Шлях Святого Якова в Словаччині: Етап Trnava – Budmerice","network":"nwn","website":"https://www.caminodesantiago.sk/","complete":"yes","name:int":"Way of St. James in Slovakia: Stage Trnava – Budmerice","operator":"Priatelia Svätojakubskej cesty na Slovensku – Camino de Santiago","religion":"christian","roundtrip":"no","pilgrimage":"yes","osmc:symbol":"purple:blue:shell_modern","denomination":"roman_catholic","signed_direction":"yes"},"15800240":{"name":"Svätojakubská cesta na Slovensku: Etapa Sereď – Trnava","type":"route","route":"hiking","name:cs":"Svatojakubská cesta na Slovensku: Etapa Sereď – Trnava","name:de":"Jakobsweg in der Slowakei: Etappe Sereď – Trnava","name:en":"Way of St. James in Slovakia: Stage Sereď – Trnava","name:es":"Camino de Santiago en Eslovaquia: Etapa Sereď – Trnava","name:hu":"Szent Jakab-út Szlovákiában: Szakasz Szered – Nagyszombat kiválasztása","name:pl":"Droga św. Jakuba na Słowacji: Scena Sereď – Trnava","name:sk":"Svätojakubská cesta na Slovensku: Etapa Sereď – Trnava","name:uk":"Шлях Святого Якова в Словаччині: Етап Sereď – Trnava","network":"nwn","website":"https://www.caminodesantiago.sk/","complete":"yes","name:int":"Way of St. James in Slovakia: Stage Sereď – Trnava","operator":"Priatelia Svätojakubskej cesty na Slovensku – Camino de Santiago","religion":"christian","roundtrip":"no","pilgrimage":"yes","osmc:symbol":"purple:blue:shell_modern","denomination":"roman_catholic","signed_direction":"yes"},"15800241":{"name":"Svätojakubská cesta na Slovensku: Etapa Veľké Zálužie – Sereď","type":"route","route":"hiking","name:cs":"Svatojakubská cesta na Slovensku: Etapa Veľké Zálužie – Sereď","name:de":"Jakobsweg in der Slowakei: Etappe Veľké Zálužie – Sereď","name:en":"Way of St. James in Slovakia: Stage Veľké Zálužie – Sereď","name:es":"Camino de Santiago en Eslovaquia: Etapa Veľké Zálužie – Sereď","name:hu":"Szent Jakab-út Szlovákiában: Szakasz Nyitraújlak – Szered kiválasztása","name:pl":"Droga św. Jakuba na Słowacji: Scena Veľké Zálužie – Sereď","name:sk":"Svätojakubská cesta na Slovensku: Etapa Veľké Zálužie – Sereď","name:uk":"Шлях Святого Якова в Словаччині: Етап Veľké Zálužie – Sereď","network":"nwn","website":"https://www.caminodesantiago.sk/","complete":"yes","name:int":"Way of St. James in Slovakia: Stage Veľké Zálužie – Sereď","operator":"Priatelia Svätojakubskej cesty na Slovensku – Camino de Santiago","religion":"christian","roundtrip":"no","pilgrimage":"yes","osmc:symbol":"purple:blue:shell_modern","denomination":"roman_catholic","signed_direction":"yes"},"15800242":{"name":"Svätojakubská cesta na Slovensku: Etapa Nitra – Veľké Zálužie","type":"route","route":"hiking","name:cs":"Svatojakubská cesta na Slovensku: Etapa Nitra – Veľké Zálužie","name:de":"Jakobsweg in der Slowakei: Etappe Nitra – Veľké Zálužie","name:en":"Way of St. James in Slovakia: Stage Nitra – Veľké Zálužie","name:es":"Camino de Santiago en Eslovaquia: Etapa Nitra – Veľké Zálužie","name:hu":"Szent Jakab-út Szlovákiában: Szakasz Nyitra – Nyitraújlak kiválasztása","name:pl":"Droga św. Jakuba na Słowacji: Scena Nitra – Veľké Zálužie","name:sk":"Svätojakubská cesta na Slovensku: Etapa Nitra – Veľké Zálužie","name:uk":"Шлях Святого Якова в Словаччині: Етап Nitra – Veľké Zálužie","network":"nwn","website":"https://www.caminodesantiago.sk/","complete":"yes","name:int":"Way of St. James in Slovakia: Stage Nitra – Veľké Zálužie","operator":"Priatelia Svätojakubskej cesty na Slovensku – Camino de Santiago","religion":"christian","roundtrip":"no","pilgrimage":"yes","osmc:symbol":"purple:blue:shell_modern","denomination":"roman_catholic","signed_direction":"yes"},"15800243":{"name":"Svätojakubská cesta na Slovensku: Etapa Jelenec – Nitra","type":"route","route":"hiking","name:cs":"Svatojakubská cesta na Slovensku: Etapa Jelenec – Nitra","name:de":"Jakobsweg in der Slowakei: Etappe Jelenec – Nitra","name:en":"Way of St. James in Slovakia: Stage Jelenec – Nitra","name:es":"Camino de Santiago en Eslovaquia: Etapa Jelenec – Nitra","name:hu":"Szent Jakab-út Szlovákiában: Szakasz Gímes – Nyitra kiválasztása","name:pl":"Droga św. Jakuba na Słowacji: Scena Jelenec – Nitra","name:sk":"Svätojakubská cesta na Slovensku: Etapa Jelenec – Nitra","name:uk":"Шлях Святого Якова в Словаччині: Етап Jelenec – Nitra","network":"nwn","website":"https://www.caminodesantiago.sk/","complete":"yes","name:int":"Way of St. James in Slovakia: Stage Jelenec – Nitra","operator":"Priatelia Svätojakubskej cesty na Slovensku – Camino de Santiago","religion":"christian","roundtrip":"no","pilgrimage":"yes","osmc:symbol":"purple:blue:shell_modern","denomination":"roman_catholic","signed_direction":"yes"},"15800244":{"name":"Svätojakubská cesta na Slovensku: Etapa Topoľčianky – Jelenec","type":"route","route":"hiking","name:cs":"Svatojakubská cesta na Slovensku: Etapa Topoľčianky – Jelenec","name:de":"Jakobsweg in der Slowakei: Etappe Topoľčianky – Jelenec","name:en":"Way of St. James in Slovakia: Stage Topoľčianky – Jelenec","name:es":"Camino de Santiago en Eslovaquia: Etapa Topoľčianky – Jelenec","name:hu":"Szent Jakab-út Szlovákiában: Szakasz Kistapolcsány – Gímes kiválasztása","name:pl":"Droga św. Jakuba na Słowacji: Scena Topoľčianky – Jelenec","name:sk":"Svätojakubská cesta na Slovensku: Etapa Topoľčianky – Jelenec","name:uk":"Шлях Святого Якова в Словаччині: Етап Topoľčianky – Jelenec","network":"nwn","website":"https://www.caminodesantiago.sk/","complete":"yes","name:int":"Way of St. James in Slovakia: Stage Topoľčianky – Jelenec","operator":"Priatelia Svätojakubskej cesty na Slovensku – Camino de Santiago","religion":"christian","roundtrip":"no","pilgrimage":"yes","osmc:symbol":"purple:blue:shell_modern","denomination":"roman_catholic","signed_direction":"yes"},"15800245":{"name":"Svätojakubská cesta na Slovensku: Etapa Hronský Beňadik – Topoľčianky","type":"route","route":"hiking","name:cs":"Svatojakubská cesta na Slovensku: Etapa Hronský Beňadik – Topoľčianky","name:de":"Jakobsweg in der Slowakei: Etappe Hronský Beňadik – Topoľčianky","name:en":"Way of St. James in Slovakia: Stage Hronský Beňadik – Topoľčianky","name:es":"Camino de Santiago en Eslovaquia: Etapa Hronský Beňadik – Topoľčianky","name:hu":"Szent Jakab-út Szlovákiában: Szakasz Garamszentbenedek – Kistapolcsány kiválasztása","name:pl":"Droga św. Jakuba na Słowacji: Scena Hronský Beňadik – Topoľčianky","name:sk":"Svätojakubská cesta na Slovensku: Etapa Hronský Beňadik – Topoľčianky","name:uk":"Шлях Святого Якова в Словаччині: Етап Hronský Beňadik – Topoľčianky","network":"nwn","website":"https://www.caminodesantiago.sk/","complete":"yes","name:int":"Way of St. James in Slovakia: Stage Hronský Beňadik – Topoľčianky","operator":"Priatelia Svätojakubskej cesty na Slovensku – Camino de Santiago","religion":"christian","roundtrip":"no","pilgrimage":"yes","osmc:symbol":"purple:blue:shell_modern","denomination":"roman_catholic","signed_direction":"yes"},"15800246":{"name":"Svätojakubská cesta na Slovensku: Etapa Vysoká – Nová Baňa","type":"route","route":"hiking","name:cs":"Svatojakubská cesta na Slovensku: Etapa Vysoká – Nová Baňa","name:de":"Jakobsweg in der Slowakei: Etappe Vysoká – Nová Baňa","name:en":"Way of St. James in Slovakia: Stage Vysoká – Nová Baňa","name:es":"Camino de Santiago en Eslovaquia: Etapa Vysoká – Nová Baňa","name:hu":"Szent Jakab-út Szlovákiában: Szakasz Magaslak – Újbánya kiválasztása","name:pl":"Droga św. Jakuba na Słowacji: Scena Vysoká – Nová Baňa","name:sk":"Svätojakubská cesta na Slovensku: Etapa Vysoká – Nová Baňa","name:uk":"Шлях Святого Якова в Словаччині: Етап Vysoká – Nová Baňa","network":"nwn","website":"https://www.caminodesantiago.sk/","complete":"yes","name:int":"Way of St. James in Slovakia: Stage Vysoká – Nová Baňa","operator":"Priatelia Svätojakubskej cesty na Slovensku – Camino de Santiago","religion":"christian","roundtrip":"no","pilgrimage":"yes","osmc:symbol":"purple:blue:shell_modern","denomination":"roman_catholic","signed_direction":"yes"},"15800247":{"name":"Svätojakubská cesta na Slovensku: Etapa Nová Baňa – Hronský Beňadik","type":"route","route":"hiking","name:cs":"Svatojakubská cesta na Slovensku: Etapa Nová Baňa – Hronský Beňadik","name:de":"Jakobsweg in der Slowakei: Etappe Nová Baňa – Hronský Beňadik","name:en":"Way of St. James in Slovakia: Stage Nová Baňa – Hronský Beňadik","name:es":"Camino de Santiago en Eslovaquia: Etapa Nová Baňa – Hronský Beňadik","name:hu":"Szent Jakab-út Szlovákiában: Szakasz Újbánya – Garamszentbenedek kiválasztása","name:pl":"Droga św. Jakuba na Słowacji: Scena Nová Baňa – Hronský Beňadik","name:sk":"Svätojakubská cesta na Slovensku: Etapa Nová Baňa – Hronský Beňadik","name:uk":"Шлях Святого Якова в Словаччині: Етап Nová Baňa – Hronský Beňadik","network":"nwn","website":"https://www.caminodesantiago.sk/","complete":"yes","name:int":"Way of St. James in Slovakia: Stage Nová Baňa – Hronský Beňadik","operator":"Priatelia Svätojakubskej cesty na Slovensku – Camino de Santiago","religion":"christian","roundtrip":"no","pilgrimage":"yes","osmc:symbol":"purple:blue:shell_modern","denomination":"roman_catholic","signed_direction":"yes"},"15800248":{"name":"Svätojakubská cesta na Slovensku: Etapa Banský Studenec – Vysoká","type":"route","route":"hiking","name:cs":"Svatojakubská cesta na Slovensku: Etapa Banský Studenec – Vysoká","name:de":"Jakobsweg in der Slowakei: Etappe Banský Studenec – Vysoká","name:en":"Way of St. James in Slovakia: Stage Banský Studenec – Vysoká","name:es":"Camino de Santiago en Eslovaquia: Etapa Banský Studenec – Vysoká","name:hu":"Szent Jakab-út Szlovákiában: Szakasz Tópatak – Magaslak kiválasztása","name:pl":"Droga św. Jakuba na Słowacji: Scena Banský Studenec – Vysoká","name:sk":"Svätojakubská cesta na Slovensku: Etapa Banský Studenec – Vysoká","name:uk":"Шлях Святого Якова в Словаччині: Етап Banský Studenec – Vysoká","network":"nwn","website":"https://www.caminodesantiago.sk/","complete":"yes","name:int":"Way of St. James in Slovakia: Stage Banský Studenec – Vysoká","operator":"Priatelia Svätojakubskej cesty na Slovensku – Camino de Santiago","religion":"christian","roundtrip":"no","pilgrimage":"yes","osmc:symbol":"purple:blue:shell_modern","denomination":"roman_catholic","signed_direction":"yes"},"15800249":{"name":"Svätojakubská cesta na Slovensku: Etapa Zvolen – Banský Studenec","type":"route","route":"hiking","name:cs":"Svatojakubská cesta na Slovensku: Etapa Zvolen – Banský Studenec","name:de":"Jakobsweg in der Slowakei: Etappe Zvolen – Banský Studenec","name:en":"Way of St. James in Slovakia: Stage Zvolen – Banský Studenec","name:es":"Camino de Santiago en Eslovaquia: Etapa Zvolen – Banský Studenec","name:hu":"Szent Jakab-út Szlovákiában: Szakasz Zólyom – Tópatak kiválasztása","name:pl":"Droga św. Jakuba na Słowacji: Scena Zvolen – Banský Studenec","name:sk":"Svätojakubská cesta na Slovensku: Etapa Zvolen – Banský Studenec","name:uk":"Шлях Святого Якова в Словаччині: Етап Zvolen – Banský Studenec","network":"nwn","website":"https://www.caminodesantiago.sk/","complete":"yes","name:int":"Way of St. James in Slovakia: Stage Zvolen – Banský Studenec","operator":"Priatelia Svätojakubskej cesty na Slovensku – Camino de Santiago","religion":"christian","roundtrip":"no","pilgrimage":"yes","osmc:symbol":"purple:blue:shell_modern","denomination":"roman_catholic","signed_direction":"yes"},"15800250":{"name":"Svätojakubská cesta na Slovensku: Etapa Banská Bystrica – Zvolen","type":"route","route":"hiking","name:cs":"Svatojakubská cesta na Slovensku: Etapa Banská Bystrica – Zvolen","name:de":"Jakobsweg in der Slowakei: Etappe Banská Bystrica – Zvolen","name:en":"Way of St. James in Slovakia: Stage Banská Bystrica – Zvolen","name:es":"Camino de Santiago en Eslovaquia: Etapa Banská Bystrica – Zvolen","name:hu":"Szent Jakab-út Szlovákiában: Szakasz Besztercebánya – Zólyom kiválasztása","name:pl":"Droga św. Jakuba na Słowacji: Scena Banská Bystrica – Zvolen","name:sk":"Svätojakubská cesta na Slovensku: Etapa Banská Bystrica – Zvolen","name:uk":"Шлях Святого Якова в Словаччині: Етап Banská Bystrica – Zvolen","network":"nwn","website":"https://www.caminodesantiago.sk/","complete":"yes","name:int":"Way of St. James in Slovakia: Stage Banská Bystrica – Zvolen","operator":"Priatelia Svätojakubskej cesty na Slovensku – Camino de Santiago","religion":"christian","roundtrip":"no","pilgrimage":"yes","osmc:symbol":"purple:blue:shell_modern","denomination":"roman_catholic","signed_direction":"yes"},"15800251":{"name":"Svätojakubská cesta na Slovensku: Etapa Donovaly – Staré Hory","type":"route","route":"hiking","name:cs":"Svatojakubská cesta na Slovensku: Etapa Donovaly – Staré Hory","name:de":"Jakobsweg in der Slowakei: Etappe Donovaly – Staré Hory","name:en":"Way of St. James in Slovakia: Stage Donovaly – Staré Hory","name:es":"Camino de Santiago en Eslovaquia: Etapa Donovaly – Staré Hory","name:hu":"Szent Jakab-út Szlovákiában: Szakasz Dóval – Óhegy kiválasztása","name:pl":"Droga św. Jakuba na Słowacji: Scena Donovaly – Staré Hory","name:sk":"Svätojakubská cesta na Slovensku: Etapa Donovaly – Staré Hory","name:uk":"Шлях Святого Якова в Словаччині: Етап Donovaly – Staré Hory","network":"nwn","website":"https://www.caminodesantiago.sk/","complete":"yes","name:int":"Way of St. James in Slovakia: Stage Donovaly – Staré Hory","operator":"Priatelia Svätojakubskej cesty na Slovensku – Camino de Santiago","religion":"christian","roundtrip":"no","pilgrimage":"yes","osmc:symbol":"purple:blue:shell_modern","denomination":"roman_catholic","signed_direction":"yes"},"15800252":{"name":"Svätojakubská cesta na Slovensku: Etapa Liptovská Osada – Donovaly","type":"route","route":"hiking","name:cs":"Svatojakubská cesta na Slovensku: Etapa Liptovská Osada – Donovaly","name:de":"Jakobsweg in der Slowakei: Etappe Liptovská Osada – Donovaly","name:en":"Way of St. James in Slovakia: Stage Liptovská Osada – Donovaly","name:es":"Camino de Santiago en Eslovaquia: Etapa Liptovská Osada – Donovaly","name:hu":"Szent Jakab-út Szlovákiában: Szakasz Oszada – Dóval kiválasztása","name:pl":"Droga św. Jakuba na Słowacji: Scena Liptovská Osada – Donovaly","name:sk":"Svätojakubská cesta na Slovensku: Etapa Liptovská Osada – Donovaly","name:uk":"Шлях Святого Якова в Словаччині: Етап Liptovská Osada – Donovaly","network":"nwn","website":"https://www.caminodesantiago.sk/","complete":"yes","name:int":"Way of St. James in Slovakia: Stage Liptovská Osada – Donovaly","operator":"Priatelia Svätojakubskej cesty na Slovensku – Camino de Santiago","religion":"christian","roundtrip":"no","pilgrimage":"yes","osmc:symbol":"purple:blue:shell_modern","denomination":"roman_catholic","signed_direction":"yes"},"15800253":{"name":"Svätojakubská cesta na Slovensku: Etapa Magurka – Liptovská Osada","type":"route","route":"hiking","name:cs":"Svatojakubská cesta na Slovensku: Etapa Magurka – Liptovská Osada","name:de":"Jakobsweg in der Slowakei: Etappe Magurka – Liptovská Osada","name:en":"Way of St. James in Slovakia: Stage Magurka – Liptovská Osada","name:es":"Camino de Santiago en Eslovaquia: Etapa Magurka – Liptovská Osada","name:hu":"Szent Jakab-út Szlovákiában: Szakasz Magurka – Oszada kiválasztása","name:pl":"Droga św. Jakuba na Słowacji: Scena Magurka – Liptovská Osada","name:sk":"Svätojakubská cesta na Slovensku: Etapa Magurka – Liptovská Osada","name:uk":"Шлях Святого Якова в Словаччині: Етап Magurka – Liptovská Osada","network":"nwn","website":"https://www.caminodesantiago.sk/","complete":"yes","name:int":"Way of St. James in Slovakia: Stage Magurka – Liptovská Osada","operator":"Priatelia Svätojakubskej cesty na Slovensku – Camino de Santiago","religion":"christian","roundtrip":"no","pilgrimage":"yes","osmc:symbol":"purple:blue:shell_modern","denomination":"roman_catholic","signed_direction":"yes"},"15800254":{"name":"Svätojakubská cesta na Slovensku: Etapa Partizánska Ľupča – Magurka","type":"route","route":"hiking","name:cs":"Svatojakubská cesta na Slovensku: Etapa Partizánska Ľupča – Magurka","name:de":"Jakobsweg in der Slowakei: Etappe Partizánska Ľupča – Magurka","name:en":"Way of St. James in Slovakia: Stage Partizánska Ľupča – Magurka","name:es":"Camino de Santiago en Eslovaquia: Etapa Partizánska Ľupča – Magurka","name:hu":"Szent Jakab-út Szlovákiában: Szakasz Németlipcse – Magurka kiválasztása","name:pl":"Droga św. Jakuba na Słowacji: Scena Partizánska Ľupča – Magurka","name:sk":"Svätojakubská cesta na Slovensku: Etapa Partizánska Ľupča – Magurka","name:uk":"Шлях Святого Якова в Словаччині: Етап Partizánska Ľupča – Magurka","network":"nwn","website":"https://www.caminodesantiago.sk/","complete":"yes","name:int":"Way of St. James in Slovakia: Stage Partizánska Ľupča – Magurka","operator":"Priatelia Svätojakubskej cesty na Slovensku – Camino de Santiago","religion":"christian","roundtrip":"no","pilgrimage":"yes","osmc:symbol":"purple:blue:shell_modern","denomination":"roman_catholic","signed_direction":"yes"},"15800255":{"name":"Svätojakubská cesta na Slovensku: Etapa Pavčina Lehota – Partizánska Ľupča","type":"route","route":"hiking","name:cs":"Svatojakubská cesta na Slovensku: Etapa Pavčina Lehota – Partizánska Ľupča","name:de":"Jakobsweg in der Slowakei: Etappe Pavčina Lehota – Partizánska Ľupča","name:en":"Way of St. James in Slovakia: Stage Pavčina Lehota – Partizánska Ľupča","name:es":"Camino de Santiago en Eslovaquia: Etapa Pavčina Lehota – Partizánska Ľupča","name:hu":"Szent Jakab-út Szlovákiában: Szakasz Paucsinalehota – Németlipcse kiválasztása","name:pl":"Droga św. Jakuba na Słowacji: Scena Pavčina Lehota – Partizánska Ľupča","name:sk":"Svätojakubská cesta na Slovensku: Etapa Pavčina Lehota – Partizánska Ľupča","name:uk":"Шлях Святого Якова в Словаччині: Етап Pavčina Lehota – Partizánska Ľupča","network":"nwn","website":"https://www.caminodesantiago.sk/","complete":"yes","name:int":"Way of St. James in Slovakia: Stage Pavčina Lehota – Partizánska Ľupča","operator":"Priatelia Svätojakubskej cesty na Slovensku – Camino de Santiago","religion":"christian","roundtrip":"no","pilgrimage":"yes","osmc:symbol":"purple:blue:shell_modern","denomination":"roman_catholic","signed_direction":"yes"},"15800256":{"name":"Svätojakubská cesta na Slovensku: Etapa Kráľova Lehota – Pavčina Lehota","type":"route","route":"hiking","name:cs":"Svatojakubská cesta na Slovensku: Etapa Kráľova Lehota – Pavčina Lehota","name:de":"Jakobsweg in der Slowakei: Etappe Kráľova Lehota – Pavčina Lehota","name:en":"Way of St. James in Slovakia: Stage Kráľova Lehota – Pavčina Lehota","name:es":"Camino de Santiago en Eslovaquia: Etapa Kráľova Lehota – Pavčina Lehota","name:hu":"Szent Jakab-út Szlovákiában: Szakasz Királylehota – Paucsinalehota kiválasztása","name:pl":"Droga św. Jakuba na Słowacji: Scena Kráľova Lehota – Pavčina Lehota","name:sk":"Svätojakubská cesta na Slovensku: Etapa Kráľova Lehota – Pavčina Lehota","name:uk":"Шлях Святого Якова в Словаччині: Етап Kráľova Lehota – Pavčina Lehota","network":"nwn","website":"https://www.caminodesantiago.sk/","complete":"yes","name:int":"Way of St. James in Slovakia: Stage Kráľova Lehota – Pavčina Lehota","operator":"Priatelia Svätojakubskej cesty na Slovensku – Camino de Santiago","religion":"christian","roundtrip":"no","pilgrimage":"yes","osmc:symbol":"purple:blue:shell_modern","denomination":"roman_catholic","signed_direction":"yes"},"15800257":{"name":"Svätojakubská cesta na Slovensku: Etapa Važec – Kráľova Lehota","type":"route","route":"hiking","name:cs":"Svatojakubská cesta na Slovensku: Etapa Važec – Kráľova Lehota","name:de":"Jakobsweg in der Slowakei: Etappe Važec – Kráľova Lehota","name:en":"Way of St. James in Slovakia: Stage Važec – Kráľova Lehota","name:es":"Camino de Santiago en Eslovaquia: Etapa Važec – Kráľova Lehota","name:hu":"Szent Jakab-út Szlovákiában: Szakasz Vázsec – Királylehota kiválasztása","name:pl":"Droga św. Jakuba na Słowacji: Scena Važec – Kráľova Lehota","name:sk":"Svätojakubská cesta na Slovensku: Etapa Važec – Kráľova Lehota","name:uk":"Шлях Святого Якова в Словаччині: Етап Važec – Kráľova Lehota","network":"nwn","website":"https://www.caminodesantiago.sk/","complete":"yes","name:int":"Way of St. James in Slovakia: Stage Važec – Kráľova Lehota","operator":"Priatelia Svätojakubskej cesty na Slovensku – Camino de Santiago","religion":"christian","roundtrip":"no","pilgrimage":"yes","osmc:symbol":"purple:blue:shell_modern","denomination":"roman_catholic","signed_direction":"yes"},"15800258":{"name":"Svätojakubská cesta na Slovensku: Etapa Poprad – Važec","type":"route","route":"hiking","name:cs":"Svatojakubská cesta na Slovensku: Etapa Poprad – Važec","name:de":"Jakobsweg in der Slowakei: Etappe Poprad – Važec","name:en":"Way of St. James in Slovakia: Stage Poprad – Važec","name:es":"Camino de Santiago en Eslovaquia: Etapa Poprad – Važec","name:hu":"Szent Jakab-út Szlovákiában: Szakasz Poprád – Vázsec kiválasztása","name:pl":"Droga św. Jakuba na Słowacji: Scena Poprad – Važec","name:sk":"Svätojakubská cesta na Slovensku: Etapa Poprad – Važec","name:uk":"Шлях Святого Якова в Словаччині: Етап Poprad – Važec","network":"nwn","website":"https://www.caminodesantiago.sk/","complete":"yes","name:int":"Way of St. James in Slovakia: Stage Poprad – Važec","operator":"Priatelia Svätojakubskej cesty na Slovensku – Camino de Santiago","religion":"christian","roundtrip":"no","pilgrimage":"yes","osmc:symbol":"purple:blue:shell_modern","denomination":"roman_catholic","signed_direction":"yes"},"15800259":{"name":"Svätojakubská cesta na Slovensku: Etapa Kežmarok – Poprad","type":"route","route":"hiking","name:cs":"Svatojakubská cesta na Slovensku: Etapa Kežmarok – Poprad","name:de":"Jakobsweg in der Slowakei: Etappe Kežmarok – Poprad","name:en":"Way of St. James in Slovakia: Stage Kežmarok – Poprad","name:es":"Camino de Santiago en Eslovaquia: Etapa Kežmarok – Poprad","name:hu":"Szent Jakab-út Szlovákiában: Szakasz Késmárk – Poprád kiválasztása","name:pl":"Droga św. Jakuba na Słowacji: Scena Kežmarok – Poprad","name:sk":"Svätojakubská cesta na Slovensku: Etapa Kežmarok – Poprad","name:uk":"Шлях Святого Якова в Словаччині: Етап Kežmarok – Poprad","network":"nwn","website":"https://www.caminodesantiago.sk/","complete":"yes","name:int":"Way of St. James in Slovakia: Stage Kežmarok – Poprad","operator":"Priatelia Svätojakubskej cesty na Slovensku – Camino de Santiago","religion":"christian","roundtrip":"no","pilgrimage":"yes","osmc:symbol":"purple:blue:shell_modern","denomination":"roman_catholic","signed_direction":"yes"},"15800260":{"name":"Svätojakubská cesta na Slovensku: Etapa Levoča – Kežmarok","type":"route","route":"hiking","name:cs":"Svatojakubská cesta na Slovensku: Etapa Levoča – Kežmarok","name:de":"Jakobsweg in der Slowakei: Etappe Levoča – Kežmarok","name:en":"Way of St. James in Slovakia: Stage Levoča – Kežmarok","name:es":"Camino de Santiago en Eslovaquia: Etapa Levoča – Kežmarok","name:hu":"Szent Jakab-út Szlovákiában: Szakasz Lőcse – Késmárk kiválasztása","name:pl":"Droga św. Jakuba na Słowacji: Scena Levoča – Kežmarok","name:sk":"Svätojakubská cesta na Slovensku: Etapa Levoča – Kežmarok","name:uk":"Шлях Святого Якова в Словаччині: Етап Levoča – Kežmarok","network":"nwn","website":"https://www.caminodesantiago.sk/","complete":"yes","name:int":"Way of St. James in Slovakia: Stage Levoča – Kežmarok","operator":"Priatelia Svätojakubskej cesty na Slovensku – Camino de Santiago","religion":"christian","roundtrip":"no","pilgrimage":"yes","osmc:symbol":"purple:blue:shell_modern","denomination":"roman_catholic","signed_direction":"yes"},"15832613":{"name":"Cesta svätej Alžbety","type":"route","route":"hiking","colour":"red","name:de":"Elisabethpfad","name:en":"The Way of St. Elizabeth","name:hu":"Szent Erzsébet-út","name:pl":"Droga św. Elżbiety","name:sk":"Cesta svätej Alžbety","network":"iwn","website":"https://www.szenterzsebetut.hu/","complete":"yes","symbol:en":"red flower on white background","pilgrimage":"yes","osmc:symbol":"red:white:red_flower"},"15884636":{"name":"Lesnícky náučný chodník Stráže","type":"route","route":"hiking","colour":"green","symbol":"education","network":"lwn","complete":"yes","osmc:symbol":"green:white:green_backslash"},"15949631":{"info":"Szlak dla osób z niepełnosprawnościami","name":"Przełęcz Glinka - Glinka","type":"route","fixme":"continue","route":"hiking","colour":"green","network":"rwn","complete":"no","operator":"Pogranicze Bez Barier","start_date":"10.2022","osmc:symbol":"green:blue:green_bar"},"15949873":{"name":"Svätojakubská cesta na Slovensku: Etapa Staré Hory – Banská Bystrica","type":"route","route":"hiking","name:cs":"Svatojakubská cesta na Slovensku: Etapa Staré Hory – Banská Bystrica","name:de":"Jakobsweg in der Slowakei: Etappe Staré Hory – Banská Bystrica","name:en":"Way of St. James in Slovakia: Stage Staré Hory – Banská Bystrica","name:es":"Camino de Santiago en Eslovaquia: Etapa Staré Hory – Banská Bystrica","name:hu":"Szent Jakab-út Szlovákiában: Szakasz Óhegy – Besztercebánya kiválasztása","name:pl":"Droga św. Jakuba na Słowacji: Scena Staré Hory – Banská Bystrica","name:sk":"Svätojakubská cesta na Slovensku: Etapa Staré Hory – Banská Bystrica","name:uk":"Шлях Святого Якова в Словаччині: Етап Staré Hory – Banská Bystrica","network":"nwn","website":"https://www.caminodesantiago.sk/","complete":"yes","name:int":"Way of St. James in Slovakia: Stage Staré Hory – Banská Bystrica","operator":"Priatelia Svätojakubskej cesty na Slovensku – Camino de Santiago","religion":"christian","roundtrip":"no","pilgrimage":"yes","osmc:symbol":"purple:blue:shell_modern","denomination":"roman_catholic","signed_direction":"yes"},"16032315":{"name":"Petőfiho chodník","type":"route","route":"hiking","network":"lwn","network:type":"lwn"},"16032319":{"name":"Starý poľovnícky chodník","type":"route","route":"hiking","network":"lwn","complete":"yes","network:type":"lwn"},"16056503":{"ref":"8101M","name":"Sezónny náučný chodník Sysľovské polia","note":"Chodník sprístupnený iba počas mesiacov júl, august a september.","type":"route","route":"hiking","symbol":"local","network":"lwn","complete":"yes","operator":"KST;Mesto Bratislava","osmc:symbol":"yellow:white:yellow_corner"},"16056504":{"ref":"5102M","name":"Sezónny náučný chodník Sysľovské polia","note":"Chodník sprístupnený iba počas mesiacov júl, august a september.","type":"route","route":"hiking","symbol":"local","network":"lwn","complete":"yes","operator":"KST;Mesto Bratislava","osmc:symbol":"green:white:green_corner"},"16058733":{"name":"Žltá trasa Cemjata - Vyhliadka/odpočívadlo","type":"route","route":"hiking","colour":"yellow","network":"lwn","operator":"No Limits","network:type":"lwn"},"16058734":{"name":"Zelená trasa Cemjata","type":"route","route":"hiking","colour":"green","network":"lwn","operator":"No Limits","network:type":"local"},"16058735":{"name":"Modrá trasa Cemjata - Zabíjaná/odpočívadlo - Záhradky","type":"route","route":"hiking","colour":"blue","network":"lwn","operator":"No Limits","network:type":"local"},"16058736":{"name":"Červená trasa Cemjata - Zabíjaná - Vyhliadka","type":"route","route":"hiking","colour":"red","network":"lwn","operator":"No Limits","network:type":"lwn"},"16088271":{"name":"Cesta okolo hradu","type":"route","route":"hiking","network":"lwn","operator":"Veľký Šariš"},"16119913":{"to":"Čunovo","ref":"ST201","from":"Bratislava","name":"ST201 - Bratislava to Čunovo","type":"route","route":"hiking","network":"rwn","network:type":"rwn"},"16119975":{"to":"Bodíky","ref":"ST202","from":"Čunovo","name":"ST202 - Čunovo to Bodíky","type":"route","route":"hiking","network":"rwn","network:type":"rwn"},"16120165":{"to":"Ňárad","ref":"ST203","from":"Bodíky","name":"ST203 - Bodíky to Ňárad","type":"route","route":"hiking","network":"rwn","network:type":"rwn"},"16120230":{"to":"Komárno","ref":"ST205","from":"Zlatná na Ostrove","name":"ST205 - Zlatná na Ostrove to Komárno","type":"route","route":"hiking","network":"rwn"},"16122181":{"to":"Esztergom","ref":"ST212","from":"Mužla","name":"ST212 - Mužla to Esztergom","type":"route","route":"hiking","network":"rwn"},"16126204":{"name":"Náučný chodník Tu je náš domov","type":"route","route":"hiking","symbol":"education"},"16126227":{"name":"Náučný chodník Bielické bahná","type":"route","route":"hiking","symbol":"education","network":"lwn"},"16126237":{"name":"Lesný náučný chodník","type":"route","route":"hiking","symbol":"education","network":"lwn"},"16126259":{"name":"Farmársky náučný chodník","type":"route","route":"foot","symbol":"education"},"16126263":{"name":"Náučný chodník Kalamárka","type":"route","route":"hiking","symbol":"education","network":"lwn"},"16126451":{"name":"Cesta svetla","type":"route","route":"foot"},"16126601":{"name":"Náučný chodník históriou a tradíciami Ždiaru","type":"route","route":"hiking","osmc:symbol":"green:white:green_backslash"},"16201291":{"name":"k miestu vzniku rieky Belá","type":"route","route":"hiking","colour":"blue","symbol":"education","network":"lwn","complete":"yes","operator":"TANAP","osmc:symbol":"blue:white:blue_backslash"},"16215106":{"name":"Náučný chodník Dukla","type":"route","route":"hiking","symbol":"education","network":"lwn","operator":"ROKA","roundtrip":"yes","osmc:symbol":"green:white:green_backslash"},"16215107":{"name":"Náučný chodník Dukla","type":"route","route":"hiking","symbol":"education","network":"lwn","operator":"ROKA","roundtrip":"yes","osmc:symbol":"green:white:green_backslash"}}