{"3534831":{"name":"丹大林道","type":"route","route":"hiking","state":"connection"},"3736191":{"name":"四月十二迎城隍","type":"route","route":"foot","name:en":"Kinmen City God Reception Parade","name:zh":"四月十二迎城隍","network":"lwn","website":"http://412.kinmen.gov.tw/content/%E7%B7%A3%E8%B5%B7","religion":"taoist","pilgrimage":"yes"},"3874927":{"name":"鎮南宮後山步道","type":"route","route":"hiking","network":"lwn"},"4593261":{"ref":"231009","name":"潤濟宮步道","type":"route","route":"hiking","network":"lwn","website":"http://hike.ntpc.gov.tw/FS_A02.aspx?TRAIL_ID=231009","operator":"新北市觀傳局"},"4612315":{"name":"法雨寺步道","type":"route","route":"hiking","network":"lwn"},"4612504":{"name":"郵政訓練所步道","type":"route","route":"hiking","network":"lwn"},"4613214":{"name":"海芋環狀步道","type":"route","route":"hiking","network":"lwn"},"4620445":{"name":"水尾巴拉卡步道","type":"route","route":"hiking"},"4629906":{"name":"永春寮步道","note":"rwn: Regional Hiking Trail Network 對應臺灣的區域步道系統。","type":"route","route":"hiking","network":"rwn"},"4637790":{"name":"瑪礁古道","type":"route","route":"hiking","network":"lwn"},"4637791":{"name":"紗帽路磺溪小徑","type":"route","route":"hiking","network":"lwn"},"4637792":{"name":"絹絲瀑布步道","type":"route","route":"hiking","network":"nwn","operator":"陽明山國家公園"},"5642578":{"name":"仙跡巖登山步道景興支線","type":"route","route":"hiking","network":"rwn"},"5695435":{"name":"苗冷古道","type":"route","route":"hiking"},"5713406":{"name":"淡蘭百年山徑","type":"route","route":"foot","network":"ncn","historic":"yes","operator":"台灣千里步道協會"},"5731414":{"name":"天母古道親山步道","type":"route","route":"hiking","name:en":"Old TianMu Hiking Trail","name:zh":"天母古道親山步道","network":"lwn"},"5745955":{"name":"草嶺古道","type":"route","route":"hiking","network":"rwn"},"5816855":{"name":"南觀音山登山步道","type":"route","route":"hiking"},"5850954":{"name":"馬胎古道","type":"route","route":"hiking","network":"lwn"},"5850969":{"name":"情人谷步道","type":"route","route":"hiking","network":"lwn"},"5945040":{"name":"獅頭山步道","type":"route","route":"hiking","network":"lwn","full_name":"新店獅頭山登山步道"},"5945286":{"name":"小油坑箭竹林步道","type":"route","route":"hiking","network":"lwn"},"5995228":{"name":"齋明寺古道","type":"route","route":"hiking","network":"rwn"},"5995285":{"name":"御成路古道","type":"route","route":"hiking","name:en":"Yucheng Old Trail","name:zh":"御成路古道","network":"rwn"},"6000371":{"name":"半嶺步道","type":"route","route":"hiking","network":"lwn"},"6000372":{"name":"橫嶺古道","type":"route","route":"hiking","network":"lwn"},"6000373":{"name":"湖山國小步道","type":"route","route":"hiking","network":"lwn"},"6000374":{"name":"紗帽山 步道","type":"route","route":"hiking","network":"nwn","operator":"陽明山國家公園"},"6000725":{"name":"和美山登山步道","type":"route","route":"hiking","network":"lwn","operator":"新北市農業局"},"6015577":{"name":"七星山健走步道","type":"route","route":"hiking","network":"lwn"},"6101789":{"name":"屈尺古道","type":"route","route":"hiking","network":"lwn"},"6265721":{"name":"清溪步道","type":"route","route":"foot"},"6877424":{"name":"九份二山登山步道","type":"route","route":"hiking","network":"lwn"},"7042106":{"name":"水社大山步道","type":"route","route":"hiking","network":"lwn"},"7052926":{"name":"三連埤步道","type":"route","route":"foot"},"7060371":{"name":"白鷺鷥山親山步道","type":"route","route":"hiking","network":"rwn"},"7226990":{"name":"七星山登山步道苗圃線","type":"route","route":"hiking","network":"nwn","operator":"陽明山國家公園"},"7229777":{"name":"七星山登山路線冷水坑線","type":"route","route":"hiking","network":"nwn","operator":"陽明山國家公園"},"7229778":{"name":"七星山小油坑線","type":"route","route":"hiking","network":"nwn","operator":"陽明山國家公園"},"7311493":{"name":"夢幻湖步道","type":"route","route":"hiking","network":"nwn","distance":"2.5","operator":"陽明山國家公園"},"7311698":{"name":"大屯主峰．連峰步道","type":"route","route":"hiking","network":"nwn","operator":"陽明山國家公園"},"7372477":{"name":"桃源谷(草嶺線步道)","type":"route","route":"hiking","network":"lwn"},"7372713":{"name":"金字碑登山步道","type":"route","route":"hiking","network":"lwn"},"7390186":{"name":"檳榔路支線","type":"route","route":"hiking","network":"lwn","full_name":"新店獅頭山登山步道檳榔路支線"},"7390187":{"name":"竹林禪寺支線","type":"route","route":"hiking","network":"lwn","full_name":"新店獅頭山登山步道竹林禪寺支線"},"7394524":{"name":"桃山瀑布步道","type":"route","route":"hiking","network":"nwn","operator":"雪霸國家公園"},"7411350":{"name":"康樂山親山步道","type":"route","route":"hiking","network":"rwn"},"7412600":{"name":"鯉魚山步道","type":"route","route":"hiking","network":"rwn"},"7412603":{"name":"忠勇山步道","type":"route","route":"hiking","network":"rwn"},"7412616":{"name":"大崙頭山步道","type":"route","route":"hiking","network":"rwn","operator":"臺北市政府工務局大地工程處"},"7412622":{"name":"大崙尾山步道","type":"route","route":"hiking","network":"rwn","operator":"臺北市政府工務局大地工程處"},"7412751":{"name":"金面山步道","type":"route","route":"hiking","network":"rwn"},"7412790":{"name":"金包里大路","type":"route","route":"hiking","network":"nwn","operator":"陽明山國家公園"},"7412868":{"name":"明舉山步道","type":"route","route":"hiking","network":"rwn"},"7415717":{"name":"荷蘭古道","type":"route","route":"hiking","network":"rwn"},"7415796":{"name":"坪頂古圳步道","type":"route","route":"hiking","network":"nwn","operator":"陽明山國家公園"},"7415946":{"name":"內雙溪古道","type":"route","route":"hiking","network":"rwn"},"7417041":{"name":"內溝山登山步道","type":"route","route":"hiking","network":"lwn"},"7417053":{"name":"碧溪步道","type":"route","route":"hiking","network":"rwn"},"7417054":{"name":"翠山步道","type":"route","route":"hiking","network":"rwn"},"7417056":{"name":"狗殷勤古道","type":"route","route":"hiking","network":"rwn"},"7417390":{"name":"大崎頭步道","type":"route","route":"hiking","network":"rwn"},"7417552":{"name":"武陵四秀","type":"route","route":"hiking","network":"nwn","operator":"雪霸國家公園"},"7417736":{"name":"雪東線","type":"route","route":"hiking","network":"nwn","operator":"雪霸國家公園"},"7418087":{"name":"大溝溪溪畔步道","type":"route","route":"hiking","network":"rwn"},"7418093":{"name":"圓覺寺步道","type":"route","route":"hiking","network":"rwn"},"7418202":{"name":"忠義山親山步道","type":"route","route":"hiking","network":"rwn"},"7418243":{"name":"二子坪步道","type":"route","route":"hiking","network":"nwn","operator":"陽明山國家公園","wheelchair":"yes"},"7419767":{"name":"錐麓古道","type":"route","route":"hiking","name:en":"Zhuilu Old Trail","name:zh":"錐麓古道","network":"nwn","operator":"太魯閣國家公園"},"7420529":{"name":"砂卡礑步道","type":"route","route":"hiking","network":"nwn","operator":"太魯閣國家公園","wikidata":"Q67824815"},"7420540":{"name":"小錐麓步道","type":"route","route":"foot","network":"nwn","operator":"太魯閣國家公園"},"7420555":{"name":"白楊步道","type":"route","route":"hiking","name:en":"Baiyang Trail","name:zh":"白楊步道","network":"nwn","operator":"太魯閣國家公園"},"7420562":{"name":"綠水合流步道","type":"route","route":"hiking","network":"nwn","operator":"太魯閣國家公園"},"7420566":{"name":"綠水文山步道","type":"route","route":"hiking","network":"nwn","operator":"太魯閣國家公園"},"7420605":{"name":"太魯閣台地步道","type":"route","route":"foot","network":"nwn","operator":"太魯閣國家公園"},"7420691":{"name":"聖母登山步道","type":"route","route":"hiking","network":"rwn"},"7420718":{"name":"金瓜寮魚蕨步道","type":"route","route":"hiking","network":"rwn","operator":"羅東林區管理處"},"7423245":{"name":"擎天崗環形步道","type":"route","route":"hiking","name:en":"Qingtiangang loop","name:zh":"擎天崗環形步道","network":"nwn","operator":"陽明山國家公園"},"7423280":{"name":"頂山石梯嶺步道","type":"route","route":"hiking","network":"nwn","operator":"陽明山國家公園"},"7424380":{"name":"碧湖步道","type":"route","route":"foot","network":"rwn"},"7424386":{"name":"風尾步道","type":"route","route":"foot","network":"rwn"},"7424390":{"name":"水車寮步道","type":"route","route":"foot"},"7424394":{"name":"貴子坑親山步道","type":"route","route":"hiking","network":"rwn"},"7424616":{"name":"羊頭山步道","type":"route","route":"hiking","network":"nwn"},"7424624":{"name":"畢祿山步道","type":"route","route":"hiking","network":"nwn"},"7424724":{"name":"畢祿羊頭縱走","type":"route","route":"hiking","network":"nwn"},"7426819":{"name":"劍潭山親山步道","type":"route","route":"hiking","network":"rwn"},"7428588":{"name":"樟湖步道","type":"route","route":"hiking","network":"rwn"},"7428589":{"name":"樟樹步道","type":"route","route":"hiking","network":"rwn"},"7428590":{"name":"三玄宮步道","type":"route","route":"hiking","network":"rwn"},"7428592":{"name":"救千宮步道","type":"route","route":"hiking","network":"rwn"},"7428605":{"name":"指南國小步道","type":"route","route":"hiking","network":"rwn"},"7428606":{"name":"指南茶路古道","type":"route","route":"hiking","network":"rwn"},"7428662":{"name":"仙跡岩親山步道","type":"route","route":"hiking","network":"rwn"},"7428845":{"name":"大艽芎古道","type":"route","route":"hiking","network":"rwn"},"7431771":{"name":"桂花林步道","type":"route","route":"hiking","network":"lwn"},"7431787":{"name":"桂花亭步道","type":"route","route":"hiking","network":"lwn"},"7431898":{"name":"菁桐古道","type":"route","route":"hiking","network":"lwn"},"7431899":{"name":"五四縱走","type":"route","route":"hiking","network":"rwn"},"7434149":{"name":"菜公坑山步道","type":"route","route":"hiking","network":"nwn","operator":"陽明山國家公園"},"7434176":{"name":"面天山步道","type":"route","route":"hiking","network":"nwn","operator":"陽明山國家公園"},"7435285":{"name":"野薑花步道","type":"route","route":"foot","network":"lwn","distance":"1.5","operator":"政治大學"},"7435286":{"name":"醉夢溪岸登山步道","type":"route","route":"hiking","network":"lwn","distance":"0.74","operator":"政治大學","roundtrip":"no"},"7435287":{"name":"行建道","type":"route","route":"hiking","network":"lwn","distance":"0.3","operator":"政治大學"},"7435651":{"name":"水岸步道","type":"route","route":"foot","network":"lwn","distance":"6.6","operator":"政治大學"},"7437329":{"name":"翠峰湖環山步道","type":"route","route":"hiking","network":"rwn","distance":"4.0","operator":"林務局羅東林區管理處","sac_scale":"mountain_hiking"},"7439539":{"name":"環山步道","type":"route","route":"hiking","network":"lwn","distance":"4.0","operator":"政治大學","roundtrip":"yes"},"7442000":{"name":"象山環形步道","type":"route","route":"hiking","network":"rwn","operator":"臺北市政府工務局大地工程處"},"7442020":{"name":"虎山親山步道","type":"route","route":"hiking","network":"rwn","operator":"臺北市政府工務局大地工程處"},"7443880":{"name":"婆婆橋步道","type":"route","route":"foot","network":"rwn","operator":"臺北市政府工務局大地工程處"},"7443904":{"name":"南港山縱走","type":"route","route":"hiking","name:en":"Nangangshan Trail","name:zh":"南港山縱走","network":"rwn","operator":"臺北市政府工務局大地工程處"},"7444773":{"name":"麗山橋口步道","type":"route","route":"hiking","network":"rwn","operator":"臺北市政府工務局大地工程處"},"7444774":{"name":"北興宮步道","type":"route","route":"hiking","network":"rwn","operator":"臺北市政府工務局大地工程處"},"7446835":{"name":"龍船岩步道","type":"route","route":"hiking","network":"lwn"},"7447002":{"name":"硬漢嶺步道","type":"route","route":"hiking","network":"nwn","operator":"交通部觀光局北海岸及觀音山國家風景區管理處"},"7447013":{"name":"楓櫃斗湖步道","type":"route","route":"hiking","network":"nwn","operator":"交通部觀光局北海岸及觀音山國家風景區管理處"},"7447051":{"name":"福隆山登山步道","type":"route","route":"hiking","network":"nwn","operator":"交通部觀光局北海岸及觀音山國家風景區管理處"},"7447082":{"name":"尖山步道","type":"route","route":"hiking","network":"nwn","alt_name":"占山步道","operator":"交通部觀光局北海岸及觀音山國家風景區管理處"},"7452043":{"name":"陽明山東西大縱走","type":"route","route":"hiking","network":"nwn","operator":"陽明山國家公園"},"7458259":{"name":"信賢步道","type":"route","route":"hiking","network":"lwn"},"7481716":{"name":"白鷺鷥山親山步道支線","type":"route","route":"hiking","network":"lwn"},"7497116":{"name":"更寮古道","type":"route","route":"hiking","network":"rwn","operator":"臺北市政府工務局大地工程處"},"7497494":{"name":"五寮尖登山步道","type":"route","route":"hiking","network":"rwn","operator":"三峽區公所"},"7499936":{"name":"銀河洞越嶺步道","type":"route","route":"hiking","network":"rwn","operator":"臺北市政府工務局大地工程處"},"7515937":{"name":"加里山步道","type":"route","route":"hiking","network":"rwn"},"7517296":{"name":"鳯凰山北嶺線","type":"route","route":"hiking","highway":"path","network":"rwn"},"7517298":{"name":"金柑樹山步道","type":"route","route":"hiking","name:zh":"金柑樹山步道","network":"rwn"},"7517346":{"name":"鳶嘴稍來山步道","type":"route","route":"hiking","network":"rwn"},"7517347":{"name":"暗影山步道","type":"route","route":"hiking","network":"lwn"},"7517348":{"name":"大橫屏山步道","type":"route","route":"hiking","network":"rwn"},"7517483":{"name":"鳳凰山南嶺線","type":"route","route":"hiking","network":"rwn"},"7521710":{"name":"火炎山山徑","type":"route","route":"hiking","network":"lwn"},"7521825":{"name":"新店獅仔頭山步道","type":"route","route":"hiking","network":"rwn","description":"有部分路段坍方"},"7523274":{"name":"汐止大尖山登山步道","type":"route","route":"hiking","network":"lwn","operator":"汐止區公所"},"7523275":{"name":"姜子寮山登山步道","type":"route","route":"hiking","network":"lwn"},"7526924":{"name":"五分山登山步道","type":"route","route":"hiking","network":"lwn"},"7526925":{"name":"桃源谷步道(石觀音線)","type":"route","route":"hiking","network":"lwn"},"7526926":{"name":"桃源谷(內寮線步道)","type":"route","route":"hiking","network":"lwn"},"7526927":{"name":"桃源谷(大溪線步道)","type":"route","route":"hiking","network":"lwn"},"7530093":{"name":"東勢格越嶺步道","type":"route","route":"hiking","network":"lwn"},"7530779":{"name":"峰頭尖登山步道","type":"route","route":"hiking","network":"lwn"},"7530780":{"name":"薯榔尖登山步道","type":"route","route":"hiking","network":"lwn"},"7530829":{"name":"孝子山登山步道","type":"route","route":"hiking","network":"lwn"},"7530924":{"name":"汐止獅頭山登山步道","type":"route","route":"hiking","network":"lwn"},"7530925":{"name":"三貂嶺步道","type":"route","route":"hiking","network":"lwn"},"7530944":{"name":"基隆山登山步道","type":"route","route":"hiking","network":"lwn"},"7533275":{"name":"東眼山步道","type":"route","route":"hiking","network":"nwn","distance":"3.266","operator":"林務局"},"7533611":{"name":"桂花吊橋步道","type":"route","route":"hiking","network":"lwn"},"7533614":{"name":"桂花林步道支線","type":"route","route":"hiking","network":"lwn"},"7533644":{"name":"桂花親水步道","type":"route","route":"hiking","network":"lwn"},"7533666":{"name":"觀雲居支線","type":"route","route":"hiking","network":"lwn"},"7625011":{"name":"福巴越嶺國家步道","type":"route","route":"hiking","network":"nwn","distance":"18.0","operator":"林務局","sac_scale":"mountain_hiking","description":"有大型崩塌預計2019-12-31開放","trail_visibility":"good"},"7642222":{"name":"福州山步道","type":"route","route":"hiking","network":"lwn","operator":"台北市政府"},"7644305":{"name":"傑魚坑步道","type":"route","route":"foot","network":"lwn","operator":"第十河川局"},"7644306":{"name":"萬壽山步道","type":"route","route":"hiking"},"7644307":{"name":"秀崎山登山步道","type":"route","route":"hiking","network":"lwn"},"7650584":{"name":"十八尖山步道","type":"route","route":"hiking","network":"lwn"},"7794015":{"name":"虎頭山步道","type":"route","route":"hiking","network":"lwn"},"7796360":{"name":"拳頭姆自然步道","type":"route","route":"hiking","network":"lwn"},"7892332":{"name":"鹿塭北線","type":"route","route":"hiking","network":"lwn"},"7894069":{"name":"平溪步道","type":"route","route":"hiking","network":"lwn"},"7918459":{"name":"北嶺露營區支線","type":"route","route":"hiking","name:zh":"北嶺露營區支線","network":"rwn"},"8025329":{"name":"開高山南稜","type":"route","route":"hiking","network":"rwn"},"8025340":{"name":"望鄉山南稜","type":"route","route":"hiking","network":"rwn"},"8048619":{"name":"開高山西稜","type":"route","route":"hiking","network":"rwn"},"8050366":{"name":"瓊山松山步道","type":"route","route":"hiking","network":"rwn"},"8050367":{"name":"水漾松山步道","type":"route","route":"hiking","network":"rwn"},"8050369":{"name":"亞杉坪林道支線","type":"route","route":"hiking","network":"rwn"},"8144420":{"name":"藤坪步道","type":"route","route":"hiking","name:en":"Tenping Trail","name:zh":"藤坪步道"},"8144421":{"name":"水濂洞步道","type":"route","route":"hiking","name:en":"Shueilian Cave Trail","name:zh":"水濂洞步道"},"8144422":{"name":"六寮古道","type":"route","route":"hiking","name:en":"Liouliao Trail","name:zh":"六寮古道"},"8144423":{"name":"水濂橋步道","type":"route","route":"hiking","name:en":"Shueilian Bridge Trail","name:zh":"水濂橋步道"},"8144428":{"name":"獅山古道","type":"route","route":"hiking","name:en":"Shishan Historic Trail","name:zh":"獅山古道"},"8170647":{"name":"秀才步道","type":"route","route":"hiking","network":"lwn","website":"https://travel.tycg.gov.tw/zh-tw/Travel/Attraction/978"},"8247581":{"name":"大霸線","type":"route","route":"hiking","network":"nwn","operator":"雪霸國家公園"},"8375474":{"ref":"1","name":"大坑1號步道","type":"route","route":"hiking","network":"lwn","operator":"台中市政府"},"8375475":{"ref":"5","name":"大坑5號步道","type":"route","route":"hiking","network":"lwn","operator":"台中市政府"},"8375476":{"ref":"4","name":"大坑4號步道","type":"route","route":"hiking","network":"lwn","operator":"台中市政府"},"8375477":{"ref":"3","name":"大坑3號步道","type":"route","route":"hiking","network":"lwn","operator":"台中市政府"},"8375478":{"ref":"2","name":"大坑2號步道","type":"route","route":"hiking","network":"lwn","operator":"台中市政府"},"8375479":{"ref":"5-1","name":"大坑5-1步道","type":"route","route":"hiking","network":"lwn","operator":"台中市政府"},"8375497":{"ref":"6","name":"大坑6號步道","type":"route","route":"hiking","network":"lwn","operator":"台中市政府"},"8375498":{"ref":"7","name":"大坑7號步道","type":"route","route":"hiking","network":"lwn","operator":"台中市政府"},"8375499":{"ref":"8","name":"大坑8號步道","type":"route","route":"hiking","network":"lwn","operator":"台中市政府"},"8375500":{"ref":"9","name":"大坑9號步道","type":"route","route":"hiking","network":"lwn","operator":"台中市政府"},"8375501":{"ref":"9-1","name":"大坑9-1號步道","type":"route","route":"hiking","network":"lwn","operator":"台中市政府"},"8375502":{"ref":"10","name":"大坑10號步道","type":"route","route":"hiking","network":"lwn","operator":"台中市政府"},"8416182":{"name":"溪山百年古圳步道","type":"route","route":"hiking","network":"lwn"},"8653309":{"name":"八仙山主峰步道","type":"route","route":"hiking","network":"rwn"},"8653350":{"name":"德芙蘭生態步道","type":"route","route":"hiking","network":"rwn"},"8653351":{"name":"德芙蘭步道","type":"route","route":"hiking","network":"rwn"},"8653352":{"name":"東卯山步道","type":"route","route":"hiking","network":"rwn"},"8653365":{"name":"屋我尾山步道","type":"route","route":"hiking","network":"rwn"},"8653369":{"name":"唐麻丹山步道","type":"route","route":"hiking","network":"rwn"},"8653372":{"name":"橫嶺山自然步道","type":"route","route":"hiking","name:en":"Henglingshan Trail","name:zh":"橫嶺山自然步道","network":"rwn","alt_name":"橫嶺山步道"},"8653381":{"name":"捎來步道","type":"route","route":"hiking","network":"rwn"},"8653382":{"name":"波津加山步道","type":"route","route":"hiking","network":"rwn"},"8653387":{"name":"白毛山步道","type":"route","route":"hiking","network":"rwn"},"8653390":{"name":"新山、馬崙山、斯可巴步道群","type":"route","route":"hiking","network":"rwn"},"8653402":{"name":"鹿塭南線","type":"route","route":"hiking","network":"lwn"},"8659399":{"name":"蘇花古道：大南澳越嶺段","note":"https://recreation.forest.gov.tw/Trail/RT?typ=3&tr_id=001","type":"route","route":"hiking","source":"https://luodong.forest.gov.tw/0000142","network":"nwn","distance":"4.1","operator":"羅東林區管理處"},"8659405":{"name":"南澳古道","note":"https://recreation.forest.gov.tw/Trail/RT?typ=3&tr_id=002","type":"route","route":"hiking","source":"https://luodong.forest.gov.tw/0000141","network":"rwn"},"8659421":{"name":"松羅步道","note":"https://recreation.forest.gov.tw/Trail/RT?typ=3&tr_id=006","type":"route","route":"hiking","source":"https://luodong.forest.gov.tw/0000538","network":"rwn"},"8725023":{"ref":"twn:taipei_grand_hike","name":"台北南區茶鄉大縱走","type":"route","route":"hiking","network":"rwn"},"8727971":{"ref":"twn:taipei_grand_hike","name":"台北大縱走","type":"route","route":"hiking","network":"rwn"},"8768399":{"ref":"twn:taipei_grand_hike","name":"台北大縱走 劍潭支線","type":"route","route":"hiking","network":"rwn","operator":"台北市政府大地工程處"},"8786145":{"ref":"twn:taipei_grand_hike","name":"南區茶鄉大縱走","type":"route","route":"hiking","network":"rwn"},"8799346":{"name":"圓明寺步道","type":"route","route":"hiking","network":"rwn"},"8821648":{"ref":"twn:taipei_grand_hike","name":"台北大縱走","type":"route","route":"hiking","network":"rwn"},"8827335":{"name":"許願步道","type":"route","route":"foot"},"9072428":{"name":"灣潭山登山步道","type":"route","route":"hiking","network":"lwn"},"9141839":{"name":"千里步道環島山線","type":"route","route":"foot","source":"千里步道","network":"nwn","operator":"台灣千里步道協會","roundtrip":"no","source:url":"https://www.tmitrail.org.tw/roadmap/1477"},"9151103":{"name":"檜木原始林步道","type":"route","route":"hiking","network":"rwn","operator":"羅東林區管理處"},"9151235":{"name":"見晴懷古步道","type":"route","route":"hiking","network":"rwn","operator":"羅東林業管理處","description":"昔日山地運材軌道"},"9173937":{"name":"千里步道台北-基隆支線","type":"route","route":"foot","source":"千里步道","network":"nwn","operator":"台灣千里步道協會","roundtrip":"no","source:url":"https://www.tmitrail.org.tw/roadmap/1477"},"9237110":{"name":"千里步道台北-宜蘭支線","type":"route","route":"foot","source":"千里步道","network":"nwn","operator":"千里步道協會","roundtrip":"no","source:url":"https://www.tmitrail.org.tw/roadmap/1477"},"9296111":{"name":"奇萊南華","type":"route","route":"hiking","network":"nwn","operator":"南投林管處"},"9299801":{"name":"嘉明湖國家步道","type":"route","route":"hiking","name:en":"Jiaming Lake National Trail","name:zh":"嘉明湖國家步道","network":"nwn","operator":"台東林管處"},"9303932":{"name":"松羅湖山徑","type":"route","route":"hiking","network":"rwn","operator":"羅東林管處"},"9319168":{"name":"楓樹湖步道","type":"route","route":"hiking","name:en":"Fenshuhu Trail","name:zh":"楓樹湖步道","network":"lwn"},"9487399":{"ref":"RSA202109","name":"樟之細路","type":"route","route":"foot","name:en":"Raknus Selu Trail","name:zh":"樟之細路","network":"nwn"},"9507391":{"name":"望洋山步道","type":"route","route":"hiking","network":"rwn","distance":"0.9 km","operator":"林務局羅東林區管理處","sac_scale":"mountain_hiking"},"9508004":{"name":"大桶山登山步道(桂山)","type":"route","route":"hiking","network":"rwn"},"9508005":{"to":"大桶山","from":"忠治","name":"大桶山登山步道(忠治)","type":"route","route":"hiking","network":"rwn"},"9508006":{"name":"九紀山登山路線","type":"route","route":"hiking","network":"lwn","sac_scale":"demanding_alpine_hiking","description":"枯水期才能通行"},"9579127":{"name":"環七星山人車分道","type":"route","route":"hiking","network":"rwn"},"9579128":{"name":"日人路","type":"route","route":"hiking","network":"nwn","alt_name":"砲管路","operator":"陽明山國家公園"},"9773998":{"name":"358路","type":"route","route":"hiking","network":"lwn","operator":"觀音山先行者"},"9773999":{"name":"觀音山北橫","type":"route","route":"hiking","network":"lwn"},"9774443":{"name":"尖山連峰","type":"route","route":"hiking","network":"lwn","operator":"新北市觀音山","description":"部分路段70-80度陡峭路線是特色。從鷹仔尖-摩天嶺-潮音洞-占山-潮音尖-盤絲尖-凌雲尖集大成後可挑戰領顆觀音大士身旁金童玉女獨立岩善財岩與龍女岩後接上硬漢嶺步道向觀音山朝聖。"},"9786788":{"name":"淡蘭國家級綠道","type":"route","route":"hiking","network":"nwn"},"9792349":{"name":"金礦本山六坑流金探「索」","type":"route","route":"hiking","network":"rwn","description":"日本帝國本山六坑長仁坑金礦開採運送金礦流籠索道路線之旅，新北市系統文化古蹟"},"9792777":{"name":"界寮縱走","type":"route","route":"hiking","network":"rwn","distance":"約26公里","description":"基隆新北市與台北市界線縱走"},"9795772":{"name":"日本帝國草山水道健行路線","type":"route","route":"hiking","network":"rwn","operator":"台北市政府","description":"日本帝國草山水道維護路線，日本在台第二大水利工程，目前是台北市指定系統文化古蹟之一。起至台北市竹子湖到圓山水神社。"},"9796069":{"name":"淡蘭國家級綠道(中路)","type":"route","route":"hiking","network":"nwn"},"9799508":{"name":"軍艦岩縱走","type":"route","route":"hiking","network":"lwn","description":"從捷運唭哩岸站看清初台北第一街後上稜看打石場遺址、荷蘭時期地圖圖根點#34後拉繩攀岩上唭哩岸山看360度台北盆地環景、欣賞軍艦岩唭哩岸岩石美麗紋路後沿稜線走到丹鳳山看新北投市區後轉入日本帝國弘法大師遺址、台灣幸福石下新北投市區看北投圖書館、日本帝國溫泉博物館與泡溫泉、北投火車大廳公園後搭新北投捷運站離開"},"9981448":{"name":"黃金水道","type":"route","route":"hiking","network":"rwn","operator":"日本帝國"},"9990411":{"ref":"TaipeiSkyline","name":"環大台北天際線","type":"route","route":"hiking","ascent":"11765","descent":"11822","name:en":"Taipei Skyline","name:zh":"環大台北天際線","network":"rwn","distance":"191","roundtrip":"yes"},"10172030":{"name":"台灣山毛櫸步道","type":"route","route":"hiking","network":"rwn","operator":"林務局羅東林區管理處"},"10172031":{"name":"茂興懷舊步道","note":"https://recreation.forest.gov.tw/Trail/RT?typ=3&tr_id=016","type":"route","route":"hiking","source":"https://luodong.forest.gov.tw/0000127","network":"rwn"},"10172032":{"name":"鳩之澤自然步道","type":"route","route":"hiking","network":"rwn"},"10172037":{"name":"新寮瀑布步道","note":"https://recreation.forest.gov.tw/Trail/RT?typ=3&tr_id=011","type":"route","route":"hiking","source":"https://luodong.forest.gov.tw/0000138","network":"rwn"},"10172047":{"name":"林美石磐步道","note":"https://recreation.forest.gov.tw/Trail/RT?typ=3&tr_id=008","type":"route","route":"hiking","source":"https://luodong.forest.gov.tw/0000537","network":"rwn","roundtrip":"yes","signed_direction":"yes"},"10189851":{"name":"淡蘭古道南路","type":"route","route":"hiking","network":"nwn"},"10189856":{"name":"礁溪跑馬古道","note":"https://recreation.forest.gov.tw/Trail/RT?typ=3&tr_id=007","type":"route","route":"hiking","source":"https://luodong.forest.gov.tw/0000136","network":"rwn","operator":"羅東林管處"},"10276125":{"name":"九寮溪自然步道","type":"route","route":"hiking","network":"rwn","operator":"大同鄉公所"},"10276126":{"name":"九寮溪自然步道","type":"route","route":"hiking","network":"rwn","operator":"大同鄉公所","roundtrip":"yes"},"10553448":{"name":"塗潭山步道","type":"route","route":"hiking"},"10553449":{"name":"直潭山步道","type":"route","route":"hiking","network":"lwn"},"10553450":{"name":"小油山登山步道","type":"route","route":"hiking","network":"lwn","alt_name":"小油尖登山步道"},"10553451":{"name":"內寮古道","type":"route","route":"hiking","network":"lwn"},"10553452":{"name":"灣仔山登山步道","type":"route","route":"hiking","network":"lwn"},"10553453":{"name":"小南港山登山步道","type":"route","route":"hiking","network":"lwn"},"10553454":{"name":"中南山登山步道","type":"route","route":"hiking","network":"lwn"},"10553455":{"name":"中研院後山步道","type":"route","route":"hiking","network":"lwn"},"10553456":{"name":"國家生技園區步道","type":"route","route":"hiking"},"10553457":{"name":"山仔頂步道","type":"route","route":"hiking"},"10553458":{"name":"大屯坪步道","type":"route","route":"hiking"},"10553459":{"name":"猴崁圳古道","type":"route","route":"hiking"},"10553460":{"name":"挑硫古道","type":"route","route":"hiking","access":"no","network":"lwn","description":"國家公園公告禁止進入區域，違反者依國家公園法開單"},"10560001":{"name":"雞心尖","type":"route","route":"foot"},"10560002":{"name":"中嶺山","type":"route","route":"foot"},"10609897":{"name":"能高越嶺道","type":"route","route":"hiking","network":"nwn","distance":"26.5","wikidata":"Q15916159","roundtrip":"no","wikipedia":"zh:能高越嶺道"},"10696898":{"ref":"D","name":"景美運動公園藍線D","type":"route","route":"foot","network":"lwn","distance":"0.85","operator":"公園路燈管理管"},"10696899":{"ref":"C","name":"景美運動公園紫線C","type":"route","route":"foot","network":"lwn","distance":"0.350"},"10696900":{"ref":"B","name":"景美運動公園橘線B","type":"route","route":"foot","network":"B","distance":"0.350","operator":"公園路燈管理處"},"10706933":{"name":"石獅腳步道","type":"route","route":"hiking","network":"lwn"},"10741898":{"name":"北得拉曼巨木步道","type":"route","route":"hiking","network":"nwn"},"10741906":{"name":"五指山登山步道","type":"route","route":"hiking"},"10741910":{"name":"鳥嘴山登山步道","type":"route","route":"hiking"},"10741919":{"name":"龍過脈森林步道","type":"route","route":"hiking"},"10741928":{"name":"石夢谷步道","type":"route","route":"hiking"},"10741933":{"name":"四大天王山步道","type":"route","route":"hiking"},"10741941":{"name":"浸水營古道","type":"route","route":"hiking"},"10741943":{"name":"鯉魚山步道","type":"route","route":"hiking"},"10742618":{"name":"白姑大山山徑","type":"route","route":"hiking","network":"lwn"},"10749701":{"name":"水山步道","type":"route","route":"foot","name:en":"Shuishan Footway","name:zh":"水山步道","network":"lwn","name:nan":"Suí-suann-pōo-tō"},"10863998":{"name":"登高步道","type":"route","route":"hiking","network":"lwn"},"11009366":{"name":"大林油杉步道","type":"route","route":"hiking","network":"rwn","operator":"林務局羅東林管處"},"11053792":{"name":"平菁步道","type":"route","route":"hiking","network":"lwn"},"11066183":{"name":"岐山古道","type":"route","route":"hiking","network":"lwn"},"11069200":{"name":"環山百年水圳步道","type":"route","route":"foot","network":"lwn"},"11104433":{"name":"鯉魚山遠眺步道","type":"route","route":"hiking","network":"lwn"},"11104434":{"name":"銅文山路線","type":"route","route":"hiking"},"11106266":{"name":"成廣澳山步道","type":"route","route":"hiking"},"11108945":{"name":"後湖底溪古道","type":"route","route":"hiking"},"11111860":{"name":"南溪越嶺古道","type":"route","route":"hiking"},"11144252":{"name":"都蘭山步道","type":"route","route":"hiking"},"11147828":{"name":"石角古道","type":"route","route":"foot"},"11150737":{"name":"青龍山步道","type":"route","route":"hiking","name:en":"Qinglong Mountain Trail","name:zh":"青龍山步道"},"11161594":{"name":"尖凍山登山步道","type":"route","route":"hiking"},"11167981":{"name":"外挖子山步道","type":"route","route":"hiking","network":"lwn"},"11265703":{"name":"帽子山步道","type":"route","route":"hiking"},"11292688":{"name":"撒固兒步道","type":"route","route":"hiking","network":"lwn"},"11292689":{"name":"佐倉步道","type":"route","route":"hiking","network":"lwn"},"11621343":{"name":"石門山步道主要步道","type":"route","route":"hiking"},"11621344":{"name":"石門山景春步道","type":"route","route":"hiking"},"11629868":{"name":"三坑子挑擔古道","type":"route","route":"foot"},"11777833":{"name":"埋伏坪步道","type":"route","route":"hiking","network":"rwn","network:type":"Local"},"11909937":{"name":"郡大山登山步道","type":"route","route":"hiking","network":"rwn"},"11954973":{"name":"大屯谷路線","type":"route","route":"hiking"},"11961645":{"name":"新林步道","type":"route","route":"hiking","network":"rwn"},"12007181":{"name":"紅淡山登山步道","type":"route","route":"hiking"},"12038901":{"name":"阿眉山步道","type":"route","route":"hiking","network":"lwn","network:type":"Local"},"12329028":{"name":"大崙尾古道","type":"route","route":"hiking"},"12340475":{"name":"龜山步道","type":"route","route":"hiking","network":"lwn"},"12340554":{"name":"尾寮山登山路線","type":"route","route":"hiking"},"12340706":{"name":"北大武登山步道","type":"route","route":"hiking","network":"nwn"},"12340707":{"name":"涼山瀑布步道","type":"route","route":"hiking"},"12340708":{"name":"石門山步道","type":"route","route":"hiking"},"12340764":{"name":"半屏山步道","type":"route","route":"hiking"},"12340765":{"name":"龍頭步道","type":"route","route":"hiking","name:en":"Dragon Head Trail","name:zh":"龍頭步道"},"12340766":{"name":"月世界地景步道","type":"route","route":"hiking","network":"rwn"},"12340767":{"name":"情人谷瀑布步道","type":"route","route":"hiking"},"12340768":{"name":"大崗山步道","type":"route","route":"hiking"},"12341695":{"name":"羅木斯溪登山步道","type":"route","route":"hiking","network":"lwn"},"12341696":{"name":"大凍山步道","type":"route","route":"hiking","network":"rwn"},"12341697":{"name":"雞巃山步道","type":"route","route":"hiking"},"12341756":{"name":"梅峰古道","type":"route","route":"hiking"},"12341757":{"name":"崁頭山步道","type":"route","route":"hiking"},"12341758":{"name":"竹子尖山步道","type":"route","route":"hiking"},"12341759":{"name":"虎形山公園步道","type":"route","route":"hiking"},"12343502":{"name":"特富野古道","type":"route","route":"hiking"},"12343503":{"name":"瑞太古道","type":"route","route":"hiking","name:en":"Ruitai Trail","name:zh":"瑞太古道"},"12343504":{"name":"瑞奮古道","type":"route","route":"hiking","name:en":"Ruifen Trail","name:zh":"瑞奮古道"},"12343505":{"name":"土匪山步道","type":"route","route":"hiking"},"12343506":{"name":"社口林場步道","type":"route","route":"hiking"},"12343507":{"name":"獨立山步道","type":"route","route":"hiking"},"12343512":{"name":"太平雲梯步道","type":"route","route":"hiking"},"12391587":{"name":"龍麟山步道","type":"route","route":"hiking","network":"lwn"},"12391589":{"name":"五間登山步道","type":"route","route":"hiking","network":"lwn"},"12391590":{"name":"大天池步道","type":"route","route":"hiking","network":"lwn"},"12391591":{"name":"麻荖漏步道","type":"route","route":"hiking","network":"lwn"},"12391592":{"name":"紅石步道","type":"route","route":"hiking","network":"lwn","alt_name":"888相思林步道"},"12391593":{"name":"栗松溫泉步道","type":"route","route":"hiking","network":"lwn"},"12391597":{"name":"利吉惡地步道","type":"route","route":"hiking"},"12391601":{"name":"小天池步道","type":"route","route":"hiking","network":"lwn"},"12391602":{"name":"紅頭山登山步道","type":"route","route":"hiking","network":"lwn"},"12391604":{"name":"加奈美山步道","type":"route","route":"hiking"},"12391605":{"name":"檳榔四格山步道","type":"route","route":"hiking","network":"lwn"},"12391606":{"name":"天龍古道","type":"route","route":"hiking"},"12391607":{"name":"轆轆溫泉步道","type":"route","route":"hiking","network":"lwn"},"12413083":{"name":"楓樹坑步道","type":"route","route":"hiking","network":"lwn"},"12442478":{"name":"Yangmingshan Hiking Trail","type":"route","route":"hiking","colour":"#615CF3","website":"https://en.wikivoyage.org/wiki/Yangmingshan_National_Park","wikidata":"Q105953651"},"12501848":{"name":"羊稠步道","type":"route","route":"hiking","network":"lwn"},"12504703":{"name":"樹梅古道","type":"route","route":"hiking"},"12504704":{"name":"土地公嶺古道","type":"route","route":"hiking","network":"lwn"},"12504705":{"name":"糶米古道","type":"route","route":"hiking","network":"lwn"},"12508512":{"name":"雪劍線步道","type":"route","route":"hiking","network":"rwn"},"12508513":{"name":"雪山主峰翠池步道","type":"route","route":"hiking","name:en":"Xueshan Main Peak - Cuichi Trail","name:zh":"雪山主峰翠池步道"},"12508514":{"name":"凱蘭特崑山步道","type":"route","route":"hiking","name:en":"Kailantekunshan Trail","name:zh":"凱蘭特崑山步道"},"12530048":{"name":"小天梯步道","type":"route","route":"hiking","name:en":"Small High-ladder Catwalk","name:zh":"小天梯步道"},"12530377":{"name":"觀南步道","type":"route","route":"hiking"},"12530378":{"name":"霽月步道","type":"route","route":"hiking","network":"lwn"},"12568872":{"name":"中坑古道","type":"route","route":"hiking"},"12568873":{"name":"八分寮砲台路線","type":"route","route":"hiking"},"12568874":{"name":"八分寮古道","type":"route","route":"hiking"},"12568875":{"name":"蛇形子古道","type":"route","route":"hiking"},"12568876":{"name":"柴寮古道","type":"route","route":"hiking"},"12570005":{"name":"迴龍古道","type":"route","route":"hiking"},"12570006":{"name":"飛龍健行步道","type":"route","route":"hiking"},"12570007":{"name":"飛龍登山步道","type":"route","route":"hiking"},"12570008":{"name":"進香古道","type":"route","route":"hiking"},"12592452":{"name":"崩山坑古道","type":"route","route":"hiking"},"12604338":{"name":"三貂大崙登山路線","type":"route","route":"hiking"},"12604339":{"name":"復興礦坑越嶺","type":"route","route":"hiking"},"12606830":{"name":"單槓亭步道","type":"route","route":"hiking"},"12624460":{"name":"鹿角坑古道","type":"route","route":"hiking","network":"lwn"},"12663411":{"name":"福源山步道","type":"route","route":"hiking","network":"lwn"},"12663412":{"name":"光明山稜線步道","type":"route","route":"hiking","network":"lwn"},"12736905":{"name":"蝙蝠洞步道","type":"route","route":"hiking"},"12773700":{"name":"大粗坑古道","type":"route","route":"hiking","name:en":"DaCuKeng Historical Trail","name:zh":"大粗坑古道"},"12773701":{"name":"樹梅坪古道","type":"route","route":"hiking","name:zh":"樹梅坪古道","alt_name":"採金古道"},"12773702":{"name":"蘭陽登山步道","type":"route","route":"hiking"},"12773714":{"name":"北勢溪古道","type":"route","route":"hiking"},"12803736":{"name":"廣天宮步道","type":"route","route":"hiking"},"12819188":{"name":"鳶嘴山西稜線川棟林道","type":"route","route":"hiking"},"12825771":{"name":"新嶺山步道","type":"route","route":"hiking"},"12858062":{"name":"蔡厝古道","type":"route","route":"hiking"},"12858063":{"name":"大縱走路線","type":"route","route":"hiking"},"12874011":{"name":"溪尾寮古道","type":"route","route":"hiking"},"12883450":{"name":"古圳步道","type":"route","route":"foot","alt_name":"濱溪步道"},"12884907":{"name":"木馬古道","type":"route","route":"hiking","network":"lwn"},"12884908":{"name":"杉林步道","type":"route","route":"hiking"},"12884938":{"name":"新田登山步道","type":"route","route":"hiking","network":"lwn"},"12885820":{"name":"龜媽坑古道","type":"route","route":"hiking","network":"lwn"},"12885823":{"name":"福卯古道","type":"route","route":"hiking","network":"lwn"},"12885850":{"name":"大溪川古道","type":"route","route":"hiking","network":"lwn"},"12885851":{"name":"烏山古道","type":"route","route":"hiking","network":"lwn"},"12885852":{"name":"叢雲山登山路線","type":"route","route":"hiking","network":"lwn"},"12897173":{"name":"神阿古道","type":"route","route":"hiking"},"12928132":{"name":"田子山林道","type":"route","route":"hiking"},"12938018":{"name":"咬人狗坑步道","type":"route","route":"hiking"},"13109676":{"name":"錫隘古道","type":"route","route":"hiking"},"13109677":{"name":"八達嶺(龍骨)古道","type":"route","route":"hiking"},"13109678":{"name":"南長城步道","type":"route","route":"hiking"},"13109679":{"name":"綠色隧道","type":"route","route":"hiking"},"13109680":{"name":"鳴鳳古道","type":"route","route":"hiking"},"13116154":{"name":"文山步道","type":"route","route":"hiking"},"13116155":{"name":"犁頭山登山路線","type":"route","route":"hiking"},"13164920":{"name":"百靈步道","type":"route","route":"hiking","network":"lwn"},"13164921":{"name":"夢幻瀑布步道","type":"route","route":"hiking","network":"lwn"},"13178184":{"name":"毋忘在莒步道","type":"route","route":"hiking"},"13178185":{"name":"鄭成功廟步道","type":"route","route":"hiking","name:zh":"鄭成功廟步道","network":"lwn"},"13178186":{"name":"燕溪古道","type":"route","route":"hiking"},"13178187":{"name":"十二生肖步道","type":"route","route":"hiking","network":"lwn"},"13178188":{"name":"帕米爾公園步道","type":"route","route":"hiking","network":"lwn"},"13178189":{"name":"雙溪溝古道","type":"route","route":"hiking","name:zh":"雙溪溝古道","network":"lwn"},"13178190":{"name":"唭哩岸烏尖連峰步道","type":"route","route":"hiking"},"13178191":{"name":"軍艦岩親山步道","type":"route","route":"hiking","network":"rwn","operator":"臺北市政府"},"13211897":{"name":"比壽潭山步道","type":"route","route":"hiking","network":"lwn"},"13304750":{"name":"木瓜坑瀑布步道","type":"route","route":"hiking","network":"lwn"},"13309101":{"name":"獵人古道","type":"route","route":"hiking"},"13314051":{"name":"雲霧步道","type":"route","route":"foot","name:en":"Yulun Trail","name:zh":"雲霧步道","network":"lwn"},"13387795":{"name":"穿山甲步道","type":"route","route":"hiking"},"13387796":{"name":"義松小徑","type":"route","route":"hiking","network":"lwn"},"13387797":{"name":"五酒桶步道","type":"route","route":"hiking","network":"lwn"},"13387798":{"name":"南崁山山腰路","type":"route","route":"hiking"},"13387799":{"name":"六福步道","type":"route","route":"hiking","network":"lwn"},"13387800":{"name":"番子厝步道","type":"route","route":"hiking","network":"lwn"},"13387801":{"name":"六福一路步道","type":"route","route":"hiking","network":"lwn"},"13387802":{"name":"營盤坑古道","type":"route","route":"hiking","network":"lwn"},"13387803":{"name":"大礁溪山步道","type":"route","route":"hiking","network":"rwn"},"13387804":{"name":"桶後越嶺步道","type":"route","route":"hiking","name:en":"Tonghuo trail","name:zh":"桶後越嶺道","network":"rwn"},"13387806":{"name":"加九寮步道","type":"route","route":"hiking","network":"lwn"},"13390628":{"name":"龍湖步道","type":"route","route":"hiking","network":"lwn"},"13390629":{"name":"北橫步道","type":"route","route":"hiking","network":"lwn"},"13394579":{"name":"苳柏步道","type":"route","route":"hiking","network":"lwn"},"13396279":{"name":"赤水公園北天宮步道","type":"route","route":"hiking"},"13468771":{"name":"高士佛山步道","type":"route","route":"hiking"},"13484027":{"name":"國姓國中後山","type":"route","route":"hiking"},"13514091":{"name":"彭厝窩步道","type":"route","route":"hiking","network":"lwn"},"13533144":{"name":"杜鵑林步道2號線","type":"route","route":"hiking","network":"lwn"},"13533145":{"name":"青龍蕨類步道","type":"route","route":"hiking","network":"lwn"},"13542471":{"name":"東高山(塔班山)登山路線","type":"route","route":"hiking","network":"rwn"},"13550804":{"name":"奮起步道","type":"route","route":"hiking"},"13550805":{"name":"糕仔崁古道","type":"route","route":"hiking"},"13550806":{"name":"木馬棧道","type":"route","route":"hiking","name:en":"Logging Track","name:zh":"木馬棧道"},"13550808":{"name":"杉林棧道","type":"route","route":"hiking","name:en":"Cedar Broadwalk","name:zh":"杉林棧道"},"13563157":{"name":"廖厝古道","type":"route","route":"hiking","network":"lwn"},"13563158":{"name":"十八兒鳥居步道","type":"route","route":"hiking","network":"lwn"},"13578865":{"name":"南三段橫斷","type":"route","route":"hiking"},"13578866":{"name":"阿屘那來山登山路線","type":"route","route":"hiking"},"13578867":{"name":"瑞穗林道","type":"route","route":"hiking"},"13592945":{"name":"茶園坪步道","type":"route","route":"hiking","network":"lwn"},"13592946":{"name":"龍門口步道","type":"route","route":"hiking"},"13606094":{"name":"溪洲山步道","type":"route","route":"hiking"},"13620946":{"name":"坪溪古道","type":"route","route":"hiking"},"13678171":{"name":"上種瓜坑山登山路線","type":"route","route":"hiking"},"13678172":{"name":"澀水森林步道","type":"route","route":"hiking","network":"lwn"},"13678181":{"name":"水沙漣古道","type":"route","route":"hiking","network":"rwn"},"13678191":{"name":"八通關古道","type":"route","route":"hiking","name:en":"Batongguan Ancient Road","name:zh":"八通關古道","network":"nwn"},"13678192":{"name":"瓦拉米步道","type":"route","route":"hiking","network":"lwn"},"13678200":{"name":"華巴諾支線","type":"route","route":"hiking"},"13678201":{"name":"玉山東峰步道","type":"route","route":"hiking","name:en":"Yushan East Peak Trail","name:zh":"玉山東峰步道","network":"lwn"},"13678202":{"name":"玉山步道","type":"route","route":"hiking","name:en":"Yushan Trail","name:zh":"玉山步道","network":"rwn"},"13678203":{"name":"麟趾山登山步道","type":"route","route":"hiking","network":"lwn"},"13678204":{"name":"鹿林山登山步道","type":"route","route":"hiking","network":"lwn"},"13678205":{"name":"玉山前峰步道","type":"route","route":"hiking","name:en":"Yushan Front Peak Trail","name:zh":"玉山前峰步道","network":"lwn"},"13678206":{"name":"玉山西峰步道","type":"route","route":"hiking","name:en":"Yushan West Peak Trail","name:zh":"玉山西峰步道","network":"lwn"},"13730687":{"name":"朝山步道","type":"route","route":"hiking","network":"lwn"},"13730688":{"name":"火焰山步道","type":"route","route":"hiking"},"13730689":{"name":"石壁寮溪棧道","type":"route","route":"hiking","network":"lwn"},"13744408":{"to":"寶藏巖","from":"水源町公園","name":"尋寶步道","type":"route","route":"foot","operator":"臺北市政府工務局公園路燈工程管理處","start_date":"2021-12-25"},"13752971":{"name":"九曲洞步道","type":"route","route":"hiking","name:en":"Tunnel of Nine Turns","name:zh":"九曲洞步道","network":"lwn"},"13752974":{"name":"塔山登山路線","type":"route","route":"hiking","network":"lwn"},"13752975":{"name":"蜜蜂巢古道","type":"route","route":"hiking","network":"lwn"},"13752976":{"name":"桃源里森林步道","type":"route","route":"hiking","network":"lwn"},"13831889":{"name":"巴博庫魯山徑","type":"route","route":"hiking"},"13831899":{"name":"哈盆越嶺步道","type":"route","route":"hiking"},"13831909":{"name":"東滿步道","type":"route","route":"hiking"},"13831915":{"name":"東滿步道","type":"route","route":"hiking"},"13846037":{"name":"大混山步道","type":"route","route":"hiking","network":"lwn"},"13850010":{"name":"觀霧瀑布步道","type":"route","route":"hiking","network":"lwn"},"13850011":{"name":"榛山步道","type":"route","route":"hiking","name:en":"Zhenshan Trail","name:zh":"榛山步道","network":"lwn"},"13850012":{"name":"榛山登山路線","type":"route","route":"hiking"},"13850013":{"name":"檜山巨木群步道","type":"route","route":"hiking"},"13850017":{"name":"蓬萊溪護漁步道","type":"route","route":"foot","network":"lwn"},"13854575":{"name":"茶留凡山東南峰登山路徑","type":"route","route":"hiking","network":"lwn"},"13855085":{"name":"六溪香路古道","type":"route","route":"hiking","network":"rwn"},"13863880":{"name":"草濫古道","type":"route","route":"hiking"},"13871032":{"name":"紅淡山步道_A3線","type":"route","route":"hiking"},"13871033":{"name":"紅淡山步道_A2線","type":"route","route":"hiking"},"13882771":{"name":"白榕步道","type":"route","route":"hiking","network":"lwn"},"13882772":{"name":"瀑布步道","type":"route","route":"hiking","network":"lwn"},"13893349":{"name":"鷹山登山步道","type":"route","route":"hiking","network":"lwn"},"13916238":{"name":"南太平頂山步道","type":"route","route":"hiking","network":"lwn"},"13917438":{"name":"禮納里環區步道","type":"route","route":"foot","network":"lwn"},"13917839":{"name":"龍崀頂步道","type":"route","route":"hiking"},"13917848":{"name":"百段崎古道","type":"route","route":"hiking","network":"lwn"},"13942431":{"name":"司馬庫斯神木群步道","type":"route","route":"hiking","network":"lwn"},"13942432":{"name":"新達→霸南山屋","type":"route","route":"hiking","network":"lwn"},"13942433":{"name":"聖稜線","type":"route","route":"hiking","network":"lwn"},"13942584":{"name":"娘子坑山登山步道","type":"route","route":"hiking"},"13959964":{"name":"鄭大模紀念植物園生態步道","type":"route","route":"hiking","source":"https://mnya.tw/yo/word/2718.html","network":"lwn"},"13960000":{"name":"茶山步道","type":"route","route":"hiking","network":"lwn"},"13960018":{"name":"牛路崎步道","type":"route","route":"hiking","network":"lwn"},"13960020":{"name":"秀才窩幹線楊心國小河堤步道","type":"route","route":"foot","source":"https://mnya.tw/yo/word/2693.html","network":"lwn"},"13960136":{"name":"食水坑步道","type":"route","route":"hiking","source":"https://mnya.tw/yo/word/1615.html","network":"lwn"},"13964323":{"name":"夫婦山登山步道","type":"route","route":"hiking","source":"https://mnya.tw/yo/word/2272.html","network":"lwn"},"13970704":{"name":"林埤古道","type":"route","route":"hiking","network":"lwn"},"14005733":{"name":"阿寸坑山登山路徑","type":"route","route":"hiking","network":"lwn"},"14010209":{"name":"壽山森林步道 - 悠然密林","type":"route","route":"hiking"},"14029428":{"name":"富岡海堤步道","type":"route","route":"foot","network":"lwn"},"14035617":{"name":"慈光步道","type":"route","route":"hiking","network":"lwn"},"14074337":{"name":"瑞泉溪畔古道","type":"route","route":"hiking","network":"lwn"},"14081369":{"name":"四社山登山路線","type":"route","route":"hiking","network":"lwn"},"14081376":{"name":"土地公崙山登山路線","type":"route","route":"hiking","network":"lwn"},"14081393":{"name":"祖師巖登山步道","type":"route","route":"hiking","network":"lwn"},"14088026":{"name":"伯公潭跳石步道","type":"route","route":"foot","source":"https://mnya.tw/yo/word/2740.html","network":"lwn"},"14115295":{"name":"番子坑古道","type":"route","route":"hiking","network":"lwn"},"14115631":{"name":"中之關古道","type":"route","route":"hiking","name:en":"Jhongjhihguan Trail","name:zh":"中之關古道","network":"lwn"},"14115632":{"name":"梅蘭林道","type":"route","route":"hiking","network":"lwn"},"14162309":{"name":"挑炭古道","type":"route","route":"hiking","alt_name":"三通嶺古道"},"14168010":{"name":"川文山環走路線","type":"route","route":"hiking"},"14176809":{"name":"番子坑步道","type":"route","route":"hiking","network":"lwn","alt_name":"千階嶺步道"},"14176810":{"name":"乾坑古道","type":"route","route":"hiking","network":"lwn"},"14176811":{"name":"西一支步道","type":"route","route":"hiking","network":"lwn"},"14191201":{"name":"打牛崎步道","type":"route","route":"hiking","network":"lwn"},"14191202":{"name":"大鼓亭步道","type":"route","route":"hiking","network":"lwn"},"14191203":{"name":"高甫山登山路線","type":"route","route":"hiking","network":"lwn"},"14191205":{"name":"六畜古道","type":"route","route":"hiking","network":"lwn"},"14191206":{"name":"赤柯山步道","type":"route","route":"hiking","network":"lwn"},"14197842":{"name":"柯子林山步道","type":"route","route":"hiking","network":"lwn"},"14197844":{"name":"新山夢湖步道","type":"route","route":"hiking","network":"lwn"},"14197845":{"name":"五指山古道","type":"route","route":"hiking","network":"lwn"},"14208146":{"name":"石光古道","type":"route","route":"hiking"},"14208327":{"name":"林口老公崎步道","type":"route","route":"hiking","network":"lwn"},"14260848":{"name":"塔曼山步道","type":"route","route":"hiking"},"14275328":{"name":"紫微保甲路步道","type":"route","route":"hiking"},"14277054":{"ref":"MSTW 26 特富野古道","name":"山海圳國家綠道","type":"route","route":"hiking","network":"nwn"},"14280784":{"name":"獅潭護魚步道","type":"route","route":"hiking","network":"lwn"},"14280789":{"name":"挑物古道","type":"route","route":"hiking","network":"lwn"},"14282512":{"name":"南橫步道","type":"route","route":"hiking"},"14282513":{"name":"西南步道","type":"route","route":"hiking"},"14282552":{"name":"外環步道","type":"route","route":"hiking"},"14327943":{"name":"半屏山步道 - A1 線","type":"route","route":"hiking"},"14333356":{"name":"大竹林山越嶺道","type":"route","route":"hiking","network":"lwn"},"14333361":{"name":"燦光寮古道","type":"route","route":"hiking","network":"lwn"},"14333362":{"name":"楊廷理古道","type":"route","route":"hiking"},"14333363":{"name":"石笋古道","type":"route","route":"hiking","network":"lwn"},"14333371":{"name":"貂山古道","type":"route","route":"hiking","network":"lwn"},"14333372":{"name":"百二崁步道","type":"route","route":"hiking","network":"lwn"},"14333373":{"name":"台電金瓜石地質公園環形步道","type":"route","route":"hiking","network":"lwn"},"14333374":{"name":"本山礦坑步道","type":"route","route":"hiking","network":"lwn"},"14333375":{"name":"石尾步道","type":"route","route":"hiking","network":"lwn"},"14334577":{"name":"金東坑古道","type":"route","route":"hiking","network":"lwn"},"14334580":{"name":"小粗坑古道","type":"route","route":"hiking","network":"lwn"},"14334650":{"name":"琉瑯觀光步道","type":"route","route":"hiking","network":"lwn"},"14334651":{"name":"苧仔潭古道","type":"route","route":"hiking","network":"lwn"},"14334655":{"name":"金仔山步道","type":"route","route":"hiking","network":"lwn"},"14346458":{"name":"三貂嶺青春山海線","type":"route","route":"hiking","network":"lwn"},"14347612":{"name":"草嶺古道福隆路線","type":"route","route":"hiking","highway":"footway","network":"lwn"},"14360942":{"name":"鳶尾山登山步道","type":"route","route":"hiking"},"14364133":{"name":"山塘背步道","type":"route","route":"hiking","network":"lwn"},"14379013":{"name":"尖石山比麟山步道","type":"route","route":"hiking","network":"lwn"},"14379014":{"name":"那羅山煤源山登山路線","type":"route","route":"hiking","network":"lwn"},"14379015":{"name":"那羅山登山路線","type":"route","route":"hiking","network":"lwn"},"14379827":{"name":"三貂嶺登山路線","type":"route","route":"hiking","network":"lwn"},"14392166":{"name":"桃花心木步道","type":"route","route":"hiking","network":"lwn"},"14405195":{"name":"飛鳳古道","type":"route","route":"hiking","network":"lwn"},"14438797":{"name":"土庫岳登山步道","type":"route","route":"hiking","network":"lwn"},"14480913":{"name":"四分子古道","type":"route","route":"hiking","network":"lwn"},"14486725":{"name":"月扇湖山登山路線","type":"route","route":"hiking","network":"lwn"},"14496570":{"name":"佐昌登山線","type":"route","route":"hiking","network":"lwn"},"14510312":{"name":"阿玉山林道","type":"route","route":"hiking","highway":"track"},"14522297":{"name":"能高安東軍縱走","type":"route","route":"hiking","network":"rwn"},"14560698":{"name":"鵝公髻山登山步道","type":"route","route":"hiking","network":"rwn"},"14560699":{"name":"鵝公髻山雲霧步道線","type":"route","route":"hiking","network":"lwn"},"14560700":{"name":"鵝公髻山東河線","type":"route","route":"hiking","network":"lwn"},"14560709":{"name":"小東河山與大龍山登山路線","type":"route","route":"hiking","network":"lwn"},"14560710":{"name":"小東河步道","type":"route","route":"hiking","network":"lwn"},"14560732":{"name":"石觀音山路徑","type":"route","route":"hiking","network":"lwn"},"14562809":{"name":"士林貢丸路線","type":"route","route":"hiking","network":"lwn"},"14574143":{"name":"大同國中登烏帽子山路線","type":"route","route":"hiking","network":"lwn"},"14577750":{"name":"馬望女山路線","type":"route","route":"hiking","network":"lwn"},"14577751":{"name":"鎮西堡巨木群A路線","type":"route","route":"hiking","network":"lwn"},"14577752":{"name":"鎮西堡巨木群步道","type":"route","route":"hiking","network":"lwn"},"14577753":{"name":"毒龍潭路線","type":"route","route":"hiking","network":"lwn"},"14577755":{"name":"霞喀羅古道","type":"route","route":"hiking"},"14577756":{"name":"養老山西北峰路線","type":"route","route":"hiking","network":"lwn"},"14577759":{"name":"基那吉山路線","type":"route","route":"hiking","network":"lwn"},"14580344":{"name":"九茶縱走","type":"route","route":"hiking","network":"lwn"},"14591179":{"name":"鐵杉林自然步道","type":"route","route":"hiking","network":"rwn"},"14592114":{"name":"華山4-2號步道","type":"route","route":"hiking","network":"lwn"},"14643314":{"name":"龍肚國小後山生態廊道","type":"route","route":"hiking","network":"lwn"},"14654524":{"name":"寶寧宮登山步道","type":"route","route":"hiking","network":"lwn"},"14669669":{"name":"劉厝古道","type":"route","route":"hiking","network":"lwn"},"14669745":{"name":"旗子腳山路線","type":"route","route":"hiking","network":"lwn"},"14669746":{"name":"獵狸尖山路線","type":"route","route":"hiking","network":"lwn"},"14669747":{"name":"粗坑崙登山路線","type":"route","route":"hiking","network":"lwn"},"14674719":{"name":"拳山古道","type":"route","route":"hiking","name:zh":"拳山古道","network":"lwn"},"14694215":{"name":"十八彎古道","type":"route","route":"hiking","network":"lwn"},"14697236":{"name":"赤盧古道","type":"route","route":"hiking","network":"lwn"},"14697251":{"name":"觀魚步道","type":"route","route":"foot","network":"lwn"},"14697257":{"name":"水柳腳登山步道","type":"route","route":"hiking"},"14697258":{"name":"大尾山登山步道","type":"route","route":"hiking","network":"lwn"},"14697266":{"name":"番子坑越嶺古道","type":"route","route":"hiking","network":"lwn"},"14697416":{"name":"11號步道","type":"route","route":"hiking"},"14697417":{"name":"10-5號步道與12號步道","type":"route","route":"hiking"},"14697418":{"name":"10-4步道","type":"route","route":"hiking"},"14697419":{"name":"挑筍古道","type":"route","route":"hiking"},"14697420":{"name":"樟湖6號步道","type":"route","route":"hiking"},"14697421":{"name":"樟湖5號步道","type":"route","route":"hiking"},"14697422":{"name":"伍龍步道","type":"route","route":"hiking"},"14698657":{"name":"合歡山東峰步道","type":"route","route":"hiking","name:en":"Hehuanshan East Peak Trail","name:zh":"合歡山東峰步道","network":"lwn"},"14698658":{"name":"石門山步道","type":"route","route":"hiking","network":"lwn"},"14698659":{"name":"石門北峰步道","type":"route","route":"hiking","network":"lwn"},"14698660":{"name":"北合歡山步道","type":"route","route":"hiking","name:en":"Hehuanshan North Peak Trail","name:zh":"北合歡山步道","network":"lwn"},"14698661":{"name":"西合歡山步道","type":"route","route":"hiking","network":"lwn"},"14700246":{"name":"四堵步道","type":"route","route":"hiking","network":"lwn"},"14700255":{"name":"虎寮潭山路線","type":"route","route":"hiking","network":"lwn"},"14701353":{"name":"得卡倫步道","type":"route","route":"hiking","name:en":"Dekalun Trail","name:zh":"得卡倫步道","network":"lwn"},"14701354":{"name":"大禮步道","type":"route","route":"hiking","name:en":"Dali Trail","name:zh":"大禮步道","network":"lwn"},"14701355":{"name":"砂卡礑林道","type":"route","route":"hiking","name:en":"Shakadang Logging Road","name:zh":"砂卡礑林道","network":"lwn"},"14701356":{"name":"同禮步道","type":"route","route":"hiking","name:en":"Tongli Trail","name:zh":"同禮步道","network":"lwn"},"14702050":{"name":"蕨山登山路線","type":"route","route":"hiking","network":"lwn"},"14702053":{"name":"金馬路線","type":"route","route":"hiking","network":"lwn"},"14725861":{"name":"美濃越嶺古道","type":"route","route":"hiking","network":"lwn"},"14728911":{"name":"大修宮步道","type":"route","route":"hiking","network":"lwn"},"14884107":{"name":"復興巴陵橋暨巴陵一、二號隧道","type":"route","route":"foot","wikidata":"Q86728915","wikipedia":"zh:復興巴陵橋暨巴陵一、二號隧道"},"14931923":{"name":"魚池尖登山步道","type":"route","route":"hiking"},"14931929":{"name":"水社大山北稜線","type":"route","route":"hiking"},"14931930":{"name":"水社大山潭南線","type":"route","route":"hiking"},"14935816":{"name":"女仍山路線","type":"route","route":"hiking","network":"lwn"},"14935817":{"name":"牡丹路山路線","type":"route","route":"hiking","network":"lwn"},"14937224":{"name":"塔山步道","type":"route","route":"hiking"},"14954513":{"name":"靈山步道","type":"route","route":"hiking","operator":"林務局屏東林區管理處"},"15001769":{"name":"燕子口步道","type":"route","route":"hiking","network":"lwn"},"15081134":{"name":"鈺鼎步道","type":"route","route":"hiking","network":"lwn","operator":"林務局"},"15538867":{"name":"出雲古道","type":"route","route":"hiking","network":"lcn"},"15575600":{"name":"富士坪古道","type":"route","route":"hiking","network":"lwn"},"15616433":{"name":"穿霧隘勇古道","type":"route","route":"hiking"},"15641413":{"name":"磺溪彩虹健康步道","type":"route","route":"foot","network":"lwn","distance":"4.313","roundtrip":"yes"},"15647090":{"name":"半屏山步道 - A2 路線","type":"route","route":"hiking"},"15659746":{"name":"舊雙溪河步道","type":"route","route":"foot","network":"lwn","start_date":"2006-10-19"},"15661208":{"name":"見城之道","type":"route","route":"hiking"},"15693812":{"name":"根本古道","type":"route","route":"hiking","network":"lwn"},"15693814":{"name":"麥巴來登山路線","type":"route","route":"hiking","network":"lwn"},"15931860":{"name":"神龜步道","type":"route","route":"hiking","network":"lwn"},"15963322":{"name":"茶亭古道","type":"route","route":"hiking","network":"lcn"},"15963323":{"name":"打牛崎古道","type":"route","route":"hiking","network":"lcn"},"15963325":{"name":"清水坑古道","type":"route","route":"hiking","network":"lcn"},"15963326":{"name":"伙房崎古道","type":"route","route":"hiking","network":"lcn"},"15965907":{"name":"石硬子步道(石峎古道)","type":"route","route":"hiking","network":"lcn"},"15965908":{"name":"開善寺步道","type":"route","route":"hiking","network":"lcn"},"15965909":{"name":"老銃櫃步道","type":"route","route":"hiking","network":"lcn"},"15966511":{"name":"水寨下古道","type":"route","route":"hiking"},"15966512":{"name":"北長城步道","type":"route","route":"hiking","network":"lcn"},"16008237":{"name":"卯萊古道","type":"route","route":"hiking","network":"lwn"},"16008238":{"name":"福卯古道","type":"route","route":"hiking","network":"lwn"},"16034359":{"name":"景尾山步道","type":"route","route":"hiking","network":"lwn"},"16050524":{"name":"撼龍步道","type":"route","route":"hiking","network":"lwn"},"16071637":{"name":"挑水古道","type":"route","route":"hiking","network":"lwn"},"16071638":{"name":"碧山古道","type":"route","route":"hiking","network":"lwn"},"16096753":{"name":"溪頭山步道","type":"route","route":"hiking"},"16096754":{"name":"竹崙、志騰步道","type":"route","route":"hiking","network":"lwn"},"16112447":{"name":"戀戀復興礦走讀","type":"route","route":"hiking","network":"lwn"},"16132667":{"name":"丹鳳山步道","type":"route","route":"hiking"},"16149353":{"name":"南觀音山登山步道","type":"route","route":"hiking"},"16225059":{"name":"溪頭大學池步道","type":"route","route":"foot","network":"lwn","distance":"1.0 km","operator":"溪頭自然教育園區"},"16226900":{"name":"溪頭大學池林道","type":"route","route":"foot","network":"lwn","distance":"1.0 km","operator":"溪頭教育園區"},"16228133":{"name":"溪頭探索森林步道","type":"route","route":"foot","network":"lwn","operator":"溪頭自然教育園區"},"16228134":{"name":"溪頭大學坑步道","type":"route","route":"foot","network":"lwn","operator":"溪頭自然教育園區"},"16228135":{"name":"溪頭森林浴步道","type":"route","route":"hiking","network":"lwn","distance":"3.0 km","operator":"溪頭自然教育園區"},"16228356":{"name":"鳳凰林道","type":"route","route":"hiking","network":"lwn","distance":"5.7 km","operator":"溪頭自然教育園區"},"16228357":{"name":"溪頭巨石步道","type":"route","route":"hiking","network":"lwn","distance":"0.1 km","operator":"溪頭自然教育園區"},"16228536":{"name":"溪頭神木林道(左環)","type":"route","route":"foot","network":"lwn","distance":"2.3 km","operator":"溪頭自然教育園區"},"16228537":{"name":"溪頭彩虹橋步道","type":"route","route":"hiking","network":"lwn","distance":"0.33 km","operator":"溪頭自然教育園區"},"16229093":{"name":"溪頭神木林道(右環)","type":"route","route":"foot","network":"lwn","distance":"2.05 km","operator":"溪頭自然教育園區"},"16229192":{"name":"溪頭神木步道","type":"route","route":"foot","network":"lwn","distance":"1.42 km","operator":"溪頭自然教育園區"},"16233445":{"name":"溪頭沿溪步道","type":"route","route":"foot","network":"lwn","distance":"1.4 km","operator":"溪頭自然教育園區"},"16233446":{"name":"溪頭銀杏步道","type":"route","route":"foot","network":"lwn","distance":"0.5 km","operator":"溪頭自然教育園區"}}