{"1638005":{"name":"Ścieżka przyrodniczo-historyczna \\\"W dolinie Górnego Sanu\\\"","type":"route","route":"hiking","colour":"green;white","network":"lwn","operator":"Bieszczadzki Park Narodowy","osmc:symbol":"green:white:green_backslash"},"2970399":{"name":"Закарпатський туристичний шлях","type":"route","route":"hiking","colour":"red","name:en":"Transcarpathian tourist path","name:pl":"Zakarpacki szlak turystyczny","name:uk":"Закарпатський туристичний шлях","network":"nwn","complete":"yes","distance":"398","operator":"Карпатські стежки","wikidata":"Q30915066","wikipedia":"uk:Закарпатський туристичний шлях","osmc:symbol":"red:white:red_bar"},"2978218":{"ref":"51","name":"51","type":"route","route":"hiking","source":"Карта \\\"По горному Крыму\\\" 2009","name:uk":"51","network":"lwn"},"2978229":{"ref":"53","name":"53","type":"route","route":"hiking","source":"Карта \\\"По горному Крыму\\\" 2009","name:uk":"53","network":"lwn"},"2978230":{"ref":"52","name":"52","type":"route","route":"hiking","source":"Карта \\\"По горному Крыму\\\" 2009","name:uk":"52","network":"lwn","website":"http://www.comleshos.crimea-portal.gov.ua","osmc:symbol":"red_round"},"2978256":{"ref":"56","name":"56","type":"route","route":"hiking","source":"Карта \\\"По горному Крыму\\\" 2009","name:uk":"56","network":"lwn"},"2978257":{"ref":"60","name":"60","type":"route","route":"hiking","source":"Карта \\\"По горному Крыму\\\" 2009","name:uk":"60","network":"lwn"},"2978261":{"ref":"57","name":"57","type":"route","route":"hiking","source":"Карта \\\"По горному Крыму\\\" 2009","name:uk":"57","network":"lwn"},"2978284":{"ref":"126","name":"Ишачья тропа","type":"route","route":"hiking","source":"Карта \\\"По горному Крыму\\\" 2009","name:ru":"Ишачья тропа","name:uk":"Ішача стежка","network":"lwn"},"2978292":{"ref":"127","name":"Красная тропа","type":"route","route":"hiking","source":"Карта \\\"По горному Крыму\\\" 2009","name:uk":"Червона стежка","network":"rwn","osmc:symbol":"yellow:white:yellow_bar"},"2981679":{"ref":"89","name":"89","type":"route","route":"hiking","name:uk":"89","network":"lwn"},"2981682":{"ref":"90","name":"90","type":"route","route":"hiking","name:uk":"90","network":"lwn"},"2981716":{"ref":"88","name":"88","type":"route","route":"hiking","name:uk":"88","network":"lwn"},"2981758":{"ref":"14","name":"Гора Баллы-Коба - т/с «Мангуп»","type":"route","route":"hiking","name:uk":"Гора Бали-Коба – т/с «Мангуп»","network":"lwn"},"2981764":{"ref":"13","name":"урочище Пятая балка","type":"route","route":"hiking","name:uk":"Урочище П'ята балка","network":"lwn"},"2981768":{"ref":"12","name":"родник - гора Баллы Коба","type":"route","route":"hiking","name:uk":"Джерело - гора Бали Коба","network":"lwn"},"2983111":{"ref":"18","name":"18","type":"route","route":"hiking","name:uk":"18","network":"lwn"},"2983138":{"ref":"23","name":"23","type":"route","route":"hiking","name:uk":"23","network":"lwn"},"2983159":{"ref":"21","name":"21","type":"route","route":"hiking","name:uk":"21","network":"lwn"},"2983163":{"ref":"22","name":"22","type":"route","route":"hiking","name:uk":"22","network":"lwn"},"2983180":{"ref":"19","name":"19","type":"route","route":"hiking","name:uk":"19","network":"lwn"},"2983182":{"ref":"16","name":"16","type":"route","route":"hiking","name:uk":"16","network":"lwn"},"2983194":{"ref":"20","name":"балка Джан-Дере - с.Новоульяновка","type":"route","route":"hiking","name:uk":"балка Джан-Дере - с.Новоульянівка","network":"lwn"},"2983290":{"ref":"170","name":"170","type":"route","route":"hiking","name:uk":"170","network":"lwn"},"2984722":{"ref":"2","name":"2","type":"route","route":"hiking","name:uk":"2","network":"lwn"},"2984740":{"ref":"29","name":"т/с «Ай-Димитрий» - т/с «Узунджа»","type":"route","route":"hiking","name:uk":"т/с \\\"Ай-Димитрій\\\" - т/с \\\"Узунджа\\\"","network":"lwn"},"2984790":{"ref":"38","name":"т/с «Чайный домик» - т/с «Барская поляна»","type":"route","route":"hiking","name:uk":"т/с \\\"Чайний будиночок\\\" - т/с \\\"Барська галявина\\\"","network":"lwn"},"2984791":{"ref":"45","name":"45","type":"route","route":"hiking","name:uk":"45"},"2984809":{"ref":"39","name":"т/с «Чайный домик» - водопад Серебряный","type":"route","route":"hiking","name:uk":"т/с \\\"Чайний будиночок\\\" - водоспад Срібний","network":"lwn"},"2984813":{"ref":"41","name":"соединительный гора Сююрю-Кая","type":"route","route":"hiking","name:uk":"Сполучна гора Сююрю-Кая","network":"lwn"},"2984816":{"ref":"43","name":"Водопад Серебряный - т/с «Данила»","type":"route","route":"hiking","name:ru":"Водопад Серебряный - т/с «Данила»","name:uk":"Водоспад Срібний - т/с «Данило»","network":"lwn"},"2984826":{"ref":"54","name":"54","type":"route","route":"hiking","name:uk":"54","network":"lwn"},"2984832":{"ref":"28","name":"28","type":"route","route":"hiking","name:uk":"28","network":"lwn"},"2984834":{"ref":"27","name":"27","type":"route","route":"hiking","name:uk":"27","network":"lwn"},"2984835":{"ref":"26","name":"26","type":"route","route":"hiking","name:uk":"26","network":"lwn"},"2984855":{"ref":"46","name":"46","type":"route","route":"hiking","name:uk":"46","network":"lwn"},"2984859":{"ref":"44","name":"44","type":"route","route":"hiking","name:uk":"44","network":"lwn"},"2984860":{"ref":"30","name":"т/с «Аи-Димитрий» - урочище Малый Бабулган","type":"route","route":"hiking","name:uk":"т/с \\\"Аї-Димитрій\\\" - урочище Малий Бабулган","network":"lwn"},"2984871":{"ref":"50","name":"50","type":"route","route":"hiking","name:uk":"50","network":"lwn"},"2985047":{"ref":"15","name":"15","type":"route","route":"hiking","name:uk":"15","network":"lwn"},"2985053":{"ref":"17","name":"Адым - Чокракская долина - гора Мангуп-Кале","type":"route","route":"hiking","name:uk":"Адим – Чокракська долина – гора Мангуп-Кале","network":"lwn"},"2985074":{"ref":"81","name":"81","type":"route","route":"hiking","name:uk":"81","network":"lwn"},"2985090":{"ref":"3","name":"3","type":"route","route":"hiking","name:uk":"3","network":"lwn"},"2985091":{"ref":"5","name":"5","type":"route","route":"hiking","name:uk":"5","network":"lwn"},"2985112":{"ref":"104","name":"104","type":"route","route":"hiking","name:uk":"104","network":"lwn"},"2985115":{"ref":"87","name":"87","type":"route","route":"hiking","name:uk":"87","network":"lwn"},"2985116":{"ref":"88","name":"88","type":"route","route":"hiking","name:uk":"88","network":"lwn"},"2986430":{"ref":"11","name":"Пещерный город Эски-Кермен","type":"route","route":"hiking","name:uk":"Печерне місто Ескі-Кермен","network":"lwn"},"2986482":{"ref":"9","name":"2-й лесной кордон - Эски-Кермен","type":"route","route":"hiking","name:uk":"2-й лісовий кордон - Ескі-Кермен","network":"lwn"},"2986483":{"ref":"10","name":"Соединительный Донаторский","type":"route","route":"hiking","name:uk":"Сполучний Донаторський","network":"lwn"},"2992788":{"ref":"25","name":"25","type":"route","route":"hiking","name:uk":"25","network":"lwn"},"2992795":{"ref":"24","name":"24","type":"route","route":"hiking","name:uk":"24","network":"lwn"},"2992798":{"ref":"82","name":"82","type":"route","route":"hiking","name:uk":"82","network":"lwn"},"2992836":{"ref":"7","name":"Чертова лестница","type":"route","route":"hiking","name:uk":"Чортові сходи","network":"lwn","alt_name":"Шайтан-Мердвен"},"2992837":{"ref":"8","name":"8","type":"route","route":"hiking","name:uk":"8","network":"lwn"},"2992875":{"ref":"6","name":"6","type":"route","route":"hiking","name:uk":"6","network":"lwn"},"2992904":{"ref":"142","name":"142","type":"route","route":"hiking","name:uk":"142","network":"lwn"},"2992976":{"ref":"148","name":"148","type":"route","route":"hiking","name:uk":"148","network":"lwn"},"2992977":{"ref":"140","name":"140","type":"route","route":"hiking","name:uk":"140","network":"lwn"},"2992978":{"ref":"139","name":"139","type":"route","route":"hiking","name:uk":"139"},"2992992":{"ref":"145","name":"145","type":"route","route":"hiking","name:uk":"145","network":"lwn"},"2993031":{"ref":"166","name":"166","type":"route","route":"hiking","name:uk":"166","network":"lwn"},"2993033":{"ref":"165","name":"165","type":"route","route":"hiking","name:uk":"165","network":"lwn"},"2993043":{"ref":"138","name":"138","type":"route","route":"hiking","name:uk":"138","network":"lwn"},"2993089":{"ref":"131","name":"Коровья тропа","type":"route","route":"hiking","name:uk":"Коров'яча стежка","network":"lwn"},"2993092":{"ref":"129","name":"129","type":"route","route":"hiking","name:uk":"129","network":"lwn"},"2993152":{"ref":"130","name":"130","type":"route","route":"hiking","name:uk":"130","network":"lwn"},"2993154":{"ref":"128","name":"128","type":"route","route":"hiking","name:uk":"128","network":"lwn"},"2993161":{"ref":"134","name":"134","type":"route","route":"hiking","name:uk":"134","network":"lwn"},"2993164":{"ref":"132","name":"132","type":"route","route":"hiking","name:uk":"132","network":"lwn"},"2993165":{"ref":"133","name":"133","type":"route","route":"hiking","name:uk":"133","network":"lwn"},"2993180":{"ref":"143","name":"143","type":"route","route":"hiking","name:uk":"143","network":"lwn"},"2993200":{"ref":"136","name":"136","type":"route","route":"hiking","name:uk":"136","network":"lwn"},"2993201":{"ref":"135","name":"135","type":"route","route":"hiking","name:uk":"135","network":"lwn"},"2993215":{"ref":"190","name":"190","type":"route","route":"hiking","name:uk":"190","network":"lwn"},"2994714":{"ref":"175","name":"175","type":"route","route":"hiking","name:uk":"175","network":"lwn"},"2994715":{"ref":"178","name":"178","type":"route","route":"hiking","name:uk":"178","network":"lwn"},"2994733":{"ref":"177","name":"177","type":"route","route":"hiking","name:uk":"177","network":"lwn"},"2994734":{"ref":"176","name":"176","type":"route","route":"hiking","name:uk":"176","network":"lwn"},"2994762":{"ref":"182","name":"182","type":"route","route":"hiking","name:uk":"182","network":"lwn"},"2994763":{"ref":"180","name":"180","type":"route","route":"hiking","name:uk":"180","network":"lwn"},"2994789":{"ref":"174","name":"174","type":"route","route":"hiking","name:uk":"174","network":"lwn"},"2994790":{"ref":"188","name":"188","type":"route","route":"hiking","name:uk":"188","network":"lwn"},"2994796":{"ref":"167","name":"167","type":"route","route":"hiking","name:uk":"167","network":"lwn"},"2994839":{"ref":"185","name":"185","type":"route","route":"hiking","name:uk":"185","network":"rwn"},"2994840":{"ref":"192","name":"192","type":"route","route":"hiking","name:uk":"192","network":"lwn"},"2994841":{"ref":"191","name":"191","type":"route","route":"hiking","name:uk":"191","network":"lwn"},"2994874":{"ref":"195","name":"195","type":"route","route":"hiking","name:uk":"195","network":"lwn"},"2994875":{"ref":"194","name":"194","type":"route","route":"hiking","name:uk":"194","network":"lwn"},"2994910":{"ref":"101","name":"101","type":"route","route":"hiking","name:uk":"101","network":"lwn"},"2994911":{"ref":"70","name":"70","type":"route","route":"hiking","name:uk":"70","network":"lwn"},"3008239":{"ref":"36","name":"36","type":"route","route":"hiking","name:uk":"36","network":"lwn"},"3008294":{"ref":"156","name":"156","type":"route","route":"hiking","name:uk":"156","network":"lwn"},"3008326":{"ref":"149","name":"149","type":"route","route":"hiking","name:uk":"149","network":"lwn"},"3008327":{"ref":"151","name":"151","type":"route","route":"hiking","name:uk":"151","network":"lwn"},"3008328":{"ref":"150","name":"150","type":"route","route":"hiking","name:uk":"150","network":"lwn"},"3008341":{"ref":"98","name":"98","type":"route","route":"hiking","name:uk":"98","network":"lwn"},"3008348":{"ref":"97","name":"97","type":"route","route":"hiking","name:uk":"97","network":"lwn"},"3008373":{"ref":"95","name":"95","type":"route","route":"hiking","name:uk":"95","network":"lwn"},"3008384":{"ref":"93","name":"93","type":"route","route":"hiking","name:uk":"93","network":"lwn"},"3008385":{"ref":"96","name":"96","type":"route","route":"hiking","name:uk":"96","network":"lwn"},"3008392":{"ref":"106","name":"106","type":"route","route":"hiking","name:uk":"106","network":"lwn"},"3008393":{"ref":"94","name":"94","type":"route","route":"hiking","name:uk":"94","network":"lwn"},"3037580":{"ref":"WB1","name":"WB1","type":"route","route":"hiking","colour":"#0000FF","name:uk":"WB1","network":"rwn","osmc:symbol":"blue:white:blue_bar"},"3038378":{"ref":"WR","name":"WR","type":"route","route":"hiking","colour":"#FF0000","name:uk":"WR","network":"rwn","osmc:symbol":"red:white:red_bar"},"3038445":{"ref":"WB2","name":"WB2","type":"route","route":"hiking","colour":"#0000FF","name:uk":"WB2","network":"rwn","osmc:symbol":"blue:white:blue_bar"},"3038529":{"ref":"WY2","name":"WY2","type":"route","route":"hiking","colour":"#FFFF00","name:uk":"WY2","network":"rwn","osmc:symbol":"yellow:white:yellow_bar"},"3038620":{"ref":"WY1","name":"WY1","type":"route","route":"hiking","name:uk":"WY1","network":"rwn","osmc:symbol":"yellow:white:yellow_bar"},"3039148":{"ref":"WG1","name":"WG1","type":"route","route":"hiking","colour":"#00FF00","name:uk":"WG1","network":"rwn","osmc:symbol":"green:white:green_bar"},"3044786":{"ref":"EY6","name":"EY6","type":"route","route":"hiking","name:uk":"EY6","network":"rwn","osmc:symbol":"yellow:white:yellow_bar"},"3044797":{"ref":"ER1","name":"ER1","type":"route","route":"hiking","name:uk":"ER1","network":"rwn","osmc:symbol":"red:white:red_bar"},"3044986":{"ref":"EY5","name":"EY5","type":"route","route":"hiking","name:uk":"EY5","network":"rwn","osmc:symbol":"yellow:white:yellow_bar"},"3047245":{"name":"На Стримбу","type":"route","route":"hiking","symbol":"Синій на білому фоні","name:uk":"На Стримбу","osmc:symbol":"blue:white:blue_bar"},"3049510":{"name":"Карпатський туристичний шлях","type":"route","route":"hiking","symbol":"major","name:en":"Carpatian Tourist Path","name:uk":"Карпатський туристичний шлях","network":"rwn","description":"yellow bar","osmc:symbol":"yellow:white:yellow_bar"},"3059316":{"ref":"EY4","name":"EY4","type":"route","route":"hiking","name:uk":"EY4","network":"rwn","osmc:symbol":"yellow:white:yellow_bar"},"3059822":{"name":"Полонина Руна (червоний маршрут)","type":"route","route":"hiking","colour":"red","symbol":"major","name:en":"Polonyna Runa","name:uk":"Полонина Руна","network":"rwn","complete":"no","osmc:symbol":"red:white:red_bar"},"3075772":{"name":"Східно-Карпатський туристичний шлях","type":"route","route":"hiking","name:en":"East-Carpathian Tourist Path","name:pl":"Wschodniokarpacki Szlak Turystyczny","name:uk":"Східно-Карпатський туристичний шлях","network":"nwn","complete":"yes","distance":"286","wikidata":"Q30915045","wikipedia":"uk:Східно-Карпатський туристичний шлях","osmc:symbol":"red:white:red_bar"},"3126442":{"name":"Колочава - Тапеш","type":"route","route":"foot","symbol":"green","name:uk":"Колочава - Тапеш","network":"irw","alt_name":"Колочава - Тяпеш","osmc:symbol":"green:white:green_bar"},"3406798":{"name":"Стежка здоров'я","type":"route","route":"hiking","name:uk":"Стежка здоров'я","network":"nwn"},"3771087":{"name":"Терсовата-Негровець","type":"route","route":"hiking","colour":"blue","symbol":"major","name:en":"Tersovata-Negrovec","name:uk":"Терсовата-Негровець","complete":"yes","osmc:symbol":"blue:white:blue_bar"},"3771187":{"name":"Синевирська Поляна - Терсовата","type":"route","route":"hiking","colour":"yellow","symbol":"major","name:en":"Synevyrska Poliana - Tersovata","name:uk":"Синевирська Поляна - Терсовата","complete":"no","osmc:symbol":"yellow:white:yellow_bar"},"3875341":{"ref":"MP3","name":"«Сільськими околицями» (пішки)","type":"route","route":"hiking","colour":"red","name:uk":"«Сільськими околицями» (пішки)","network":"lcn","distance":"32","operator":"Мандруймо Полтавщиною","osmc:symbol":"red:white:red_bar"},"3877567":{"ref":"MP1","name":"\\\"Опішнянськими стежками\\\" (пішки)","type":"route","route":"hiking","colour":"green","name:uk":"\\\"Опішнянськими стежками\\\" (пішки)","network":"lcn","distance":"9,9","operator":"Мандруймо Полтавщиною","osmc:symbol":"green:white:green_bar"},"3877568":{"ref":"MP2","name":"\\\"Міські Млини\\\" (пішки)","type":"route","route":"hiking","colour":"blue","name:uk":"\\\"Міські Млини\\\" (пішки)","network":"lcn","website":"http://mp.velopoltava.org/2013/07/blog-post_10.html","distance":"10.3","operator":"Мандруймо Полтавщиною","osmc:symbol":"blue:white:blue_bar"},"3940865":{"name":"Ścieżka przyrodnicza \\\"Torfowisko Wysokie Tarnawa Niżna\\\"","type":"route","route":"hiking"},"3994306":{"name":"Екостежка","type":"route","route":"hiking","name:uk":"Екостежка","network":"nwn"},"4581755":{"name":"Blue trail","type":"route","route":"hiking","name:uk":"Blue trail","network":"nwn","osmc:symbol":"blue:white:blue_bar"},"4581756":{"name":"Green trail","type":"route","route":"hiking","name:uk":"Green trail","network":"rwn","osmc:symbol":"green:white:green_bar"},"4866863":{"name":"c. Липа - Яворина - Бункер Роберта","type":"route","route":"hiking","symbol":"local","name:uk":"c. Липа - Яворина - Бункер Роберта","osmc:symbol":"red:white:red_corner"},"4867301":{"name":"Маршрут №103 (503)","type":"route","route":"hiking","colour":"yellow","symbol":"major","name:uk":"Маршрут №103 (503)","osmc:symbol":"yellow:white:yellow_bar:103:black"},"4868853":{"name":"№13 Сколе - г.Лопата","type":"route","route":"hiking","colour":"yellow","symbol":"major","name:uk":"№13 Сколе - г.Лопата","network":"lwn","osmc:symbol":"yellow:white:yellow_bar:13:black"},"5342808":{"name":"Алея авіаторів","type":"route","route":"hiking","name:uk":"Алея авіаторів","website":"http://www.glau.kr.ua/index.php/ua/home-ua/struktura/museumkopleks","distance":"0.45","operator":"КЛА НАУ"},"5375294":{"name":"с. Манява - вдсп. Манявський","type":"route","route":"hiking","name:uk":"с. Манява - вдсп. Манявський","network":"lwn","osmc:symbol":"blue:white:blue_bar"},"5375295":{"name":"с. Гута - с. Пасічна","type":"route","route":"hiking","name:uk":"с. Гута - с. Пасічна","network":"lwn","osmc:symbol":"red:white:red_bar"},"5375296":{"name":"с. Манява - пол. Монастирецька","type":"route","route":"hiking","name:uk":"с. Манява - пол. Монастирецька","network":"lwn","osmc:symbol":"yellow:white:yellow_bar"},"5375297":{"name":"Зелений","type":"route","route":"hiking","name:uk":"Зелений","network":"lwn","osmc:symbol":"green:white:green_bar"},"5375312":{"name":"с. Стара Гута - пол. Рущина","type":"route","route":"hiking","colour":"yellow","symbol":"major","name:uk":"с. Стара Гута - пол. Рущина","network":"lwn","osmc:symbol":"yellow:white:yellow_bar"},"5450387":{"name":"Стежка Довбуша","type":"route","route":"hiking","name:uk":"Стежка Довбуша","osmc:symbol":"green:white:green_bar","marked_trail":"blue:white"},"5450388":{"name":"Яремче-Маковиця","type":"route","route":"hiking","colour":"yellow","name:uk":"Яремче-Маковиця","network":"lwn","complete":"no","osmc:symbol":"yellow:white:yellow_bar"},"5666980":{"name":"Воловецький перевал - Вовчий","type":"route","route":"hiking","name:uk":"Воловецький перевал - Вовчий","network":"rwn","complete":"no","kct_blue":"major","operator":"cz:KČT","destination":"Vovčij - Velikyj Verch","osmc:symbol":"blue:white:blue_bar"},"5728268":{"name":"Архімедка","type":"route","route":"hiking","name:uk":"Архімедка","roundtrip":"yes"},"5978945":{"name":"Буковинське Око","type":"route","route":"hiking","name:uk":"Буковинське Око","network":"rwn","osmc:symbol":"yellow:white:yellow_bar"},"6250047":{"name":"с. Гриньків - г. Середня","type":"route","route":"hiking","symbol":"major","name:uk":"с. Гриньків - г. Середня","network":"rwn","osmc:symbol":"green:white:green_bar"},"6250048":{"name":"с. Кузьминець - г. Висока","type":"route","route":"hiking","symbol":"major","name:uk":"с. Кузьминець - г. Висока","network":"rwn","osmc:symbol":"yellow:white:yellow_bar"},"6250049":{"name":"с. Стара Гута - г. Ігровець","type":"route","route":"hiking","symbol":"major","name:uk":"с. Стара Гута - г. Ігровець","network":"rwn","osmc:symbol":"black:white:black_bar"},"6250050":{"name":"с. Стара Гута – пров. Борівка","type":"route","route":"hiking","symbol":"major","name:uk":"с. Стара Гута – пров. Борівка","network":"rwn","osmc:symbol":"green:white:green_bar"},"6250051":{"name":"с. Стара Гута - пол. Середня","type":"route","route":"hiking","symbol":"major","name:uk":"с. Стара Гута - пол. Середня","network":"rwn","osmc:symbol":"blue:white:blue_bar"},"6291518":{"name":"Мшана-Горган Ілемський","type":"route","route":"hiking","colour":"black","symbol":"major","name:uk":"Мшана-Горган Ілемський","network":"rwn","complete":"no","osmc:symbol":"black:white:black_bar"},"6291519":{"name":"На Горган Ілемський","type":"route","route":"hiking","colour":"yellow","symbol":"major","name:uk":"На Горган Ілемський","network":"rwn","complete":"no","osmc:symbol":"yellow:white:yellow_bar"},"6291520":{"name":"Мислівка - Яйко Перегінське - Солотвинка","type":"route","route":"hiking","colour":"blue","symbol":"major","name:uk":"Мислівка - Яйко Перегінське - Солотвинка","network":"rwn","complete":"no","osmc:symbol":"blue:white:blue_bar"},"6359196":{"name":"Екологічна стежка \\\"Колочава\\\"","type":"route","route":"hiking","colour":"blue","symbol":"major","name:uk":"Екологічна стежка \\\"Колочава\\\"","network":"lwn","complete":"no","osmc:symbol":"blue:white:blue_bar"},"6411323":{"name":"с. Біласовиця - г. Пікуй","type":"route","route":"hiking","name:uk":"с. Біласовиця - г. Пікуй","network":"lwn","osmc:symbol":"yellow:white:yellow_bar"},"6411324":{"name":"с. Біласовиця - г. Кошарище","type":"route","route":"hiking","name:uk":"с. Біласовиця - г. Кошарище","network":"lwn","osmc:symbol":"green:white:green_bar"},"6533480":{"name":"Ясіня - Драгобрат","type":"route","route":"hiking","colour":"green","symbol":"green bar","name:en":"Yasinia - Dragobrat","name:uk":"Ясіня - Драгобрат","network":"lwn","osmc:symbol":"green:white:green_bar"},"6553360":{"ref":"3","name":"№3, Полонина Блажів – Малий Горган","type":"route","route":"hiking","ascent":"655","colour":"green","symbol":"green bar","descent":"15","name:uk":"№3, Полонина Блажів – Малий Горган","network":"lwn","distance":"14","operator":"ТК \\\"Буковель\\\"","roundtrip":"yes","description":"Буковель - Полонина Блажів - Малий Горган - Полонина Блажів - Буковель","osmc:symbol":"green:white:green_bar"},"6564702":{"ref":"5","name":"№5, Буковель - гора Синяк","type":"route","route":"hiking","colour":"purple","symbol":"purple bar","name:uk":"№5, Буковель - гора Синяк","network":"lwn","distance":"14","osmc:symbol":"purple:white:purple_bar"},"6564731":{"ref":"4","name":"№4. Перевал Столи - урочище Бабин","type":"route","route":"hiking","colour":"yellow","symbol":"yellow bar","name:uk":"№4. Перевал Столи - урочище Бабин","network":"lwn","distance":"15.6","roundtrip":"yes","osmc:symbol":"yellow:white:yellow_bar"},"6575336":{"name":"Околе - Трояска","type":"route","route":"hiking","colour":"blue","symbol":"blue bar","name:en":"Okole - Troyaska","name:uk":"Околе - Трояска","network":"lwn","osmc:symbol":"blue:white:blue_bar"},"6575340":{"name":"Околе - Велика Братківська","type":"route","route":"hiking","colour":"green","symbol":"green bar","name:en":"Okole - Velyka Bratkivska","name:uk":"Околе - Велика Братківська","network":"lwn","osmc:symbol":"green:white:green_bar"},"6610577":{"ref":"2","name":"№2, перевал Столи - полонина Довга","type":"route","route":"hiking","colour":"blue","symbol":"blue_bar","name:uk":"№2, перевал Столи - полонина Довга","network":"lwn","roundtrip":"yes","osmc:symbol":"blue:white:blue_bar"},"6690436":{"name":"Blue mark (Ljuta - Tychyj - Ridge of Pikuj)","type":"route","route":"hiking","hiking":"major","name:uk":"Blue mark (Ljuta - Tychyj - Ridge of Pikuj)","network":"lwn","operator":"Značené trasy","osmc:symbol":"blue:white:blue_bar"},"6692431":{"name":"Green mark (Ljuta Monastyr - Priluky)","type":"route","route":"hiking","hiking":"major","name:uk":"Green mark (Ljuta Monastyr - Priluky)","operator":"Značené trasy","osmc:symbol":"green:white:green_bar"},"6693047":{"ref":"green tourist route","name":"Green mark (Stavne - Viewpoint)","type":"route","route":"hiking","hiking":"major","name:uk":"Green mark (Stavne - Viewpoint)","operator":"Značené trasy","osmc:symbol":"green:white:green_bar"},"6802600":{"name":"Узенбашская тропа","type":"route","route":"hiking","name:en":"Uzenbash trail","name:uk":"Узенбаська стежка","network":"lwn","roundtrip":"no","signed_direction":"no"},"6988454":{"to":"Лумшори","from":"Люта","name":"Люта - Лютянська Голиця - Лумшори (зелений маршрут)","type":"route","route":"hiking","hiking":"yes","name:en":"Ljuta - Ljutanska Holitsa - Lumshory","name:uk":"Люта - Лютянська Голиця - Лумшори","network":"rwn","osmc:symbol":"green:white:green_bar"},"6988455":{"name":"Yellow mark (Ljuta - Ljutanska Holitsa)","type":"route","route":"hiking","hiking":"yes","name:uk":"Yellow mark (Ljuta - Ljutanska Holitsa)","network":"lwn","operator":"Značené trasy","osmc:symbol":"yellow:white:yellow_bar"},"6988456":{"name":"Yellow mark (Ljuta Monastyr - Luh)","type":"route","route":"hiking","hiking":"yes","name:uk":"Yellow mark (Ljuta Monastyr - Luh)","network":"lwn","operator":"Značené trasy","osmc:symbol":"yellow:white:yellow_bar"},"6995191":{"name":"Red mark (Lumshory - Nevicky zamok)","type":"route","route":"hiking","hiking":"yes","name:uk":"Red mark (Lumshory - Nevicky zamok)","network":"rwn","operator":"Značené trasy","osmc:symbol":"red:white:red_bar"},"6996413":{"name":"IceTrail","type":"route","route":"hiking","name:uk":"IceTrail","network":"lwn"},"6996448":{"name":"Blue mark (Vilshinky - Turica)","type":"route","route":"hiking","hiking":"yes","name:uk":"Blue mark (Vilshinky - Turica)","network":"lwn","operator":"Značené trasy","osmc:symbol":"blue:white:blue_bar"},"6996449":{"name":"Green mark (Tury Remety - Antalovce)","type":"route","route":"hiking","hiking":"yes","name:uk":"Green mark (Tury Remety - Antalovce)","network":"rwn","operator":"Značené trasy","osmc:symbol":"green:white:green_bar"},"6996450":{"name":"Blue mark (Zbyny - Voevodyn)","type":"route","route":"hiking","colour":"#007bff","hiking":"yes","name:uk":"Blue mark (Zbyny - Voevodyn)","network":"lwn","operator":"Značené trasy","osmc:symbol":"blue:white:blue_bar"},"7051502":{"name":"Большая Севастопольская тропа","type":"route","route":"hiking","name:uk":"Велика Севастопольська стежка","network":"lwn","website":"https://bst-sev.ru/"},"7237660":{"name":"Зелене - Скупова","type":"route","route":"hiking","colour":"#0000FF","symbol":"біла-синя-біла смуги","name:pl":"Zełene - Skupowa","name:uk":"Зелене - Скупова","network":"lwn","osmc:symbol":"blue:white:blue_bar"},"7237661":{"name":"Угорські скелі","type":"route","route":"hiking","colour":"#FFFF00","symbol":"біла-жовта-біла смуги","name:uk":"Угорські скелі","network":"lwn","osmc:symbol":"yellow:white:yellow_bar"},"7237962":{"name":"Траверс Аршиці","type":"route","route":"hiking","colour":"yellow","symbol":"major","name:uk":"Траверс Аршиці","complete":"yes","osmc:symbol":"yellow:white:yellow_bar"},"7237964":{"name":"Осмолода - Росохан","type":"route","route":"hiking","colour":"black","name:uk":"Осмолода - Росохан","complete":"yes","osmc:symbol":"black:white:black_bar"},"7273549":{"name":"BurningHeads","type":"route","route":"hiking","name:uk":"BurningHeads","network":"lwn"},"7379909":{"name":"Goloseevo Trail Half Marathon","type":"route","route":"hiking","name:uk":"Goloseevo Trail Half Marathon","network":"lwn"},"7455857":{"name":"Солнечная тропа","type":"route","route":"hiking","name:ru":"Солнечная тропа","name:uk":"Сонячна стежка","network":"lwn"},"7590849":{"name":"Be more human","type":"route","route":"hiking","name:uk":"Be more human","network":"lwn"},"7622174":{"name":"Різарня ― Борівка","type":"route","route":"hiking","colour":"yellow","name:uk":"Різарня ― Борівка","network":"rwn","osmc:symbol":"yellow:white:yellow_bar"},"7622175":{"name":"Яла ― Борівка","type":"route","route":"hiking","colour":"black","name:uk":"Яла ― Борівка","network":"rwn","osmc:symbol":"black:white:black_bar"},"7622176":{"name":"Осмолода ― г. Ґорґан","type":"route","route":"hiking","colour":"blue","name:uk":"Осмолода ― г. Ґорґан","network":"rwn","osmc:symbol":"blue:white:blue_bar"},"7622203":{"name":"Осмолода - Котелець ― Плісце ― Ґрофа (зелений маршрут)","type":"route","route":"hiking","colour":"green","name:uk":"Осмолода - Котелець ― Плісце ― Ґрофа (зелений маршрут)","network":"rwn","osmc:symbol":"green:white:green_bar"},"7622252":{"name":"Екостежка довкола Грофи (синій маршрут)","type":"route","route":"hiking","name:uk":"Екостежка довкола Грофи (синій маршрут)","network":"rwn","osmc:symbol":"blue:white:blue_corner"},"7622253":{"name":"Траверс Паренків (жовтий маршрут)","type":"route","route":"hiking","name:uk":"Траверс Паренків (жовтий маршрут)","network":"rwn","osmc:symbol":"yellow:white:yellow_corner"},"7622487":{"name":"На полонину Хом'яків","type":"route","route":"hiking","name:uk":"На полонину Хом'яків","network":"lwn","osmc:symbol":"green:white:green_bar"},"7622529":{"name":"Лопушне - Синевир","type":"route","route":"hiking","name:uk":"Лопушне - Синевир","network":"rwn","osmc:symbol":"yellow:white:yellow_bar"},"7622542":{"name":"Свобода - пол. Гича","type":"route","route":"hiking","name:uk":"Свобода - пол. Гича","network":"rwn","osmc:symbol":"blue:white:blue_bar"},"7622547":{"name":"Гича - Бескид","type":"route","route":"hiking","name:uk":"Гича - Бескид","network":"rwn","osmc:symbol":"yellow:white:yellow_bar"},"7622559":{"name":"Бескид - Слобода","type":"route","route":"hiking","name:uk":"Бескид - Слобода","network":"rwn","osmc:symbol":"green:white:green_bar"},"7746568":{"name":"Wet Hiils","type":"route","route":"hiking","name:uk":"Wet Hiils","network":"lwn"},"8015043":{"name":"North Wild Way","type":"route","route":"hiking","name:uk":"North Wild Way","network":"lwn"},"8031829":{"name":"Пашківці-Гостра","type":"route","route":"hiking","colour":"yellow","name:uk":"Пашківці-Гостра","osmc:symbol":"yellow:white:yellow_bar"},"8032140":{"name":"Blue mark (Pashkivtsi Shcherbovets Pikuj)","type":"route","route":"hiking","colour":"blue","symbol":"major","name:uk":"Blue mark (Pashkivtsi Shcherbovets Pikuj)","osmc:symbol":"blue:white:blue_bar"},"8038602":{"name":"Ice Trail 2018","type":"route","route":"hiking","name:uk":"Ice Trail 2018","network":"rwn"},"8180448":{"name":"Сколе-Майдан № 13","type":"route","route":"hiking","colour":"yellow","symbol":"major","name:uk":"Сколе-Майдан № 13","network":"lwn","osmc:symbol":"yellow:white:yellow_bar:13:black"},"8192676":{"name":"Можевеловая тропа (Центр Оникс - Ангар-Бурун)","type":"route","route":"hiking","name:uk":"Ялівцева стежка (Центр Онікс - Ангар-Бурун)","network":"lwn"},"8220556":{"name":"Гостра-Прелуки","type":"route","route":"hiking","colour":"green","name:uk":"Гостра-Прелуки","network":"rwn","osmc:symbol":"green:white:green_bar"},"8493860":{"name":"Green path (zelená značka)","type":"route","route":"hiking","symbol":"green bar","name:uk":"Green path (zelená značka)","network":"lwn","complete":"yes","kct_green":"major","osmc:symbol":"green:white:green_bar"},"8548828":{"name":"Kostryna-Javornik-Veliky Berezny","type":"route","route":"hiking","name:uk":"Kostryna-Javornik-Veliky Berezny","network":"rwn","osmc:symbol":"blue:white:blue_bar"},"8550561":{"name":"Воловець - Плай","type":"route","route":"hiking","name:uk":"Воловець - Плай","network":"rwn","osmc:symbol":"yellow:white:yellow_bar"},"8613136":{"name":"с.Кевелів - г.Петрос","type":"route","route":"hiking","symbol":"yellow bar","name:uk":"с.Кевелів - г.Петрос","network":"lwn","kct_yellow":"major","osmc:symbol":"yellow:white:yellow_bar"},"8613349":{"name":"с.Лазещина - г.Петрос - с.Ясіня","type":"route","route":"hiking","symbol":"blue bar","name:uk":"с.Лазещина - г.Петрос - с.Ясіня","network":"lwn","kct_blue":"major","osmc:symbol":"blue:white:blue_bar"},"8613350":{"name":"с. Ясіня - г. Петрос - с. Лазещина","type":"route","route":"hiking","symbol":"blue bar","name:uk":"с. Ясіня - г. Петрос - с. Лазещина","network":"rwn","kct_blue":"major","osmc:symbol":"blue:white:blue_bar"},"8613461":{"name":"Лазещина-Говерла","type":"route","route":"hiking","name:uk":"Лазещина-Говерла","network":"lwn","operator":"Карпатські стежки","osmc:symbol":"yellow:white:yellow_bar"},"8613511":{"name":"Blue path (modrá značka)","type":"route","route":"hiking","symbol":"blue bar","name:uk":"Blue path (modrá značka)","network":"lwn","kct_blue":"major","osmc:symbol":"blue:white:blue_bar"},"8613512":{"name":"Yellow path (žlutá značka)","type":"route","route":"hiking","symbol":"yellow bar","name:uk":"Yellow path (žlutá značka)","network":"lwn","kct_yellow":"major","osmc:symbol":"yellow:white:yellow_bar"},"8661047":{"name":"Німецька Мокра - Усть-Чорна","type":"route","route":"hiking","name:en":"Nimetska Mokra - Ust-Chorna","name:uk":"Німецька Мокра - Усть-Чорна","network":"rwn","osmc:symbol":"blue:white:blue_bar"},"8911650":{"name":"На Дарвайку від місця загибелі Шугая","type":"route","route":"hiking","symbol":"Ховтий на білому фоні","name:uk":"На Дарвайку від місця загибелі Шугая","osmc:symbol":"yellow:white:yellow_bar"},"9436686":{"to":"полонина Озірна","from":"село Вороненко","name":"с. Вороненко - пол. Озірна","type":"route","route":"hiking","colour":"yellow","symbol":"біла-жовта-біла смуги","name:uk":"с. Вороненко - пол. Озірна","network":"lwn","distance":"11 km","description":"Туристичний маршрут с. Вороненко - пол. Озірна","osmc:symbol":"yellow:white:yellow_bar"},"9437532":{"to":"г. Кукул","from":"КПП","name":"КПП - г. Кукул","type":"route","route":"hiking","colour":"blue","symbol":"біла-синя-біла смуги","name:uk":"КПП - г. Кукул","network":"lwn","distance":"5 km","description":"Маршрут на г. Кукул з синім маркуванням","osmc:symbol":"blue:white:blue_bar"},"9446555":{"name":"Ворохта ― Кукул","type":"route","route":"hiking","colour":"blue","name:uk":"Ворохта ― Кукул","osmc:symbol":"blue:white:blue_bar"},"9446816":{"name":"До водоспаду Ялинський","type":"route","route":"hiking","colour":"yellow","name:uk":"До водоспаду Ялинський","network":"rwn","operator":"КБЗ","osmc:symbol":"yellow:white:yellow_bar"},"9469746":{"name":"Яремче - пол. Явір - пол. Вовча - Яремче","type":"route","route":"hiking","colour":"yellow","symbol":"біла-жовта-біла смуги","name:uk":"Яремче - пол. Явір - пол. Вовча - Яремче","network":"lwn","description":"Круговий маршрут під г. Ґорґан-Явірницький та хребтом Явірник з жовтим маркуванням","osmc:symbol":"yellow:white:yellow_bar"},"9472338":{"name":"Яремче - г. Маковиця","type":"route","route":"hiking","colour":"green","name:uk":"Яремче - г. Маковиця","network":"lwn","osmc:symbol":"green:white:green_bar"},"9699460":{"to":"Cantonul Silvic Repedea","from":"Valea Vișeului","name":"V. Vișeului - Cabana Paltin - Cantonul Silvic Repedea","type":"route","route":"hiking","ref:MN":"08MN01","source":"Muntii Nostri gpx","network":"rwn","distance":"30.6","description":"Valea Vișeului - Defileul Vișeului - Bistra - Valea Bistra - Preluca lui Glodean - Preluca lui Ionaș - Cabana Paltin - Valea Hututeanca - Șaua Tomnatecul - Valea Tomnatec - Cantonul Silvic Repedea","osmc:symbol":"red:white:red_triangle"},"9789153":{"name":"Інтерактивна екостежка","type":"route","fixme":"Отметить по маршруту информационные стенды","route":"hiking","source":"survey;http://nppg.gov.ua/uk/node/103","name:uk":"Інтерактивна екостежка","network":"nwn","tourism":"yes","operator":"НПП «Голосіївський»","description":"В національному природному парку «Голосіївський» з’явилася інтерактивна екостежка, яка покликана поширювати в доступній формі знання про природу та залучати жителів міста до прогулянок на свіжому повітрі."},"9797481":{"name":"Оса - Стій","type":"route","route":"hiking","name:en":"Yellow mark (Osa - Stiy)","name:uk":"Оса - Стій","network":"rwn","osmc:symbol":"yellow:white:yellow_bar"},"9797500":{"name":"Зелений Пилипець - Воловець","type":"route","route":"hiking","colour":"green","name:uk":"Зелений Пилипець - Воловець","network":"rwn","osmc:symbol":"green:white:green_bar"},"9841323":{"name":"Карпатський туристичний шлях","note":"Green Vuchkove - mountain ridge eastbound","type":"route","route":"hiking","colour":"green","hiking":"major","symbol":"green bar","name:en":"Carpathian tourist path","name:pl":"Karpacki szlak turystyczny","name:uk":"Карпатський туристичний шлях","network":"lwn","alt_name":"green path (green)","complete":"no","operator":"Karavela","osmc:symbol":"green:white:green_bar"},"10152874":{"name":"Спадщина предків","type":"route","route":"foot","symbol":"Червона стрілка на білому фоні на деревах","name:uk":"Спадщина предків","network":"lwn","operator":"Комунальний заклад \\\"Регіональний ландшафтний парк \\\"Ніжинський\\\"\\\" Ніжинської районної ради","roundtrip":"yes","description":"Екологічна стежка","educational":"yes","signed_direction":"yes"},"10330737":{"name":"Yasinia(Svydovets) - pol. Shysa","type":"route","route":"hiking","colour":"green","name:en":"Yasynia (Svydovets') ― pol. Shysa","name:uk":"Yasinia(Svydovets) - pol. Shysa","network":"lwn","osmc:symbol":"green:white:green_bar"},"10330772":{"name":"Лазещина-Кукул-Лазещина","type":"route","route":"hiking","colour":"green","name:uk":"Лазещина-Кукул-Лазещина","network":"lwn","operator":"Карпатські стежки","osmc:symbol":"green:white:green_bar"},"10330801":{"name":"НСБ Заросляк - г. Говерла","type":"route","route":"hiking","colour":"green","name:en":"Zaroliak ― Hoverla Green","name:uk":"НСБ Заросляк - г. Говерла","network":"lwn","operator":"Карпатські стежки","osmc:symbol":"green:white:green_bar"},"10330810":{"name":"НСБ Заросляк ― г. Говерла","type":"route","route":"hiking","colour":"blue","name:en":"Zarosliak ― Hoverla Blue","name:uk":"НСБ Заросляк ― г. Говерла","network":"lwn","operator":"Карпатські стежки","osmc:symbol":"blue:white:blue_bar"},"10330834":{"name":"с.Бистрець - пол.Маришевська - г.Шпиц","type":"route","route":"hiking","colour":"green","name:uk":"с.Бистрець - пол.Маришевська - г.Шпиц","network":"lwn","osmc:symbol":"green:white:green_bar"},"10330840":{"name":"с. Бистрець - пол. Псарівка - г. Кострич","type":"route","route":"hiking","colour":"yellow","name:uk":"с. Бистрець - пол. Псарівка - г. Кострич","network":"lwn","osmc:symbol":"yellow:white:yellow_bar"},"10330852":{"name":"Траверс г. Кострича жовтий","type":"route","route":"hiking","colour":"yellow","name:uk":"Траверс г. Кострича жовтий","network":"lwn","osmc:symbol":"yellow:white:yellow_bar"},"10330869":{"name":"с. Ворохта - пер. Ріжі","type":"route","route":"hiking","colour":"green","name:uk":"с. Ворохта - пер. Ріжі","network":"lwn","osmc:symbol":"green:white:green_bar"},"10330884":{"name":"с.Волова-г.Ротило-с.Волова (маркування потребує поновлення)","type":"route","route":"hiking","colour":"blue","name:uk":"с.Волова-г.Ротило-с.Волова (маркування потребує поновлення)","network":"lwn","distance":"12","osmc:symbol":"blue:white:blue_bar"},"10330912":{"name":"Жовтий на г. Ротило","type":"route","route":"hiking","colour":"yellow","name:uk":"Жовтий на г. Ротило","network":"lwn","osmc:symbol":"yellow:white:yellow_bar"},"10330941":{"name":"Траверс г. Гордя зелений","type":"route","route":"hiking","colour":"green","name:uk":"Траверс г. Гордя зелений","network":"lwn","osmc:symbol":"green:white:green_bar"},"10330959":{"name":"с. Микуличин - г. Ягідна (жовтий)","type":"route","route":"hiking","colour":"yellow","name:uk":"с. Микуличин - г. Ягідна (жовтий)","network":"lwn","osmc:symbol":"yellow:white:yellow_bar"},"10330966":{"to":"г. Рокита","from":"с. Микуличин","name":"с. Микуличин - г. Рокита","type":"route","route":"hiking","colour":"green","name:uk":"с. Микуличин - г. Рокита","network":"lwn","osmc:symbol":"green:white:green_bar"},"10330986":{"name":"На г. Костел (жовтий)","type":"route","route":"hiking","colour":"yellow","name:uk":"На г. Костел (жовтий)","network":"lwn","osmc:symbol":"yellow:white:yellow_bar"},"10335867":{"name":"Ямна - полонина Явірник - Круглоявірник - Ямна","type":"route","route":"hiking","symbol":"major","name:en":"Yamna - Yavirnyk meadow - Krugloyavirnyk mt.- Yamna","name:uk":"Ямна - полонина Явірник - Круглоявірник - Ямна","network":"lwn","distance":"14","roundtrip":"yes","osmc:symbol":"blue:white:blue_bar"},"10354862":{"name":"Женець ― пол.Круглоявірник ― с. Микуличин","type":"route","route":"hiking","colour":"yellow","name:uk":"Женець ― пол.Круглоявірник ― с. Микуличин","network":"lwn","osmc:symbol":"yellow:white:yellow_bar"},"10354922":{"name":"м. Яремче - пер. Переслоп - м. Яремче","type":"route","route":"hiking","name:uk":"м. Яремче - пер. Переслоп - м. Яремче","network":"lwn","osmc:symbol":"blue:white:blue_bar"},"10354963":{"name":"прис. Дора - скеля Білий Камінь - г. Синячка - пол. Щівка - прис. Дора","type":"route","route":"hiking","name:uk":"прис. Дора - скеля Білий Камінь - г. Синячка - пол. Щівка - прис. Дора","network":"lwn","osmc:symbol":"blue:white:blue_bar"},"10354964":{"name":"траверс пол. Щівка","type":"route","route":"hiking","name:uk":"траверс пол. Щівка","network":"lwn","osmc:symbol":"black:white:black_bar"},"10354995":{"name":"с. Пасічна - пер. Переслоп","type":"route","route":"hiking","name:uk":"с. Пасічна - пер. Переслоп","network":"lwn","osmc:symbol":"green:white:green_bar"},"10355006":{"name":"с. Дземброня - пол. Смотрич - г. Смотрич - г. Вухатий Камінь - пол. Смотрич - с. Дземброня","type":"route","route":"hiking","name:uk":"с. Дземброня - пол. Смотрич - г. Смотрич - г. Вухатий Камінь - пол. Смотрич - с. Дземброня","network":"lwn","osmc:symbol":"blue:white:blue_bar"},"10355025":{"name":"сідловина Смотрич - Піп Іван","type":"route","route":"hiking","name:uk":"сідловина Смотрич - Піп Іван","network":"lwn","osmc:symbol":"yellow:white:yellow_bar"},"10355026":{"name":"с. Шибене - г. Піп Іван","type":"route","route":"hiking","name:uk":"с. Шибене - г. Піп Іван","network":"lwn","osmc:symbol":"green:white:green_bar"},"10355121":{"name":"с. Богдан - пол. Рогнєска","type":"route","route":"hiking","name:uk":"с. Богдан - пол. Рогнєска","network":"lwn","osmc:symbol":"yellow:white:yellow_bar"},"10355186":{"name":"м. Рахів - пол. Берлебашка","type":"route","route":"hiking","name:uk":"м. Рахів - пол. Берлебашка","network":"lwn","osmc:symbol":"green:white:green_bar"},"10355187":{"name":"с. Костилівка - пол. Берлебашка","type":"route","route":"hiking","name:uk":"с. Костилівка - пол. Берлебашка","network":"lwn","osmc:symbol":"yellow:white:yellow_bar"},"10355188":{"name":"с. Богдан - пол. Довга","type":"route","route":"hiking","name:uk":"с. Богдан - пол. Довга","network":"lwn","osmc:symbol":"green:white:green_bar"},"10355270":{"name":"Смугарські водоспади","type":"route","route":"hiking","name:uk":"Смугарські водоспади","network":"lwn","osmc:symbol":"yellow:white:yellow_bar"},"10355271":{"name":"пер. Німчич - Протяте Каміння","type":"route","route":"hiking","name:uk":"пер. Німчич - Протяте Каміння","network":"lwn","osmc:symbol":"red:white:red_bar"},"10355272":{"name":"Вижниця - Верхоріччя","type":"route","route":"hiking","name:uk":"Вижниця - Верхоріччя","network":"lwn"},"10567662":{"name":"с. Бистриця - г. Велика Братківська","type":"route","route":"hiking","name:uk":"с. Бистриця - г. Велика Братківська","network":"lwn","osmc:symbol":"blue:white:blue_bar"},"10567663":{"name":"с. Бистриця - хр. Тавпиширка","type":"route","route":"hiking","name:uk":"с. Бистриця - хр. Тавпиширка","network":"lwn","osmc:symbol":"green:white:green_bar"},"10567758":{"name":"с. Бистриця - пер. Легіонів","type":"route","route":"hiking","name:uk":"с. Бистриця - пер. Легіонів","network":"lwn","osmc:symbol":"yellow:white:yellow_bar"},"10567759":{"name":"пер. Легіонів - хр. Тавпиширка","type":"route","route":"hiking","name:uk":"пер. Легіонів - хр. Тавпиширка","network":"lwn","osmc:symbol":"blue:white:blue_bar"},"10567760":{"name":"с. Максимець - пол. Стремена","type":"route","route":"hiking","name:uk":"с. Максимець - пол. Стремена","network":"lwn","osmc:symbol":"green:white:green_bar"},"10624599":{"name":"Карпатський туристичний шлях","note":"Yellow Vuchkove valley - Kosіv Verh - Nehrovec","type":"route","route":"hiking","colour":"yellow","hiking":"major","symbol":"yellow bar","name:en":"Carpathian tourist path","name:pl":"Karpacki szlak turystyczny","name:uk":"Карпатський туристичний шлях","network":"lwn","alt_name":"yellow path (yellow)","complete":"no","operator":"Karavela","osmc:symbol":"yellow:white:yellow_bar"},"10955923":{"name":"Eкостежка довкола Яйка Перегінського","type":"route","route":"hiking","colour":"green","name:uk":"Eкостежка довкола Яйка Перегінського","network":"rwn","osmc:symbol":"green:white:green_corner"},"10959174":{"name":"Мислівка-Ґурґулат","type":"route","route":"hiking","name:uk":"Мислівка-Ґурґулат","network":"rwn","osmc:symbol":"green:white:green_bar"},"10978224":{"ref":"5001","name":"Славське - гора Ільза - Волосянка","type":"route","route":"hiking","ascent":"460","colour":"red","symbol":"major","descent":"400","name:en":"Slavsko-Mount Ilza-Volosianka 5001","name:uk":"Славське - гора Ільза - Волосянка","network":"lwn","distance":"8.7","osmc:symbol":"red:white:red_bar: 5001:black"},"10984299":{"name":"Dubyna-Kliuch-Dowbush rocks №500","type":"route","route":"hiking","colour":"gold","symbol":"major","name:uk":"Dubyna-Kliuch-Dowbush rocks №500","network":"lwn","osmc:symbol":"yellow:white:yellow_bar: 500:black"},"10989076":{"name":"Славське - Чорна Ріпа - урочище Обнога","type":"route","route":"hiking","colour":"red","symbol":"major","name:uk":"Славське - Чорна Ріпа - урочище Обнога","network":"lwn","osmc:symbol":"red:white:red_bar: 5011:black"},"10990155":{"name":"Лубня - Ставне","type":"route","route":"hiking","name:uk":"Лубня - Ставне","osmc:symbol":"blue:white:blue_bar"},"10990156":{"name":"Ужок - Дрогобицький камінь","type":"route","route":"hiking","name:uk":"Ужок - Дрогобицький камінь","osmc:symbol":"blue:white:blue_bar"},"10990157":{"name":"Пилипець - Гимба","type":"route","route":"hiking","name:uk":"Пилипець - Гимба","network":"rwn","osmc:symbol":"blue:white:blue_bar"},"10990261":{"name":"Усть-Чорна - Попадя","type":"route","route":"hiking","name:uk":"Усть-Чорна - Попадя","network":"rwn","osmc:symbol":"blue:white:blue_bar"},"10990262":{"name":"Обхідна стежка","type":"route","route":"hiking","name:uk":"Обхідна стежка","network":"lwn","osmc:symbol":"blue:white:blue_bar"},"10990263":{"name":"Гута - Погарчина","type":"route","route":"hiking","name:uk":"Гута - Погарчина","network":"rwn","osmc:symbol":"yellow:white:yellow_bar"},"10993287":{"name":"Прис. Рівня - г. Смерічок - г. Петраш - Микуличин","type":"route","route":"hiking","name:uk":"Прис. Рівня - г. Смерічок - г. Петраш - Микуличин","network":"rwn","distance":"15","osmc:symbol":"blue:white:blue_bar"},"10993288":{"name":"Дора - г. Маковиця - г. Стайки - г. Смерічок - Дора","type":"route","route":"hiking","name:uk":"Дора - г. Маковиця - г. Стайки - г. Смерічок - Дора","network":"rwn","osmc:symbol":"yellow:white:yellow_bar"},"11035511":{"name":"Татарів - г. Ягідна","type":"route","route":"hiking","name:uk":"Татарів - г. Ягідна","network":"lwn","osmc:symbol":"green:white:green_bar"},"11063603":{"name":"Шлях Пинті","type":"route","route":"hiking","ascent":"450","colour":"yellow","symbol":"yellow bar","name:uk":"Шлях Пинті","network":"lwn","distance":"10.2 km","description":"туристичний шлях №214","osmc:symbol":"yellow:white:yellow_bar"},"11063636":{"to":"Pilzno","from":"Medyka","name":"Droga św. Jakuba - Via Regia Podkarpacka","type":"route","route":"hiking","source":"http://www.viaregia.org.pl","network":"nwn","description":"Droga św Jakuba Via Regia odcinek Medyka - Jarosław","osmc:symbol":"yellow:blue:yellow_shell"},"11064542":{"name":"піший перехід до Гуцульщини","type":"route","route":"foot","name:en":"foot route to Hutsul's region","name:uk":"піший перехід до Гуцульщини"},"11116764":{"name":"Негровець - Косів Верх - Тапеш","type":"route","route":"foot","symbol":"green","name:uk":"Негровець - Косів Верх - Тапеш","network":"irw","alt_name":"Негровець - Косий Верх - Тяпеш","osmc:symbol":"green:white:green_bar"},"11140824":{"to":"Вежа Пам'яті","ref":"5016","from":"c. Недільна","name":"Недільна - Вежа Пам'яті","type":"route","route":"foot","symbol":"yellow","name:uk":"Недільна - Вежа Пам'яті","osmc:symbol":"yellow:white:yellow_bar"},"11140825":{"to":"Вежа Пам'яті","ref":"5017","from":"с. Сприня","name":"Сприня - Каплиця - Вежа Пам'яті","type":"route","route":"foot","symbol":"yellow","name:uk":"Сприня - Каплиця - Вежа Пам'яті","osmc:symbol":"yellow:white:yellow_bar"},"11159758":{"name":"Яремче ― пол. Чорногориця ― Яремче","type":"route","route":"hiking","colour":"green","name:uk":"Яремче ― пол. Чорногориця ― Яремче","network":"lwn","operator":"Карпатські стежки","osmc:symbol":"green:white:green_bar"},"11168831":{"to":"полонина Росохата","from":"село Шешори","name":"Шешори - Росохата","note":"Частина маршруту (з невідомих причин) промаркована як Зелений-Білий-Зелений замість Білий-Зелений-Білий.","type":"route","route":"foot","symbol":"green","name:uk":"Шешори - Росохата","note:en":"Part of the route (due to unknown reason) is marked as Green-White-Green instead of White-Green-White.","osmc:symbol":"green:white:green_bar"},"11172794":{"to":"Михалків","name":"yellow","type":"route","route":"foot","symbol":"yellow","name:uk":"yellow","osmc:symbol":"yellow:white:yellow_bar"},"11172795":{"to":"Михалків","name":"green","type":"route","route":"foot","symbol":"green","name:uk":"green","osmc:symbol":"green:white:green_bar"},"11172797":{"name":"blue","type":"route","route":"foot","symbol":"blue","name:uk":"blue","osmc:symbol":"blue:white:blue_bar"},"11174123":{"name":"Жовтий на Пожератул","type":"route","route":"hiking","colour":"yellow","name:uk":"Жовтий на Пожератул","network":"lwn","operator":"Карпатські стежки","osmc:symbol":"yellow:white:yellow_bar"},"11174124":{"name":"Жовтий на Пожератул","type":"route","route":"hiking","colour":"yellow","name:uk":"Жовтий на Пожератул","network":"lwn","operator":"Карпатські стежки","osmc:symbol":"yellow:white:yellow_bar"},"11204282":{"name":"Мінеральні джерела с. Розлуч","type":"route","route":"foot","name:uk":"Мінеральні джерела с. Розлуч"},"11244843":{"to":"Перехрестя на с. Дністрик","ref":"5018","from":"С. Головецько","name":"Еколого-пізнавальний маршрут с. Головецько","type":"route","route":"foot","symbol":"yellow","name:uk":"Еколого-пізнавальний маршрут с. Головецько","network":"lwn","description":"Туристичний шлях місцевого значення №5018 призначений для пішоходів та велосипедів. Пролягає селом Головецько по території Головецького лісництва у Старосамбірському районі.","osmc:symbol":"yellow:white:yellow_bar","network:type":"Local"},"11245327":{"ref":"5018","name":"Планований маршрут №5018","type":"route","route":"foot","symbol":"yellow","name:uk":"Планований маршрут №5018","proposed":"yes","osmc:symbol":"yellow:white:yellow_bar"},"11294478":{"to":"Діл Яроцький","from":"Великі Лази","name":"Шлях Плотені","type":"route","route":"hiking","colour":"green","name:en":"Shlyah Ploteni","name:uk":"Шлях Плотені","network":"rwn","distance":"16 km","osmc:symbol":"green:white:green_bar"},"11294640":{"to":"Dil Yarotskyi","from":"Velyki Lazy","name":"Shlyah Ploteni","type":"route","route":"hiking","colour":"green","name:uk":"Shlyah Ploteni","network":"rwn","distance":"16 klm","osmc:symbol":"green:white:green_bar"},"11294641":{"to":"Dil Yarotskyi","from":"Velyki Lazy","name":"Shlyah Ploteni","type":"route","route":"hiking","colour":"green","name:uk":"Shlyah Ploteni","network":"rwn","distance":"16 klm","osmc:symbol":"green:white:green_bar"},"11294642":{"to":"Dil Yarotskyi","from":"Velyki Lazy","name":"Shlyah Ploteni","type":"route","route":"hiking","colour":"green","name:uk":"Shlyah Ploteni","network":"rwn","distance":"16 klm","osmc:symbol":"green:white:green_bar"},"11294643":{"to":"Dil Yarotskyi","from":"Velyki Lazy","name":"Shlyah Ploteni","type":"route","route":"hiking","colour":"green","name:uk":"Shlyah Ploteni","network":"rwn","distance":"16 klm","osmc:symbol":"green:white:green_bar"},"11294644":{"to":"Dil Yarotskyi","from":"Velyki Lazy","name":"Shlyah Ploteni","type":"route","route":"hiking","colour":"green","name:uk":"Shlyah Ploteni","network":"rwn","distance":"16 klm","osmc:symbol":"green:white:green_bar"},"11294645":{"to":"Dil Yarotskyi","from":"Velyki Lazy","name":"Shlyah Ploteni","type":"route","route":"hiking","colour":"green","name:uk":"Shlyah Ploteni","network":"rwn","distance":"16 klm","osmc:symbol":"green:white:green_bar"},"11294646":{"to":"Dil Yarotskyi","from":"Velyki Lazy","name":"Shlyah Ploteni","type":"route","route":"hiking","colour":"green","name:uk":"Shlyah Ploteni","network":"rwn","distance":"16 klm","osmc:symbol":"green:white:green_bar"},"11294647":{"to":"Dil Yarotskyi","from":"Velyki Lazy","name":"Shlyah Ploteni","type":"route","route":"hiking","colour":"green","name:uk":"Shlyah Ploteni","network":"rwn","distance":"16 klm","osmc:symbol":"green:white:green_bar"},"11336209":{"name":"Hotelik BdPN \\\"Nad Roztokami\\\" Tarnawa Niżna - Dźwiniacz Górny (cmentarze)","type":"route","route":"hiking","colour":"green","source":"survey","network":"lwn","distance":"4.2"},"11368982":{"to":"Богданівка","from":"Мигія","name":"Бузький Гард","type":"route","route":"hiking","colour":"orange","name:uk":"Бузький Гард","network":"rwn","network:type":"Local"},"11507100":{"name":"Роздоріжжя із зеленим маршрутом ― пол. Козьмеска ― цвинтар ПСВ","type":"route","route":"hiking","colour":"yellow","name:uk":"Роздоріжжя із зеленим маршрутом ― пол. Козьмеска ― цвинтар ПСВ","network":"lwn","operator":"Карпатські стежки","osmc:symbol":"yellow:white:yellow_corner"},"11507101":{"name":"Козьмещик ― пол. Ґропа","type":"route","route":"hiking","colour":"green","name:uk":"Козьмещик ― пол. Ґропа","network":"lwn","operator":"Карпатські стежки","osmc:symbol":"green:white:green_bar"},"11530269":{"name":"Стежка на лисій горі","type":"route","route":"hiking","name:uk":"Стежка на лисій горі","network":"lwn"},"11620035":{"name":"Тропа Голицына","type":"route","route":"hiking","colour":"yellow","name:uk":"Стежка Голіцина","network":"lwn","wikidata":"Q4463742","sac_scale":"hiking","wikipedia":"ru:Тропа Голицына"},"11748016":{"name":"Траверс Аршиці (помаранчеві мітки)","type":"route","route":"hiking","colour":"orange","name:uk":"Траверс Аршиці (помаранчеві мітки)","network":"lwn","operator":"Сашко Матура","osmc:symbol":"orange:white:orange_corner"},"11749639":{"to":"г. Яровиця","ref":"синій","from":"с. Верхній Яловець","name":"с. Верхній Яловець - г. Яровиця","type":"route","route":"hiking","name:uk":"с. Верхній Яловець - г. Яровиця","network":"rwn","osmc:symbol":"blue:white:blue_bar"},"11749640":{"name":"Перкалаба - Томнатик","type":"route","route":"hiking","name:uk":"Перкалаба - Томнатик","network":"rwn","osmc:symbol":"blue:white:blue_bar"},"11749641":{"ref":"жовтий","name":"Верещиха - г. Яровиця","type":"route","route":"hiking","name:uk":"Верещиха - г. Яровиця","network":"rwn","osmc:symbol":"yellow:white:yellow_bar"},"11749653":{"ref":"зелений","name":"с. Нижній Яловець - хр. Яровиця","type":"route","route":"hiking","name:uk":"с. Нижній Яловець - хр. Яровиця","network":"rwn","osmc:symbol":"green:white:green_bar"},"11761696":{"name":"Пірє - Черемош - Пауківка","type":"route","route":"hiking","name:uk":"Пірє - Черемош - Пауківка","network":"rwn","osmc:symbol":"yellow:white:yellow_bar"},"11820460":{"ref":"WR","name":"Таракташская тропа","type":"route","route":"hiking","colour":"red","name:uk":"Таракташська стежка","network":"lwn","osmc:symbol":"red:white:red_bar"},"11845059":{"name":"Чорний","type":"route","route":"hiking","name:uk":"Чорний","network":"lwn","osmc:symbol":"black:white:black_bar"},"11845061":{"name":"пол.Рущина - Усть-Чорна","type":"route","route":"hiking","name:uk":"пол.Рущина - Усть-Чорна","network":"lwn","osmc:symbol":"green:white:green_bar"},"11918030":{"name":"Стаїще - Кострич","type":"route","route":"hiking","name:uk":"Стаїще - Кострич","network":"rwn","osmc:symbol":"blue:white:blue_bar"},"11918074":{"name":"Дземброня - Чуфрова","type":"route","route":"hiking","name:uk":"Дземброня - Чуфрова","network":"rwn","osmc:symbol":"green:white:green_bar"},"11929524":{"name":"До секвой","type":"route","route":"hiking","colour":"yellow","name:uk":"До секвой","network":"lwn","operator":"Лужанське лво, В/Бичківський ЛМГ","osmc:symbol":"yellow:white:yellow_bar"},"11964001":{"name":"с. Волова ― пол. Веснарка","type":"route","route":"hiking","colour":"green","name:uk":"с. Волова ― пол. Веснарка","network":"lwn","osmc:symbol":"green:white:green_bar"},"11970788":{"name":"с.Волова-г.Ротило-с.Волова (маркування потребує поновлення)","type":"route","route":"hiking","colour":"blue","name:uk":"с.Волова-г.Ротило-с.Волова (маркування потребує поновлення)","network":"lwn","distance":"12","osmc:symbol":"blue:white:blue_bar"},"12164159":{"to":"Derenivska Kupil","ref":"2117","from":"Velyki Lazy","name":"Пішохідний маршрут \\\"Метро Карпат\\\"","type":"route","route":"hiking","colour":"blue","name:en":"Carpatian subway","name:uk":"Пішохідний маршрут \\\"Метро Карпат\\\"","network":"rwn","distance":"5.6 km","operator":"Баранинська сільська рада","osmc:symbol":"blue:white:blue_bar"},"12164411":{"to":"Kende's grave","ref":"2119","from":"Kholmets","name":"Пішохідний маршрут \\\"Шлях лордів\\\" 2119","type":"route","route":"hiking","colour":"yellow","name:en":"Hiking trail \\\"Lord's trail\\\"","name:uk":"Пішохідний маршрут \\\"Шлях лордів\\\" 2119","network":"rwn","distance":"0.8 km","operator":"Баранинська територіальна громада","osmc:symbol":"yellow:white:yellow_bar"},"12177083":{"to":"Yarok","ref":"2115","from":"Holmets","name":"Веломаршрут \\\"Вело-Циганка\\\"","type":"route","route":"hiking","colour":"green","name:en":"Bike trail \\\"Velo-Gypsy\\\"","name:ru":"Веломаршрут \\\"Вело-Циганка\\\"","name:uk":"Веломаршрут \\\"Вело-Циганка\\\"","network":"rwn","distance":"16.3 km","operator":"Баранинська теротиріальна громада","osmc:symbol":"green:white:green_bar"},"12178301":{"to":"Rotonda","ref":"2114","from":"Dowhe Pole","name":"Веломаршрут \\\"Баранинська біцігля\\\"","type":"route","route":"hiking","colour":"green","name:en":"Bike trail \\\"Baranyntska bicycle\\\"","name:uk":"Веломаршрут \\\"Баранинська біцігля\\\"","network":"rwn","distance":"24 km","operator":"Баранинська територіальна громада","osmc:symbol":"green:white:green_bar"},"12183391":{"to":"Rotonda","ref":"2116","from":"Velyki Lazy","name":"Пішохідний маршрут \\\"В пошуках Джотто\\\"","type":"route","route":"hiking","colour":"blue","name:en":"Hiking trail \\\"Joto's Searching\\\"","name:ru":"Пешеходный маршрут \\\"В поисках Джотто\\\"","name:uk":"Пішохідний маршрут \\\"В пошуках Джотто\\\"","network":"rwn","distance":"10 km","operator":"Баранинська територіальна громада"},"12220791":{"name":"Кабанья тропа","type":"route","route":"hiking","name:uk":"Кабан стежка","network":"lwn"},"12335512":{"name":"с. Говерла - г. Бребенескул","type":"route","route":"hiking","name:uk":"с. Говерла - г. Бребенескул","network":"rwn","osmc:symbol":"yellow:white:yellow_bar"},"12347143":{"to":"Ай-Петри","from":"Южнобережное шоссе","name":"Мисхорская тропа","type":"route","route":"hiking","ascent":"838","name:uk":"Місхорська стежка","network":"lwn","distance":"4.3"},"12347220":{"name":"Жовтий","type":"route","route":"hiking","name:uk":"Жовтий","network":"lwn","osmc:symbol":"yellow:white:yellow_bar"},"12351763":{"to":"Ай-Петри","from":"Южнобережное шоссе","name":"Кореизская тропа","type":"route","route":"hiking","ascent":"829","name:uk":"Кореїзька стежка","network":"lwn","distance":"4"},"12353865":{"name":"присілок Підліснів - водоспад Гук Женецький","type":"route","route":"hiking","name:uk":"присілок Підліснів - водоспад Гук Женецький","network":"lwn","osmc:symbol":"blue:white:blue_bar"},"12353866":{"name":"полонина Блажів - перевал Переслоп","type":"route","route":"hiking","name:uk":"полонина Блажів - перевал Переслоп","network":"lwn","osmc:symbol":"yellow:white:yellow_bar"},"12438965":{"name":"Ставрикайская тропа","type":"route","route":"hiking","name:uk":"Ставрикайська стежка","network":"lwn","osmc:symbol":"red:white:red_bar"},"12438966":{"name":"Верхняя Боткинская тропа","type":"route","route":"hiking","colour":"yellow","name:uk":"Верхня Боткінська стежка","network":"lwn","osmc:symbol":"yellow: black:yellow_bar"},"12438967":{"name":"Боткинская тропа","type":"route","route":"hiking","colour":"yellow","name:uk":"Боткінська стежка","network":"lwn","distance":"4.6","osmc:symbol":"yellow: black:yellow_bar"},"12438968":{"name":"Штангеевская тропа","type":"route","route":"hiking","colour":"red","name:uk":"Штангіївська стежка","network":"lwn","distance":"6.2","osmc:symbol":"red:white:red_bar"},"12472017":{"name":"Долина привидений","type":"route","route":"hiking","colour":"white","name:uk":"Долина привидів","network":"lwn","operator":"ТАУ РК «Алуштинский»","osmc:symbol":"white: black:white_bar"},"12494595":{"name":"Ангарский перевал - Эклизи-Бурун","type":"route","route":"hiking","ascent":"860","name:uk":"Ангарський перевал - Еклізі-Бурун","network":"lwn","distance":"12","osmc:symbol":"red:white:red_bar"},"12494851":{"name":"Эклизи-Бурун - Ангар-Бурун","type":"route","route":"hiking","ascent":"145","name:uk":"Еклізі-Бурун - Ангар-Бурун","network":"lwn","distance":"7","osmc:symbol":"gray:white:gray_bar"},"12494971":{"name":"Ангарский перевал - Тиссовое ущелье","type":"route","route":"hiking","ascent":"410","name:uk":"Ангарський перевал - Тисова ущелина","network":"lwn","distance":"9","osmc:symbol":"gray:white:gray_bar"},"12739651":{"to":"г. Щавна","from":"ур. Дубовий Кут","name":"Маршрут на г. Щавна","type":"route","route":"foot","name:uk":"Маршрут на г. Щавна","osmc:symbol":"blue:white:blue_bar"},"12790731":{"name":"Новий помаранчевий маршрут","type":"route","route":"hiking","colour":"orange","symbol":"major","name:uk":"Новий помаранчевий маршрут","network":"lwn","complete":"no","osmc:symbol":"orange:white:orange_bar"},"12794040":{"name":"№ 5043 Джершин-Зелемінь-Кудирявець-Лопата","type":"route","route":"hiking","colour":"yellow","symbol":"major","name:uk":"№ 5043 Джершин-Зелемінь-Кудирявець-Лопата","network":"lwn","osmc:symbol":"yellow:white:yellow_bar:5043:black"},"12794521":{"name":"Чорна Тиса - Гладін","type":"route","route":"hiking","symbol":"yellow bar","name:uk":"Чорна Тиса - Гладін","network":"lwn","osmc:symbol":"yellow:white:yellow_bar","network:type":"lwn"},"12798141":{"name":"№ 5046 Корчин - Парашка","type":"route","route":"hiking","name:uk":"№ 5046 Корчин - Парашка","network":"lwn","distance":"8.2","osmc:symbol":"yellow:white:yellow_bar: 5046:black"},"12798888":{"name":"№ 5044 Монастир Коростів - Парашка","type":"route","route":"hiking","name:uk":"№ 5044 Монастир Коростів - Парашка","network":"lwn","distance":"9.9","osmc:symbol":"yellow:white:yellow_bar: 5044:black"},"12804405":{"name":"№ 504 Коростів - Парашка","type":"route","route":"hiking","name:uk":"№ 504 Коростів - Парашка","network":"lwn","distance":"9.9","osmc:symbol":"yellow:white:yellow_bar:504:black"},"12822350":{"name":"Tarnawa Niżna - Dźwiniacz Górny (cmentarze)","type":"route","route":"hiking","colour":"green","source":"survey","network":"lwn"},"12885948":{"name":"505 Козьова - Тисовець - Росохацькі полонини","type":"route","route":"hiking","colour":"yellow","symbol":"major","name:uk":"505 Козьова - Тисовець - Росохацькі полонини","network":"lwn","osmc:symbol":"yellow:white:yellow_bar: 505:black"},"12902099":{"name":"ур. Медвежий - г. Куратул","type":"route","route":"hiking","colour":"yellow","highway":"path","name:uk":"ур. Медвежий - г. Куратул","network":"lwn","operator":"Карпатські стежки","smoothness":"intermediate","osmc:symbol":"yellow:white:yellow_bar"},"12906108":{"to":"Завоєли","from":"Космач","name":"Космач - Камінь 12 опришків - ур. Завоєли","type":"route","route":"hiking","name:uk":"Космач - Камінь 12 опришків - ур. Завоєли","operator":"ГО «Територія Карпат»"},"12906109":{"to":"Завоєли","from":"Космач","name":"Дорога опришків","type":"route","route":"hiking","name:uk":"Дорога опришків","network":"lwn","operator":"ГО «Територія Карпат»","osmc:symbol":"yellow:white:yellow_corner"},"12925185":{"to":"Дора","from":"Делятин","name":"Стежка Барона","type":"route","route":"hiking","name:uk":"Стежка Барона","network":"lwn","operator":"Карпатські стежки/тергромада","osmc:symbol":"red:white:red_cornered"},"13046499":{"name":"На Струнги","type":"route","route":"hiking","colour":"green","name:uk":"На Струнги","network":"lwn","operator":"КБЗ/Гутиряк","osmc:symbol":"green:white:green_bar"},"13115444":{"name":"Новоселиця – Смерековий камінь","type":"route","route":"hiking","colour":"green","symbol":"green bar","name:uk":"Новоселиця – Смерековий камінь","network":"lwn","distance":"2 km","description":"с. Ільниця, присілок Новоселиця – урочище Скельні масиви «Смерековий камінь»","osmc:symbol":"green:white:green_bar"},"13115524":{"name":"Підгірне – Чорне багно - Купінкувате","type":"route","route":"hiking","colour":"green","symbol":"green bar","name:uk":"Підгірне – Чорне багно - Купінкувате","network":"lwn","distance":"9 km","description":"с. Підгірне – болото «Чорне багно» - урочище «Купінкувате»","osmc:symbol":"green:white:green_bar"},"13127895":{"name":"Стежка на гору Лева","type":"route","route":"foot","name:uk":"Стежка на гору Лева","network":"lwn"},"13244562":{"name":"Траверс г.Молода","type":"route","route":"hiking","name:uk":"Траверс г.Молода","network":"nwn","complete":"no","osmc:symbol":"orange:white:orange_corner"},"13274750":{"name":"Rakhiv-Blyznytsyia","type":"route","route":"hiking","name:uk":"Rakhiv-Blyznytsyia","network":"rwn","osmc:symbol":"blue:white:blue_bar"},"13380503":{"name":"с. Білин - притулок Перелісок","type":"route","route":"hiking","name:uk":"с. Білин - притулок Перелісок","network":"rwn","osmc:symbol":"yellow:white:yellow_bar"},"13407963":{"fee":"yes","name":"Романовская дорога","type":"route","route":"hiking","name:uk":"Романівська дорога","network":"lwn","distance":"12 km","operator":"ФГБУ «Заповедный Крым»","roundtrip":"no","contact:email":"zapovedcrimea@mail.ru","contact:phone":"+7-3654-205438; +7-978-2368246; +7-3654-233083; +7-3654-205514","contact:website":"https://zapovedcrimea.ru/","contact:facebook":"https://www.facebook.com/zapovedniy.krym/","signed_direction":"no","contact:instagram":"https://www.instagram.com/zapovedniy_krim/"},"13439179":{"name":"на Соколине Бердо","type":"route","route":"hiking","name:uk":"на Соколине Бердо","network":"nwn","operator":"Карпатський біосферний заповідник","osmc:symbol":"green:white:green_bar"},"13499262":{"name":"Еврейская тропа","type":"route","route":"hiking","name:uk":"Єврейська стежка","network":"lwn"},"13499477":{"name":"тропа Иограф","type":"route","route":"hiking","name:uk":"Стежка Іограф","network":"lwn"},"14097891":{"name":"На Довбушеві Комори","type":"route","route":"hiking","name:uk":"На Довбушеві Комори","network":"lwn","osmc:symbol":"yellow:white:yellow_bar"},"14479147":{"name":"Кардіологічна 3","type":"route","route":"foot","name:uk":"Кардіологічна 3","network":"lwn"},"14484828":{"name":"Бандерівська стежка","type":"route","route":"foot","name:uk":"Бандерівська стежка","network":"lwn"},"14546419":{"name":"На Наринецкий водопад","type":"route","route":"hiking","colour":"Red","name:uk":"На Наринецкий водопад","network":"lwn","network:type":"lwn"},"14561011":{"name":"Траверс масиву Укерни","type":"route","route":"hiking","name:uk":"Траверс масиву Укерни","network":"lwn","osmc:symbol":"orange:white:orange_corner"},"14597594":{"to":"Поляна Ясені (Антоново поле)","from":"Бабайово","name":"Зелена позначка (Бабайово - Поляна Ясені)","type":"route","route":"hiking","colour":"#11ff00","hiking":"yes","name:uk":"Зелена позначка (Бабайово - Поляна Ясені)","network":"lwn","osmc:symbol":"green:white:green_bar"},"14879316":{"to":"Водоспад Плішка","from":"Перечин","name":"Синя позначка (Перечин - Водоспад Плішка)","type":"route","route":"hiking","colour":"#0000FF","hiking":"yes","name:uk":"Синя позначка (Перечин - Водоспад Плішка)","network":"lwn","osmc:symbol":"blue:white:blue_bar"},"15058027":{"name":"Магурка","type":"route","route":"hiking","colour":"#12d379","name:uk":"Магурка","network":"lwn"},"15422566":{"to":"Liski","from":"Gołębie","name":"Szlak gminy Dołhobyczów","type":"route","route":"hiking","colour":"black","source":"https://www.bikemap.net/en/r/3377180/","bicycle":"yes","network":"rwn","website":"http://www.szlaki.lublin.pl/index.php/gmina-dolhobyczow","distance":"43 km","operator":"Gmina Dołhobyczów","roundtrip":"no","osmc:symbol":"black:white:black_bar"},"15477153":{"from":"Карадагская научная станция","name":"Экологическая тропа \\\"Большой Карадаг\\\"","type":"route","route":"hiking","colour":"yellow","name:uk":"Екологічна стежка \\\"Великий Карадаг\\\"","network":"lwn","website":"http://karadag.com.ru/contacts","roundtrip":"yes","sac_scale":"mountain_hiking"},"15477200":{"name":"Спус к началу Карадагской тропы","type":"route","route":"hiking","colour":"yellow","name:uk":"Спуск до початку Карадазької стежки","network":"lwn","sac_scale":"mountain_hiking"},"15657110":{"name":"Еко Труханів піший","type":"route","route":"hiking","name:uk":"Еко Труханів піший"},"15804380":{"to":"Лопушна","from":"Красів","name":"Львівське Опілля. Давніми буковими лісами","type":"route","route":"hiking","colour":"red","name:uk":"Львівське Опілля. Давніми буковими лісами","network":"rwn","website":"https://lvivske-opillya.com/","distance":"20,4 км згідно з інформаційним стендом","operator":"Львівське Опілля","osmc:symbol":"red:white:red_bar","network:type":"rwn"},"15817715":{"to":"Шегині (UA)","from":"Львів. Домініканський собор","name":"Camino Ukraine","type":"route","route":"hiking","colour":"blue","name:en":"Camino Ukraine","name:uk":"Camino Ukraine","network":"nwn","osmc:symbol":"blue:blue:shell_modern"},"15849854":{"to":"Кам'янець-Подільський","via":"Бар","from":"Вінниця","name":"Camino Podolico","type":"route","route":"hiking","colour":"blue","name:en":"Camino Podolico","name:uk":"Camino Podolico","network":"nwn","website":"https://www.caminopodolico.net/","facebook":"https://www.facebook.com/camino.podolico","operator":"Camino Podolico","osmc:symbol":"blue:blue:shell_modern"},"15881549":{"to":"село Зелена","via":"гора Чортка","from":"село Пасічна","name":"село Пасічна - гора Чортка - село Зелена","type":"route","route":"hiking","name:uk":"село Пасічна - гора Чортка - село Зелена","network":"rwn","osmc:symbol":"yellow:white:yellow_bar"},"15881649":{"name":"По хребту Чортка чорний","type":"route","route":"hiking","name:uk":"По хребту Чортка чорний","network":"lwn","osmc:symbol":"black:white:black_bar"},"15883919":{"name":"Лісова дорога до скель Кікошів Камінь","type":"route","route":"hiking","name:uk":"Лісова дорога до скель Кікошів Камінь"},"15892772":{"to":"Кемпінг Готар (Ямельниця)","from":"Трускавець","name":"Трускавець - Готар (Ямельниця)","type":"route","route":"hiking","colour":"yellow","name:uk":"Трускавець - Готар (Ямельниця)","network":"rwn","osmc:symbol":"yellow:white:yellow_bar"},"15920618":{"name":"Жовта позначка","type":"route","fixme":"потрібно оновити позначки","route":"hiking","colour":"#FFFF00","hiking":"yes","name:uk":"Жовта позначка","osmc:symbol":"yellow:white:yellow_bar"},"15922468":{"name":"село Гута – гора Пасічна","type":"route","route":"hiking","name:uk":"село Гута – гора Пасічна","network":"lwn","osmc:symbol":"black:white:black_bar"},"15923881":{"name":"До хати-музею УПА","type":"route","route":"hiking","name:uk":"До хати-музею УПА","network":"lwn","osmc:symbol":"green:white:green_diamond"}}