{"20309":{"to":"Wien Simmering","ref":"U3","from":"Wien Ottakring","name":"U3 Ottakring – Simmering","type":"route","route":"subway","colour":"#EF7C00","network":"U-Bahn Wien","by_night":"yes","interval":"5","language":"de","operator":"Wiener Linien","wikidata":"Q876472","wikipedia":"en:U3 (Vienna U-Bahn)","railway:lzb":"yes","opening_hours":"05:00-00:30; Sa,Su,PH 00:30-00:30","by_night:weekend":"only","network:wikidata":"Q209400","operator:wikidata":"Q668849","public_transport:version":"2"},"22494":{"to":"Wien Leopoldau","ref":"U1","from":"Wien Oberlaa","name":"U1 Oberlaa – Leopoldau","type":"route","route":"subway","colour":"#E20613","network":"U-Bahn Wien","by_night":"yes","interval":"3","language":"de","operator":"Wiener Linien","wikidata":"Q663755","wikipedia":"en:U1 (Vienna U-Bahn)","railway:lzb":"yes","opening_hours":"05:00-00:30; Sa,Su,PH 00:30-00:30","by_night:weekend":"only","network:wikidata":"Q209400","operator:wikidata":"Q668849","public_transport:version":"2"},"27114":{"to":"Wien Aspernstraße","ref":"U2","from":"Wien Schottentor","name":"U2 Schottentor – Aspernstraße","type":"route","route":"subway","colour":"#A762A4","network":"U-Bahn Wien","by_night":"yes","interval":"5","language":"de","operator":"Wiener Linien","wikidata":"Q873397","wikipedia":"en:U2 (Vienna U-Bahn)","opening_hours":"05:00-00:30; Sa,Su,PH 00:30-00:30","by_night:weekend":"only","network:wikidata":"Q209400","operator:wikidata":"Q668849","public_transport:version":"2"},"2024981":{"to":"Wien Oper","ref":"WLB","from":"Baden Josefsplatz","name":"WLB Baden Josefsplatz – Wien Oper","type":"route","route":"light_rail","colour":"#005395","network":"VOR","service":"regional","operator":"WLB","wikidata":"Q875199","wikipedia":"de:Lokalbahn Wien–Baden","local_name":"Badner Bahn","network:metro":"Wiener Lokalbahn","network:wikidata":"Q2516485","public_transport:version":"2"},"2024982":{"to":"Baden Josefsplatz","ref":"WLB","from":"Wien Oper","name":"WLB Wien Oper – Baden Josefsplatz","type":"route","route":"light_rail","colour":"#005395","network":"VOR","service":"regional","operator":"Wiener Lokalbahnen","wikidata":"Q875199","wikipedia":"de:Lokalbahn Wien–Baden","local_name":"Badner Bahn","network:metro":"Wiener Lokalbahn","operator:short":"WLB","network:wikidata":"Q2516485","operator:wikidata":"Q335971","public_transport:version":"2"},"2852864":{"to":"Wien Heiligenstadt","ref":"U4","from":"Wien Hütteldorf","name":"U4 Hütteldorf – Heiligenstadt","type":"route","route":"subway","colour":"#029540","network":"U-Bahn Wien","by_night":"yes","interval":"3","language":"de","operator":"Wiener Linien","wikidata":"Q877322","wikipedia":"en:U4 (Vienna U-Bahn)","opening_hours":"05:00-00:30; Sa,Su,PH 00:30-00:30","by_night:weekend":"only","network:wikidata":"Q209400","operator:wikidata":"Q668849","public_transport:version":"2"},"2853012":{"to":"Wien Floridsdorf","ref":"U6","from":"Wien Siebenhirten","name":"U6 Siebenhirten – Floridsdorf","type":"route","route":"subway","colour":"#9C6830","network":"U-Bahn Wien","by_night":"yes","interval":"3","operator":"Wiener Linien","wikidata":"Q281409","wikipedia":"en:U6 (Vienna U-Bahn)","language:de":"yes","opening_hours":"05:00-00:30; Sa,Su,PH 00:30-00:30","by_night:weekend":"only","network:wikidata":"Q209400","operator:wikidata":"Q668849","public_transport:version":"2"},"2919734":{"to":"Schottentor","ref":"U2","from":"Aspernstraße","name":"U2 Aspernstraße – Schottentor","type":"route","route":"subway","colour":"#A762A4","network":"U-Bahn Wien","by_night":"yes","interval":"5","language":"de","operator":"Wiener Linien","wikidata":"Q873397","wikipedia":"en:U2 (Vienna U-Bahn)","opening_hours":"05:00-00:30; Sa,Su,PH 00:30-00:30","by_night:weekend":"only","network:wikidata":"Q209400","operator:wikidata":"Q668849","public_transport:version":"2"},"2928575":{"to":"Wien Ottakring","ref":"U3","from":"Wien Simmering","name":"U3 Simmering – Ottakring","type":"route","route":"subway","colour":"#EF7C00","network":"U-Bahn Wien","by_night":"yes","interval":"5","language":"de","operator":"Wiener Linien","wikidata":"Q876472","wikipedia":"en:U3 (Vienna U-Bahn)","railway:lzb":"yes","opening_hours":"05:00-00:30; Sa,Su,PH 00:30-00:30","by_night:weekend":"only","network:wikidata":"Q209400","operator:wikidata":"Q668849","public_transport:version":"2"},"2928586":{"to":"Wien Oberlaa","ref":"U1","from":"Wien Leopoldau","name":"U1 Leopoldau – Oberlaa","type":"route","route":"subway","colour":"#E20613","network":"U-Bahn Wien","by_night":"yes","interval":"3","operator":"Wiener Linien","wikidata":"Q663755","wikipedia":"en:U1 (Vienna U-Bahn)","language:de":"yes","railway:lzb":"yes","opening_hours":"05:00-00:30; Sa,Su,PH 00:30-00:30","by_night:weekend":"only","network:wikidata":"Q209400","operator:wikidata":"Q668849","public_transport:version":"2"},"5954448":{"to":"Wien Hütteldorf","ref":"U4","from":"Wien Heiligenstadt","name":"U4 Heiligenstadt – Hütteldorf","type":"route","route":"subway","colour":"#029540","network":"U-Bahn Wien","by_night":"yes","interval":"3","language":"de","operator":"Wiener Linien","wikidata":"Q877322","wikipedia":"en:U4 (Vienna U-Bahn)","opening_hours":"05:00-00:30; Sa,Su,PH 00:30-00:30","by_night:weekend":"only","network:wikidata":"Q209400","operator:wikidata":"Q668849","public_transport:version":"2"},"5954449":{"to":"Wien Siebenhirten","ref":"U6","from":"Wien Floridsdorf","name":"U6 Floridsdorf – Siebenhirten","type":"route","route":"subway","colour":"#9C6830","network":"U-Bahn Wien","by_night":"yes","interval":"3","operator":"Wiener Linien","wikidata":"Q281409","wikipedia":"en:U6 (Vienna U-Bahn)","language:de":"yes","opening_hours":"05:00-00:30; Sa,Su,PH 00:30-00:30","by_night:weekend":"only","network:wikidata":"Q209400","operator:wikidata":"Q668849","public_transport:version":"2"},"14187190":{"to":"Waidhofen an der Ybbs","ref":"R59","from":"Waidhofen/Ybbs Pestalozzistraße","name":"R59: Waidhofen/Ybbs Pestalozzistraße → Waidhofen an der Ybbs","type":"route","route":"light_rail","network":"VOR","operator":"NÖVOG","network:wikidata":"Q2516485","operator:wikidata":"Q1281018"},"14187191":{"to":"Waidhofen/Ybbs Pestalozzistraße","ref":"R59","from":"Waidhofen an der Ybbs","name":"R59: Waidhofen an der Ybbs → Waidhofen/Ybbs Pestalozzistraße","type":"route","route":"light_rail","network":"VOR","operator":"NÖVOG","network:wikidata":"Q2516485","operator:wikidata":"Q1281018"},"14543015":{"to":"Aspernstraße","ref":"U2","from":"Schottentor","name":"U2 Schottentor – Seestadt","type":"route","route":"subway","colour":"#A762A4","network":"U-Bahn Wien","by_night":"yes","interval":"5","language":"de","operator":"Wiener Linien","wikidata":"Q873397","wikipedia":"en:U2 (Vienna U-Bahn)","opening_hours":"05:00-00:30; Sa,Su,PH 00:30-00:30","by_night:weekend":"only","network:wikidata":"Q209400","operator:wikidata":"Q668849","public_transport:version":"2"},"14543016":{"to":"Schottentor","ref":"U2","from":"Seestadt","name":"U2 Seestadt – Schottentor","type":"route","route":"subway","colour":"#A762A4","network":"U-Bahn Wien","by_night":"yes","interval":"5","language":"de","operator":"Wiener Linien","wikidata":"Q873397","wikipedia":"en:U2 (Vienna U-Bahn)","opening_hours":"05:00-00:30; Sa,Su,PH 00:30-00:30","by_night:weekend":"only","network:wikidata":"Q209400","operator:wikidata":"Q668849","public_transport:version":"2"}}