{"58240":{"to":"Stockel - Stokkel","ref":"1","from":"Gare de l'Ouest - Weststation","name":"Metro 1: Gare de l'Ouest/Weststation → Stockel/Stokkel","type":"route","route":"subway","colour":"#B5378C","name:fr":"Metro 1: Gare de l'Ouest → Stockel","name:nl":"Metro 1: Weststation → Stokkel","network":"IBXL","operator":"STIB/MIVB","wikidata":"Q1345228","wikipedia":"fr:Ligne 1 du métro de Bruxelles","network:wikidata":"Q114957008","operator:wikidata":"Q1631655","public_transport:version":"2"},"58241":{"to":"Herrmann-Debroux","ref":"5","from":"Erasme - Erasmus","name":"Metro 5: Erasme/Erasmus → Herrmann-Debroux","type":"route","route":"subway","colour":"#F6A90B","name:fr":"Metro 5: Erasme → Herrmann-Debroux","name:nl":"Metro 5: Erasmus → Herrmann-Debroux","network":"IBXL","operator":"STIB/MIVB","wikidata":"Q957143","wikipedia":"fr:Ligne 5 du métro de Bruxelles","network:wikidata":"Q114957008","operator:wikidata":"Q1631655","public_transport:version":"2"},"58242":{"to":"Elisabeth","ref":"2","from":"Simonis","name":"Metro 2: Simonis → Elisabeth","type":"route","route":"subway","colour":"#ED6C23","network":"IBXL","operator":"STIB/MIVB","wikidata":"Q1826676","wikipedia":"fr:Ligne 2 du métro de Bruxelles","network:wikidata":"Q114957008","operator:wikidata":"Q1631655","public_transport:version":"2"},"108101":{"to":"Elisabeth","ref":"6","from":"Roi Baudouin - Koning Boudewijn","name":"Metro 6: Roi Baudouin/Koning Boudewijn → Elisabeth","type":"route","route":"subway","colour":"#0066A3","name:fr":"Metro 6: Roi Baudouin → Elisabeth","name:nl":"Metro 6: Koning Boudewijn → Elisabeth","network":"IBXL","operator":"STIB/MIVB","wikidata":"Q668977","wikipedia":"fr:Ligne 6 du métro de Bruxelles","network:wikidata":"Q114957008","operator:wikidata":"Q1631655","public_transport:version":"2"},"6996916":{"to":"Erasme - Erasmus","ref":"5","from":"Herrmann-Debroux","name":"Metro 5: Herrmann-Debroux → Erasme/Erasmus","type":"route","route":"subway","colour":"#F6A90B","name:fr":"Metro 5: Herrmann-Debroux → Erasme","name:nl":"Metro 5: Herrmann-Debroux → Erasmus","network":"IBXL","operator":"STIB/MIVB","wikidata":"Q957143","wikipedia":"fr:Ligne 5 du métro de Bruxelles","network:wikidata":"Q114957008","operator:wikidata":"Q1631655","public_transport:version":"2"},"7006075":{"to":"Gare de l'Ouest - Weststation","ref":"1","from":"Stockel - Stokkel","name":"Metro 1: Stockel/Stokkel → Gare de l'Ouest/Weststation","type":"route","route":"subway","colour":"#B5378C","name:fr":"Metro 1: Stockel → Gare de l'Ouest","name:nl":"Metro 1: Stokkel → Weststation","network":"IBXL","operator":"STIB/MIVB","wikidata":"Q1345228","wikipedia":"fr:Ligne 1 du métro de Bruxelles","network:wikidata":"Q114957008","operator:wikidata":"Q1631655","public_transport:version":"2"},"7305691":{"to":"Simonis","ref":"2","from":"Elisabeth","name":"Metro 2: Elisabeth → Simonis","type":"route","route":"subway","colour":"#ED6C23","network":"IBXL","operator":"STIB/MIVB","wikidata":"Q1826676","wikipedia":"fr:Ligne 2 du métro de Bruxelles","network:wikidata":"Q114957008","operator:wikidata":"Q1631655","public_transport:version":"2"},"7756427":{"to":"Simonis","ref":"2","from":"Simonis","name":"Metro 2: turnaround at Simonis","type":"route","route":"subway","access":"no","colour":"#ED6C23","network":"IBXL","operator":"STIB/MIVB","network:wikidata":"Q114957008","operator:wikidata":"Q1631655","public_transport:version":"2"},"7756453":{"to":"Elisabeth","ref":"2","from":"Elisabeth","name":"Metro 2: turnaround at Elisabeth","type":"route","route":"subway","access":"no","colour":"#ED6C23","network":"IBXL","operator":"STIB/MIVB","network:wikidata":"Q114957008","operator:wikidata":"Q1631655","public_transport:version":"2"},"7756456":{"to":"Gare de l'Ouest - Weststation","ref":"1","from":"Gare de l'Ouest - Weststation","name":"Metro 1: turnaround at Gare de l'Ouest/Weststation","type":"route","route":"subway","access":"no","colour":"#B5378C","network":"IBXL","operator":"STIB/MIVB","network:wikidata":"Q114957008","operator:wikidata":"Q1631655","public_transport:version":"2"},"7756476":{"to":"Herrmann-Debroux","ref":"5","from":"Herrmann-Debroux","name":"Metro 5: turnaround at Herrmann-Debroux","type":"route","route":"subway","access":"no","colour":"#F6A90B","network":"IBXL","operator":"STIB/MIVB","network:wikidata":"Q114957008","operator:wikidata":"Q1631655","public_transport:version":"2"},"7786749":{"to":"Saint-Philibert","ref":"2","from":"C.H. Dron","name":"Métro Ligne 2 : CH Dron → Saint-Philibert","type":"route","gauge":"1435","layer":"-5","route":"subway","stops":"44","colour":"#ED1D24","tunnel":"yes","network":"Ilévia","railway":"subway","voltage":"750","interval":"3","operator":"Keolis Lille Métropole","wikidata":"Q3238802","frequency":"0","wikipedia":"fr:Ligne 2 du métro de Lille","electrified":"rail","interval:sunday":"6","interval:evening":"8","interval:saturday":"3","public_transport:version":"2"},"7927168":{"to":"Roi Baudouin - Koning Boudewijn","ref":"6","from":"Elisabeth","name":"Metro 6: Elisabeth → Roi Baudouin/Koning Boudewijn","type":"route","route":"subway","colour":"#0066A3","name:fr":"Metro 6: Elisabeth → Roi Baudouin","name:nl":"Metro 6: Elisabeth → Koning Boudewijn","network":"IBXL","operator":"STIB/MIVB","wikidata":"Q668977","wikipedia":"fr:Ligne 6 du métro de Bruxelles","network:wikidata":"Q114957008","operator:wikidata":"Q1631655","public_transport:version":"2"},"7927908":{"to":"Elisabeth","ref":"6","from":"Elisabeth","name":"Metro 6: turnaround at Elisabeth","type":"route","route":"subway","access":"no","colour":"#0066A3","network":"IBXL","operator":"STIB/MIVB","network:wikidata":"Q114957008","operator:wikidata":"Q1631655","public_transport:version":"2"}}