{"285322":{"to":"General Osório / Ipanema","ref":"1","from":"Uruguai / Tijuca","name":"Metrô Rio Linha 1 (Uruguai --> General Osório)","type":"route","route":"subway","colour":"#e77405","network":"Metrô Rio","operator":"Metrô Rio","wikidata":"Q2333617","wikipedia":"en:Line 1 (Rio de Janeiro)","opening_hours":"Mo-Sa 05:00-24:00; Su 07:00-23:00","public_transport:version":"2"},"285324":{"to":"Botafogo","ref":"2","from":"Pavuna","name":"Metrô Linha 2: Pavuna → Botafogo","type":"route","route":"subway","colour":"#028F34","network":"Metrô Rio","alt_name":"Conexão Direta Pavuna-Botafogo","operator":"Metrô Rio","wikidata":"Q2333639","wikipedia":"en:Line 2 (Rio de Janeiro)","opening_hours":"Mo-Fr 05:00-24:00","public_transport:version":"2"},"419266":{"to":"Chácara Klabin","ref":"5","from":"Capão Redondo","name":"Linha 5 - Lilás: Capão Redondo → Chácara Klabin","type":"route","route":"subway","colour":"#7a4da0","network":"Metrô","operator":"Companhia do Metropolitano de São Paulo","wikidata":"Q3308465","wikipedia":"en:Line 5 (São Paulo Metro)","public_transport:version":"2"},"419274":{"to":"Corinthians - Itaquera","ref":"3","from":"Palmeiras - Barra Funda","name":"Linha 3 - Vermelha: Palmeiras - Barra Funda ⇒ Corinthians - Itaquera","type":"route","route":"subway","colour":"#ef3f32","network":"Metrô","operator":"Companhia do Metropolitano de São Paulo","wikidata":"Q3294315","wikipedia":"en:Line 3 (São Paulo Metro)","public_transport:version":"2"},"419276":{"to":"Vila Madalena","ref":"2","from":"Vila Prudente","name":"Linha 2 - Verde: Vila Prudente ⇒ Vila Madalena","type":"route","route":"subway","colour":"#008162","network":"Metrô","operator":"Companhia do Metropolitano de São Paulo","wikidata":"Q588499","wikipedia":"en:Line 2 (São Paulo Metro)","public_transport:version":"2"},"419281":{"to":"Vila Sônia","fee":"yes","ref":"4","from":"Luz","name":"Linha 4 - Amarela: Luz → Vila Sônia","type":"route","route":"subway","colour":"#FFD700","network":"Metrô","operator":"ViaQuatro","wikidata":"Q3308457","wikipedia":"en:Line 4 (São Paulo Metro)","opening_hours":"Mo-Fr 04:40-24:00; Sa 04:40-25:00; Su 04:40-24:00","operator:wikidata":"Q3069359","public_transport:version":"2"},"420335":{"to":"Mercado","ref":"1","from":"Novo Hamburgo","name":"Sul: Novo Hamburgo - Mercado","type":"route","route":"subway","colour":"#000080","bicycle":"no","network":"Trensurb","website":"http://www.trensurb.gov.br/","operator":"Trensurb","wikidata":"Q10318641","roundtrip":"no","wheelchair":"limited","opening_hours":"Mo-Fr 05:00-22:55; Sa 05:00-23:05; Su 05:00-22:05; PH 05:00-22:05","bicycle:conditional":"dismount @ (Mo-Fr 09:30-11:00,14:00-16:00,21:00-23:20; Su)","public_transport:version":"2"},"420554":{"ref":"Verde","name":"Linha Verde: Central → Terminal Ceilândia","type":"route","route":"subway","colour":"#076C57","network":"Metrô-DF","operator":"Metrô-DF","wikidata":"Q10318743","wikipedia":"pt:Linha Verde do Metrô do Distrito Federal (Brasil)","public_transport:version":"2"},"420556":{"ref":"Laranja","name":"Linha Laranja: Central → Samambaia","type":"route","route":"subway","colour":"#EB9710","network":"Metrô-DF","operator":"Metrô-DF","wikidata":"Q10318700","wikipedia":"pt:Linha Laranja do Metrô do Distrito Federal (Brasil)","public_transport:version":"2"},"420605":{"to":"Eldorado","ref":"1","from":"Vilarinho","name":"Linha 1 - Azul: Vilarinho → Eldorado","type":"route","route":"subway","wikidata":"Q10318642","public_transport:version":"2"},"420619":{"to":"Recife","ref":"2","from":"Jaboatão","name":"Linha Centro - 2 (Jaboatão - Recife)","type":"route","route":"subway","colour":"#D9001C","network":"Metrô do Recife","wikidata":"Q104231524","public_transport:version":"2"},"420628":{"to":"Itararé","ref":"1","from":"Engenheiro Alberto Tavares Silva","name":"Linha 1 - Itararé -> Eng. Alberto T. Silva","type":"route","route":"light_rail","colour":"#8A8988","operator":"CMTP","wikidata":"Q10318643","wikipedia":"pt:Linha 1 do Metrô de Teresina","note:route":"See https://www.pi.gov.br/noticias/metro-de-teresina-passa-a-funcionar-aos-sabados-a-partir-deste-fim-de-semana/","public_transport:version":"2"},"933653":{"to":"Cristo Redentor","ref":"ESFECO","from":"Cosme Velho","name":"Trem do Corcovado","type":"route","route":"light_rail","colour":"#D32232","name:en":"Corcovado Train","name:es":"Ferrocarril del Corcovado","name:pt":"Trem do Corcovado","network":"Estrada de Ferro do Corcovado","website":"http://www.corcovado.com.br/","duration":"17","operator":"Estrada de Ferro do Corcovado","wikidata":"Q1132053","wikipedia":"pt:Trem do Corcovado","wheelchair":"yes","official_name":"Estrada de Ferro do Corcovado","opening_hours":"Mo-Su 08:30-19:00","public_transport:version":"2"},"1229611":{"to":"Ceará-Mirim","ref":"Norte","from":"Natal","name":"Linha Norte","type":"route","route":"light_rail","name:en":"North Line","network":"CBTU Natal","operator":"CBTU","public_transport:version":"2"},"2144052":{"to":"Tucuruvi","ref":"1","from":"Jabaquara","name":"Linha 1 - Azul: Jabaquara ⇒ Tucuruvi","type":"route","route":"subway","colour":"#1266af","network":"Metrô","operator":"Companhia do Metropolitano de São Paulo","wikidata":"Q3362568","wikipedia":"pt:Linha 1 do Metrô de São Paulo","wheelchair":"limited","public_transport:version":"2"},"3182693":{"ref":"CBTU","name":"CBTU: Santa Rita->Cabedelo","note":"https://www.cbtu.gov.br/index.php/pt/joao-pessoa/","type":"route","route":"light_rail","colour":"green","network":"CBTU","operator":"CBTU","wikidata":"Q18484877","wikipedia":"pt:Sistema de Trens Urbanos de João Pessoa","public_transport:version":"2"},"3252761":{"to":"Palmeiras - Barra Funda","ref":"3","from":"Corinthians - Itaquera","name":"Linha 3 - Vermelha: Corinthians - Itaquera ⇒ Palmeiras - Barra Funda","type":"route","route":"subway","colour":"#D9001C","network":"Metrô","operator":"Companhia do Metropolitano de São Paulo","wikidata":"Q3294315","wikipedia":"en:Line 3 (São Paulo Metro)","public_transport:version":"2"},"3539819":{"to":"Capão Redondo","ref":"5","from":"Chácara Klabin","name":"Linha 5 - Lilás: Chácara Klabin → Capão Redondo","type":"route","route":"subway","colour":"#9200C3","network":"Metrô","operator":"Companhia do Metropolitano de São Paulo","wikidata":"Q3308465","wikipedia":"en:Line 5 (São Paulo Metro)","public_transport:version":"2"},"3596994":{"to":"Jabaquara","ref":"1","from":"Tucuruvi","name":"Linha 1 - Azul: Tucuruvi ⇒ Jabaquara","type":"route","route":"subway","colour":"#1266af","network":"Metrô","operator":"Companhia do Metropolitano de São Paulo","wikidata":"Q3362568","wikipedia":"en:Line 1 (São Paulo Metro)","public_transport:version":"2"},"3613476":{"to":"Luz","fee":"yes","ref":"4","from":"Vila Sônia","name":"Linha 4 - Amarela: Vila Sônia → Luz","type":"route","route":"subway","colour":"#ffd500","network":"Metrô","operator":"ViaQuatro","wikidata":"Q3308457","wikipedia":"en:Line 4 (São Paulo Metro)","opening_hours":"Mo-Fr 04:40-24:00; Sa 04:40-25:00; Su 04:40-24:00","operator:wikidata":"Q3069359","public_transport:version":"2"},"3619669":{"to":"Vila Prudente","ref":"2","from":"Vila Madalena","name":"Linha 2 - Verde: Vila Madalena ⇒ Vila Prudente","type":"route","route":"subway","colour":"#008162","network":"Metrô","operator":"Companhia do Metropolitano de São Paulo","wikidata":"Q588499","wikipedia":"en:Line 2 (São Paulo Metro)","public_transport:version":"2"},"3809395":{"to":"Cohab III","ref":"Norte","from":"Novo Recanto","name":"Linha Norte (Novo Recanto->Cohab III)","type":"route","route":"light_rail","colour":"blue","network":"Metrô de Sobral","network:wikidata":"Q48858582","public_transport:version":"2"},"4292975":{"to":"Pavuna","ref":"2","from":"Botafogo","name":"Metrô Linha 2: Botafogo → Pavuna","type":"route","route":"subway","colour":"#028F34","network":"Metrô Rio","alt_name":"Conexão Direta Botafogo-Pavuna","operator":"Metrô Rio","wikidata":"Q2333639","wikipedia":"en:Line 2 (Rio de Janeiro)","opening_hours":"Mo-Fr 05:00-24:00","public_transport:version":"2"},"4510189":{"to":"Cajueiro Seco","ref":"VLT Curado-Cajueiro Seco","from":"Curado","name":"VLT Curado --> Cajueiro Seco","type":"route","route":"light_rail","colour":"#999e9e","network":"Metrô do Recife","duration":"00:26","interval":"1:41","operator":"CBTU Recife","wikidata":"Q18473919","wikipedia":"pt:Linha Curado–Cajueiro Seco do Sistema de Trens Urbanos do Recife","opening_hours":"Mo-Fr 05:15-20:40; Sa 05:15-14:12","public_transport:version":"2"},"4510254":{"to":"Cabo","ref":"VLT Cabo - Cajueiro Seco","from":"Cajueiro Seco","name":"VLT Cajueiro Seco–Cabo","type":"route","route":"light_rail","colour":"#008000","network":"Metrô do Recife","operator":"CBTU Recife","wikidata":"Q18473915","wikipedia":"pt:Linha Cajueiro Seco–Cabo do Sistema de Trens Urbanos do Recife","public_transport:version":"2"},"4511795":{"to":"Caucaia","ref":"Oeste","from":"Estação Moura Brasil","name":"Linha Oeste: Estação Moura Brasil ⇒ Caucaia","type":"route","route":"light_rail","colour":"#008000","alt_ref":"Linha 2 - Verde","network":"Metrofor","distance":"19","interval":"45","operator":"Companhia Cearense de Transportes Metropolitanos","wikidata":"Q14325543","wikipedia":"pt:Linha Oeste do Metrô de Fortaleza","network:note":"Metrô de Fortaleza","public_transport:version":"2"},"4511811":{"to":"Papicu","fee":"no","ref":"Parangaba-Mucuripe","from":"Parangaba (VLT)","name":"Linha Parangaba-Mucuripe: Parangaba ⇒ Iate","type":"route","route":"light_rail","colour":"#6B297E","alt_ref":"Linha 4 - Roxa","network":"Metrofor","distance":"13.2","interval":"32","operator":"Companhia Cearense de Transportes Metropolitanos","wikidata":"Q10318709","wikipedia":"pt:Linha Parangaba–Mucuripe","network:note":"Metrô de Fortaleza","public_transport:version":"2"},"4511874":{"to":"Pirajá","ref":"1","from":"Lapa","name":"Linha 1: Lapa ⇒ Pirajá","type":"route","route":"subway","wikidata":"Q10318644","public_transport:version":"2"},"5465620":{"to":"Aeroporto","ref":"Conexão Metrô-Aeroporto","from":"Aeromóvel","name":"Conexão Metrô-Aeroporto","type":"route","route":"subway","colour":"black","name:ja":"メトロ-アエロポルト連絡線","network":"Trensurb","website":"http://www.trensurb.gov.br/","alt_name":"Aeromóvel","operator":"Trensurb","wikidata":"Q23891467","roundtrip":"no","wheelchair":"yes","source:name":"Trensurb","source:route":"https://lists.openstreetmap.org/pipermail/tagging/2018-January/034554.html","public_transport:version":"2"},"6087652":{"to":"Vilarinho","ref":"1","from":"Eldorado","name":"Linha 1 - Azul: Eldorado → Vilarinho","type":"route","route":"subway","wikidata":"Q10318642","public_transport:version":"2"},"6113027":{"to":"Carlito Benevides","ref":"Sul","from":"Central-Chico da Silva","name":"Linha Sul: Central-Chico da Silva ⇒ Carlito Benevides","type":"route","route":"subway","colour":"#FF0000","alt_ref":"Linha 3 - Vermelha","network":"Metrofor","distance":"24.1","interval":"17","operator":"Companhia Cearense de Transportes Metropolitanos","wikidata":"Q10318728","wikipedia":"pt:Linha 3-Vermelha: Sul do Metrô de Fortaleza","network:note":"Metrô de Fortaleza","opening_hours":"Mo-Su 05:30-23:00","public_transport:version":"2"},"6432700":{"to":"Jardim Oceânico / Barra da Tijuca","ref":"4","from":"General Osório / Ipanema","name":"Linha 4: General Osório / Ipanema → Jardim Oceânico / Barra da Tijuca","type":"route","route":"subway","colour":"#FFCC29","network":"Metrô Rio","operator":"MetrôRio","wikidata":"Q6553130","wikipedia":"en:Line 4 (Rio de Janeiro)","public_transport:version":"2"},"6771624":{"to":"Aeroporto","ref":"2","from":"Acesso Norte","name":"Linha 2","type":"route","route":"subway","network":"Metrô de Salvador","wikidata":"Q10318650","public_transport:version":"2"},"6774703":{"to":"Lapa","ref":"1","from":"Pirajá","name":"Linha 1: Pirajá ⇒ Lapa","type":"route","route":"subway","wikidata":"Q10318644","public_transport:version":"2"},"7252642":{"to":"Terminal Porto","fee":"yes","ref":"1","from":"Terminal Barreiros","name":"VLT Linha 1: Terminal Barreiros → Terminal Porto","type":"route","route":"light_rail","charge":"4.55 BRL","colour":"#93C21C","source":"https://www.emtu.sp.gov.br/sistemas/linha/resultado_imp.htm?numlinha=35229; https://www.emtu.sp.gov.br","network":"VLT da Baixada Santista","distance":"10.259","duration":"00:40","operator":"EMTU","wikidata":"Q60669571","wikipedia":"pt:Linha 1 do VLT da Baixada Santista","start_date":"2016-01-31","opening_hours":"Mo-Fr 05:30-23:30; Sa 05:30-23:30; Su 05:30-23:30; PH 05:30-23:30","public_transport:version":"2"},"7252643":{"to":"Terminal Barreiros","fee":"yes","ref":"1","from":"Terminal Porto","name":"VLT Linha 1: Terminal Porto → Terminal Barreiros","type":"route","route":"light_rail","charge":"4.55 BRL","colour":"#93C21C","source":"https://www.emtu.sp.gov.br/sistemas/linha/resultado_imp.htm?numlinha=35229; https://www.emtu.sp.gov.br","network":"VLT da Baixada Santista","distance":"10.385","duration":"00:40","operator":"EMTU","wikidata":"Q60669571","wikipedia":"pt:Linha 1 do VLT da Baixada Santista","start_date":"2016-01-31","opening_hours":"Mo-Fr 05:30-23:30; Sa 05:30-23:30; Su 05:30-23:30; PH 05:30-23:30","public_transport:version":"2"},"7615994":{"to":"Sumaré","ref":"Sul","from":"Estação Cohab II","name":"Linha Sul (Estação Cohab II->Sumaré)","type":"route","route":"light_rail","colour":"red","network":"Metrô de Sobral","network:wikidata":"Q48858582","public_transport:version":"2"},"7733963":{"ref":"Verde","name":"Linha Verde: Terminal Ceilândia → Central","type":"route","route":"subway","colour":"#076C57","network":"Metrô-DF","operator":"Metrô-DF","wikidata":"Q10318743","wikipedia":"pt:Linha Verde do Metrô do Distrito Federal (Brasil)","public_transport:version":"2"},"7733964":{"ref":"Laranja","name":"Linha Laranja: Samambaia → Central","type":"route","route":"subway","colour":"#EB9710","network":"Metrô-DF","operator":"Metrô-DF","wikidata":"Q10318700","wikipedia":"pt:Linha Laranja do Metrô do Distrito Federal (Brasil)","public_transport:version":"2"},"7857257":{"to":"Acesso Norte","ref":"2","from":"Aeroporto","name":"Linha 2","type":"route","route":"subway","network":"Metrô de Salvador","wikidata":"Q10318650","public_transport:version":"2"},"7869351":{"to":"Recife","ref":"1","from":"Camaragibe","name":"Linha Centro - 1 (Camaragibe --> Recife)","type":"route","route":"subway","colour":"#e77405","network":"Metrô do Recife","wikidata":"Q104231463","public_transport:version":"2"},"7869373":{"to":"Recife","ref":"3","from":"Cajueiro Seco","name":"Linha Sul (Cajueiro Seco --> Recife)","type":"route","route":"subway","colour":"#1a5ba3","network":"Metrô do Recife","operator":"CBTU","wikidata":"Q10329288","public_transport:version":"2"},"7875374":{"to":"Novo Hamburgo","ref":"1","from":"Mercado","name":"Norte: Mercado - Novo Hamburgo","type":"route","route":"subway","colour":"#000080","bicycle":"no","network":"Trensurb","website":"http://www.trensurb.gov.br/","operator":"Trensurb","wikidata":"Q10318641","roundtrip":"no","wheelchair":"limited","opening_hours":"Mo-Fr 05:00-22:40; Sa 05:00-22:50; Su 05:00-22:20; PH 05:00-22:20","bicycle:conditional":"dismount @ (Mo-Fr 09:30-11:00,14:00-16:00,21:00-23:20; Su)","public_transport:version":"2"},"7886190":{"to":"Sapucaia","ref":"1","from":"Mercado","name":"Norte: Mercado - Sapucaia","type":"route","route":"subway","colour":"#000080","bicycle":"no","network":"Trensurb","website":"http://www.trensurb.gov.br/","operator":"Trensurb","roundtrip":"no","wheelchair":"limited","opening_hours":"Mo-Fr 07:00-18:20","bicycle:conditional":"dismount @ (Mo-Fr 09:30-11:00,14:00-16:00,21:00-23:20;Su)","public_transport:version":"2"},"7886191":{"to":"Mercado","ref":"1","from":"Sapucaia","name":"Sul: Sapucaia - Mercado","type":"route","route":"subway","colour":"#000080","bicycle":"no","network":"Trensurb","website":"http://www.trensurb.gov.br/","operator":"Trensurb","roundtrip":"no","wheelchair":"limited","opening_hours":"Mo-Fr 06:00-17:55","bicycle:conditional":"dismount @ (Mo-Fr 09:30-11:00,14:00-16:00,21:00-23:20; Su)","public_transport:version":"2"},"7889061":{"to":"Aeromóvel","ref":"Conexão Metrô-Aeroporto","from":"Aeroporto","name":"Conexão Metrô-Aeroporto","type":"route","route":"subway","colour":"black","name:ja":"メトロ-アエロポルト連絡線","network":"Trensurb","website":"http://www.trensurb.gov.br/","alt_name":"Aeromóvel","operator":"Trensurb","wikidata":"Q23891467","roundtrip":"no","wheelchair":"yes","source:name":"Trensurb","source:route":"https://lists.openstreetmap.org/pipermail/tagging/2018-January/034554.html","public_transport:version":"2"},"7944060":{"to":"General Osório / Ipanema","ref":"1","from":"Uruguai / Tijuca","name":"Metrô Rio Linha 1 (General Osório --> Uruguai)","type":"route","route":"subway","colour":"#e77405","network":"Metrô Rio","operator":"Metrô Rio","wikidata":"Q2333617","wikipedia":"en:Line 1 (Rio de Janeiro)","opening_hours":"Mo-Sa 05:00-24:00; Su 07:00-23:00","public_transport:version":"2"},"7945216":{"to":"Curado","ref":"VLT Curado-Cajueiro Seco","from":"Cajueiro Seco","name":"VLT Cajueiro Seco --> Curado","type":"route","route":"light_rail","colour":"#999e9e","network":"Metrô do Recife","interval":"1:41","operator":"CBTU Recife","wikidata":"Q18473919","wikipedia":"pt:Linha Curado–Cajueiro Seco do Sistema de Trens Urbanos do Recife","opening_hours":"Mo-Fr 05:50-19:22; Sa 05:50-12:34","public_transport:version":"2"},"8251567":{"to":"Crato","ref":"Central","from":"Fátima","name":"VLT do Cariri (Fátima->Crato)","type":"route","route":"light_rail","colour":"green","network":"VLT do Cariri","operator":"Companhia Cearense de Transportes Metropolitanos","wikidata":"Q459508","wikipedia":"pt:VLT do Cariri","opening_hours":"Mo-Fr 06:00-19:00; Sa 06:00-14:00","public_transport:version":"2"},"9699109":{"to":"Cajueiro Seco","from":"Cabo","name":"VLT Cabo - Cajueiro Seco","type":"route","route":"light_rail","colour":"#008000","network":"Metrô do Recife","operator":"CBTU Recife","wikidata":"Q18473915","wikipedia":"pt:Linha Cajueiro Seco–Cabo do Sistema de Trens Urbanos do Recife","public_transport:version":"2"},"9881790":{"to":"São José de Mipibu","ref":"Sul","from":"Natal","name":"Linha Sul","type":"route","route":"light_rail","name:en":"South Line","network":"CBTU Natal","operator":"CBTU","public_transport:version":"2"},"9881791":{"to":"Natal (Linha Norte)","ref":"Norte","from":"Ceará-Mirim","name":"Linha Norte","type":"route","route":"light_rail","name:en":"North Line","network":"CBTU Natal","operator":"CBTU","public_transport:version":"2"},"9963933":{"to":"Parangaba (VLT)","fee":"no","ref":"Parangaba-Mucuripe","from":"Papicu","name":"Linha Parangaba-Mucuripe: Iate ⇒ Parangaba","type":"route","route":"light_rail","colour":"#6B297E","alt_ref":"Linha 4 - Roxa","network":"Metrofor","distance":"13.2","interval":"32","operator":"Companhia Cearense de Transportes Metropolitanos","wikidata":"Q10318709","wikipedia":"pt:Linha Parangaba–Mucuripe","network:note":"Metrô de Fortaleza","public_transport:version":"2"},"9963936":{"to":"Estação Moura Brasil","ref":"Oeste","from":"Caucaia","name":"Linha Oeste: Caucaia ⇒ Estação Moura Brasil","type":"route","route":"light_rail","colour":"#008000","alt_ref":"Linha 2 - Verde","network":"Metrofor","distance":"19","interval":"45","operator":"Companhia Cearense de Transportes Metropolitanos","wikidata":"Q14325543","wikipedia":"pt:Linha Oeste do Metrô de Fortaleza","network:note":"Metrô de Fortaleza","public_transport:version":"2"},"10334822":{"to":"Cosme Velho","ref":"ESFECO","from":"Cristo Redentor","name":"Trem do Corcovado","type":"route","route":"light_rail","colour":"#D32232","name:en":"Corcovado Train","name:es":"Ferrocarril del Corcovado","name:pt":"Trem do Corcovado","network":"Estrada de Ferro do Corcovado","website":"http://www.corcovado.com.br/","duration":"17","operator":"Estrada de Ferro do Corcovado","wikidata":"Q1132053","wikipedia":"pt:Trem do Corcovado","wheelchair":"yes","official_name":"Estrada de Ferro do Corcovado","opening_hours":"Mo-Su 08:30-19:00","public_transport:version":"2"},"10570201":{"to":"Fátima","ref":"Central","from":"Crato","name":"VLT do Cariri (Crato->Fátima)","type":"route","route":"light_rail","colour":"green","network":"VLT do Cariri","operator":"Companhia Cearense de Transportes Metropolitanos","wikidata":"Q459508","wikipedia":"pt:VLT do Cariri","opening_hours":"Mo-Fr 06:00-19:00; Sa 06:00-14:00","public_transport:version":"2"},"10570394":{"to":"Engenheiro Alberto Tavares Silva","ref":"1","from":"Itararé","name":"Linha 1 - Eng. Alberto T. Silva -> Itararé","type":"route","route":"light_rail","colour":"#8A8988","operator":"CMTP","wikidata":"Q10318643","wikipedia":"pt:Linha 1 do Metrô de Teresina","note:route":"See https://www.pi.gov.br/noticias/metro-de-teresina-passa-a-funcionar-aos-sabados-a-partir-deste-fim-de-semana/","opening_hours":"Mo-Fr 06:00-18:30","public_transport:version":"2"},"10570452":{"to":"Cohab III","ref":"Norte","from":"Novo Recanto","name":"Linha Norte (Cohab III->Novo Recanto)","type":"route","route":"light_rail","colour":"blue","network":"Metrô de Sobral","network:wikidata":"Q48858582","public_transport:version":"2"},"10570460":{"ref":"Sul","name":"Linha Sul (Sumaré->Estação Cohab II)","type":"route","route":"light_rail","colour":"red","network":"Metrô de Sobral","network:wikidata":"Q48858582","public_transport:version":"2"},"12632065":{"to":"Jaraguá","ref":"Verde","from":"Bom Parto","name":"Linha Verde: Bom Parto → Jaraguá","type":"route","route":"light_rail","colour":"#78b942","network":"VLT","operator":"CBTU Maceió","public_transport:version":"2"},"12632066":{"to":"Bom Parto","ref":"Verde","from":"Jaraguá","name":"Linha Verde: Jaraguá → Bom Parto","type":"route","route":"light_rail","colour":"#78b942","network":"VLT","operator":"CBTU Maceió","public_transport:version":"2"},"12632068":{"to":"Lourenço de Albuquerque","ref":"Azul","from":"Bebedouro","name":"Linha Azul: Bebedouro → Lourenço de Albuquerque","type":"route","route":"light_rail","colour":"#1a5ba3","network":"VLT","operator":"CBTU Maceió","public_transport:version":"2"},"12632070":{"to":"Bebedouro","ref":"Azul","from":"Lourenço de Albuquerque","name":"Linha Azul: Lourenço de Albuquerque → Bebedouro","type":"route","route":"light_rail","colour":"#1a5ba3","network":"VLT","operator":"CBTU Maceió","public_transport:version":"2"},"15268627":{"to":"Natal","ref":"Sul","from":"São José de Mipibu","name":"Linha Sul","type":"route","route":"light_rail","name:en":"South Line","network":"CBTU Natal","operator":"CBTU","public_transport:version":"2"}}