{"75031":{"ref":"1","line":"subway","name":"Маскоўская лінія","type":"route","route":"subway","colour":"blue","name:be":"Маскоўская лінія","name:de":"Moskauer Linie","name:en":"Moscow Line","name:ru":"Московская линия","name:uk":"Московська лінія","name:zh":"莫斯科线","network":"Минский метрополитен","operator":"ГП «Минский метрополитен»","wikidata":"Q28604","wikipedia":"be:Маскоўская лінія (Мінск)","network:be":"Мінскі метрапалітэн","operator:be":"Мінскі метрапалітэн","public_transport:version":"2"},"75053":{"ref":"2","line":"Автозаводская","name":"Аўтазаводская лінія","type":"route","route":"subway","colour":"red","name:be":"Аўтазаводская лінія","name:ru":"Автозаводская линия","name:uk":"Автозаводська лінія","network":"Минский метрополитен","operator":"ГП «Минский метрополитен»","wikidata":"Q2638932","wikipedia":"be:Аўтазаводская лінія (Мінск)","network:be":"Мінскі метрапалітэн","public_transport:version":"2"},"3795964":{"to":"Кавальская Слабада","ref":"3","from":"Юбілейная плошча","line":"Зеленалужская лінія (316-313)","name":"Зеленалужская лінія (316-313)","type":"route","route":"subway","colour":"green","name:be":"Зеленалужская лінія (316-313)","name:en":"Zielienalužskaja linija (316-313)","name:ru":"Зеленолужская линия (316-313)","name:uk":"Зеленолузька ліния (316-313)","network":"Минский метрополитен","operator":"ГП «Минский метрополитен»","wikidata":"Q2889805","wikipedia":"be:Зеленалужская лінія","network:be":"Мінскі метрапалітэн","public_transport:version":"2"},"7734075":{"ref":"1","line":"subway","name":"Маскоўская лінія","type":"route","route":"subway","colour":"blue","name:be":"Маскоўская лінія","name:de":"Moskauer Linie","name:en":"Moscow Line","name:ru":"Московская линия","name:uk":"Московська лінія","network":"Минский метрополитен","operator":"ГП «Минский метрополитен»","wikidata":"Q28604","wikipedia":"be:Маскоўская лінія (Мінск)","network:be":"Мінскі метрапалітэн","operator:be":"Мінскі метрапалітэн","public_transport:version":"2"},"7734076":{"ref":"2","line":"Автозаводская","name":"Аўтазаводская лінія","type":"route","route":"subway","colour":"red","name:be":"Аўтазаводская лінія","name:ru":"Автозаводская линия","name:uk":"Автозаводська лінія","network":"Минский метрополитен","operator":"ГП «Минский метрополитен»","wikidata":"Q2638932","wikipedia":"be:Аўтазаводская лінія (Мінск)","network:be":"Мінскі метрапалітэн","public_transport:version":"2"},"16187251":{"to":"Юбілейная плошча","ref":"3","from":"Кавальская Слабада","line":"Зеленалужская лінія (313-316)","name":"Зеленалужская лінія (313-316)","type":"route","route":"subway","colour":"green","name:be":"Зеленалужская лінія (313-316)","name:en":"Zielienalužskaja linija (313-316)","name:ru":"Зеленолужская линия (313-316)","name:uk":"Зеленолузька ліния (313-316)","network":"Минский метрополитен","operator":"ГП «Минский метрополитен»","wikidata":"Q2889805","wikipedia":"be:Зеленалужская лінія","network:be":"Мінскі метрапалітэн","public_transport:version":"2"}}