{"102770":{"to":"Upminster","ref":"District","from":"Ealing Broadway","name":"District line: Ealing Broadway → Upminster","type":"route","brand":"Transport for London","route":"subway","colour":"#00a166","network":"London Underground","operator":"Transport for London","wikidata":"Q211265","wikipedia":"en:District line","ref:colour":"#007D32","wheelchair":"yes","ref:colour_bg":"white","ref:colour_tx":"white","network:wikidata":"Q20075","network:wikipedia":"en:London Underground","operator:wikidata":"Q682520","wikimedia_commons":"Category:District Line","public_transport:version":"2"},"123789":{"to":"Gallieni","ref":"3","from":"Pont de Levallois","name":"Métro 3: Pont de Levallois – Bécon → Gallieni","type":"route","route":"subway","stops":"25","colour":"#9A9940","network":"Métro de Paris","operator":"RATP","wikidata":"Q50741","short_name":"M3","wheelchair":"no","ref:FR:RATP":"1001100030001","network:wikidata":"Q50716","network:wikipedia":"fr:Métro de Paris","operator:wikidata":"Q643290","operator:wikipedia":"fr:Régie autonome des transports parisiens","public_transport:version":"2"},"207926":{"to":"Laurentina","ref":"B","from":"Rebibbia","name":"Metro B (Laurentina)","type":"route","route":"subway","colour":"#3783C6","symbol":"a white M in a red square plus a white B in a blu square","network":"ATAC","operator":"ATAC","wikidata":"Q2666571","wikipedia":"it:Linea B (metropolitana di Roma)","wheelchair":"yes","opening_hours":"Mo-Th 05:30-23:30; Fr 05:30-24:00; Sa 00:00-01:30,05:30-24:00; Su 00:00-01:30,05:30-23:30"},"444907":{"to":"八尾南","ref":"T","from":"大日","name":"Osaka Metor谷町線","type":"route","route":"subway","colour":"#540A56","name:en":"Osaka Metro Tanimachi Line (Yao-Minami --> Dainichi)","name:es":"Línea Tanimachi de Osaka Metro (Yao-Minami --> Dainichi)","name:ja":"Osaka Metor谷町線 (大日=>八尾南)","network":"大阪市高速電気軌道","operator":"大阪市高速電気軌道","wikidata":"Q1142773","wikipedia":"ja:大阪市高速電気軌道谷町線","public_transport:version":"2"},"3328716":{"ref":"9","from":"Mairie de Montreuil","line":"subway","name":"Métro 9 : Mairie de Montreuil → Pont de Sèvres","type":"route","route":"subway","colour":"#CDC83F","network":"Métro de Paris","twitter":"Ligne9_RATP","operator":"RATP","wikidata":"Q50753","wikipedia":"fr:Ligne 9 du métro de Paris","short_name":"M9","wheelchair":"no","ref:FR:RATP":"1001100090001","air_conditioning":"yes","network:wikidata":"Q50716","network:wikipedia":"fr:Métro de Paris","operator:wikidata":"Q643290","operator:wikipedia":"fr:Régie autonome des transports parisiens","public_transport:version":"2"},"7732276":{"to":"あざみ野","ref":"B","from":"湘南台","name":"横浜市営地下鉄ブルーライン","type":"route","route":"subway","colour":"#005ba5","name:en":"Blue Line","name:es":"Línea Azul del Metro de Yokohama","name:ja":"横浜市営地下鉄ブルーライン(B01:湘南台=>B32:あざみ野)","network":"横浜市営地下鉄","operator":"横浜市交通局","wheelchair":"yes","official_ref":"1","public_transport:version":"2"},"9963936":{"to":"Estação Moura Brasil","ref":"Oeste","from":"Caucaia","name":"Linha Oeste: Caucaia ⇒ Estação Moura Brasil","type":"route","route":"light_rail","colour":"#008000","alt_ref":"Linha 2 - Verde","network":"Metrofor","distance":"19","interval":"45","operator":"Companhia Cearense de Transportes Metropolitanos","wikidata":"Q14325543","wikipedia":"pt:Linha Oeste do Metrô de Fortaleza","network:note":"Metrô de Fortaleza","public_transport:version":"2"},"11494375":{"to":"Conestoga","ref":"301","from":"Fairway","name":"LRT 301: Fairway → Conestoga","type":"route","route":"light_rail","colour":"#0092db","network":"GRT","operator":"Keolis","wikidata":"Q106676138","official_name":"301 ION to Conestoga","network:wikidata":"Q3459117","network:wikipedia":"en:Grand River Transit","public_transport:version":"2"},"12632068":{"to":"Lourenço de Albuquerque","ref":"Azul","from":"Bebedouro","name":"Linha Azul: Bebedouro → Lourenço de Albuquerque","type":"route","route":"light_rail","colour":"#1a5ba3","network":"VLT","operator":"CBTU Maceió","public_transport:version":"2"},"13313679":{"to":"Karaköy","ref":"F2","from":"Beyoğlu","name":"Tünel (F2)","type":"route","route":"light_rail","colour":"#7A745A","operator":"İstanbul Elektrik Tramvay ve Tünel (̣İETT)","official_name":"F2 (Karaköy–Beyoğlu) Tarihi Tünel Füniküler Hattı"},"14991403":{"to":"Arbutus","fee":"yes","ref":"Broadway Subway","from":"Great Northern Way–Emily Carr","name":"Millenium Line: Greate Northern Way → Arbutus","type":"route","route":"subway","colour":"#ffd520","network":"Translink","website":"https://www.broadwaysubway.ca/","alt_name":"SkyTrain","operator":"British Columbia Rapid Transit Company Ltd","roundtrip":"no","public_transport:version":"2"}}