{"5454552":{"to":"纺织城","ref":"1","from":"沣河森林公园","name":"西安地铁1号线: 沣河森林公园 -> 纺织城","type":"route","route":"subway","colour":"#01ABF7","name:en":"Xi'an Metro Line 1","network":"西安地铁","wikidata":"Q14917524","network:en":"Xi'an Metro","network:zh":"西安地铁","network:wikidata":"Q555733","network:wikipedia":"zh:西安地铁","public_transport:version":"2"},"5454553":{"to":"韦曲南","ref":"2","from":"北客站","name":"西安地铁2号线: 北客站 -> 韦曲南","type":"route","route":"subway","colour":"#F30215","name:en":"Xi'an Metro Line 2","network":"西安地铁","wikidata":"Q5934457","network:en":"Xi'an Metro","network:zh":"西安地铁","network:wikidata":"Q555733","network:wikipedia":"zh:西安地铁","public_transport:version":"2"},"6768163":{"to":"东风公司","ref":"6","from":"新城十一路","name":"武汉地铁6号线","type":"route","route":"subway","colour":"#007128","name:en":"Wuhan Metro Line 6","network":"武汉地铁","wikidata":"Q15899990","wikipedia":"en:Line 6 (Wuhan Metro)","network:en":"Wuhan Metro","network:zh":"武汉地铁","network:wikidata":"Q1660441","network:wikipedia":"zh:武汉地铁","public_transport:version":"2"},"7732237":{"to":"泉中央","ref":"仙台市南北線 (Sendai Namboku Line)","via":"仙台","from":"富沢","name":"仙台市地下鉄南北線","type":"route","route":"subway","to:en":"Izumi-Chou","colour":"SeaGreen","via:en":"Sendai","from:en":"Tomizawa","name:de":"U-Bahn Sendai Süd-Nord-Linie","name:en":"Sendai Subway Namboku Line","name:ja":"仙台市地下鉄南北線 (富沢=>泉中央)","name:ja_rm":"Sendaishi Chikatetsu Nanboku-sen","public_transport:version":"2"},"7869252":{"to":"沣河森林公园","ref":"1","from":"纺织城","name":"西安地铁1号线: 纺织城 -> 沣河森林公园","type":"route","route":"subway","colour":"#01ABF7","name:en":"Xi'an Metro Line 1","network":"西安地铁","wikidata":"Q14917524","network:en":"Xi'an Metro","network:zh":"西安地铁","network:wikidata":"Q555733","network:wikipedia":"zh:西安地铁","public_transport:version":"2"},"7951023":{"to":"姚家","ref":"1","from":"河口","name":"大连地铁1号线：河口-姚家","type":"route","route":"subway","colour":"#42B227","name:en":"Dalian Metro Line 1：Hekou-Yaojia (Northbound)","network":"大连地铁","operator":"大连交通集团","wikidata":"Q6379309","roundtrip":"no","wikipedia":"zh:大连地铁1号线","network:en":"Dalian Metro","network:zh":"大连地铁","network:wikidata":"Q1660254","public_transport:version":"2"},"9287539":{"to":"董家口火车站","ref":"13","from":"井冈山路","name":"青岛地铁13号线","type":"route","route":"subway","colour":"#00a78f","name:en":"Qingdao Metro Line 13 : Jinggangshan Road->Dongjiakou Railway Station","name:fr":"ligne 13 : Rue Jinggangshan ->Gare de Dongjiakou","wikidata":"Q15937512","wikipedia":"en:Line 13 (Qingdao Metro)","public_transport:version":"2"},"9651535":{"to":"South Ferry","ref":"1","from":"Van Cortlandt Park–242nd Street","name":"NYCS - 1 Train: Van Cortlandt Park–242nd Street → South Ferry","type":"route","owner":"City of New York","route":"subway","colour":"#ee352e","network":"NYC Subway","alt_name":"Broadway–7th Avenue Local","interval":"4","operator":"Metropolitan Transportation Authority","wikidata":"Q126093","wikipedia":"en:1 (New York City Subway service)","interval:note":"Approximate minutes from Wikipedia article","opening_hours":"24/7","owner:wikidata":"Q60","interval:source":"https://en.wikipedia.org/wiki/List_of_New_York_City_Subway_services#Train%20intervals","network:wikidata":"Q7733","network:wikipedia":"en:New York City Subway","operator:wikidata":"Q1146109","opening_hours:note":"See http://web.mta.info/nyct/service/oneline.htm","operator:wikipedia":"en:Metropolitan Transportation Authority","interval:conditional":"20 @ (Mo-Su 00:00-06:30); 3 @ (Mo-Fr 06:30-09:30); 3 @ (Mo-Fr 15:30-20:00); 8 @ (Sa-Su 06:30-23:59); 8 @ (Mo-Fr 20:00-00:00)","public_transport:version":"2"},"10467727":{"to":"井冈山路","ref":"13","from":"董家口火车站","name":"青岛地铁13号线","type":"route","route":"subway","colour":"#00a78f","name:en":"Qingdao Metro Line 13 : Dongjiakou  -->Jinggangshan Road","name:fr":"ligne 13 : Gare de Dongjiakou -> Rue Jinggangshan","wikidata":"Q15937512","public_transport:version":"2"},"10526315":{"to":"华桂路","ref":"5","from":"回龙","name":"成都地铁5号线: 回龙 => 华桂路","type":"route","route":"subway","colour":"#BB29BB","name:en":"Chengdu Metro Line 5: Huilong => Huagui Road","network":"成都地铁","wikidata":"Q22100474","wikipedia":"zh:成都地铁5号线","network:en":"Chengdu Metro","network:zh":"成都地铁","network:wikidata":"Q1660063","network:wikipedia":"zh:成都地铁","public_transport:version":"2"},"11257187":{"to":"山塘","ref":"3","from":"广生","name":"长沙地铁3号线: 广生 -> 山塘","type":"route","route":"subway","colour":"#ABCD03","name:en":"Line 3 (Changsha Metro)","network":"长沙地铁","operator":"长沙轨道交通集团有限公司","wikidata":"Q17030673","wikipedia":"en:Line 3 (Changsha Metro)","network:en":"Changsha Metro","network:zh":"长沙地铁","network:wikidata":"Q1054256","network:wikipedia":"zh:长沙地铁","public_transport:version":"2"},"11257228":{"to":"毛竹塘","ref":"5","from":"水渡河","name":"长沙地铁五号线","type":"route","route":"subway","colour":"#FFE200","name:en":"Line 5 (Changsha Metro)","network":"长沙地铁","operator":"长沙轨道交通集团有限公司","wikidata":"Q18668926","wikipedia":"en:Line 5 (Changsha Metro)","network:en":"Changsha Metro","network:zh":"长沙地铁","network:wikidata":"Q1054256","network:wikipedia":"zh:长沙地铁","public_transport:version":"2"},"11257229":{"to":"水渡河","ref":"5","from":"毛竹塘","name":"长沙地铁五号线","type":"route","route":"subway","colour":"#FFE200","name:en":"Line 5 (Changsha Metro)","network":"长沙地铁","operator":"长沙轨道交通集团有限公司","network:en":"Changsha Metro","network:zh":"长沙地铁","network:wikidata":"Q1054256","network:wikipedia":"zh:长沙地铁","public_transport:version":"2"},"12385669":{"to":"汲桥路","fee":"yes","ref":"5","from":"贵阳路","name":"合肥轨道交通5号线: 贵阳路→汲桥路","type":"route","route":"subway","colour":"#C1D522","name:en":"Hefei Metro Line 5: Guiyanglu→Jiqiaolu","name:zh":"合肥轨道交通5号线: 贵阳路→汲桥路","network":"合肥轨道交通","duration":"40","interval":"00:09:18","operator":"合肥轨道交通集团有限公司","wikidata":"Q43445187","network:en":"Hefei Metro","network:zh":"合肥轨道交通","start_date":"2022-12-26","to:zh-Hant":"汲橋路","from:zh-Hant":"貴陽路","name:zh-Hant":"合肥軌道交通5號線: 貴陽路→汲橋路","opening_hours":"06:00-22:40","network:wikidata":"Q2688118","network:wikipedia":"zh:合肥轨道交通","public_transport:version":"2"},"12385670":{"to":"贵阳路","fee":"yes","ref":"5","from":"汲桥路","name":"合肥轨道交通5号线: 汲桥路→贵阳路","type":"route","route":"subway","colour":"#C1D522","name:en":"Hefei Metro Line 5: Jiqiaolu→Guiyanglu","network":"合肥轨道交通","duration":"40","interval":"00:09:18","operator":"合肥轨道交通集团有限公司","wikidata":"Q43445187","network:en":"Hefei Metro","network:zh":"合肥轨道交通","start_date":"2022-12-26","to:zh-Hant":"貴陽路","from:zh-Hant":"汲橋路","name:zh-Hans":"合肥轨道交通5号线: 汲桥路→贵阳路","name:zh-Hant":"合肥軌道交通5號線: 汲橋路→貴陽路","opening_hours":"06:00-22:40","network:wikidata":"Q2688118","network:wikipedia":"zh:合肥轨道交通","public_transport:version":"2"},"13282128":{"to":"东山","ref":"S2","from":"清东路","name":"温州轨道交通S2线","type":"route","route":"subway","colour":"#E4222B","network":"温州轨道交通","operator":"浙江幸福轨道交通运营管理有限公司","network:en":"Wenzhou Metro","network:zh":"温州轨道交通","network:wikidata":"Q15906197"},"13615483":{"to":"兴庄路","ref":"5","from":"布政","name":"宁波轨道交通5号线","type":"route","route":"subway","colour":"#1D2088","name:en":"Ningbo Rail Transit Line 5","network":"宁波市轨道交通","operator":"宁波市轨道交通集团有限公司","wikidata":"Q10946024","public_transport:version":"2"},"13626145":{"to":"布政","ref":"5","from":"兴庄路","name":"宁波轨道交通5号线","type":"route","route":"subway","colour":"#1D2088","name:en":"Ningbo Rail Transit Line 5","network":"宁波市轨道交通","operator":"宁波市轨道交通集团有限公司","wikidata":"Q10946024","public_transport:version":"2"},"13652089":{"to":"东南角","ref":"4","from":"新兴村","name":"地铁4号线: 新兴村→东南角","type":"route","route":"subway","colour":"#1c7736","name:zh":"地铁4号线: 新兴村→东南角","network":"天津地铁","operator":"天津轨道交通集团有限公司","wikidata":"Q10940016","network:en":"Tianjin Metro","network:zh":"天津地铁","network:wikidata":"Q515817","network:wikipedia":"zh:天津地铁","public_transport:version":"2"},"13652090":{"to":"新兴村","ref":"4","from":"东南角","name":"地铁4号线: 东南角→新兴村","type":"route","route":"subway","colour":"#1c7736","name:zh":"地铁4号线: 东南角→新兴村","network":"天津地铁","operator":"天津轨道交通集团有限公司","wikidata":"Q10940016","network:en":"Tianjin Metro","network:zh":"天津地铁","network:wikidata":"Q515817","network:wikipedia":"zh:天津地铁","public_transport:version":"2"},"14085416":{"to":"螺洲古镇","ref":"5","from":"荆溪厚屿","name":"福州地铁5号线: 荆溪厚屿 -> 螺洲古镇","type":"route","route":"subway","colour":"#893B67","network":"福州地铁","wikidata":"Q25305553","wikipedia":"en:Line 5 (Fuzhou Metro)","network:en":"Fuzhou Metro","network:zh":"福州地铁","network:wikidata":"Q1022261","public_transport:version":"2"},"14085417":{"to":"荆溪厚屿","ref":"5","from":"螺洲古镇","name":"福州地铁5号线: 螺洲古镇 -> 荆溪厚屿","type":"route","route":"subway","colour":"#893B67","network":"福州地铁","wikidata":"Q25305553","wikipedia":"en:Line 5 (Fuzhou Metro)","network:en":"Fuzhou Metro","network:zh":"福州地铁","network:wikidata":"Q1022261","public_transport:version":"2"},"14752075":{"to":"沙田","fee":"yes","ref":"14","from":"岗厦北","name":"地铁 14号线: 岗厦北 -> 沙田","type":"route","route":"subway","colour":"#f2c75c","name:en":"Subway Line 14: Gangxia North -> Shatian","name:zh":"地铁 14号线: 岗厦北 -> 沙田","network":"深圳地铁","operator":"深圳地铁集团有限公司","wikidata":"Q21245993","wikipedia":"zh:深圳地铁14号线","network:en":"Shenzhen Metro","network:zh":"深圳地铁","network:wikidata":"Q867680","network:wikipedia":"zh:深圳地铁","public_transport:version":"2"},"14764337":{"to":"岗厦北","fee":"yes","ref":"14","from":"沙田","name":"地铁 14号线: 沙田 -> 岗厦北","type":"route","route":"subway","colour":"#f2c75c","name:en":"Subway Line 14: Shatian -> Gangxia North","name:zh":"地铁 14号线: 沙田 -> 岗厦北","network":"深圳地铁","operator":"深圳地铁集团有限公司","wikidata":"Q21245993","wikipedia":"zh:深圳地铁14号线","network:en":"Shenzhen Metro","network:zh":"深圳地铁","network:wikidata":"Q867680","network:wikipedia":"zh:深圳地铁","public_transport:version":"2"},"15059916":{"to":"大运","fee":"yes","ref":"16","from":"田心","name":"地铁 16号线: 田心 -> 大运","type":"route","route":"subway","colour":"#1E22AA","name:en":"Subway Line 16: Tianxin -> Universiade","name:zh":"地铁 16号线: 田心 -> 大运","network":"深圳地铁","operator":"深圳地铁集团有限公司","wikidata":"Q11215578","wikipedia":"zh:深圳地铁16号线","network:en":"Shenzhen Metro","network:zh":"深圳地铁","network:wikidata":"Q867680","network:wikipedia":"zh:深圳地铁","public_transport:version":"2"},"15059917":{"to":"田心","fee":"yes","ref":"16","from":"大运","name":"地铁 16号线: 大运 -> 田心","type":"route","route":"subway","colour":"#1E22AA","name:en":"Subway Line 16: Universiade -> Tianxin","name:zh":"地铁 16号线: 大运 -> 田心","network":"深圳地铁","operator":"深圳地铁集团有限公司","wikidata":"Q11215578","wikipedia":"zh:深圳地铁16号线","network:en":"Shenzhen Metro","network:zh":"深圳地铁","network:wikidata":"Q867680","network:wikipedia":"zh:深圳地铁","public_transport:version":"2"},"15336345":{"to":"仙新路","ref":"7","from":"幕府西路","name":"南京地铁7号线 : 幕府西路 -> 仙新路","type":"route","route":"subway","network":"南京地铁","network:en":"Nanjing Metro","network:zh":"南京地铁","network:wikidata":"Q429366"},"15336347":{"to":"幕府西路","ref":"7","from":"仙新路","name":"南京地铁7号线 : 仙新路 -> 幕府西路","type":"route","route":"subway","network":"南京地铁","network:en":"Nanjing Metro","network:zh":"南京地铁","network:wikidata":"Q429366"},"15700253":{"to":"文岭","ref":"F1","from":"福州火车站","name":"滨海快线","type":"route","route":"subway","colour":"#00adbb","network":"福州地铁","operator":"福州地铁","network:en":"Fuzhou Metro","network:zh":"福州地铁","network:wikidata":"Q1022261"}}