{"58898":{"ref":"C","name":"Metro linka C: Letňany → Háje","type":"route","route":"subway","colour":"#CF003D","name:de":"U-Bahnlinie C","name:en":"Subway line C","network":"Pražské metro","operator":"Dopravní podnik hl. m. Prahy","wikidata":"Q168571","operator:short":"DPP","network:wikidata":"Q190271","operator:wikidata":"Q381100","public_transport:version":"2"},"58899":{"ref":"A","name":"Metro linka A: Nemocnice Motol → Depo Hostivař","type":"route","route":"subway","colour":"#00A562","name:cs":"Metro linka A: Nemocnice Motol → Depo Hostivař","name:de":"U-Bahnlinie A","name:en":"Subway line A","network":"Pražské metro","operator":"Dopravní podnik hl. m. Prahy","wikidata":"Q1292805","operator:short":"DPP","network:wikidata":"Q190271","operator:wikidata":"Q381100","public_transport:version":"2"},"58900":{"ref":"B","name":"Metro linka B: Černý Most → Zličín","type":"route","route":"subway","colour":"#F8B322","name:de":"U-Bahnlinie B","name:en":"Subway line B","network":"Pražské metro","operator":"Dopravní podnik hl. m. Prahy","wikidata":"Q1460442","wikipedia":"cs:B (linka metra v Praze)","wheelchair":"limited","operator:short":"DPP","network:wikidata":"Q190271","operator:wikidata":"Q381100","public_transport:version":"2"},"2211362":{"ref":"S80","name":"S80: Čerčany - Ledeč nad Sázavou","type":"route","route":"light_rail","network":"PID"},"7772994":{"ref":"C","name":"Metro linka C: Háje → Letňany","type":"route","route":"subway","colour":"#CF003D","name:de":"U-Bahnlinie C","name:en":"Subway line C","network":"Pražské metro","operator":"Dopravní podnik hl. m. Prahy","wikidata":"Q168571","operator:short":"DPP","network:wikidata":"Q190271","operator:wikidata":"Q381100","public_transport:version":"2"},"7772995":{"ref":"B","name":"Metro linka B: Zličín → Černý Most","type":"route","level":"-1","route":"subway","colour":"#F8B322","name:de":"U-Bahnlinie B","name:en":"Subway line B","network":"Pražské metro","operator":"Dopravní podnik hl. m. Prahy","wikidata":"Q1460442","wikipedia":"cs:B (linka metra v Praze)","wheelchair":"limited","operator:short":"DPP","network:wikidata":"Q190271","operator:wikidata":"Q381100","public_transport:version":"2"},"7772996":{"ref":"A","name":"Metro linka A: Depo Hostivař → Nemocnice Motol","type":"route","route":"subway","colour":"#00A562","name:cs":"Metro linka A: Depo Hostivař → Nemocnice Motol","name:de":"U-Bahnlinie A","name:en":"Subway line A","network":"Pražské metro","operator":"Dopravní podnik hl. m. Prahy","wikidata":"Q1292805","operator:short":"DPP","network:wikidata":"Q190271","operator:wikidata":"Q381100","public_transport:version":"2"},"14692773":{"to":"Imperial","ref":"Imperial","from":"Divadelní náměstí","name":"Lanová dráha Imperial","type":"route","route":"light_rail","operator":"Dopravní podnik Karlovy Vary, a. s.","wikidata":"Q66888622"}}