{"152202":{"to":"Vestamager","ref":"M1","from":"Vanløse","name":"Metro M1: Vanløse => Vestamager","type":"route","route":"subway","colour":"#007d58","network":"Takst Sjælland","note:de":"M1 in forward direction","by_night":"yes","operator":"Inmetro","wikidata":"Q1880894","wikipedia":"da:M1 (metro)","text_color":"green","network:metro":"Metroen","public_transport:version":"2"},"152224":{"to":"Lufthavnen","ref":"M2","from":"Vanløse","name":"Metro M2: Vanløse => Lufthavnen","type":"route","route":"subway","colour":"#FDC110","comment":"Forward direction of line M2","network":"Takst Sjælland","by_night":"yes","operator":"Inmetro","wikidata":"Q1880954","wikipedia":"da:M2","text_colour":"yellow","network:metro":"Metroen","public_transport:version":"2"},"152332":{"to":"Vanløse","ref":"M1","from":"Vestamager","name":"Metro M1: Vestamager => Vanløse","type":"route","route":"subway","colour":"#007d58","network":"Takst Sjælland","by_night":"yes","operator":"Inmetro","wikidata":"Q1880894","wikipedia":"da:M1 (metro)","text_color":"green","network:metro":"Metroen","public_transport:version":"2"},"152339":{"to":"Vanløse","ref":"M2","from":"Lufthavnen","name":"Metro M2: Lufthavnen => Vanløse","type":"route","route":"subway","colour":"#FDC110","comment":"backward direction of line M2","network":"Takst Sjælland","by_night":"yes","operator":"Inmetro","wikidata":"Q1880954","wikipedia":"da:M1 (metro)","text_colour":"yellow","network:metro":"Metroen","public_transport:version":"2"},"1263526":{"ref":"L41","name":"Gribskovbanen","type":"route","route":"light_rail","operator":"Lokalbanen","description":"Hillerød-Gilleleje"},"5612106":{"to":"Høje Taastrup","ref":"B","url":"http://www.s-tog.dk","from":"Farum","name":"S-tog B: Farum => Høje Taastrup","type":"route","route":"light_rail","colour":"limegreen","network":"Takst Sjælland","website":"http://www.s-tog.dk","operator":"DSB","wikidata":"Q1903862","network:metro":"S-tog","opening_hours":"Mo-Fr 05:02-00:47; Sa-Su 00:00-24:00, Mo 00:00-00:47","public_transport:version":"2"},"5612107":{"to":"Farum","ref":"B","url":"http://www.s-tog.dk","from":"Høje Taastrup","name":"S-tog B: Høje Taastrup => Farum","type":"route","route":"light_rail","colour":"limegreen","network":"Takst Sjælland","website":"http://www.s-tog.dk","operator":"DSB","wikidata":"Q1903862","network:metro":"S-tog","opening_hours":"Mo-Fr 05:00-01:05; Sa-Su 00:00-24:00, Mo 00:00-01:05","public_transport:version":"2"},"5612108":{"to":"Buddinge","ref":"Bx","from":"Høje Taastrup","name":"S-tog Bx: Høje Taastrup => Buddinge","type":"route","route":"light_rail","colour":"yellowgreen","network":"Takst Sjælland","website":"http://www.s-tog.dk","operator":"DSB","network:metro":"S-tog","opening_hours":"Mo-Fr 06:35-08:59,13:59-16:39","public_transport:version":"2"},"5612109":{"to":"Høje Taastrup","ref":"Bx","from":"Buddinge","name":"S-tog Bx: Buddinge => Høje Taastrup","type":"route","route":"light_rail","colour":"yellowgreen","network":"Takst Sjælland","website":"http://www.s-tog.dk","operator":"DSB","network:metro":"S-tog","opening_hours":"Mo-Fr 07:14-09:34, 14:34-17:20","public_transport:version":"2"},"5612110":{"to":"Klampenborg","ref":"C","from":"Frederikssund","name":"S-tog C: Frederikssund => Klampenborg","type":"route","route":"light_rail","colour":"orange","network":"Takst Sjælland","website":"http://www.s-tog.dk","operator":"DSB","wikidata":"Q4452746","network:metro":"S-tog","opening_hours":"Mo-Fr 04:50-00:40; Sa-Su 00:00-24:00, Mo 00:00-00:40","description:en":"The train does not stop i Kildedal at night from Friday to Saturday and at night from Saturday to Sunday.","public_transport:version":"2"},"5612111":{"to":"Frederikssund","ref":"C","from":"Klampenborg","name":"S-tog C: Klampenborg => Frederikssund","note":"opening_hour: Det første tog, der afgår fra Klampenborg. Det sidste tog, der ankommer til Frederikssund. Fra København H afgår toge tidligere.","type":"route","route":"light_rail","colour":"orange","network":"Takst Sjælland","website":"http://www.s-tog.dk","operator":"DSB","wikidata":"Q4452746","network:metro":"S-tog","opening_hours":"Mo-Fr 05:27-01:19; Sa-Su 00:00-24:00, Mo 00:00-01:19","description:en":"The train does not stop i Kildedal at night from Friday to Saturday and at night from Saturday to Sunday.","public_transport:version":"2"},"5612112":{"to":"Køge","ref":"E","url":"http://www.s-tog.dk","from":"Holte","name":"S-tog E: Holte => Køge","type":"route","route":"light_rail","colour":"mediumpurple","network":"Takst Sjælland","website":"http://www.s-tog.dk","operator":"DSB","wikidata":"Q4624816","network:metro":"S-tog","opening_hours":"Mo-Fr 05:02-20:13","public_transport:version":"2"},"5612113":{"to":"Holte","ref":"E","url":"http://www.s-tog.dk","from":"Køge","name":"S-tog E: Køge => Holte","type":"route","route":"light_rail","colour":"mediumpurple","network":"Takst Sjælland","website":"http://www.s-tog.dk","operator":"DSB","wikidata":"Q4624816","network:metro":"S-tog","opening_hours":"Mo-Fr 04:45-19:55","public_transport:version":"2"},"5612114":{"to":"Ny Ellebjerg","ref":"F","from":"Hellerup","name":"S-tog F: Hellerup => Ny Ellebjerg","type":"route","route":"light_rail","colour":"#FFC225","network":"Takst Sjælland","website":"http://www.s-tog.dk","operator":"DSB","wikidata":"Q2133631","network:metro":"S-tog","public_transport:version":"2"},"5612115":{"to":"Hellerup","ref":"F","from":"Ny Ellebjerg","name":"S-tog F: Ny Ellebjerg => Hellerup","type":"route","route":"light_rail","colour":"#FFC225","network":"Takst Sjælland","website":"http://www.s-tog.dk","operator":"DSB","wikidata":"Q2133631","network:metro":"S-tog","public_transport:version":"2"},"5612118":{"to":"Østerport","ref":"H","from":"Frederikssund","name":"S-tog H: Frederikssund => Østerport","type":"route","route":"light_rail","colour":"#e64415","network":"Takst Sjælland","website":"http://www.s-tog.dk","interval":"20","operator":"DSB","wikidata":"Q1891933","network:metro":"S-tog","opening_hours":"Mo-Fr 05:36-19:07","public_transport:version":"2"},"5612119":{"to":"Frederikssund","ref":"H","from":"Østerport","name":"S-tog H: Østerport => Frederikssund","note":"opening_hour: Det første tog, der afgår fra Østerport. Det sidste tog, der ankommer til Frederikssund. Fra København H afgår toge tidligere.","type":"route","route":"light_rail","colour":"#e64415","network":"Takst Sjælland","website":"http://www.s-tog.dk","interval":"20","operator":"DSB","wikidata":"Q1891933","network:metro":"S-tog","opening_hours":"Mo-Fr 06:41-20:09","public_transport:version":"2"},"7463675":{"to":"Odder","ref":"L2","from":"Lystrup","name":"Light rail L2: Lystrup => Odder","type":"route","owner":"Aarhus Letbane Drift I/S","route":"light_rail","colour":"#30556E","network":"Midttrafik","operator":"Keolis","wikidata":"Q28759221","wheelchair":"yes","opening_date":"2018-08-25","network:metro":"Letbane","source:opening_date":"https://www.midttrafik.dk/koreplaner/letbanen/","public_transport:version":"2"},"8603279":{"to":"Lystrup","ref":"L2","from":"Odder","name":"Light rail L2: Odder => Lystrup","type":"route","owner":"Aarhus Letbane Drift I/S","route":"light_rail","colour":"#30556E","network":"Midttrafik","operator":"Keolis","wikidata":"Q28759221","wheelchair":"yes","opening_date":"2018-08-25","network:metro":"Letbane","source:opening_date":"https://www.midttrafik.dk/koreplaner/letbanen/","public_transport:version":"2"},"9907095":{"to":"Aarhus H","ref":"L1","from":"Grenå","name":"Light rail L1: Grenå => Aarhus H","type":"route","owner":"Aarhus Letbane Drift I/S","route":"light_rail","colour":"#30556E","network":"Midttrafik","operator":"Keolis","wikidata":"Q28759219","start_date":"2019-05","wheelchair":"yes","network:metro":"Letbane","source:opening_date":"https://www.midttrafik.dk/nyheder/letbanen-abner-30-april-mod-grenaa/","public_transport:version":"2"},"9907096":{"to":"Grenå","ref":"L1","from":"Aarhus H","name":"Light rail L1: Aarhus H => Grenå","type":"route","owner":"Aarhus Letbane Drift I/S","route":"light_rail","colour":"#30556E","network":"Midttrafik","operator":"Keolis","wikidata":"Q28759219","start_date":"2019-05","wheelchair":"yes","network:metro":"Letbane","source:opening_date":"https://www.midttrafik.dk/nyheder/letbanen-abner-30-april-mod-grenaa/","public_transport:version":"2"},"9969573":{"to":"Hillerød","ref":"A","url":"http://www.s-tog.dk","from":"Køge","name":"S-tog A: Køge => Hillerød","note":"Kører om aftenen og i weekenden.","type":"route","route":"light_rail","colour":"deepskyblue","network":"Takst Sjælland","website":"http://www.s-tog.dk","operator":"DSB","network:metro":"S-tog","opening_hours":"Mo-Fr 19:27-01:18; Sa-Su 00:00-24:00, Mo 00:00-01:18","public_transport:version":"2"},"9971028":{"to":"Køge","ref":"A","url":"http://www.s-tog.dk/","from":"Hillerød","name":"S-tog A: Hillerød => Køge","note":"Kører om aftenen og i weekenden.","type":"route","route":"light_rail","colour":"deepskyblue","network":"Takst Sjælland","website":"http://www.s-tog.dk","operator":"DSB","network:metro":"S-tog","opening_hours":"Mo-Fr 19:30-01:00; Sa-Su 00:00-24:00, Mo 00:00-01:00","public_transport:version":"2"},"9971485":{"to":"Hillerød","ref":"A","url":"http://www.s-tog.dk/","from":"Solrød Strand","name":"S-tog A: Solrød Strand => Hillerød","note":"opening_hour: Det første tog, der afgår fra Solrød Strand. Det sidste tog, der ankommer til Hillerød. Fra Hundige afgår toge tidligere.","type":"route","route":"light_rail","colour":"deepskyblue","network":"Takst Sjælland","website":"http://www.s-tog.dk","operator":"DSB","wikidata":"Q2323144","network:metro":"S-tog","opening_hours":"Mo-Fr 06:18-20:23","public_transport:version":"2"},"9974943":{"to":"Solrød Strand","ref":"A","url":"http://www.s-tog.dk","from":"Hillerød","name":"S-tog A: Hillerød => Solrød Strand","type":"route","route":"light_rail","colour":"deepskyblue","network":"Takst Sjælland","website":"http://www.s-tog.dk","operator":"DSB","wikidata":"Q2323144","network:metro":"S-tog","opening_hours":"Mo-Fr 04:44-18:00","public_transport:version":"2"},"10098253":{"to":"Nærum","ref":"910","from":"Jægersborg","name":"Lokaltog 910: Jægersborg => Nærum","type":"route","route":"light_rail","colour":"#00214D","network":"Takst Sjælland","website":"https://www.lokaltog.dk","operator":"Lokaltog A/S","network:metro":"Nærumbanen","public_transport:version":"2"},"10098290":{"to":"Jægersborg","ref":"910","from":"Nærum","name":"Lokaltog 910: Nærum => Jægersborg","type":"route","route":"light_rail","colour":"#00214D","network":"Takst Sjælland","website":"https://www.lokaltog.dk","operator":"Lokaltog A/S","network:metro":"Nærumbanen","public_transport:version":"2"},"10157170":{"ref":"M3","name":"Cityringen (clockwise)","type":"route","route":"subway","colour":"#ff0a0a","network":"Takst Sjælland","operator":"Metro Service A/S","wikidata":"Q1094251","roundtrip":"yes","wikipedia":"da:Cityringen","network:metro":"Metroen","public_transport:version":"2"},"10283922":{"ref":"M3","name":"Cityringen (counterclockwise)","type":"route","route":"subway","colour":"#ff0a0a","network":"Takst Sjælland","operator":"Metro Service A/S","wikidata":"Q1094251","roundtrip":"yes","wikipedia":"da:Cityringen","network:metro":"Metroen","public_transport:version":"2"},"10925796":{"to":"København H","ref":"M4","from":"Orientkaj","name":"Nordhavnsmetro","type":"route","route":"subway","colour":"#36b6f1","network":"Takst Sjælland","operator":"Metro Service A/S","wikidata":"Q88965328","network:metro":"Metroen","public_transport:version":"2"},"10925797":{"to":"Orientkaj","ref":"M4","from":"København H","name":"Nordhavnsmetro","type":"route","route":"subway","colour":"#36b6f1","network":"Takst Sjælland","operator":"Metro Service A/S","wikidata":"Q88965328","network:metro":"Metroen","public_transport:version":"2"},"14973317":{"to":"Lisbjergskolen","ref":"L2","from":"Odder","name":"Light rail L2: Odder => Lisbjergskolen","type":"route","owner":"Aarhus Letbane Drift I/S","route":"light_rail","colour":"#30556E","network":"Midttrafik","operator":"Keolis","wikidata":"Q28759221","wheelchair":"yes","opening_date":"2018-08-25","network:metro":"Letbane","source:opening_date":"https://www.midttrafik.dk/koreplaner/letbanen/","public_transport:version":"2"},"14973318":{"to":"Odder","ref":"L2","from":"Lisbjergskolen","name":"Light rail L2: Lisbjergskolen => Odder","type":"route","owner":"Aarhus Letbane Drift I/S","route":"light_rail","colour":"#30556E","network":"Midttrafik","operator":"Keolis","wikidata":"Q28759221","wheelchair":"yes","opening_date":"2018-08-25","network:metro":"Letbane","source:opening_date":"https://www.midttrafik.dk/koreplaner/letbanen/","public_transport:version":"2"}}