{"421705":{"to":"المرج الجديدة","ref":"1","from":"حلوان","name":"الخط الأول","type":"route","route":"subway","name:ar":"الخط الأول","name:de":"Erste Metrolinie","name:en":"Line 1: Helwan → New El-Marg","name:fr":"Ligne 1 : Helwan → New El-Marg","network":"الشركة المصرية لإدارة وتشغيل المترو","wikidata":"Q5017774","wikipedia":"en:Cairo Metro Line 1","public_transport:version":"2"},"421706":{"to":"شبرا الخيمة","ref":"2","from":"المنيب","name":"الخط الثاني : المنيب‎ ← شبرا الخيمة‎","type":"route","route":"subway","colour":"#FF7000","name:ar":"الخط الثاني : المنيب‎ ← شبرا الخيمة‎","name:de":"Linie 2: El Mounib → Shubra El-Kheima","name:en":"Line 2: El Mounib → Shubra El-Kheima","name:fr":"Ligne 2 : El Mounib → Shubra El-Kheima","network":"الشركة المصرية لإدارة وتشغيل المترو","wikidata":"Q5017773","wikipedia":"en:Cairo Metro Line 2","public_transport:version":"2"},"2063304":{"to":"العتبة","ref":"3","from":"عدلى منصور","name":"الخط الثالث : عدلى منصور ← الكيت كات","type":"route","route":"subway","colour":"#00AF23","name:ar":"الخط الثالث","name:de":"Linie 3","name:en":"Line 3: Adly Mansour → Kit-kat","name:fr":"Ligne 3 : Adli Mansour → Kit-kat","network":"الشركة المصرية لإدارة وتشغيل المترو","wikidata":"Q5017776","wikipedia":"en:Cairo Metro Line 3","public_transport:version":"2"},"2826217":{"to":"حلوان","ref":"1","from":"المرج الجديدة","name":"الخط الأول","type":"route","route":"subway","name:ar":"الخط الأول","name:de":"Erste Metrolinie","name:en":"Line 1: New El-Marg → Helwan","name:fr":"Ligne 1 : New El-Marg → Helwan","network":"الشركة المصرية لإدارة وتشغيل المترو","wikidata":"Q5017774","wikipedia":"en:Cairo Metro Line 1","public_transport:version":"2"},"7686561":{"to":"عدلى منصور","ref":"3","from":"العتبة","name":"الخط الثالث : الكيت كات ← عدلى منصور","type":"route","route":"subway","colour":"#00AF23","name:ar":"الخط الثالث","name:de":"Linie 3","name:en":"Line 3: Kit-kat → Adly Mansour","name:fr":"Ligne 3 : Kit-kat → Adli Mansour","network":"الشركة المصرية لإدارة وتشغيل المترو","wikidata":"Q5017776","wikipedia":"en:Cairo Metro Line 3","public_transport:version":"2"},"7927231":{"to":"المنيب","ref":"2","from":"شبرا الخيمة","name":"الخط الثاني : شبرا الخيمة‎ ← المنيب","type":"route","route":"subway","colour":"#FF7000","name:ar":"الخط الثاني : شبرا الخيمة‎ ← المنيب","name:de":"Linie 2: Shubra El-Kheima → El Mounib","name:en":"Line 2: Shubra El-Kheima → El Mounib","name:fr":"Ligne 2 : Shubra El-Kheima → El Mounib","network":"الشركة المصرية لإدارة وتشغيل المترو","wikidata":"Q5017773","wikipedia":"en:Cairo Metro Line 2","public_transport:version":"2"},"17625744":{"to":"عدلى منصور","ref":"3","from":"العتبة","name":"الخط الثالث : الكيت كات ← عدلى منصور","type":"route","route":"subway","colour":"#00AF23","name:ar":"الخط الثالث","name:de":"Linie 3: Universität Kairo → Adli Mansur","name:en":"Line 3: Cairo University → Adly Mansour","name:fr":"Ligne 3 : Université du Caire → Adli Mansour","network":"الشركة المصرية لإدارة وتشغيل المترو","wikidata":"Q5017776","wikipedia":"en:Cairo Metro Line 3","public_transport:version":"2"},"17625746":{"to":"جامعة القاهرة","ref":"3","from":"عدلى منصور","name":"الخط الثالث : عدلى منصور ← جامعة القاهرة","type":"route","route":"subway","colour":"#00AF23","name:ar":"الخط الثالث","name:de":"Linie 3: Adli Mansur → Universität Kairo","name:en":"Line 3: Adly Mansour → Cairo University","name:fr":"Ligne 3 : Adli Mansour → Université du Caire","network":"الشركة المصرية لإدارة وتشغيل المترو","wikidata":"Q5017776","wikipedia":"en:Cairo Metro Line 3","public_transport:version":"2"}}