{"56044":{"to":"La Fortuna","ref":"L11","from":"Plaza Elíptica","name":"Línea 11: Plaza Elíptica-La Fortuna","type":"route","route":"subway","colour":"#006400","network":"Metro de Madrid","operator":"Metro de Madrid","wikidata":"Q608251","wikipedia":"es:Línea 11 (Metro de Madrid)","opening_hours":"Mo-Su 06:00-01:30","network:wikidata":"Q191987","network:wikipedia":"es:Metro de Madrid","public_transport:version":"2"},"56791":{"to":"Laguna","ref":"L6","from":"Laguna","name":"Línea 6: Andén 2","type":"route","route":"subway","colour":"#939393","network":"Metro de Madrid","interval":"6","operator":"Metro de Madrid","wikidata":"Q514227","roundtrip":"yes","wikipedia":"es:Línea 6 (Metro de Madrid)","opening_hours":"Mo-Su 06:00-01:30","network:wikidata":"Q191987","network:wikipedia":"es:Metro de Madrid","interval:conditional":"7 @ (Sa-Su 06:00-24:00); 15 @ (Mo-Su 00:00-01:30)","public_transport:version":"2"},"57356":{"to":"Villaverde Alto","ref":"L3","from":"Moncloa","line":"subway","name":"Línea 3: Moncloa-Villaverde Alto","type":"route","route":"subway","colour":"#FFDF00","network":"Metro de Madrid","interval":"5","operator":"Metro de Madrid","wikidata":"Q1826673","wikipedia":"es:Línea 3 (Metro de Madrid)","opening_hours":"Mo-Su 06:00-01:30","network:wikidata":"Q191987","network:wikipedia":"es:Metro de Madrid","interval:conditional":"7 @ (Sa-Su 06:00-24:00); 15 @ (Su-Th 00:00-01:30); 10 @ (Fr-Sa 00:00-01:30)","public_transport:version":"2"},"58267":{"to":"Tres Olivos","ref":"L10","from":"Hospital Infanta Sofía","name":"Línea 10: Hospital Infanta Sofía-Tres Olivos","type":"route","route":"subway","colour":"#015396","network":"Metro de Madrid","interval":"6","operator":"Metro de Madrid","wikidata":"Q1760090","wikipedia":"es:Línea 10 (Metro de Madrid)","opening_hours":"Mo-Su 06:00-01:30","network:wikidata":"Q191987","network:wikipedia":"es:Metro de Madrid","interval:conditional":"8 @ (Sa-Su 06:00-24:00); 15 @ (Mo-Su 00:00-01:30)","public_transport:version":"2"},"61833":{"to":"Las Rosas","ref":"L2","from":"Cuatro Caminos","line":"subway","name":"Línea 2: Cuatro Caminos → Las Rosas","type":"route","route":"subway","colour":"#fb0f0c","name:es":"Línea 2: Cuatro Caminos → Las Rosas","name:pl":"Linia 2 metra w Madrycie","network":"Metro de Madrid","interval":"5","operator":"Metro de Madrid","wikidata":"Q1826679","wikipedia":"es:Línea 2 (Metro de Madrid)","opening_hours":"Mo-Su 06:00-01:30","network:wikidata":"Q191987","network:wikipedia":"es:Metro de Madrid","interval:conditional":"7 @ (Sa-Su 06:00-24:00); 10 @ (Fr-Sa 00:00-01:30); 15 @ (Su-Th 00:00-01:30)","public_transport:version":"2"},"61834":{"to":"Alameda de Osuna","ref":"L5","from":"Casa de Campo","line":"subway","name":"Línea 5: Casa de Campo-Alameda de Osuna","type":"route","route":"subway","colour":"#96bf0d","network":"Metro de Madrid","interval":"6","operator":"Metro de Madrid","wikidata":"Q1568028","wikipedia":"es:Línea 5 (Metro de Madrid)","opening_hours":"Mo-Su 06:00-01:30","network:wikidata":"Q191987","network:wikipedia":"es:Metro de Madrid","interval:conditional":"7 @ (Sa-Su 06:00-24:00); 15 @ (Mo-Su 00:00-01:30)","public_transport:version":"2"},"61836":{"to":"Príncipe Pío","ref":"R","from":"Ópera","name":"Línea Ramal: Ópera-Príncipe Pío","type":"route","route":"subway","colour":"white","network":"Metro de Madrid","interval":"6","operator":"Metro de Madrid","wikidata":"Q1496137","wikipedia":"es:Ramal (Metro de Madrid)","opening_hours":"Mo-Su 06:00-01:30","network:wikidata":"Q191987","network:wikipedia":"es:Metro de Madrid","interval:conditional":"7 @ (Sa-Su 06:00-24:00); 15 @ (Mo-Su 00:00-01:30)","public_transport:version":"2"},"61878":{"to":"Colonia Jardín","ref":"ML3","from":"Puerta de Boadilla","name":"Línea ML-3: Puerta de Boadilla-Colonia Jardín","type":"route","route":"light_rail","colour":"#FF0000","network":"Metro Ligero de Madrid","interval":"10","operator":"Metros Ligeros del Oeste","wikidata":"Q3832709","wikipedia":"es:Línea 3 (Metro Ligero de Madrid)","opening_hours":"Mo-Su 06:00-01:30","interval:conditional":"20 @ (Sa-Sa 06:00-22:30); 30 @ (Su-Su 06:00-22:30); 30 @ (Mo-Su 22:30-01:30)","public_transport:version":"2"},"61879":{"to":"Colonia Jardín","ref":"ML2","from":"Aravaca","name":"Línea ML-2: Estación de Aravaca-Colonia Jardín","type":"route","route":"light_rail","colour":"#660066","network":"Metro Ligero de Madrid","interval":"10","operator":"Metros Ligeros del Oeste","wikidata":"Q3832710","wikipedia":"es:Línea 2 (Metro Ligero de Madrid)","opening_hours":"Mo-Su 06:00-01:30","interval:conditional":"20 @ (Sa-Sa 06:00-22:30); 30 @ (Su-Su 06:00-22:30); 30 @ (Mo-Su 22:30-01:30)","public_transport:version":"2"},"62146":{"to":"Valdecarros","ref":"L1","from":"Pinar de Chamartín","name":"Línea 1: Pinar de Chamartín-Valdecarros","type":"route","route":"subway","colour":"#67C0DD","network":"Metro de Madrid","interval":"5","operator":"Metro de Madrid","wikidata":"Q1826675","opening_hours":"Mo-Su 06:00-01:30","network:wikidata":"Q191987","network:wikipedia":"es:Metro de Madrid","interval:conditional":"7 @ (Sa-Su 06:00-24:00); 10 @ (Fr-Sa 00:00-01:30); 15 @ (Su-Th 00:00-01:30)","public_transport:version":"2"},"62901":{"to":"Hospital del Henares","ref":"L7","from":"Pitis","name":"Línea 7: Pitis-Hospital del Henares","type":"route","route":"subway","colour":"#ed7b24","name:es":"Línea 7: Pitis-Hospital del Henares","name:lb":"Linn 7","name:pl":"Linia 7 metra w Madrycie","network":"Metro de Madrid","interval":"6","operator":"Metro de Madrid","wikidata":"Q1826683","wikipedia":"es:Línea 7 (Metro de Madrid)","opening_hours":"Mo-Su 06:00-01:30","network:wikidata":"Q191987","network:wikipedia":"es:Metro de Madrid","interval:conditional":"8 @ (Sa-Su 06:00-24:00); 15 @ (Mo-Su 00:00-01:30)","public_transport:version":"2"},"62917":{"to":"Aeropuerto T4","ref":"L8","from":"Nuevos Ministerios","name":"Línea 8: Nuevos Ministerios-Aeropuerto T4","type":"route","route":"subway","colour":"#ff0080","network":"Metro de Madrid","interval":"6","operator":"Metro de Madrid","wikidata":"Q1475527","wikipedia":"es:Línea 8 (Metro de Madrid)","opening_hours":"Mo-Su 06:00-01:30","network:wikidata":"Q191987","network:wikipedia":"es:Metro de Madrid","interval:conditional":"7 @ (Sa-Su 06:00-24:00); 15 @ (Mo-Su 00:00-01:30)","public_transport:version":"2"},"85222":{"to":"Arganda del Rey","ref":"L9","from":"Paco de Lucía","name":"Línea 9: Paco de Lucía-Arganda del Rey","type":"route","route":"subway","colour":"#9C3293","name:es":"Línea 9: Paco de Lucía-Arganda del Rey","name:pl":"Linia 9 metra w Madrycie","network":"Metro de Madrid","interval":"6","operator":"Metro de Madrid","wikidata":"Q1759707","wikipedia":"es:Línea 9 (Metro de Madrid)","opening_hours":"Mo-Su 06:00-01:30","network:wikidata":"Q191987","network:wikipedia":"es:Metro de Madrid","interval:conditional":"8 @ (Sa-Su 06:00-24:00); 15 @ (Mo-Su 00:00-01:30)","public_transport:version":"2"},"87128":{"to":"Las Tablas","ref":"ML1","from":"Pinar de Chamartín","name":"Línea ML-1: Pinar de Chamartín-Las Tablas","type":"route","route":"light_rail","colour":"#4682b4","network":"Metro Ligero de Madrid","interval":"9","operator":"Metro de Madrid","wikidata":"Q2058921","wikipedia":"es:Línea 1 (Metro Ligero de Madrid)","opening_hours":"Mo-Su 06:00-01:30","public_transport:version":"2"},"195705":{"to":"Zona Universitària","ref":"L3","from":"Trinitat Nova","name":"L3: Zona Universitària => Trinitat Nova","type":"route","route":"subway","colour":"#39AF57","name:ca":"L3: Zona Universitària => Trinitat Nova","network":"Metro de Barcelona","operator":"Transports Metropolitans de Barcelona","wikidata":"Q385168","wikipedia":"ca:Línia 3 del metro de Barcelona","network:wikidata":"Q237189","network:wikipedia":"ca:Metro de Barcelona","public_transport:version":"2"},"195706":{"to":"Trinitat Nova","ref":"L4","from":"La Pau","name":"L4: La Pau => Trinitat Nova","type":"route","route":"subway","colour":"#FAB70A","name:ca":"L4: La Pau => Trinitat Nova","network":"Metro de Barcelona","operator":"Transports Metropolitans de Barcelona","wikidata":"Q961384","wikipedia":"ca:Línia 4 del metro de Barcelona","network:wikidata":"Q237189","network:wikipedia":"ca:Metro de Barcelona","public_transport:version":"2"},"195707":{"to":"Badalona Pompeu Fabra","ref":"L2","from":"Paral·lel","name":"L2: Paral·lel → Badalona Pompeu Fabra","type":"route","route":"subway","colour":"#992F9C","name:ca":"L2: Paral·lel → Badalona Pompeu Fabra","network":"Metro de Barcelona","location":"underground","operator":"Transports Metropolitans de Barcelona","wikidata":"Q1348921","wikipedia":"ca:Línia 2 del metro de Barcelona","network:wikidata":"Q237189","network:wikipedia":"ca:Metro de Barcelona","public_transport:version":"2"},"195711":{"to":"Fondo","ref":"L1","from":"Hospital de Bellvitge","name":"L1: Hospital de Bellvitge => Fondo","type":"route","route":"subway","colour":"#E33638","name:ca":"L1: Hospital de Bellvitge => Fondo","network":"Metro de Barcelona","operator":"Transports Metropolitans de Barcelona","wikidata":"Q1348946","wikipedia":"ca:Línia 1 del metro de Barcelona","network:wikidata":"Q237189","network:wikipedia":"ca:Metro de Barcelona","public_transport:version":"2"},"195712":{"to":"Molí Nou - Ciutat Cooperativa","ref":"L8","from":"Plaça Espanya","name":"L8: Pl. Espanya => Molí Nou - Ciutat Cooperativa","type":"route","route":"subway","colour":"#D5578F","name:ca":"L8: Pl. Espanya => Molí Nou - Ciutat Cooperativa","network":"Metro de Barcelona","operator":"Ferrocarrils de la Generalitat de Catalunya","wikidata":"Q763319","wikipedia":"ca:Línia 8 del metro de Barcelona","network:wikidata":"Q237189","network:wikipedia":"ca:Metro de Barcelona","public_transport:version":"2"},"195713":{"to":"Vall d'Hebron","ref":"L5","from":"Cornellà Centre","name":"L5: Cornellà Centre => Vall d'Hebron","type":"route","route":"subway","colour":"#317BC8","name:ca":"L5: Cornellà Centre => Vall d'Hebron","network":"Metro de Barcelona","operator":"Transports Metropolitans de Barcelona","wikidata":"Q1348939","wikipedia":"ca:Línia 5 del metro de Barcelona","network:wikidata":"Q237189","network:wikipedia":"ca:Metro de Barcelona","public_transport:version":"2"},"197475":{"to":"Sarrià","ref":"L6","from":"Pl. Catalunya","name":"L6: Pl. Catalunya - Sarrià","type":"route","route":"subway","colour":"#7280C0","name:ca":"L6: Pl. Catalunya - Sarrià","network":"Metro de Barcelona","operator":"Ferrocarrils de la Generalitat de Catalunya","wikidata":"Q1577019","wikipedia":"ca:Línia 6 del metro de Barcelona","network:wikidata":"Q237189","network:wikipedia":"ca:Metro de Barcelona","public_transport:version":"2"},"197476":{"to":"Avinguda Tibidabo","ref":"L7","from":"Barcelona - Plaça Catalunya","name":"L7: Pl. Catalunya - Av. Tibidabo","type":"route","route":"subway","colour":"#AC5414","name:ca":"L7: Pl. Catalunya - Av. Tibidabo","network":"Metro de Barcelona","operator":"Ferrocarrils de la Generalitat de Catalunya","wikidata":"Q678390","wikipedia":"ca:Línia 7 del metro de Barcelona","network:wikidata":"Q237189","network:wikipedia":"ca:Metro de Barcelona","public_transport:version":"2"},"197493":{"to":"Trinitat Nova","ref":"L11","from":"Can Cuiàs","name":"L11: Trinitat Nova => Can Cuiàs","type":"route","route":"subway","colour":"#9ED74C","name:ca":"L11: Trinitat Nova => Can Cuiàs","network":"Metro de Barcelona","operator":"Transports Metropolitans de Barcelona","wikidata":"Q1419762","wikipedia":"ca:Línia 11 del metro de Barcelona","public_transport:version":"2"},"255088":{"ref":"L1","name":"Línea 1: Ciudad Expo → Olivar de Quintos","type":"route","route":"subway","network":"Metro de Sevilla","operator":"Metro de Sevilla","wikidata":"Q2668472","wikipedia":"es:Línea 1 (Metro de Sevilla)","public_transport:version":"2"},"404372":{"to":"Dénia","ref":"L9","from":"Benidorm","name":"Ferrocarril Alacant-Dénia","type":"route","route":"light_rail","colour":"#706e6d","name:ca":"Ferrocarril Alacant-Dénia","network":"TRAM Metropolità d'Alacant","alt_name":"Trenet de la Marina","loc_name":"Trenet de la Marina","operator":"Ferrocarrils de la Generalitat Valenciana","wikidata":"Q11690013","roundtrip":"yes","wikipedia":"ca:Línia 9 del TRAM Metropolità d'Alacant","network:wikidata":"Q2063567","network:wikipedia":"ca:TRAM Metropolità d'Alacant","operator:wikidata":"Q750832","operator:wikipedia":"ca:Ferrocarrils de la Generalitat Valenciana","public_transport:version":"2"},"1664324":{"to":"Universitat de les Illes Balears","ref":"M1","from":"Estació Intermodal de Palma","name":"Metro M1: Plaça d'Espanya → UIB","type":"route","route":"light_rail","colour":"#f1b03e","name:ca":"Metro M1: Plaça d'Espanya → UIB","network":"Metro de Palma","operator":"Serveis Ferroviaris de Mallorca","wikidata":"Q5985887","wikipedia":"es:Línea M1 (Metro de Palma de Mallorca)","network:wikidata":"Q1130284","network:wikipedia":"ca:Metro de Palma","operator:wikidata":"Q1811123","operator:wikipedia":"ca:Serveis Ferroviaris de Mallorca"},"2063280":{"to":"Gorg","ref":"L10 Nord","from":"La Sagrera","name":"L10 Nord: La Sagrera => Gorg","type":"route","route":"subway","colour":"#00ADEF","name:ca":"L10 Nord: La Sagrera => Gorg","network":"Metro de Barcelona","operator":"Transports Metropolitans de Barcelona","wikidata":"Q1785338","wikipedia":"ca:Línia 10 del metro de Barcelona","network:wikidata":"Q237189","network:wikipedia":"ca:Metro de Barcelona","public_transport:version":"2"},"2063281":{"to":"Can Zam","ref":"L9 Nord","from":"La Sagrera","name":"L9 Nord: La Sagrera => Can Zam","type":"route","route":"subway","colour":"#F6842A","name:ca":"L9 Nord: La Sagrera => Can Zam","network":"Metro de Barcelona","operator":"Transports Metropolitans de Barcelona","wikidata":"Q1577033","wikipedia":"ca:Línia 9 del metro de Barcelona","network:wikidata":"Q237189","network:wikipedia":"ca:Metro de Barcelona","public_transport:version":"2"},"2325279":{"to":"Puerta del Sur","ref":"L12","from":"Puerta del Sur","name":"Línea 12. Metrosur (Dirección Loranca - Andén 2)","type":"route","route":"subway","colour":"#a49a00","network":"Metro de Madrid","interval":"7","operator":"Metro de Madrid","wikidata":"Q1558864","roundtrip":"yes","wikipedia":"es:Línea 12 (Metro de Madrid)","opening_hours":"Mo-Su 06:00-01:30","network:wikidata":"Q191987","network:wikipedia":"es:Metro de Madrid","interval:conditional":"8 @ (Sa-Su 06:00-24:00); 15 @ (Mo-Su 00:00-01:30)","public_transport:version":"2"},"2588492":{"to":"Argüelles","ref":"L4","from":"Pinar de Chamartín","name":"Línea 4: Pinar de Chamartín-Argüelles","type":"route","route":"subway","colour":"#824100","name:es":"Línea 4: Pinar de Chamartín-Argüelles","name:lb":"Linn 4","network":"Metro de Madrid","interval":"5","operator":"Metro de Madrid","wikidata":"Q1826677","wikipedia":"es:Línea 4 (Metro de Madrid)","opening_hours":"Mo-Su 06:00-01:30","network:wikidata":"Q191987","network:wikipedia":"es:Metro de Madrid","interval:conditional":"7 @ (Sa-Su 06:00-24:00); 15 @ (Su-Th 00:00-01:30); 12 @ (Fr-Sa 00:00-01:30)","public_transport:version":"2"},"3113079":{"to":"Hospital Infanta Sofía","ref":"L10","from":"Tres Olivos","name":"Línea 10: Tres Olivos-Hospital Infanta Sofía","type":"route","route":"subway","colour":"#015396","network":"Metro de Madrid","interval":"6","operator":"Metro de Madrid","opening_hours":"Mo-Su 06:00-01:30","network:wikidata":"Q191987","network:wikipedia":"es:Metro de Madrid","interval:conditional":"8 @ (Sa-Su 06:00-24:00); 15 @ (Mo-Su 00:00-01:30)","public_transport:version":"2"},"4484360":{"to":"Atarazanas","ref":"L1","from":"Andalucía Tech","name":"Línea 1","type":"route","route":"light_rail","colour":"#E60000","network":"CTMAM","operator":"Metro de Málaga","wikidata":"Q5392889","wikipedia":"es:Línea 1 (Metro de Málaga)","wheelchair":"yes","public_transport:version":"2"},"4484361":{"to":"Guadalmedina","ref":"L2","from":"Palacio de los Deportes","name":"Línea 2","type":"route","route":"light_rail","colour":"#173BA0","network":"CTMAM","operator":"Metro de Málaga","wikidata":"Q5986162","wikipedia":"es:Línea 2 (Metro de Málaga)","wheelchair":"yes","public_transport:version":"2"},"4635401":{"to":"Marratxí","ref":"M2","from":"Estació Intermodal de Palma","name":"Metro M2: Plaça d'Espanya → Marratxí","type":"route","route":"light_rail","colour":"#e93324","name:ca":"Metro M2: Plaça d'Espanya → Marratxí","network":"Metro de Palma","operator":"Serveis Ferroviaris de Mallorca","wikidata":"Q11180785","wikipedia":"es:Línea M2 (Metro de Palma de Mallorca)","network:wikidata":"Q1130284","network:wikipedia":"ca:Metro de Palma","operator:wikidata":"Q1811123","operator:wikipedia":"ca:Serveis Ferroviaris de Mallorca"},"4671268":{"to":"Paral·lel","ref":"L2","from":"Badalona Pompeu Fabra","name":"L2: Badalona Pompeu Fabra → Paral·lel","type":"route","route":"subway","colour":"#992F9C","name:ca":"L2: Badalona Pompeu Fabra → Paral·lel","network":"Metro de Barcelona","location":"underground","operator":"Transports Metropolitans de Barcelona","wikidata":"Q1348921","wikipedia":"ca:Línia 2 del metro de Barcelona","network:wikidata":"Q237189","network:wikipedia":"ca:Metro de Barcelona","public_transport:version":"2"},"4671320":{"to":"La Pau","ref":"L4","from":"Trinitat Nova","name":"L4: Trinitat Nova => La Pau","type":"route","route":"subway","colour":"#FAB70A","name:ca":"L4: Trinitat Nova => La Pau","network":"Metro de Barcelona","operator":"Transports Metropolitans de Barcelona","wikidata":"Q961384","wikipedia":"ca:Línia 4 del metro de Barcelona","network:wikidata":"Q237189","network:wikipedia":"ca:Metro de Barcelona","public_transport:version":"2"},"4673505":{"to":"La Sagrera","ref":"L10 Nord","from":"Gorg","name":"L10 Nord: Gorg => La Sagrera","type":"route","route":"subway","colour":"#00ADEF","name:ca":"L10 Nord: Gorg => La Sagrera","network":"Metro de Barcelona","operator":"Transports Metropolitans de Barcelona","wikidata":"Q1785338","wikipedia":"ca:Línia 10 del metro de Barcelona","network:wikidata":"Q237189","network:wikipedia":"ca:Metro de Barcelona","public_transport:version":"2"},"4673506":{"to":"Can Cuiàs","ref":"L11","from":"Trinitat Nova","name":"L11: Can Cuiàs => Trinitat Nova","type":"route","route":"subway","colour":"#9ED74C","name:ca":"L11: Can Cuiàs => Trinitat Nova","network":"Metro de Barcelona","operator":"Transports Metropolitans de Barcelona","wikidata":"Q1419762","wikipedia":"ca:Línia 11 del metro de Barcelona","public_transport:version":"2"},"4673507":{"to":"Hospital de Bellvitge","ref":"L1","from":"Fondo","name":"L1: Fondo => Hospital de Bellvitge","type":"route","route":"subway","colour":"#E33638","name:ca":"L1: Fondo => Hospital de Bellvitge","network":"Metro de Barcelona","operator":"Transports Metropolitans de Barcelona","wikidata":"Q1348946","wikipedia":"ca:Línia 1 del metro de Barcelona","network:wikidata":"Q237189","network:wikipedia":"ca:Metro de Barcelona","public_transport:version":"2"},"4673508":{"to":"Trinitat Nova","ref":"L3","from":"Zona Universitària","name":"L3: Trinitat Nova => Zona Universitària","type":"route","route":"subway","colour":"#39AF57","name:ca":"L3: Trinitat Nova => Zona Universitària","network":"Metro de Barcelona","operator":"Transports Metropolitans de Barcelona","wikidata":"Q385168","wikipedia":"ca:Línia 3 del metro de Barcelona","network:wikidata":"Q237189","network:wikipedia":"ca:Metro de Barcelona","public_transport:version":"2"},"4673510":{"to":"Pl. Catalunya","ref":"L6","from":"Sarrià","name":"L6: Sarrià - Pl. Catalunya","type":"route","route":"subway","colour":"#7280C0","name:ca":"L6: Sarrià - Pl. Catalunya","network":"Metro de Barcelona","operator":"Ferrocarrils de la Generalitat de Catalunya","wikidata":"Q1577019","wikipedia":"ca:Línia 6 del metro de Barcelona","network:wikidata":"Q237189","network:wikipedia":"ca:Metro de Barcelona","public_transport:version":"2"},"4673512":{"to":"Plaça Espanya","ref":"L8","from":"Molí Nou - Ciutat Cooperativa","name":"L8: Molí Nou - Ciutat Cooperativa => Pl. Espanya","type":"route","route":"subway","colour":"#D5578F","name:ca":"L8: Molí Nou - Ciutat Cooperativa => Pl. Espanya","network":"Metro de Barcelona","operator":"Ferrocarrils de la Generalitat de Catalunya","wikidata":"Q763319","wikipedia":"ca:Línia 8 del metro de Barcelona","network:wikidata":"Q237189","network:wikipedia":"ca:Metro de Barcelona","public_transport:version":"2"},"4673513":{"to":"La Sagrera","ref":"L9 Nord","from":"Can Zam","name":"L9 Nord: Can Zam => La Sagrera","type":"route","route":"subway","colour":"#F6842A","name:ca":"L9 Nord: Can Zam => La Sagrera","network":"Metro de Barcelona","operator":"Transports Metropolitans de Barcelona","wikidata":"Q1577033","wikipedia":"ca:Línia 9 del metro de Barcelona","network:wikidata":"Q237189","network:wikipedia":"ca:Metro de Barcelona","public_transport:version":"2"},"5402007":{"to":"Barcelona - Plaça Catalunya","ref":"L7","from":"Av. Tibidabo","name":"L7: Av. Tibidabo - Barcelona - Pl. Catalunya","type":"route","route":"subway","colour":"#AC5414","name:ca":"L7: Av. Tibidabo - Barcelona - Pl. Catalunya","network":"Metro de Barcelona","operator":"Ferrocarrils de la Generalitat de Catalunya","wikidata":"Q678390","wikipedia":"ca:Línia 7 del metro de Barcelona","network:wikidata":"Q237189","network:wikipedia":"ca:Metro de Barcelona","public_transport:version":"2"},"5616613":{"to":"Torrent Avinguda","ref":"7","from":"Marítim - Serrería","name":"Línia 7: Marítim => Torrent Avinguda","type":"route","route":"subway","colour":"#f28c00","name:ca":"Línia 7: Marítim => Torrent Avinguda","name:es":"Línea 7: Marítim => Torrente Avenida","network":"Metrovalencia","operator":"Ferrocarrils de la Generalitat Valenciana","wikidata":"Q11690011","wikipedia":"es:Línea 7 (Metrovalencia)","network:wikidata":"Q511171","network:wikipedia":"ca:Metrovalència","operator:wikidata":"Q750832","operator:wikipedia":"ca:Ferrocarrils de la Generalitat Valenciana","public_transport:version":"2"},"5622154":{"to":"Marítim","ref":"5","from":"Aeroport","name":"Línia 5: Aeroport => Marítim","type":"route","route":"subway","colour":"#009870","name:ca":"Línia 5: Aeroport => Marítim","name:es":"Línea 5: Aeropuerto => Marítim","network":"Metrovalencia","operator":"Ferrocarrils de la Generalitat Valenciana","wikidata":"Q3238965","wikipedia":"es:Línea 5 (Metrovalencia)","network:wikidata":"Q511171","network:wikipedia":"ca:Metrovalència","operator:wikidata":"Q750832","operator:wikipedia":"ca:Ferrocarrils de la Generalitat Valenciana","public_transport:version":"2"},"5622180":{"to":"Llíria","ref":"2","from":"Torrent Avinguda","name":"Línia 2: Torrent Avinguda => Llíria","type":"route","route":"subway","colour":"#E70095","name:ca":"Línia 2: Torrent Avinguda => Llíria","name:es":"Línea 2: Torrente Avenida => Liria","network":"Metrovalencia","operator":"Ferrocarrils de la Generalitat Valenciana","wikidata":"Q3832658","wikipedia":"es:Línea 2 (Metrovalencia)","network:wikidata":"Q511171","network:wikipedia":"ca:Metrovalència","operator:wikidata":"Q750832","operator:wikipedia":"ca:Ferrocarrils de la Generalitat Valenciana","public_transport:version":"2"},"5622354":{"to":"Bétera","ref":"1","from":"Castelló","name":"Línia 1: Castelló => Bétera","type":"route","route":"subway","colour":"#FDC600","name:ca":"Línia 1: Castelló => Bétera","name:es":"Línea 1: Castellón => Bétera","network":"Metrovalencia","operator":"Ferrocarrils de la Generalitat Valenciana","wikidata":"Q2165952","wikipedia":"es:Línea 1 (Metrovalencia)","network:wikidata":"Q511171","network:wikipedia":"ca:Metrovalència","operator:wikidata":"Q750832","operator:wikipedia":"ca:Ferrocarrils de la Generalitat Valenciana","public_transport:version":"2"},"5622355":{"to":"Rafelbunyol","ref":"3","from":"Aeroport","name":"Línia 3: Aeroport => Rafelbunyol","type":"route","route":"subway","colour":"#DD052B","name:ca":"Línia 3: Aeroport => Rafelbunyol","name:es":"Línea 3: Aeropuerto => Rafelbuñol","network":"Metrovalencia","operator":"Ferrocarrils de la Generalitat Valenciana","wikidata":"Q3238906","wikipedia":"en:Line 3 (Metrovalencia)","network:wikidata":"Q511171","network:wikipedia":"ca:Metrovalència","operator:wikidata":"Q750832","operator:wikipedia":"ca:Ferrocarrils de la Generalitat Valenciana","public_transport:version":"2"},"5622924":{"to":"Villanueva de Castellón","ref":"1","from":"Bétera","name":"Línia 1: Bétera => Villanueva de Castellón","type":"route","route":"subway","colour":"#FDC600","name:ca":"Línia 1: Bétera => Castelló","name:es":"Línea 1: Bétera => Villanueva de Castellón","network":"Metrovalencia","operator":"Ferrocarrils de la Generalitat Valenciana","wikidata":"Q2165952","wikipedia":"es:Línea 1 (Metrovalencia)","network:wikidata":"Q511171","network:wikipedia":"ca:Metrovalència","operator:wikidata":"Q750832","operator:wikipedia":"ca:Ferrocarrils de la Generalitat Valenciana","public_transport:version":"2"},"5625922":{"to":"Torrent Avinguda","ref":"2","from":"Llíria","name":"Línia 2: Llíria => Torrent Avinguda","type":"route","route":"subway","colour":"#E70095","name:ca":"Línia 2: Llíria => Torrent Avinguda","name:es":"Línea 2: Liria => Torrente Avenida","network":"Metrovalencia","operator":"Ferrocarrils de la Generalitat Valenciana","wikidata":"Q3832658","wikipedia":"es:Línea 2 (Metrovalencia)","network:wikidata":"Q511171","network:wikipedia":"ca:Metrovalència","operator:wikidata":"Q750832","operator:wikipedia":"ca:Ferrocarrils de la Generalitat Valenciana","public_transport:version":"2"},"5625981":{"to":"Aeroport","ref":"3","from":"Rafelbunyol","name":"Línia 3: Rafelbunyol => Aeroport","type":"route","route":"subway","colour":"#DD052B","name:ca":"Línia 3: Rafelbunyol => Aeroport","name:es":"Línea 3: Rafelbuñol => Aeropuerto","network":"Metrovalencia","operator":"Ferrocarrils de la Generalitat Valenciana","wikidata":"Q3238906","wikipedia":"en:Line 3 (Metrovalencia)","network:wikidata":"Q511171","network:wikipedia":"ca:Metrovalència","operator:wikidata":"Q750832","operator:wikipedia":"ca:Ferrocarrils de la Generalitat Valenciana","public_transport:version":"2"},"5626066":{"to":"Aeroport","ref":"5","from":"Marítim","name":"Línia 5: Marítim => Aeroport","type":"route","route":"subway","colour":"#009870","name:ca":"Línia 5: Marítim => Aeroport","name:es":"Línea 5: Marítim => Aeropuerto","network":"Metrovalencia","operator":"Ferrocarrils de la Generalitat Valenciana","wikidata":"Q3238965","wikipedia":"es:Línea 5 (Metrovalencia)","network:wikidata":"Q511171","network:wikipedia":"ca:Metrovalència","operator:wikidata":"Q750832","operator:wikipedia":"ca:Ferrocarrils de la Generalitat Valenciana","public_transport:version":"2"},"5626067":{"to":"Marítim","ref":"7","from":"Torrent Avinguda","name":"Línia 7: Torrent Avinguda => Marítim","type":"route","route":"subway","colour":"#f28c00","name:ca":"Línia 7: Torrent Avinguda => Marítim","name:es":"Línea 7: Torrente Avenida => Marítim","network":"Metrovalencia","operator":"Ferrocarrils de la Generalitat Valenciana","wikidata":"Q11690011","wikipedia":"es:Línea 7 (Metrovalencia)","network:wikidata":"Q511171","network:wikipedia":"ca:Metrovalència","operator:wikidata":"Q750832","operator:wikipedia":"ca:Ferrocarrils de la Generalitat Valenciana","public_transport:version":"2"},"5626068":{"to":"Riba-roja de Túria","ref":"9","from":"Alboraia Peris Aragó","name":"Línia 9: Alboraia Peris Aragó => Riba-roja de Túria","type":"route","route":"subway","colour":"#B7814F","name:ca":"Línia 9: Alboraia Peris Aragó => Riba-roja de Túria","name:es":"Línea 9: Alboraya-Peris Aragó => Ribarroja de Turia","network":"Metrovalencia","operator":"Ferrocarrils de la Generalitat Valenciana","wikidata":"Q18613779","wikipedia":"es:Línea 9 (Metrovalencia)","network:wikidata":"Q511171","network:wikipedia":"ca:Metrovalència","operator:wikidata":"Q750832","operator:wikipedia":"ca:Ferrocarrils de la Generalitat Valenciana","public_transport:version":"2"},"5626069":{"to":"Alboraya-Peris Aragó","ref":"9","from":"Riba-roja de Túria","name":"Línia 9: Riba-roja de Túria => Alboraya-Peris Aragó","type":"route","route":"subway","colour":"#B7814F","name:ca":"Línia 9: Riba-roja de Túria => Alboraia-Peris Aragó","name:es":"Línea 9: Ribarroja de Turia => Alboraya-Peris Aragó","network":"Metrovalencia","operator":"Ferrocarrils de la Generalitat Valenciana","wikidata":"Q18613779","wikipedia":"es:Línea 9 (Metrovalencia)","network:wikidata":"Q511171","network:wikipedia":"ca:Metrovalència","operator:wikidata":"Q750832","operator:wikipedia":"ca:Ferrocarrils de la Generalitat Valenciana","public_transport:version":"2"},"5972745":{"to":"Zona Universitària","ref":"L9 Sud","from":"Aeroport T1","name":"L9 Sud: Aeroport T1 => Zona Universitària","type":"route","route":"subway","colour":"#F6842A","name:ca":"L9 Sud: Aeroport T1 => Zona Universitària","network":"Metro de Barcelona","operator":"Transports Metropolitans de Barcelona","wikidata":"Q1577033","wikipedia":"ca:Línia 9 del metro de Barcelona","network:wikidata":"Q237189","network:wikipedia":"ca:Metro de Barcelona","public_transport:version":"2"},"5972746":{"to":"Aeroport T1","ref":"L9 Sud","from":"Zona Universitària","name":"L9 Sud: Zona Universitària => Aeroport T1","type":"route","route":"subway","colour":"#F6842A","name:ca":"L9 Sud: Zona Universitària => Aeroport T1","network":"Metro de Barcelona","operator":"Transports Metropolitans de Barcelona","wikidata":"Q1577033","wikipedia":"ca:Línia 9 del metro de Barcelona","network:wikidata":"Q237189","network:wikipedia":"ca:Metro de Barcelona","public_transport:version":"2"},"6598364":{"to":"Palacio de los Deportes","ref":"L2","from":"Guadalmedina","name":"Línea 2","type":"route","route":"light_rail","colour":"#173BA0","network":"CTMAM","operator":"Metro de Málaga","wikidata":"Q5986162","wikipedia":"es:Línea 2 (Metro de Málaga)","wheelchair":"yes","public_transport:version":"2"},"6623406":{"to":"Paco de Lucía","ref":"L9","from":"Arganda del Rey","name":"Línea 9: Arganda del Rey-Paco de Lucía","type":"route","route":"subway","colour":"#9C3293","name:es":"Línea 9: Arganda del Rey-Paco de Lucía","name:pl":"Linia 9 metra w Madrycie","network":"Metro de Madrid","interval":"6","operator":"Metro de Madrid","wikipedia":"es:Línea 9 (Metro de Madrid)","opening_hours":"Mo-Su 06:00-01:30","network:wikidata":"Q191987","network:wikipedia":"es:Metro de Madrid","interval:conditional":"8 @ (Sa-Su 06:00-24:00); 15 @ (Mo-Su 00:00-01:30)","public_transport:version":"2"},"6661418":{"to":"Kabiezes","ref":"L2","from":"Basauri","name":"L2 Basauri → Kabiezes","type":"route","route":"subway","colour":"black","network":"Metro Bilbao","operator":"Metro Bilbao S.A.","wikidata":"Q3011583","wikipedia":"es:Línea 2 (Metro de Bilbao)","wheelchair":"yes","public_transport:version":"2"},"6699914":{"to":"Sarrià","ref":"L12","from":"Reina Elisenda","name":"L12: Reina Elisenda - Sarrià","type":"route","route":"subway","colour":"#B2AED3","name:ca":"L12: Reina Elisenda - Sarrià","network":"Metro de Barcelona","operator":"Ferrocarrils de la Generalitat de Catalunya","wikidata":"Q20107064","wikipedia":"ca:Línia 12 del metro de Barcelona","network:wikidata":"Q237189","public_transport:version":"2"},"6699915":{"to":"Reina Elisenda","ref":"L12","from":"Sarrià","name":"L12: Sarrià - Reina Elisenda","type":"route","route":"subway","colour":"#B2AED3","name:ca":"L12: Sarrià - Reina Elisenda","network":"Metro de Barcelona","operator":"Ferrocarrils de la Generalitat de Catalunya","wikidata":"Q20107064","wikipedia":"ca:Línia 12 del metro de Barcelona","network:wikidata":"Q237189","public_transport:version":"2"},"6727389":{"to":"Basauri","ref":"L2","from":"Kabiezes","name":"L2 Kabiezes → Basauri","type":"route","route":"subway","colour":"black","network":"Metro Bilbao","operator":"Metro Bilbao S.A.","wikidata":"Q3011583","wikipedia":"es:Línea 2 (Metro de Bilbao)","wheelchair":"yes","public_transport:version":"2"},"6776360":{"to":"Armilla","ref":"L1","from":"Albolote","name":"Línea 1 - Metro de Granada (Albolote→Armilla)","type":"route","route":"light_rail","colour":"#c00b31","network":"Metro de Granada","duration":"47","interval":"8","operator":"Metro de Granada","wikidata":"Q29634861","wikipedia":"es:Línea 1 (Metro de Granada)","opening_hours":"Mo-Th 06:30-23:00; Fr,Sa 06:30-02:00; Su,PH 06:30-23:00","interval:conditional":"10 @ (Mo-Fr 10:30-13:30); 11 @ (Sa,Su 09:00-20:30); 15 @ (Mo-Fr 06:30-07:30,20:30-23:00; Sa,Su 07:30-09:30); 30 @ (Fr 23:00-02:00; Sa 06:30-07:30,23:00-02:00; Su 06:30-07:30)","public_transport:version":"2"},"7046034":{"to":"Pelagatos","ref":"T1","from":"Cádiz","name":"Trambahía T1: Cádiz → Pelagatos","type":"route","route":"light_rail","network":"Consorcio Metropolitano de Transportes de la Bahía de Cádiz","operator":"Renfe","network:metro":"Trambahía","network:short":"CMTBC","network:wikidata":"Q5784325","operator:wikidata":"Q2476154","network:metro:wikidata":"Q6151804","public_transport:version":"2"},"7106861":{"to":"Ibarbengoa","ref":"L1","from":"Etxebarri","name":"L1 Etxebarri → Ibarbengoa","type":"route","route":"subway","colour":"red","network":"Metro Bilbao","operator":"Metro Bilbao S.A.","wikidata":"Q3011576","wikipedia":"es:Línea 1 (Metro de Bilbao)","wheelchair":"yes","public_transport:version":"2"},"7141755":{"to":"Kukullaga","ref":"L3","from":"Matiko","name":"L3 (Matiko → Kukullaga)","type":"route","route":"subway","colour":"#E3007D","network":"Metro Bilbao","operator":"Eusko Trenbideak","wikidata":"Q2992379","wikipedia":"es:Línea 3 (Metro de Bilbao)","public_transport:version":"2"},"7141756":{"to":"Matiko","ref":"L3","from":"Kukullaga","name":"L3 (Kukullaga → Matiko)","type":"route","route":"subway","colour":"#E3007D","network":"Metro Bilbao","operator":"Eusko Trenbideak","wikidata":"Q2992379","wikipedia":"es:Línea 3 (Metro de Bilbao)","public_transport:version":"2"},"7183554":{"to":"Albolote","ref":"L1","from":"Armilla","name":"Línea 1 - Metro de Granada (Armilla→Albolote)","type":"route","route":"light_rail","colour":"#c00b31","network":"Metro de Granada","duration":"47","interval":"8","operator":"Metro de Granada","wikidata":"Q29634861","wikipedia":"es:Línea 1 (Metro de Granada)","opening_hours":"Mo-Th 06:30-23:00; Fr,Sa 06:30-02:00; Su,PH 06:30-23:00","interval:conditional":"10 @ (Mo-Fr 10:30-13:30); 11 @ (Sa,Su 09:00-20:30); 15 @ (Mo-Fr 06:30-07:30,20:30-23:00; Sa,Su 07:30-09:30); 30 @ (Fr 23:00-02:00; Sa 06:30-07:30,23:00-02:00; Su 06:30-07:30)","public_transport:version":"2"},"7184278":{"to":"Etxebarri","ref":"L1","from":"Ibarbengoa","name":"L1 Ibarbengoa → Etxebarri","type":"route","route":"subway","colour":"red","network":"Metro Bilbao","operator":"Metro Bilbao S.A.","wikidata":"Q3011576","wikipedia":"es:Línea 1 (Metro de Bilbao)","wheelchair":"yes","public_transport:version":"2"},"7184296":{"to":"Larrabasterra","ref":"L1","from":"Etxebarri","name":"L1 Etxebarri → Larrabasterra","type":"route","route":"subway","colour":"red","network":"Metro Bilbao","operator":"Metro Bilbao S.A.","wikidata":"Q3011576","wikipedia":"es:Línea 1 (Metro de Bilbao)","wheelchair":"yes","public_transport:version":"2"},"7184297":{"to":"Etxebarri","ref":"L1","from":"Larrabasterra","name":"L1 Larrabasterra → Etxebarri","type":"route","route":"subway","colour":"red","network":"Metro Bilbao","operator":"Metro Bilbao S.A.","wikidata":"Q3011576","wikipedia":"es:Línea 1 (Metro de Bilbao)","wheelchair":"yes","public_transport:version":"2"},"7184308":{"to":"Etxebarri","ref":"L1","from":"Plentzia","name":"L1 Plentzia → Etxebarri","type":"route","route":"subway","colour":"red","network":"Metro Bilbao","operator":"Metro Bilbao S.A.","wikidata":"Q3011576","wikipedia":"es:Línea 1 (Metro de Bilbao)","wheelchair":"yes","public_transport:version":"2"},"7184309":{"to":"Plentzia","ref":"L1","from":"Etxebarri","name":"L1 Etxebarri → Plentzia","type":"route","route":"subway","colour":"red","network":"Metro Bilbao","operator":"Metro Bilbao S.A.","wikidata":"Q3011576","wikipedia":"es:Línea 1 (Metro de Bilbao)","wheelchair":"yes","public_transport:version":"2"},"7781388":{"ref":"L1","name":"Línea 1: Olivar de Quintos → Ciudad Expo","type":"route","route":"subway","network":"Metro de Sevilla","operator":"Metro de Sevilla","wikidata":"Q2668472","wikipedia":"es:Línea 1 (Metro de Sevilla)","public_transport:version":"2"},"7781441":{"to":"Andalucía Tech","ref":"L1","from":"Atarazanas","name":"Línea 1","type":"route","route":"light_rail","colour":"#E60000","network":"CTMAM","operator":"Metro de Málaga","wikidata":"Q5392889","wikipedia":"es:Línea 1 (Metro de Málaga)","wheelchair":"yes","public_transport:version":"2"},"7781524":{"to":"Marratxí","ref":"M2","from":"Estació Intermodal de Palma","name":"Metro M2: Marratxí → Plaça d'Espanya","type":"route","route":"light_rail","colour":"#e93324","name:ca":"Metro M2: Marratxí → Plaça d'Espanya","network":"Metro de Palma","operator":"Serveis Ferroviaris de Mallorca","wikidata":"Q11180785","wikipedia":"es:Línea M2 (Metro de Palma de Mallorca)","network:wikidata":"Q1130284","network:wikipedia":"ca:Metro de Palma","operator:wikidata":"Q1811123","operator:wikipedia":"ca:Serveis Ferroviaris de Mallorca"},"7781525":{"to":"Universitat de les Illes Balears","ref":"M1","from":"Estació Intermodal de Palma","name":"Metro M1: UIB → Plaça d'Espanya","type":"route","route":"light_rail","colour":"#f1b03e","name:ca":"Metro M1: UIB → Plaça d'Espanya","network":"Metro de Palma","operator":"Serveis Ferroviaris de Mallorca","wikidata":"Q5985887","wikipedia":"es:Línea M1 (Metro de Palma de Mallorca)","network:wikidata":"Q1130284","network:wikipedia":"ca:Metro de Palma","operator:wikidata":"Q1811123","operator:wikipedia":"ca:Serveis Ferroviaris de Mallorca"},"7827779":{"to":"Pinar de Chamartín","ref":"L4","from":"Argüelles","line":"subway","name":"Línea 4: Argüelles-Pinar de Chamartín","type":"route","route":"subway","colour":"#824100","name:es":"Línea 4: Argüelles-Pinar de Chamartín","name:lb":"Linn 4","network":"Metro de Madrid","interval":"5","operator":"Metro de Madrid","opening_hours":"Mo-Su 06:00-01:30","network:wikidata":"Q191987","network:wikipedia":"es:Metro de Madrid","interval:conditional":"7 @ (Sa-Su 06:00-24:00); 15 @ (Su-Th 00:00-01:30); 12 @ (Fr-Sa 00:00-01:30)","public_transport:version":"2"},"7831480":{"to":"Pinar de Chamartín","ref":"L1","from":"Valdecarros","name":"Línea 1: Valdecarros-Pinar de Chamartín","type":"route","route":"subway","colour":"#67C0DD","network":"Metro de Madrid","interval":"5","operator":"Metro de Madrid","wikidata":"Q1826675","opening_hours":"Mo-Su 06:00-01:30","network:wikidata":"Q191987","network:wikipedia":"es:Metro de Madrid","interval:conditional":"7 @ (Sa-Su 06:00-24:00); 10 @ (Fr-Sa 00:00-01:30); 15 @ (Su-Th 00:00-01:30)","public_transport:version":"2"},"7837168":{"to":"Nuevos Ministerios","ref":"L8","from":"Aeropuerto T4","name":"Línea 8: Aeropuerto T4-Nuevos Ministerios","type":"route","route":"subway","colour":"#ff0080","network":"Metro de Madrid","interval":"6","operator":"Metro de Madrid","wikidata":"Q1475527","wikipedia":"es:Línea 8 (Metro de Madrid)","opening_hours":"Mo-Su 06:00-01:30","network:wikidata":"Q191987","network:wikipedia":"es:Metro de Madrid","interval:conditional":"7 @ (Sa-Su 06:00-24:00); 15 @ (Mo-Su 00:00-01:30)","public_transport:version":"2"},"7838613":{"to":"Casa de Campo","ref":"L5","from":"Alameda de Osuna","line":"subway","name":"Línea 5: Alameda de Osuna-Casa de Campo","type":"route","route":"subway","colour":"#96bf0d","network":"Metro de Madrid","interval":"6","operator":"Metro de Madrid","wikidata":"Q1568028","wikipedia":"es:Línea 5 (Metro de Madrid)","opening_hours":"Mo-Su 06:00-01:30","network:wikidata":"Q191987","network:wikipedia":"es:Metro de Madrid","interval:conditional":"7 @ (Sa-Su 06:00-24:00); 15 @ (Mo-Su 00:00-01:30)","public_transport:version":"2"},"7838837":{"to":"Moncloa","ref":"L3","from":"Villaverde Alto","line":"subway","name":"Línea 3: Villaverde Alto-Moncloa","type":"route","route":"subway","colour":"#FFDF00","network":"Metro de Madrid","interval":"5","operator":"Metro de Madrid","wikidata":"Q1826673","wikipedia":"es:Línea 3 (Metro de Madrid)","opening_hours":"Mo-Su 06:00-01:30","network:wikidata":"Q191987","network:wikipedia":"es:Metro de Madrid","interval:conditional":"7 @ (Sa-Su 06:00-24:00); 15 @ (Su-Th 00:00-01:30); 10 @ (Fr-Sa 00:00-01:30)","public_transport:version":"2"},"7838962":{"to":"Cuatro Caminos","ref":"L2","from":"Las Rosas","name":"Línea 2: Las Rosas → Cuatro Caminos","type":"route","route":"subway","colour":"#fb0f0c","name:es":"Línea 2: Las Rosas → Cuatro Caminos","name:pl":"Linia 2 metra w Madrycie","network":"Metro de Madrid","interval":"5","operator":"Metro de Madrid","wikidata":"Q1826679","wikipedia":"es:Línea 2 (Metro de Madrid)","opening_hours":"Mo-Su 06:00-01:30","network:wikidata":"Q191987","network:wikipedia":"es:Metro de Madrid","interval:conditional":"7 @ (Sa-Su 06:00-24:00); 10 @ (Fr-Sa 00:00-01:30); 15 @ (Su-Th 00:00-01:30)","public_transport:version":"2"},"7840622":{"to":"Pitis","ref":"L7","from":"Hospital del Henares","name":"Línea 7: Hospital del Henares-Pitis","type":"route","route":"subway","colour":"#ed7b24","name:es":"Línea 7: Hospital del Henares-Pitis","name:lb":"Linn 7","name:pl":"Linia 7 metra w Madrycie","network":"Metro de Madrid","interval":"6","operator":"Metro de Madrid","wikidata":"Q1826683","wikipedia":"es:Línea 7 (Metro de Madrid)","opening_hours":"Mo-Su 06:00-01:30","network:wikidata":"Q191987","network:wikipedia":"es:Metro de Madrid","interval:conditional":"8 @ (Sa-Su 06:00-24:00); 15 @ (Mo-Su 00:00-01:30)","public_transport:version":"2"},"7840746":{"to":"Ópera","ref":"R","from":"Príncipe Pío","name":"Línea Ramal: Príncipe Pío-Ópera","type":"route","route":"subway","colour":"white","network":"Metro de Madrid","interval":"6","operator":"Metro de Madrid","wikidata":"Q1496137","wikipedia":"es:Ramal (Metro de Madrid)","opening_hours":"Mo-Su 06:00-01:30","network:wikidata":"Q191987","network:wikipedia":"es:Metro de Madrid","interval:conditional":"7 @ (Sa-Su 06:00-24:00); 15 @ (Mo-Su 00:00-01:30)","public_transport:version":"2"},"7841410":{"to":"Puerta del Sur","ref":"L12","from":"Puerta del Sur","name":"Línea 12. Metrosur (Dirección Manuela Malasaña - Andén 1)","type":"route","route":"subway","colour":"#a49a00","network":"Metro de Madrid","interval":"7","operator":"Metro de Madrid","wikidata":"Q1558864","roundtrip":"yes","wikipedia":"es:Línea 12 (Metro de Madrid)","opening_hours":"Mo-Su 06:00-01:30","network:wikidata":"Q191987","network:wikipedia":"es:Metro de Madrid","interval:conditional":"8 @ (Sa-Su 06:00-24:00); 15 @ (Mo-Su 00:00-01:30)","public_transport:version":"2"},"7842093":{"to":"Laguna","ref":"L6","from":"Laguna","name":"Línea 6: Andén 1","type":"route","route":"subway","colour":"#939393","network":"Metro de Madrid","interval":"6","operator":"Metro de Madrid","wikidata":"Q514227","roundtrip":"yes","wikipedia":"es:Línea 6 (Metro de Madrid)","opening_hours":"Mo-Su 06:00-01:30","network:wikidata":"Q191987","network:wikipedia":"es:Metro de Madrid","interval:conditional":"7 @ (Sa-Su 06:00-24:00); 15 @ (Mo-Su 00:00-01:30)","public_transport:version":"2"},"7842126":{"to":"Plaza Elíptica","ref":"L11","from":"La Fortuna","name":"Línea 11: La Fortuna-Plaza Elíptica","type":"route","route":"subway","colour":"#006400","network":"Metro de Madrid","operator":"Metro de Madrid","wikidata":"Q608251","wikipedia":"es:Línea 11 (Metro de Madrid)","opening_hours":"Mo-Su 06:00-01:30","network:wikidata":"Q191987","network:wikipedia":"es:Metro de Madrid","public_transport:version":"2"},"7849380":{"to":"Pinar de Chamartín","ref":"ML1","from":"Las Tablas","name":"Línea ML-1: Las Tablas-Pinar de Chamartín","type":"route","route":"light_rail","colour":"#4682b4","network":"Metro Ligero de Madrid","interval":"9","operator":"Metro de Madrid","wikidata":"Q2058921","wikipedia":"es:Línea 1 (Metro Ligero de Madrid)","opening_hours":"Mo-Su 06:00-01:30","public_transport:version":"2"},"7853071":{"to":"Aravaca","ref":"ML2","from":"Colonia Jardín","name":"Línea ML-2: Colonia Jardín - Estación de Aravaca","type":"route","route":"light_rail","colour":"#660066","network":"Metro Ligero de Madrid","interval":"10","operator":"Metros Ligeros del Oeste","wikidata":"Q3832710","wikipedia":"es:Línea 2 (Metro Ligero de Madrid)","opening_hours":"Mo-Su 06:00-01:30","interval:conditional":"20 @ (Sa-Sa 06:00-22:30); 30 @ (Su-Su 06:00-22:30); 30 @ (Mo-Su 22:30-01:30)","public_transport:version":"2"},"7853482":{"to":"Puerta de Boadilla","ref":"ML3","from":"Colonia Jardín","name":"Línea ML-3: Colonia Jardín-Puerta de Boadilla","type":"route","route":"light_rail","colour":"#FF0000","network":"Metro Ligero de Madrid","interval":"10","operator":"Metros Ligeros del Oeste","wikidata":"Q3832709","wikipedia":"es:Línea 3 (Metro Ligero de Madrid)","opening_hours":"Mo-Su 06:00-01:30","interval:conditional":"20 @ (Sa-Sa 06:00-22:30); 30 @ (Su-Su 06:00-22:30); 30 @ (Mo-Su 22:30-01:30)","public_transport:version":"2"},"8663603":{"to":"ZA"},"8663604":{"to":"Collblanc","ref":"L10 Sud","from":"ZA"},"14614365":{"to":"Puerta del Sur","ref":"L10","from":"Tres Olivos","name":"Línea 10: Tres Olivos-Puerta del Sur","type":"route","route":"subway","colour":"#015396","network":"Metro de Madrid","interval":"6","operator":"Metro de Madrid","wikidata":"Q1760090","wikipedia":"es:Línea 10 (Metro de Madrid)","opening_hours":"Mo-Su 06:00-01:30","network:wikidata":"Q191987","network:wikipedia":"es:Metro de Madrid","interval:conditional":"8 @ (Sa-Su 06:00-24:00); 15 @ (Mo-Su 00:00-01:30)","public_transport:version":"2"},"14614366":{"to":"Tres Olivos","ref":"L10","from":"Puerta del Sur","name":"Línea 10: Puerta del Sur-Tres Olivos","type":"route","route":"subway","colour":"#015396","network":"Metro de Madrid","interval":"6","operator":"Metro de Madrid","opening_hours":"Mo-Su 06:00-01:30","network:wikidata":"Q191987","network:wikipedia":"es:Metro de Madrid","interval:conditional":"8 @ (Sa-Su 06:00-24:00); 15 @ (Mo-Su 00:00-01:30)","public_transport:version":"2"}}