{"2390282":{"to":"Vuosaari","ref":"M1","from":"Kivenlahti","name":"M1 Kivenlahti–Vuosaari","type":"route","route":"subway","name:fi":"M1 Kivenlahti–Vuosaari","name:sv":"M1 Stensvik–Nordsjö","network":"HSL","interval":"7","operator":"HKL-Metroliikenne","wikidata":"Q56399711","interval:peak":"5","interval:sunday":"10","public_transport:version":"2"},"2390310":{"to":"Kivenlahti","ref":"M1","from":"Vuosaari","name":"M1 Vuosaari–Kivenlahti","type":"route","route":"subway","name:fi":"M1 Vuosaari–Kivenlahti","name:sv":"M1 Nordsjö–Stensvik","network":"HSL","interval":"7","operator":"HKL-Metroliikenne","wikidata":"Q56399711","interval:peak":"5","interval:sunday":"10","public_transport:version":"2"},"2390349":{"to":"Mellunmäki","ref":"M2","from":"Tapiola","name":"M2 Tapiola–Mellunmäki","type":"route","route":"subway","name:fi":"M2 Tapiola–Mellunmäki","name:sv":"M2 Hagalund–Mellungsbacka","network":"HSL","interval":"7","operator":"HKL-Metroliikenne","wikidata":"Q56399732","wheelchair":"yes","interval:peak":"5","interval:sunday":"10","public_transport:version":"2"},"2390370":{"to":"Tapiola","ref":"M2","from":"Mellunmäki","name":"M2 Mellunmäki–Tapiola","type":"route","route":"subway","name:fi":"M2 Mellunmäki–Tapiola","name:sv":"M2 Mellungsbacka–Hagalund","network":"HSL","interval":"7","operator":"HKL-Metroliikenne","wikidata":"Q56399732","wheelchair":"yes","interval:peak":"5","interval:sunday":"10","public_transport:version":"2"}}