{"113903":{"to":"Gare de Vénissieux","ref":"D","from":"Gare de Vaise","name":"Ligne D : Gare de Vaise ⇒ Gare de Vénissieux","type":"route","route":"subway","colour":"#00AC4D","network":"TCL","website":"https://www.tcl.fr/lignes/metro-d","operator":"Keolis Lyon","wikidata":"Q2976","wikipedia":"fr:Ligne D du métro de Lyon","wheelchair":"yes","network:website":"https://www.tcl.fr/","network:wikidata":"Q8700","operator:wikidata":"Q61456136","public_transport:version":"2"},"443279":{"to":"押上","ref":"Z","from":"渋谷","name":"東京メトロ半蔵門線 : 渋谷→押上","type":"route","route":"subway","colour":"#8F76D6","name:en":"Tokyo Metro Hanzōmon Line (Shibuya --> Oshiage)","name:es":"Línea Hanzōmon de Tokyo Metro (Shibuya --> Oshiage)","name:ja":"東京メトロ半蔵門線 : 渋谷→押上","name:ru":"Линия метро Хандзомон (Z)","network":"東京メトロ","distance":"16.8","duration":"30","interval":"3","operator":"Tokyo Metro","wikidata":"Q1376030","wikipedia":"en:Tokyo Metro Hanzōmon Line","network:en":"Tokyo Metro","network:ja":"東京メトロ","official_ref":"11","interval:peak":"2","opening_hours":"Mo-Su 05:00-23:59","source:colour":"https://developer.tokyometroapp.jp/guideline","source:distance":"Wikipedia","network:wikidata":"Q682894","network:wikipedia":"ja:東京地下鉄","interval:conditional":"6 @ Mo-Fr 05:00-05:59; 7 @ Sa-Su 05:00-05:59; 4 @ Mo-Fr 06:00-08:09; 2 @ Mo-Fr 08:10-09:50, 16:50-17:50; 6 @ Sa-Su 06:00-08:09; 5 @ Sa-Su 08:10-09:50; 4 @ Mo-Su 21:00-23:00; 5 @ Mo-Su 23:00-23:59","public_transport:version":"2"},"1660621":{"to":"Wedel","ref":"S1","from":"Poppenbüttel","name":"S1: Poppenbüttel => Wedel","type":"route","route":"light_rail","colour":"#33b540","network":"Hamburger Verkehrsverbund","operator":"S-Bahn Hamburg GmbH","wikidata":"Q19377130","network:short":"HVV","network:wikidata":"Q896916","network:wikipedia":"de:Hamburger Verkehrsverbund","operator:wikidata":"Q99869216","public_transport:version":"2"},"2678986":{"to":"U Rudow","ref":"U7","from":"S+U Rathaus Spandau","name":"U7: S+U Rathaus Spandau => U Rudow","type":"route","route":"subway","colour":"#0B9ADA","network":"Verkehrsverbund Berlin-Brandenburg","interval":"4","operator":"Berliner Verkehrsbetriebe","network:metro":"u-bahn","network:short":"VBB","operator:short":"BVG","network:wikidata":"Q315451","network:wikipedia":"de:Verkehrsverbund Berlin-Brandenburg","operator:wikidata":"Q99633","operator:wikipedia":"de:Berliner Verkehrsbetriebe","public_transport:version":"2"},"3094380":{"ref":"15","name":"Ligne 15","type":"route","route":"subway","colour":"#B90845","network":"Ligne 15","location":"underground","operator":"Retenu pour l'instant par IDF Mobilités","wikidata":"Q3240151","wikipedia":"fr:Ligne 15 du métro de Paris","construction":"subway","old_description":"Ancien nom donné : Ligne Rouge - Grand Paris Express","construction:route":"subway"},"6264657":{"to":"Walnut Hill/Denton","ref":"GREEN","from":"North Carrollton/Frankford","name":"Green Line: North Carrollton/Frankford => Walnut Hill/Denton","type":"route","route":"light_rail","colour":"#00873F","network":"DART","website":"https://www.dart.org/riding/dartrailgreenline.asp","operator":"Dallas Area Rapid Transit","wikidata":"Q5602816","network:wikidata":"Q380660","network:wikipedia":"en:Dallas Area Rapid Transit","operator:wikidata":"Q380660","public_transport:version":"2"},"6264658":{"to":"Fair Park","ref":"GREEN","from":"North Carrollton/Frankford","name":"Green Line: North Carrollton/Frankford => Fair Park","type":"route","route":"light_rail","colour":"#00873F","network":"DART","website":"https://www.dart.org/riding/dartrailgreenline.asp","operator":"Dallas Area Rapid Transit","wikidata":"Q5602816","network:wikidata":"Q380660","network:wikipedia":"en:Dallas Area Rapid Transit","operator:wikidata":"Q380660","public_transport:version":"2"},"6264659":{"to":"Buckner","ref":"GREEN","from":"North Carrollton/Frankford","name":"Green Line: North Carrollton/Frankford => Buckner","type":"route","route":"light_rail","colour":"#00873F","network":"DART","website":"https://www.dart.org/riding/dartrailgreenline.asp","operator":"Dallas Area Rapid Transit","wikidata":"Q5602816","network:wikidata":"Q380660","network:wikipedia":"en:Dallas Area Rapid Transit","operator:wikidata":"Q380660","public_transport:version":"2"},"7734076":{"ref":"2","line":"Автозаводская","name":"Аўтазаводская лінія","type":"route","route":"subway","colour":"red","name:be":"Аўтазаводская лінія","name:ru":"Автозаводская линия","name:uk":"Автозаводська лінія","network":"Минский метрополитен","operator":"ГП «Минский метрополитен»","wikidata":"Q2638932","wikipedia":"be:Аўтазаводская лінія (Мінск)","network:be":"Мінскі метрапалітэн","public_transport:version":"2"},"15633888":{"ref":"FUN ARC BGSM","name":"FUN ARC BGSM","type":"route","route":"light_rail","network":"Paradiski","operator":"Compagnie des Alpes"}}