{"73679":{"ref":"1","name":"ახმეტელი-ვარკეთილის ხაზი: ვარკეთილი → ახმეტელის თეატრი","type":"route","route":"subway","colour":"#FF0000","name:ka":"ახმეტელი-ვარკეთილის ხაზი: ვარკეთილი → ახმეტელის თეატრი","name:ru":"Ахметели-Варкетилская линия: Варкетили → Театр Ахметели","network":"თბილისის მეტროპოლიტენი","operator":"Tbilisis Metropoliteni Ltd.","wikidata":"Q340562","wikipedia":"en:Akhmeteli–Varketili Line"},"2050846":{"ref":"2","name":"საბურთალოს ხაზი: სახელმწიფო უნივერსიტეტი → სადგურის მოედანი-2","type":"route","route":"subway","colour":"green","name:ru":"Сабурталинская линия: Государственный университет → Вокзальная площадь-2","network":"თბილისის მეტროპოლიტენი","wikidata":"Q2210273","wikipedia":"en:Saburtalo Line"},"7786075":{"ref":"2","name":"საბურთალოს ხაზი: სადგურის მოედანი-2 → სახელმწიფო უნივერსიტეტი","type":"route","route":"subway","colour":"green","name:ka":"საბურთალოს ხაზი: სადგურის მოედანი-2 → სახელმწიფო უნივერსიტეტი","name:ru":"Сабурталинская линия: Вокзальная площадь-2 → Государственный университет","network":"თბილისის მეტროპოლიტენი","wikidata":"Q2210273","wikipedia":"en:Saburtalo Line"},"7786076":{"ref":"1","name":"ახმეტელი-ვარკეთილის ხაზი: ახმეტელის თეატრი → ვარკეთილი","type":"route","route":"subway","colour":"#FF0000","name:ka":"ახმეტელი-ვარკეთილის ხაზი: ახმეტელის თეატრი → ვარკეთილი","name:ru":"Ахметели-Варкетилская линия: Театр Ахметели → Варкетили","network":"თბილისის მეტროპოლიტენი","operator":"Tbilisis Metropoliteni Ltd.","wikidata":"Q340562","wikipedia":"en:Akhmeteli–Varketili Line"},"16248679":{"name":"Афон Ҿыц аҳаҧытә метро","type":"route","route":"subway","name:ab":"Афон Ҿыц аҳаҧытә метро","name:de":"Metro Nowy Afon","name:en":"New Athos Cave Railway","name:ka":"ახალი ათონის მღვიმური რკინიგზა","name:ru":"Новоафонская пещерная железная дорога","name:uk":"Новоафонська печерна залізниця","wikidata":"Q3333799","roundtrip":"yes","wikipedia":"ru:Новоафонская пещерная железная дорога","public_transport:version":"2"}}