{"445858":{"to":"Κηφισιά","ref":"Μ1","from":"Πειραιάς","name":"Μετρό Μ1: Πειραιά → Κηφισιά","type":"route","route":"subway","colour":"#007A33","name:ca":"Metro Μ1: El Pireu → Kifisia","name:de":"U-Bahn Μ1: Piräus → Kifisia","name:el":"Μετρό Μ1: Πειραιά → Κηφισιά","name:en":"Metro Μ1: Piraeus → Kifissia","name:fr":"Métro Μ1: Le Pirée → Céphisie","network":"Μετρό Αθήνας","alt_name":"Ηλεκτρικός","old_name":"ΗΣΑΠ","operator":"ΣΤΑΣΥ","wikidata":"Q6553095","wikipedia":"el:Γραμμή Ηλεκτρικού (Μετρό Αθήνας)","start_date":"1860-02-27","wheelchair":"yes","alt_name:ca":"L'elèctric","alt_name:de":"Electrikos","alt_name:el":"Ηλεκτρικός","alt_name:en":"Electrikos","alt_name:fr":"L'électrique","network:wikidata":"Q336488","network:wikipedia":"el:Μετρό Αθήνας","operator:wikidata":"Q109331635","operator:wikipedia":"el:Σταθερές Συγκοινωνίες","public_transport:version":"2"},"445945":{"to":"Αεροδρόμιο","ref":"Μ3","from":"Δημοτικό Θέατρο","name":"Μετρό Μ3: Δημοτικό Θέατρο → Αεροδρόμιο","type":"route","route":"subway","colour":"#10069F","name:ca":"Metro Μ3: Dimotiko Theatro → Aeroport","name:de":"U-Bahn Μ3: Dimotiko Theatro → Flughafen","name:el":"Μετρό Μ3: Δημοτικό Θέατρο → Αεροδρόμιο","name:en":"Metro Μ3: Dimotiko Theatro → Airport","name:fr":"Métro Μ3: Dimotiko Theatro → Aéroport","network":"Μετρό Αθήνας","operator":"ΣΤΑΣΥ","wikidata":"Q6553119","wikipedia":"el:Γραμμή 3 (Μετρό Αθήνας)","start_date":"2004-07-30","wheelchair":"yes","network:wikidata":"Q336488","network:wikipedia":"el:Μετρό Αθήνας","operator:wikidata":"Q109331635","operator:wikipedia":"el:Σταθερές Συγκοινωνίες","public_transport:version":"2"},"3095900":{"to":"Ανθούπολη","ref":"Μ2","from":"Ελληνικό","name":"Μετρό Μ2: Ελληνικό → Ανθούπολη","type":"route","route":"subway","colour":"#DA291C","name:ca":"Metro Μ2: Elliniko → Anthoupoli","name:de":"U-Bahn Μ2: Elliniko → Anthoupoli","name:el":"Μετρό Μ2: Ελληνικό → Ανθούπολη","name:en":"Metro Μ2: Elliniko → Anthoupoli","name:fr":"Métro Μ2: Elliniko → Anthoupoli","network":"Μετρό Αθήνας","operator":"ΣΤΑΣΥ","wikidata":"Q9295813","wikipedia":"el:Γραμμή 2 (Μετρό Αθήνας)","start_date":"2000-01-28","wheelchair":"yes","network:wikidata":"Q336488","network:wikipedia":"el:Μετρό Αθήνας","operator:wikidata":"Q109331635","operator:wikipedia":"el:Σταθερές Συγκοινωνίες","public_transport:version":"2"},"3165353":{"to":"Δουκίσσης Πλακεντίας","ref":"Μ3","from":"Δημοτικό Θέατρο","name":"Μετρό Μ3: Δημοτικό Θέατρο → Δουκίσσης Πλακεντίας","type":"route","route":"subway","colour":"#10069F","name:ca":"Metro Μ3: Dimotiko Theatro → Doukissis Plakentias","name:de":"U-Bahn Μ3: Dimotiko Theatro → Doukissis Plakentias","name:el":"Μετρό Μ3: Δημοτικό Θέατρο → Δουκίσσης Πλακεντίας","name:en":"Metro Μ3: Dimotiko Theatro → Doukissis Plakentias","name:fr":"Métro Μ3: Dimotiko Theatro → Doukissis Plakentias","network":"Μετρό Αθήνας","operator":"ΣΤΑΣΥ","wikidata":"Q6553119","wikipedia":"el:Γραμμή 3 (Μετρό Αθήνας)","start_date":"2000-01-28","wheelchair":"yes","network:wikidata":"Q336488","network:wikipedia":"el:Μετρό Αθήνας","operator:wikidata":"Q109331635","operator:wikipedia":"el:Σταθερές Συγκοινωνίες","public_transport:version":"2"},"6152448":{"to":"Νέα Ελβετία","from":"Νέος Σιδηροδρομικός Σταθμός (Ν.Σ.Σ.)","name":"Βασική Γραμμή Μετρό (Ν.Σ.Σ. - Νέα Ελβετία)","type":"route","route":"subway","colour":"#ff0000","wikidata":"Q56277837"},"7885077":{"to":"Νέος Σιδηροδρομικός Σταθμός (Ν.Σ.Σ.)","from":"Νέα Ελβετία","name":"Βασική Γραμμή Μετρό (Νέα Ελβετία - Ν.Σ.Σ.)","type":"route","route":"subway","colour":"#ff0000","wikidata":"Q56277837"},"7898294":{"to":"Μίκρα","from":"Νέος Σιδηροδρομικός Σταθμός (Ν.Σ.Σ.)","name":"Γραμμή Μετρό Καλαμαριάς (Ν.Σ.Σ. - Μίκρα)","type":"route","route":"subway","colour":"#0070ff","wikidata":"Q56277844"},"7927355":{"to":"Δημοτικό Θέατρο","ref":"Μ3","from":"Δουκίσσης Πλακεντίας","name":"Μετρό Μ3: Δουκίσσης Πλακεντίας → Δημοτικό Θέατρο","type":"route","route":"subway","colour":"#10069F","name:ca":"Metro Μ3: Doukissis Plakentias → Dimotiko Theatro","name:de":"U-Bahn Μ3: Doukissis Plakentias → Dimotiko Theatro","name:el":"Μετρό Μ3: Δουκίσσης Πλακεντίας → Δημοτικό Θέατρο","name:en":"Metro Μ3: Doukissis Plakentias → Dimotiko Theatro","name:fr":"Métro Μ3: Doukissis Plakentias → Dimotiko Theatro","network":"Μετρό Αθήνας","operator":"ΣΤΑΣΥ","wikidata":"Q6553119","wikipedia":"el:Γραμμή 3 (Μετρό Αθήνας)","start_date":"2000-01-28","wheelchair":"yes","network:wikidata":"Q336488","network:wikipedia":"el:Μετρό Αθήνας","operator:wikidata":"Q109331635","operator:wikipedia":"el:Σταθερές Συγκοινωνίες","public_transport:version":"2"},"7963473":{"to":"Πειραιάς","ref":"Μ1","from":"Κηφισιά","name":"Μετρό Μ1: Κηφισιά → Πειραιά","type":"route","route":"subway","colour":"#007A33","name:ca":"Metro Μ1: Kifisia → El Pireu","name:de":"U-Bahn Μ1: Kifisia → Piräus","name:el":"Μετρό Μ1: Κηφισιά → Πειραιά","name:en":"Metro Μ1: Kifissia → Piraeus","name:fr":"Métro Μ1: Céphisie → Le Pirée","network":"Μετρό Αθήνας","alt_name":"Ηλεκτρικός","old_name":"ΗΣΑΠ","operator":"ΣΤΑΣΥ","wikidata":"Q6553095","wikipedia":"el:Γραμμή Ηλεκτρικού (Μετρό Αθήνας)","start_date":"1860-02-27","wheelchair":"yes","alt_name:ca":"L'elèctric","alt_name:de":"Electrikos","alt_name:el":"Ηλεκτρικός","alt_name:en":"Electrikos","alt_name:fr":"L'électrique","network:wikidata":"Q336488","network:wikipedia":"el:Μετρό Αθήνας","operator:wikidata":"Q109331635","operator:wikipedia":"el:Σταθερές Συγκοινωνίες","public_transport:version":"2"},"7963539":{"to":"Ελληνικό","ref":"Μ2","from":"Ανθούπολη","name":"Μετρό Μ2: Ανθούπολη → Ελληνικό","type":"route","route":"subway","colour":"#DA291C","name:ca":"Metro Μ2: Anthoupoli → Elliniko","name:de":"U-Bahn Μ2: Anthoupoli → Elliniko","name:el":"Μετρό Μ2: Ανθούπολη → Ελληνικό","name:en":"Metro Μ2: Anthoupoli → Elliniko","name:fr":"Métro Μ2: Anthoupoli → Elliniko","network":"Μετρό Αθήνας","operator":"ΣΤΑΣΥ","wikidata":"Q9295813","wikipedia":"el:Γραμμή 2 (Μετρό Αθήνας)","start_date":"2000-01-28","wheelchair":"yes","network:wikidata":"Q336488","network:wikipedia":"el:Μετρό Αθήνας","operator:wikidata":"Q109331635","operator:wikipedia":"el:Σταθερές Συγκοινωνίες","public_transport:version":"2"}}