{"9677669":{"to":"Bundaran HI","ref":"NS","from":"Lebak Bulus","name":"MRT North-South Line (Lebak Bulus → Bundaran HI)","type":"route","route":"subway","colour":"#CE0037","name:id":"Lin Utara—Selatan MRT (Lebak Bulus → Bundaran HI)","network":"MRT Jakarta","operator":"Moda Raya Terpadu Jakarta","wikidata":"Q60608236","description":"From Lebak Bulus to Bundaran HI","public_transport:version":"2"},"9677670":{"to":"Lebak Bulus","ref":"NS","from":"Bundaran HI","name":"North-South Line (Bundaran HI → Lebak Bulus)","type":"route","route":"subway","colour":"#CE0037","name:id":"Lin Utara—Selatan MRT (Bundaran HI → Lebak Bulus)","network":"MRT Jakarta","operator":"Moda Raya Terpadu Jakarta","wikidata":"Q60608236","wikipedia":"id:Lin Utara–Selatan (MRT Jakarta)","description":"From Bundaran HI to Lebak Bulus","public_transport:version":"2"},"9732461":{"to":"Bandara","ref":"1","from":"DJKA","name":"LRT Palembang (DJKA -> Bandara)","note":"See blue line in https://lrtpalembang.com/peta-lrt-palembang/","type":"route","route":"light_rail","colour":"blue","network":"LRT Palembang","distance":"23.4","operator":"Indonesian Railway Company","public_transport:version":"2"},"9732463":{"to":"Depo","ref":"1","from":"Bandara","name":"LRT Palembang (Bandara -> DJKA)","note":"See blue line in https://lrtpalembang.com/peta-lrt-palembang/","type":"route","route":"light_rail","colour":"blue","network":"LRT Palembang","distance":"23.4","operator":"Kereta Api Indonesia","public_transport:version":"2"},"10693119":{"ref":"LRT","name":"LRT Jakarta","type":"route","route":"light_rail","colour":"lightblue","name:en":"Jakarta LRT","name:id":"LRT Jakarta","network":"LRT Jakarta","wikidata":"Q65762187","public_transport:version":"2"},"10693160":{"ref":"LRT","name":"LRT Jakarta","type":"route","route":"light_rail","colour":"lightblue","name:en":"Jakarta LRT","name:id":"LRT Jakarta","network":"LRT Jakarta","wikidata":"Q65762187","public_transport:version":"2"}}