{"2224880":{"name":"מערכת להסעת המונים במטרופולין תל אביב - הקו האדום","note":"still under construction. Should be finished in 2021-2025","type":"route","route":"light_rail","state":"construction","colour":"red","name:de":"Rote Linie (Stadtbahn)","name:en":"Red line LRT (light railroad)","name:he":"מערכת להסעת המונים במטרופולין תל אביב - הקו האדום","network":"Tel Aviv LRT","part_of":"Tel_Aviv_Light_Rail","wikidata":"Q7304510","wikipedia":"he:מערכת להסעת המונים במטרופולין תל אביב - הקו האדום"},"2728629":{"name":"כרמלית","type":"route","route":"subway","length":"1800","name:en":"Carmelit","name:he":"כרמלית","website":"http://www.carmelithaifa.co.il/","operator":"Ha Carmelit Haifa ltd.","wikidata":"Q715213","wikipedia":"en:Carmelit","start_date":"1959","length_unit":"m"},"6263739":{"name":"כרמלית","type":"route","route":"subway","name:en":"Carmelit","name:he":"כרמלית"},"9111705":{"name":"מערכת להסעת המונים במטרופולין תל אביב - הקו הסגול","type":"route","route":"light_rail","state":"proposed","colour":"purple","name:en":"Purple line LRT (light railroad)","name:he":"מערכת להסעת המונים במטרופולין תל אביב - הקו הסגול","network":"Tel Aviv LRT","wikidata":"Q27149961","wikipedia":"he:מערכת להסעת המונים במטרופולין תל אביב - הקו הסגול"},"9194005":{"name":"מערכת להסעת המונים במטרופולין תל אביב - הקו הירוק","type":"route","route":"light_rail","name:en":"Green Line (Tel Aviv Light Rail)","name:he":"מערכת להסעת המונים במטרופולין תל אביב - הקו הירוק","network":"Tel Aviv LRT","wikidata":"Q12409381","wikipedia":"he:מערכת להסעת המונים במטרופולין תל אביב - הקו הירוק"}}