{"447209":{"ref":"Blue Line","name":"Blue Line (Noida Electronic City --> Dwarka Sector 21)","note":"Contributors are requested to not edit the \\\"network\\\" and the \\\"operator\\\" tags. (2023/06/22)","type":"route","route":"subway","colour":"#4169E1","network":"Delhi Metro","operator":"Delhi Metro Rail Corporation Limited","wikidata":"Q1029921","network:wikidata":"Q271195","network:wikipedia":"hi:दिल्ली मेट्रो","operator:wikidata":"Q1029339","operator:wikipedia":"en:Delhi Metro Rail Corporation","public_transport:version":"2"},"447210":{"ref":"Yellow Line","name":"Yellow Line (Samaypur Badli --> HUDA City Centre)","note":"Contributors are requested to not edit the \\\"network\\\" and the \\\"operator\\\" tags. (2023/06/22)","type":"route","route":"subway","colour":"#FFDF00","network":"Delhi Metro","operator":"Delhi Metro Rail Corporation Limited","wikidata":"Q795156","network:wikidata":"Q271195","network:wikipedia":"hi:दिल्ली मेट्रो","operator:wikidata":"Q1029339","operator:wikipedia":"en:Delhi Metro Rail Corporation","public_transport:version":"2"},"447214":{"to":"Shaheed Sthal","ref":"1","from":"Rithala","name":"Red Line (Rithala → Shaheed Sthal)","note":"Contributors are requested to not edit the \\\"network\\\" and the \\\"operator\\\" tags. (2023/06/22)","type":"route","route":"subway","colour":"#FF4040","network":"Delhi Metro","operator":"Delhi Metro Rail Corporation Limited","wikidata":"Q3278367","network:wikidata":"Q271195","network:wikipedia":"hi:दिल्ली मेट्रो","operator:wikidata":"Q1029339","operator:wikipedia":"en:Delhi Metro Rail Corporation","public_transport:version":"2"},"1798771":{"ref":"Purple","name":"Purple Line (Baiyyappanahalli → Kengeri)","type":"route","route":"subway","colour":"#e542de","name:kn":"ನೇರಳೆ ಪಥ (ಬೈಯಪ್ಪನಹಳ್ಳಿ -> ಕೆಂಗೇರಿ)","network":"Namma Metro","operator":"BMRCL","wikidata":"Q7261433","wikipedia":"en:Purple Line (Namma Metro)","public_transport:version":"2"},"1798772":{"to":"Nagasandra","ref":"Green","from":"Silk Institute","name":"Green Line (Silk Institute -> Nagasandra)","type":"route","route":"subway","colour":"#009933","name:kn":"ಹಸಿರು ಪಥ (ರೇಷ್ಮೆ ಸಂಸ್ಥೆ -> ನಾಗಸಂದ್ರ)","network":"Namma Metro","operator":"BMRCL","wikidata":"Q17054000","wikipedia":"en:Green Line (Namma Metro)","public_transport:version":"2"},"2535795":{"ref":"Blue Line","name":"Blue Line (Yamuna Bank --> Vaishali)","note":"Contributors are requested to not edit the \\\"network\\\" and the \\\"operator\\\" tags. (2023/06/22)","type":"route","route":"subway","colour":"#4169e1","network":"Delhi Metro","operator":"Delhi Metro Rail Corporation Limited","wikidata":"Q1029921","wikipedia":"en:Blue Line (Delhi Metro)","network:wikidata":"Q271195","operator:wikidata":"Q1029339","public_transport:version":"2"},"2535796":{"ref":"Green Line","name":"Green Line (Kirti Nagar => Ashok Park Main)","note":"Contributors are requested to not edit the \\\"network\\\" and the \\\"operator\\\" tags. (2023/06/22)","type":"route","route":"subway","colour":"#008000","network":"Delhi Metro","operator":"Delhi Metro Rail Corporation Limited","wikidata":"Q5602820","wikipedia":"en:Green Line (Delhi Metro)","network:wikidata":"Q271195","operator:wikidata":"Q1029339","public_transport:version":"2"},"2535797":{"to":"Raja Nahar Singh","ref":"Violet Line","from":"Kashmere Gate","name":"Violet Line (Kashmere Gate --> Raja Nahar Singh)","note":"Contributors are requested to not edit the \\\"network\\\" and the \\\"operator\\\" tags. (2023/06/22)","type":"route","route":"subway","colour":"#553592","network":"Delhi Metro","operator":"Delhi Metro Rail Corporation Limited","wikidata":"Q3634451","wikipedia":"en:Violet Line (Delhi Metro)","network:wikidata":"Q271195","network:wikipedia":"hi:दिल्ली मेट्रो","operator:wikidata":"Q1029339","operator:wikipedia":"en:Delhi Metro Rail Corporation","public_transport:version":"2"},"2535798":{"ref":"AEx","name":"Airport Express Line (Dwarka Sector 21 --> New Delhi Airport Express Terminal)","note":"Contributors are requested to not edit the \\\"network\\\" and the \\\"operator\\\" tags. (2023/06/22)","type":"route","route":"subway","colour":"#FF8C00","network":"Delhi Metro","operator":"Delhi Metro Rail Corporation Limited","wikidata":"Q5253735","wikipedia":"en:Delhi Airport Metro Express","network:wikidata":"Q271195","operator:wikidata":"Q1029339","public_transport:version":"2"},"3537978":{"ref":"9","name":"Grey Line (Dwarka --> Dhansa Bus Stand)","note":"Contributors are requested to not edit the \\\"network\\\" and the \\\"operator\\\" tags. (2023/06/22)","type":"route","route":"subway","colour":"#838996","network":"Delhi Metro","operator":"Delhi Metro Rail Corporation Limited","wikidata":"Q47100305","wikipedia":"en:Grey Line (Delhi Metro)","network:wikidata":"Q271195","operator:wikidata":"Q1029339","public_transport:version":"2"},"3808111":{"to":"Ghatkopar","ref":"1","from":"Versova","name":"Line 1 (Versova → Ghatkopar)","type":"route","route":"subway","colour":"blue","name:mr":"लाईन १ (वर्सोवा → घाटकोपर)","network":"Mumbai Metro","interval":"5","operator":"MMRDA","wikidata":"Q6553099","wikipedia":"en:Line 1 (Mumbai Metro)","opening_hours":"5:30-24:00","public_transport:version":"2"},"4481323":{"ref":"RMGL","name":"Rapid MetroRail Gurgaon: S55 → Sikandarpur","type":"route","route":"subway","colour":"gray","network":"Rapid Metro Gurgaon","operator":"Rapid Metro Gurgaon Ltd.","wikidata":"Q7294170","wikipedia":"en:Rapid Metro Gurgaon","public_transport:version":"2"},"5250264":{"to":"Badi Chaupar","ref":"Pink Line","from":"Mansarovar","name":"Pink Line (Mansarovar --> Badi Chaupar)","type":"route","route":"subway","colour":"#ff748c","name:hi":"पिंक लाइन: मानसरोवर => बड़ी चौपाड़","network":"Jaipur Metro","interval":"00:15","operator":"JMRC","wikidata":"Q17053988","wikipedia":"en:Pink Line (Jaipur Metro)","public_transport:version":"2"},"5468841":{"to":"Nagole","ref":"3","from":"Raidurg","name":"Blue Line (Raidurg –-> Nagole)","type":"route","route":"subway","colour":"blue","network":"Hyderabad Metro","operator":"HMRL","wikidata":"Q54366530","public_transport:version":"2"},"7684032":{"to":"Versova","ref":"1","from":"Ghatkopar","name":"Line 1 (Ghatkopar → Versova)","type":"route","route":"subway","colour":"blue","name:mr":"लाईन १ (घाटकोपर → वर्सोवा)","network":"Mumbai Metro","interval":"5","operator":"MMRDA","wikidata":"Q6553099","wikipedia":"en:Line 1 (Mumbai Metro)","opening_hours":"5:30-24:00","public_transport:version":"2"},"7752157":{"to":"SN Junction","ref":"I","from":"Aluva","name":"Kochi Metro Phase I: Aluva => SN Junction","type":"route","route":"subway","colour":"#7FFFD4","network":"Kochi Metro","operator":"KMRL","wikidata":"Q106775989","public_transport:version":"2"},"7834959":{"to":"Aluva","ref":"I","from":"SN Junction","name":"Kochi Metro Phase I: SN Junction => Aluva","type":"route","route":"subway","colour":"#7FFFD4","network":"Kochi Metro","operator":"KMRL","wikidata":"Q106775989","public_transport:version":"2"},"7841331":{"ref":"Purple","name":"Purple Line (Kengeri → Baiyyappanahalli)","type":"route","route":"subway","colour":"#e542de","name:kn":"ನೇರಳೆ ಪಥ (ಕೆಂಗೇರಿ -> ಬೈಯಪ್ಪನಹಳ್ಳಿ)","network":"Namma Metro","operator":"BMRCL","wikidata":"Q7261433","wikipedia":"en:Purple Line (Namma Metro)","public_transport:version":"2"},"7842287":{"to":"Silk Institute","ref":"Green","from":"Nagasandra","name":"Green Line (Nagasandra -> Silk Institute)","type":"route","route":"subway","colour":"#009933","name:kn":"ಹಸಿರು ಪಥ (ನಾಗಸಂದ್ರ -> ರೇಷ್ಮೆ ಸಂಸ್ಥೆ)","network":"Namma Metro","operator":"BMRCL","wikidata":"Q17054000","wikipedia":"en:Green Line (Namma Metro)","public_transport:version":"2"},"7845610":{"to":"Wimco Nagar Depot","ref":"1","from":"Chennai International Airport","name":"Blue Line (Chennai International Airport → Wimco Nagar Depot)","type":"route","route":"subway","colour":"#3281c4","tracks":"2","network":"Chennai Metro","operator":"Chennai Metro Rail Limited","wikidata":"Q19891160","wikipedia":"en:Blue Line (Chennai Metro)","electrified":"contact_line","public_transport:version":"2"},"7845612":{"ref":"2","name":"Green Line (St. Thomas Mount → Chennai Central)","type":"route","route":"subway","colour":"#53b848","tracks":"2","network":"Chennai Metro","operator":"Chennai Metro Rail Limited","wikidata":"Q20647027","wikipedia":"en:Green Line (Chennai Metro)","electrified":"contact_line","public_transport:version":"2"},"7890002":{"ref":"RMGL","name":"Rapid MetroRail Gurgaon: Sikandarpur → S55","type":"route","route":"subway","colour":"gray","network":"Rapid Metro Gurgaon","operator":"Rapid Metro Gurgaon Ltd.","wikidata":"Q7294170","wikipedia":"en:Rapid Metro Gurgaon","public_transport:version":"2"},"7989307":{"to":"Mansarovar","ref":"Pink Line","from":"Badi Chaupar","name":"Pink Line (Badi Chaupar --> Mansarovar)","type":"route","route":"subway","colour":"#ff748c","name:hi":"पिंक लाइन: बड़ी चौपाड़ => मानसरोवर","network":"Jaipur Metro","operator":"JMRC","wikidata":"Q17053988","wikipedia":"en:Pink Line (Jaipur Metro)","public_transport:version":"2"},"8033916":{"to":"Dakshineshwar","ref":"1","from":"Kavi Subhash","name":"Kolkata Metro Line 1 (Kavi Subhash → Dakshineshwar)","type":"route","route":"subway","colour":"#0000ff","network":"Kolkata Metro","operator":"Indian Railways","wikidata":"Q6427301","wikipedia":"en:Kolkata Metro Line 1","public_transport:version":"2"},"8034180":{"to":"Kavi Subhash","ref":"1","from":"Dakshineshwar","name":"Kolkata Metro Line 1 (Dakshineshwar → Kavi Subhash)","type":"route","route":"subway","colour":"#0000ff","network":"Kolkata Metro","operator":"Indian Railways","wikidata":"Q6427301","wikipedia":"en:Kolkata Metro Line 1","public_transport:version":"2"},"8037595":{"to":"Chennai International Airport","ref":"1","from":"Wimco Nagar Depot","name":"Blue Line (Wimco Nagar Depot → Chennai International Airport)","type":"route","route":"subway","colour":"#3281c4","tracks":"2","network":"Chennai Metro","operator":"Chennai Metro Rail Limited","wikidata":"Q19891160","wikipedia":"en:Blue Line (Chennai Metro)","electrified":"contact_line","public_transport:version":"2"},"8037605":{"ref":"2","name":"Green Line: Chennai Central → St. Thomas Mount","type":"route","route":"subway","colour":"#53b848","tracks":"2","network":"Chennai Metro","operator":"Chennai Metro Rail Limited","wikidata":"Q20647027","wikipedia":"en:Green Line (Chennai Metro)","electrified":"contact_line","public_transport:version":"2"},"8037666":{"to":"Brigadier Hoshiyar Singh","ref":"Green Line","from":"Inderlok","name":"Green Line (Inderlok => Brigadier Hoshiyar Singh)","note":"Contributors are requested to not edit the \\\"network\\\" and the \\\"operator\\\" tags. (2023/06/22)","type":"route","route":"subway","colour":"#008000","network":"Delhi Metro","operator":"Delhi Metro Rail Corporation Limited","wikidata":"Q5602820","wikipedia":"en:Green Line (Delhi Metro)","network:wikidata":"Q271195","operator:wikidata":"Q1029339","public_transport:version":"2"},"8037669":{"ref":"Blue Line","name":"Blue Line (Dwarka Sector 21 --> Noida Electronic City)","note":"Contributors are requested to not edit the \\\"network\\\" and the \\\"operator\\\" tags. (2023/06/22)","type":"route","route":"subway","colour":"#4169E1","network":"Delhi Metro","operator":"Delhi Metro Rail Corporation Limited","wikidata":"Q1029921","network:wikidata":"Q271195","operator:wikidata":"Q1029339","public_transport:version":"2"},"8037670":{"ref":"Blue Line","name":"Blue Line (Vaishali --> Yamuna Bank)","note":"Contributors are requested to not edit the \\\"network\\\" and the \\\"operator\\\" tags. (2023/06/22)","type":"route","route":"subway","colour":"#4169E1","network":"Delhi Metro","operator":"Delhi Metro Rail Corporation Limited","wikidata":"Q1029921","wikipedia":"en:Blue Line (Delhi Metro)","network:wikidata":"Q271195","operator:wikidata":"Q1029339","public_transport:version":"2"},"8037675":{"ref":"Green Line","name":"Green Line (Ashok Park Main => Kirti Nagar)","note":"Contributors are requested to not edit the \\\"network\\\" and the \\\"operator\\\" tags. (2023/06/22)","type":"route","route":"subway","colour":"#008000","network":"Delhi Metro","operator":"Delhi Metro Rail Corporation Limited","wikidata":"Q5602820","wikipedia":"en:Green Line (Delhi Metro)","network:wikidata":"Q271195","operator:wikidata":"Q1029339","public_transport:version":"2"},"8037687":{"to":"Inderlok","ref":"Green Line","from":"Brigadier Hoshiyar Singh","name":"Green Line (Brigadier Hoshiyar Singh => Inderlok)","note":"Contributors are requested to not edit the \\\"network\\\" and the \\\"operator\\\" tags. (2023/06/22)","type":"route","route":"subway","colour":"#008000","network":"Delhi Metro","operator":"Delhi Metro Rail Corporation Limited","wikidata":"Q5602820","wikipedia":"en:Green Line (Delhi Metro)","network:wikidata":"Q271195","operator:wikidata":"Q1029339","public_transport:version":"2"},"8037705":{"to":"Kashmere Gate","ref":"Violet Line","from":"Raja Nahar Singh","name":"Violet Line (Raja Nahar Singh --> Kashmere Gate)","note":"Contributors are requested to not edit the \\\"network\\\" and the \\\"operator\\\" tags. (2023/06/22)","type":"route","route":"subway","colour":"#553592","network":"Delhi Metro","operator":"Delhi Metro Rail Corporation Limited","wikidata":"Q3634451","wikipedia":"en:Violet Line (Delhi Metro)","network:wikidata":"Q271195","network:wikipedia":"hi:दिल्ली मेट्रो","operator:wikidata":"Q1029339","operator:wikipedia":"en:Delhi Metro Rail Corporation","public_transport:version":"2"},"8037712":{"ref":"Yellow Line","name":"Yellow Line (HUDA City Centre --> Samaypur Badli)","note":"Contributors are requested to not edit the \\\"network\\\" and the \\\"operator\\\" tags. (2023/06/22)","type":"route","route":"subway","colour":"#FFDF00","network":"Delhi Metro","operator":"Delhi Metro Rail Corporation Limited","wikidata":"Q795156","network:wikidata":"Q271195","network:wikipedia":"hi:दिल्ली मेट्रो","operator:wikidata":"Q1029339","operator:wikipedia":"en:Delhi Metro Rail Corporation","public_transport:version":"2"},"8037715":{"ref":"AEx","name":"Airport Express Line (New Delhi Airport Express Terminal --> Dwarka Sector 21)","note":"Contributors are requested to not edit the \\\"network\\\" and the \\\"operator\\\" tags. (2023/06/22)","type":"route","route":"subway","colour":"#FF8C00","network":"Delhi Metro","operator":"Delhi Metro Rail Corporation Limited","wikidata":"Q5253735","wikipedia":"en:Delhi Airport Metro Express","network:wikidata":"Q271195","operator:wikidata":"Q1029339","public_transport:version":"2"},"8037718":{"to":"Rithala","ref":"1","from":"Shaheed Sthal","name":"Red Line (Shaheed Sthal → Rithala)","note":"Contributors are requested to not edit the \\\"network\\\" and the \\\"operator\\\" tags. (2023/06/22)","type":"route","route":"subway","colour":"#FF4040","network":"Delhi Metro","operator":"Delhi Metro Rail Corporation Limited","wikidata":"Q3278367","network:wikidata":"Q271195","network:wikipedia":"hi:दिल्ली मेट्रो","operator:wikidata":"Q1029339","operator:wikipedia":"en:Delhi Metro Rail Corporation","public_transport:version":"2"},"8051592":{"ref":"9","name":"Grey Line (Dhansa Bus Stand --> Dwarka)","note":"Contributors are requested to not edit the \\\"network\\\" and the \\\"operator\\\" tags. (2023/06/22)","type":"route","route":"subway","colour":"#838996","network":"Delhi Metro","operator":"Delhi Metro Rail Corporation Limited","wikidata":"Q47100305","wikipedia":"en:Grey Line (Delhi Metro)","network:wikidata":"Q271195","operator:wikidata":"Q1029339","public_transport:version":"2"},"8241298":{"to":"Majlis Park","ref":"Pink Line","from":"Shiv Vihar","name":"Pink Line (Shiv Vihar → Majlis Park)","note":"Contributors are requested to not edit the \\\"network\\\" and the \\\"operator\\\" tags. (2023/06/22)","type":"route","route":"subway","colour":"#FC8EAC","network":"Delhi Metro","operator":"Delhi Metro Rail Corporation Limited","wikidata":"Q19891094","wikipedia":"en:Pink Line (Delhi Metro)","network:wikidata":"Q271195","operator:wikidata":"Q1029339","public_transport:version":"2"},"8242437":{"to":"Mayur Vihar Pocket 1","ref":"Pink Line","from":"Majlis Park","name":"Pink Line (Majlis Park → Shiv Vihar)","note":"Contributors are requested to not edit the \\\"network\\\" and the \\\"operator\\\" tags. (2023/06/22)","type":"route","route":"subway","colour":"#FC8EAC","network":"Delhi Metro","operator":"Delhi Metro Rail Corporation Limited","wikidata":"Q19891094","wikipedia":"en:Pink Line (Delhi Metro)","network:wikidata":"Q271195","operator:wikidata":"Q1029339","public_transport:version":"2"},"8297636":{"to":"L. B. Nagar","ref":"Red Line","from":"Miyapur","name":"Red Line (Miyapur –-> L. B. Nagar)","type":"route","route":"subway","colour":"red","network":"Hyderabad Metro","operator":"HMRL","wikidata":"Q646209","wikipedia":"en:Hyderabad Metro","public_transport:version":"2"},"8297688":{"to":"Raidurg","ref":"3","from":"Nagole","name":"Blue Line (Nagole –-> Raidurg)","type":"route","route":"subway","colour":"blue","name:te":"నాగోల్","network":"Hyderabad Metro","operator":"HMRL","wikidata":"Q54366530","public_transport:version":"2"},"8297689":{"to":"Miyapur","ref":"Red Line","from":"L. B. Nagar","name":"Red Line (L. B. Nagar –-> Miyapur)","type":"route","route":"subway","colour":"red","network":"Hyderabad Metro","operator":"HMRL","wikidata":"Q54366523","public_transport:version":"2"},"8299495":{"ref":"1","name":"Red Line (Chaudhary Charan Singh International Airport --> Munshipulia)","type":"route","route":"subway","colour":"red","network":"Lucknow Metro","operator":"LMRC","wikidata":"Q18128813","wikipedia":"en:Red Line (Lucknow Metro)","public_transport:version":"2"},"8299496":{"ref":"1","name":"Red Line (Munshipulia --> Chaudhary Charan Singh International Airport)","type":"route","route":"subway","colour":"red","network":"Lucknow Metro","operator":"LMRC","wikidata":"Q18128813","wikipedia":"en:Red Line (Lucknow Metro)","public_transport:version":"2"},"8312433":{"to":"Thaltej","ref":"1","from":"Vastral Gam","name":"East-West Corridor: Vastral Gam → Thaltej","type":"route","route":"subway","colour":"blue","name:gu":"પૂર્વ-પશ્ચિમ કોરિડોર: વસ્ત્રાલ ગામ → થલતેજ","network":"Ahmedabad Metro","operator":"Gujarat Metro Rail Corporation Limited","wikidata":"Q61990549","wikipedia":"en:East–West Corridor (Ahmedabad Metro)","public_transport:version":"2"},"8312443":{"to":"Motera Stadium","ref":"2","from":"APMC","name":"North-South Corridor: APMC → Motera Stadium","type":"route","route":"subway","colour":"red","network":"Ahmedabad Metro","wikidata":"Q65081142","wikipedia":"en:North–South Corridor (Ahmedabad Metro)","public_transport:version":"2"},"8378631":{"ref":"2","name":"Navi Mumbai Metro Line 2","type":"route","route":"subway","network":"Navi Mumbai Metro","operator":"CIDCO"},"8385429":{"ref":"Magenta Line","name":"Magenta Line (Botanical Garden --> Janakpuri West)","note":"Contributors are requested to not edit the \\\"network\\\" and the \\\"operator\\\" tags. (2023/06/22)","type":"route","route":"subway","colour":"#CC338B","network":"Delhi Metro","operator":"Delhi Metro Rail Corporation Limited","wikidata":"Q19893471","wikipedia":"en:Magenta Line (Delhi Metro)","network:wikidata":"Q271195","operator:wikidata":"Q1029339","public_transport:version":"2"},"8385430":{"ref":"Magenta Line","name":"Magenta Line (Janakpuri West --> Botanical Garden)","note":"Contributors are requested to not edit the \\\"network\\\" and the \\\"operator\\\" tags. (2023/06/22)","type":"route","route":"subway","colour":"#CC338B","network":"Delhi Metro","operator":"Delhi Metro Rail Corporation Limited","wikidata":"Q19893471","wikipedia":"en:Magenta Line (Delhi Metro)","network:wikidata":"Q271195","operator:wikidata":"Q1029339","public_transport:version":"2"},"9268568":{"to":"Noida Sector 51","ref":"Aqua Line","from":"Depot","name":"Aqua Line: Depot => Noida Sector 51","type":"route","route":"subway","colour":"aqua","network":"Noida Metro","operator":"NMRC","wikidata":"Q41668068","wikipedia":"en:Aqua Line (Noida Metro)","public_transport:version":"2"},"9268569":{"to":"Depot","ref":"Aqua Line","from":"Noida Sector 51","name":"Aqua Line: Noida Sector 51 => Depot","type":"route","route":"subway","colour":"aqua","network":"Noida Metro","operator":"NMRC","wikidata":"Q41668068","wikipedia":"en:Aqua Line (Noida Metro)","public_transport:version":"2"},"9521935":{"to":"Vastral Gam","ref":"1","from":"Thaltej","name":"East-West Corridor: Thaltej → Vastral Gam","type":"route","route":"subway","colour":"blue","name:gu":"પૂર્વ-પશ્ચિમ કોરિડોર: થલતેજ → વસ્ત્રાલ ગામ","network":"Ahmedabad Metro","operator":"Gujarat Metro Rail Corporation Limited","wikidata":"Q61990549","wikipedia":"en:East–West Corridor (Ahmedabad Metro)","public_transport:version":"2"},"9565725":{"to":"Automotive Square","ref":"Orange Line","from":"Khapri","name":"Orange Line: Khapri → Automotive Square","type":"route","route":"subway","colour":"orange","network":"Nagpur Metro","operator":"MahaMetro","wikidata":"Q61996404","wikipedia":"en:Orange Line (Nagpur Metro)","public_transport:version":"2"},"9571556":{"to":"Khapri","ref":"Orange Line","from":"Automotive Square","name":"Orange Line: Automotive Square → Khapri","type":"route","route":"subway","colour":"orange","network":"Nagpur Metro","operator":"MahaMetro","wikidata":"Q61996404","wikipedia":"en:Orange Line (Nagpur Metro)","public_transport:version":"2"},"10659361":{"to":"Lokmanya Nagar","ref":"Aqua Line","from":"Prajapati Nagar","name":"Aqua Line: Prajapati Nagar → Lokmanya Nagar","type":"route","route":"subway","colour":"aqua","network":"Nagpur Metro","operator":"MahaMetro","wikidata":"Q62051025","wikipedia":"en:Aqua Line (Nagpur Metro)","network:wikidata":"Q6959014","public_transport:version":"2"},"10659362":{"to":"Prajapati Nagar","ref":"Aqua Line","from":"Lokmanya Nagar","name":"Aqua Line: Lokmanya Nagar → Prajapati Nagar","type":"route","route":"subway","colour":"aqua","network":"Nagpur Metro","operator":"MahaMetro","wikidata":"Q62051025","wikipedia":"en:Aqua Line (Nagpur Metro)","public_transport:version":"2"},"10692234":{"to":"JBS","ref":"2","from":"MGBS","name":"Green Line (MGBS –-> JBS)","type":"route","route":"subway","colour":"green","network":"Hyderabad Metro","operator":"HMRL","wikidata":"Q84767109","public_transport:version":"2"},"10692235":{"to":"MGBS","ref":"2","from":"JBS","name":"Green Line (JBS –-> MGBS)","type":"route","route":"subway","colour":"green","network":"Hyderabad Metro","operator":"HMRL","wikidata":"Q84767109","public_transport:version":"2"},"11720071":{"to":"Salt Lake Sector V","ref":"2","from":"Sealdah","name":"Kolkata Metro Line 2 (Sealdah → Salt Lake Sector V)","type":"route","route":"subway","colour":"#00ff00","network":"Kolkata Metro","wikidata":"Q6427302","wikipedia":"en:Kolkata Metro Line 2","public_transport:version":"2"},"11720072":{"to":"Sealdah","ref":"2","from":"Salt Lake Sector V","name":"Kolkata Metro Line 2 (Salt Lake Sector V → Sealdah)","type":"route","route":"subway","colour":"#00ff00","network":"Kolkata Metro","wikidata":"Q6427302","wikipedia":"en:Kolkata Metro Line 2","public_transport:version":"2"},"12608513":{"name":"Thane Metrolite","type":"route","route":"subway","network":"Thane Metro","operator":"TMC","public_transport:version":"2"},"12824257":{"to":"SIPCOT","ref":"3","via":"OMR","from":"Madhavaram","name":"Line 3: Madhavaram → SIPCOT (u/c)","type":"route","route":"subway","colour":"#800080","network":"Chennai Metro","operator":"CMRL","construction":"route"},"12824987":{"to":"Poonamalle","ref":"4","from":"Light House","name":"Line 4: Light House → Poonamallee (u/c)","type":"route","route":"subway","colour":"#FF8000","network":"Chennai Metro","operator":"CMRL","construction":"route"},"12828618":{"to":"Shozhinganallur","ref":"5","via":"Anna Nagar","from":"Madhavaram","name":"Line 5: Madhavaram → Shozhinganallur (u/c)","type":"route","route":"subway","colour":"#FF0000","network":"Chennai Metro","operator":"CMRL","construction":"route"},"12940680":{"to":"Light House","ref":"4","from":"Poonamalle","name":"Line 4: Poonamalle → Light House (u/c)","type":"route","route":"subway","colour":"#FF8000","network":"Chennai Metro","operator":"CMRL","construction":"route"},"12940681":{"to":"Madhavaram","ref":"5","via":"Anna Nagar","from":"Shozhinganallur","name":"Line 5: Shozhinganallur → Madhavaram (u/c)","type":"route","route":"subway","colour":"#FF0000","network":"Chennai Metro","operator":"CMRL","construction":"route"},"12940682":{"to":"Madhavaram","ref":"3","via":"OMR","from":"SIPCOT","name":"Line 3: SIPCOT → Madhavaram (u/c)","type":"route","route":"subway","colour":"#800080","network":"Chennai Metro","operator":"CMRL","construction":"route"},"13094507":{"to":"Saroli","ref":"2","from":"Bhesan","name":"Line 2","type":"route","route":"subway","state":"proposed","network":"Surat Metro"},"13094517":{"to":"Dream City","ref":"1","from":"Sarthana","name":"Line 1","type":"route","route":"subway","network":"Surat Metro","operational_status":"under_construction"},"13615304":{"to":"Moti Jheel","ref":"1","via":"Rawatpur","from":"IIT Kanpur","name":"Orange Line (IIT Kanpur -> Moti Jheel)","type":"route","route":"subway","colour":"orange","name:hi":"ऑरेंज लाइन (आई आई टी कानपुर -> मोती झील)","network":"Kanpur Metro","alt_name":"Line 1 – Naubasta to IIT Kanpur","operator":"Uttar Pradesh Metro Rail Corporation","wikidata":"Q110419397","wikipedia":"en:Orange Line (Kanpur Metro)","public_transport:version":"2"},"13615312":{"to":"IIT Kanpur","ref":"1","via":"Rawatpur","from":"Moti Jheel","name":"Orange Line (Moti Jheel -> IIT Kanpur)","type":"route","route":"subway","colour":"orange","name:hi":"ऑरेंज लाइन (मोती झील -> आई आई टी कानपुर)","network":"Kanpur Metro","alt_name":"Line 1 – IIT Kanpur to Naubasta","operator":"Uttar Pradesh Metro Rail Corporation","wikidata":"Q110419397","wikipedia":"en:Orange Line (Kanpur Metro)","public_transport:version":"2"},"13916704":{"to":"Vanaz","fee":"yes","ref":"Aqua","from":"Garware College","name":"Aqua Line: Garware College → Vanaz","type":"route","route":"subway","colour":"#00FFFF","name:mr":"मार्गिका २ (गरवारे महाविद्यालय -> वनाझ)","network":"Pune Metro","operator":"MahaMetro","wikidata":"Q59155699","wikipedia":"en:Aqua Line (Pune Metro)","reservation":"no","public_transport:version":"2"},"13916710":{"to":"Garware College","fee":"yes","ref":"Aqua","from":"Vanaz","name":"Aqua Line: Vanaz → Garware College","type":"route","route":"subway","colour":"#00FFFF","name:mr":"मार्गिका २ (वनाझ -> गरवारे महाविद्यालय)","network":"Pune Metro","operator":"MahaMetro","wikidata":"Q59155699","wikipedia":"en:Aqua Line (Pune Metro)","reservation":"no","public_transport:version":"2"},"13917122":{"to":"PCMC Bhavan","fee":"yes","ref":"Purple","from":"Phugewadi","name":"Purple Line: Phugewadi → PCMC Bhavan","type":"route","route":"subway","colour":"#800080","name:mr":"मार्गिका १ (फुगेवाडी -> पिंपरी-चिंचवड मनपा भवन)","network":"Pune Metro","operator":"MahaMetro","wikidata":"Q59155676","wikipedia":"en:Purple Line (Pune Metro)","reservation":"no","public_transport:version":"2"},"13917123":{"to":"Phugewadi","fee":"yes","ref":"Purple","from":"PCMC Bhavan","name":"Purple Line: PCMC Bhavan → Phugewadi","type":"route","route":"subway","colour":"#800080","name:mr":"मार्गिका १ (पिंपरी-चिंचवड मनपा भवन -> फुगेवाडी)","network":"Pune Metro","operator":"MahaMetro","wikidata":"Q59155676","wikipedia":"en:Purple Line (Pune Metro)","reservation":"no","public_transport:version":"2"},"13989912":{"to":"Dahisar (East)","ref":"2","from":"Andheri West","name":"Line 2 (Andheri West → Dahisar (East))","type":"route","route":"subway","colour":"yellow","name:mr":"लाईन २ (अंधेरी पश्चिम → दहिसर (पूर्व))","network":"Mumbai Metro","operator":"MMRDA","wikidata":"Q28419528","wikipedia":"en:Line 2 (Mumbai Metro)","public_transport:version":"2"},"13989913":{"to":"Andheri West","ref":"2","from":"Dahisar (East)","name":"Line 2 (Dahisar (East) → Andheri West)","type":"route","route":"subway","colour":"yellow","name:mr":"लाईन २ (दहिसर (पूर्व) → अंधेरी पश्चिम )","network":"Mumbai Metro","operator":"MMRDA","wikidata":"Q28419528","wikipedia":"en:Line 2 (Mumbai Metro)","public_transport:version":"2"},"13989914":{"to":"Dahisar (East)","ref":"7","from":"Gundavali","name":"Line 7 (Gundavali → Dahisar (East))","type":"route","route":"subway","colour":"red","name:mr":"लाईन ७ (गुंदवली → दहिसर (पूर्व))","network":"Mumbai Metro","operator":"MMRDA","wikidata":"Q28419537","wikipedia":"en:Line 7 (Mumbai Metro)","public_transport:version":"2"},"13989915":{"to":"Gundavali","ref":"7","from":"Dahisar (East)","name":"Line 7 (Dahisar (East) → Gundavali)","type":"route","route":"subway","colour":"red","name:mr":"लाईन ७ (दहिसर (पूर्व) → गुंदवली)","network":"Mumbai Metro","operator":"MMRDA","wikidata":"Q28419537","wikipedia":"en:Line 7 (Mumbai Metro)","public_transport:version":"2"},"14658372":{"to":"APMC","ref":"2","from":"Motera Stadium","name":"North-South Corridor: Motera Stadium → APMC","type":"route","route":"subway","colour":"red","network":"Ahmedabad Metro","wikidata":"Q65081142","wikipedia":"en:North–South Corridor (Ahmedabad Metro)","public_transport:version":"2"},"15068961":{"to":"Joka","ref":"3","from":"Taratala","name":"Kolkata Metro Line 3 (Taratala → Joka)","type":"route","route":"subway","colour":"#800080","network":"Kolkata Metro","operator":"Indian Railways","wikidata":"Q27502952","wikipedia":"en:Kolkata Metro Line 3","public_transport:version":"2"},"15068962":{"to":"Taratala","ref":"3","from":"Joka","name":"Kolkata Metro Line 3 (Joka → Taratala)","type":"route","route":"subway","colour":"#800080","network":"Kolkata Metro","operator":"Indian Railways","wikidata":"Q27502952","wikipedia":"en:Kolkata Metro Line 3","public_transport:version":"2"},"15643956":{"ref":"Purple","name":"Purple Line (Whitefield (Kadugodi) → Krishnarajapura)","type":"route","route":"subway","colour":"#e542de","name:kn":"ನೇರಳೆ ಪಥ (ವೈಟ್‌ಫೀಲ್ಡ್ -> ಕೃಷ್ಣರಾಜಪುರ)","network":"Namma Metro","operator":"BMRCL","wikidata":"Q7261433","wikipedia":"en:Purple Line (Namma Metro)","public_transport:version":"2"},"15643957":{"ref":"Purple","name":"Purple Line (Krishnarajapura → Whitefield (Kadugodi))","type":"route","route":"subway","colour":"#e542de","name:kn":"ನೇರಳೆ ಪಥ (ಕೃಷ್ಣರಾಜಪುರ -> ವೈಟ್‌ಫೀಲ್ಡ್)","network":"Namma Metro","operator":"BMRCL","wikidata":"Q7261433","wikipedia":"en:Purple Line (Namma Metro)","public_transport:version":"2"}}