{"443307":{"to":"شهید کلاهدوز","ref":"4","from":"علامه جعفری","name":"خط ۴","type":"route","route":"subway","colour":"yellow","name:de":"Linie 4","name:en":"Line 4","network":"متروی تهران","operator":"Tehran Urban and Suburban Railway Company","wikidata":"Q20110121","wikipedia":"en:Tehran Metro Line 4","network:wikidata":"Q714823","network:wikipedia":"ar:مترو طهران","public_transport:version":"2"},"2431321":{"ref":"2","name":"خط ۲","type":"route","route":"subway","colour":"#003380","name:de":"Linie 2","name:en":"Line 2","network":"متروی تهران","operator":"Tehran Urban and Suburban Railway Company","wikidata":"Q20110119","network:wikidata":"Q714823","network:wikipedia":"ar:مترو طهران","public_transport:version":"2"},"2750010":{"to":"کهریزک","ref":"1","from":"تجریش","name":"خط ١","type":"route","route":"subway","colour":"#FF0F04","name:de":"Linie 1","name:en":"Line 1","network":"متروی تهران","operator":"Tehran Urban and Suburban Railway Company","wikidata":"Q20110118","wikipedia":"en:Tehran Metro Line 1","network:wikidata":"Q714823","network:wikipedia":"ar:مترو طهران","public_transport:version":"2"},"3517270":{"name":"خط یک قطار شهری اهواز","type":"route","route":"light_rail","railway":"construction","operator":"Ahwaz Urban & Suburban Railway Organization","construction":"subway"},"5366249":{"ref":"3","name":"خط ٣","type":"route","route":"subway","name:de":"U-Bahn-Linie 3","name:en":"Line 3","network":"متروی تهران","operator":"Tehran Urban and Suburban Railway Company","wikidata":"Q20110120","wikipedia":"en:Tehran Metro Line 3","network:wikidata":"Q714823","network:wikipedia":"ar:مترو طهران","public_transport:version":"2"},"5587340":{"to":"صفه","ref":"1","from":"قدس","name":"خط ۱","type":"route","route":"subway","colour":"#1A988C","name:en":"Line 1 (Southbound)","wikidata":"Q104230289","public_transport:version":"2"},"5617782":{"to":"چهارراه طالقانی","ref":"2","from":"۴۵ متری گلشهر","name":"خط ۲","type":"route","route":"subway","colour":"#58e558","name:en":"Line 2","name:fr":"ligne 2","network":"مترو کرج","operator":"سازمان قطار شهری کرج و حومه","wikidata":"Q116978502","public_transport:version":"2"},"5697303":{"to":"دولت آباد","ref":"6","from":"شهید ستاری","name":"خط ۶","type":"route","route":"subway","name:de":"Linie 6","name:en":"Line 6","network":"متروی تهران","operator":"Tehran Urban and Suburban Railway Company","wikidata":"Q20110123","network:wikidata":"Q714823","network:wikipedia":"ar:مترو طهران","public_transport:version":"2"},"5727259":{"to":"شهید دستغیب","ref":"1","from":"احسان","name":"خط ۱","type":"route","route":"subway","colour":"#EE3C3C","name:en":"Line 1","network":"متروی شیراز‎","operator":"سازمان قطار شهری شیراز و حومه","wikidata":"Q66782266","public_transport:version":"2"},"5744272":{"to":"امام حسین","ref":"2","from":"قهرمانان","name":"خط ۲","note":"partly opened","type":"route","route":"subway","colour":"#229954","name:en":"Line 2","network":"متروی شیراز‎","operator":"سازمان قطار شهری شیراز و حومه","wikidata":"Q97218492","wikipedia":"fa:خط ۲ متروی شیراز","start_date":"2023-02-08","public_transport:version":"2"},"6151834":{"to":"فرودگاه امام خمینی","ref":"1","from":"شاهد","name":"خط ۱","type":"route","route":"subway","colour":"#FF0F04","name:de":"Linie 1: Flughafenlinie","name:en":"Line 1: Airport branch","network":"متروی تهران","operator":"Tehran Urban and Suburban Railway Company","wikidata":"Q20110118","public_transport:version":"2"},"6168103":{"ref":"1","from":"ائل گلی","name":"خط یک قطار شهری تبریز - غربی","type":"route","route":"subway","colour":"#147049","name:en":"Westbound Line 1 of Tabriz Metro","network":"متروی تبریز","operator":"Tabriz Urban Railway Organization","wikidata":"Q21034316","public_transport:version":"2"},"7429356":{"to":"بسیج","ref":"7","from":"شهید دادمان","name":"خط ۷","note":"Line 7 Northbound","type":"route","route":"subway","colour":"#6A00FF","name:de":"Linie 7","name:en":"Line 7","network":"متروی تهران","operator":"Tehran Urban and Suburban Railway Company","wikidata":"Q20110124","wikipedia":"fa:خط ۷ متروی تهران","network:wikidata":"Q714823","network:wikipedia":"ar:مترو طهران","public_transport:version":"2"},"7643001":{"to":"ائل گلی","ref":"1","name":"خط یک قطار شهری تبریز - شرقی","type":"route","route":"subway","colour":"#147049","name:en":"Eastbound Line 1 of Tabriz Metro","network":"متروی تبریز","operator":"Tabriz Urban Railway Organization","wikidata":"Q21034316","public_transport:version":"2"},"7683584":{"ref":"4","name":"خط ۴","type":"route","route":"subway","colour":"yellow","name:de":"U-Bahn-Linie 4","name:en":"Line 4","network":"متروی تهران","operator":"Tehran Urban and Suburban Railway Company","wikidata":"Q20110121","wikipedia":"en:Tehran Metro Line 4","network:wikidata":"Q714823","network:wikipedia":"ar:مترو طهران","public_transport:version":"2"},"7705625":{"to":"احسان","ref":"1","from":"شهید دستغیب","name":"خط ۱","type":"route","route":"subway","colour":"#EE3C3C","name:en":"Line 1","network":"متروی شیراز‎","operator":"سازمان قطار شهری شیراز و حومه","wikidata":"Q66782266","public_transport:version":"2"},"7705632":{"to":"آزادی","ref":"1","from":"صفه","name":"خط ۱","type":"route","route":"subway","colour":"#1A988C","name:en":"Line 1 (Northbound)","wikidata":"Q104230289","public_transport:version":"2"},"7705643":{"to":"شهید دادمان","ref":"7","from":"بسیج","name":"خط ۷","note":"Line 7 Southbound","type":"route","route":"subway","colour":"#6A00FF","name:de":"Linie 7","name:en":"Line 7","network":"متروی تهران","operator":"Tehran Urban and Suburban Railway Company","wikidata":"Q20110124","wikipedia":"fa:خط ۷ متروی تهران","network:wikidata":"Q714823","network:wikipedia":"ar:مترو طهران","public_transport:version":"2"},"7705668":{"to":"علامه جعفری","ref":"4","from":"شهید کلاهدوز","name":"خط ۴","type":"route","route":"subway","colour":"yellow","name:de":"Linie 4","name:en":"Line 4","network":"متروی تهران","operator":"Tehran Urban and Suburban Railway Company","wikidata":"Q20110121","wikipedia":"en:Tehran Metro Line 4","network:wikidata":"Q714823","network:wikipedia":"ar:مترو طهران","public_transport:version":"2"},"7726963":{"ref":"4","name":"خط ۴","type":"route","route":"subway","colour":"yellow","name:de":"U-Bahn-Linie 4","name:en":"Line 4","network":"متروی تهران","operator":"Tehran Urban and Suburban Railway Company","wikidata":"Q20110121","wikipedia":"en:Tehran Metro Line 4","network:wikidata":"Q714823","network:wikipedia":"ar:مترو طهران","public_transport:version":"2"},"7735255":{"to":"تجریش","ref":"1","from":"کهریزک","name":"خط ١","type":"route","route":"subway","colour":"#FF0F04","name:de":"Linie 1","name:en":"Line 1","network":"متروی تهران","operator":"Tehran Urban and Suburban Railway Company","wikidata":"Q20110118","wikipedia":"en:Tehran Metro Line 1","network:wikidata":"Q714823","network:wikipedia":"ar:مترو طهران","public_transport:version":"2"},"7770933":{"ref":"3","name":"خط ٣","type":"route","route":"subway","name:de":"U-Bahn-Linie 3","name:en":"Line 3","network":"متروی تهران","operator":"Tehran Urban and Suburban Railway Company","network:wikidata":"Q714823","network:wikipedia":"ar:مترو طهران","public_transport:version":"2"},"7832313":{"to":"شاهد","ref":"1","from":"فرودگاه امام خمینی","name":"خط ۱","type":"route","route":"subway","colour":"#FF0F04","name:de":"Linie 1: Flughafenlinie","name:en":"Line 1: Airport branch","network":"متروی تهران","operator":"Tehran Urban and Suburban Railway Company","wikidata":"Q20110118","network:wikidata":"Q714823","public_transport:version":"2"},"7832324":{"ref":"2","name":"خط ۲","type":"route","route":"subway","colour":"#003380","name:de":"Linie 2","name:en":"Line 2","network":"متروی تهران","operator":"Tehran Urban and Suburban Railway Company","wikidata":"Q20110119","network:wikidata":"Q714823","network:wikipedia":"ar:مترو طهران","public_transport:version":"2"},"9468295":{"to":"شهید ستاری","ref":"6","from":"دولت آباد","name":"خط ۶","type":"route","route":"subway","name:de":"Linie 6","name:en":"Line 6","network":"متروی تهران","operator":"Tehran Urban and Suburban Railway Company","network:wikidata":"Q714823","network:wikipedia":"ar:مترو طهران","public_transport:version":"2"},"15510491":{"to":"قهرمانان","ref":"2","from":"امام حسین","name":"خط ۲","note":"partly opened","type":"route","route":"subway","colour":"#229954","name:en":"Line 2","network":"متروی شیراز‎","operator":"سازمان قطار شهری شیراز و حومه","wikidata":"Q97218492","wikipedia":"fa:خط ۲ متروی شیراز","start_date":"2023-02-08","public_transport:version":"2"},"15545705":{"to":"۴۵ متری گلشهر","ref":"2","from":"چهارراه طالقانی","name":"خط ۲","type":"route","route":"subway","colour":"#58e558","name:en":"Line 2","name:fr":"ligne 2","network":"مترو کرج","operator":"سازمان قطار شهری کرج و حومه","wikidata":"Q116978502","public_transport:version":"2"}}