{"179514":{"to":"Ramonville","ref":"B","from":"Borderouge","name":"Métro Ligne B: Direction Ramonville","type":"route","route":"subway","colour":"#FFD900","network":"fr_tisseo","duration":"00:27:42","interval":"5","operator":"Tisséo","wikidata":"Q3239063","wikipedia":"fr:Ligne B du métro de Toulouse","wheelchair":"yes","description":"Borderouge - Ramonville","interval:peak":"1","opening_hours":"Mo-Th 05:15-24:00; Fr-Sa 05:15-24:00, 00:00-01:00; Su 05:15-24:00","interval:sunday":"7","network:wikidata":"Q3529461","network:wikipedia":"fr:Tisséo","public_transport:version":"2"},"1727352":{"to":"Altona","ref":"S31","from":"Harburg Rathaus","name":"S31: Harburg Rathaus => Altona","type":"route","route":"light_rail","colour":"#5D1D81","network":"Hamburger Verkehrsverbund","operator":"S-Bahn Hamburg GmbH","network:short":"HVV","network:wikidata":"Q896916","network:wikipedia":"de:Hamburger Verkehrsverbund","operator:wikidata":"Q99869216","public_transport:version":"2"},"2581270":{"to":"Piazzale della Stazione","ref":"Scala mobile","from":"Via degli Arcioni","name":"Scala mobile di Palestrina (Discesa)","type":"route","route":"subway","state":"connection","colour":"#A52A2A","network":"Comune di Palestrina","operator":"Comune di Palestrina","opening_hours":"Mo-Su 07:30-20:30"},"2581271":{"to":"Via degli Arcioni","ref":"Scala mobile","from":"Piazzale della Stazione","name":"Scala mobile di Palestrina (Salita)","type":"route","route":"subway","state":"connection","colour":"#A52A2A","network":"Comune di Palestrina","operator":"Comune di Palestrina","opening_hours":"Mo-Su 07:30-20:30"},"7672072":{"to":"Brixton","ref":"Victoria","from":"Seven Sisters","name":"Victoria line: Seven Sisters → Brixton","type":"route","brand":"Transport for London","route":"subway","colour":"#0a9cda","network":"London Underground","operator":"Transport for London","wikidata":"Q203030","wikipedia":"en:Victoria line","ref:colour":"#0098D8","wheelchair":"yes","ref:colour_bg":"white","ref:colour_tx":"white","network:wikidata":"Q20075","network:wikipedia":"en:London Underground","operator:wikidata":"Q682520","public_transport:version":"2"},"7705625":{"to":"احسان","ref":"1","from":"شهید دستغیب","name":"خط ۱","type":"route","route":"subway","colour":"#EE3C3C","name:en":"Line 1","network":"متروی شیراز‎","operator":"سازمان قطار شهری شیراز و حومه","wikidata":"Q66782266","public_transport:version":"2"},"7772994":{"ref":"C","name":"Metro linka C: Háje → Letňany","type":"route","route":"subway","colour":"#CF003D","name:de":"U-Bahnlinie C","name:en":"Subway line C","network":"Pražské metro","operator":"Dopravní podnik hl. m. Prahy","wikidata":"Q168571","operator:short":"DPP","network:wikidata":"Q190271","operator:wikidata":"Q381100","public_transport:version":"2"},"8402993":{"to":"Hódmezővásárhely vasútállomás","ref":"1","from":"Szeged vasútállomás","name":"1 => Hódmezővásárhely vasútállomás","note":"próbaüzem 2022-04-15-ig","type":"route","route":"light_rail","colour":"#FDC434","bicycle":"yes","network":"Szeged","note:en":"under trial operation until 2022-04-15","duration":"51","operator":"MÁV-Start","start_date":"2021-11-29","wheelchair":"yes","description":"vasútvillamos","description:en":"tram-train","public_transport:version":"2"},"13477003":{"to":"Rókus vasútállomás","ref":"1A","from":"Szeged vasútállomás","name":"1A => Rókus vasútállomás","type":"route","route":"light_rail","colour":"#FDC434","network":"Szeged","duration":"17","operator":"MÁV-Start","wheelchair":"yes","description":"vasútvillamos","description:en":"tram-train","public_transport:version":"2"}}