{"444889":{"ref":"I","name":"Osaka Metro今里筋線","type":"route","route":"subway","colour":"#F90","name:en":"Osaka Metro Imazatosuji Line","name:ja":"Osaka Metro今里筋線","network":"大阪市高速電気軌道","operator":"大阪市高速電気軌道","wikipedia":"ja:大阪市高速電気鉄道今里筋線","network:en":"Osaka Metro","network:ja":"大阪市高速電気軌道","operator:en":"Osaka Metro","network:wikidata":"Q51211653"},"1827998":{"ref":"N","name":"南北線","type":"route","route":"subway","colour":"#008800","name:de":"Süd-Nord-Linie","name:en":"Namboku Line (Asabu --> Makaomanai)","name:ja":"南北線 (麻生 --> 真駒内)","network":"札幌市営地下鉄","operator":"札幌市交通局","wikidata":"Q843793","wikipedia":"en:Namboku Line (Sapporo)","operator:en":"Sapporo City Transportation Bureau","public_transport:version":"2"},"1827999":{"to":"福住","ref":"H","from":"栄町","name":"東豊線","type":"route","route":"subway","colour":"blue","name:de":"Tōhō-Linie","name:en":"Toho Line","name:ja":"東豊線","network":"札幌市営地下鉄","operator":"札幌市交通局","wikidata":"Q981822","wikipedia":"ja:札幌市営地下鉄東豊線","operator:en":"Sapporo City Transportation Bureau","public_transport:version":"2"},"2211362":{"ref":"S80","name":"S80: Čerčany - Ledeč nad Sázavou","type":"route","route":"light_rail","network":"PID"},"3228497":{"to":"Snowdon","ref":"5","from":"Saint-Michel","name":"Ligne bleue vers Snowdon","type":"route","route":"subway","colour":"#3465B4","name:en":"Blue Line to Snowdon","network":"Métro de Montréal","operator":"STM","wikidata":"Q1726049","wikipedia":"en:Blue Line (Montreal Metro)","public_transport:version":"2"},"8000571":{"ref":"N","name":"南北線","type":"route","route":"subway","colour":"#008800","name:de":"Süd-Nord-Linie","name:en":"Namboku Line (Makaomanai --> Asabu)","name:ja":"南北線 (真駒内 --> 麻生)","network":"札幌市営地下鉄","operator":"札幌市交通局","wikidata":"Q843793","wikipedia":"en:Namboku Line (Sapporo)","operator:en":"Sapporo City Transportation Bureau","public_transport:version":"2"},"8028827":{"ref":"I","name":"Osaka Metro今里筋線","type":"route","route":"subway","colour":"#F90","name:en":"Osaka Metro Imazatosuji Line (Imazato --> Itakano)","name:ja":"Osaka Metro今里筋線","network":"大阪市高速電気軌道","operator":"大阪市高速電気軌道","wikidata":"Q1066118","wikipedia":"ja:大阪市高速電気軌道今里筋線","network:en":"Osaka Metro","network:ja":"大阪市高速電気軌道","operator:en":"Osaka Metro","network:wikidata":"Q51211653"}}