{"1141949":{"to":"광복","ref":"2","from":"락원","name":"혁신선","type":"route","route":"subway","colour":"green","name:en":"Hyŏksin line","name:fr":"ligne Hyŏksin","name:zh":"革新线","network":"평양 지하철도","operator":"평양지하철도관리국","wikidata":"Q712790","description":"Southbound","public_transport:version":"2"},"1141950":{"to":"부흥역","ref":"1","from":"붉은별역","name":"천리마선","type":"route","route":"subway","colour":"red","name:de":"Chollima Linie","name:en":"Chollima Line","name:fr":"ligne Chollima","name:ja":"千里馬線","name:pl":"Linia Chollima","name:zh":"千里马线","network":"평양 지하철도","operator":"평양지하철도관리국","wikidata":"Q711112","description":"Southbound","public_transport:version":"2"},"6895077":{"to":"함흥","ref":"서호선","from":"서호역","name":"서호선 (西湖 線) NB","type":"route","route":"light_rail","name:en":"Sŏho Line (Northbound)","name:fr":"ligne SOHO (Direction Nord)","name:ru":"Сохо (North)","name:zh":"西湖线","network":"함흥","name:ko-Hani":"西湖線","public_transport:version":"2"},"7734277":{"to":"락원","ref":"2","from":"광복","name":"혁신선","type":"route","route":"subway","colour":"green","name:en":"Hyŏksin line","name:fr":"ligne Hyŏksin","name:zh":"革新线","network":"평양 지하철도","operator":"평양지하철도관리국","wikidata":"Q712790","description":"Northbound","public_transport:version":"2"},"7734278":{"to":"붉은별역","ref":"1","from":"부흥역","name":"천리마선","type":"route","route":"subway","colour":"red","name:de":"Chollima Linie","name:en":"Chollima Line","name:fr":"ligne Chollima","name:ja":"千里馬線","name:pl":"Linia Chollima","name:zh":"千里马线","network":"평양 지하철도","operator":"평양지하철도관리국","wikidata":"Q711112","description":"Northbound","public_transport:version":"2"},"12249551":{"to":"서호역","ref":"서호선","from":"함흥","name":"서호선 (西湖 線) SB","type":"route","route":"light_rail","name:en":"Sŏho Line (Southbound)","name:fr":"ligne SOHO (Direction Sud)","name:ru":"Сохо (South)","name:zh":"西湖線","network":"함흥","name:ko-Hani":"西湖線","public_transport:version":"2"}}