{"443803":{"to":"오금","ref":"3","from":"대화","name":"서울 지하철 3호선: 대화 → 오금","type":"route","route":"subway","to:en":"Ogeum","colour":"#FE5B10","from:en":"Daehwa","name:en":"Seoul Metro Line 3: Daehwa → Ogeum","name:es":"Línea 3 del metro de Seúl: Daehwa → Ogeum","name:ko":"수도권 전철 3호선: 대화 → 오금","network":"수도권 전철","operator":"서울교통공사;한국철도공사","wikidata":"Q20393","wikipedia":"en:Seoul Subway Line 3","network:en":"Seoul Metropolitan Subway System","network:ko":"수도권 전철","network:zh":"韓國首都圈電鐵","operator:en":"Seoul Metro","network:metro":"Seoul Metropolitan Subway","network:wikidata":"Q16950","network:wikipedia":"ko:수도권 전철","public_transport:version":"2"},"2194999":{"to":"양산","ref":"2","from":"장산","name":"부산 도시철도 2호선","type":"route","route":"subway","to:en":"Yangsan","colour":"#81BF48","from:en":"Jangsan","name:en":"Busan Metro Line 2 (Green Line)","name:es":"Línea 2 del metro de Busan","name:ko":"부산 도시철도 2호선","network":"부산 도시철도","operator":"부산교통공사","wikidata":"Q86467","wikipedia":"en:Busan Metro Line 2","network:en":"Busan Metro","wheelchair":"yes","public_transport:version":"2"},"2195014":{"ref":"3","name":"부산 도시철도 3호선","type":"route","route":"subway","colour":"#BB8C00","name:en":"Busan Metro Line 3 (Brown Line)","name:es":"Línea 3 del metro de Busan","network":"부산 도시철도","operator":"부산교통공사","wikidata":"Q86468","wikipedia":"en:Busan Metro Line 3","network:en":"Busan Metro","wheelchair":"yes","operator:en":"Busan Transportation Corporation","public_transport:version":"2"},"2201600":{"to":"다대포해수욕장역","ref":"1","from":"노포","name":"부산 도시철도 1호선: 노포 → 다대포해수욕장","type":"route","route":"subway","to:en":"Dadaepo Beach","colour":"#F06A00","from:en":"Nopo","name:en":"Busan Metro Line 1: Nopo → Dadaepo Beach","name:es":"Línea 1 del metro de Busan","name:ja":"釜山都市鉄道 1号線","name:ko":"부산 도시철도 1호선: 노포 → 다대포해수욕장","network":"부산 도시철도","operator":"부산교통공사","wikidata":"Q86356","wikipedia":"en:Busan Metro Line 1","network:en":"Busan Metro","wheelchair":"yes","alt_name:en":"Orange Line","operator:en":"Busan Transportation Corporation","public_transport:version":"2"},"2204611":{"to":"가야대","ref":"BGL","from":"사상","name":"부산김해경전철: 사상 → 가야대","type":"route","route":"light_rail","colour":"#8652A1","name:en":"Busan–Gimhae Light Rail Transit","name:es":"Tren ligero Busan–Gimhae","network":"부산 도시철도","operator":"부산김해경전철운영(주)","wikidata":"Q87056","network:en":"Busan Metro","public_transport:version":"2"},"2404374":{"ref":"2","name":"서울 지하철 2호선: 외선순환","type":"route","route":"subway","colour":"#33A23D","name:en":"Seoul Subway Line 2: Outer Circle Line","name:es":"Línea 2 del metro de Seúl: Círculo externo","name:ko":"서울 지하철 2호선: 외선순환","network":"수도권 전철","operator":"서울교통공사","wikidata":"Q17501","roundtrip":"yes","network:en":"Seoul Metropolitan Subway","network:ko":"수도권 전철","network:zh":"韓國首都圈電鐵","operator:en":"Seoul Metro","network:metro":"Seoul Metropolitan Subway","network:wikidata":"Q16950","network:wikipedia":"ko:수도권 전철","public_transport:version":"2"},"2718884":{"to":"오이도","ref":"4","from":"당고개","name":"서울 지하철 4호선: 당고개 → 오이도","type":"route","route":"subway","to:en":"Oido","colour":"#289DD5","from:en":"Danggogae","name:en":"Seoul Metropolitan Subway Line 4: Danggogae → Oido","name:ko":"수도권 전철 4호선: 당고개 → 오이도","network":"수도권 전철","alt_name":"The Blue Line","operator":"서울교통공사;한국철도공사","wikidata":"Q489253","wikipedia":"en:Seoul Subway Line 4","network:en":"Seoul Metropolitan Subway","network:ko":"수도권 전철","network:zh":"韓國首都圈電鐵","operator:en":"Seoul Metro;Korea Railroad Corporation","network:wikidata":"Q16950","network:wikipedia":"ko:수도권 전철","public_transport:version":"2"},"2718886":{"to":"부평구청","ref":"7","from":"장암","name":"서울 지하철 7호선: 장암 → 부평구청","note":"출 퇴근 시간 한정 주말 제외","type":"route","route":"subway","to:en":"Bupyeong-gu Office","colour":"#54640D","from:en":"Jangam","name:en":"Seoul Metro Line 7: Jangam → Bupyeong-gu Office","name:es":"Línea 7 del Metro de Seúl: Jangam → Bupyeong-gu Office","name:ko":"서울 지하철 7호선: 장암 → 부평구청","network":"수도권 전철","operator":"서울교통공사","wikidata":"Q22910","network:en":"Seoul Metropolitan Subway","network:ko":"수도권 전철","network:zh":"韓國首都圈電鐵","operator:en":"Seoul Metro","official_ref":"7호선","network:wikidata":"Q16950","network:wikipedia":"ko:수도권 전철","public_transport:version":"2"},"2718887":{"to":"왕십리","ref":"272","from":"고색","name":"수도권 전철 수인분당선: 고색 → 왕십리","type":"route","route":"subway","to:en":"Wangsimni","colour":"#F5A200","ref:en":"Suin-Bundang","from:en":"Gosaek","name:en":"Seoul Metropolitan Subway Suin-Bundang Line: Gosaek → Wangsimni","name:ko":"수도권 전철 수인분당선: 고색 → 왕십리","network":"수도권 전철","operator":"한국철도공사","wikidata":"Q84389881","wikipedia":"ko:수도권 전철 수인·분당선","network:en":"Seoul Metropolitan Subway","network:ko":"수도권 전철","network:zh":"韓國首都圈電鐵","operator:en":"Korail","network:wikidata":"Q16950","network:wikipedia":"ko:수도권 전철","public_transport:version":"2"},"2718888":{"to":"중앙보훈병원","ref":"9","from":"개화","name":"서울 지하철 9호선: 개화 → 중앙보훈병원","note":"All-Stop Train","type":"route","route":"subway","to:en":"VHS Medical Center","colour":"#aa9872","from:en":"Gaehwa","name:en":"Seoul Subway Line 9: Gaewha → VHS Medical Center","name:ko":"서울 지하철 9호선: 개화 → 중앙보훈병원","network":"수도권 전철;서울 지하철","operator":"서울시메트로9호선;서울교통공사","wikidata":"Q17503","wikipedia":"en:Seoul Subway Line 9","network:en":"Seoul Metropolitan Subway System","network:ko":"수도권 전철","network:zh":"韓國首都圈電鐵","wheelchair":"yes","operator:en":"Seoul Metro Line 9 Corporation","text_colour":"#FFFFFF","network:metro":"Seoul Metropolitan Subway","network:wikidata":"Q16950","network:wikipedia":"ko:수도권 전철","public_transport:version":"2"},"2718901":{"to":"모란","ref":"8","from":"암사","name":"서울 지하철 8호선: 암사 → 모란","type":"route","route":"subway","to:en":"Moran","colour":"#EA545D","from:en":"Amsa","name:en":"Seoul Subway Line 8: Amsa → Moran","name:ko":"서울 지하철 8호선: 암사 → 모란","network":"수도권 전철","operator":"서울교통공사","wikidata":"Q45086","network:en":"Seoul Metropolitan Subway","network:ko":"수도권 전철","network:zh":"韓國首都圈電鐵","operator:en":"Seoul Metro","official_ref":"8호선","network:metro":"Seoul Metropolitan Subway","network:wikidata":"Q16950","network:wikipedia":"ko:수도권 전철","public_transport:version":"2"},"2911378":{"ref":"A","from":"인천공항2터미널","name":"인천국제공항철도 완행: 인천공항2터미널 → 서울역","type":"route","brand":"A'REX","route":"subway","colour":"#3681B7","from:en":"Incheon International Airport Terminal 2","name:en":"Airport Railroad Express All-stops: Incheon Int'l Airport Terminal 2 → Seoul Station","name:es":"Airport Railroad Express - Todas las paradas: Incheon Int'l Airport Terminal 2 → Seoul Station","name:ko":"인천국제공항철도 완행: 인천공항2터미널 → 서울역","network":"수도권 전철","note:en":"See website https://www.arex.or.kr/main.do. Direct line don't stops in Gimpo airport","service":"regional","duration":"66","interval":"8","operator":"공항철도(주)","ref:note":"A is for Airport Line, see http://www.seoulmetro.co.kr/download/map_english.pdf","wikidata":"Q487643","network:en":"Seoul Metropolitan Subway","network:ko":"수도권 전철","wheelchair":"yes","operator:en":"Korail Airport Railroad","network:metro":"Seoul Metropolitan Subway","opening_hours":"Mo-Su 05:20-23:59","source:duration":"https://www.arex.or.kr/content.do?url=&menuNo=MN201503300000000006&clientLocale=en_US","network:wikidata":"Q16950","network:wikipedia":"ko:수도권 전철","public_transport:version":"2"},"3012654":{"to":"인천","ref":"272","from":"오이도","name":"수도권 전철 수인분당선: 오이도 → 인천","type":"route","route":"subway","colour":"#F5A200","ref:en":"Suin","alt_ref":"K2","name:en":"Seoul Metropolitan Subway Suin-Bundang Line : Oido → Incheon","name:es":"Línea Suin-Bundang","name:ko":"수도권 전철 수인분당선: 오이도 → 인천","network":"수도권 전철","operator":"한국철도공사","wikidata":"Q84389881","wikipedia":"ko:수도권 전철 수인·분당선","network:en":"Seoul Metropolitan Subway","network:ko":"수도권 전철","network:zh":"韓國首都圈電鐵","wheelchair":"yes","operator:en":"Korea Railroad Corporation","official_ref":"수인","network:wikidata":"Q16950","network:wikipedia":"ko:수도권 전철","public_transport:version":"2"},"3573517":{"to":"기흥","ref":"E","from":"전대·에버랜드역","name":"용인 경전철: 전대·에버랜드 → 기흥","type":"route","route":"light_rail","to:en":"Giheung","colour":"#509F22","ref:en":"EverLine","from:en":"Jeondae·Everland Station","name:en":"Yongin Light Rail Transit","name:es":"Yongin EverLine","name:ko":"용인 경전철: 전대·에버랜드 → 기흥","network":"수도권 전철","alt_name":"용인에버라인","operator":"네오트랜스주식회사","network:en":"Seoul Metropolitan Subway System","wheelchair":"no","alt_name:en":"Yongin Everline","alt_name:ko":"용인에버라인","official_ref":"에버라인","network:metro":"Seoul Metropolitan Subway"},"4727111":{"to":"봉화산","ref":"6","from":"응암","name":"서울 지하철 6호선: 응암순환 → 봉화산","type":"route","route":"subway","to:en":"Bonghwasan","colour":"#9E4510","from:en":"Eungam","name:en":"Seoul Subway Line 6: Eungam Loop → Bonghwasan","name:es":"Línea 6 del metro de Seúl: Eungam Loop → Bonghwasan","name:ko":"서울 지하철 6호선: 응암순환 → 봉화산","network":"수도권 전철","operator":"서울교통공사","wikidata":"Q92549","wikipedia":"ko:서울 지하철 6호선","network:en":"Seoul Metropolitan Subway","network:ko":"수도권 전철","network:zh":"韓國首都圈電鐵","operator:en":"Seoul Metro","network:metro":"Seoul Metropolitan Subway","network:wikidata":"Q16950","network:wikipedia":"ko:수도권 전철","public_transport:version":"2"},"4729405":{"to":"성수","ref":"2","from":"신설동","name":"서울 지하철 2호선 성수지선: 신설동 → 성수","type":"route","route":"subway","colour":"#33A23D","name:en":"Seoul Subway Line 2 Seongsu Branch: Shinseol-dong → Seongsu","name:ko":"서울 지하철 2호선 성수지선: 신설동 → 성수","network":"수도권 전철","operator":"서울교통공사","wikidata":"Q17501","network:en":"Seoul Metropolitan Subway","network:ko":"수도권 전철","network:zh":"韓國首都圈電鐵","operator:en":"Seoul Metro","official_ref":"2호선","network:metro":"Seoul Metropolitan Subway","network:wikidata":"Q16950","network:wikipedia":"ko:수도권 전철","public_transport:version":"2"},"4729406":{"to":"신설동","ref":"2","from":"성수","name":"서울 지하철 2호선 성수지선: 성수 → 신설동","type":"route","route":"subway","colour":"#33A23D","name:en":"Seoul Subway Line 2 Seongsu Branch: Seongsu → Shinseol-dong","name:ko":"서울 지하철 2호선 성수지선: 성수 → 신설동","network":"수도권 전철","operator":"서울교통공사","wikidata":"Q17501","network:en":"Seoul Metropolitan Subway","network:ko":"수도권 전철","network:zh":"韓國首都圈電鐵","operator:en":"Seoul Metro","official_ref":"2호선","network:metro":"Seoul Metropolitan Subway","network:wikidata":"Q16950","network:wikipedia":"ko:수도권 전철","public_transport:version":"2"},"4729407":{"ref":"2","name":"서울 지하철 2호선 신정지선: 신도림 → 까치산 방면","type":"route","route":"subway","colour":"#33A23D","name:en":"Seoul Subway Line 2 Sinjeong Branch: Sindorim → Kkachisan","name:ko":"서울 지하철 2호선 신정지선: 신도림 → 까치산 방면","name:zh":"首爾地鐵2號線-新亭支線","network":"수도권 전철","operator":"서울교통공사","wikidata":"Q17501","network:en":"Seoul Metropolitan Subway","network:ko":"수도권 전철","network:zh":"韓國首都圈電鐵","operator:en":"Seoul Metro","official_ref":"2호선","network:metro":"Seoul Metropolitan Subway","network:wikidata":"Q16950","public_transport:version":"2"},"4729408":{"ref":"2","name":"서울 지하철 2호선 신정지선: 까치산 → 신도림","type":"route","route":"subway","colour":"#33A23D","name:en":"Seoul Subway Line 2 Sinjeong Branch: Kkachisan → Sindorim","name:ko":"서울 지하철 2호선 신정지선: 까치산 → 신도림","name:zh":"首爾地鐵2號線-新亭支線","network":"수도권 전철","operator":"서울교통공사","wikidata":"Q17501","network:en":"Seoul Metropolitan Subway","network:ko":"수도권 전철","network:zh":"韓國首都圈電鐵","operator:en":"Seoul Metro","official_ref":"2호선","network:metro":"Seoul Metropolitan Subway","network:wikidata":"Q16950","public_transport:version":"2"},"4729409":{"ref":"2","name":"서울 지하철 2호선: 내선순환","type":"route","route":"subway","colour":"#33A23D","name:en":"Seoul Subway Line 2: Inner Circle Line","name:es":"Línea 2 del metro de Seúl: Círculo interno","name:ko":"서울 지하철 2호선: 내선순환","network":"수도권 전철","operator":"서울교통공사","wikidata":"Q17501","roundtrip":"yes","network:en":"Seoul Metropolitan Subway","network:ko":"수도권 전철","network:zh":"韓國首都圈電鐵","operator:en":"Seoul Metro","network:metro":"Seoul Metropolitan Subway","network:wikidata":"Q16950","network:wikipedia":"ko:수도권 전철","public_transport:version":"2"},"4729445":{"to":"대화","ref":"3","from":"오금","name":"서울 지하철 3호선: 오금 → 대화","type":"route","route":"subway","to:en":"Daehwa","colour":"#FE5B10","from:en":"Ogeum","name:en":"Seoul Metro Line 3: Ogeum → Daehwa","name:es":"Línea 3 del metro de Seúl: Ogeum → Daehwa","name:ko":"수도권 전철 3호선: 오금 → 대화","network":"수도권 전철","operator":"서울교통공사;한국철도공사","wikidata":"Q20393","wikipedia":"en:Seoul Subway Line 3","network:en":"Seoul Metropolitan Subway System","network:ko":"수도권 전철","network:zh":"韓國首都圈電鐵","operator:en":"Seoul Metro","network:metro":"Seoul Metropolitan Subway","network:wikidata":"Q16950","network:wikipedia":"ko:수도권 전철","public_transport:version":"2"},"4744311":{"to":"당고개","ref":"4","from":"오이도","name":"서울 지하철 4호선: 오이도 → 당고개","type":"route","route":"subway","to:en":"Danggogae","colour":"#289DD5","from:en":"Oido","name:en":"Seoul Subway Line 4: Oido → Danggogae","name:ko":"수도권 전철 4호선: 오이도 → 당고개","network":"수도권 전철","alt_name":"The Blue Line","operator":"서울교통공사;한국철도공사","wikidata":"Q489253","wikipedia":"en:Seoul Subway Line 4","network:en":"Seoul Metropolitan Subway","network:ko":"수도권 전철","network:zh":"韓國首都圈電鐵","operator:en":"Seoul Metro;Korea Railroad Corporation","network:wikidata":"Q16950","network:wikipedia":"ko:수도권 전철","public_transport:version":"2"},"4744337":{"ref":"5","name":"서울 지하철 5호선: 마천 → 강동","type":"route","route":"subway","colour":"#996CAC","name:en":"Seoul Subway Line 5: Macheon → Gangdong","name:ko":"서울 지하철 5호선: 마천 → 강동","network":"수도권 전철","operator":"서울교통공사","wikidata":"Q92530","wikipedia":"en:Seoul Subway Line 5","network:en":"Seoul Metropolitan Subway","network:ko":"수도권 전철","network:zh":"韓國首都圈電鐵","operator:en":"Seoul Metro","official_ref":"5호선","network:wikidata":"Q16950","network:wikipedia":"ko:수도권 전철","public_transport:version":"2"},"4744338":{"ref":"5","name":"서울 지하철 5호선: 강동 → 마천","type":"route","route":"subway","colour":"#996CAC","name:en":"Seoul Subway Line 5: Gangdong → Macheon","name:ko":"서울 지하철 5호선: 강동 → 마천","network":"수도권 전철","operator":"서울교통공사","wikidata":"Q92530","wikipedia":"en:Seoul Subway Line 5","network:en":"Seoul Metropolitan Subway","network:ko":"수도권 전철","network:zh":"韓國首都圈電鐵","operator:en":"Seoul Metro","official_ref":"5호선","network:wikidata":"Q16950","network:wikipedia":"ko:수도권 전철","public_transport:version":"2"},"4744339":{"to":"방화","ref":"5","from":"상일동","name":"수도권 전철 5호선: 상일동 → 방화","type":"route","route":"subway","to:en":"Banghwa","colour":"#996CAC","from:en":"Sangil-dong","name:en":"Seoul Metropolitan Subway Line 5 Sangil-dong → Banghwa","name:ko":"수도권 전철 5호선: 상일동 → 방화","network":"수도권 전철","operator":"서울교통공사","wikidata":"Q92530","wikipedia":"en:Seoul Subway Line 5","network:en":"Seoul Metropolitan Subway","network:ko":"수도권 전철","network:zh":"韓國首都圈電鐵","operator:en":"Seoul Metro","official_ref":"5호선","network:wikidata":"Q16950","network:wikipedia":"ko:수도권 전철","public_transport:version":"2"},"4744340":{"to":"상일동","ref":"5","from":"방화","name":"수도권 전철 5호선: 방화 → 상일동","type":"route","route":"subway","to:en":"Sangil-dong","colour":"#996CAC","from:en":"Banghwa","name:en":"Seoul Metropolitan Subway Line 5: Bangwha → Sangil-dong","name:ko":"수도권 전철 5호선: 방화 → 상일동","network":"수도권 전철","operator":"서울교통공사","wikidata":"Q92530","wikipedia":"en:Seoul Subway Line 5","network:en":"Seoul Metropolitan Subway","network:ko":"수도권 전철","network:zh":"韓國首都圈電鐵","operator:en":"Seoul Metro","official_ref":"5호선","network:wikidata":"Q16950","network:wikipedia":"ko:수도권 전철","public_transport:version":"2"},"4748705":{"to":"금천구청","ref":"1","from":"광명","name":"수도권 전철 1호선 광명 셔틀: 광명 → 영등포","type":"route","route":"subway","colour":"#005DAA","name:en":"Seoul Metropolitan Subway Line 1 Gwangmyeong Shuttle: Gwangmyeong → Yeongdeungpo","name:es":"Línea 1 del metro de Seúl Transporte Gwangmyeong: Gwangmyeong → Yeongdeungpo","name:ko":"수도권 전철 1호선 광명 셔틀: 광명 → 영등포","network":"수도권 전철","operator":"한국철도공사","wikidata":"Q20280","wikipedia":"ko:수도권 전철 1호선","network:en":"Seoul Metropolitan Subway","network:ko":"수도권 전철","network:zh":"韓國首都圈電鐵","description":"시간표가 코레일의 사정에 따라 상당히 자주, 예고없이 불시에 바뀌므로 반드시 공식 홈페이지에서 시간표를 다운로드받아 확인하세요. (http://www.letskorail.com/ebizcom/cs/guide/guide/guide11.do)","operator:en":"Korail;Seoul Metro","official_ref":"1호선","network:wikidata":"Q16950","network:wikipedia":"ko:수도권 전철","public_transport:version":"2"},"4784126":{"to":"김포공항","ref":"9","from":"중앙보훈병원","name":"서울 지하철 9호선 급행: 중앙보훈병원 → 김포공항","type":"route","route":"subway","to:en":"Gimpo Int'l Airport","colour":"#aa9872","from:en":"VHS Medical Center","name:en":"Seoul Subway Line 9 Express Train: Sports Complex → Gimpo Int'l Airport","network":"수도권 전철","operator":"서울시메트로9호선 주식회사","wikidata":"Q17503","wikipedia":"en:Seoul Subway Line 9","network:en":"Seoul Metropolitan Subway","network:ko":"수도권 전철","network:zh":"韓國首都圈電鐵","wheelchair":"yes","operator:en":"Seoul Metro Line 9 Corporation","text_colour":"#FFFFFF","network:metro":"Seoul Metropolitan Subway","network:wikidata":"Q16950","network:wikipedia":"ko:수도권 전철","public_transport:version":"2"},"5993211":{"to":"문산","ref":"G·J","from":"용문","name":"수도권 전철 경의·중앙선: 용문 → 문산","type":"route","route":"subway","colour":"#73C7A6","ref:en":"Gyeongui–Jungang","ref:ko":"경의중앙선","name:en":"Seoul Metropolitan Subway Gyeongeui-Jungang Line: Yongmun → Munsan","name:es":"Línea Gyeongeui-Jungang: Jipyeong → Munsan","name:ko":"수도권 전철 경의·중앙선: 용문 → 문산","network":"수도권 전철","operator":"한국철도공사","wikidata":"Q18233162","network:en":"Seoul Metropolitan Subway","network:ko":"수도권 전철","network:zh":"韓國首都圈電鐵","official_ref":"경의중앙선","network:wikidata":"Q16950","network:wikipedia":"ko:수도권 전철","public_transport:version":"2"},"5993212":{"to":"용문","ref":"G·J","from":"문산","name":"수도권 전철 경의·중앙선: 문산 → 용문","type":"route","route":"subway","colour":"#73C7A6","ref:en":"Gyeongui–Jungang","ref:ko":"경의중앙선","name:en":"Seoul Metropolitan Subway Gyeongeui-Jungang Line: Munsan → Yongmun","name:es":"Línea Gyeongeui-Jungang: Munsan → Jipyeong","name:ko":"수도권 전철 경의·중앙선: 문산 → 용문","network":"수도권 전철","operator":"한국철도공사","wikidata":"Q18233162","network:en":"Seoul Metropolitan Subway","network:ko":"수도권 전철","network:zh":"韓國首都圈電鐵","official_ref":"경의중앙선","network:wikidata":"Q16950","network:wikipedia":"ko:수도권 전철","public_transport:version":"2"},"6060963":{"to":"광교(경기대)","ref":"326","from":"신사","name":"수도권 전철 신분당선: 신사 → 광교","type":"route","route":"subway","to:en":"Gwangyo (Kyonggi Univ.)","colour":"#C82127","ref:en":"Shinbundang","alt_ref":"S","from:en":"Sinsa","name:en":"Seoul Metropolitan Subway Shinbundang Line: Sinsa→ Gwangyo","name:es":"Línea Shinbundang hacia Gwanggyo","name:ko":"수도권 전철 신분당선: 신사 → 광교","network":"수도권 전철","alt_name":"DX Line","duration":"00:42","operator":"네오트랜즈주식회사","wikidata":"Q20388","wikipedia":"en:Shinbundang Line","network:en":"Seoul Metropolitan Subway","network:ko":"수도권 전철","ref:source":"https://www.shinbundang.co.kr/eng/index.jsp","operator:en":"NeoTrans Co. Ltd.","official_ref":"신분당","network:metro":"neotrans","network:wikidata":"Q16950","network:wikipedia":"ko:수도권 전철","public_transport:version":"2"},"6064093":{"to":"전대·에버랜드역","ref":"E","from":"기흥","name":"용인 경전철: 기흥 → 전대·에버랜드","type":"route","route":"light_rail","to:en":"Jeondae·Everland Station","colour":"#509F22","ref:en":"EverLine","from:en":"Giheung","name:en":"Yongin Light Rail Transit","name:es":"Yongin EverLine","name:ko":"용인 경전철: 기흥 → 전대·에버랜드","network":"수도권 전철","alt_name":"용인에버라인","operator":"네오트랜스주식회사","network:en":"Seoul Metropolitan Subway System","alt_name:en":"Yongin Everline","alt_name:ko":"용인에버라인","official_ref":"에버라인","network:metro":"Seoul Metropolitan Subway"},"6064104":{"to":"고색","ref":"272","from":"왕십리","name":"수도권 전철 수인분당선: 왕십리 → 고색","type":"route","route":"subway","to:en":"Gosaek","colour":"#F5A200","ref:en":"Suin-Bundang","from:en":"Wangsimni","name:en":"Seoul Metropolitan Subway Suin-Bundang Line: Wangsimni → Gosaek","name:ko":"수도권 전철 수인분당선: 왕십리 → 고색","network":"수도권 전철","operator":"한국철도공사","wikidata":"Q84389881","wikipedia":"ko:수도권 전철 수인·분당선","network:en":"Seoul Metropolitan Subway","network:ko":"수도권 전철","network:zh":"韓國首都圈電鐵","operator:en":"Korail","network:wikidata":"Q16950","network:wikipedia":"ko:수도권 전철","public_transport:version":"2"},"6064114":{"to":"고색","ref":"272","from":"왕십리","name":"수도권 전철 수인분당선 급행: 왕십리 → 고색","type":"route","route":"subway","to:en":"Gosaek","colour":"#F5A200","ref:en":"Suin-Bundang","from:en":"Wangsimni","name:en":"Seoul Metropolitan Subway Suin-Bundang Line Rapid: Wagsimni → Gosaek","name:ko":"수도권 전철 수인분당선 급행: 왕십리 → 고색","network":"수도권 전철","operator":"한국철도공사","wikidata":"Q84389881","wikipedia":"ko:수도권 전철 수인·분당선","network:en":"Seoul Metropolitan Subway","network:ko":"수도권 전철","network:zh":"韓國首都圈電鐵","operator:en":"Korail","network:wikidata":"Q16950","network:wikipedia":"ko:수도권 전철","public_transport:version":"2"},"6064115":{"to":"왕십리","ref":"272","from":"수원","name":"수도권 전철 수인분당선 급행: 고색 → 왕십리","type":"route","route":"subway","to:en":"Wangsimni","colour":"#F5A200","ref:en":"Bundang","from:en":"Suwon","name:en":"Seoul Metropolitan Subway Suin-Bundang Line Rapid: Gosaek → Wangsimni","name:ko":"수도권 전철 수인분당선 급행: 고색 → 왕십리","network":"수도권 전철","operator":"한국철도공사","network:en":"Seoul Metropolitan Subway","network:ko":"수도권 전철","network:zh":"韓國首都圈電鐵","operator:en":"Korail","network:wikidata":"Q16950","network:wikipedia":"ko:수도권 전철","public_transport:version":"2"},"6462562":{"to":"여주","ref":"323","from":"판교","name":"수도권 전철 경강선: 판교 → 여주","type":"route","route":"subway","to:en":"Yeoju","colour":"#0054A6","from:en":"Pangyo","name:en":"Seoul Metropolitan Subway Gyeonggang Line: Pangyo → Yeoju","name:es":"Línea Gyeonggang del metro de Seúl: Pangyo → Yeoju","name:ko":"수도권 전철 경강선: 판교 → 여주","network":"수도권 전철","operator":"한국철도공사","wikidata":"Q23933857","wikipedia":"en:Gyeonggang Line","network:en":"Seoul Metropolitan Subway","network:ko":"수도권 전철","network:zh":"韓國首都圈電鐵","operator:en":"Korail","network:metro":"Seoul Metropolitan Subway","network:wikidata":"Q16950","network:wikipedia":"ko:수도권 전철","public_transport:version":"2"},"6462563":{"to":"판교","ref":"323","from":"여주","name":"수도권 전철 경강선: 여주 → 판교","note":"This section connects on Seoul Metropolitan Subway","type":"route","route":"subway","to:en":"Pangyo","colour":"#0054A6","from:en":"Yeoju","name:en":"Seoul Metropolitan Subway Gyeonggang Line: Yeoju → Pangyo","name:es":"Línea Gyeonggang del metro de Seúl: Yeoju → Pangyo","name:ko":"수도권 전철 경강선: 여주 → 판교","network":"수도권 전철","operator":"한국철도공사","wikidata":"Q23933857","network:en":"Seoul Metropolitan Subway","network:ko":"수도권 전철","network:zh":"韓國首都圈電鐵","operator:en":"Korail","network:metro":"Seoul Metropolitan Subway","network:wikidata":"Q16950","network:wikipedia":"ko:수도권 전철","public_transport:version":"2"},"6708903":{"to":"태화강","ref":"311","from":"부전","name":"동해선 광역전철: 부전 → 태화강","type":"route","route":"subway","to:en":"Taehwagang","colour":"#00A2C9","ref:en":"Donghae","from:en":"Bujeon","name:en":"Donghae Line: Bujeon→ Taehwagang","name:es":"Línea Donghae","name:ko":"동해선 광역전철: 부전 → 태화강","network":"부산 도시철도","operator":"한국철도공사","wikidata":"Q11235800","wikipedia":"en:Donghae Line","network:en":"Busan Metro","operator:en":"Korea Railroad Corporation","public_transport:version":"2"},"7237829":{"to":"반석","ref":"1","from":"판암","name":"대전 도시철도 1호선: 판암 → 반석","type":"route","route":"subway","to:en":"Banseok","colour":"#007448","from:en":"Pannam","name:en":"Daejeon Metro Line 1","name:es":"Línea 1 del metro de Daejeon","name:ko":"대전 도시철도 1호선: 판암 → 반석","network":"대전도시철도","operator":"대전광역시 도시철도공사","wikidata":"Q200310","wikipedia":"ko:대전 도시철도 1호선","network:en":"Daejeon Metro","operator:en":"DJET","public_transport:version":"2"},"7527496":{"to":"운연","ref":"I2","from":"검단오류역","name":"인천 도시철도 2호선: 검단오류 → 운연","type":"route","route":"light_rail","to:en":"Unyeon","colour":"#ED8000","ref:en":"I2","from:en":"Geomdan Oryu","name:en":"Incheon Subway Line 2: Geomdan Oryu → Unyeon","name:es":"Línea 2 del metro de Incheon","name:ko":"인천 도시철도 2호선: 검단오류 → 운연","network":"수도권 전철;인천도시철도","operator":"인천교통공사","wikidata":"Q484739","wikipedia":"en:Incheon Subway Line 2","network:en":"Seoul Metropolitan Subway System;Incheon Subway","operator:en":"Incheon Transit Corporation","official_ref":"인천 2호선","network:metro":"incheon","operator:wikidata":"Q483883","public_transport:version":"2"},"7527497":{"to":"검단오류역","ref":"I2","from":"운연","name":"인천 도시철도 2호선: 운연 → 검단오류","type":"route","route":"light_rail","to:en":"Geomdan Oryu","colour":"#ED8000","ref:en":"I2","from:en":"Unyeon","name:en":"Incheon Subway Line 2: Unyeon → Geomdan Oryu","name:es":"Línea 2 del metro de Incheon","name:ko":"인천 도시철도 2호선: 운연 → 검단오류","network":"수도권 전철;인천도시철도","operator":"인천교통공사","wikipedia":"en:Incheon Subway Line 2","network:en":"Seoul Metropolitan Subway System;Incheon Subway","operator:en":"Incheon Transit Corporation","official_ref":"인천 2호선","network:metro":"incheon","operator:wikidata":"Q483883","public_transport:version":"2"},"7530880":{"ref":"U","name":"의정부경전철: 발곡 → 탑석","type":"route","route":"light_rail","colour":"#FDA600","name:en":"Uijeongbu LRT","name:es":"Uijeongbu LRT","name:ko":"의정부경전철: 발곡 → 탑석","network":"수도권 전철","operator":"인천교통공사","wikidata":"Q491655","wikipedia":"ko:의정부 경전철","network:en":"Seoul Metropolitan Subway","network:ko":"수도권 전철","network:zh":"韓國首都圈電鐵","operator:en":"Incheon Transit Corporation","official_ref":"의정부","short_name:en":"U Line","network:wikidata":"Q16950","public_transport:version":"2"},"7530881":{"ref":"U","name":"의정부경전철: 탑석 → 발곡","type":"route","route":"light_rail","colour":"#FDA600","name:en":"Uijeongbu LRT","name:es":"Uijeongbu LRT","name:ko":"의정부경전철: 탑석 → 발곡","network":"수도권 전철","operator":"인천교통공사","wikidata":"Q491655","wikipedia":"ko:의정부 경전철","network:en":"Seoul Metropolitan Subway","network:ko":"수도권 전철","network:zh":"韓國首都圈電鐵","operator:en":"Incheon Transit Corporation","official_ref":"의정부","short_name:en":"U Line","network:wikidata":"Q16950","public_transport:version":"2"},"7533582":{"ref":"W","name":"서울 경전철 우이신설선: 북한산우이 → 신설동","type":"route","route":"light_rail","colour":"#B0CE18","name:en":"Seoul LRT Ui-Sinseol Line: Bukhansan Ui → Sinseol-dong","name:ko":"서울 경전철 우이신설선: 북한산우이 → 신설동","wikidata":"Q3832795","wikipedia":"en:Ui LRT","ref:source":"http://www.seoulmetro.co.kr/download/map_english.pdf","official_ref":"Ui LRT","public_transport:version":"2"},"7533583":{"ref":"W","name":"서울 경전철 우이신설선: 신설동 → 북한산우이","type":"route","route":"light_rail","colour":"#B0CE18","name:en":"Seoul LRT Ui-Sinseol Line: Sinseol-dong → Bukhansan Ui","name:ko":"서울 경전철 우이신설선: 신설동 → 북한산우이","wikidata":"Q3832795","wikipedia":"en:Ui LRT","ref:source":"http://www.seoulmetro.co.kr/download/map_english.pdf","official_ref":"Ui LRT","public_transport:version":"2"},"7685464":{"ref":"1","name":"대구 도시철도 1호선","type":"route","route":"subway","colour":"#D93F5C","name:en":"Daegu Metro Line 1","name:es":"Línea 1 del metro de Daegu","network":"대구도시철도","wikidata":"Q200331","network:en":"Daegu Metro","public_transport:version":"2"},"7685783":{"to":"영남대역","ref":"2","from":"문양역","name":"대구 도시철도 2호선","type":"route","route":"subway","colour":"#00AA80","name:en":"Daegu Metro Line 2","name:es":"Línea 2 del metro de Daegu","name:ja":"大邱都市鉄道 2号線","network":"대구도시철도","wikidata":"Q200332","network:en":"Daegu Metro","public_transport:version":"2"},"7705729":{"to":"사상","ref":"BGL","from":"가야대","name":"부산김해경전철: 가야대 → 사상","type":"route","route":"light_rail","to:en":"Sasang","colour":"#8652A1","from:en":"Kaya University","name:en":"Busan–Gimhae Light Rail Transit","name:es":"Tren ligero Busan–Gimhae","network":"부산 도시철도","operator":"부산김해경전철운영(주)","wikidata":"Q87056","network:en":"Busan Metro","public_transport:version":"2"},"7792527":{"to":"판암","ref":"1","from":"반석","name":"대전 도시철도 1호선: 반석 → 판암","type":"route","route":"subway","to:en":"Pannam","colour":"#007448","from:en":"Banseok Station","name:en":"Daejeon Metro Line 1","name:es":"Línea 1 del metro de Daejeon","name:ko":"대전 도시철도 1호선: 반석 → 판암","network":"대전도시철도","operator":"대전 도시철도공사","wikidata":"Q200310","wikipedia":"ko:대전 도시철도 1호선","network:en":"Daejeon Metro","operator:en":"DJET","public_transport:version":"2"},"7845968":{"to":"문양역","ref":"2","from":"영남대역","name":"대구 도시철도 2호선","type":"route","route":"subway","colour":"#00AA80","name:en":"Daegu Metro Line 2","name:es":"Línea 2 del metro de Daegu","name:ja":"大邱都市鉄道 2号線","network":"대구도시철도","wikidata":"Q200332","network:en":"Daegu Metro","public_transport:version":"2"},"7845970":{"ref":"1","name":"대구 도시철도 1호선","type":"route","route":"subway","colour":"#D93F5C","name:en":"Daegu Metro Line 1","name:es":"Línea 1 del metro de Daegu","network":"대구도시철도","wikidata":"Q200331","network:en":"Daegu Metro","public_transport:version":"2"},"7854148":{"ref":"I1","name":"인천 도시철도 1호선: 계양 → 송도달빛축제공원","type":"route","route":"subway","colour":"#7CA8D5","name:en":"Incheon Subway Line 1: Gyeyang → Songdo Moonlight Festival Park","name:es":"Línea 1 del metro de Incheon","name:ko":"인천 도시철도 1호선: 계양 → 송도달빛축제공원","network":"수도권 전철;인천도시철도","operator":"인천교통공사","wikidata":"Q487733","wikipedia":"ko:인천 도시철도 1호선","network:en":"Seoul Metropolitan Subway System;Incheon Subway","operator:en":"Incheon Transit Corporation","official_ref":"인천 1","network:metro":"incheon","operator:wikidata":"Q483883","public_transport:version":"2"},"7883314":{"to":"개화","ref":"9","from":"중앙보훈병원","name":"서울 지하철 9호선: 중앙보훈병원 → 개화","note":"All-Stop Train","type":"route","route":"subway","to:en":"Gaehwa","colour":"#aa9872","from:en":"VHS Medical Center","name:en":"Seoul Subway Line 9: Sports VHS Medical Center → Gaewha","name:ko":"서울 지하철 9호선: 중앙보훈병원 → 개화","network":"수도권 전철;서울 지하철","operator":"서울시메트로9호선;서울교통공사","wikidata":"Q17503","wikipedia":"en:Seoul Subway Line 9","network:en":"Seoul Metropolitan Subway System","network:ko":"수도권 전철","network:zh":"韓國首都圈電鐵","wheelchair":"yes","operator:en":"Seoul Metro Line 9 Corporation","text_colour":"#FFFFFF","network:metro":"Seoul Metropolitan Subway","network:wikidata":"Q16950","network:wikipedia":"ko:수도권 전철","public_transport:version":"2"},"7919000":{"to":"인천공항2터미널","ref":"A","from":"서울역","name":"인천 국제 공항 철도 모든 정류장: 서울역 → 인천공항2터미널","type":"route","brand":"A'REX","route":"subway","to:en":"Incheon International Airport Terminal 2","colour":"#3681B7","name:en":"Airport Railroad Express All-stops: Seoul Station → Incheon Int'l Airport Terminal 2","name:es":"Airport Railroad Express - Todas las paradas: Seoul Station → Incheon Int'l Airport Terminal 2","name:ko":"인천국제공항철도: 서울역 → 인천공항2터미널","network":"수도권 전철","note:en":"See website https://www.arex.or.kr/main.do. Direct line don't stops in Gimpo airport","service":"regional","duration":"66","interval":"8","operator":"공항철도","ref:note":"A is for Airport Line, see http://www.seoulmetro.co.kr/download/map_english.pdf","wikidata":"Q487643","network:en":"Seoul Metropolitan Subway","network:ko":"수도권 전철","wheelchair":"yes","operator:en":"Korail Airport Railroad","network:metro":"Seoul Metropolitan Subway","opening_hours":"Mo-Su 05:20-23:59","source:duration":"https://www.arex.or.kr/content.do?url=&menuNo=MN201503300000000006&clientLocale=en_US","network:wikidata":"Q16950","network:wikipedia":"ko:수도권 전철","public_transport:version":"2"},"7919018":{"to":"암사","ref":"8","from":"모란","name":"서울 지하철 8호선: 모란 → 암사","type":"route","route":"subway","to:en":"Amsa","colour":"#EA545D","from:en":"Moran","name:en":"Seoul Subway Line 8: Moran → Amsa","name:ko":"서울 지하철 8호선: 모란 → 암사","network":"수도권 전철","operator":"서울교통공사","wikidata":"Q45086","network:en":"Seoul Metropolitan Subway","network:ko":"수도권 전철","network:zh":"韓國首都圈電鐵","operator:en":"Seoul Metro","official_ref":"8호선","network:metro":"Seoul Metropolitan Subway","network:wikidata":"Q16950","network:wikipedia":"ko:수도권 전철","public_transport:version":"2"},"7919153":{"to":"응암","ref":"6","from":"봉화산","name":"서울 지하철 6호선: 봉화산 → 응암순환","type":"route","route":"subway","to:en":"Eungam","colour":"#9E4510","from:en":"Bonghwasan","name:en":"Seoul Subway Line 6: Bonghwasan → Eungam Loop","name:es":"Línea 6 del metro de Seúl: Bonghwasan→ Eungam Loop","name:ko":"서울 지하철 6호선: 봉화산 → 응암순환","network":"수도권 전철","operator":"서울교통공사","wikidata":"Q92549","wikipedia":"ko:서울 지하철 6호선","network:en":"Seoul Metropolitan Subway","network:ko":"수도권 전철","network:zh":"韓國首都圈電鐵","operator:en":"Seoul Metro","network:metro":"Seoul Metropolitan Subway","network:wikidata":"Q16950","network:wikipedia":"ko:수도권 전철","public_transport:version":"2"},"7922928":{"to":"장암","ref":"7","from":"부평구청","name":"서울 지하철 7호선: 부평구청 → 장암","type":"route","route":"subway","to:en":"Jangam","colour":"#54640D","from:en":"Bupyeong-gu Office","name:en":"Seoul Metro Line 7: Bupyeong-gu Office → Jangam","name:es":"Línea 7 del Metro de Seúl: Bupyeong-gu Office → Jangam","name:ko":"서울 지하철 7호선: 부평구청 → 장암","network":"수도권 전철","operator":"서울교통공사","wikidata":"Q22910","network:en":"Seoul Metropolitan Subway","network:ko":"수도권 전철","network:zh":"韓國首都圈電鐵","operator:en":"Seoul Metro","official_ref":"7호선","network:wikidata":"Q16950","network:wikipedia":"ko:수도권 전철","public_transport:version":"2"},"8016134":{"to":"오이도","ref":"272","from":"인천","name":"수도권 전철 수인분당선: 인천 → 오이도","type":"route","route":"subway","colour":"#F5A200","ref:en":"Suin","alt_ref":"K2","name:en":"Seoul Metropolitan Subway Suin-Bundang Line : Incheon → Oido","name:es":"Línea Suin","name:ko":"수도권 전철 수인분당선: 인천 → 오이도","network":"수도권 전철","operator":"한국철도공사","wikidata":"Q84389881","wikipedia":"ko:수도권 전철 수인·분당선","network:en":"Seoul Metropolitan Subway","network:ko":"수도권 전철","network:zh":"韓國首都圈電鐵","wheelchair":"yes","operator:en":"Korea Railroad Corporation","official_ref":"수인","network:wikidata":"Q16950","network:wikipedia":"ko:수도권 전철","public_transport:version":"2"},"8032733":{"to":"유덕","ref":"2","from":"시청","name":"광주 도시철도 2호선 내선순환","type":"route","route":"light_rail","name:en":"Gwangju Metro Line 2 Inner Circle Line","name:ja":"光州都市鉄道2号線 内線循環","name:ko":"광주 도시철도 2호선 내선순환","construction":"yes","construction:route":"light_rail"},"8247016":{"ref":"3","name":"부산 도시철도 3호선","type":"route","route":"subway","colour":"#BB8C00","name:en":"Busan Metro Line 3 (Brown Line)","name:es":"Línea 3 del metro de Busan","network":"부산 도시철도","operator":"부산교통공사","wikidata":"Q86468","wikipedia":"en:Busan Metro Line 3","network:en":"Busan Metro","wheelchair":"yes","operator:en":"Busan Transportation Corporation","public_transport:version":"2"},"8255697":{"to":"노포","ref":"1","from":"다대포해수욕장 (몰운대)","name":"부산 도시철도 1호선: 다대포해수욕장 → 노포","type":"route","route":"subway","to:en":"Nope","colour":"#F06A00","from:en":"Dadaepo Beach","name:en":"Busan Metro Line 1: Nopo → Dadaepo Beach","name:es":"Línea 1 del metro de Busan","name:ja":"釜山都市鉄道 1号線","name:ko":"부산 도시철도 1호선: 다대포해수욕장 → 노포","network":"부산 도시철도","operator":"부산교통공사","wikidata":"Q86356","wikipedia":"ko:부산 도시철도 1호선","network:en":"Busan Metro","wheelchair":"yes","alt_name:en":"Orange Line","operator:en":"Busan Transportation Corporation","public_transport:version":"2"},"8258657":{"to":"장산","ref":"2","from":"양산","name":"부산 도시철도 2호선","type":"route","route":"subway","to:en":"Jangsan","colour":"#81BF48","from:en":"Yangsan","name:en":"Busan Metro Line 2 (Green Line)","name:es":"Línea 2 del metro de Busan","name:ko":"부산 도시철도 2호선","network":"부산 도시철도","operator":"부산교통공사","wikidata":"Q86467","wikipedia":"en:Busan Metro Line 2","network:en":"Busan Metro","wheelchair":"yes","public_transport:version":"2"},"8272971":{"to":"부전","ref":"311","from":"태화강","name":"동해선 광역전철: 태화강 → 부전","type":"route","route":"subway","to:en":"Bujeon","colour":"#00A2C9","ref:en":"Donghae","from:en":"Taehwagang","name:en":"Donghae Line: Taehwagang → Bujeon","name:es":"Línea Donghae","name:ko":"동해선 광역전철: 태화강 → 부전","network":"부산 도시철도","distance":"28.5 km","operator":"한국철도공사","wikidata":"Q11235800","wikipedia":"en:Donghae Line","network:en":"Busan Metro","operator:en":"Korea Railroad Corporation","public_transport:version":"2"},"8656357":{"to":"춘천","ref":"GC","from":"청량리","name":"수도권 전철 경춘선: 청량리 → 춘천","type":"route","route":"subway","to:en":"Chuncheon","colour":"#0C8E72","ref:en":"Gyeongchun","from:en":"Cheongryangni","name:en":"Seoul Metropolitan Subway Gyeongchun Line: Cheongryangni → Chuncheon","name:ko":"수도권 전철 경춘선: 청량리 → 춘천","network":"수도권 전철","alt_name":"경춘선","operator":"한국철도공사","network:en":"Seoul Metropolitan Subway","network:ko":"수도권 전철","network:zh":"韓國首都圈電鐵","operator:en":"Korail","official_ref":"경춘","network:metro":"Seoul Metropolitan Subway","network:wikidata":"Q16950","network:wikipedia":"ko:수도권 전철","public_transport:version":"2"},"8656358":{"to":"청량리","ref":"GC","from":"춘천","name":"수도권 전철 경춘선: 춘천 → 청량리","type":"route","route":"subway","to:en":"Cheongryangni","colour":"#0C8E72","ref:en":"Gyeongchun","from:en":"Chuncheon","name:en":"Seoul Metropolitan Subway Gyeongchun Line: Chuncheon → Cheongryangni","name:ko":"수도권 전철 경춘선: 춘천 → 청량리","network":"수도권 전철","alt_name":"경춘선","operator":"한국철도공사","network:en":"Seoul Metropolitan Subway","network:ko":"수도권 전철","network:zh":"韓國首都圈電鐵","operator:en":"Korail","official_ref":"경춘","network:metro":"Seoul Metropolitan Subway","network:wikidata":"Q16950","network:wikipedia":"ko:수도권 전철","public_transport:version":"2"},"8656359":{"to":"광운대","ref":"경춘선","from":"춘천","name":"수도권 전철 경춘선: 춘천 → 광운대","type":"route","route":"subway","to:en":"Gwangwoon Univ.","colour":"#0C8E72","ref:en":"Gyeongchun","from:en":"Chuncheon","name:en":"Seoul Metropolitan Subway Gyeongchun Line: Chuncheon → Gwangwoon Univ.","name:ko":"수도권 전철 경춘선: 춘천 → 광운대","network":"수도권 전철","alt_name":"경춘선","operator":"한국철도공사","network:en":"Seoul Metropolitan Subway","network:ko":"수도권 전철","network:zh":"韓國首都圈電鐵","operator:en":"Korail","official_ref":"경춘","network:metro":"Seoul Metropolitan Subway","network:wikidata":"Q16950","network:wikipedia":"ko:수도권 전철","public_transport:version":"2"},"8656362":{"to":"상봉","ref":"GC","from":"춘천","name":"수도권 전철 경춘선: 춘천 → 상봉","type":"route","route":"subway","to:en":"Sangbong","colour":"#0C8E72","ref:en":"Gyeongchun","from:en":"Chuncheon","name:en":"Seoul Metropolitan Subway Gyeongchun Line: Chuncheon → Sangbong","name:ko":"수도권 전철 경춘선: 춘천 → 상봉","network":"수도권 전철","alt_name":"경춘선","operator":"한국철도공사","network:en":"Seoul Metropolitan Subway","network:ko":"수도권 전철","network:zh":"韓國首都圈電鐵","operator:en":"Korail","official_ref":"경춘","network:metro":"Seoul Metropolitan Subway","network:wikidata":"Q16950","network:wikipedia":"ko:수도권 전철","public_transport:version":"2"},"8656363":{"to":"춘천","ref":"GC","from":"상봉","name":"수도권 전철 경춘선: 상봉 → 춘천","type":"route","route":"subway","to:en":"Chuncheon","colour":"#0C8E72","ref:en":"Gyeongchun","from:en":"Sangbong","name:en":"Seoul Metropolitan Subway Gyeongchun Line: Sangbong → Chuncheon","name:es":"Línea Gyeongchun del Metro de Seúl: Sangbong → Chuncheon","name:ko":"수도권 전철 경춘선: 상봉 → 춘천","network":"수도권 전철","alt_name":"경춘선","operator":"한국철도공사","network:en":"Seoul Metropolitan Subway","network:ko":"수도권 전철","network:zh":"韓國首都圈電鐵","operator:en":"Korail","official_ref":"경춘","network:metro":"Seoul Metropolitan Subway","network:wikidata":"Q16950","network:wikipedia":"ko:수도권 전철","public_transport:version":"2"},"8656364":{"to":"춘천","ref":"경춘선","from":"광운대","name":"수도권 전철 경춘선: 광운대 → 춘천","type":"route","route":"subway","to:en":"Chuncheon","colour":"#0C8E72","ref:en":"Gyeongchun","from:en":"Gwangwoon Univ.","name:en":"Seoul Metropolitan Subway Gyeongchun Line: Gwangwoon Univ. → Chuncheon","name:es":"Línea Gyeongchun del Metro de Seúl: Gwangwoon Univ. → Chuncheon","name:ko":"수도권 전철 경춘선: 광운대 → 춘천","network":"수도권 전철","alt_name":"경춘선","operator":"한국철도공사","network:en":"Seoul Metropolitan Subway","network:ko":"수도권 전철","network:zh":"韓國首都圈電鐵","operator:en":"Korail","official_ref":"경춘","network:metro":"Seoul Metropolitan Subway","network:wikidata":"Q16950","network:wikipedia":"ko:수도권 전철","public_transport:version":"2"},"8667955":{"to":"문산","ref":"G·J","from":"서울역","name":"수도권 전철 경의·중앙선: 문산 → 서울역","type":"route","route":"subway","colour":"#73C7A6","ref:en":"Gyeongui–Jungang","ref:ko":"경의중앙선","name:en":"Seoul Metropolitan Subway Gyeongeui-Jungang Line: Munsan → Seoul","name:es":"Línea Gyeongeui-Jungang: Munsan → Seoul","name:ko":"수도권 전철 경의·중앙선: 문산 → 서울역","network":"수도권 전철","operator":"Korail","wikidata":"Q18233162","network:en":"Seoul Metropolitan Subway","network:ko":"수도권 전철","network:zh":"韓國首都圈電鐵","official_ref":"경의중앙선","network:wikidata":"Q16950","network:wikipedia":"ko:수도권 전철","public_transport:version":"2"},"8667956":{"to":"문산","ref":"G·J","from":"서울역","name":"수도권 전철 경의·중앙선: 서울역 → 문산","type":"route","route":"subway","colour":"#73C7A6","ref:en":"Gyeongui–Jungang","ref:ko":"경의중앙선","name:en":"Seoul Metropolitan Subway Gyeongeui-Jungang Line: Seoul → Munsan","name:es":"Línea Gyeongeui-Jungang: Seoul → Munsan","name:ko":"수도권 전철 경의·중앙선: 서울역 → 문산","network":"수도권 전철","operator":"Korail","wikidata":"Q18233162","network:en":"Seoul Metropolitan Subway","network:ko":"수도권 전철","network:zh":"韓國首都圈電鐵","official_ref":"경의중앙선","network:wikidata":"Q16950","network:wikipedia":"ko:수도권 전철","public_transport:version":"2"},"8691809":{"to":"인천","ref":"1","from":"소요산","name":"수도권 전철 1호선 경인·경원 계통: 소요산 → 인천","type":"route","route":"subway","colour":"#005DAA","name:en":"Seoul Metropolitan Subway Line 1 Gyeongin-Gyeongwon System: Soyosan → Incheon","name:es":"Línea 1 del metro de Seúl Ruta Gyeongin-Gyeongwon: Soyosan → Incheon","name:ko":"수도권 전철 1호선 경인·경원 계통: 소요산 → 인천","network":"수도권 전철","operator":"한국철도공사","wikidata":"Q20280","wikipedia":"ko:수도권 전철 1호선","network:en":"Seoul Metropolitan Subway","network:ko":"수도권 전철","network:zh":"韓國首都圈電鐵","operator:en":"Korail;Seoul Metro","official_ref":"1호선","network:wikidata":"Q16950","network:wikipedia":"ko:수도권 전철","public_transport:version":"2"},"8691898":{"to":"소요산","ref":"1","from":"인천","name":"수도권 전철 1호선 경인·경원 계통: 인천 → 소요산","type":"route","route":"subway","colour":"#005DAA","name:en":"Seoul Metropolitan Subway Line 1 Gyeongin-Gyeongwon System: Incheon → Soyosan","name:es":"Línea 1 del metro de Seúl Ruta Gyeongin-Gyeongwon: Incheon → Soyosan","name:ko":"수도권 전철 1호선 경인·경원 계통: 인천 → 소요산","network":"수도권 전철","operator":"한국철도공사","wikidata":"Q20280","network:en":"Seoul Metropolitan Subway","network:ko":"수도권 전철","network:zh":"韓國首都圈電鐵","operator:en":"Korail","official_ref":"1호선","network:wikidata":"Q16950","network:wikipedia":"ko:수도권 전철","public_transport:version":"2"},"8692707":{"to":"신창","ref":"1","from":"광운대","name":"수도권 전철 1호선 경원·경부·장항 계통: 광운대 → 신창","type":"route","route":"subway","colour":"#005DAA","name:en":"Seoul Metropolitan Subway Line 1 Gyeongbu-Gyeongbu-Gyeongwon-Janghang System: Gwangwoon Univ. → Sinchang","name:es":"Línea 1 del metro de Seúl Ruta Gyeongbu-Gyeongwon-Janghang: Gwangwoon Univ. → Sinchang","name:ko":"수도권 전철 1호선 경원·경부·장항 계통: 광운대 → 신창","network":"수도권 전철","distance":"129.4km","duration":"02:53:30","operator":"한국철도공사;서울교통공사","wikidata":"Q20280","wikipedia":"ko:수도권 전철 1호선","network:en":"Seoul Metropolitan Subway","network:ko":"수도권 전철","network:zh":"韓國首都圈電鐵","operator:en":"Korail;Seoul Metro","official_ref":"1호선","network:wikidata":"Q16950","network:wikipedia":"ko:수도권 전철","public_transport:version":"2"},"8692927":{"to":"광운대","ref":"1","from":"서동탄","name":"수도권 전철 1호선 경원·경부계통: 서동탄 → 광운대","type":"route","route":"subway","colour":"#005DAA","name:en":"Seoul Metropolitan Subway Line 1 Gyeongbu-Gyeongwon System: Seodongtan → Gwangwoon Univ.","name:es":"Línea 1 del metro de Seúl Ruta Gyeongbu-Gyeongwon: Seodongtan → Gwangwoon Univ.","name:ko":"수도권 전철 1호선 경원·경부 계통: 서동탄 → 광운대","network":"수도권 전철","note:en":"Spur service","operator":"한국철도공사;서울교통공사","wikidata":"Q20280","network:en":"Seoul Metropolitan Subway","network:ko":"수도권 전철","network:zh":"韓國首都圈電鐵","operator:en":"Korail;Seoul Metro","official_ref":"1호선","network:wikidata":"Q16950","network:wikipedia":"ko:수도권 전철","public_transport:version":"2"},"8692928":{"to":"서동탄","ref":"1","from":"광운대","name":"수도권 전철 1호선 경원·경부 계통: 광운대 → 서동탄","type":"route","route":"subway","colour":"#005DAA","name:en":"Seoul Metropolitan Subway Line 1 Gyeongbu-Gyeongwon System: Gwangwoon Univ. → Seodongtan","name:es":"Línea 1 del metro de Seúl Ruta Gyeongbu-Gyeongwon: Gwangwoon Univ. → Seodongtan","name:ko":"수도권 전철 1호선 경원·경부 계통: 광운대 → 서동탄","network":"수도권 전철","note:en":"Spur service","operator":"한국철도공사;서울교통공사","wikidata":"Q20280","network:en":"Seoul Metropolitan Subway","network:ko":"수도권 전철","network:zh":"韓國首都圈電鐵","operator:en":"Korail;Seoul Metro","official_ref":"1호선","network:wikidata":"Q16950","network:wikipedia":"ko:수도권 전철","public_transport:version":"2"},"8725314":{"to":"원시","ref":"321","from":"소사","name":"수도권 전철 서해선: 소사 → 원시","type":"route","route":"subway","to:en":"Wonsi","colour":"#8FC31E","ref:en":"Seohae","from:en":"Sosa","name:en":"Seoul Metropolitan Subway Seohae Line: Sosa → Wonsi","name:es":"Línea Seohae: Sosa → Wonsi","name:ko":"수도권 전철 서해선: 소사 → 원시","network":"수도권 전철","operator":"서해철도주식회사;한국철도공사","wikidata":"Q12601528","wikipedia":"ko:서해선","network:en":"Seoul Metropolitan Subway","network:ko":"수도권 전철","network:zh":"韓國首都圈電鐵","operator:en":"Sosawonsi Co., Ltd;Korea Railroad Corporation","official_ref":"서해","network:metro":"Seoul Metropolitan Subway","network:wikidata":"Q16950","network:wikipedia":"ko:수도권 전철","public_transport:version":"2"},"8725315":{"to":"소사","ref":"321","from":"원시","name":"수도권 전철 서해선: 원시 → 소사","type":"route","route":"subway","to:en":"Sosa","colour":"#8FC31E","ref:en":"Seohae","from:en":"Wonsi","name:en":"Seoul Metropolitan Subway Seohae Line: Wonsi → Sosa","name:es":"Línea Seohae: Wonsi → Sosa","name:ko":"수도권 전철 서해선: 원시 → 소사","network":"수도권 전철","operator":"서해철도주식회사;한국철도공사","wikidata":"Q12601528","wikipedia":"ko:서해선","network:en":"Seoul Metropolitan Subway","network:ko":"수도권 전철","network:zh":"韓國首都圈電鐵","operator:en":"Sosawonsi Co., Ltd;Korea Railroad Corporation","official_ref":"서해","network:metro":"Seoul Metropolitan Subway","network:wikidata":"Q16950","network:wikipedia":"ko:수도권 전철","public_transport:version":"2"},"8820537":{"to":"용산","ref":"1","from":"동인천","name":"수도권 전철 1호선 경인·경부 계통: 동인천 → 용산 급행","type":"route","route":"subway","colour":"#005DAA","name:en":"Seoul Metropolitan Subway Line 1 Gyeongin-Gyeongbu System Rapid: Dongincheon → Yongsan","name:es":"Línea 1 del metro de Seúl Ruta Expresa Gyeongin-Gyeongbu : Dongincheon → Yongsan","name:ko":"수도권 전철 1호선 경인·경부 계통: 동인천 → 용산 급행","network":"수도권 전철","operator":"한국철도공사","wikidata":"Q20280","network:en":"Seoul Metropolitan Subway","network:ko":"수도권 전철","network:zh":"韓國首都圈電鐵","operator:en":"Korail","official_ref":"1호선","network:wikidata":"Q16950","network:wikipedia":"ko:수도권 전철","public_transport:version":"2"},"8820538":{"to":"동인천","ref":"1","from":"용산","name":"수도권 전철 1호선 경인·경부 계통: 용산 → 동인천 급행","type":"route","route":"subway","colour":"#005DAA","name:en":"Seoul Metropolitan Subway Line 1 Gyeongin-Gyeongbu System Rapid: Yongsan → Dongincheon","name:es":"Línea 1 del metro de Seúl Ruta Expresa Gyeongin-Gyeongbu : Yongsan → Dongincheon","name:ko":"수도권 전철 1호선 경인·경부 계통: 용산 → 동인천 급행","network":"수도권 전철","operator":"한국철도공사","wikidata":"Q20280","network:en":"Seoul Metropolitan Subway","network:ko":"수도권 전철","network:zh":"韓國首都圈電鐵","operator:en":"Korail","official_ref":"1호선","network:wikidata":"Q16950","network:wikipedia":"ko:수도권 전철","public_transport:version":"2"},"9079536":{"to":"중앙보훈병원","ref":"9","from":"김포공항","name":"서울 지하철 9호선 급행: 김포공항 → 중앙보훈병원","type":"route","route":"subway","to:en":"VHS Medical Center","colour":"#aa9872","from:en":"Gimpo Int'l Airport","name:en":"Seoul Subway Line 9 Express Train: Gimpo Int'l Airport → Sports Complex","network":"수도권 전철","operator":"서울시메트로9호선 주식회사","wikidata":"Q17503","wikipedia":"en:Seoul Subway Line 9","network:en":"Seoul Metropolitan Subway","network:ko":"수도권 전철","network:zh":"韓國首都圈電鐵","wheelchair":"yes","operator:en":"Seoul Metro Line 9 Corporation","text_colour":"#FFFFFF","network:metro":"Seoul Metropolitan Subway","network:wikidata":"Q16950","network:wikipedia":"ko:수도권 전철","public_transport:version":"2"},"9283743":{"ref":"2","name":"광주 도시철도 2호선 외선순환","type":"route","route":"light_rail","name:en":"Gwangju Metro Line 2 Outer Circle Line","name:ja":"光州都市鉄道2号線外線循環","name:ko":"광주 도시철도 2호선 외선순환","construction":"light_rail"},"9849062":{"to":"인천","ref":"1","from":"의정부","name":"수도권 전철 1호선 경인·경원 계통: 의정부 → 인천","type":"route","route":"subway","to:en":"Incheon","colour":"#005DAA","ref:en":"Seoul Subway Line 1","from:en":"Uijeongbu","name:en":"Seoul Metropolitan Subway Line 1: Gyeongin-Gyeongwon Line Uijeongbu → Incheon","name:ko":"수도권 전철 1호선 경인·경원 계통: 의정부 → 인천","network":"수도권 전철","note:en":"Migrated to Gyeongin-Gyeongwon route","operator":"한국철도공사;서울교통공사","wikidata":"Q20280","wikipedia":"ko:수도권 전철 1호선","network:en":"Seoul Metropolitan Subway","network:ko":"수도권 전철","network:zh":"韓國首都圈電鐵","operator:en":"Korea Railroad;Seoul Metro","network:wikidata":"Q16950","network:wikipedia":"ko:수도권 전철","public_transport:version":"2"},"9849094":{"to":"인천","ref":"1","from":"양주","name":"수도권 전철 1호선 경인·경원 계통: 양주 → 인천","type":"route","route":"subway","to:en":"Incheon","colour":"#005DAA","from:en":"Yangju","name:en":"Seoul Metropolitan Subway Line 1 Gyeongin-Gyeongwon System: Yangju → Incheon","name:es":"Línea 1 del metro de Seúl Ruta Ganeung-Yangju: Yangju → Ganeung","name:ko":"수도권 전철 1호선 경인·경원 계통: 양주 → 인천","network":"수도권 전철","operator":"한국철도공사;서울교통공사","wikidata":"Q20280","wikipedia":"ko:수도권 전철 1호선","network:en":"Seoul Metropolitan Subway","network:ko":"수도권 전철","network:zh":"韓國首都圈電鐵","operator:en":"Korail;Seoul Metro","official_ref":"1호선","network:wikidata":"Q16950","network:wikipedia":"ko:수도권 전철","public_transport:version":"2"},"9961459":{"to":"인천공항2터미널 (AREX 직통)","ref":"AREX","from":"서울역","name":"인천국제공항철도 직통: 서울역 → 인천공항2터미널","type":"route","brand":"A'REX","route":"subway","to:en":"Incheon International Airport Terminal 2","colour":"#3681B7","name:en":"Airport Railroad Express Direct: Seoul Station → Incheon Int'l Airport Terminal 2","name:es":"Airport Railroad Express Direct: Seoul Station → Incheon Int'l Airport Terminal 2","name:ko":"인천국제공항철도: 서울역 → 인천공항2터미널","network":"수도권 전철","note:en":"See website https://www.arex.or.kr/main.do. Direct line don't stops in Gimpo airport","service":"regional","duration":"51","interval":"40","operator":"공항철도(주)","wikidata":"Q487643","network:en":"Seoul Metropolitan Subway","network:ko":"수도권 전철","wheelchair":"yes","operator:en":"Korail Airport Railroad","network:metro":"Seoul Metropolitan Subway","opening_hours":"Mo-Su 05:15-23:30","source:duration":"https://www.arex.or.kr/content.do?url=&menuNo=MN201503300000000001&clientLocale=en_US","network:wikidata":"Q16950","network:wikipedia":"ko:수도권 전철","public_transport:version":"2"},"9961460":{"to":"서울역","ref":"AREX","from":"인천공항2터미널 (AREX 직통)","name":"인천국제공항철도: 인천공항2터미널 → 서울역","type":"route","brand":"A'REX","route":"subway","colour":"#3681B7","from:en":"Incheon International Airport Terminal 2","name:en":"Airport Railroad Express Direct: Incheon Int'l Airport Terminal 2 → Seoul Station","name:es":"Airport Railroad Express Direct: Incheon Int'l Airport Terminal 2 → Seoul Station","name:ko":"인천국제공항철도 직통: 인천공항2터미널 → 서울역","network":"수도권 전철","note:en":"See website https://www.arex.or.kr/main.do. Direct line don't stops in Gimpo airport","service":"regional","duration":"51","interval":"40","operator":"공항철도(주)","wikidata":"Q487643","network:en":"Seoul Metropolitan Subway","network:ko":"수도권 전철","wheelchair":"yes","operator:en":"Korail Airport Railroad","network:metro":"Seoul Metropolitan Subway","opening_hours":"Mo-Su 05:15-23:30","source:duration":"https://www.arex.or.kr/content.do?url=&menuNo=MN201503300000000001&clientLocale=en_US","network:wikidata":"Q16950","network:wikipedia":"ko:수도권 전철","public_transport:version":"2"},"10092719":{"to":"양촌","ref":"김포 골드라인","from":"김포공항역","name":"김포 도시철도: 김포공항 → 양촌","type":"route","route":"light_rail","colour":"#A17800","name:en":"Gimpo Goldline","name:ko":"김포 도시철도: 김포공항 → 양촌","network":"수도권 전철","operator":"김포골드라인운영","public_transport:version":"2"},"10092720":{"to":"김포공항역","ref":"김포 골드라인","from":"양촌","name":"김포 도시철도: 양촌 → 김포공항","type":"route","route":"light_rail","colour":"#A17800","name:en":"Gimpo Goldline","name:ko":"김포 도시철도: 양촌 → 김포공항","network":"수도권 전철","operator":"김포골드라인운영","public_transport:version":"2"},"10117946":{"name":"인천국제공항 셔틀트레인","type":"route","route":"light_rail","name:en":"Incheon International Airport Shuttle Train","wikidata":"Q12613493","wikipedia":"ko:인천국제공항 셔틀트레인"},"10565519":{"to":"천안","ref":"1","from":"청량리","name":"수도권 전철 1호선 경부·장항 계통: 청량리 → 천안 급행","type":"route","route":"subway","to:en":"Cheonan","colour":"#005DAA","from:en":"Cheongnyangni","name:en":"Seoul Metropolitan Subway Line 1 Gyeongbu-Janghang System Rapid: Cheongnyangni → Cheonan","name:ko":"수도권 전철 1호선 경부·장항 계통: 청량리 → 천안 급행","network":"수도권 전철","distance":"104.4km","duration":"02:00","operator":"한국철도공사","wikidata":"Q20280","wikipedia":"ko:수도권 전철 1호선","network:en":"Seoul Metropolitan Subway","network:ko":"수도권 전철","start_date":"2019-12-30","network:wikidata":"Q16950","network:wikipedia":"ko:수도권 전철"},"10565521":{"to":"청량리","ref":"1","from":"천안","name":"수도권 전철 1호선 경부·장항 계통: 천안 → 청량리 급행","type":"route","route":"subway","to:en":"Cheongnyangni","colour":"#005DAA","from:en":"Cheonan","name:en":"Seoul Metropolitan Subway Line 1 Gyeongbu-Janghang System Rapid: Cheonan → Cheongnyangni","name:ko":"수도권 전철 1호선 경부·장항 계통: 천안 → 청량리 급행","network":"수도권 전철","duration":"01:52","operator":"한국철도공사","network:en":"Seoul Metropolitan Subway","network:ko":"수도권 전철","start_date":"2019-12-30","network:wikidata":"Q16950","network:wikipedia":"ko:수도권 전철"},"10685370":{"to":"신창","ref":"1","from":"청량리","name":"수도권 전철 1호선 경부·장항 계통: 청량리 → 신창 급행","type":"route","route":"subway","to:en":"Sinchang","colour":"#005DAA","from:en":"Cheongnyangni","name:en":"Seoul Metropolitan Subway Line 1 Gyeongbu-Janghang System Rapid: Cheongnyangni → Sinchang","name:ko":"수도권 전철 1호선 경부·장항 계통: 청량리 → 신창 급행","network":"수도권 전철","distance":"123.9km","duration":"02:23:30","operator":"한국철도공사","wikidata":"Q20280","wikipedia":"ko:수도권 전철 1호선","network:en":"Seoul Metropolitan Subway","network:ko":"수도권 전철","start_date":"2019-12-30","network:wikidata":"Q16950","network:wikipedia":"ko:수도권 전철","public_transport:version":"2"},"10685371":{"to":"청량리","ref":"1","from":"신창","name":"수도권 전철 1호선 경부·장항 계통: 신창 → 청량리 급행","type":"route","route":"subway","to:en":"Cheongnyangni","colour":"#005DAA","from:en":"Sinchang","name:en":"Seoul Metropolitan Subway Line 1 Gyeongbu-Janghang System Rapid: Sinchang → Cheongnyangni","name:ko":"수도권 전철 1호선 경부·장항 계통: 신창 → 청량리 급행","network":"수도권 전철","operator":"한국철도공사","network:en":"Seoul Metropolitan Subway","network:ko":"수도권 전철","network:wikidata":"Q16950","network:wikipedia":"ko:수도권 전철","public_transport:version":"2"},"10685419":{"to":"천안","ref":"1","from":"서울역","name":"수도권 전철 1호선 경부선 계통: 서울역 → 천안 급행","type":"route","route":"subway","to:en":"Cheonan","colour":"#005DAA","from:en":"Seoul Station","name:en":"Seoul Metropolitan Subway Line 1 Gyeongbu Line System Rapid : Seoul Station → Cheonan","name:ko":"수도권 전철 1호선 경부선 계통: 서울역 → 천안 급행","network":"수도권 전철","distance":"96.6km","duration":"01:28","operator":"한국철도공사","network:en":"Seoul Metropolitan Subway","network:ko":"수도권 전철","start_date":"1982-09-25","description":"출 퇴근 시간 한정 운행","network:wikidata":"Q16950","network:wikipedia":"ko:수도권 전철"},"10685420":{"to":"(지상)서울역","ref":"1","from":"천안","name":"수도권 전철 1호선 경부선 계통: 천안 → 서울역 급행","type":"route","route":"subway","to:en":"Seoul Station","colour":"#005DAA","from:en":"Cheonan","name:en":"Seoul Metropolitan Subway Line 1 Gyeongbu Line System Rapid: Cheonan → Seoul Station","name:ja":"首都圏電鉄1号線　京釜線系統急行：天安→ソウル","name:ko":"수도권 전철 1호선 경부선 계통: 천안 → 서울역 급행","network":"수도권 전철","distance":"96.6km","duration":"01:30","operator":"한국철도공사","wikidata":"Q20280","wikipedia":"ko:수도권 전철 1호선","network:en":"Seoul Metropolitan Subway","network:ko":"수도권 전철","start_date":"1982-09-25","description":"출 퇴근 시간 한정 운행.","network:wikidata":"Q16950","network:wikipedia":"ko:수도권 전철"},"10700967":{"to":"구로","ref":"1","from":"양주","name":"수도권 전철 1호선 경인·경원 계통: 양주 → 구로","type":"route","route":"subway","to:en":"Guro","colour":"#005DAA","from:en":"Yangju","name:en":"Seoul Metropolitan Subway Line 1 Gyeongin-Gyeongwon System: Yangju → Guro","name:ko":"수도권 전철 1호선 경인·경원 계통: 양주 → 구로","network":"수도권 전철","operator":"한국철도공사;서울교통공사"},"10700968":{"to":"인천","ref":"1","from":"동두천","name":"수도권 전철 1호선 경인·경원 계통: 동두천 → 인천 급행","type":"route","route":"subway","to:en":"Incheon","colour":"#005DAA","from:en":"Dongducheon","name:en":"Seoul Metropolitan Subway Line 1 Gyeongin-Gyeongwon System Rapid : Dongducheon → Incheon","name:ko":"수도권 전철 1호선 경인·경원 계통: 동두천 → 인천 급행","network":"수도권 전철","operator":"한국철도공사","network:en":"Seoul Metropolitan Subway","network:ko":"수도권 전철","description":"운행구간: 동두천 - 동두천중앙 - 지행 - 덕정 - 양주 - 의정부 - 회룡 - 도봉산 - 창동 - 광운대 - (모든 역에 정차) - 인천","network:wikidata":"Q16950","network:wikipedia":"ko:수도권 전철"},"10700978":{"to":"양주","ref":"1","from":"인천","name":"수도권 전철 1호선 경인·경원 계통: 인천 → 양주","type":"route","route":"subway","colour":"#005DAA","name:en":"Seoul Metropolitan Subway Line 1 Gyeongin-Gyeongwon System: Incheon → Yangju","name:ko":"수도권 전철 1호선 경인·경원 계통: 인천 → 양주","network":"수도권 전철","operator":"한국철도공사;서울교통공사","wikidata":"Q20280","wikipedia":"ko:수도권 전철 1호선","network:en":"Seoul Metropolitan Subway","network:ko":"수도권 전철","network:wikidata":"Q16950","network:wikipedia":"ko:수도권 전철"},"10700979":{"to":"의정부","ref":"1","from":"인천","name":"수도권 전철 1호선 경인·경원 계통: 인천 → 의정부","type":"route","route":"subway","colour":"#005DAA","name:en":"Seoul Metropolitan Subway Line 1 Gyeongin-Gyeongwon System : Incheon → Uijeongbu","name:ko":"수도권 전철 1호선 경인·경원 계통: 인천 → 의정부","network":"수도권 전철","operator":"한국철도공사;서울교통공사","network:en":"Seoul Metropolitan Subway","network:ko":"수도권 전철","network:wikidata":"Q16950","network:wikipedia":"ko:수도권 전철"},"10713827":{"to":"구로","ref":"1","from":"천안","name":"수도권 전철 1호선 경부·장항 계통: 천안 → 구로 급행","type":"route","route":"subway","colour":"#005DAA","name:ko":"수도권 전철 1호선 경부·장항 계통: 천안 → 구로 급행","network":"수도권 전철","operator":"한국철도공사","network:en":"Seoul Metropolitan Subway","network:ko":"수도권 전철","network:wikidata":"Q16950","network:wikipedia":"ko:수도권 전철"},"10713876":{"to":"동두천","ref":"1","from":"인천","name":"수도권 전철 1호선 경인·경원 계통 급행: 인천 → 동두천 급행","type":"route","route":"subway","colour":"#005DAA","name:en":"Seoul Metropolitan Subway Line 1 Gyeongin-Gyeongwon System : Incheon→ Dongducheon Rapid","name:ko":"수도권 전철 1호선 경인·경원 계통: 인천 → 동두천 급행","network":"수도권 전철","operator":"한국철도공사","network:en":"Seoul Metropolitan Subway","network:ko":"수도권 전철","network:wikidata":"Q16950","network:wikipedia":"ko:수도권 전철"},"10713878":{"to":"인천","ref":"1","from":"소요산","name":"수도권 전철 1호선 경인·경원 계통: 소요산 → 인천 급행","type":"route","route":"subway","colour":"#005DAA","name:en":"Seoul Metropolitan Subway Line 1 Gyeongin-Gyeongwon System : Soyosan → Incheon Rapid","name:ko":"수도권 전철 1호선 경인·경원 계통: 소요산 → 인천 급행","network":"수도권 전철","operator":"한국철도공사","network:en":"Seoul Metropolitan Subway","network:ko":"수도권 전철","network:wikidata":"Q16950","network:wikipedia":"ko:수도권 전철"},"10727458":{"to":"소요산","ref":"1","from":"인천","name":"수도권 전철 1호선 경인·경원 계통: 인천 → 소요산 급행","type":"route","route":"subway","colour":"#005DAA","name:en":"Seoul Metropolitan Subway Line 1 Gyeongin-Gyeongwon System: Incheon→ Soyosan Rapid","name:ko":"수도권 전철 1호선 경인·경원 계통: 인천 → 소요산 급행","network":"수도권 전철","operator":"한국철도공사","network:en":"Seoul Metropolitan Subway","network:ko":"수도권 전철","network:wikidata":"Q16950","network:wikipedia":"ko:수도권 전철"},"10727491":{"to":"부평구청","ref":"7","from":"도봉산","name":"서울 지하철 7호선: 도봉산 → 부평구청","note":"출 퇴근 시간 한정 주말 제외","type":"route","route":"subway","to:en":"Bupyeong-gu Office","colour":"#54640D","from:en":"Dobongsan","name:en":"Seoul Metro Line 7: Dobongsan → Bupyeong-gu Office","name:ko":"서울 지하철 7호선: 도봉산 → 부평구청","network":"수도권 전철","operator":"서울교통공사","wikidata":"Q22910","wikipedia":"ko:서울 지하철 7호선","network:en":"Seoul Metropolitan Subway","network:ko":"수도권 전철","network:wikidata":"Q16950","network:wikipedia":"ko:수도권 전철"},"10727492":{"to":"온수","ref":"7","from":"도봉산","name":"서울 지하철 7호선: 도봉산 → 온수","type":"route","route":"subway","to:en":"Onsu","colour":"#54640D","from:en":"Dobongsan","name:en":"Seoul Metro Line 7: Dobongsan → Onsu","name:ko":"서울 지하철 7호선: 도봉산 → 온수","network":"수도권 전철","operator":"서울교통공사","wikidata":"Q22910","wikipedia":"ko:서울 지하철 7호선","network:en":"Seoul Metropolitan Subway","network:ko":"수도권 전철","network:wikidata":"Q16950","network:wikipedia":"ko:수도권 전철"},"10727493":{"to":"온수","ref":"7","from":"장암","name":"서울 지하철 7호선: 장암 → 온수","type":"route","route":"subway","to:en":"Onsu","colour":"#54640D","from:en":"Jangam","name:en":"Seoul Metro Line 7: Jangam → Onsu","name:ko":"서울 지하철 7호선: 장암 → 온수","network":"수도권 전철","operator":"서울교통공사","wikidata":"Q22910","wikipedia":"ko:서울 지하철 7호선","network:en":"Seoul Metropolitan Subway","network:ko":"수도권 전철","network:wikidata":"Q16950","network:wikipedia":"ko:수도권 전철"},"10727605":{"to":"사당","ref":"4","from":"당고개","name":"수도권 전철 4호선: 당고개 → 사당","type":"route","route":"subway","colour":"#289DD5","name:en":"Seoul Metropolitan Subway Line 4: Danggogae → Sadang","name:ko":"수도권 전철 4호선: 당고개 → 사당","network":"수도권 전철","operator":"서울교통공사","wikidata":"Q489253","wikipedia":"en:Seoul Subway Line 4","network:en":"Seoul Metropolitan Subway","network:ko":"수도권 전철","network:wikidata":"Q16950","network:wikipedia":"ko:수도권 전철","public_transport:version":"2"},"10727606":{"to":"안산","ref":"4","from":"당고개","name":"수도권 전철 4호선: 당고개 → 안산","type":"route","route":"subway","colour":"#289DD5","name:en":"Seoul Metropolitan Subway Line 4: Danggogae → Ansan","name:ko":"수도권 전철 4호선: 당고개 → 안산","network":"수도권 전철","operator":"서울교통공사;한국철도공사","network:en":"Seoul Metropolitan Subway","network:ko":"수도권 전철","network:wikidata":"Q16950","network:wikipedia":"ko:수도권 전철","public_transport:version":"2"},"10727607":{"to":"오이도","ref":"4","from":"당고개","name":"수도권 전철 4호선: 당고개 → 오이도 급행","type":"route","route":"subway","colour":"#289DD5","name:en":"Seoul Metropolitan Subway Line 4 : Danggogae → Oido Rapid","name:ko":"수도권 전철 4호선: 당고개 → 오이도 급행","network":"수도권 전철","operator":"서울교통공사;한국철도공사","description":"출퇴근 시간대(7~9시, 19~22시)에 8회(상행 5회, 하행 3회) 운영하는 급행열차 운행구간: 당고개-(각역정차)-금정-산본-상록수-중앙-안산-(각역정차)-오이도","public_transport:version":"2"},"10727608":{"to":"당고개","ref":"4","from":"오이도","name":"수도권 전철 4호선: 오이도 → 당고개 급행","type":"route","route":"subway","colour":"#289DD5","name:en":"Seoul Metropolitan Subway Line 4 : Oido → Danggogae Rapid","name:ko":"수도권 전철 4호선: 오이도 → 당고개 급행","network":"수도권 전철","operator":"한국철도공사","network:en":"Seoul Metropolitan Subway","network:ko":"수도권 전철","network:wikidata":"Q16950","network:wikipedia":"ko:수도권 전철","public_transport:version":"2"},"10746635":{"to":"당고개","ref":"4","from":"사당","name":"수도권 전철 4호선: 사당 → 당고개","type":"route","route":"subway","colour":"#289DD5","name:en":"Seoul Metropolitan Subway Line 4: Sadang → Danggogae","name:ko":"수도권 전철 4호선: 사당 → 당고개","network":"수도권 전철","operator":"서울교통공사","network:en":"Seoul Metropolitan Subway","network:ko":"수도권 전철","network:wikidata":"Q16950","network:wikipedia":"ko:수도권 전철"},"10776760":{"to":"동두천","ref":"1","from":"인천","name":"수도권 전철 1호선 경인·경원 계통: 인천 → 동두천","type":"route","route":"subway","colour":"#005DAA","name:en":"Seoul Metropolitan Subway Line 1 Gyeongin-Gyeongwon System : Incheon→ Dongducheon","name:ko":"수도권 전철 1호선 경인·경원 계통: 인천 → 동두천","network":"수도권 전철","operator":"한국철도공사","network:en":"Seoul Metropolitan Subway","network:ko":"수도권 전철","network:wikidata":"Q16950","network:wikipedia":"ko:수도권 전철"},"10776761":{"to":"동묘앞","ref":"1","from":"인천","name":"수도권 전철 1호선: 인천 → 동묘앞","type":"route","route":"subway","colour":"#005DAA","name:en":"Seoul Metropolitan Subway Line 1: Incheon→ Dongmyo","name:ko":"수도권 전철 1호선: 인천 → 동묘앞","network":"수도권 전철","operator":"서울교통공사","network:en":"Seoul Metropolitan Subway","network:ko":"수도권 전철","network:wikidata":"Q16950","network:wikipedia":"ko:수도권 전철"},"10776791":{"to":"광운대","ref":"1","from":"동두천","name":"수도권 전철 1호선 경원선 계통: 동두천 → 광운대","type":"route","route":"subway","colour":"#005DAA","name:en":"Seoul Metropolitan Subway Line 1 Gyeongwon Line System : Dongducheon → Kwangwoon University","name:ko":"수도권 전철 1호선 경원선 계통: 동두천 → 광운대","network":"수도권 전철","operator":"한국철도공사","network:en":"Seoul Metropolitan Subway","network:ko":"수도권 전철","network:wikidata":"Q16950","network:wikipedia":"ko:수도권 전철"},"10776869":{"to":"광운대","ref":"1","from":"양주","name":"수도권 전철 1호선 경원선 계통: 양주 → 광운대","type":"route","route":"subway","to:en":"Kwangwoon University Station","colour":"#005DAA","name:en":"Seoul Metropolitan Subway Line 1 Gyeongwon Line System : Yangju → Kwangwoon University Station","name:ko":"수도권 전철 1호선 경원선 계통: 양주 → 광운대","network":"수도권 전철","operator":"한국철도공사","network:en":"Seoul Metropolitan Subway","network:ko":"수도권 전철","network:wikidata":"Q16950","network:wikipedia":"ko:수도권 전철"},"10791318":{"to":"고색","ref":"272","from":"청량리","name":"수도권 전철 수인분당선: 청량리 → 고색","type":"route","route":"subway","colour":"#F5A200","name:en":"Seoul Metropolitan Subway Suin-Bundang Line: Cheongnyangni → Gosaek","name:ko":"수도권 전철 수인분당선: 청량리 → 고색","network":"수도권 전철","operator":"한국철도공사","network:en":"Seoul Metropolitan Subway","network:ko":"수도권 전철","network:wikidata":"Q16950","network:wikipedia":"ko:수도권 전철"},"10791319":{"to":"청량리","ref":"272","from":"수원","name":"수도권 전철 수인분당선: 고색 → 청량리","type":"route","route":"subway","colour":"#F5A200","name:en":"Seoul Metropolitan Subway Suin-Bundang Line: Gosaek → Cheongnyangni","name:ko":"수도권 전철 수인분당선: 고색 → 청량리","network":"수도권 전철","operator":"한국철도공사","network:en":"Seoul Metropolitan Subway","network:ko":"수도권 전철","network:wikidata":"Q16950","network:wikipedia":"ko:수도권 전철"},"10791320":{"to":"청량리","ref":"272","from":"죽전","name":"수도권 전철 수인분당선: 죽전 → 청량리","type":"route","route":"subway","colour":"#F5A200","name:en":"Seoul Metropolitan Subway Suin-Bundang Line: Jukjeon → Cheongnyangni","name:ko":"수도권 전철 수인분당선: 죽전 → 청량리","network":"수도권 전철","operator":"한국철도공사","wikipedia":"ko:분당선","network:en":"Seoul Metropolitan Subway","network:ko":"수도권 전철","network:wikidata":"Q16950","network:wikipedia":"ko:수도권 전철"},"10791329":{"to":"죽전","ref":"272","from":"청량리","name":"수도권 전철 수인분당선: 청량리 → 죽전","type":"route","route":"subway","colour":"#F5A200","name:en":"Seoul Metropolitan Subway Suin-Bundang Line: Cheongnyangni → Jukjeon","name:ko":"수도권 전철 수인분당선: 청량리 → 죽전","network":"수도권 전철","operator":"한국철도공사","network:en":"Seoul Metropolitan Subway","network:ko":"수도권 전철","network:wikidata":"Q16950","network:wikipedia":"ko:수도권 전철"},"10799694":{"to":"죽전","ref":"272","from":"왕십리","name":"수도권 전철 분당선: 왕십리 → 죽전","type":"route","route":"subway","colour":"#F5A200","name:en":"Seoul Metropolitan Subway Bundang Line: Wangsimni → Jukjeon","name:ko":"수도권 전철 분당선: 왕십리 → 죽전","network":"수도권 전철","operator":"한국철도공사","network:en":"Seoul Metropolitan Subway","network:ko":"수도권 전철","network:wikidata":"Q16950","network:wikipedia":"ko:수도권 전철"},"10799695":{"to":"왕십리","ref":"272","from":"죽전","name":"수도권 전철 수인분당선: 죽전 → 왕십리","type":"route","route":"subway","colour":"#F5A200","name:en":"Seoul Metropolitan Subway Suin-Bundang Line: Jukjeon → Wangsimni","name:ko":"수도권 전철 수인분당선: 죽전 → 왕십리","network":"수도권 전철","operator":"한국철도공사","network:en":"Seoul Metropolitan Subway","network:ko":"수도권 전철","network:wikidata":"Q16950","network:wikipedia":"ko:수도권 전철"},"10828125":{"to":"도봉산","ref":"7","from":"부평구청","name":"서울 지하철 7호선: 부평구청 → 도봉산","type":"route","route":"subway","to:en":"Dobongsan","colour":"#54640D","from:en":"Bupyeong-gu Office","name:en":"Seoul Metro Line 7: Bupyeong-gu Office → Dobongsan","name:ko":"서울 지하철 7호선: 부평구청 → 도봉산","network":"수도권 전철","operator":"서울교통공사","wikidata":"Q22910","wikipedia":"ko:서울 지하철 7호선","network:en":"Seoul Metropolitan Subway","network:ko":"수도권 전철","network:wikidata":"Q16950","network:wikipedia":"ko:수도권 전철"},"10828181":{"to":"장암","ref":"7","from":"온수","name":"서울 지하철 7호선: 온수 → 장암","type":"route","route":"subway","to:en":"Jangam","colour":"#54640D","from:en":"Onsu","name:en":"Seoul Metro Line 7: Onsu → Jangam","name:ko":"서울 지하철 7호선: 온수 → 장암","network":"수도권 전철","operator":"서울교통공사","network:en":"Seoul Metropolitan Subway","network:ko":"수도권 전철","network:wikidata":"Q16950","network:wikipedia":"ko:수도권 전철"},"10828182":{"to":"장암","ref":"7","from":"온수","name":"서울 지하철 7호선: 온수 → 도봉산","type":"route","route":"subway","to:en":"Jangam","colour":"#54640D","from:en":"Onsu","name:en":"Seoul Metro Line 7: Onsu → Jangam","name:ko":"서울 지하철 7호선: 온수 → 도봉산","network":"수도권 전철","operator":"서울교통공사","network:en":"Seoul Metropolitan Subway","network:ko":"수도권 전철","network:wikidata":"Q16950","network:wikipedia":"ko:수도권 전철"},"10869816":{"to":"인천","ref":"1","from":"동두천","name":"수도권 전철 1호선 경인·경원 계통: 동두천 → 인천","type":"route","route":"subway","name:en":"Seoul Metropolitan Subway Line 1 Gyeongin-Gyeongwon System : Dongducheon → Incheon","name:ko":"수도권 전철 1호선 경인·경원 계통: 동두천 → 인천","network":"수도권 전철","operator":"한국철도공사","network:en":"Seoul Metropolitan Subway","network:ko":"수도권 전철","network:wikidata":"Q16950","network:wikipedia":"ko:수도권 전철"},"10881612":{"to":"광명","ref":"1","from":"영등포","name":"수도권 전철 1호선 광명 셔틀: 영등포 → 광명","type":"route","route":"subway","colour":"#005DAA","name:en":"Seoul Metropolitan Subway Line 1 Gwangmyeong Shuttle: Yeongdeungpo → Gwangmyeong","name:es":"Línea 1 del metro de Seúl Transporte Gwangmyeong: Yeongdeungpo → Gwangmyeong","name:ko":"수도권 전철 1호선 광명 셔틀: 영등포 → 광명","network":"수도권 전철","operator":"한국철도공사","wikidata":"Q20280","wikipedia":"ko:수도권 전철 1호선","network:en":"Seoul Metropolitan Subway","network:ko":"수도권 전철","description":"시간표가 코레일의 사정에 따라 상당히 자주, 예고없이 불시에 바뀌므로 반드시 공식 홈페이지에서 시간표를 다운로드받아 확인하세요.","network:wikidata":"Q16950","network:wikipedia":"ko:수도권 전철"},"10922025":{"to":"임진강","ref":"G·J","from":"문산","name":"수도권 전철 경의·중앙선: 문산 → 임진강","type":"route","route":"subway","colour":"#77C4A3","name:en":"Seoul Metropolitan Subway Gyeongeui-Jungang Line : Munsan → Imjingang","name:ko":"수도권 전철 경의·중앙선: 문산 → 임진강","network":"수도권 전철","operator":"한국철도공사","wikidata":"Q18233162","wikipedia":"ko:수도권 전철 경의·중앙선","network:en":"Seoul Metropolitan Subway","network:ko":"수도권 전철","start_date":"2020-03-28","network:wikidata":"Q16950","network:wikipedia":"ko:수도권 전철"},"10922027":{"to":"문산","ref":"G·J","from":"임진강","name":"수도권 전철 경의·중앙선: 임진강 → 문산","type":"route","route":"subway","colour":"#77C4A3","name:en":"Seoul Metropolitan Subway Gyeongeui-Jungang Line : Imjingang→ Munsan","name:ko":"수도권 전철 경의·중앙선: 임진강 → 문산","network":"수도권 전철","operator":"한국철도공사","wikidata":"Q18233162","wikipedia":"ko:수도권 전철 경의·중앙선","network:en":"Seoul Metropolitan Subway","network:ko":"수도권 전철","start_date":"2020-03-28","network:wikidata":"Q16950","network:wikipedia":"ko:수도권 전철"},"10947038":{"to":"당고개","ref":"4","from":"안산","name":"수도권 전철 4호선: 안산 → 당고개","type":"route","route":"subway","colour":"#289DD5","name:en":"Seoul Metropolitan Subway Line 4: Ansan → Danggogae","name:ko":"수도권 전철 4호선: 안산 → 당고개","network":"수도권 전철","operator":"한국철도공사;서울교통공사","wikidata":"Q489253","wikipedia":"ko:수도권 전철 4호선","network:en":"Seoul Metropolitan Subway","network:ko":"수도권 전철","network:wikidata":"Q16950","network:wikipedia":"ko:수도권 전철","public_transport:version":"2"},"11073605":{"to":"양주","ref":"1","from":"광운대","name":"수도권 전철 1호선 경원선 계통: 광운대 → 양주","type":"route","route":"subway","colour":"#005DAA","name:en":"Seoul Metropolitan Subway Line 1 Gyeongwon Line System : Kwangwoon University Station → Yangju","name:ko":"수도권 전철 1호선 경원선 계통: 광운대 → 양주","network":"수도권 전철","operator":"한국철도공사","network:en":"Seoul Metropolitan Subway","network:ko":"수도권 전철","network:wikidata":"Q16950","network:wikipedia":"ko:수도권 전철"},"11073606":{"to":"동두천","ref":"1","from":"광운대","name":"수도권 전철 1호선 경원선 계통: 광운대 → 동두천","type":"route","route":"subway","colour":"#005DAA","name:en":"Seoul Metropolitan Subway Line 1 Gyeongwon Line System : Kwangwoon University Station → Dongducheon","name:ko":"수도권 전철 1호선 경원선 계통: 광운대 → 동두천","network":"수도권 전철","operator":"한국철도공사","network:en":"Seoul Metropolitan Subway","network:ko":"수도권 전철","network:wikidata":"Q16950","network:wikipedia":"ko:수도권 전철"},"11079448":{"to":"천안","ref":"1","from":"청량리","name":"수도권 전철 1호선 경부·장항 계통: 청량리 → 천안","type":"route","route":"subway","name:en":"Seoul Metropolitan Subway Line 1 Gyeongbu-Janghang System: Cheongnyangni → Cheonan","name:ko":"수도권 전철 1호선 경부·장항 계통: 청량리 → 천안","network":"수도권 전철","operator":"한국철도공사","network:en":"Seoul Metropolitan Subway","network:ko":"수도권 전철","network:wikidata":"Q16950","network:wikipedia":"ko:수도권 전철"},"11509732":{"to":"응암순환","ref":"6","from":"봉화산","name":"서울 지하철 6호선: 신내 → 응암순환","type":"route","route":"subway","colour":"#CD7C2F","name:en":"Seoul Subway Line 6: Sinnae → Eungam Loop","name:ko":"서울 지하철 6호선: 신내 → 응암순환","network":"수도권 전철","operator":"서울교통공사","network:en":"Seoul Metropolitan Subway","network:ko":"수도권 전철","network:metro":"Seoul Metropolitan Subway","network:wikidata":"Q16950","network:wikipedia":"ko:수도권 전철"},"11625555":{"to":"인천","ref":"272","from":"왕십리","name":"수도권 전철 수인분당선: 왕십리 → 인천","type":"route","route":"subway","colour":"#F5A200","name:en":"Seoul Metropolitan Subway Suin-Bundang Line: Wangsimni → Incheon","name:ko":"수도권 전철 수인분당선: 왕십리 → 인천","network":"수도권 전철","operator":"한국철도공사","network:en":"Seoul Metropolitan Subway","network:ko":"수도권 전철","network:wikidata":"Q16950","network:wikipedia":"ko:수도권 전철"},"11625556":{"to":"인천","ref":"272","from":"청량리","name":"수도권 전철 수인분당선: 청량리 → 인천","type":"route","route":"subway","colour":"#F5A200","name:en":"Seoul Metropolitan Subway Suin-Bundang Line: Cheongnyangni → Incheon","name:ko":"수도권 전철 수인분당선: 청량리 → 인천","network":"수도권 전철","operator":"한국철도공사","network:en":"Seoul Metropolitan Subway","network:ko":"수도권 전철","network:wikidata":"Q16950","network:wikipedia":"ko:수도권 전철"},"11634611":{"to":"왕십리","ref":"272","from":"인천","name":"수도권 전철 수인분당선: 인천 → 왕십리","type":"route","route":"subway","colour":"#F5A200","name:en":"Seoul Metropolitan Subway Suin-Bundang Line : Incheon → Wangsimni","name:ko":"수도권 전철 수인분당선: 인천 → 왕십리","network":"수도권 전철","distance":"108.1km","operator":"한국철도공사","network:en":"Seoul Metropolitan Subway","network:ko":"수도권 전철","network:wikidata":"Q16950","network:wikipedia":"ko:수도권 전철"},"11634612":{"to":"청량리","ref":"272","from":"인천","name":"수도권 전철 수인분당선: 인천 → 청량리","type":"route","route":"subway","colour":"#F5A200","name:en":"Seoul Metropolitan Subway Suin-Bundang Line : Incheon → Cheongnyangni","name:ko":"수도권 전철 수인분당선: 인천 → 청량리","network":"수도권 전철","operator":"한국철도공사","network:en":"Seoul Metropolitan Subway","network:ko":"수도권 전철","network:wikidata":"Q16950","network:wikipedia":"ko:수도권 전철"},"11634613":{"to":"죽전","ref":"272","from":"인천","name":"수도권 전철 수인분당선: 인천 → 죽전","type":"route","route":"subway","colour":"#F5A200","name:en":"Seoul Metropolitan Subway Suin-Bundang Line: Incheon → Jukjeon","name:ko":"수도권 전철 수인분당선: 인천 → 죽전","network":"수도권 전철","operator":"한국철도공사","network:en":"Seoul Metropolitan Subway","network:ko":"수도권 전철","network:wikidata":"Q16950","network:wikipedia":"ko:수도권 전철"},"11634614":{"to":"고색","ref":"272","from":"인천","name":"수도권 전철 수인분당선: 인천 → 고색","type":"route","route":"subway","colour":"#F5A200","name:en":"Seoul Metropolitan Subway Suin-Bundang Line : Incheon → Gosaek","name:ko":"수도권 전철 수인분당선: 인천 → 고색","network":"수도권 전철","operator":"한국철도공사","network:en":"Seoul Metropolitan Subway","network:ko":"수도권 전철","network:wikidata":"Q16950","network:wikipedia":"ko:수도권 전철"},"11636212":{"to":"인천","ref":"272","from":"죽전","name":"수도권 전철 수인분당선: 죽전 → 인천","type":"route","route":"subway","colour":"#F5A200","name:en":"Seoul Metropolitan Subway Suin-Bundang Line: Jukjeon → Incheon","name:ko":"수도권 전철 수인분당선: 죽전 → 인천","network":"수도권 전철","operator":"한국철도공사","network:en":"Seoul Metropolitan Subway","network:ko":"수도권 전철","network:wikidata":"Q16950","network:wikipedia":"ko:수도권 전철"},"11636213":{"to":"인천","ref":"272","from":"고색","name":"수도권 전철 수인분당선: 고색 → 인천","type":"route","route":"subway","colour":"#F5A200","name:en":"Seoul Metropolitan Subway Suin-Bundang Line : Gosaek → Incheon","name:ko":"수도권 전철 수인분당선: 고색 → 인천","network":"수도권 전철","operator":"한국철도공사","network:en":"Seoul Metropolitan Subway","network:ko":"수도권 전철","network:wikidata":"Q16950","network:wikipedia":"ko:수도권 전철"},"11651118":{"to":"인천","ref":"272","from":"오이도","name":"수도권 전철 수인분당선 급행: 오이도 → 인천","type":"route","route":"subway","colour":"#F5A200","name:en":"Seoul Metropolitan Subway Suin-Bundang Line Rapid : Oido → Incheon","name:ko":"수도권 전철 수인분당선 급행: 오이도 → 인천","network":"수도권 전철","operator":"한국철도공사","network:en":"Seoul Metropolitan Subway","network:ko":"수도권 전철","network:wikidata":"Q16950","network:wikipedia":"ko:수도권 전철"},"11651119":{"to":"오이도","ref":"272","from":"인천","name":"수도권 전철 수인분당선 급행: 인천 → 오이도","type":"route","route":"subway","colour":"#F5A200","name:en":"Seoul Metropolitan Subway Suin-Bundang Line Rapid : Incheon → Oido","name:ko":"수도권 전철 수인분당선 급행: 인천 → 오이도","network":"수도권 전철","operator":"한국철도공사","network:en":"Seoul Metropolitan Subway","network:ko":"수도권 전철","network:wikidata":"Q16950","network:wikipedia":"ko:수도권 전철"},"12080315":{"to":"신내","ref":"6","from":"응암순환","name":"서울 지하철 6호선: 응암순환 → 신내","type":"route","route":"subway","colour":"#CD7C2F","name:en":"Seoul Subway Line 6: Eungam Loop → Sinnae","name:ko":"서울 지하철 6호선: 응암순환 → 신내","network":"수도권 전철","operator":"서울교통공사","network:en":"Seoul Metropolitan Subway","network:ko":"수도권 전철","network:metro":"Seoul Metropolitan Subway","network:wikidata":"Q16950","network:wikipedia":"ko:수도권 전철"},"12144933":{"to":"부발","ref":"323","from":"판교","name":"수도권 전철 경강선: 판교 → 부발","type":"route","route":"subway","colour":"#0054A6","name:en":"Seoul Metropolitan Subway Gyeonggang Line: Pangyo→ Bubal","name:ko":"수도권 전철 경강선: 판교 → 부발","network":"수도권 전철","operator":"한국철도공사","network:en":"Seoul Metropolitan Subway","network:ko":"수도권 전철","network:metro":"Seoul Metropolitan Subway","network:wikidata":"Q16950","network:wikipedia":"ko:수도권 전철","public_transport:version":"2"},"12144934":{"to":"판교","ref":"323","from":"부발","name":"수도권 전철 경강선: 부발 → 판교","type":"route","route":"subway","colour":"#0054A6","name:en":"Seoul Metropolitan Subway Gyeonggang Line: Bubal → Pangyo","name:ko":"수도권 전철 경강선: 부발 → 판교","network":"수도권 전철","operator":"한국철도공사","network:en":"Seoul Metropolitan Subway","network:ko":"수도권 전철","network:metro":"Seoul Metropolitan Subway","network:wikidata":"Q16950","network:wikipedia":"ko:수도권 전철"},"12497485":{"to":"방화","ref":"5","from":"하남검단산","name":"수도권 전철 5호선: 하남검단산 → 방화","type":"route","route":"subway","name:en":"Seoul Metropolitan Subway Line 5 Hanam Geomdansan → Banghwa","name:ko":"수도권 전철 5호선: 하남검단산 → 방화","network":"수도권 전철","operator":"서울교통공사","network:en":"Seoul Metropolitan Subway","network:ko":"수도권 전철","network:wikidata":"Q16950","network:wikipedia":"ko:수도권 전철","public_transport:version":"2"},"12497486":{"to":"하남검단산","ref":"5","from":"방화","name":"수도권 전철 5호선: 방화 → 하남검단산","type":"route","route":"subway","name:en":"Seoul Metropolitan Subway Line 5 Banghwa → Hanam Geomdansan","name:ko":"수도권 전철 5호선: 방화 → 하남검단산","network":"수도권 전철","operator":"서울교통공사","network:en":"Seoul Metropolitan Subway","network:ko":"수도권 전철","network:wikidata":"Q16950","network:wikipedia":"ko:수도권 전철","public_transport:version":"2"},"12623856":{"to":"문산","from":"지평","name":"수도권 전철 경의·중앙선: 지평 → 문산","type":"route","route":"subway","name:en":"Seoul Metropolitan Subway Gyeongeui-Jungang Line: Jipyeong → Munsan","name:ko":"수도권 전철 경의·중앙선: 지평 → 문산","network":"수도권 전철","operator":"한국철도공사","network:en":"Seoul Metropolitan Subway","network:ko":"수도권 전철","description":"지평발 열차는 평일 6회, 주말 5회 시종착","network:wikidata":"Q16950","network:wikipedia":"ko:수도권 전철"},"12623857":{"to":"지평","from":"문산","name":"수도권 전철 경의·중앙선: 문산 → 지평","type":"route","route":"subway","name:en":"Seoul Metropolitan Subway Gyeongeui-Jungang Line: Munsan → Jipyeong","name:ko":"수도권 전철 경의·중앙선: 문산 → 지평","network":"수도권 전철","operator":"한국철도공사","network:en":"Seoul Metropolitan Subway","network:ko":"수도권 전철","network:wikidata":"Q16950"},"12640223":{"to":"인천","ref":"1","from":"동묘앞","name":"수도권 전철 1호선: 동묘앞 → 인천","type":"route","route":"subway","colour":"#005DAA","name:en":"Seoul Metropolitan Subway Line 1: Dongmyo → Incheon","name:ko":"수도권 전철 1호선: 동묘앞 → 인천","network":"수도권 전철","operator":"서울교통공사","network:en":"Seoul Metropolitan Subway","network:ko":"수도권 전철","network:wikidata":"Q16950","network:wikipedia":"ko:수도권 전철"},"12640266":{"to":"양주","ref":"1","from":"구로","name":"수도권 전철 1호선 경원·경부 계통: 구로 → 양주","type":"route","route":"subway","colour":"#005DAA","name:en":"Seoul Metropolitan Subway Line 1 Gyeongwon-Gyeongbu System: Guro → Yangju","name:ko":"수도권 전철 1호선 경원·경부 계통: 구로 → 양주","network":"수도권 전철","operator":"한국철도공사;서울교통공사","wikidata":"Q20280","wikipedia":"ko:수도권 전철 1호선"},"12746493":{"to":"석남","ref":"7","from":"장암","name":"서울 지하철 7호선: 장암 → 석남","type":"route","route":"subway","colour":"#54640D","name:en":"Seoul Metro Line 7: Jangam → Seongnam","name:ko":"서울 지하철 7호선: 장암 → 석남","network":"수도권 전철","operator":"서울교통공사;인천교통공사","start_date":"2021-05-22"},"12746494":{"to":"석남","ref":"7","from":"도봉산","name":"서울 지하철 7호선: 도봉산 → 석남","type":"route","route":"subway","colour":"#54640D","name:en":"Seoul Metro Line 7: Dobongsan → Seongnam","name:ko":"서울 지하철 7호선: 도봉산 → 석남","network":"수도권 전철","operator":"인천교통공사;서울교통공사","start_date":"2021-05-22"},"12746498":{"to":"장암","ref":"7","from":"석남","name":"서울 지하철 7호선: 석남 → 장암","type":"route","route":"subway","colour":"#54640D","name:en":"Seoul Metro Line 7: Seongnam → Jangam","name:ko":"서울 지하철 7호선: 석남 → 장암","network":"수도권 전철","operator":"인천교통공사;서울교통공사"},"12746499":{"to":"도봉산","ref":"7","from":"석남","name":"서울 지하철 7호선: 석남 → 도봉산","type":"route","route":"subway","colour":"#54640D","name:en":"Seoul Metro Line 7: Seongnam → Dobongsan","name:ko":"서울 지하철 7호선: 석남 → 도봉산","network":"수도권 전철","operator":"인천교통공사;서울교통공사"},"12814871":{"to":"신사","ref":"320","from":"광교","name":"수도권 전철 신분당선: 광교 → 신사","type":"route","route":"subway","to:en":"Sinsa","colour":"#C82127","alt_ref":"S","from:en":"Gwangyo","name:en":"Seoul Metropolitan Subway Shinbundang Line: Gwangyo → Sinsa","name:ko":"수도권 전철 신분당선: 광교 → 신사","network":"수도권 전철","alt_name":"DX Line","duration":"0:43","operator":"네오트랜즈주식회사","network:en":"Seoul Metropolitan Subway","network:ko":"수도권 전철","official_ref":"신분당","network:metro":"neotrans","network:wikidata":"Q16950","public_transport:version":"2"},"13463724":{"to":"녹동","ref":"1","from":"평동","name":"광주 도시철도 1호선: 평동 → 녹동","type":"route","route":"subway","colour":"#009088","name:en":"Gwangju Metro Line 1 Pyeongdong → Nokdong","name:es":"스페인어 Línea 1 del metro de Gwangju","name:ko":"광주 도시철도 1호선: 평동 → 녹동","network":"광주 도시철도","operator":"광주도시철도공사","wikidata":"Q626996","wikipedia":"en:Gwangju Metro Line 1","public_transport:version":"2"},"13463725":{"to":"평동","ref":"1","from":"녹동","name":"광주 도시철도 1호선: 녹동 → 평동","type":"route","route":"subway","colour":"#009088","name:en":"Gwangju Metro Line 1 Nokdong → Pyeongdong","name:es":"Línea 1 del metro de Gwangju","name:ko":"광주 도시철도 1호선: 녹동 → 평동","network":"광주 도시철도","operator":"광주도시철도공사","wikipedia":"en:Gwangju Metro Line 1","public_transport:version":"2"},"13487300":{"to":"도라산","from":"임진강","name":"수도권 전철 경의·중앙선 셔틀: 임진강 → 도라산","type":"route","route":"subway","colour":"#77C4A3","name:en":"Seoul Metropolitan Subway Gyeongeui-Jungang Line : Imjingang → Dorasan","name:ko":"수도권 전철 경의·중앙선 셔틀: 임진강 → 도라산","network":"수도권 전철","distance":"3.7km","operator":"한국철도공사","network:en":"Seoul Metropolitan Subway","network:ko":"수도권 전철","start_date":"2021-12-11","network:wikidata":"Q16950","network:wikipedia":"ko:수도권 전철"},"13487302":{"to":"임진강","from":"도라산","name":"수도권 전철 경의·중앙선 셔틀: 도라산 → 임진강","type":"route","route":"subway","colour":"#77C4A3","name:en":"Seoul Metropolitan Subway Gyeongeui-Jungang Line : Dorasan → Imjingang","name:ko":"수도권 전철 경의·중앙선 셔틀: 도라산 → 임진강","network":"수도권 전철","distance":"3.7km","operator":"한국철도공사","network:en":"Seoul Metropolitan Subway","network:ko":"수도권 전철","start_date":"2021-12-11","network:wikidata":"Q16950","network:wikipedia":"ko:수도권 전철"},"13528564":{"to":"부평","ref":"1","from":"동두천","name":"수도권 전철 1호선 경인·경원 계통: 동두천 → 부평","type":"route","route":"subway","colour":"#005DAA","name:en":"Seoul Metropolitan Subway Line 1 Gyeongin-Gyeongwon System : Dongducheon → Bupyeong","name:ko":"수도권 전철 1호선 경인·경원 계통: 동두천 → 부평","network":"수도권 전철","operator":"한국철도공사","network:en":"Seoul Metropolitan Subway","network:ko":"수도권 전철","network:wikidata":"Q16950","network:wikipedia":"ko:수도권 전철"},"13528565":{"to":"부평","ref":"1","from":"양주","name":"수도권 전철 1호선 경인·경원 계통: 양주 → 부평","type":"route","route":"subway","colour":"#005DAA","name:en":"Seoul Metropolitan Subway Line 1 Gyeongin-Gyeongwon System : Yangju → Bupyeong","name:ko":"수도권 전철 1호선 경인·경원 계통: 양주 → 부평","network":"수도권 전철","operator":"한국철도공사","network:en":"Seoul Metropolitan Subway","network:ko":"수도권 전철","network:wikidata":"Q16950","network:wikipedia":"ko:수도권 전철"},"13675921":{"to":"진접","ref":"4","from":"사당","name":"수도권 전철 4호선: 사당 → 진접","type":"route","route":"subway","colour":"#289DD5","name:en":"Seoul Metropolitan Subway Line 4: Sadang → Jinjeop","name:ko":"수도권 전철 4호선: 사당 → 진접","network":"수도권 전철","operator":"서울교통공사","network:en":"Seoul Metropolitan Subway","network:ko":"수도권 전철","start_date":"2022-03-19","network:wikidata":"Q16950","network:wikipedia":"ko:수도권 전철"},"13675922":{"to":"진접","ref":"4","from":"남태령","name":"수도권 전철 4호선: 남태령 → 진접","type":"route","route":"subway","colour":"#289DD5","name:en":"Seoul Metropolitan Subway Line 4: Namtaeryeong → Jinjeop","name:ko":"수도권 전철 4호선: 남태령 → 진접","network":"수도권 전철","operator":"서울교통공사","network:en":"Seoul Metropolitan Subway","network:ko":"수도권 전철","start_date":"2022-03-19","network:wikidata":"Q16950","network:wikipedia":"ko:수도권 전철"},"13695367":{"to":"동인천","ref":"1","from":"용산","name":"수도권 전철 1호선 경인·경부 계통: 용산 → 동인천 특급","type":"route","route":"subway","colour":"#005DAA","name:en":"Seoul Metropolitan Subway Line 1 Limited Express Gyeongin-Gyeongbu Syste : Yongsan → Dongincheon","name:es":"Línea 1 del metro de Seúl Ruta Expresa Gyeongin-Gyeongbu: Yongsan → Dongincheon","name:ko":"수도권 전철 1호선 경인·경부 계통: 용산 → 동인천 특급","network":"수도권 전철","operator":"한국철도공사","network:en":"Seoul Metropolitan Subway","network:ko":"수도권 전철","description":"정차역: 용산 - 노량진 - 신도림 - 구로 - 부천 - 송내 - 부평 - 주안 - 동인천","network:wikidata":"Q16950","network:wikipedia":"ko:수도권 전철","public_transport:version":"2"},"13695368":{"to":"용산","ref":"1","from":"동인천","name":"수도권 전철 1호선 경인·경부 계통: 동인천 → 용산 특급","type":"route","route":"subway","colour":"#005DAA","name:en":"Seoul Metropolitan Subway Line 1 Limited Express Gyeongin-Gyeongbu System : Dongincheon → Yongsan","name:es":"Línea 1 del metro de Seúl Ruta Expresa Gyeongin-Gyeongbu : Dongincheon → Yongsan","name:ko":"수도권 전철 1호선 경인·경부 계통: 동인천 → 용산 특급","network":"수도권 전철","operator":"한국철도공사","network:en":"Seoul Metropolitan Subway","network:ko":"수도권 전철","network:wikidata":"Q16950","network:wikipedia":"ko:수도권 전철","public_transport:version":"2"},"13738410":{"name":"의정부경전철: 발곡 → 차량기지임시승강장","type":"route","route":"light_rail","name:ko":"의정부경전철: 발곡 → 차량기지임시승강장","network":"수도권 전철","operator":"인천교통공사"},"13738411":{"to":"탑석","from":"차량기지임시승강장","name":"의정부경전철: 차량기지임시승강장 → 탑석","type":"route","route":"light_rail","name:ko":"의정부경전철: 차량기지임시승강장 → 탑석","network":"수도권 전철","operator":"인천교통공사"},"13938877":{"to":"사당","ref":"4","from":"진접","name":"수도권 전철 4호선: 진접 → 사당","type":"route","route":"subway","colour":"#289DD5","name:en":"Seoul Metropolitan Subway Line 4: Jinjeop → Sadang","name:ko":"수도권 전철 4호선: 진접 → 사당","network":"수도권 전철","operator":"서울교통공사","network:en":"Seoul Metropolitan Subway","network:ko":"수도권 전철","start_date":"2022-03-19","network:wikidata":"Q16950","network:wikipedia":"ko:수도권 전철"},"13938878":{"to":"남태령","ref":"4","from":"진접","name":"수도권 전철 4호선: 진접 → 남태령","type":"route","route":"subway","colour":"#289DD5","name:en":"Seoul Metropolitan Subway Line 4: Jinjeop → Namtaeryeong","name:ko":"수도권 전철 4호선: 진접 → 남태령","network":"수도권 전철","operator":"서울교통공사","network:en":"Seoul Metropolitan Subway","network:ko":"수도권 전철","network:wikidata":"Q16950","network:wikipedia":"ko:수도권 전철"},"14138328":{"to":"천안","ref":"1","from":"병점","name":"수도권 전철 1호선 경부·장항 계통: 병점 → 천안","type":"route","route":"subway","colour":"#005DAA","name:en":"Seoul Metropolitan Subway Line 1 Gyeongbu-Janghang System : Byeongjeom → Cheonan","name:ko":"수도권 전철 1호선 경부·장항 계통: 병점 → 천안","network":"수도권 전철","operator":"한국철도공사","network:en":"Seoul Metropolitan Subway","network:ko":"수도권 전철","network:wikidata":"Q16950"},"14138329":{"to":"신창","ref":"1","from":"병점","name":"수도권 전철 1호선 경부·장항 계통: 병점 → 신창","type":"route","route":"subway","colour":"#005DAA","name:en":"Seoul Metropolitan Subway Line 1 Gyeongbu-Janghang System : Byeongjeom → Sinchang","name:ko":"수도권 전철 1호선 경부·장항 계통: 병점 → 신창","network":"수도권 전철","operator":"한국철도공사","network:en":"Seoul Metropolitan Subway","network:ko":"수도권 전철","network:wikidata":"Q16950"},"14138330":{"to":"병점","ref":"1","from":"신창","name":"수도권 전철 1호선 경부·장항 계통: 신창 → 병점","type":"route","route":"subway","colour":"#005DAA","name:en":"Seoul Metropolitan Subway Line 1 Gyeongbu-Janghang System: Sinchang → Byeongjeom","name:ko":"수도권 전철 1호선 경부·장항 계통: 신창 → 병점","network":"수도권 전철","operator":"한국철도공사","network:en":"Seoul Metropolitan Subway","network:ko":"수도권 전철","network:wikidata":"Q16950"},"14138331":{"to":"구로","ref":"1","from":"신창","name":"수도권 전철 1호선 경부·장항 계통: 신창 → 구로","type":"route","route":"subway","colour":"#005DAA","name:en":"Seoul Metropolitan Subway Line 1 Gyeongbu-Janghang System : Sinchang → Guro","name:ko":"수도권 전철 1호선 경부·장항 계통: 신창 → 구로","network":"수도권 전철","operator":"한국철도공사","network:en":"Seoul Metropolitan Subway","network:ko":"수도권 전철","network:wikidata":"Q16950"},"14181831":{"to":"천안","ref":"1","from":"구로","name":"수도권 전철 1호선 경부선 계통: 구로 → 천안","type":"route","route":"subway","name:en":"Seoul Metropolitan Subway Line 1 Gyeongbu Line System: Guro → Cheonan","name:ko":"수도권 전철 1호선 경부선 계통: 구로 → 천안","network":"수도권 전철","operator":"한국철도공사","network:en":"Seoul Metropolitan Subway","network:ko":"수도권 전철","network:wikidata":"Q16950"},"14181832":{"to":"신창","ref":"1","from":"구로","name":"수도권 전철 1호선 경부·장항 계통: 구로 → 신창","type":"route","route":"subway","name:en":"Seoul Metropolitan Subway Line 1 Gyeongbu-Janghang System System : Guro → Cheonan","name:ko":"수도권 전철 1호선 경부·장항 계통: 구로 → 신창","network":"수도권 전철","operator":"한국철도공사","network:en":"Seoul Metropolitan Subway","network:ko":"수도권 전철","network:wikidata":"Q16950"},"14191876":{"to":"샛강","from":"관악산","name":"서울 경전철 신림선: 관악산 → 샛강","type":"route","route":"light_rail","name:en":"Seoul LRT Sillim Line: Gwanaksan → Saetgang","name:ko":"서울 경전철 신림선: 관악산 → 샛강","network":"수도권 전철","operator":"로템SRS","public_transport:version":"2"},"14191877":{"to":"관악산","from":"샛강","name":"서울 경전철 신림선 샛강 → 관악산","type":"route","route":"light_rail","colour":"6789CA","name:en":"Seoul LRT Sillim Line: Saetgang → Gwanaksan","name:ko":"서울 경전철 신림선 샛강 → 관악산","network":"수도권 전철","operator":"로템SRS","public_transport:version":"2"},"15044496":{"to":"광운대","ref":"1","from":"의정부","name":"수도권 전철 1호선 경원선 계통: 의정부 → 광운대","type":"route","route":"subway","colour":"#005DAA","name:en":"Seoul Metropolitan Subway Line 1 Gyeongwon Line System: Uijeongbu → Kwangwoon University","name:ko":"수도권 전철 1호선 경원선 계통: 의정부 → 광운대","network":"수도권 전철","distance":"13km","operator":"한국철도공사","network:en":"Seoul Metropolitan Subway","network:ko":"수도권 전철","network:wikidata":"Q16950"},"15044497":{"to":"의정부","ref":"1","from":"광운대","name":"수도권 전철 1호선 경원선 계통: 광운대 → 의정부","type":"route","route":"subway","colour":"#005DAA","name:en":"Seoul Metropolitan Subway Line 1 Gyeongwon Line System: Kwangwoon University → Uijeongbu","name:ko":"수도권 전철 1호선 경원선 계통: 광운대 → 의정부","network":"수도권 전철","operator":"한국철도공사","network:en":"Seoul Metropolitan Subway","network:ko":"수도권 전철","network:wikidata":"Q16950"},"15044498":{"to":"소요산","ref":"1","from":"광운대","name":"수도권 전철 1호선 경원선 계통: 광운대 → 소요산","type":"route","route":"subway","colour":"#005DAA","name:en":"Seoul Metropolitan Subway Line 1 Gyeongwon Line System: Kwangwoon University → Soyosan","name:ko":"수도권 전철 1호선 경원선 계통: 광운대 → 소요산","network":"수도권 전철","operator":"한국철도공사","network:en":"Seoul Metropolitan Subway","network:ko":"수도권 전철","network:wikidata":"Q16950"},"15044499":{"to":"소요산","ref":"1","from":"광운대","name":"수도권 전철 1호선 경원선 계통: 광운대 → 동두천 급행","type":"route","route":"subway","colour":"#005DAA","name:en":"Seoul Metropolitan Subway Line 1 Gyeongwon Line System: Kwangwoon University → Dongducheon Rapid","name:ko":"수도권 전철 1호선 경원선 계통: 광운대 → 동두천 급행","network":"수도권 전철","operator":"한국철도공사","network:en":"Seoul Metropolitan Subway","network:ko":"수도권 전철","network:wikidata":"Q16950"},"15044500":{"to":"광운대","ref":"1","from":"소요산","name":"수도권 전철 1호선 경원선 계통: 소요산 → 광운대 급행","type":"route","route":"subway","colour":"#005DAA","name:en":"Seoul Metropolitan Subway Line 1 Gyeongwon Line System: Soyosan → Kwangwoon University Rapid","name:ko":"수도권 전철 1호선 경원선 계통: 소요산 → 광운대 급행","network":"수도권 전철","distance":"37.4 km","duration":"53:00","operator":"한국철도공사","network:en":"Seoul Metropolitan Subway","network:ko":"수도권 전철","network:wikidata":"Q16950"},"15044580":{"to":"광운대","ref":"1","from":"동두천","name":"수도권 전철 1호선 경원선 계통: 동두천 → 광운대 급행","type":"route","route":"subway","colour":"#005DAA","name:en":"Seoul Metropolitan Subway Line 1 Gyeongwon Line System: Dongducheon → Kwangwoon University Rapid","name:ko":"수도권 전철 1호선 경원선 계통: 동두천 → 광운대 급행","network":"수도권 전철","distance":"34.9 km","duration":"39:30","operator":"한국철도공사","network:en":"Seoul Metropolitan Subway","network:ko":"수도권 전철","network:wikidata":"Q16950"},"15055925":{"to":"천안","ref":"1","from":"광운대","name":"수도권 전철 1호선 경원·경부·장항 계통: 광운대 → 천안","type":"route","route":"subway","colour":"#005DAA","name:en":"Seoul Metropolitan Subway Line 1 Gyeongbu-Gyeongbu-Gyeongwon-Janghang System: Gwangwoon Univ. → Cheonan","name:ko":"수도권 전철 1호선 경원·경부·장항 계통: 광운대 → 천안","network":"수도권 전철","distance":"109.9km","duration":"02:30","operator":"한국철도공사","network:en":"Seoul Metropolitan Subway","network:ko":"수도권 전철","network:wikidata":"Q16950","public_transport:version":"2"},"15055926":{"to":"광운대","ref":"1","from":"천안","name":"수도권 전철 1호선 경원·경부·장항 계통: 천안 → 광운대","type":"route","route":"subway","name:en":"Seoul Metropolitan Subway Line 1 Gyeongbu-Gyeongbu-Gyeongwon-Janghang System: Cheonan → Gwangwoon Univ.","name:ko":"수도권 전철 1호선 경원·경부·장항 계통: 천안 → 광운대","network":"수도권 전철","distance":"109.9km","duration":"02:35","operator":"한국철도공사","network:en":"Seoul Metropolitan Subway","network:ko":"수도권 전철","network:wikidata":"Q16950"},"15055927":{"to":"청량리","ref":"1","from":"천안","name":"수도권 전철 1호선 경부·장항 계통: 천안 → 청량리","type":"route","route":"subway","name:en":"Seoul Metropolitan Subway Line 1 Gyeongbu-Janghang System: Cheonan → Cheongnyangni","name:ko":"수도권 전철 1호선 경부·장항 계통: 천안 → 청량리","network":"수도권 전철","operator":"한국철도공사","network:en":"Seoul Metropolitan Subway","network:ko":"수도권 전철","network:wikidata":"Q16950"},"15801809":{"to":"당고개","ref":"4","from":"산본","name":"수도권 전철 4호선: 산본 → 당고개","type":"route","route":"subway","to:en":"Danggogae","colour":"#289DD5","from:en":"Sanbon","name:en":"Seoul Metropolitan Subway Line 4: Sanbon → Danggogae","name:ko":"수도권 전철 4호선: 산본 → 당고개","network":"수도권 전철","distance":"47.8 km","duration":"01:22:30","operator":"한국철도공사","network:en":"Seoul Metropolitan Subway","network:ko":"수도권 전철","operator:en":"Korea Railroad Corporation","network:wikidata":"Q16950","public_transport:version":"2"},"15802274":{"to":"서울역","ref":"1","from":"양주","name":"수도권 전철 1호선: 양주 → 서울역","type":"route","route":"subway","colour":"#005DAA","name:en":"Seoul Metropolitan Subway Line 1: Yangju → Seoul Station","name:ko":"수도권 전철 1호선: 양주 → 서울역","network":"수도권 전철","distance":"30.4 km","duration":"59:00","operator":"서울교통공사","network:en":"Seoul Metropolitan Subway","network:ko":"수도권 전철","network:wikidata":"Q16950"},"15802275":{"to":"양주","ref":"1","from":"서울역","name":"수도권 전철 1호선: 서울역 → 양주","type":"route","route":"subway","colour":"#005DAA","name:en":"Seoul Metropolitan Subway Line 1: Seoul Station → Yangju","name:ko":"수도권 전철 1호선: 서울역 → 양주","network":"수도권 전철","distance":"30.4 km","duration":"59:00","operator":"서울교통공사","network:en":"Seoul Metropolitan Subway","network:ko":"수도권 전철","network:wikidata":"Q16950"},"15833199":{"to":"광운대","ref":"1","from":"소요산","name":"수도권 전철 1호선 경원선 계통: 소요산→ 광운대","type":"route","route":"subway","colour":"#005DAA","name:en":"Seoul Metropolitan Subway Line 1 Gyeongwon Line System: Soyosan → Kwangwoon University","name:ko":"수도권 전철 1호선 경원선 계통: 소요산→ 광운대","network":"수도권 전철","operator":"한국철도공사","network:en":"Seoul Metropolitan Subway","network:ko":"수도권 전철","network:wikidata":"Q16950"},"15833652":{"to":"서동탄","ref":"1","from":"동묘앞","name":"수도권 전철 1호선: 동묘앞 → 서동탄","type":"route","route":"subway","colour":"#005DAA","name:en":"Seoul Metropolitan Subway Line 1: Dongmyo → Seodongtan","name:ko":"수도권 전철 1호선: 동묘앞 → 서동탄","network":"수도권 전철","distance":"56.1 km","operator":"서울교통공사","network:en":"Seoul Metropolitan Subway","network:ko":"수도권 전철","network:wikidata":"Q16950"},"15833653":{"to":"서동탄","ref":"1","from":"청량리","name":"수도권 전철 1호선: 청량리 → 서동탄","type":"route","route":"subway","colour":"#005DAA","name:en":"Seoul Metropolitan Subway Line 1: Cheongnyangni → Seodongtan","name:ko":"수도권 전철 1호선: 청량리 → 서동탄","network":"수도권 전철","distance":"58.7 km","operator":"한국철도공사;서울교통공사","network:en":"Seoul Metropolitan Subway","network:ko":"수도권 전철","network:wikidata":"Q16950"},"15833654":{"to":"구로","ref":"1","from":"청량리","name":"수도권 전철 1호선: 청량리 → 구로","type":"route","route":"subway","colour":"#005DAA","name:en":"Seoul Metropolitan Subway Line 1: Cheongnyangni → Guro","name:ko":"수도권 전철 1호선: 청량리 → 구로","network":"수도권 전철","distance":"19.5 km","operator":"한국철도공사","network:en":"Seoul Metropolitan Subway","network:ko":"수도권 전철","network:wikidata":"Q16950"},"15833655":{"to":"청량리","ref":"1","from":"구로","name":"수도권 전철 1호선: 구로 → 청량리","type":"route","route":"subway","colour":"#005DAA","name:en":"Seoul Metropolitan Subway Line 1: Guro → Cheongnyangni","name:ko":"수도권 전철 1호선: 구로 → 청량리","network":"수도권 전철","distance":"19.5","operator":"한국철도공사","network:en":"Seoul Metropolitan Subway","network:ko":"수도권 전철","network:wikidata":"Q16950"},"15833656":{"to":"동묘앞","ref":"1","from":"서동탄","name":"수도권 전철 1호선: 서동탄 → 동묘앞","type":"route","route":"subway","colour":"#005DAA","name:en":"Seoul Metropolitan Subway Line 1: Seodongtan → Dongmyo","name:ko":"수도권 전철 1호선: 서동탄 → 동묘앞","network":"수도권 전철","distance":"56.1","operator":"서울교통공사","network:en":"Seoul Metropolitan Subway","network:ko":"수도권 전철","network:wikidata":"Q16950"},"15833657":{"to":"청량리","ref":"1","from":"서동탄","name":"수도권 전철 1호선: 서동탄 → 청량리","type":"route","route":"subway","colour":"#005DAA","name:en":"Seoul Metropolitan Subway Line 1: Seodongtan → Cheongnyangni","name:ko":"수도권 전철 1호선: 서동탄 → 청량리","network":"수도권 전철","distance":"56.1","operator":"한국철도공사;서울교통공사","network:en":"Seoul Metropolitan Subway","network:ko":"수도권 전철","network:wikidata":"Q16950"},"15833658":{"to":"구로","ref":"1","from":"서동탄","name":"수도권 전철 1호선 경부선 계통: 서동탄 → 구로","type":"route","route":"subway","colour":"#005DAA","name:en":"Seoul Metropolitan Subway Line 1 Gyeongbu System: Seodongtan → Guro","name:ko":"수도권 전철 1호선 경부선 계통: 서동탄 → 구로","network":"수도권 전철","distance":"39.2","operator":"한국철도공사","network:en":"Seoul Metropolitan Subway","network:ko":"수도권 전철","network:wikidata":"Q16950"},"15833659":{"to":"서동탄","ref":"1","from":"구로","name":"수도권 전철 1호선 경부선 계통: 구로 → 서동탄","type":"route","route":"subway","name:en":"Seoul Metropolitan Subway Line 1 Gyeongbu System: Guro → Seodongtan","name:ko":"수도권 전철 1호선 경부선 계통: 구로 → 서동탄","network":"수도권 전철","distance":"39.2","operator":"한국철도공사","network:en":"Seoul Metropolitan Subway","network:ko":"수도권 전철","network:wikidata":"Q16950"},"15870296":{"to":"오이도","ref":"4","from":"한성대입구","name":"서울 지하철 4호선: 한성대입구 → 오이도","type":"route","route":"subway","colour":"#289DD5","name:en":"Seoul Metropolitan Subway Line 4: Hansung Univ. → Oido","name:ko":"서울 지하철 4호선: 한성대입구 → 오이도","network":"수도권 전철","distance":"58.5 km","operator":"서울교통공사","network:en":"Seoul Metropolitan Subway","network:ko":"수도권 전철","network:wikidata":"Q16950"},"15870297":{"to":"한성대입구","ref":"4","from":"오이도","name":"서울 지하철 4호선: 오이도 → 한성대입구","type":"route","route":"subway","colour":"#289DD5","name:en":"Seoul Metropolitan Subway Line 4: Oido → Hansung Univ.","name:ko":"서울 지하철 4호선: 오이도 → 한성대입구","network":"수도권 전철","distance":"58.5 km","operator":"서울교통공사","network:en":"Seoul Metropolitan Subway","network:ko":"수도권 전철","network:wikidata":"Q16950"},"15870343":{"to":"고색","from":"죽전","name":"수도권 전철 수인분당선: 죽전 → 고색","type":"route","route":"subway","colour":"#F5A200","name:en":"Seoul Metropolitan Subway Suin-Bundang Line: Jukjeon → Gosaek","name:ko":"수도권 전철 수인분당선: 죽전 → 고색","network":"수도권 전철","operator":"한국철도공사","network:en":"Seoul Metropolitan Subway","network:ko":"수도권 전철","network:wikidata":"Q16950"},"15870344":{"to":"죽전","from":"고색","name":"수도권 전철 수인분당선: 고색 → 죽전","type":"route","route":"subway","colour":"#F5A200","name:en":"Seoul Metropolitan Subway Suin-Bundang Line: Gosaek → Jukjeon","name:ko":"수도권 전철 수인분당선: 고색 → 죽전","network":"수도권 전철","operator":"한국철도공사","network:en":"Seoul Metropolitan Subway","network:ko":"수도권 전철","network:wikidata":"Q16950"},"15885692":{"to":"구로","ref":"1","from":"천안","name":"수도권 전철 1호선 경부선 계통: 천안 → 구로","type":"route","route":"subway","colour":"#005DAA","name:en":"Seoul Metropolitan Subway Line 1 Gyeongbu Line System: Cheonan → Guro","name:ko":"수도권 전철 1호선 경부선 계통: 천안 → 구로","network":"수도권 전철","operator":"한국철도공사","network:en":"Seoul Metropolitan Subway","network:ko":"수도권 전철","network:wikidata":"Q16950"},"15885693":{"to":"병점","ref":"1","from":"천안","name":"수도권 전철 1호선 경부선 계통: 천안 → 병점","type":"route","route":"subway","colour":"#005DAA","name:en":"Seoul Metropolitan Subway Line 1 Gyeongbu-Janghang System: Cheonan → Byeongjeom","name:ko":"수도권 전철 1호선 경부선 계통: 천안 → 병점","network":"수도권 전철","operator":"한국철도공사","network:en":"Seoul Metropolitan Subway","network:ko":"수도권 전철","network:wikidata":"Q16950"},"15885884":{"to":"인천","ref":"1","from":"구로","name":"수도권 전철 1호선 경인선 계통: 구로 → 인천","type":"route","route":"subway","colour":"#005DAA","name:en":"Seoul Metropolitan Subway Line 1 Gyeongin Line System: Guro → Incheon","name:ko":"수도권 전철 1호선 경인선 계통: 구로 → 인천","network":"수도권 전철","operator":"한국철도공사","network:en":"Seoul Metropolitan Subway","network:ko":"수도권 전철","network:wikidata":"Q16950"},"15885937":{"to":"구로","ref":"1","from":"인천","name":"수도권 전철 1호선 경인선 계통: 인천 → 구로","type":"route","route":"subway","colour":"#005DAA","name:en":"Seoul Metropolitan Subway Line 1 Gyeongin Line System: Incheon → Guro","name:ko":"수도권 전철 1호선 경인선 계통: 인천 → 구로","network":"수도권 전철","operator":"한국철도공사","network:en":"Seoul Metropolitan Subway","network:ko":"수도권 전철","network:wikidata":"Q16950"}}