{"10402162":{"to":"海洋 Oceano","from":"氹仔碼頭 Terminal Marítimo da Taipa","name":"氹仔線 Linha da Taipa（氹仔碼頭 Terminal Marítimo da Taipa => 海洋 Oceano）","type":"route","route":"light_rail","colour":"#96C93C","name:ar":"خط تايبا","name:en":"Taipa Line (Taipa Ferry Terminal => Ocean)","name:pt":"Linha da Taipa (Terminal Marítimo da Taipa => Oceano)","name:zh":"氹仔線（氹仔碼頭=>海洋）","network":"澳門輕軌 Metro Ligeiro de Macau","operator":"港鐵軌道營運（澳門） MTR Operações Ferroviárias (Macau)","wikidata":"Q15935354","wikipedia":"zh:氹仔線","operator:en":"MTR Railway Operations (Macau)","operator:pt":"MTR Operações Ferroviárias (Macau)","operator:zh":"港鐵軌道營運（澳門）","public_transport:version":"2"},"10402173":{"to":"氹仔碼頭 Terminal Marítimo da Taipa","from":"海洋 Oceano","name":"氹仔線 Linha da Taipa（海洋 Oceano =>氹仔碼頭 Terminal Marítimo da Taipa）","type":"route","route":"light_rail","colour":"#96C93C","name:ar":"خط تايبا","name:en":"Taipa Line (Ocean => Taipa Ferry Terminal)","name:pt":"Linha da Taipa (Oceano => Terminal Marítimo da Taipa)","name:zh":"氹仔線（海洋=>氹仔碼頭）","network":"澳門輕軌 Metro Ligeiro de Macau","operator":"港鐵軌道營運（澳門） MTR Operações Ferroviárias (Macau)","wikidata":"Q15935354","wikipedia":"zh:氹仔線","operator:en":"MTR Railway Operations (Macau)","operator:pt":"MTR Operações Ferroviárias (Macau)","operator:zh":"港鐵軌道營運（澳門）","public_transport:version":"2"}}