{"443191":{"ref":"2","name":"Línea 2 (Cuatro Caminos --> Tasqueña)","type":"route","route":"subway","colour":"#0080FF","network":"STC Metro","operator":"Sistema de Transporte Colectivo","wikidata":"Q1152993","wikipedia":"es:Línea 2 del Metro de la Ciudad de México","network:wikidata":"Q735042","public_transport:version":"2"},"443195":{"ref":"8","name":"Línea 8 (Garibaldi/Lagunilla --> Constitución de 1917)","type":"route","route":"subway","colour":"#30C090","network":"STC Metro","operator":"Sistema de Transporte Colectivo","wikidata":"Q1149545","wikipedia":"es:Línea 8 del Metro de la Ciudad de México","network:wikidata":"Q735042","public_transport:version":"2"},"443196":{"ref":"4","name":"Línea 4 (Martín Carrera --> Santa Anita)","type":"route","route":"subway","colour":"#80FFFF","network":"STC Metro","operator":"Sistema de Transporte Colectivo","wikidata":"Q2837181","wikipedia":"es:Línea 4 del Metro de la Ciudad de México","network:wikidata":"Q735042","network:wikipedia":"es:Metro de la Ciudad de México","public_transport:version":"2"},"443198":{"ref":"B","name":"Línea B (Buenavista --> Ciudad Azteca)","type":"route","route":"subway","colour":"#408080","network":"STC Metro","operator":"Sistema de Transporte Colectivo","wikidata":"Q3239062","wikipedia":"es:Línea B del Metro de la Ciudad de México","network:wikidata":"Q735042","public_transport:version":"2"},"443204":{"ref":"5","name":"Línea 5 (Politécnico --> Pantitlán)","type":"route","route":"subway","colour":"#ffff11","network":"STC Metro","operator":"Sistema de Transporte Colectivo","wikidata":"Q1152238","wikipedia":"es:Línea 5 del Metro de la Ciudad de México","network:wikidata":"Q735042","network:wikipedia":"es:Metro de la Ciudad de México","public_transport:version":"2"},"443206":{"ref":"3","name":"Línea 3 (Indios Verdes --> Universidad)","type":"route","route":"subway","colour":"#ae9d27","network":"STC Metro","operator":"Sistema de Transporte Colectivo","wikidata":"Q945935","wikipedia":"es:Línea 3 del Metro de la Ciudad de México","network:wikidata":"Q735042","public_transport:version":"2"},"443209":{"ref":"6","name":"Línea 6 (Martín Carrera --> El Rosario)","type":"route","route":"subway","colour":"#E00050","network":"STC Metro","operator":"Sistema de Transporte Colectivo","wikidata":"Q3238990","wikipedia":"es:Línea 6 del Metro de la Ciudad de México","network:wikidata":"Q735042","network:wikipedia":"es:Metro de la Ciudad de México"},"443224":{"ref":"9","name":"Línea 9 (Tacubaya --> Pantitlán)","type":"route","route":"subway","colour":"#804000","network":"STC Metro","operator":"Sistema de Transporte Colectivo","wikidata":"Q3239046","wikipedia":"es:Línea 9 del Metro de la Ciudad de México","network:wikidata":"Q735042","network:wikipedia":"es:Metro de la Ciudad de México","public_transport:version":"2"},"1142629":{"to":"Xochimilco","fee":"yes","ref":"L1","from":"Tasqueña","name":"Tren Ligero (Tasqueña - Xochimilco)","type":"route","route":"light_rail","charge":"3.00 MXN","colour":"#0554ba","network":"STE Tren Ligero","operator":"Servicio de Transportes Eléctricos de la Ciudad de México","roundtrip":"no","public_transport:version":"2"},"1402127":{"to":"Xochimilco","fee":"yes","ref":"L1","from":"Tasqueña","name":"Tren Ligero (Xochimilco - Tasqueña)","type":"route","route":"light_rail","charge":"3.00 MXN","colour":"#0554ba","network":"STE Tren Ligero","operator":"Servicio de Transportes Eléctricos de la Ciudad de México","wikidata":"Q25419812","roundtrip":"no","public_transport:version":"2"},"1429929":{"ref":"A","name":"Línea A (La Paz --> Pantitlán)","type":"route","route":"subway","colour":"#A3277D","network":"STC Metro","operator":"Sistema de Transporte Colectivo","wikidata":"Q3239049","wikipedia":"es:Línea A del Metro de la Ciudad de México","network:wikidata":"Q735042","network:wikipedia":"es:Metro de la Ciudad de México","public_transport:version":"2"},"1432856":{"to":"Pantitlan","ref":"1","name":"Línea 1 (Pantitlán --> Observatorio)","type":"route","route":"subway","colour":"#E86495","network":"STC Metro","operator":"Sistema de Transporte Colectivo","wikidata":"Q2295084","wikipedia":"es:Línea 1 del Metro de la Ciudad de México","network:wikidata":"Q735042","network:wikipedia":"es:Metro de la Ciudad de México","public_transport:version":"2"},"3165694":{"to":"Tláhuac","ref":"12","from":"Mixcoac","name":"Línea 12 (Mixcoac --> Tláhuac)","type":"route","route":"subway","colour":"#b69764","network":"STC Metro","operator":"Sistema de Transporte Colectivo","wikidata":"Q5985548","wikipedia":"es:Línea 12 del Metro de la Ciudad de México","network:wikidata":"Q735042","public_transport:version":"2"},"3403903":{"to":"General I. Zaragoza","ref":"2","from":"Sendero","name":"Línea 2","type":"route","route":"subway","colour":"#6BC069","name:en":"Line 2 (Southbound)","network":"Metrorrey","operator":"Sistema de Transporte Colectivo Metrorrey","wikidata":"Q2842186","public_transport:version":"2"},"5365308":{"ref":"7","name":"Línea 7 (El Rosario --> Barranca del Muerto)","type":"route","route":"subway","colour":"#FF8000","network":"STC Metro","operator":"Sistema de Transporte Colectivo","wikidata":"Q929645","wikipedia":"es:Línea 7 del Metro de la Ciudad de México","network:wikidata":"Q735042","public_transport:version":"2"},"6849310":{"to":"Periférico Sur","ref":"TL-1","from":"Auditorio","name":"Línea 1: Periférico Sur","type":"route","route":"light_rail","network":"Mi Tren","duration":"38","interval":"7","operator":"SITEUR","wikidata":"Q5985920","public_transport:version":"2"},"6849316":{"to":"Auditorio","ref":"TL-1","from":"Periférico Sur","name":"Linea 1: Auditorio","type":"route","route":"light_rail","network":"Mi Tren","duration":"38","interval":"6","operator":"SITEUR","wikidata":"Q5985920","wikipedia":"es:Línea 1 del Tren Eléctrico Urbano de Guadalajara","public_transport:version":"2"},"6851903":{"to":"Tetlán","ref":"TL-2","from":"Juárez","name":"Línea 2: Tetlán","type":"route","route":"light_rail","network":"Mi Tren","interval":"5","operator":"SITEUR","wikidata":"Q5986178","wikipedia":"es:Línea 2 del Tren Eléctrico Urbano de Guadalajara","public_transport:version":"2"},"6851906":{"to":"Juárez","ref":"TL-2","from":"Tetlán","name":"Línea 2: Juárez","type":"route","route":"light_rail","network":"Mi Tren","interval":"5","operator":"SITEUR","wikidata":"Q5986178","public_transport:version":"2"},"7890220":{"to":"Sendero","ref":"2","from":"General I. Zaragoza","name":"Línea 2","type":"route","route":"subway","colour":"#6BC069","name:en":"Line 2 (Northbound)","network":"Metrorrey","operator":"Sistema de Transporte Colectivo Metrorrey","wikidata":"Q2842186","public_transport:version":"2"},"7890221":{"to":"Talleres","ref":"1","from":"Exposición","name":"Línea 1","type":"route","route":"subway","colour":"#FEC04F","name:en":"Line 1 (Westbound)","network":"Metrorrey","operator":"Sistema de Transporte Colectivo Metrorrey","wikidata":"Q5985916","public_transport:version":"2"},"7890222":{"to":"Exposición","ref":"1","from":"Talleres","name":"Línea 1","type":"route","route":"subway","colour":"#FEC04F","name:en":"Line 1 (Eastbound)","network":"Metrorrey","operator":"Sistema de Transporte Colectivo Metrorrey","wikidata":"Q5985916","public_transport:version":"2"},"7935037":{"to":"Observatorio","ref":"1","name":"Línea 1 (Observatorio --> Pantitlán)","type":"route","route":"subway","colour":"#E86495","network":"STC Metro","operator":"Sistema de Transporte Colectivo","wikidata":"Q2295084","wikipedia":"es:Línea 1 del Metro de la Ciudad de México","network:wikidata":"Q735042","network:wikipedia":"es:Metro de la Ciudad de México","public_transport:version":"2"},"7935350":{"ref":"4","name":"Línea 4 (Santa Anita --> Martín Carrera)","type":"route","route":"subway","colour":"#80FFFF","network":"STC Metro","operator":"Sistema de Transporte Colectivo","wikidata":"Q2837181","wikipedia":"es:Línea 4 del Metro de la Ciudad de México","network:wikidata":"Q735042","network:wikipedia":"es:Metro de la Ciudad de México","public_transport:version":"2"},"7935362":{"ref":"5","name":"Línea 5 (Pantitlán --> Politécnico)","type":"route","route":"subway","colour":"#ffff11","network":"STC Metro","operator":"Sistema de Transporte Colectivo","wikidata":"Q1152238","wikipedia":"es:Línea 5 del Metro de la Ciudad de México","network:wikidata":"Q735042","network:wikipedia":"es:Metro de la Ciudad de México","public_transport:version":"2"},"7935367":{"to":"Mixcoac","ref":"12","from":"Tláhuac","name":"Línea 12 (Tláhuac --> Mixcoac)","type":"route","route":"subway","colour":"#b69764","network":"STC Metro","operator":"Sistema de Transporte Colectivo","wikidata":"Q5985548","wikipedia":"es:Línea 12 del Metro de la Ciudad de México","network:wikidata":"Q735042","public_transport:version":"2"},"7935373":{"ref":"7","name":"Línea 7 (Barranca del Muerto --> El Rosario)","type":"route","route":"subway","colour":"#FF8000","network":"STC Metro","operator":"Sistema de Transporte Colectivo","wikidata":"Q929645","wikipedia":"es:Línea 7 del Metro de la Ciudad de México","network:wikidata":"Q735042","public_transport:version":"2"},"7935379":{"ref":"A","name":"Línea A (Pantitlán --> La Paz)","type":"route","route":"subway","colour":"#A3277D","network":"STC Metro","operator":"Sistema de Transporte Colectivo","wikidata":"Q3239049","wikipedia":"es:Línea A del Metro de la Ciudad de México","network:wikidata":"Q735042","public_transport:version":"2"},"7935421":{"ref":"8","name":"Línea 8 (Constitución de 1917 --> Garibaldi/Lagunilla)","type":"route","route":"subway","colour":"#30C090","network":"STC Metro","operator":"Sistema de Transporte Colectivo","wikidata":"Q1149545","wikipedia":"es:Línea 8 del Metro de la Ciudad de México","network:wikidata":"Q735042","public_transport:version":"2"},"7935432":{"ref":"B","name":"Línea B (Ciudad Azteca --> Buenavista)","type":"route","route":"subway","colour":"#408080","network":"STC Metro","operator":"Sistema de Transporte Colectivo","wikidata":"Q3239062","wikipedia":"es:Línea B del Metro de la Ciudad de México","network:wikidata":"Q735042","public_transport:version":"2"},"7935435":{"ref":"2","name":"Línea 2 (Tasqueña --> Cuatro Caminos)","type":"route","route":"subway","colour":"#0080FF","network":"STC Metro","operator":"Sistema de Transporte Colectivo","wikidata":"Q1152993","wikipedia":"es:Línea 2 del Metro de la Ciudad de México","network:wikidata":"Q735042","public_transport:version":"2"},"7935440":{"ref":"9","name":"Línea 9 (Pantitlán --> Tacubaya)","type":"route","route":"subway","colour":"#804000","network":"STC Metro","operator":"Sistema de Transporte Colectivo","wikidata":"Q3239046","wikipedia":"es:Línea 9 del Metro de la Ciudad de México","network:wikidata":"Q735042","network:wikipedia":"es:Metro de la Ciudad de México","public_transport:version":"2"},"7935445":{"ref":"3","name":"Línea 3 (Universidad --> Indios Verdes)","type":"route","route":"subway","colour":"#ae9d27","network":"STC Metro","operator":"Sistema de Transporte Colectivo","wikidata":"Q945935","wikipedia":"es:Línea 3 del Metro de la Ciudad de México","network:wikidata":"Q735042","public_transport:version":"2"},"7935450":{"ref":"6","name":"Línea 6 (El Rosario --> Martín Carrera)","type":"route","route":"subway","colour":"#E00050","network":"STC Metro","operator":"Sistema de Transporte Colectivo","wikidata":"Q3238990","wikipedia":"es:Línea 6 del Metro de la Ciudad de México","network:wikidata":"Q735042","network:wikipedia":"es:Metro de la Ciudad de México"},"11632938":{"to":"Central de Autobuses","ref":"TL-3","from":"Arcos de Zapopan","name":"Línea 3: Central de Autobuses","type":"route","route":"subway","colour":"#B8007C","network":"Mi Tren","duration":"33","interval":"6","operator":"SITEUR","wikidata":"Q5986357","wikipedia":"es:Línea 3 del Tren Eléctrico Urbano de Guadalajara","start_date":"2020-09-12","wheelchair":"yes","public_transport:version":"2"},"11637372":{"to":"Arcos de Zapopan","ref":"TL-3","from":"Central de Autobuses","name":"Línea 3: Arcos de Zapopan","type":"route","route":"subway","colour":"#B8007C","network":"Mi Tren","duration":"33","interval":"6","operator":"SITEUR","wikidata":"Q5986357","wikipedia":"es:Línea 3 del Tren Eléctrico Urbano de Guadalajara","start_date":"2020-09-12","wheelchair":"yes","public_transport:version":"2"},"12380644":{"to":"General I. Zaragoza","ref":"3","from":"Hospital Metropolitano","name":"Línea 3","type":"route","route":"subway","colour":"#FF8000","name:en":"Line 3 (Southbound)","network":"Metrorrey","operator":"Sistema de Transporte Colectivo Metrorrey","wikidata":"Q56377988","public_transport:version":"2"},"12380647":{"to":"Hospital Metropolitano","ref":"3","from":"General I. Zaragoza","name":"Línea 3","type":"route","route":"subway","colour":"#FF8000","name:en":"Line 3 (Northbound)","network":"Metrorrey","operator":"Sistema de Transporte Colectivo Metrorrey","wikidata":"Q56377988","public_transport:version":"2"}}