{"1895592":{"to":"Putra Heights","ref":"KJ","from":"Gombak","name":"Kelana Jaya Line (Gombak --> Putra Heights)","type":"route","route":"light_rail","colour":"#e0115f","name:zh":"格拉那再也线（正向）","network":"Rapid KL","distance":"29 km","operator":"Prasarana Malaysia","wikidata":"Q248445","wikipedia":"en:Kelana Jaya line","wheelchair":"yes","official_ref":"5","network:metro":"Klang Valley Rapid Transit","network:wikidata":"Q3271384","operator:wikidata":"Q4209298","public_transport:version":"2"},"3374384":{"to":"Putra Heights","ref":"SP","from":"Sentul Timur","name":"Sri Petaling Line (Sentul Timur --> Putra Heights)","type":"route","route":"light_rail","colour":"#721422","name:ja":"スリ・プタリン線","name:zh":"大城堡线（正向）","network":"Rapid KL","operator":"Prasarana Malaysia","wikidata":"Q474391","wikipedia":"en:Ampang and Sri Petaling lines","description":"From Sentul Timur to Putra Heights","official_ref":"4","network:metro":"Klang Valley Rapid Transit","network:wikidata":"Q3271384","operator:wikidata":"Q4209298","public_transport:version":"2"},"4466552":{"to":"Ampang","ref":"AG","from":"Sentul Timur","name":"Ampang Line (Sentul Timur --> Ampang)","type":"route","route":"light_rail","colour":"#fe8e10","name:ja":"アンパン線","name:zh":"安邦线（正向）","network":"Rapid KL","operator":"Prasarana Malaysia","wikidata":"Q113297999","description":"From Sentul Timur to Ampang","official_ref":"3","network:metro":"Klang Valley Rapid Transit","network:wikidata":"Q3271384","operator:wikidata":"Q4209298","public_transport:version":"2"},"5690837":{"to":"Kajang","ref":"9","from":"Kwasa Damansara","name":"Laluan Kajang (Kwasa Damansara --> Kajang)","type":"route","route":"subway","colour":"#008000","name:en":"Kajang Line (Kwasa Damansara --> Kajang)","name:zh":"加影线（正向）","network":"Rapid KL","operator":"Prasarana Malaysia","wikidata":"Q6717618","wikipedia":"en:Kajang line","network:metro":"Klang Valley Rapid Transit","source:geometry":"Mapbox","network:wikidata":"Q3271384","operator:wikidata":"Q4209298","public_transport:version":"2"},"8000297":{"to":"Sentul Timur","ref":"AG","from":"Ampang","name":"Ampang Line (Ampang --> Sentul Timur)","type":"route","route":"light_rail","colour":"#fe8e10","name:ja":"アンパン線","name:zh":"安邦线（反向）","network":"Rapid KL","operator":"Prasarana Malaysia","wikidata":"Q113297999","description":"From Ampang to Sentul Timur","official_ref":"3","network:metro":"Klang Valley Rapid Transit","network:wikidata":"Q3271384","operator:wikidata":"Q4209298","public_transport:version":"2"},"8000325":{"to":"Kwasa Damansara","ref":"9","from":"Kajang","name":"Laluan Kajang (Kajang --> Kwasa Damansara)","type":"route","route":"subway","colour":"#008000","name:en":"Kajang Line (Kajang --> Kwasa Damansara)","name:zh":"加影线（反向）","network":"Rapid KL","operator":"Prasarana Malaysia","wikidata":"Q6717618","wikipedia":"en:Kajang line","network:metro":"Klang Valley Rapid Transit","source:geometry":"Mapbox","network:wikidata":"Q3271384","operator:wikidata":"Q4209298","public_transport:version":"2"},"8000387":{"to":"Sentul Timur","ref":"SP","from":"Putra Heights","name":"Sri Petaling Line (Putra Heights --> Sentul Timur)","type":"route","route":"light_rail","colour":"#721422","name:ja":"スリ・プタリン線","name:zh":"大城堡线（反向）","network":"Rapid KL","operator":"Prasarana Malaysia","wikidata":"Q474391","wikipedia":"en:Ampang and Sri Petaling lines","official_ref":"4","network:metro":"Klang Valley Rapid Transit","network:wikidata":"Q3271384","operator:wikidata":"Q4209298","public_transport:version":"2"},"8000438":{"to":"Gombak","ref":"KJ","from":"Putra Heights","name":"Kelana Jaya Line (Putra Heights --> Gombak)","type":"route","route":"light_rail","colour":"#e0115f","name:zh":"格拉那再也线（反向）","network":"Rapid KL","distance":"29 km","operator":"Prasarana Malaysia","wikidata":"Q248445","wikipedia":"en:Kelana Jaya line","wheelchair":"yes","official_ref":"5","network:metro":"Klang Valley Rapid Transit","network:wikidata":"Q3271384","operator:wikidata":"Q4209298","public_transport:version":"2"},"11313577":{"to":"Kwasa Damansara","ref":"12","from":"Putrajaya Sentral","name":"Laluan Putrajaya (Putrajaya Sentral → Kwasa Damansara)","type":"route","route":"subway","colour":"#ffcc00","name:en":"Putrajaya Line (Putrajaya Sentral → Kwasa Damansara)","name:zh":"布城线（反向）","network":"Rapid KL","operator":"Prasarana Malaysia","wikidata":"Q17053935","wikipedia":"en:Putrajaya line","network:metro":"Klang Valley Rapid Transit","source:geometry":"Mapbox","network:wikidata":"Q3271384","operator:wikidata":"Q4209298","public_transport:version":"2"},"11313578":{"to":"Putrajaya Sentral","ref":"12","from":"Kwasa Damansara","name":"Laluan Putrajaya (Kwasa Damansara → Putrajaya Sentral)","type":"route","route":"subway","colour":"#ffcc00","name:en":"Putrajaya Line (Kwasa Damansara → Putrajaya Sentral)","name:zh":"布城线（正向）","network":"Rapid KL","operator":"Prasarana Malaysia","wikidata":"Q17053935","wikipedia":"en:Putrajaya line","network:metro":"Klang Valley Rapid Transit","source:geometry":"Mapbox","network:wikidata":"Q3271384","operator:wikidata":"Q4209298","public_transport:version":"2"}}