{"109159":{"to":"Taft Avenue","ref":"3","from":"North Avenue","name":"MRT Line 3: North Avenue → Taft Avenue","type":"route","route":"light_rail","colour":"#FFCC00","name:ja":"マニラMRT 3号線：ノースアベニュー→タフトアベニュー","name:ko":"마닐라MRT 3 호선: 노스 애비뉴→태프트 애비뉴","name:zh":"马尼拉捷运3号线（北大道→塔虎脱大道）","network":"Strong Republic Transit System","operator":"Metro Rail Transit Corporation","wikidata":"Q13422345","wikipedia":"en:MRT Line 3 (Metro Manila)","air_conditioning":"yes","public_transport:version":"2"},"110410":{"to":"Recto","ref":"2","from":"Cubao","name":"LRT Line 2: Antipolo → Recto","type":"route","route":"subway","colour":"#800080","network":"LRT","website":"https://www.lrta.gov.ph/","operator":"Light Rail Transit Authority","wikidata":"Q4165317","air_conditioning":"yes","public_transport:version":"2"},"110418":{"to":"Baclaran","ref":"1","from":"Roosevelt","name":"LRT Line 1: Roosevelt → Baclaran","type":"route","route":"light_rail","colour":"#008000","network":"LRT","website":"http://www.lrmc.com.ph","operator":"Light Rail Manila Corporation","wikidata":"Q4165124","air_conditioning":"yes","operator:wikidata":"Q65087474","operator:wikipedia":"en:Light Rail Manila Corporation","public_transport:version":"2"},"8000253":{"to":"North Avenue","ref":"3","from":"Taft Avenue","name":"MRT Line 3: Taft Avenue → North Avenue","type":"route","route":"light_rail","colour":"#FFCC00","name:ja":"マニラMRT 3号線：タフトアベニュー→ノースアベニュー","name:ko":"마닐라MRT 3 호선: 태프트 애비뉴→노스 애비뉴","name:zh":"马尼拉捷运3号线（塔虎脱大道→北大道）","network":"Strong Republic Transit System","operator":"Metro Rail Transit Corporation","wikipedia":"en:MRT Line 3 (Metro Manila)","air_conditioning":"yes","public_transport:version":"2"},"8000260":{"to":"Roosevelt","ref":"1","from":"Baclaran","name":"LRT Line 1: Baclaran → Roosevelt","type":"route","route":"light_rail","colour":"#008000","network":"LRT","website":"http://www.lrmc.com.ph","operator":"Light Rail Manila Corporation","wikidata":"Q4165124","air_conditioning":"yes","operator:wikidata":"Q65087474","operator:wikipedia":"en:Light Rail Manila Corporation","public_transport:version":"2"},"8000264":{"to":"Cubao","ref":"2","from":"Recto","name":"LRT Line 2: Recto → Antipolo","type":"route","route":"subway","colour":"#800080","network":"LRT","website":"https://www.lrta.gov.ph/","operator":"Light Rail Transit Authority","wikidata":"Q4165317","air_conditioning":"yes","public_transport:version":"2"},"10463194":{"to":"Baclaran","ref":"1","from":"Monumento","name":"LRT Line 1: Monumento → Baclaran","type":"route","route":"light_rail","colour":"#008000","network":"LRT","website":"http://www.lrmc.com.ph","operator":"Light Rail Manila Corporation","wikidata":"Q4165124","air_conditioning":"yes","operator:wikidata":"Q65087474","operator:wikipedia":"en:Light Rail Manila Corporation","public_transport:version":"2"}}