{"1824729":{"to":"חיל האוויר","ref":"1","from":"הר הרצל","name":"הרכבת הקלה בירושלים - הקו האדום","type":"route","route":"light_rail","to:en":"Hel Ha'Avir","to:he":"חיל האוויר","colour":"red","from:en":"Mount Herzl","from:he":"הר הרצל","name:ar":"القطار الخفيف في القدس - خط أحمر","name:de":"Rote Linie Stadtbahn Jerusalem","name:en":"Red Line Jerusalem Light Rail","name:he":"הקו האדום רכבת קלה ירושלים","name:yi":"די רויטע ליניע ירושלים לייכטע באנען","network":"ירושלים","operator":"כפיר","wikidata":"Q12406939","network:en":"Jerusalem","network:he":"ירושלים","operator:en":"Cfir","operator:he":"כפיר","public_transport:version":"2"},"2746760":{"to":"הר הרצל","ref":"1","from":"חיל האוויר","name":"הרכבת הקלה בירושלים - הקו האדום","type":"route","route":"light_rail","to:en":"Mount Herzl","to:he":"הר הרצל","colour":"red","from:en":"Hel Ha'Avir","from:he":"חיל האוויר","name:ar":"القطار الخفيف في القدس - خط أحمر","name:de":"Rote Linie Stadtbahn Jerusalem","name:en":"Red Line Jerusalem Light Rail","name:he":"הרכבת הקלה בירושלים - הקו האדום","name:yi":"די רויטע ליניע ירושלים לייכטע באנען","network":"ירושלים","operator":"כפיר","network:en":"Jerusalem","network:he":"ירושלים","operator:en":"Cfir","operator:he":"כפיר","public_transport:version":"2"},"14633452":{"to":"הר הרצל","ref":"1","from":"גבעת המבתר","name":"הרכבת הקלה בירושלים - הקו האדום","type":"route","route":"light_rail","to:en":"Mount Herzl","to:he":"הר הרצל","colour":"red","from:en":"Giv'at HaMivtar","from:he":"גבעת המבתר","name:ar":"القطار الخفيف في القدس - خط أحمر","name:de":"Rote Linie Stadtbahn Jerusalem","name:en":"Red Line Jerusalem Light Rail","name:he":"הרכבת הקלה בירושלים - הקו האדום","name:yi":"די רויטע ליניע ירושלים לייכטע באנען","network":"ירושלים","operator":"כפיר","network:en":"Jerusalem","network:he":"ירושלים","operator:en":"Cfir","operator:he":"כפיר","public_transport:version":"2"}}