{"9573801":{"to":"الوكرة","ref":"Red","from":"لوسيل","name":"الخط الذهبي للمترو: القصار ← الوكرة","type":"route","route":"subway","colour":"#E2251C","name:ar":"الخط الذهبي للمترو: القصار ← الوكرة","name:en":"Metro Red Line: Lusail → Al Wakra","name:it":"metropolitana di Doha linea rossa","name:pt":"Linha vermelha do Metrô: Lusail → Al Wakra","network":"Doha Metro","operator":"RKH Qitarat","wikidata":"Q25343681","start_date":"2019-05-08","public_transport:version":"2"},"9573802":{"to":"لوسيل","ref":"Red","from":"الوكرة","name":"الخط الأحمر للمترو: الوكرة ← القصار","type":"route","route":"subway","colour":"#E2251C","name:ar":"الخط الأحمر للمترو: الوكرة ← القصار","name:en":"Metro Red Line: Al Wakra → Lusail","name:it":"metropolitana di Doha linea rossa","name:pt":"Linha vermelha do Metrô: Al Wakra → Lusail","network":"Doha Metro","operator":"RKH Qitarat","wikidata":"Q25343681","start_date":"2019-05-08","public_transport:version":"2"},"10322045":{"to":"راس بو عبود","ref":"Gold","from":"العزيزية","name":"الخط الذهبي للمترو: العزيزية ← راس بو عبود","type":"route","route":"subway","colour":"#F9B428","name:ar":"الخط الذهبي للمترو: العزيزية ← راس بو عبود","name:en":"Metro Gold Line: Al Aziziyah → Ras Bu Abboud","name:pl":"Złota Linia Metra: Al Aziziyah → Ras Abu Aboud","network":"Doha Metro","operator":"RKH Qitarat","wikidata":"Q22948672","start_date":"2019-11-21","public_transport:version":"2"},"10322046":{"to":"العزيزية","ref":"Gold","from":"راس بو عبود","name":"الخط الأحمر للمترو: الوكرة ← العزيزية","type":"route","route":"subway","colour":"#F9B428","name:ar":"الخط الأحمر للمترو: الوكرة ← العزيزية","name:en":"Metro Gold Line: Ras Bu Abboud → Al Aziziyah","name:pl":"Czerwona linia metra: Al Wakra → Azizia","network":"Doha Metro","operator":"RKH Qitarat","wikidata":"Q22948672","start_date":"2019-11-21","public_transport:version":"2"},"10402959":{"to":"مطار حمد الدولي مبنى 1","ref":"Red","from":"لوسيل","name":"الخط الذهبي للمترو: القصار ← مطار حمد الدولي مبنى 1","type":"route","route":"subway","colour":"#E2251C","name:ar":"الخط الذهبي للمترو: القصار ← مطار حمد الدولي مبنى 1","name:en":"Metro Red Line: Lusail → Hamad International Airport T1","name:it":"metropolitana di Doha linea rossa","name:pt":"Linha vermelha do metrô: Lusail → Aeroporto Internacional Hamad T1","network":"Doha Metro","operator":"RKH Qitarat","wikidata":"Q25343681","start_date":"2019-12-10","public_transport:version":"2"},"10403416":{"to":"الرفاع","ref":"Green","from":"المنصورة","name":"الخط الأحمر للمترو: المنصورة ← الرفاع","type":"route","route":"subway","colour":"#009530","name:ar":"الخط الأحمر للمترو: المنصورة ← الرفاع","name:en":"Metro Green Line: Al Mansoura → Al Riffa","network":"Doha Metro","operator":"RKH Qitarat","wikidata":"Q25343673","start_date":"2019-12-10","public_transport:version":"2"},"10403424":{"to":"المنصورة","ref":"Green","from":"الرفاع","name":"الخط الأحمر للمترو: الرفاع ← المنصورة","type":"route","route":"subway","colour":"#009530","name:ar":"الخط الأحمر للمترو: الرفاع ← المنصورة","name:en":"Metro Green Line: Al Riffa → Al Mansoura","network":"Doha Metro","operator":"RKH Qitarat","wikidata":"Q25343673","start_date":"2019-12-10","public_transport:version":"2"},"10563805":{"ref":"Purple Line","name":"Lusaii LRT - Purple Line","type":"route","route":"light_rail","colour":"#7C66A4","network":"Lusail LRT","public_transport:version":"2"},"10563806":{"ref":"Turquoise Line","name":"Lusail LRT - Turquoise Line","type":"route","route":"light_rail","colour":"#4BA7A6","network":"Lusail LRT","construction:route":"light_rail","public_transport:version":"2"},"10563808":{"ref":"Purple Line","name":"Lusail LRT - Pink Line","type":"route","route":"light_rail","colour":"#D64488","network":"Lusail LRT","construction:route":"light_rail","public_transport:version":"2"}}