{"173940":{"to":"Юнгородок","ref":"1","from":"Российская","line":"subway","name":"Алабинская — Юнгородок","type":"route","route":"subway","colour":"red","comment":"Red metro line back direction","operator":"Самарский метрополитен","wikidata":"Q4349061","public_transport:version":"2"},"252536":{"to":"Беговая","ref":"3","from":"Рыбацкое","name":"Невско-Василеостровская линия: Рыбацкое — Беговая","type":"route","route":"subway","colour":"green","name:en":"Nevsko-Vasileostrovskaya Line: Rybatskoe — Begovaya","name:ru":"Невско-Василеостровская линия: Рыбацкое — Беговая","name:uk":"Невсько-Василеострівська лінія: Рибальське - Бігова","network":"Петербургский метрополитен","operator":"Петербургский метрополитен","wikidata":"Q1509576","wikipedia":"ru:Невско-Василеостровская линия","network:en":"Saint Petersburg Metro","network:ru":"Петербургский метрополитен","network:wikidata":"Q250225","public_transport:version":"2"},"252537":{"to":"Спасская","ref":"4","from":"Улица Дыбенко","name":"Правобережная линия: Улица Дыбенко — Спасская","type":"route","route":"subway","colour":"orange","name:en":"Pravoberezhnaya Line: Ulitsa Dybenko — Spasskaya","name:uk":"Правобережна лінія: Вулиця Дибенка - Спаська","network":"Петербургский метрополитен","operator":"Петербургский метрополитен","wikidata":"Q1784097","wikipedia":"ru:Лахтинско-Правобережная линия","network:en":"Saint Petersburg Metro","network:ru":"Петербургский метрополитен","network:wikidata":"Q250225","public_transport:version":"2"},"252539":{"to":"Девяткино","ref":"1","from":"Проспект Ветеранов","name":"Кировско-Выборгская линия: Проспект Ветеранов — Девяткино","type":"route","route":"subway","colour":"red","name:en":"Kirovsko-Vyborgskaya Line: Prospekt Veteranov — Devyatkino","name:uk":"Кіровсько-Виборзька лінія: Проспект Ветеранів - Дев'яткіне","network":"Петербургский метрополитен","operator":"Петербургский метрополитен","wikidata":"Q519861","wikipedia":"ru:Кировско-Выборгская линия","network:en":"Saint Petersburg Metro","network:ru":"Петербургский метрополитен","network:wikidata":"Q250225","operator_with_accent":"Петербу́ргский метрополите́н","public_transport:version":"2"},"252540":{"to":"Купчино","ref":"2","from":"Парнас","name":"Московско-Петроградская линия: Парнас — Купчино","type":"route","route":"subway","colour":"blue","name:en":"Moskovsko-Petrogradskaya Line: Parnas — Kupchino","name:uk":"Московсько-Петроградська лінія: Парнас - Купчино","network":"Петербургский метрополитен","operator":"Петербургский метрополитен","wikidata":"Q1459627","wikipedia":"ru:Московско-Петроградская линия","network:en":"Saint Petersburg Metro","network:ru":"Петербургский метрополитен","network:wikidata":"Q250225","operator_with_accent":"Петербу́ргский метрополите́н","public_transport:version":"2"},"252541":{"to":"Комендантский проспект","ref":"5","from":"Шушары","name":"Фрунзенско-Приморская линия: Шушары — Комендантский проспект","type":"route","route":"subway","colour":"purple","name:en":"Frunzensko-Primorskaya Line: Shushary — Komendantsky Prospekt","name:uk":"Фрунзенсько-Приморська лінія: Шушари - Комендантський проспект","network":"Петербургский метрополитен","operator":"Петербургский метрополитен","wikidata":"Q1579583","wikipedia":"ru:Фрунзенско-Приморская линия","network:en":"Saint Petersburg Metro","network:ru":"Петербургский метрополитен","network:wikidata":"Q250225","operator_with_accent":"Петербу́ргский метрополите́н","public_transport:version":"2"},"283405":{"to":"Стрелка","ref":"2","from":"Буревестник","name":"Сормовско-Мещерская линия","type":"route","route":"subway","to:en":"Strelka","colour":"#006ABC","from:en":"Burevestnik","operator":"Нижегородский метрополитен","wikidata":"Q1771527","wikipedia":"ru:Сормовско-Мещерская линия","wikipedia:en":"Line_2_(Nizhny_Novgorod_Metro)","public_transport:version":"2"},"283406":{"to":"Парк культуры","ref":"1","from":"Горьковская","name":"Автозаводско-Нагорная линия","type":"route","route":"subway","to:en":"Park Kultury","colour":"#E50B00","from:en":"Gorkovskaya","wikidata":"Q1771534","wikipedia":"ru:Автозаводская линия (Нижний Новгород)","wikipedia:en":"Line_1_(Nizhny_Novgorod_Metro)","public_transport:version":"2"},"300607":{"ref":"5","name":"Кольцевая линия (внутреннее кольцо)","type":"route","route":"subway","colour":"#802f08","name:de":"Ringlinie (Innenring)","name:en":"Circle line (Inner)","name:uk":"Кільцева лінія (внутрішнє кільце)","name:zh":"环状线（内环）","network":"Московский метрополитен","duration":"28","operator":"ГУП «Московский метрополитен»","wikidata":"Q831673","name:ru-Latn":"Koltsevaya liniya","public_transport:version":"2"},"300618":{"to":"Новоясеневская","ref":"6","from":"Медведково","name":"Калужско-Рижская линия: Медведково → Новоясеневская","type":"route","route":"subway","colour":"orange","name:en":"Kaluzhsko-Rizhskaya line","name:uk":"Калузько-Ризька лінія: Медведкове → Новоясенівська","network":"Московский метрополитен","duration":"55","operator":"ГУП «Московский метрополитен»","wikidata":"Q175271","wikipedia":"ru:Калужско-Рижская линия","wikipedia:en":"Kaluzhsko-Rizhskaya line","public_transport:version":"2"},"301486":{"to":"Бульвар Дмитрия Донского","ref":"9","from":"Алтуфьево","name":"Серпуховско-Тимирязевская линия: Алтуфьево → Бульвар Дмитрия Донского","type":"route","route":"subway","colour":"#a0a2a3","name:en":"Serpukhovsko-Timiryazevskaya line: Altufyevo → Bulvar Dmitriya Donskogo","network":"Московский метрополитен","duration":"01:00","operator":"ГУП «Московский метрополитен»","wikidata":"Q739170","network:en":"Moscow Metro","network:wikidata":"Q5499","public_transport:version":"2"},"302147":{"to":"Москва-Сити","ref":"4А","from":"Александровский сад","name":"Филёвская линия: Александровский сад → Москва-Сити","type":"route","route":"subway","colour":"#33ccff","network":"Московский метрополитен","duration":"12","operator":"ГУП «Московский метрополитен»","wikidata":"Q834540","public_transport:version":"2"},"302148":{"to":"Кунцевская","ref":"4","from":"Александровский сад","name":"Филёвская линия: Александровский сад → Кунцевская","type":"route","route":"subway","colour":"#33ccff","name:uk":"Фільовська лінія: Олександрівський сад - Кунцевська","network":"Московский метрополитен","duration":"21","operator":"ГУП «Московский метрополитен»","wikidata":"Q834540","public_transport:version":"2"},"302149":{"to":"Пятницкое шоссе","ref":"3","from":"Щёлковская","name":"Арбатско-Покровская линия: Щёлковская → Пятницкое шоссе","type":"route","route":"subway","colour":"blue","name:de":"Linie 3 -> Westen","name:en":"Arbatsko-Pokrovskaya line: Shchyolkovskaya → Pyatnitskoye Shosse","name:uk":"Арбатсько-Покровська лінія: Щолківська → П'ятницьке шосе","network":"Московский метрополитен","duration":"01:05","operator":"ГУП «Московский метрополитен»","wikidata":"Q626941","public_transport:version":"2"},"305810":{"to":"Коммунарка","ref":"1","from":"Бульвар Рокоссовского","name":"Сокольническая линия: Бульвар Рокоссовского → Коммунарка","type":"route","route":"subway","colour":"red","name:de":"1 -> Süden","name:en":"Sokolnicheskaya line: Bul'var Rokossovskogo → Kommunarka","name:uk":"Сокольницька лінія: Бульвар Рокосовського → Комунарка","network":"Московский метрополитен","duration":"01:03","operator":"ГУП «Московский метрополитен»","wikidata":"Q729631","public_transport:version":"2"},"309620":{"to":"Котельники","ref":"7","from":"Планерная","name":"Таганско-Краснопресненская линия: Планерная → Котельники","type":"route","route":"subway","colour":"#ff00ff","name:en":"Tagansko-Krasnopresnenskaya line: Planernaya → Kotelniki","name:uk":"Тагансько-Червонопресненська лінія: Планерна → Котельники","network":"Московский метрополитен","duration":"57","operator":"ГУП «Московский метрополитен»","wikidata":"Q924028","public_transport:version":"2"},"309623":{"to":"Зябликово","ref":"10","from":"Физтех","name":"Люблинско-Дмитровская линия: Физтех → Зябликово","type":"route","route":"subway","colour":"#b4d445","name:en":"Lyublinsko-Dmitrovskaya line: Fiztekh → Zyablikovo","network":"Московский метрополитен","duration":"01:05","operator":"ГУП «Московский метрополитен»","wikidata":"Q582194","public_transport:version":"2"},"326491":{"to":"Новокосино","ref":"8","from":"Третьяковская","name":"Калининская линия: Третьяковская → Новокосино","type":"route","route":"subway","colour":"#ffff00","name:en":"Kalininskaya line","name:uk":"Калінінська лінія: Третьяковська → Новокосине","network":"Московский метрополитен","duration":"21","operator":"ГУП «Московский метрополитен»","wikidata":"Q585986","wikipedia":"ru:Калининская линия","wikipedia:en":"Kalininsko–Solntsevskaya line","public_transport:version":"2"},"1180910":{"to":"Дубравная","ref":"1","from":"Авиастроительная","name":"Метро 1: Авиастроительная → Дубравная","type":"route","route":"subway","colour":"red","name:ru":"Метро 1: Авиастроительная → Дубравная","name:tt":"1 сызык: Авиатөзелеш → Имәнлек","network":"Казанский метрополитен","wikidata":"Q2047989","wikipedia":"ru:Центральная линия (Казань)","name:tt-lat":"1 sızık: Aviatözölöş → İmänlek","opening_hours":"06:00-24:00","network:wikidata":"Q494079","network:wikipedia":"ru:Казанский метрополитен","public_transport:version":"2"},"1462011":{"ref":"5","name":"Кольцевая линия (внешнее кольцо)","type":"route","route":"subway","colour":"#802f08","name:de":"Ringlinie (Außenring)","name:en":"Circle line (Outer)","name:uk":"Кільцева лінія (зовнішнє кільце)","name:zh":"环状线（外环）","network":"Московский метрополитен","duration":"28","operator":"ГУП «Московский метрополитен»","wikidata":"Q831673","name:ru-Latn":"Koltsevaya liniya","public_transport:version":"2"},"1463285":{"to":"Александровский сад","ref":"4","from":"Кунцевская","name":"Филёвская линия: Кунцевская → Александровский сад","type":"route","route":"subway","colour":"#33ccff","name:uk":"Фільовська лінія: Кунцевська - Олександрівський сад","network":"Московский метрополитен","duration":"21","operator":"ГУП «Московский метрополитен»","public_transport:version":"2"},"1463286":{"to":"Александровский сад","ref":"4А","from":"Москва-Сити","name":"Филёвская линия: Москва-Сити → Александровский сад","type":"route","route":"subway","colour":"#33ccff","name:uk":"Фільовська лінія: Москва-Сіті - Олександрівський сад","network":"Московский метрополитен","duration":"12","operator":"ГУП «Московский метрополитен»","wikidata":"Q834540","public_transport:version":"2"},"1472298":{"to":"Щёлковская","ref":"3","from":"Пятницкое шоссе","name":"Арбатско-Покровская линия: Пятницкое шоссе → Щёлковская","type":"route","route":"subway","colour":"blue","name:en":"Arbatsko-Pokrovskaya line: Pyatnitskoye Shosse → Shchyolkovskaya","name:uk":"Арбатсько-Покровська лінія: П'ятницьке шосе → Щолківська","network":"Московский метрополитен","duration":"01:05","operator":"ГУП «Московский метрополитен»","wikidata":"Q626941","public_transport:version":"2"},"1475755":{"to":"Бульвар Рокоссовского","ref":"1","from":"Коммунарка","name":"Сокольническая линия: Коммунарка → Бульвар Рокоссовского","type":"route","route":"subway","colour":"red","name:de":"1 -> Norden","name:en":"Sokolnicheskaya line","name:uk":"Сокольницька лінія: Комунарка → Бульвар Рокосовського","network":"Московский метрополитен","duration":"01:03","operator":"ГУП «Московский метрополитен»","wikidata":"Q729631","public_transport:version":"2"},"1514369":{"to":"Медведково","ref":"6","from":"Новоясеневская","name":"Калужско-Рижская линия: Новоясеневская → Медведково","type":"route","route":"subway","colour":"orange","name:en":"Kaluzhsko-Rizhskaya line","name:uk":"Калузько-Ризька лінія: Новоясенівська → Медведкове","network":"Московский метрополитен","duration":"55","operator":"ГУП «Московский метрополитен»","wikidata":"Q175271","wikipedia":"ru:Калужско-Рижская линия","wikipedia:en":"Kaluzhsko-Rizhskaya line","public_transport:version":"2"},"1516303":{"to":"Планерная","ref":"7","from":"Котельники","name":"Таганско-Краснопресненская линия: Котельники → Планерная","type":"route","route":"subway","colour":"#ff00ff","name:en":"Tagansko-Krasnopresnenskaya line: Kotelniki → Planernaya","name:uk":"Тагансько-Червонопресненська лінія: Котельники → Планерна","network":"Московский метрополитен","duration":"57","operator":"ГУП «Московский метрополитен»","wikidata":"Q924028","public_transport:version":"2"},"1526350":{"to":"Третьяковская","ref":"8","from":"Новокосино","name":"Калининская линия: Новокосино → Третьяковская","type":"route","route":"subway","colour":"#ffff00","name:en":"Kalininskaya line","name:uk":"Калінінська лінія: Новокосине → Третьяковська","network":"Московский метрополитен","duration":"21","operator":"ГУП «Московский метрополитен»","wikidata":"Q585986","wikipedia":"ru:Калининская линия","wikipedia:en":"Kalininsko–Solntsevskaya line","public_transport:version":"2"},"1532874":{"to":"Физтех","ref":"10","from":"Зябликово","name":"Люблинско-Дмитровская линия: Зябликово → Физтех","type":"route","route":"subway","colour":"#b4d445","name:en":"Lyublinsko-Dmitrovskaya line: Zyablikovo → Fiztekh","network":"Московский метрополитен","duration":"01:05","operator":"ГУП «Московский метрополитен»","wikidata":"Q582194","public_transport:version":"2"},"1570093":{"to":"Алтуфьево","ref":"9","from":"Бульвар Дмитрия Донского","name":"Серпуховско-Тимирязевская линия: Бульвар Дмитрия Донского → Алтуфьево","type":"route","route":"subway","colour":"#a0a2a3","name:en":"Serpukhovsko-Timiryazevskaya line: Bulvar Dmitriya Donskogo → Altufyevo","network":"Московский метрополитен","duration":"01:00","operator":"ГУП «Московский метрополитен»","wikidata":"Q739170","network:en":"Moscow Metro","network:wikidata":"Q5499","public_transport:version":"2"},"1580607":{"to":"Битцевский парк","ref":"12","from":"Бунинская аллея","name":"Бутовская линия: Бунинская аллея → Битцевский парк","type":"route","route":"subway","colour":"#bac8e8","name:de":"12 -> Norden","name:uk":"Бутівська лінія: Бунінська алея → Битцевський парк","network":"Московский метрополитен","duration":"16","operator":"ГУП «Московский метрополитен»","wikidata":"Q678759","network:en":"Moscow Metro","network:ru":"Московский метрополитен","network:wikidata":"Q5499","public_transport:version":"2"},"1759145":{"to":"Площадь Чекистов","ref":"СТ","from":"ВГТЗ","name":"Трамвай СТ: ВГТЗ — Чекистов","type":"route","route":"light_rail","colour":"red","name:fr":"ligne ST : Usine de tracteurs -> Square de la Tchéka","wikidata":"Q107191041"},"1759146":{"to":"ВГТЗ (Тракторный завод)","ref":"СТ","from":"Площадь Чекистов","name":"Трамвай СТ: Чекистов — ВГТЗ","type":"route","route":"light_rail","colour":"red","name:fr":"ligne ST : Square de la Tchéka-> Usine de tracteurs","wikidata":"Q107191041"},"2446051":{"to":"Парнас","ref":"2","from":"Купчино","name":"Московско-Петроградская линия: Купчино — Парнас","type":"route","route":"subway","colour":"blue","name:en":"Moskovsko-Petrogradskaya Line: Kupchino — Parnas","name:uk":"Московсько-Петроградська лінія: Купчино - Парнас","network":"Петербургский метрополитен","operator":"Петербургский метрополитен","wikidata":"Q1459627","wikipedia":"ru:Московско-Петроградская линия","network:en":"Saint Petersburg Metro","network:ru":"Петербургский метрополитен","network:wikidata":"Q250225","operator_with_accent":"Петербу́ргский метрополите́н","public_transport:version":"2"},"2446058":{"to":"Шушары","ref":"5","from":"Комендантский проспект","name":"Фрунзенско-Приморская линия: Комендантский проспект — Шушары","type":"route","route":"subway","colour":"purple","name:en":"Frunzensko-Primorskaya Line: Komendantsky Prospekt — Shushary","name:uk":"Фрунзенсько-Приморська лінія: Комендантський проспект - Шушари","network":"Петербургский метрополитен","operator":"Петербургский метрополитен","wikidata":"Q1579583","wikipedia":"ru:Фрунзенско-Приморская линия","network:en":"Saint Petersburg Metro","network:ru":"Петербургский метрополитен","network:wikidata":"Q250225","operator_with_accent":"Петербу́ргский метрополите́н","public_transport:version":"2"},"2446059":{"to":"Проспект Ветеранов","ref":"1","from":"Девяткино","name":"Кировско-Выборгская линия: Девяткино — Проспект Ветеранов","type":"route","route":"subway","colour":"red","name:en":"Kirovsko-Vyborgskaya Line: Devyatkino — Prospekt Veteranov","name:uk":"Кіровсько-Виборзька лінія: Дев'яткіне — Проспект Ветеранів","network":"Петербургский метрополитен","operator":"Петербургский метрополитен","wikidata":"Q519861","wikipedia":"ru:Кировско-Выборгская линия","network:en":"Saint Petersburg Metro","network:ru":"Петербургский метрополитен","network:wikidata":"Q250225","operator_with_accent":"Петербу́ргский метрополите́н","public_transport:version":"2"},"2446061":{"to":"Улица Дыбенко","ref":"4","from":"Спасская","name":"Правобережная линия: Спасская — Улица Дыбенко","type":"route","route":"subway","colour":"orange","name:en":"Pravoberezhnaya Line: Spasskaya — Ulitsa Dybenko","name:uk":"Правобережна лінія: Спаська - Вулиця Дибенка","network":"Петербургский метрополитен","operator":"Петербургский метрополитен","wikidata":"Q1784097","wikipedia":"ru:Лахтинско-Правобережная линия","network:en":"Saint Petersburg Metro","network:ru":"Петербургский метрополитен","network:wikidata":"Q250225","public_transport:version":"2"},"2580500":{"to":"Буревестник","ref":"2","from":"Стрелка","name":"Сормовско-Мещерская линия","type":"route","route":"subway","to:en":"Burevestnik","colour":"#006ABC","from:en":"Strelka","name:en":"Sormovsko-Meshcherskaya line","operator":"Нижегородский метрополитен","wikidata":"Q1771527","wikipedia":"ru:Сормовско-Мещерская линия","wikipedia:en":"Line_2_(Nizhny_Novgorod_Metro)","public_transport:version":"2"},"2580501":{"to":"Горьковская","ref":"1","from":"Парк Культуры","name":"Автозаводско-Нагорная линия","type":"route","route":"subway","to:en":"Gorkovskaya","colour":"#E50B00","from:en":"Park Kultury","operator":"Нижегородский метрополитен","wikidata":"Q1771534","wikipedia":"ru:Автозаводская линия (Нижний Новгород)","wikipedia:en":"Line 1 (Nizhny Novgorod Metro)","public_transport:version":"2"},"2657084":{"to":"Ховрино","ref":"2","from":"Алма-Атинская","name":"Замоскворецкая линия: Алма-Атинская → Ховрино","type":"route","route":"subway","colour":"darkgreen","name:en":"Zamoskvoretskaya line: Alma-Atinskaya → Khovrino","network":"Московский метрополитен","duration":"01:01","operator":"ГУП «Московский метрополитен»","wikidata":"Q834482","network:en":"Moscow Metro","network:wikidata":"Q5499","public_transport:version":"2"},"2657085":{"to":"Алма-Атинская","ref":"2","from":"Ховрино","name":"Замоскворецкая линия: Ховрино → Алма-Атинская","type":"route","route":"subway","colour":"darkgreen","name:en":"Zamoskvoretskaya line: Khovrino → Alma-Atinskaya","network":"Московский метрополитен","duration":"01:01","operator":"ГУП «Московский метрополитен»","wikidata":"Q834482","network:en":"Moscow Metro","network:ru":"Московский метрополитен","network:wikidata":"Q5499","public_transport:version":"2"},"2820589":{"ref":"1","name":"1: Проспект Космонавтов → Ботаническая","type":"route","route":"subway","colour":"#1c8c3a","name:en":"1: Prospekt Kosmonavtov → Botanicheskaya","name:ru":"1: Проспект Космонавтов → Ботаническая","network":"Екатеринбургский метрополитен","operator":"ЕМУП «Екатеринбургский метрополитен»","wikidata":"Q2287047","wikipedia":"ru:Первая линия (Екатеринбург)"},"3737231":{"to":"Площадь Маркса","ref":"1","from":"Заельцовская","name":"Ленинская линия: Заельцовская → Площадь Маркса","type":"route","route":"subway","colour":"red","name:en":"Leninskaya Line","wikidata":"Q594532","wikipedia":"ru:Ленинская линия","wikipedia:en":"Leninskaya Line"},"3737317":{"to":"Площадь Гарина-Михайловского","ref":"2","from":"Золотая Нива","name":"Дзержинская линия: Золотая Нива → Площадь Гарина-Михайловского","type":"route","route":"subway","colour":"green","name:en":"Dzerzhinskaya Line","operator":"Новосибирский метрополитен","wikidata":"Q2711371","wikipedia":"ru:Дзержинская линия","wikipedia:en":"Dzerzhinskaya Line","public_transport:version":"2"},"3873066":{"to":"Бунинская аллея","ref":"12","from":"Битцевский парк","name":"Бутовская линия: Битцевский парк → Бунинская аллея","type":"route","route":"subway","colour":"#bac8e8","name:de":"12 -> Süden 2","name:uk":"Бутівська лінія: Битцевський парк → Бунінська алея","network":"Московский метрополитен","duration":"16","operator":"ГУП «Московский метрополитен»","wikidata":"Q678759","network:en":"Moscow Metro","network:ru":"Московский метрополитен","network:wikidata":"Q5499","public_transport:version":"2"},"6855052":{"to":"Деловой центр","ref":"8А","from":"Аэропорт Внуково","name":"Солнцевская линия: Аэропорт Внуково → Деловой центр","type":"route","route":"subway","colour":"#ffff00","network":"Московский метрополитен","duration":"36","operator":"ГУП «Московский метрополитен»","wikidata":"Q1978532","wikipedia":"en:Kalininsko–Solntsevskaya line","public_transport:version":"2"},"6855053":{"to":"Аэропорт Внуково","ref":"8А","from":"Деловой центр","name":"Солнцевская линия: Деловой центр → Аэропорт Внуково","type":"route","route":"subway","colour":"#ffff00","network":"Московский метрополитен","duration":"36","operator":"ГУП «Московский метрополитен»","wikidata":"Q1978532","wikipedia":"en:Kalininsko–Solntsevskaya line","public_transport:version":"2"},"7733913":{"to":"Золотая Нива","ref":"2","from":"Площадь Гарина-Михайловского","name":"Дзержинская линия: Площадь Гарина-Михайловского → Золотая Нива","type":"route","route":"subway","colour":"green","name:en":"Dzerzhinskaya Line","operator":"Новосибирский метрополитен","wikidata":"Q2711371","wikipedia":"ru:Дзержинская линия","wikipedia:en":"Dzerzhinskaya Line","public_transport:version":"2"},"7733914":{"to":"Заельцовская","ref":"1","from":"Площадь Маркса","name":"Ленинская линия: Площадь Маркса → Заельцовская","type":"route","route":"subway","colour":"red","name:en":"Leninskaya Line","wikidata":"Q594532","wikipedia":"ru:Ленинская линия","wikipedia:en":"Leninskaya Line"},"7733915":{"ref":"1","name":"1: Ботаническая → Проспект Космонавтов","type":"route","route":"subway","colour":"#1c8c3a","network":"Екатеринбургский метрополитен","operator":"ЕМУП «Екатеринбургский метрополитен»","wikidata":"Q2287047","wikipedia":"ru:Первая линия (Екатеринбург)"},"7733916":{"to":"Авиастроительная","ref":"1","from":"Дубравная","name":"Метро 1: Дубравная → Авиастроительная","type":"route","route":"subway","colour":"red","name:ru":"Метро 1: Дубравная → Авиастроительная","name:tt":"Беренче сызык: Имәнлек → Авиатөзелеш","network":"Казанский метрополитен","wikidata":"Q2047989","wikipedia":"ru:Центральная линия (Казань)","name:tt-lat":"Berençe sızık: İmänlek → Aviatözölöş","opening_hours":"06:00-24:00","network:wikidata":"Q494079","network:wikipedia":"ru:Казанский метрополитен","public_transport:version":"2"},"8119158":{"to":"Савёловская","ref":"11А","from":"Деловой центр","name":"Большая кольцевая линия: Деловой центр → Савёловская","type":"route","route":"subway","colour":"#82C0C0","name:uk":"Велика кільцева лінія: Діловий центр => Савеловська","network":"Московский метрополитен","duration":"14","operator":"ГУП «Московский метрополитен»","wikidata":"Q617574","public_transport:version":"2"},"8119159":{"to":"Деловой центр","ref":"11А","from":"Савёловская","name":"Большая кольцевая линия: Савёловская → Деловой центр","type":"route","route":"subway","colour":"#82C0C0","name:uk":"Велика кільцева лінія: Савеловська → Діловий центр","network":"Московский метрополитен","duration":"14","operator":"ГУП «Московский метрополитен»","wikidata":"Q617574","public_transport:version":"2"},"8716468":{"to":"ВГТЗ (Тракторный завод)","ref":"СТ-2","from":"Ельшанка","name":"Трамвай СТ-2: Ельшанка — ВГТЗ","type":"route","route":"light_rail","colour":"red","name:fr":"ligne ST2 : Yelshanka>Usine de tracteurs","wikidata":"Q107191059"},"8717321":{"to":"Ельшанка","ref":"СТ-2","from":"ВГТЗ","name":"Трамвай СТ-2: ВГТЗ — Ельшанка","type":"route","route":"light_rail","colour":"red","name:fr":"ligne ST2 : Usine de tracteurs >Yelshanka","wikidata":"Q107191059"},"10011654":{"to":"Нижегородская","ref":"15","from":"Некрасовка","name":"Некрасовская линия: Некрасовка → Нижегородская","type":"route","route":"subway","colour":"#DE64A1","name:uk":"Некрасівська лінія: Некрасівка → Нижегородська","network":"Московский метрополитен","duration":"20","operator":"ГУП «Московский метрополитен»","wikidata":"Q4226438","wikipedia":"ru:Некрасовская линия","public_transport:version":"2"},"10011655":{"to":"Некрасовка","ref":"15","from":"Нижегородская","name":"Некрасовская линия: Нижегородская → Некрасовка","type":"route","route":"subway","colour":"#DE64A1","name:uk":"Некрасівська лінія: Нижегородська → Некрасівка","network":"Московский метрополитен","duration":"20","operator":"ГУП «Московский метрополитен»","wikidata":"Q4226438","wikipedia":"ru:Некрасовская линия","public_transport:version":"2"},"13525792":{"ref":"11","name":"Большая кольцевая линия (внутреннее кольцо)","type":"route","route":"subway","colour":"#82C0C0","name:uk":"Велика кільцева лінія (внутрішнє кільце)","network":"Московский метрополитен","duration":"01:27","operator":"ГУП «Московский метрополитен»","wikidata":"Q617574","roundtrip":"yes","network:en":"Moscow Metro","network:ru":"Московский метрополитен","network:wikidata":"Q5499","public_transport:version":"2"},"13525793":{"to":"Сокольники","ref":"11","from":"Сокольники","name":"Большая кольцевая линия (внешнее кольцо)","type":"route","route":"subway","colour":"#82C0C0","name:uk":"Велика кільцева лінія (зовнішнє кільце)","network":"Московский метрополитен","duration":"01:27","operator":"ГУП «Московский метрополитен»","wikidata":"Q617574","roundtrip":"yes","network:en":"Moscow Metro","network:ru":"Московский метрополитен","network:wikidata":"Q5499","public_transport:version":"2"}}