{"1273546":{"to":"Jamarat (Mina Station 3)","ref":"S","from":"محطة عرفات رقم 1","name":"قطار المشاعر المقدسة الخط الجنوبي","type":"route","route":"subway","colour":"#FFC0CB","name:ar":"قطار المشاعر المقدسة الخط الجنوبي","name:en":"Al Mashaaer Al Mugaddassah Metro Southern Line","network":"قطارات مكة للنقل العام","wikidata":"Q16240707","wikipedia":"en:Al Mashaaer Al Mugaddassah Metro Southern Line","public_transport:version":"2"},"7734267":{"to":"محطة عرفات رقم 1","ref":"S","from":"Jamarat (Mina Station 3)","name":"قطار المشاعر المقدسة الخط الجنوبي","type":"route","route":"subway","colour":"#FFC0CB","name:ar":"قطار المشاعر المقدسة الخط الجنوبي","name:en":"Al Mashaaer Al Mugaddassah Metro Southern Line","network":"قطارات مكة للنقل العام","wikidata":"Q16240707","wikipedia":"en:Al Mashaaer Al Mugaddassah Metro Southern Line","public_transport:version":"2"},"8857089":{"to":"Ad Dar Al Baida","ref":"1","from":"SABB","name":"Blue Line: SABB → Ad Dar Al Baida","type":"route","route":"subway","colour":"#0000ff","network":"Riyadh Transit Network"},"8857090":{"name":"5 Green Line","type":"route","route":"subway","colour":"#008000","wikidata":"Q106740376","public_transport:version":"2"},"8857387":{"to":"Khashm Al An","ref":"3","from":"Jeddah Road","name":"Orange Line: Jeddah Road → Khashm Al An","type":"route","route":"subway","colour":"#ffa500","operator":"Riyadh Transit Network","public_transport:version":"2"},"8857388":{"ref":"6","name":"6 Purple Line","type":"route","route":"subway","colour":"#800080","name:ar":"مترو الرياض","wikidata":"Q106740378"},"8857389":{"ref":"4","name":"4 Yellow Line","type":"route","route":"subway","wikidata":"Q106740374"},"17168709":{"to":"SABB","ref":"1","from":"Ad Dar Al Baida","name":"Blue Line: Ad Dar Al Baida → SABB","type":"route","route":"subway","colour":"#0000ff","network":"Riyadh Metro","operator":"Riyadh Transit Network"},"17172396":{"to":"Jeddah Road","ref":"3","from":"Khashm Al An","name":"Orange Line: Khashm Al An → Jeddah Road","type":"route","route":"subway","network":"Riyadh Transit Network","operator":"Riyadh Metro","public_transport:version":"2"}}