{"2293545":{"to":"Punggol","ref":"NEL","from":"HarbourFront","name":"MRT North East Line (Harbourfront --> Punggol)","type":"route","route":"subway","colour":"#9016b2","network":"Singapore Rail","operator":"SBS Transit","wikidata":"Q1725116","wikipedia":"en:North East MRT line","wheelchair":"yes","public_transport:version":"2"},"2312796":{"to":"Tuas Link","ref":"EWL","from":"Pasir Ris","name":"MRT East-West Line (Pasir Ris --> Tuas Link)","type":"route","route":"subway","colour":"#009530","network":"Singapore Rail","operator":"SMRT Trains","wikidata":"Q1895425","wikipedia":"en:East West MRT line","description":"West-bound (Towards Tuas Link)","public_transport:version":"2"},"2312797":{"to":"Marina Bay","ref":"NSL","via":"Woodlands;Yishun;Ang Mo Kio","from":"Jurong East","name":"MRT North-South Line (Jurong East --> Marina South Pier)","type":"route","route":"subway","colour":"#dc241f","name:en":"MRT North-South Line (Jurong East --> Marina South Pier)","name:zh":"南北线","network":"Singapore Rail","operator":"SMRT Trains","wikidata":"Q759229","wikipedia":"en:North South MRT line","description":"South-bound (Towards Marina Bay)","public_transport:version":"2"},"2313458":{"to":"Expo","ref":"DTL","from":"Bukit Panjang","name":"MRT Downtown Line (Bukit Panjang --> Expo)","type":"route","route":"subway","colour":"#0354a6","name:en":"MRT Downtown Line (Bukit Panjang --> Expo)","name:zh":"滨海市区线（武吉班让至博览）","network":"Singapore Rail","operator":"SBS Transit","wikidata":"Q1663943","wikipedia":"en:Downtown MRT line","wheelchair":"yes","public_transport:version":"2"},"7981642":{"to":"Bukit Panjang","ref":"DTL","from":"Expo","name":"MRT Downtown Line (Expo --> Bukit Panjang)","type":"route","route":"subway","colour":"#0354a6","name:en":"MRT Downtown Line (Expo --> Bukit Panjang)","name:zh":"滨海市区线（武吉班让至武吉班让）","network":"Singapore Rail","operator":"SBS Transit","wikidata":"Q1663943","wikipedia":"en:Downtown MRT line","wheelchair":"yes","public_transport:version":"2"},"7981648":{"to":"Harbourfront","ref":"NEL","from":"Punggol","name":"MRT North East Line (Punggol --> Harbourfront)","type":"route","route":"subway","colour":"#9016b2","network":"Singapore Rail","operator":"SBS Transit","wikidata":"Q1725116","wikipedia":"en:North East MRT line","wheelchair":"yes","public_transport:version":"2"},"7981667":{"to":"Dhoby Ghaut","ref":"CCL","via":"Promenade","from":"HarbourFront","name":"MRT Circle Line (HarbourFront --> Promenade --> Dhoby Ghaut)","type":"route","route":"subway","colour":"#FF9A00","name:en":"MRT Circle Line (HarbourFront --> Promenade --> Dhoby Ghaut)","name:zh":"环线（港湾至多美歌）","network":"Singapore Rail","operator":"SMRT Trains","wikidata":"Q2154003","wikipedia":"en:Circle MRT line","wheelchair":"yes","public_transport:version":"2"},"7981668":{"to":"Marina Bay","ref":"CCL","via":"Promenade","from":"HarbourFront","name":"MRT Circle Line (HarbourFront --> Promenade --> Marina Bay --> HarbourFront)","type":"route","route":"subway","colour":"#FF9A00","name:en":"MRT Circle Line (HarbourFront --> Promenade --> Marina Bay --> HarbourFront)","name:zh":"环线（港湾至滨海湾）","network":"Singapore Rail","operator":"SMRT Trains","wikidata":"Q2154003","roundtrip":"yes","wikipedia":"en:Circle MRT line","wheelchair":"yes","public_transport:version":"2"},"7981669":{"to":"HarbourFront","ref":"CCL","via":"Promenade","from":"Dhoby Ghaut","name":"MRT Circle Line (Dhoby Ghaut --> Promenade --> HarbourFront)","type":"route","route":"subway","colour":"#FF9A00","name:zh":"环线（多美歌至港湾）","network":"Singapore Rail","operator":"SMRT Trains","wikidata":"Q2154003","wikipedia":"en:Circle MRT line","wheelchair":"yes","public_transport:version":"2"},"7981690":{"to":"Changi Airport","ref":"EWL","from":"Tanah Merah","name":"MRT East-West Line (Tanah Merah --> Changi Airport)","type":"route","route":"subway","colour":"#009530","network":"Singapore Rail","operator":"SMRT Trains","wikidata":"Q1895425","wikipedia":"en:East West MRT line","description":"East-bound (Towards Changi Airport)","public_transport:version":"2"},"7981691":{"to":"Tanah Merah","ref":"EWL","from":"Changi Airport","name":"MRT East-West Line (Changi Airport --> Tanah Merah)","type":"route","route":"subway","colour":"#009530","network":"Singapore Rail","operator":"SMRT Trains","wikidata":"Q1895425","wikipedia":"en:East West MRT line","description":"West-bound (Towards Tuas Link)","public_transport:version":"2"},"8312413":{"to":"Boon Lay","ref":"JRL","from":"Peng Kang Hill","name":"MRT Jurong Regional Line (Peng Kang Hill --> Boon Lay)","type":"route","route":"subway","network":"Singapore Rail","construction":"subway","public_transport:version":"2"},"8312414":{"to":"Peng Kang Hill","ref":"JRL","from":"Boon Lay","name":"MRT Jurong Regional Line (Boon Lay --> Peng Kang Hill)","type":"route","route":"subway","network":"Singapore Rail","construction":"subway","public_transport:version":"2"},"8312415":{"to":"Tengah","ref":"JRL","from":"Pandan Reservoir","name":"MRT Jurong Regional Line (Pandan Reservoir --> Tengah)","type":"route","route":"subway","network":"Singapore Rail","construction":"subway","public_transport:version":"2"},"8312416":{"to":"Pandan Reservoir","ref":"JRL","from":"Tengah","name":"MRT Jurong Regional Line (Tengah --> Pandan Reservoir)","type":"route","route":"subway","network":"Singapore Rail","construction":"subway","public_transport:version":"2"},"8312417":{"to":"Jurong Pier","ref":"JRL","from":"Choa Chu Kang","name":"MRT Jurong Regional Line (Choa Chu Kang --> Jurong Pier)","type":"route","route":"subway","network":"Singapore Rail","construction":"subway","public_transport:version":"2"},"8312418":{"to":"Choa Chu Kang","ref":"JRL","from":"Jurong Pier","name":"MRT Jurong Region Line (Jurong Pier --> Choa Chu Kang)","type":"route","route":"subway","network":"Singapore Rail","construction":"subway","public_transport:version":"2"},"9627856":{"to":"Woodlands North","ref":"TEL","from":"Gardens by the Bay","name":"MRT Thomson–East Coast Line (Gardens by the Bay→Woodlands North)","note":"As of 28 August","type":"route","route":"subway","colour":"#734538","name:en":"MRT Thomson–East Coast Line (Gardens by the Bay→Woodlands North)","name:zh":"汤申－东海岸线（滨海湾花 →兀兰北）","network":"Singapore Rail","operator":"SMRT","wikidata":"Q7795883","wikipedia":"en:Thomson–East Coast MRT line","wheelchair":"yes","public_transport:version":"2"},"9627857":{"to":"Jurong Lake District","ref":"CRL","from":"Aviation Park","name":"MRT Cross Island Line (Aviation Park --> Jurong Lake District)","type":"route","route":"subway","name:en":"MRT Cross Island Line (Aviation Park --> Jurong Lake District)","name:zh":"跨岛地铁线","network":"Singapore Rail","railway":"construction","wheelchair":"yes","construction":"subway","public_transport:version":"1"},"14639599":{"to":"Punggol","ref":"CPe","from":"Pasir Ris","name":"MRT Cross Island Line (Pasir Ris --> Punggol)","type":"route","route":"subway","name:en":"MRT Cross Island Line (Pasir Ris --> Punggol)","name:zh":"跨岛地铁线  （巴西立 --> 榜鹅）","network":"Singapore Rail","railway":"construction","wheelchair":"yes","construction":"subway","public_transport:version":"1"},"14639612":{"to":"Pasir Ris","ref":"CPe","from":"Punggol","name":"MRT Cross Island Line (Punggol --> Pasir Ris)","type":"route","route":"subway","name:en":"MRT Cross Island Line (Punggol --> Pasir Ris)","name:zh":"跨岛地铁线  （榜鹅 --> 巴西立）","network":"Singapore Rail","railway":"construction","wheelchair":"yes","construction":"subway","public_transport:version":"1"}}