{"444651":{"to":"Kheha","ref":"BTS Sukhumvit","from":"Khu Khot","name":"รถไฟฟ้าบีทีเอส สายสุขุมวิท (คูคต → เคหะ)","note":"I didn't include \\\"Last train route\\\" and \\\"Peak-only route\\\" into this \\\"Main route\\\".","type":"route","route":"subway","colour":"#65B724","name:en":"BTS Sukhumvit Line (Khu Khot → Kheha)","name:ja":"BTSスクムウィット線（クーコット→ケーハー）","name:th":"รถไฟฟ้าบีทีเอส สายสุขุมวิท (คูคต → เคหะ)","network":"BTS","website":"https://www.bts.co.th/service/timetable.html","operator":"BTSC","wikidata":"Q4921598","wikipedia":"th:รถไฟฟ้าบีทีเอส สายสุขุมวิท","opening_hours":"Mo-Su 05:15-23:35","public_transport:version":"2"},"444659":{"to":"หลักสอง","ref":"MRT Blue","from":"ท่าพระ","name":"รถไฟฟ้ามหานคร สายสีน้ำเงิน","type":"route","route":"subway","colour":"#1E398D","name:en":"MRT Blue Line (Tha Phra → Lak Song)","name:th":"รถไฟฟ้ามหานครสายสีน้ำเงิน","name:zh":"曼谷地铁蓝线","network":"MRT","operator":"Bangkok Expressway and Metro Public Company Limited","wikidata":"Q2486364","public_transport:version":"2"},"2067854":{"ref":"BTS Silom","name":"รถไฟฟ้าบีทีเอส สายสีลม (สนามกีฬาแห่งชาติ - บางหว้า)","type":"route","route":"subway","colour":"#246B5B","name:en":"BTS Silom Line (National Stadium --> Bang Wa)","network":"BTS","operator":"BTSC","wikidata":"Q2634702","wikipedia":"en:Silom Line","public_transport:version":"2"},"6988563":{"to":"เตาปูน","ref":"MRT Purple","from":"คลองบางไผ่","name":"รถไฟฟ้ามหานคร สายสีม่วง (คลองบางไผ่ → เตาปูน)","type":"route","route":"subway","colour":"#893B90","name:en":"MRT Purple Line (Khlong Bang Phai → Tao Poon)","name:th":"รถไฟฟ้ามหานคร สายสีม่วง (คลองบางไผ่ → เตาปูน)","network":"MRT","operator":"Bangkok Expressway and Metro Public Company Limited","wikidata":"Q6584549","wikipedia":"en:MRT Purple Line","public_transport:version":"2"},"7725025":{"to":"ท่าพระ","ref":"MRT Blue","from":"หลักสอง","name":"รถไฟฟ้ามหานคร สายสีน้ำเงิน","type":"route","route":"subway","colour":"#1E398D","name:en":"MRT Blue Line (Lak Song → Tha Phra)","name:th":"รถไฟฟ้ามหานครสายสีน้ำเงิน","name:zh":"曼谷地铁蓝线","network":"MRT","operator":"Bangkok Expressway and Metro Public Company Limited","wikidata":"Q2486364","wikipedia":"en:Blue Line (Bangkok)","public_transport:version":"2"},"7725057":{"to":"คลองบางไผ่","ref":"MRT Purple","from":"เตาปูน","name":"รถไฟฟ้ามหานคร สายสีม่วง (เตาปูน → คลองบางไผ่)","type":"route","route":"subway","colour":"#893B90","name:en":"MRT Purple Line (Tao Poon → Khlong Bang Phai)","name:th":"รถไฟฟ้ามหานคร สายสีม่วง","network":"MRT","operator":"Bangkok Expressway and Metro Public Company Limited","public_transport:version":"2"},"7989376":{"to":"Khu Khot","ref":"BTS Sukhumvit","from":"Kheha","name":"รถไฟฟ้าบีทีเอส สายสุขุมวิท (เคหะ → คูคต)","note":"I didn't include \\\"Last train route\\\" and \\\"Peak-only route\\\" into this \\\"Main route\\\".","type":"route","route":"subway","colour":"#65B724","name:en":"BTS Sukhumvit Line (Kheha → Khu Khot)","name:ja":"BTSスクムウィット線（クーコット→ケーハー）","name:th":"รถไฟฟ้าบีทีเอส สายสุขุมวิท (เคหะ → คูคต)","network":"BTS","website":"https://www.bts.co.th/service/timetable.html","operator":"BTSC","wikidata":"Q4921598","wikipedia":"th:รถไฟฟ้าบีทีเอส สายสุขุมวิท","opening_hours":"Mo-Su 05:15-23:43","public_transport:version":"2"},"7989385":{"ref":"BTS Silom","name":"รถไฟฟ้าบีทีเอส สายสีลม (บางหว้า - สนามกีฬาแห่งชาติ)","type":"route","route":"subway","colour":"#246B5B","name:en":"BTS Silom Line (Bang Wa --> National Stadium)","network":"BTS","operator":"BTSC","wikidata":"Q2634702","wikipedia":"en:Silom Line","public_transport:version":"2"},"11681439":{"to":"Khlong San","ref":"APM Gold Line","from":"Krung Thon Buri","name":"รถไฟฟ้าสายสีทอง (กรุงธนบุรี → คลองสาน)","type":"route","route":"subway","colour":"#A58704","name:en":"Gold Line (Krung Thon Buri → Khlong San)","name:th":"รถไฟฟ้าสายสีทอง (กรุงธนบุรี → คลองสาน)","network":"BTS","operator":"BTSC","wikidata":"Q25540775","wikipedia":"en:Gold Line (Bangkok)","public_transport:version":"2"},"11681440":{"to":"Krung Thon Buri","ref":"APM Gold Line","from":"Khlong San","name":"รถไฟฟ้าสายสีทอง (คลองสาน → กรุงธนบุรี)","type":"route","route":"subway","colour":"#A58704","name:en":"Gold Line (Khlong San → Krung Thon Buri)","name:th":"รถไฟฟ้าสายสีทอง (คลองสาน → กรุงธนบุรี)","network":"BTS","operator":"BTSC","wikidata":"Q25540775","wikipedia":"en:Gold Line (Bangkok)","public_transport:version":"2"}}