{"1365361":{"to":"ساحة برشلونة","ref":"1","from":"بن عروس","name":"خط 1: بن عروس - ساحة برشلونة","type":"route","gauge":"1435","route":"light_rail","to:ar":"ساحة برشلونة","from:ar":"بن عروس","name:ar":"خط 1: بن عروس - ساحة برشلونة","name:en":"Line 1: Ben Arous > Place de Barcelone","name:fr":"Ligne 1 - Ben Arous > Place de Barcelone","network":"المترو الخفيف لمدينة تونس","operator":"نقل تونس","wikidata":"Q109046020","electrified":"yes","operator:ar":"نقل تونس","public_transport:version":"2"},"1366793":{"to":"ساحة الجمهورية","ref":"2","from":"أريانة","name":"خط 2 - أريانة => ساحة الجمهورية","type":"route","route":"light_rail","name:ar":"خط 2 - أريانة => ساحة الجمهورية","name:en":"Line 2: Ariana => Place de la République","name:fr":"Ligne 2: Ariana => Place de la République","network":"المترو الخفيف لمدينة تونس","operator":"شركة النقل بتونس","wikidata":"Q109046023","network:wikidata":"Q1425645","public_transport:version":"2"},"1368272":{"to":"ساحة برشلونة","ref":"3","from":"ابن خلدون","name":"خط 3 - ابن خلدون-ساحة برشلونة","type":"route","route":"light_rail","name:ar":"خط 3 - ابن خلدون-ساحة برشلونة","name:en":"Line 3: Ibn Khaldoun => Place de Barcelone","name:fr":"Ligne 3: Ibn Khaldoun - Place de Barcelone","network":"المترو الخفيف لمدينة تونس","operator":"نقل تونس","wikidata":"Q109046031","network:wikidata":"Q1425645","public_transport:version":"2"},"1368401":{"to":"تونس البحرية","ref":"4","from":"خير الدين","name":"خط 4 - خير الدين-تونس البحرية","type":"route","route":"light_rail","name:ar":"خط 4 - خير الدين-تونس البحرية","name:en":"Line 4: Kheireddine => Tunis Marine","name:fr":"Ligne 4: Kheireddine => Tunis Marine","wikidata":"Q109046034","network:wikidata":"Q1425645","public_transport:version":"2"},"1368402":{"to":"الانطلاقة","ref":"5","from":"ساحة برشلونة","name":"خط 5 - الانطلاقة-ساحة برشلونة","type":"route","route":"light_rail","name:ar":"خط 5 - الانطلاقة-ساحة برشلونة","name:en":"Line 5: Place Barcelone => Intilaka","name:fr":"Ligne 5: Place Barcelone => Intilaka","wikidata":"Q109046037","network:wikidata":"Q1425645","public_transport:version":"2"},"1368621":{"to":"تونس البحرية","ref":"6","from":"المروج ٤","name":"خط ٦ - المروج ٤-تونس البحرية","type":"route","route":"light_rail","ref:ar":"خط ٦","name:ar":"خط ٦ - المروج ٤-تونس البحرية","name:en":"Line 6: El Mourouj 4 - Tunis Marine","name:fr":"Ligne 6: El Mourouj 4 - Tunis Marine","network":"المترو الخفيف لمدينة تونس","operator":"نقل تونس","wikidata":"Q109046039","network:wikidata":"Q1425645","public_transport:version":"2"},"8510679":{"to":"ساحة برشلونة","ref":"5","from":"الانطلاقة","name":"خط 5 - الانطلاقة-ساحة برشلونة","type":"route","route":"light_rail","name:ar":"خط 5 - الانطلاقة-ساحة برشلونة","name:en":"Line 5: Intilaka => Place Barcelone","name:fr":"Ligne 5: Intilaka => Place Barcelone","wikidata":"Q109046037","network:wikidata":"Q1425645","public_transport:version":"2"},"8510787":{"to":"ابن خلدون","ref":"3","from":"ساحة برشلونة","name":"خط 3 - ابن خلدون-ساحة برشلونة","type":"route","route":"light_rail","name:ar":"خط 3 - ابن خلدون-ساحة برشلونة","name:en":"Line 3: Place de Barcelone => Ibn Khaldoun","name:fr":"Ligne 3: Place de Barcelone - Ibn Khaldoun","network":"المترو الخفيف لمدينة تونس","operator":"نقل تونس","wikidata":"Q109046031","network:wikidata":"Q1425645","public_transport:version":"2"},"9525004":{"to":"بن عروس","ref":"1","from":"ساحة برشلونة","name":"خط 1: ساحة برشلونة - بن عروس","type":"route","gauge":"1435","route":"light_rail","to:ar":"بن عروس","from:ar":"ساحة برشلونة","name:ar":"خط 1: ساحة برشلونة - بن عروس","name:en":"Line 1: Place de Barcelone > Ben Arous","name:fr":"Ligne 1 - Place de Barcelone > Ben Arous","network":"المترو الخفيف لمدينة تونس","operator":"نقل تونس","wikidata":"Q109046020","electrified":"yes","operator:ar":"نقل تونس","public_transport:version":"2"},"9530552":{"to":"أريانة","ref":"2","from":"ساحة الجمهورية","name":"خط 2 - ساحة الجمهورية => أريانة","type":"route","route":"light_rail","name:ar":"خط 2 - ساحة الجمهورية => أريانة","name:en":"Line 2: Place de la République => Ariana","name:fr":"Ligne 2: Place de la République => Ariana","network":"المترو الخفيف لمدينة تونس","operator":"شركة النقل بتونس","wikidata":"Q109046023","network:wikidata":"Q1425645","public_transport:version":"2"}}