{"300961":{"to":"Kabataş","ref":"F1","from":"Taksim","name":"F1: Taksim - Kabataş Füniküler Hattı","type":"route","route":"light_rail","colour":"#7A745A","name:en":"F1: Taksim - Kabataş Funicular Line","operator":"Metro İstanbul","wikidata":"Q503503","wikipedia":"tr:F1 (İstanbul füniküleri)","official_name":"F1 Taksim–Kabataş füniküler hattı","public_transport:version":"2"},"301616":{"to":"Beyoğlu","ref":"F2","from":"Karaköy","name":"Tünel (F2)","type":"route","route":"light_rail","colour":"#7A745A","operator":"İstanbul Elektrik Tramvay ve Tünel (̣İETT)","wikidata":"Q387264","official_name":"F2 (Karaköy–Beyoğlu) Tarihi Tünel Füniküler Hattı"},"456693":{"to":"Dikimevi","ref":"A","from":"AŞTİ","name":"Ankaray Line 1","type":"route","route":"subway","colour":"#056D2E","network":"Ankara Metrosu","operator":"EGO Genel Müdürlüğü","wikidata":"Q770771","wikipedia":"tr:Ankaray","public_transport:version":"2"},"456707":{"to":"Batıkent","ref":"M1","from":"Kızılay","name":"M1 Kızılay-Batıkent Metro 1 Numaralı Hat","type":"route","route":"subway","colour":"#BF0E1C","name:en":"Ankara Metro 1 Line 1","network":"Ankara Metrosu","wikidata":"Q21526526","wikipedia":"tr:M1 (Ankara metrosu)","public_transport:version":"2"},"2707717":{"ref":"M1","line":"1","name":"Fahrettin Altay - Evka 3","type":"route","route":"subway","colour":"blue","network":"İzmir Metro","wikidata":"Q3238655","wikipedia":"en:M1 (İzmir Metro)","public_transport:version":"2"},"3604162":{"to":"Koru","ref":"M2","from":"Kızılay","name":"M2 Kızılay-Koru Metro 2 Numaralı Hat","type":"route","route":"subway","colour":"#BF0E1C","name:en":"Ankara Metro 2 Line 2","network":"Ankara Metrosu","wikidata":"Q21526527","public_transport:version":"2"},"4289797":{"to":"Kayaşehir Merkez","ref":"M3","from":"Kirazlı","name":"M3: Kirazlı → Kayaşehir Merkez","type":"route","route":"subway","network":"İstanbul Metrosu","operator":"Metro İstanbul","wikidata":"Q1880963","wikipedia":"tr:M3 (İstanbul metrosu)","network:wikidata":"Q498172","network:wikipedia":"tr:İstanbul metrosu","operator:wikidata":"Q344299","operator:wikipedia":"tr:Metro İstanbul","public_transport:version":"2"},"4289800":{"to":"Olimpiyat","ref":"M9","from":"Bahariye","name":"M9: Bahariye → Olimpiyat","type":"route","route":"subway","network":"İstanbul Metrosu","operator":"Metro İstanbul","wikidata":"Q25209252","wikipedia":"tr:M9 (İstanbul metrosu)","network:wikidata":"Q498172","network:wikipedia":"tr:İstanbul metrosu","operator:wikidata":"Q344299","operator:wikipedia":"tr:Metro İstanbul","public_transport:version":"2"},"7719072":{"to":"Bahariye","ref":"M9","from":"Olimpiyat","name":"M9: Olimpiyat → Bahariye","type":"route","route":"subway","network":"İstanbul Metrosu","operator":"Metro İstanbul","wikidata":"Q25209252","wikipedia":"tr:M9 (İstanbul metrosu)","network:wikidata":"Q498172","network:wikipedia":"tr:İstanbul metrosu","operator:wikidata":"Q344299","operator:wikipedia":"tr:Metro İstanbul","public_transport:version":"2"},"7719073":{"to":"Kirazlı","ref":"M3","from":"Kayaşehir Merkez","name":"M3: Kayaşehir Merkez → Kirazli","type":"route","route":"subway","network":"İstanbul Metrosu","operator":"Metro İstanbul","wikidata":"Q1880963","wikipedia":"tr:M3 (İstanbul metrosu)","network:wikidata":"Q498172","network:wikipedia":"tr:İstanbul metrosu","operator:wikidata":"Q344299","operator:wikipedia":"tr:Metro İstanbul","public_transport:version":"2"},"7719074":{"ref":"M2","name":"M2: Hacıosman - Yenikapı","type":"route","route":"subway","colour":"#009A4C","network":"İstanbul Metrosu","operator":"Metro İstanbul","wikidata":"Q1880934","wikipedia":"tr:M2 (İstanbul metrosu)","network:wikidata":"Q498172","network:wikipedia":"tr:İstanbul metrosu","operator:wikidata":"Q344299","operator:wikipedia":"tr:Metro İstanbul","public_transport:version":"2"},"7719075":{"to":"Yenikapi","ref":"M1B","from":"Kirazli","name":"M1B: Kirazlı - Yenikapı","type":"route","route":"subway","network":"İstanbul Metrosu","operator":"Metro İstanbul","wikidata":"Q6048705","wikipedia":"tr:M1 (İstanbul metrosu)","network:wikidata":"Q498172","network:wikipedia":"tr:İstanbul metrosu","operator:wikidata":"Q344299","operator:wikipedia":"tr:Metro İstanbul","public_transport:version":"2"},"7719077":{"to":"Yenikapi","ref":"M1A","from":"Havalimanı","name":"M1A: Havalimanı - Yenikapı","type":"route","route":"subway","network":"İstanbul Metrosu","operator":"Metro İstanbul","wikidata":"Q6048705","network:wikidata":"Q498172","network:wikipedia":"tr:İstanbul metrosu","operator:wikidata":"Q344299","operator:wikipedia":"tr:Metro İstanbul","public_transport:version":"2"},"7719780":{"ref":"M6","name":"M6: Boğaziçi Üniversitesi → Levent","type":"route","route":"subway","network":"İstanbul Metrosu","operator":"Metro İstanbul","wikidata":"Q16949744","wikipedia":"tr:M6 (İstanbul metrosu)","network:wikidata":"Q498172","network:wikipedia":"tr:İstanbul metrosu","operator:wikidata":"Q344299","operator:wikipedia":"tr:Metro İstanbul","public_transport:version":"2"},"7719781":{"ref":"M6","name":"M6: Levent → Boğaziçi Üniversitesi","type":"route","route":"subway","network":"İstanbul Metrosu","operator":"Metro İstanbul","wikidata":"Q16949744","wikipedia":"tr:M6 (İstanbul metrosu)","network:wikidata":"Q498172","network:wikipedia":"tr:İstanbul metrosu","operator:wikidata":"Q344299","operator:wikipedia":"tr:Metro İstanbul","public_transport:version":"2"},"7719795":{"ref":"M2","name":"M2: Seyrantepe - Sanayi","type":"route","route":"subway","colour":"#009A4C","network":"İstanbul Metrosu","operator":"Metro İstanbul","wikidata":"Q1880934","wikipedia":"tr:M2 (İstanbul metrosu)","network:wikidata":"Q498172","network:wikipedia":"tr:İstanbul metrosu","operator:wikidata":"Q344299","operator:wikipedia":"tr:Metro İstanbul","public_transport:version":"2"},"7719796":{"ref":"M2","name":"M2: Sanayi - Seyrantepe","type":"route","route":"subway","colour":"#009A4C","network":"İstanbul Metrosu","operator":"Metro İstanbul","wikidata":"Q1880934","wikipedia":"tr:M2 (İstanbul metrosu)","network:wikidata":"Q498172","network:wikipedia":"tr:İstanbul metrosu","operator:wikidata":"Q344299","operator:wikipedia":"tr:Metro İstanbul","public_transport:version":"2"},"7838816":{"to":"Hastane","ref":"M1","from":"Akıncılar","name":"M1 Akıncılar → Hastane","type":"route","route":"subway","colour":"orange","network":"Adana Metrosu","operator":"Adana Büyükşehir Belediyesi","wikidata":"Q106793347","wheelchair":"yes","public_transport:version":"2"},"7838817":{"to":"Akıncılar","ref":"M1","from":"Hastane","name":"M1 Hastane → Akıncılar","type":"route","route":"subway","colour":"orange","network":"Adana Metrosu","operator":"Adana Büyükşehir Belediyesi","wikidata":"Q106793347","wheelchair":"yes","public_transport:version":"2"},"7868620":{"to":"Arabayatağı","ref":"B1","from":"Emek","name":"B1 Emek Arabayatağı","type":"route","route":"subway","colour":"red","network":"BursaRay","operator":"Bursa Ulaşım Toplu Taşıma İşletmeciliği","wikidata":"Q56067295","wheelchair":"yes","public_transport:version":"2"},"7868723":{"to":"Emek","ref":"B1","from":"Arabayatağı","name":"B1 Arabayatağı Emek","type":"route","route":"subway","colour":"red","network":"BursaRay","operator":"Bursa Ulaşım Toplu Taşıma İşletmeciliği","wikidata":"Q56067295","wheelchair":"yes","public_transport:version":"2"},"7869620":{"to":"Üniversite","ref":"B2","from":"Kestel","name":"B2 Kestel - Üniversite","type":"route","route":"subway","colour":"black","network":"BursaRay","operator":"Bursa Ulaşım Toplu Taşıma İşletmeciliği","wikidata":"Q61074931","wheelchair":"yes","public_transport:version":"2"},"7869621":{"to":"Kestel","ref":"B2","from":"Üniversite","name":"B2 Üniversite - Kestel","type":"route","route":"subway","colour":"black","network":"BursaRay","operator":"Bursa Ulaşım Toplu Taşıma İşletmeciliği","wikidata":"Q61074931","wheelchair":"yes","public_transport:version":"2"},"7877738":{"to":"AŞTİ","ref":"A","from":"Dikimevi","name":"Ankaray Line 2","type":"route","route":"subway","colour":"#056D2E","network":"Ankara Metrosu","operator":"EGO Genel Müdürlüğü","wikidata":"Q770771","wikipedia":"tr:Ankaray","public_transport:version":"2"},"7877769":{"to":"Kızılay","ref":"M1","from":"Batıkent","name":"M1 Kızılay-Batıkent Metro 2 Numaralı Hat","type":"route","route":"subway","colour":"#BF0E1C","name:en":"Ankara Metro 1 Line 2","network":"Ankara Metrosu","wikidata":"Q21526526","wikipedia":"tr:M1 (Ankara metrosu)","public_transport:version":"2"},"7877885":{"to":"Kızılay","ref":"M2","from":"Koru","name":"M2 Kızılay-Koru Metro 1 Numaralı Hat","type":"route","route":"subway","colour":"#BF0E1C","name:en":"Ankara Metro 2 Line 1","network":"Ankara Metrosu","wikidata":"Q21526527","public_transport:version":"2"},"7878077":{"to":"OSB/Törekent","ref":"M3","from":"Batıkent","name":"M3 Batıkent-OSB/Törekent Metro 1 Numaralı Hat","type":"route","route":"subway","colour":"#BF0E1C","name:en":"Ankara Metro 3 Line 1","network":"Ankara Metrosu","wikidata":"Q21526528","public_transport:version":"2"},"7981706":{"to":"Batıkent","ref":"M3","from":"OSB/Törekent","name":"M3 OSB/Törekent-Batıkent Metro 2 Numaları Hat","type":"route","route":"subway","colour":"#BF0E1C","name:en":"Ankara Metro 3 Line 2","network":"Ankara Metrosu","wikidata":"Q21526528","public_transport:version":"2"},"7981739":{"to":"Şehitler/Gazino","ref":"M4","from":"15 Temmuz Kızılay Milli İrade","name":"M4 Kızılay - Şehitler/Gazino Metro 1 Numaralı Hat","type":"route","route":"subway","colour":"#EDAF2E","name:en":"Ankara Metro 4 Line 1","name:fr":"ligne M4 : Kızılay ->Şehitler/Gazino","network":"Ankara Metrosu","wikidata":"Q31193144","wikipedia":"tr:M4 (Ankara metrosu)","public_transport:version":"2"},"7981745":{"to":"15 Temmuz Kızılay Milli İrade","ref":"M4","from":"Şehitler/Gazino","name":"M4 Kızılay - Şehitler/Gazino Metro 2 Numaralı Hat","type":"route","route":"subway","colour":"#EDAF2E","name:en":"Ankara Metro 4 Line 2","name:fr":"ligne M4 : Şehitler/Gazino->Kızılay","network":"Ankara Metrosu","wikidata":"Q31193144","wikipedia":"tr:M4 (Ankara metrosu)","public_transport:version":"2"},"7981826":{"ref":"M1","line":"1","name":"Evka 3 - Fahrettin Altay","type":"route","route":"subway","colour":"blue","network":"İzmir Metro","wikidata":"Q3238655","wikipedia":"en:M1 (İzmir Metro)","public_transport:version":"2"},"9476599":{"to":"Vadi İstanbul","ref":"F3","from":"Seyrantepe","name":"F3: Seyrantepe - Vadi İstanbul Füniküler Hattı","type":"route","route":"light_rail","colour":"#7A745A","name:en":"F3: Vadistanbul-Seyrantepe Funicular Line","network":"İstanbul Metrosu","wikidata":"Q31193173","wikipedia":"tr:F3 (İstanbul füniküleri)","public_transport:version":"2"},"9488735":{"to":"Seyrantepe","ref":"F3","from":"Vadi İstanbul","name":"F3: Seyrantepe - Vadi İstanbul Füniküler Hattı","type":"route","route":"light_rail","colour":"#7A745A","name:en":"F3: Vadistanbul-Seyrantepe Funicular Line","network":"İstanbul Metrosu","wikidata":"Q31193173","wikipedia":"tr:F3 (İstanbul füniküleri)","public_transport:version":"2"},"11341395":{"to":"Kadıköy","ref":"M4","from":"Sabiha Gökçen Havalimanı","name":"M4: Sabiha Gökçen Havalimanı - Kadıköy","type":"route","route":"subway","network":"İstanbul Metrosu","operator":"Metro İstanbul","wikidata":"Q1880989","wikipedia":"tr:M4 (İstanbul metrosu)","network:wikidata":"Q498172","network:wikipedia":"tr:İstanbul metrosu","operator:wikidata":"Q344299","operator:wikipedia":"tr:Metro İstanbul","public_transport:version":"2"},"11344904":{"to":"Çekmeköy","ref":"M5","from":"Üsküdar","name":"M5: Üsküdar - Çekmeköy","type":"route","route":"subway","network":"İstanbul Metrosu","operator":"Metro İstanbul","wikidata":"Q1229371","wikipedia":"tr:M5 (İstanbul metrosu)","network:wikidata":"Q498172","network:wikipedia":"tr:İstanbul metrosu","operator:wikidata":"Q344299","operator:wikipedia":"tr:Metro İstanbul","public_transport:version":"2"},"11344905":{"to":"Üsküdar","ref":"M5","from":"Çekmeköy","name":"M5: Çekmeköy - Üsküdar","type":"route","route":"subway","network":"İstanbul Metrosu","operator":"Metro İstanbul","wikidata":"Q1229371","wikipedia":"tr:M5 (İstanbul metrosu)","network:wikidata":"Q498172","network:wikipedia":"tr:İstanbul metrosu","operator:wikidata":"Q344299","operator:wikipedia":"tr:Metro İstanbul","public_transport:version":"2"},"11799409":{"to":"Mahmutbey","ref":"M7","from":"Mecidiyeköy","name":"M7 Mecidiyeköy - Mahmutbey Metro Hattı","type":"route","route":"subway","network":"İstanbul Metrosu","operator":"Metro İstanbul","wikidata":"Q16949749","wikipedia":"tr:M7 (İstanbul metrosu)","network:wikidata":"Q498172","network:wikipedia":"tr:İstanbul metrosu","operator:wikidata":"Q344299","operator:wikipedia":"tr:Metro İstanbul","public_transport:version":"2"},"11799410":{"to":"Mecidiyeköy","ref":"M7","from":"Mahmutbey","name":"M7 Mahmutbey - Mecidiyeköy Metro Hattı","type":"route","route":"subway","network":"İstanbul Metrosu","operator":"Metro İstanbul","wikidata":"Q16949749","wikipedia":"tr:M7 (İstanbul metrosu)","network:wikidata":"Q498172","network:wikipedia":"tr:İstanbul metrosu","operator:wikidata":"Q344299","operator:wikipedia":"tr:Metro İstanbul","public_transport:version":"2"},"13313679":{"to":"Karaköy","ref":"F2","from":"Beyoğlu","name":"Tünel (F2)","type":"route","route":"light_rail","colour":"#7A745A","operator":"İstanbul Elektrik Tramvay ve Tünel (̣İETT)","official_name":"F2 (Karaköy–Beyoğlu) Tarihi Tünel Füniküler Hattı"},"14738977":{"ref":"F4","name":"F4: Boğaziçi Üniversitesi → Aşiyan Füniküler Hattı","type":"route","route":"light_rail","operator":"Metro İstanbul","wikidata":"Q31193345","wikipedia":"tr:F4 (İstanbul füniküleri)","public_transport:version":"2"},"14900216":{"to":"Parseller","ref":"M8","from":"Bostancı","name":"M8: Bostancı - Parseller","type":"route","route":"subway","network":"İstanbul Metrosu","operator":"Metro İstanbul","wikidata":"Q5996245","wikipedia":"tr:M8 (İstanbul metrosu)","network:wikidata":"Q498172","network:wikipedia":"tr:İstanbul metrosu","operator:wikidata":"Q344299","operator:wikipedia":"tr:Metro İstanbul","public_transport:version":"2"},"14900217":{"to":"Bostancı","ref":"M8","from":"Parseller","name":"M8: Parseller - Bostancı","type":"route","route":"subway","network":"İstanbul Metrosu","operator":"Metro İstanbul","wikidata":"Q5996245","wikipedia":"tr:M8 (İstanbul metrosu)","network:wikidata":"Q498172","network:wikipedia":"tr:İstanbul metrosu","operator:wikidata":"Q344299","operator:wikipedia":"tr:Metro İstanbul","public_transport:version":"2"},"15083963":{"to":"Kağıthane","ref":"M11","from":"Kargo Terminali","name":"M11 Kargo Terminali - Kağıthane Metro Hattı","type":"route","route":"subway","network":"İstanbul Metrosu","operator":"TCDD Taşımacılık","wikidata":"Q31193348","wikipedia":"tr:M11 (İstanbul metrosu)","operator:wikidata":"Q344299","operator:wikipedia":"tr:Türkiye Cumhuriyeti Ulaştırma ve Altyapı Bakanlığı","not:network:wikidata":"Q498172","public_transport:version":"2"},"15083964":{"to":"Kargo Terminali","ref":"M11","from":"Kağıthane","name":"M11 Kağıthane - Kargo Terminali Metro Hattı","type":"route","route":"subway","network":"İstanbul Metrosu","operator":"TCDD Taşımacılık","wikidata":"Q31193348","wikipedia":"tr:M11 (İstanbul metrosu)","operator:wikidata":"Q344299","operator:wikipedia":"tr:Türkiye Cumhuriyeti Ulaştırma ve Altyapı Bakanlığı","not:network:wikidata":"Q498172","public_transport:version":"2"},"15085833":{"to":"Mecidiyeköy","ref":"M7","from":"Yıldız","name":"M7 Yıldız - Mecidiyeköy Metro Hattı","type":"route","route":"subway","network":"İstanbul Metrosu","operator":"Metro İstanbul","wikidata":"Q16949749","wikipedia":"tr:M7 (İstanbul metrosu)","network:wikidata":"Q498172","network:wikipedia":"tr:İstanbul metrosu","operator:wikidata":"Q344299","operator:wikipedia":"tr:Metro İstanbul","public_transport:version":"2"},"15085834":{"to":"Yıldız","ref":"M7","from":"Mecidiyeköy","name":"M7 Mecidiyeköy - Yıldız Metro Hattı","type":"route","route":"subway","network":"İstanbul Metrosu","operator":"Metro İstanbul","wikidata":"Q16949749","wikipedia":"tr:M7 (İstanbul metrosu)","network:wikidata":"Q498172","network:wikipedia":"tr:İstanbul metrosu","operator:wikidata":"Q344299","operator:wikipedia":"tr:Metro İstanbul","public_transport:version":"2"},"15738155":{"ref":"M4","name":"M4 Tavşantepe - Tuzla Metro Hattı","type":"route","route":"subway"}}