{"4174827":{"to":"大寮","ref":"O","from":"西子灣","name":"高雄捷運橘線 西子灣-大寮","type":"route","route":"subway","colour":"#FFA500","name:en":"Orange Line Sizihwan - Daliao","name:zh":"高雄捷運橘線 西子灣-大寮","network":"高雄大眾捷運系統","operator":"高雄捷運股份有限公司","wikidata":"Q7099668","wikipedia":"zh:高雄捷運橘線","public_transport:version":"2"},"6825396":{"to":"小港","ref":"R","from":"南岡山","name":"高雄捷運紅線 南岡山-小港","type":"route","route":"subway","colour":"#FF0000","name:en":"Red Line South Gangshan - Siaogang","name:zh":"高雄捷運紅線 南岡山-小港","network":"高雄捷運","operator":"高雄捷運股份有限公司","wikidata":"Q7304504","wikipedia":"zh:高雄捷運紅線","network:en":"Kaohsiung Metro","network:zh":"高雄捷運","network:nan":"Ko-hiông Chia̍t-ūn","operator:en":"Kaohsiung Rapid Transit Corporation","operator:zh":"高雄捷運股份有限公司","operator:nan":"Ko-hiông Chia̍t-ūn Kó͘-hūn Iú-hān Kong-si","network:nan-HJ":"高雄捷運","network:nan-TL":"Ko-hiông Tsia̍t-ūn","network:nan-POJ":"Ko-hiông Chia̍t-ūn","operator:nan-HJ":"高雄捷運股份有限公司","operator:nan-TL":"Ko-hiông Tsia̍t-ūn Kóo-hūn Iú-hān Kong-si","network:wikidata":"Q700041","operator:nan-POJ":"Ko-hiông Chia̍t-ūn Kó͘-hūn Iú-hān Kong-si","operator:wikidata":"Q6366134","public_transport:version":"2"},"6825570":{"to":"西子灣","ref":"O","from":"大寮","name":"高雄捷運橘線 大寮-西子灣","type":"route","route":"subway","colour":"#FFA500","name:en":"Orange Line Daliao-Sizihwan","name:zh":"高雄捷運橘線 大寮-西子灣","network":"高雄大眾捷運系統","operator":"高雄捷運股份有限公司","wikidata":"Q7099668","wikipedia":"zh:高雄捷運橘線","public_transport:version":"2"}}