{"149920":{"to":"Лісова","ref":"M1","from":"Академмістечко","name":"Святошинсько-Броварська лінія","type":"route","route":"subway","colour":"#dd2a26","name:en":"Sviatoshynsko-Brovarska Line","name:ru":"Святошинско-Броварская линия","name:uk":"Святошинсько-Броварська лінія","name:zh":"斯维亚托申-布罗瓦里线","network":"Київський метрополітен","operator":"Київський метрополітен","wikidata":"Q2334153","wikipedia":"uk:Святошинсько-Броварська лінія","network:wikidata":"Q215871","public_transport:version":"2"},"153243":{"to":"Червоний хутір","ref":"M3","from":"Сирець","name":"Сирецько-Печерська лінія","type":"route","route":"subway","colour":"#35ab52","name:en":"Syretsko-Pecherska Line","name:ru":"Сырецко-Печерская линия","name:uk":"Сирецько-Печерська лінія","network":"Київський метрополітен","operator":"КП «Київський метрополітен»","wikidata":"Q2420584","wikipedia":"uk:Сирецько-Печерська лінія","public_transport:version":"2"},"303008":{"to":"Героїв праці","ref":"2 Салтівська","from":"Історичний музей","name":"Метро Салтівська лінія: Історичний музей => Героїв праці","type":"route","route":"subway","colour":"#2782c5","name:uk":"Метро Салтівська лінія: Історичний музей => Героїв праці","wikidata":"Q2332390","wikipedia":"en:Saltivska Line","public_transport:version":"2"},"303009":{"to":"Перемоги","ref":"3 Олексіївська","from":"Метробудівників ім. Ващенка","name":"Метро Олексіївська лінія: Метробудівників => Перемоги","type":"route","route":"subway","colour":"#35ab52","name:uk":"Метро Олексіївська лінія: Метробудівників => Перемоги","wikidata":"Q2109890","wikipedia":"en:Line 3 (Kharkiv Metro)","public_transport:version":"2"},"303013":{"to":"Холодна гора","ref":"1 Холодногірсько-заводська","from":"Індустріальна","name":"Метро Холодногірсько-Заводська лінія: Індустріальна => Холодна гора","type":"route","route":"subway","colour":"#dd2a26","name:uk":"Метро Холодногірсько-Заводська лінія: Індустріальна => Холодна гора","wikidata":"Q2710248","wikipedia":"en:Kholodnohirsko–Zavodska line","public_transport:version":"2"},"1202305":{"ref":"1","name":"Метро: Покровська → Вокзальна","type":"route","route":"subway","colour":"red","name:uk":"Метро: Покровська → Вокзальна","network":"Дніпровський метрополітен","wikidata":"Q4504162","wikipedia":"uk:Центрально-Заводська лінія","public_transport:version":"2"},"1710018":{"to":"Кільцева","ref":"1М","from":"Майдан праці","name":"Швидкісний трамвай 1М: Майдан праці - Кільцева","type":"route","route":"light_rail","colour":"blue","name:uk":"Швидкісний трамвай 1М: Майдан праці - Кільцева","wikidata":"Q106432002","public_transport:version":"2"},"1710019":{"to":"Зарічна","ref":"2М","from":"Кільцева","name":"Швидкісний трамвай 2М: Кільцева - Зарічна","type":"route","route":"light_rail","colour":"red","name:uk":"Швидкісний трамвай 2М: Кільцева - Зарічна","wikidata":"Q106432003","public_transport:version":"2"},"1766291":{"to":"Метробудівників","ref":"3 Олексіївська","from":"Перемоги","name":"Метро Олексіївська лінія: Перемоги => Метробудівників","type":"route","route":"subway","colour":"#35ab52","name:uk":"Метро Олексіївська лінія: Перемоги => Метробудівників","wikidata":"Q2109890","wikipedia":"en:Line 3 (Kharkiv Metro)","public_transport:version":"2"},"1766292":{"to":"Історичний музей","ref":"2 Салтівська","from":"Героїв праці","name":"Метро Салтівська лінія: Героїв праці => Історичний музей","type":"route","route":"subway","colour":"#2782c5","name:uk":"Метро Салтівська лінія: Героїв праці => Історичний музей","wikidata":"Q2332390","wikipedia":"en:Saltivska line","public_transport:version":"2"},"1766293":{"to":"Індустріальна","ref":"1 Холодногірсько-заводська","from":"Холодна гора","name":"Метро Холодногірсько-Заводська лінія: Холодна гора => Індустріальна","type":"route","route":"subway","colour":"#dd2a26","name:uk":"Метро Холодногірсько-Заводська лінія: Холодна гора => Індустріальна","wikidata":"Q2710248","wikipedia":"en:Kholodnohirsko–Zavodska line","public_transport:version":"2"},"1773095":{"to":"Старовокзальна","ref":"1","from":"Михайлівська Борщагівка","name":"Швидкісний трамвай №1: Михайлівська Борщагівка - Старовокзальна","type":"route","route":"light_rail","colour":"#78ccc9","name:uk":"Швидкісний трамвай №1: Михайлівська Борщагівка - Старовокзальна","network":"Київський швидкісний трамвай","operator":"Київпастранс","network:wikidata":"Q1984902","operator:wikidata":"Q12110155","public_transport:version":"2"},"1773096":{"to":"Михайлівська Борщагівка","ref":"1","from":"Старовокзальна","name":"Швидкісний трамвай №1: Старовокзальна => Михайлівська Борщагівка","type":"route","route":"light_rail","colour":"#78ccc9","name:uk":"Швидкісний трамвай №1: Старовокзальна => Михайлівська Борщагівка","network":"Київський швидкісний трамвай","operator":"Київпастранс","network:wikidata":"Q1984902","operator:wikidata":"Q12110155","public_transport:version":"2"},"1773097":{"to":"Старовокзальна","ref":"3","from":"Жуля Верна","name":"Швидкісний трамвай №3: Жуля Верна - Старовокзальна","type":"route","route":"light_rail","colour":"#78ccc9","name:uk":"Швидкісний трамвай №3: Жуля Верна - Старовокзальна","network":"Київський швидкісний трамвай","operator":"Київпастранс","network:wikidata":"Q1984902","operator:wikidata":"Q12110155","public_transport:version":"2"},"1773098":{"to":"Жуля Верна","ref":"3","from":"Старовокзальна","name":"Швидкісний трамвай №3: Старовокзальна => Жуля Верна","type":"route","route":"light_rail","colour":"#78ccc9","name:uk":"Швидкісний трамвай №3: Старовокзальна => Жуля Верна","network":"Київський швидкісний трамвай","operator":"Київпастранс","network:wikidata":"Q1984902","operator:wikidata":"Q12110155","public_transport:version":"2"},"1773733":{"to":"Проспект Академіка Корольова","ref":"2","from":"Жуля Верна","name":"Швидкісний трамвай №2: Жуля Верна => Проспект академіка Корольова","type":"route","route":"light_rail","colour":"#78ccc9","name:uk":"Швидкісний трамвай №2: Жуля Верна => Проспект академіка Корольова","network":"Київський швидкісний трамвай","operator":"Київпастранс","network:wikidata":"Q1984902","operator:wikidata":"Q12110155","public_transport:version":"2"},"1773734":{"to":"Жуля Верна","ref":"2","from":"Проспект Академіка Корольова","name":"Швидкісний трамвай №2: Проспект Академіка Корольова => Жуля Верна","type":"route","route":"light_rail","colour":"#78ccc9","name:uk":"Швидкісний трамвай №2: Проспект Академіка Корольова => Жуля Верна","network":"Київський швидкісний трамвай","operator":"Київпастранс","network:wikidata":"Q1984902","operator:wikidata":"Q12110155","public_transport:version":"2"},"2588070":{"to":"Милославська","ref":"4","from":"Троєщина-2","name":"Швидкісний трамвай №4: Троєщина-2 - Милославська","type":"route","route":"light_rail","colour":"#78ccc9","name:uk":"Швидкісний трамвай №4: Троєщина-2 - Милославська","network":"Київський швидкісний трамвай","operator":"Київпастранс","network:wikidata":"Q1984902","operator:wikidata":"Q12110155","public_transport:version":"2"},"3598362":{"to":"Героїв Дніпра","ref":"M2","from":"Теремки","name":"Оболонсько-Теремківська лінія","type":"route","route":"subway","colour":"#2782c5","name:en":"Obolonsko-Teremkivska Line","name:ru":"Оболонско-Теремковская линия","name:uk":"Оболонсько-Теремківська лінія","name:zh":"奥博隆-特列姆基线","network":"Київський метрополітен","old_name":"Куренівсько-Червоноармійська лінія","operator":"Київський метрополітен","wikidata":"Q2204296","wikipedia":"uk:Оболонсько-Теремківська лінія","old_name:en":"Kurenivsko-Chervonoarmiiska Line","old_name:uk":"Куренівсько-Червоноармійська лінія","network:wikidata":"Q215871","public_transport:version":"2"},"3601213":{"to":"Академмістечко","ref":"M1","from":"Лісова","name":"Святошинсько-Броварська лінія","type":"route","route":"subway","colour":"#dd2a26","name:en":"Sviatoshynsko-Brovarska Line","name:ru":"Святошинско-Броварская линия","name:uk":"Святошинсько-Броварська лінія","name:zh":"斯维亚托申-布罗瓦里线","network":"Київський метрополітен","operator":"Київський метрополітен","wikidata":"Q2334153","wikipedia":"uk:Святошинсько-Броварська лінія","network:wikidata":"Q215871","public_transport:version":"2"},"3602959":{"to":"Теремки","ref":"M2","from":"Героїв Дніпра","name":"Оболонсько-Теремківська лінія","type":"route","route":"subway","colour":"#2782c5","name:en":"Obolonsko-Teremkivska Line","name:ru":"Оболонско-Теремковская линия","name:uk":"Оболонсько-Теремківська лінія","name:zh":"奥博隆-特列姆基线","network":"Київський метрополітен","old_name":"Куренівсько-Червоноармійська лінія","operator":"Київський метрополітен","wikidata":"Q2204296","wikipedia":"uk:Оболонсько-Теремківська лінія","old_name:en":"Kurenivsko-Chervonoarmiiska Line","old_name:uk":"Куренівсько-Червоноармійська лінія","network:wikidata":"Q215871","public_transport:version":"2"},"3603197":{"to":"Сирець","ref":"M3","from":"Червоний хутір","name":"Сирецько-Печерська лінія","type":"route","route":"subway","colour":"#35ab52","name:en":"Syretsko-Pecherska Line","name:ru":"Сырецко-Печерская линия","name:uk":"Сирецько-Печерська лінія","network":"Київський метрополітен","operator":"Київський метрополітен","wikidata":"Q2420584","wikipedia":"uk:Сирецько-Печерська лінія","network:wikidata":"Q215871","public_transport:version":"2"},"4152662":{"to":"Троєщина-2","ref":"5","from":"Вулиця Сержа Лифаря","name":"Швидкісний трамвай №5: Вулиця Сержа Лифаря - Троєщина-2","type":"route","route":"light_rail","colour":"#78ccc9","name:uk":"Швидкісний трамвай №5: Вулиця Сержа Лифаря - Троєщина-2","network":"Київський швидкісний трамвай","operator":"Київпастранс","network:wikidata":"Q1984902","operator:wikidata":"Q12110155","public_transport:version":"2"},"4152663":{"to":"Вулиця Сержа Лифаря","ref":"5","from":"Троєщина-2","name":"Швидкісний трамвай №5: Троєщина-2 - Вулиця Сержа Лифаря","type":"route","route":"light_rail","colour":"#78ccc9","name:uk":"Швидкісний трамвай №5: Троєщина-2 - Вулиця Сержа Лифаря","network":"Київський швидкісний трамвай","operator":"Київпастранс","wikidata":"Q63890965","network:wikidata":"Q1984902","operator:wikidata":"Q12110155","public_transport:version":"2"},"4152664":{"to":"Троєщина-2","ref":"4","from":"Милославська","name":"Швидкісний трамвай №4: Милославська => Троєщина-2","type":"route","route":"light_rail","colour":"#78ccc9","name:uk":"Швидкісний трамвай №4: Милославська => Троєщина-2","network":"Київський швидкісний трамвай","operator":"Київпастранс","network:wikidata":"Q1984902","operator:wikidata":"Q12110155","public_transport:version":"2"},"7734179":{"ref":"1","name":"Метро: Вокзальна → Покровська","type":"route","route":"subway","colour":"red","name:uk":"Метро: Вокзальна → Покровська","network":"Дніпровський метрополітен","wikidata":"Q4504162","wikipedia":"uk:Центрально-Заводська лінія","public_transport:version":"2"},"8744272":{"to":"Майдан праці","ref":"1М","from":"Кільцева","name":"Швидкісний трамвай 1М: Кільцева - Майдан праці","type":"route","route":"light_rail","colour":"blue","name:uk":"Швидкісний трамвай 1М: Кільцева - Майдан праці","wikidata":"Q106432002","public_transport:version":"2"},"8746993":{"to":"Кільцева","ref":"2М","from":"Зарічна","name":"Швидкісний трамвай 2М: Зарічна - Кільцева","type":"route","route":"light_rail","colour":"red","name:uk":"Швидкісний трамвай 2М: Зарічна - Кільцева","wikidata":"Q106432003","public_transport:version":"2"},"8765532":{"to":"Зарічна","ref":"4М","from":"ПГЗК","name":"Швидкісний трамвай 4М: ПГЗК - Зарічна","type":"route","route":"light_rail","colour":"red","name:uk":"Швидкісний трамвай 4М: ПГЗК - Зарічна","public_transport:version":"2"},"8765533":{"to":"ПГЗК","ref":"4М","from":"Зарічна","name":"Швидкісний трамвай 4М: Зарічна - ПГЗК","type":"route","route":"light_rail","colour":"red","name:uk":"Швидкісний трамвай 4М: Зарічна - ПГЗК","public_transport:version":"2"},"8765534":{"to":"Зарічна","ref":"3М","from":"Кільце КМК","name":"Швидкісний трамвай 3М: Кільце КМК - Зарічна","type":"route","route":"light_rail","colour":"green","name:uk":"Швидкісний трамвай 3М: Кільце КМК - Зарічна","wikidata":"Q106432004","public_transport:version":"2"},"8765535":{"to":"Кільце КМК","ref":"3М","from":"Зарічна","name":"Швидкісний трамвай 3М: Зарічна - Кільце КМК","type":"route","route":"light_rail","colour":"green","name:uk":"Швидкісний трамвай 3М: Зарічна - Кільце КМК","wikidata":"Q106432004","public_transport:version":"2"}}