{"2254096":{"to":"Буюк Ипак Йули","ref":"1","from":"5","name":"Чиланзарская линия Алмазар - Буюк Ипак Йули","type":"route","route":"subway","colour":"red","name:en":"Chilonzor Line: Olmazar - Buyuk Ipak Yoli","name:ru":"Чиланзарская линия","wikidata":"Q4515924","wikipedia":"uz:Chilonzor yoʻli","public_transport:version":"2"},"2255159":{"to":"Чкалова","ref":"2","from":"Беруни","name":"Узбекистанская линия Беруни - Дустлик","type":"route","route":"subway","colour":"blue","name:en":"Oʻzbekiston Line: Beruniy - Dustlik","name:ru":"Узбекистанская линия Беруни - Дустлик","wikidata":"Q2001449","wikipedia":"en:Oʻzbekiston Line","public_transport:version":"2"},"2456703":{"to":"5","ref":"1","from":"Буюк Ипак Йули","name":"Chilonzor yoʻli","type":"route","route":"subway","colour":"red","name:en":"Chilonzor Line: Buyuk Ipak Yoli - Olmazar","name:ru":"Чиланзарская линия","name:uz":"Chilonzor yoʻli","wikidata":"Q4515924","wikipedia":"uz:Chilonzor yoʻli","public_transport:version":"2"},"2458135":{"to":"Мингурюк","ref":"3","from":"Туркистон","name":"Юнусабадская линия Туркистон - Мингурюк","type":"route","route":"subway","colour":"green","oneway":"yes","name:en":"Yunusobod Line: Turkiston - Ming Orik","wikidata":"Q4534678","wikipedia":"ru:Юнусабадская линия","public_transport:version":"2"},"2458136":{"to":"Туркистон","ref":"3","from":"Мингурюк","name":"Юнусабадская линия Мингурюк - Туркистон","type":"route","route":"subway","colour":"green","oneway":"yes","name:en":"Yunusobod Line: Ming O‘rik - Turkiston","wikidata":"Q4534678","wikipedia":"ru:Юнусабадская линия","public_transport:version":"2"},"2460690":{"to":"Беруни","ref":"2","from":"Чкалова","name":"Узбекистанская линия Дустлик - Беруни","type":"route","route":"subway","colour":"blue","name:en":"Oʻzbekiston Line: Dustlik - Beruniy","name:ru":"Узбекистанская линия Дустлик - Беруни","wikidata":"Q2001449","wikipedia":"en:Oʻzbekiston Line","public_transport:version":"2"},"11649095":{"to":"Texnopark","ref":"4","from":"Qipchok","name":"Circle Line: Qipchok - Texnopark","type":"route","route":"subway","colour":"#9933FF","name:en":"Circle Line: Kipchak - Technopark","name:ru":"Кипчак - Технопарк","network":"Ташкентский метрополитен","wikidata":"Q55663681","public_transport:version":"2"},"11649100":{"to":"Qipchok","ref":"4","from":"Texnopark","name":"Circle Line: Texnopark - Qipchok","type":"route","route":"subway","colour":"#9933FF","name:en":"Circle Line: Technopark - Kipchak","name:ru":"Технопарк - Кипчак","network":"Ташкентский метрополитен","wikidata":"Q55663681","public_transport:version":"2"}}