{"9684066":{"to":"Yên Nghĩa","ref":"2A","from":"Cát Linh","name":"Cát Linh - Hà Đông","type":"route","route":"subway","colour":"#00C000","network":"Hanoi Metro","distance":"13.5km","interval":"10","operator":"Công ty TNHH MTV Đường sắt Hà Nội","wikidata":"Q30919856","roundtrip":"no","wikipedia":"vi:Tuyến số 2A (Đường sắt đô thị Hà Nội)","opening_hours":"Mo-Su 05:00-23:00","public_transport:version":"2"},"9684072":{"to":"Cát Linh","ref":"2A","from":"Yên Nghĩa","name":"Cát Linh - Hà Đông","type":"route","route":"subway","colour":"#00C000","network":"Hanoi Metro","distance":"13.5","interval":"10","operator":"Công ty TNHH MTV Đường sắt Hà Nội","wikidata":"Q30919856","roundtrip":"no","wikipedia":"vi:Tuyến số 2A (Đường sắt đô thị Hà Nội)","opening_hours":"Mo-Su 05:00-23:00","public_transport:version":"2"},"11919222":{"to":"Bến xe Suối Tiên","ref":"1","from":"Bến Thành","name":"Tuyến metro số 1 Bến Thành - Suối Tiên","type":"route","gauge":"1435","layer":"2","route":"subway","colour":"red","name:en":"Ben Thanh - Suoi Tien (Metro Line No. 1)","name:fr":"Bên Thành - Suôi Tiên (ligne N°1 du métro)","name:id":"Jalur Ben Thanh Suoi Tien Metro","name:ja":"ベンタイン－スオイティエン間（1号線）","name:zh":"滨城-水仙地铁线","network":"Ho Chi Minh City Metro","voltage":"1500","distance":"19.1 km","operator":"Ban Quản lý Đường sắt đô thị Thành phố Hồ Chí Minh","wikidata":"Q61132107","wikipedia":"vi:Tuyến số 1 (Đường sắt đô thị Thành phố Hồ Chí Minh)","opening_date":"2024-07"},"11919223":{"to":"Bến xe Suối Tiên","ref":"1","from":"Bến Thành","name":"Bến Thành - Suối Tiên","type":"route","gauge":"1435","layer":"2","route":"subway","colour":"red","name:en":"Ben Thanh - Suoi Tien","name:fr":"Bên Thành - Suoi Tien","name:id":"Ben Thanh - Suoi Tien","name:zh":"滨城-仙泉","network":"Ho Chi Minh City Metro","voltage":"1500","distance":"19.1 km","operator":"Ban Quản lý Đường sắt đô thị Thành phố Hồ Chí Minh","wikidata":"Q61132107","wikipedia":"vi:Tuyến số 1 (Đường sắt đô thị Thành phố Hồ Chí Minh)","opening_date":"2023"},"12989508":{"to":"Cầu Giấy","ref":"3","from":"Nhổn","name":"Nhổn – Ga Hà Nội","type":"route","route":"subway","colour":"#90403E","network":"Hanoi Metro","operator":"Công ty TNHH MTV Đường sắt Hà Nội","wikidata":"Q30641320","wikipedia":"vi:Tuyến số 3 (Đường sắt đô thị Hà Nội)"},"12989509":{"to":"Nhổn","ref":"3","from":"Cầu Giấy","name":"Nhổn – Ga Hà Nội","type":"route","route":"subway","colour":"#90403E","network":"Hanoi Metro","operator":"Công ty TNHH MTV Đường sắt Hà Nội","wikidata":"Q30641320","wikipedia":"vi:Tuyến số 3 (Đường sắt đô thị Hà Nội)"},"14929839":{"name":"Phường Gia Lộc","type":"route","route":"subway","wikidata":"Q10761355","wikipedia":"vi:Gia Lộc (phường)","admin_level":"8"},"17504372":{"to":"Tham Lương","ref":"2","from":"Bến Thành","name":"Bến Thành - Tham Lương","type":"route","route":"subway","name:en":"Ben Thanh - Tham Luong","network":"Ho Chi Minh City Metro","distance":"11.2 km","operator":"MAUR"}}