{"2441790":{"to":"چمن","ref":"N-25","from":"کراچی","name":"قومی شاہراہ 25","type":"route","route":"road","to:ar":"شمن","to:en":"Chaman","to:ur":"چمن","ref:ar":"ط و 25","ref:ur":"این-25","from:ar":"كراتشي","from:en":"Karachi","from:ur":"کراچی","int_ref":"AH7","name:ar":"الطريق الوطني رقم 25","name:en":"N-25 National Highway","name:ur":"قومی شاہراہ 25","network":"PK:national","distance":"813","wikidata":"Q7546976","wikipedia":"ur:قومی شاہراہ 25","int_ref:ar":"ط آ 7","wikipedia:ur":"قومی شاہراہ 25"},"5323067":{"ref":"AH1","url":"http://wiki.openstreetmap.org/wiki/Asia/Asian_Highway_Network","name":"بزرگراه آسیایی شماره ۱","note":"From Islam Qala (Afghanistan border) to Bazargan (Turkey border)","type":"route","route":"road","int_ref":"AH1","name:bn":"এশিয়ান হাইওয়ে ১","name:de":"Asien Fernstraße AH1","name:en":"Asian Highway AH1","name:fr":"Route asiatique AH1","name:hi":"एशियाई राजमार्ग १","name:id":"Jalan Asia AH1","name:ja":"アジアハイウェイ1号線","name:km":"ផ្លូវហាយវេអាស៊ី១","name:ko":"아시안 하이웨이 1호선","name:ms":"Lebuh Raya Asia AH1","name:my":"အာရှအဝေးပြေး ၁","name:ru":"Азиатский маршрут AH1","name:th":"ทางหลวงสายเอเชียAH1","name:tr":"Asya Yolu AH1","name:vi":"Đường Xuyên Á AH1","name:zh":"亚洲公路1号线","network":"AH","section":"Iran","int_name":"Asian Highway AH1","wikidata":"Q494205","wikipedia":"en:AH1"},"5369997":{"name":"بزرگراه آسیایی شماره ۷۱","type":"route","route":"road","int_ref":"AH71","name:en":"Asian Highway AH71","network":"AsianHighway","source:link":"https://www.dodears.info/watch-video-aksar-2-full-movie-watch-online-full-hd-zareen-khan/"},"8325053":{"ref":"РБ04","name":"RB04","type":"route","route":"road","network":"Tajikistan_highways","description":"RB04                                                                                                                                                                                                                                                                                                                                                                                                                                                                                                                                                                                                                                                                                                                                                                                                                                                                                                                                                                                                                                                                                                                                                                                                                                                                                                                                                                                                                                                                                                                                                                                                                                                                                                                                                                                            "},"10517868":{"to":"Afghanistan border","ref":"P-28","from":"Tagtabazar","name":"P-28","type":"route","route":"road"},"14306847":{"ref":"AH1","url":"http://wiki.openstreetmap.org/wiki/Asia/Asian_Highway_Network","name":"د آسیا لویه لاره نمبر 1","note":"From Iran border to Torkham","type":"route","route":"road","int_ref":"AH1","name:bn":"এশিয়ান হাইওয়ে ১","name:de":"Asien Fernstraße AH1","name:en":"Asian Highway AH1","name:fa":"بزرگراه آسیایی شماره ۱","name:fr":"Route asiatique AH1","name:hi":"एशियाई राजमार्ग १","name:id":"Jalan Asia AH1","name:ja":"アジアハイウェイ1号線","name:km":"ផ្លូវហាយវេអាស៊ី១","name:ko":"아시안 하이웨이 1호선","name:ms":"Lebuh Raya Asia AH1","name:my":"အာရှအဝေးပြေး ၁","name:pa":"د آسیا لویه لاره نمبر 1","name:ru":"Азиатский маршрут AH1","name:th":"ทางหลวงสายเอเชียAH1","name:tr":"Asya Yolu AH1","name:vi":"Đường Xuyên Á AH1","name:zh":"亚洲公路1号线","network":"AH","section":"Turkey","int_name":"Asian Highway AH1","wikidata":"Q494205","wikipedia":"en:AH1"},"17495924":{"to":"Gulbahar","via":"Tagab Valley","from":"Surobi","name":"Tagab Road","type":"route","route":"road"},"17496031":{"to":"Shah Khalkar","from":"Gulbahar","name":"Gulbahar to Shah Khalkar","type":"route","route":"road"},"17496051":{"to":"Jabal Siraj","from":"Gulbahar","name":"Gulbahar to Jabal Siraj","type":"route","route":"road"}}