{"102595":{"ref":"E 852","name":"European route E852","type":"route","route":"road","name:en":"European route E852","name:fr":"Route européenne E 852","name:nl":"Europese route E852","name:sk":"Európska cesta E852","network":"e-road","wikidata":"Q2041537","wikipedia":"en:European route E852","description:fr":"E 852 Ohrid - Tirana"},"1844441":{"ref":"E 851","name":"European route E851","type":"route","route":"road","name:de":"Europastraße E851","name:en":"European route E851","name:fr":"Route européenne E 851","name:nl":"Europese route E851","name:sk":"Európska cesta E851","name:sq":"Rruga Evropiane E851","name:sr":"Европски пут Е851","network":"e-road","wikidata":"Q947951","wikipedia":"en:European route E851","description":"E 851 Petrovac - Pristina","name:sr-Latn":"Evropski put E851","description:fr":"E 851 Petrovac - Pristina","description:sr":"E851 Петровац - Приштина","description:sr-Latn":"E851 Petrovac - Priština"},"2820231":{"ref":"E 762","name":"E 762 (CG)","type":"route","route":"road","name:nl":"Europese route E762 (Montenegro)","network":"e-road"},"3458925":{"ref":"SH3","name":"SH3","type":"route","route":"road","colour":"blue"},"3848844":{"ref":"SH1","name":"SH1","type":"route","route":"road"},"3849318":{"ref":"SH2","name":"SH2","type":"route","route":"road"},"3856687":{"ref":"SH7","name":"SH7","type":"route","route":"road"},"3858112":{"ref":"SH4","name":"Rruga shtetërore SH4","type":"route","route":"road"},"3861282":{"ref":"SH56","name":"SH56","type":"route","route":"road"},"3861283":{"ref":"SH85","name":"SH85","type":"route","route":"road"},"3929217":{"ref":"SH41","name":"SH41","type":"route","route":"road","network":"Rruga shtetërore","distance":"12.3","operator":"Ministria e Punëve Publike dhe Transportit"},"5325554":{"ref":"A3","name":"Autostrada shtetërore A3","type":"route","route":"road","name:en":"A3 Motorway","network":"AL:A","operator":"Republika e Shqipërisë","wikidata":"Q789118","operator:wikidata":"Q222"},"5513644":{"ref":"SH8","name":"Rruga shtetërore SH8","type":"route","route":"road"},"7160354":{"ref":"SH38","name":"SH38","type":"route","route":"road"},"12925304":{"ref":"A1","name":"Autostrada shtetërore A1","type":"route","route":"road","name:en":"A1 Motorway","network":"AL:A","alt_name":"Rruga e Kombit","operator":"Republika e Shqipërisë","wikidata":"Q751952","short_name":"SH10","alt_name:en":"Durrës-Kukës Highway","operator:wikidata":"Q222"},"13036789":{"ref":"E 762","name":"E 762 (SQ)","note":"Albania is not fully integrated into E-road network and E 762 officially doesn't go through Albania, but many signs in the county reference it","type":"route","route":"road","name:en":"E 762 (Albania)","name:nl":"Europese route E762 (Albanië)","network":"e-road"},"13952797":{"ref":"A2","name":"Autostrada shtetërore A2","type":"route","route":"road","name:en":"A2 Motorway","network":"AL:A","operator":"Republika e Shqipërisë","wikidata":"Q429374","operator:wikidata":"Q222"},"13983383":{"ref":"SH66","name":"Rruga shtetërore SH66","type":"route","route":"road","network":"Rruga shtetërore","operator":"Republika e Shqipërisë"}}