{"1770166":{"ref":"E 002","name":"European route E 002","type":"route","route":"road","name:en":"European route E 002","name:fr":"Route européenne E 002","name:nl":"Europese route E002","name:ru":"Европейский маршрут E 002","name:tr":"Avrupa E-Yolu E002","network":"e-road","wikidata":"Q2620531","description":"Alyat - Saatli - Mehgri - Ordubad - Djulfa - Nakhchivan - Sadarak","description:fr":"E 002 Alyat - Sadarak"},"1783568":{"name":"Ասիական խճուղի ԱԽ83","type":"route","route":"road","int_ref":"AH83","name:en":"Asian Highway AH83","name:ru":"Азиатский маршрут AH83","network":"AsianHighway","wikidata":"Q12973960","wikipedia":"en:AH83","wikimedia_commons":"Category:AH83"},"5462569":{"ref":"33","name":"جاده ۳۳","type":"route","route":"road","name:en":"Road 33","network":"ir:national","wikidata":"Q10860696","wikipedia":"en:Road 33 (Iran)"},"5941631":{"ref":"E 60","name":"European route E60","type":"route","route":"road","name:ru":"Европейский маршрут E60","network":"e-road"},"6539869":{"name":"Nizami Nərimanov","type":"street","route":"road","name:en":"Nizami Narimanov","name:ru":"Низами Нариманов"},"7474264":{"name":"Yeni Massiv küç.1","type":"route","route":"road"},"11684876":{"name":"Azerbaijan Motorway Network","type":"route","route":"road"},"11754967":{"ref":"Տ-8-23","name":"Տ-8-23","type":"route","route":"road","ref:en":"T-8-23","name:en":"Highway T-8-23","network":"am:national"},"11761319":{"ref":"Տ-8-68","name":"Տ-8-68","type":"route","route":"road","ref:en":"T-8-68","name:en":"Highway T-8-68","network":"am:national"},"11761320":{"ref":"Տ-8-69","name":"Տ-8-69","type":"route","route":"road","ref:en":"T-8-69","name:en":"Highway T-8-69","network":"am:national"},"11762709":{"ref":"Տ-8-81","name":"Տ-8-81","type":"route","route":"road","ref:en":"T-8-81","name:en":"Highway T-8-81","network":"am:national"},"11762710":{"ref":"Տ-8-82","name":"Տ-8-82","type":"route","route":"road","ref:en":"T-8-82","name:en":"Highway T-8-82","network":"am:national"},"11762711":{"ref":"Տ-8-83","name":"Տ-8-83","type":"route","route":"road","ref:en":"T-8-83","name:en":"Highway T-8-83","network":"am:national"},"11763343":{"ref":"Տ-8-104","name":"Տ-8-104","type":"route","route":"road","ref:en":"T-8-104","name:en":"Highway T-8-104","network":"am:national"},"11778058":{"ref":"Տ-10-32","name":"Տ-10-32","type":"route","route":"road","ref:en":"T-10-32","name:en":"Highway T-10-32","network":"am:national"},"11779995":{"ref":"Տ-10-47","name":"Տ-10-47","type":"route","route":"road","ref:en":"T-10-47","name:en":"Highway T-10-47","network":"am:national"},"11871222":{"name":"Zəngilan Rayonu","type":"boundary","route":"road","name:az":"Zəngilan Rayonu","name:en":"Zangilan District","name:fa":"شهرستان زنگیلان","name:hy":"Զանգելանի շրջան","boundary":"administrative","wikidata":"Q249252","ISO3166-2":"AZ-ZAN","admin_level":"5"},"11871223":{"name":"Qubadlı Rayonu","type":"boundary","route":"road","name:az":"Qubadlı Rayonu","name:en":"Qubadli District","name:fa":"شهرستان قبادلی","name:hy":"Կուբաթլուի շրջան","boundary":"administrative","wikidata":"Q644048","ISO3166-2":"AZ-QBI","wikipedia":"en:Qubadli District","admin_level":"5"},"11871224":{"name":"Laçın Rayonu","type":"boundary","route":"road","name:az":"Laçın Rayonu","name:en":"Lachin District","name:fa":"شهرستان لاچین","name:hy":"Լաչինի շրջան","boundary":"administrative","wikidata":"Q301832","ISO3166-2":"AZ-LAC","admin_level":"5"},"13447786":{"to":"Füzuli","from":"Şuşa","name":"Şuşa - Füzuli şossesi","type":"route","route":"road","name:az":"Şuşa - Füzuli şossesi","name:en":"Shusha - Füzuli highway"}}