{"3214989":{"ref":"112","name":"NH112","note":"new number","type":"route","route":"road","network":"IN:NH","wikidata":"Q25207590","wikipedia":"en:National Highway 112 (India)","is_in:state":"WB"},"5990680":{"name":"জাতীয় মহাসড়ক ৫০৯","type":"route","route":"road","name:en":"Bangladesh National Highway N509","alt_name":"N509","wikidata":"Q25587895","wikipedia":"bn:এন৫০৯ (বাংলাদেশ)"},"9435953":{"ref":"R505","name":"নবীনগর-কালিয়াকৈর (চন্দ্রা) সড়ক","type":"route","route":"road","alt_name":"নবীনগর- ইপিজেড - কালিয়াকৈর (চন্দ্রা) সড়ক"},"9468952":{"ref":"R560","name":"আর৫৬০ (বাংলাদেশ)","type":"route","route":"road","name:en":"R560 (Bangladesh)","distance":"57.13","name:en1":"R560","operator":"Bangladesh Road Transport Authority","wikidata":"Q31734439","wikipedia":"bn:আর৫৬০ (বাংলাদেশ)"},"9473653":{"ref":"R570","name":"আর৫৭০ (বাংলাদেশ)","type":"route","lanes":"2","route":"road","length":"15.33","name:en":"R570 (Bangladesh)","alt_name":"সৈয়দপুর - নীলফামারী সড়ক","operator":"Bangladesh Road Transport Authority","wikidata":"Q25587318","wikipedia":"bn:আর৫৭০ (বাংলাদেশ)"},"9481384":{"ref":"N5","name":"এন৫","type":"route","route":"road","length":"526.033 Km","name:en":"N5","network":"National","operator":"Roads and Highways Department","wikidata":"Q17069162","wikipedia":"bn:এন৫ (বাংলাদেশ)"},"9487190":{"ref":"Z5903","name":"Zilla Road Z5903","type":"route","route":"road","distance":"18.1 Km","operator":"Lalmonirhat, (Division Office)"},"9494556":{"ref":"N517","name":"এন৫১৭","type":"route","route":"road","wikidata":"Q25587945","wikipedia":"bn:এন৫১৭ (বাংলাদেশ)"},"9514792":{"ref":"N506","name":"এন৫০৬","type":"route","route":"road","operator":"Road and highway d","wikidata":"Q25587333","wikipedia":"bn:এন৫০৬ (বাংলাদেশ)"},"9619094":{"ref":"N1","name":"ঢাকা-চট্টগ্রাম মহাসড়ক","type":"route","route":"road","symbol":"https://upload.wikimedia.org/wikipedia/commons/7/7c/NH-1_BGD.svg","name:bn":"ঢাকা-চট্টগ্রাম মহাসড়ক","name:en":"Dhaka–Chattogram Highway","network":"BD:national","distance":"465","wikidata":"Q5268768","wikipedia":"bn:এন১ (বাংলাদেশ)","wikipedia:en":"N1 (Bangladesh)"},"10083288":{"ref":"Chattogram-Coxs Bazar Highway","name":"শেখ মুজিব সড়ক","type":"route","route":"road","name:en":"Sheikh Mujib Road","wikidata":"Q15525716","wikipedia":"bn:শেখ মুজিব সড়ক"},"10984308":{"to":"charpata","ref":"charpata -raipur road","from":"raipur","name":"Charapata","type":"route","fixme":"chapata to raipur road ","route":"road","network":"MTN_Mobile_Money","network:type":"Local"},"12207244":{"ref":"এন৮;N8","name":"এন৮","type":"route","route":"road","symbol":"https://upload.wikimedia.org/wikipedia/commons/8/8b/NH-8_BGD.svg","name:en":"N8","network":"BD:national","distance":"205.127","wikidata":"Q6952035","wikipedia":"bn:এন৮ (বাংলাদেশ)","wikipedia:en":"N8 (Bangladesh)"},"13078954":{"name":"Dasherhat","type":"route","route":"road"},"13664589":{"name":"N2 (Bangladesh)","type":"route","route":"road","wikidata":"Q6951934","wikipedia":"en:N2 (Bangladesh)"},"13713529":{"to":"Pirojpur","ref":"R870","from":"Barishal","name":"বরিশাল-পিরোজপুর মহাসড়ক","type":"route","route":"road","name:bn":"বরিশাল-পিরোজপুর মহাসড়ক","name:en":"Barisal- Pirojpur Highway","network":"BD:regional","distance":"64.252","wikidata":"Q110663131","wikipedia":"en:R870 (Bangladesh)"},"13744093":{"ref":"Z8705","name":"Bhandaria-Kanthalia Road","type":"route","route":"road","wikidata":"Q110768281"},"13744438":{"ref":"Z8815","name":"Amua-Mirukhali-Safa Road","type":"route","route":"road","wikidata":"Q110768632"},"14193607":{"to":"Locha","from":"Amtali","name":"Locha No.09 Word, Amtali pourashava","type":"route","route":"road","distance":"4km"},"14743497":{"ref":"R890","name":"Bhola (Paran Talukderhat)-Burhanuddin-Lalmohon-Char FassionChar Manika Road","type":"route","route":"road","distance":"108.785","wikidata":"Q114895400"},"14743702":{"ref":"Z8704","name":"Jhalokati-Nabagram-Gava-Ekshirapara Road","type":"route","route":"road","distance":"18.566","wikidata":"Q114896251"},"14743805":{"ref":"Z8033","name":"Gariarpar-Banaripara-Sawrupkati-Kawkhali-Naikati Road","type":"route","route":"road","distance":"49.360","wikidata":"Q114896468"}}