{"51593":{"ref":"A15","name":"Autoroute de Wallonie","type":"route","route":"road","network":"BE:A-road","operator":"Région wallonne"},"78840":{"to":"Liège","ref":"E 313","from":"Antwerpen","name":"European route E 313","type":"route","route":"road","name:en":"European route E 313","name:fr":"Route européenne E 313","name:nl":"Europese route E313","network":"e-road","wikidata":"Q1375855","description":"E 313 Antwerpen - Liège","e-road:class":"B","description:fr":"E 313 Anvers - Liège","description:nl":"E313 Antwerpen - Luik"},"79765":{"to":"Tournai","ref":"E 403","from":"Zeebruges","name":"Route européenne E 403","type":"route","route":"road","name:en":"European route E 403","name:fr":"Route européenne E 403","name:nl":"Europese route E403","network":"e-road","wikidata":"Q2679997","wikipedia":"nl:Europese weg 403","description:fr":"E 403 Zeebruges - Tournai"},"80523":{"ref":"E 46","name":"European route E 46","type":"route","route":"road","name:en":"European route E 46","name:fr":"Route européenne E 46","name:nl":"Europese route E46","name:sk":"Európska cesta E 46","network":"e-road","wikidata":"Q1375900","wikipedia":"en:European route E46","description":"E 46 Cherbourg - Liège","e-road:class":"A-intermediate","description:fr":"E 46 Cherbourg - Liège"},"86739":{"ref":"E 429","name":"Route européenne E 429","type":"route","route":"road","name:en":"European route E 429","name:fr":"Route européenne E 429","name:nl":"Europese route E429","network":"e-road","alt_name":"La Hennuyère","wikidata":"Q2655746","description:fr":"E 429 Tournai - Hal"},"398268":{"ref":"177","name":"US 177 (super)","type":"route","route":"road","symbol":"http://upload.wikimedia.org/wikipedia/commons/5/5b/US_177.svg","network":"US:US","wikidata":"Q2174907","wikipedia":"en:U.S. Route 177","is_in:state":"OK;KS"},"2574937":{"ref":"E 40","name":"European route 40","type":"route","route":"road","name:en":"European route 40","name:fr":"Route européenne E 40","name:pl":"Trasa europejska 40","network":"e-road","section":"Belgium","wikipedia":"en:European route E40"},"4241857":{"ref":"R24","name":"Contournement Sud","type":"route","route":"road","network":"BE:R-road","wikidata":"Q2050258","wikipedia":"fr:Ring belge R24"},"4759199":{"ref":"R40","name":"Stadsring van Gent","type":"route","route":"road","name:en":"Ghent city ring road","network":"BE:R-road","alt_name":"Binnenring van Gent;Kleine ring rond Gent","wikidata":"Q3066148","wikipedia":"nl:R40 (België)","alt_name:en":"Ghent inner ring road;Ghent small ring road"},"5453165":{"ref":"R23z","name":"Ring rond Leuven-Zuid","type":"route","route":"road","network":"BE:R-road","wikidata":"Q2390715","wikipedia":"nl:R23z (België)","description":"Ring rond Leuven (Naamsepoort -> Parkpoort)"},"5453166":{"ref":"R23","name":"Ring rond Leuven","type":"route","fixme":"order of ways in this route relation; check for gaps, doe sit also include the adjacent bicycle tracks?","route":"road","network":"BE:R-road","wikidata":"Q2634760","wikipedia":"nl:R23 (België)"},"5739889":{"to":"Lauwe","ref":"N58","from":"Dottignies","name":"Boulevard des Alliés","note":"Route has a gap between Lauwe and Geluwe","type":"route","route":"road","network":"BE:N-road","wikidata":"Q2048037","wikipedia":"fr:Route nationale 58 (Belgique)"},"6023196":{"ref":"B501","name":"Bretelle B501","type":"route","route":"road","network":"BE:B-road","wikidata":"Q2720744","wikipedia":"nl:B501 (België)"},"6023222":{"ref":"N5g","name":"N5g","type":"route","route":"road","network":"SOFICO"},"6839261":{"ref":"E 420","name":"Route européenne E 420","type":"route","route":"road","name:en":"European route E 420","name:fr":"Route européenne E 420","name:nl":"Europese route E420","network":"e-road","wikidata":"Q3177582","e-road:class":"B","description:fr":"E 420 Nivelles - Reims"},"10608708":{"to":"Brugge","ref":"N50","from":"Mons","name":"N50","type":"route","fixme":"order of ways in this route relation;check for gaps","route":"road","network":"BE:N-road","wikidata":"Q1975194","wikipedia":"nl:N50 (België)"},"10609642":{"to":"Lichtervelde","ref":"N370","from":"Beernem","name":"N370","type":"route","route":"road","network":"BE:N-road","wikidata":"Q22348428","wikipedia":"nl:N370 (België)"},"12735998":{"to":"Alsemberg","ref":"N231","from":"Sint-Pieters-Leeuw","name":"Alsembergsesteenweg","type":"route","route":"road","name:fr":"Chaussée d'Alsemberg","name:nl":"Alsembergsesteenweg","alt_name":"Steenweg naar Alsemberg","wikidata":"Q106914767","start_date":"1826"},"12736108":{"to":"Alsemberg","ref":"N231","from":"Dworp","name":"Hallesesteenweg","type":"route","route":"road","name:fr":"Chaussée de Hal","name:nl":"Hallesesteenweg","wikidata":"Q106915217"},"12736387":{"to":"Sonian Forest","ref":"N231","from":"Alsemberg","name":"Zoniënwoudlaan - Avenue de la Forêt de Soignes","type":"route","route":"road","name:fr":"Avenue de la Forêt de Soignes","name:nl":"Zoniënwoudlaan","wikidata":"Q106915846"},"13091251":{"to":"Bocholtz (grens Duitsland)","ref":"A76","from":"Elsloo (grens België)","name":"A76","type":"route","route":"road","network":"NL:A","operator":"Rijkswaterstaat","wikidata":"Q1788210","wikipedia":"nl:Rijksweg 76"},"13241694":{"ref":"E 19","name":"E 19","type":"route","route":"road","network":"e-road","section":"France","wikidata":"Q1375828","wikipedia":"en:European route E19"},"13241695":{"ref":"E 19","name":"E 19","type":"route","route":"road","network":"e-road","section":"Belgium","wikidata":"Q1375828","wikipedia":"en:European route E19"},"13252382":{"to":"Terneuzen","ref":"N290","from":"Kapellebrug (grens België)","name":"N290","type":"route","route":"road","network":"NL:N","operator":"Provincie Zeeland","wikidata":"Q2124248","wikipedia":"nl:Provinciale weg 290"},"13252955":{"ref":"E 34","name":"E34 België","type":"route","route":"road","name:de":"E 34 Belgien","name:en":"E 34 Belgium","name:fr":"E34 Belgique","name:nl":"E34 België","nat_ref":"E34","network":"e-road","section":"Belgium","wikidata":"Q819141","wikipedia":"nl:Europese weg 34","e-road:class":"A-intermediate"},"13286775":{"to":"Maasmechelen (grens Nederland)","ref":"E 314","from":"Leuven","name":"E314 België","type":"route","route":"road","name:de":"E 314 Belgien","name:en":"E 314 Belgium","name:nl":"E314 België","nat_ref":"E314","network":"e-road","section":"België","wikidata":"Q669854","wikipedia":"nl:Europese weg 314","e-road:class":"B"},"13286777":{"to":"Bocholtz (grens Duitsland)","ref":"E 314","from":"Elsloo (grens België)","name":"E314 Nederland","type":"route","route":"road","name:de":"E 314 Niederlande","name:en":"E 314 Netherlands","name:nl":"E314 Nederland","nat_ref":"E314","network":"e-road","section":"Nederland","operator":"Rijkswaterstaat","wikidata":"Q669854","wikipedia":"nl:Europese weg 314","e-road:class":"B"},"14617712":{"ref":"8","name":"Shearers Way","type":"superroute","route":"road","network":"AU"},"15600018":{"ref":"N648","name":"N648","type":"route","route":"road","network":"BE:N-road","wikidata":"Q2055719","wikipedia":"nl:N648 (België)"}}