{"5946713":{"ref":"AH48","name":"Asian Highway AH48","type":"route","route":"road","network":"AsianHighway"},"12129848":{"to":"Damthang","from":"Asam","name":"Kyu La route","type":"route","route":"road","highway":"bridleway"},"12129946":{"to":"Damthang","from":"Asam","name":"Langmarpo route","type":"route","route":"road"},"13289431":{"name":"那塘-沈久拉-托加公路","type":"route","route":"road","name:en":"Naktang-Sinchela-Tojia Highway","name:zh":"那塘-沈久拉-托加公路","name:zh_pinyin":"那塘-沈久拉-托加公路"},"13383244":{"name":"alternative TBT route in Thimphu","note":"member of Trans Bhutan Trails, usable only by vehicle","type":"route","route":"road","network":"nwn"},"14153033":{"name":"Baling FR","type":"route","route":"road","distance":"8km"},"14421268":{"name":"Damthang Highway","type":"route","route":"road"},"14434872":{"ref":"AH48","name":"Thimphu to Phuentsholing Highway","type":"route","route":"road"},"14447641":{"name":"加朗桥-沈久拉公路","type":"route","route":"road","name:en":"Sinchela Road","name:zh":"加朗桥-沈久拉公路","name:zh_pinyin":"Jiā lǎng qiáo-shěn jiǔ lā gōnglù"},"14454032":{"name":"Doslinma Road","type":"route","route":"road","name:en":"Doslinma Road","name:zh":"多斯林马公路","name:zh_pinyin":"Duō sīlín mǎ gōnglù"},"14455534":{"name":"Dramana Valley road","type":"route","route":"road","name:en":"Dramana Valley road"},"14455535":{"name":"Upper Shakhatoe road","type":"route","route":"road"}}