{"11760806":{"ref":"RN 1","name":"Route nationale 1","type":"route","route":"road","highway":"trunk","name:de":"RN 1","name:en":"National road RN1","description":"de Bangui, par Bossangoa à Moundou (Tchad)"},"11760807":{"ref":"RN 3","name":"Route nationale 3","type":"route","route":"road","highway":"trunk","name:de":"RN 3","name:en":"National road RN3","name:fr":"Route nationale 3","description":"de l’ouest de la RN 1 à Bossembélé, par Bouar et Baboua à Garoua-Boulaï sur la frontière camerounaise"},"11871951":{"ref":"RN 4","name":"Route nationale 4","type":"route","route":"road","alt_ref":"RN4","highway":"primary","name:de":"RN 4","name:en":"National road RN4","description":"de la RN 2 à Damara, 76 km au nord de Bangui vers le nord par Bouca et Batangafo à Sarh (Tchad)"},"11872009":{"ref":"RN 5","name":"Route nationale 5","type":"route","route":"road","alt_ref":"RN5","highway":"trunk","name:de":"RN 5","name:en":"National road RN5","surface":"unpaved","description":"de l'Est de la RN 8 à Bambari, Ippy, Bria, Ouadda, à Birao sur la RN 8"},"15009033":{"ref":"RN9","name":"Route Nationale 9","type":"route","route":"road","alt_ref":"RN 9","name:de":"RN 9","name:en":"National road RN9","wikidata":"Q115690988","wikipedia":"de:RN 9 (Zentralafrikanische Republik)","description":"de Kongbo (RN 2) à Mobaye"},"15343731":{"ref":"RN11","name":"Route nationale 11","type":"route","route":"road","name:de":"RN 11","name:en":"National road RN11","name:fr":"Route nationale 11","wikidata":"Q115756332","wikipedia":"de:RN 11 (Zentralafrikanische Republik)"},"15343750":{"ref":"RN10","name":"Route nationale 10","type":"route","route":"road","alt_ref":"RN10","name:de":"RN 10","name:en":"National road RN10","name:fr":"Route nationale 11","wikidata":"Q115742189","wikipedia":"de:RN 10 (Zentralafrikanische Republik)","description":"du sud de la RN 6 à Berbérati"},"15343805":{"ref":"RN7","name":"Route nationale 7","type":"route","route":"road","alt_ref":"RN7","name:de":"RN 7","name:en":"National road RN7","name:fr":"Route nationale 7"},"15670134":{"ref":"RN8","name":"Route nationale 8","type":"route","route":"road","alt_ref":"RN8","name:de":"RN 8","name:en":"National road RN8","name:fr":"Route nationale 8","description":"Sibut (N2) – Dékoa – Kaga-Bandoro – Mbrès – Bamingui – Ndélé – Gordil – Ouandja – Tronçon de la N5 – Birao – Am Dafok – Soudan"}}