{"4079271":{"ref":"107","name":"Ruta 107","type":"route","route":"road","highway":"secondary","network":"CR:national"},"4079380":{"ref":"118","name":"Ruta 118","type":"route","route":"road","highway":"secondary"},"4079461":{"ref":"130","name":"Ruta 130","type":"route","route":"road","highway":"secondary","network":"CR:national"},"4079545":{"ref":"146","name":"Ruta 146","type":"route","route":"road","highway":"secondary"},"4079639":{"ref":"120","name":"Ruta 120","type":"route","route":"road","highway":"secondary"},"4080924":{"ref":"10103","name":"Ruta 10103","type":"route","route":"road"},"4099173":{"ref":"123","name":"Ruta 123","type":"route","route":"road","highway":"secondary","network":"CR:national"},"4099202":{"ref":"127","name":"Ruta 127","type":"route","route":"road","highway":"secondary","network":"CR:national"},"4099446":{"ref":"128","name":"Ruta 128","type":"route","route":"road","highway":"secondary","network":"CR:national"},"4099517":{"ref":"129","name":"Ruta 129","type":"route","route":"road","highway":"secondary","network":"CR:national"},"4099540":{"ref":"3","name":"Via 3","type":"route","route":"road"},"4100149":{"ref":"111","name":"Ruta 111","type":"route","route":"road","highway":"secondary","network":"CR:national"},"5674127":{"ref":"718","name":"Ruta 718","type":"route","route":"road","highway":"tertiary","network":"CR:national"},"5674128":{"ref":"719","name":"Ruta 719","type":"route","route":"road","highway":"tertiary","network":"CR:national"},"5674129":{"ref":"727","name":"Ruta 727","type":"route","route":"road","highway":"tertiary","network":"CR:national"},"5676127":{"ref":"114","name":"Ruta 114","type":"route","route":"road","highway":"secondary","network":"CR:national"},"5676128":{"ref":"119","name":"Ruta 119","type":"route","route":"road","highway":"secondary"},"5676129":{"ref":"125","name":"Ruta 125","type":"route","route":"road","highway":"secondary"},"5676130":{"ref":"712","name":"Ruta 712","type":"route","route":"road","highway":"tertiary"},"5676285":{"name":"Ruta Nacional 140","type":"route","route":"road","highway":"secondary"},"5676286":{"ref":"708","name":"Ruta 708","type":"route","route":"road","highway":"tertiary"},"5676611":{"to":"Orotina","ref":"3","from":"San José","name":"Ruta 3","type":"route","route":"road","highway":"primary","network":"CR:national"},"7108460":{"ref":"1","name":"Carretera Interamericana Norte","type":"route","route":"road","name:en":"Pan-American Highway"},"7108686":{"ref":"2","name":"Carretera Interamericana Sur","type":"route","route":"road","network":"CR:national","wikidata":"Q86753383"},"10901391":{"ref":"27","name":"Ruta 27","type":"route","route":"road","network":"CR:national","operator":"Autopistas del Sol","wikidata":"Q17629094"},"11125331":{"ref":"39","name":"Paseo de la Segunda República","type":"route","route":"road","network":"CR:national","wikidata":"Q17629098"},"11125484":{"ref":"126","name":"Ruta 126","type":"route","route":"road","network":"CR:national","wikidata":"Q68110238"},"11128572":{"ref":"147","name":"Ruta 147","note":"Please keep this radial at SECONDARY level, and refer to official designation source: https://sig.mopt.go.cr:8084/geo/index.html","type":"route","route":"road","highway":"secondary","network":"CR:national","wikidata":"Q94999415"},"11132756":{"ref":"10111","name":"Travesía 10111","type":"route","route":"road","network":"CR:national"},"11132798":{"ref":"153","name":"Radial Francisco J. Orlich","type":"route","route":"road","highway":"secondary","network":"CR:national"},"11133837":{"ref":"1","name":"Carretera Interamericana Norte","type":"route","route":"road","network":"CR:national"},"11140611":{"ref":"806","name":"Ruta 806","type":"route","route":"road","network":"CR:national"},"11532579":{"ref":"108","name":"Ruta 108","type":"route","route":"road","highway":"secondary","network":"CR:national","wikidata":"Q96152179"},"11581784":{"ref":"700","name":"Ruta 700","type":"route","route":"road","network":"CR:national","wikidata":"Q98908598"},"11783858":{"to":"Santa Elena","ref":"612","from":"San Vito","name":"Ruta 612","type":"route","route":"road","network":"CR:national","wikidata":"Q96151893"},"11832191":{"ref":"124","name":"Vía 124","type":"route","route":"road","network":"CR:national"},"11832225":{"ref":"34","name":"Carretera Pacífica Fernández Oreamuno","type":"route","route":"road","network":"CR:national"},"11895848":{"ref":"23","name":"Ruta 23","type":"route","route":"road"},"11895896":{"ref":"134","name":"Ruta 134","type":"route","route":"road","network":"CR:national"},"11896020":{"ref":"707","name":"Ruta 707","type":"route","route":"road","network":"CR:national"},"11896392":{"ref":"720","name":"Ruta 720","type":"route","route":"road","network":"CR:national"},"11896449":{"to":"San Ramón","ref":"135","from":"Atenas","name":"Ruta 135","type":"route","route":"road","network":"CR:national"},"11896457":{"to":"Grecia","ref":"716","from":"Atenas","name":"Ruta 716","type":"route","route":"road","network":"CR:national"},"11896482":{"to":"San Ramón","ref":"713","from":"Atenas","name":"Vía 713","type":"route","route":"road","network":"CR:national","alt_name":"Ruta 713"},"11904752":{"ref":"113","name":"Ruta 113","type":"route","route":"road","network":"CR:national"},"11904769":{"ref":"502","name":"Ruta 502","type":"route","route":"road","network":"CR:national"},"11904905":{"ref":"20101","name":"Ruta 20101","type":"route","route":"road","network":"CR:national"},"11905034":{"ref":"319","name":"Ruta 319","type":"route","route":"road","network":"CR:national"},"11925670":{"ref":"122","name":"Ruta 122","type":"route","route":"road","network":"CR:national"},"11999068":{"ref":"417","name":"Ruta 417","type":"route","route":"road","wikidata":"Q96151872","wikipedia":"en:National Route 417 (Costa Rica)"},"12825548":{"to":"Orotina","from":"Frontera con Nicaragua","name":"Camino del Arreo","type":"route","route":"road","description":"Ruta histórica usada por los españoles para introducir el ganado vacuno y otros animales de granja a Costa Rica."},"13632107":{"ref":"154","name":"Ruta 154","type":"route","route":"road"},"16022918":{"ref":"176","via":"176","name":"Ruta176","type":"route","route":"road","network":"CR:national"},"16024779":{"ref":"5","name":"Ruta 5","type":"route","route":"road","network":"CR:national"}}