{"359862":{"ref":"A1","name":"Λευκωσία — Λεμεσός","type":"route","route":"road","name:en":"Nicosia – Limasol","network":"cy:national","operator":"Public Works Department","wikidata":"Q2392955"},"361547":{"ref":"A2","name":"Λευκωσία — Λάρνακα","type":"route","route":"road","name:en":"Nicosia – Larnaca","network":"cy:national","operator":"Public Works Department","wikidata":"Q1810394"},"361736":{"ref":"A3","name":"Αεροδρόμιο Λάρνακας — Αγία Νάπα","type":"route","route":"road","network":"cy:national","operator":"Public Works Department","wikidata":"Q2444354"},"361831":{"ref":"A6","name":"Λεμεσός — Πάφος","type":"route","route":"road","name:en":"Limasol – Paphos","network":"cy:national","operator":"Public Works Department","wikidata":"Q2387085"},"8318083":{"name":"Μακαρίου Γ΄","type":"street","route":"road","name:el":"Μακαρίου Γ΄","name:en":"Makariou III"},"11167912":{"name":"Old Nicosia-Larnaca Road","type":"route","route":"road","description":"Old road between Nicosia and Larnaca before 1974"}}