{"301620":{"ref":"TAH 2","name":"طريق الصحراء السريع","type":"route","route":"road","name:ar":"طريق الصحراء السريع","name:en":"Trans-Sahara Highway","name:fr":"Autoroute transsaharienne","wikidata":"Q1449946","wikipedia":"en:Trans-Sahara Highway"},"2597497":{"to":"مغنية","ref":"RN 35","from":"عين تموشنت","name":"الطريق الوطني رقم 35","type":"route","route":"road","ref:ar":"ط و 35","name:ar":"الطريق الوطني رقم 35","name:fr":"Route nationale 35","network":"DZ:national","operator":"وزارة الأشغال العمومية والنقل"},"2741951":{"name":"Piste Tanezrouft مسار تنزروفت","type":"route","route":"road","name:ar":"مسار تنزروفت","name:de":"Tanezrouftpiste","name:fr":"Piste Tanezrouft","wikidata":"Q2392350","wikipedia":"de:Tanezrouftpiste"},"4079074":{"ref":"RN 7AA","name":"الطويق الوطني رقم 7 أ أ","type":"route","route":"road","ref:ar":"ط و 7 أ أ","name:ar":"الطويق الوطني رقم 7 أ أ","name:fr":"Route nationale 7AA","network":"DZ:national","operator":"وزارة الأشغال العمومية والنقل"},"4079102":{"ref":"CW 38","name":"الطريق الولائي رقم 38","type":"route","route":"road","ref:ar":"ط و 38","highway":"secondary","name:ar":"الطريق الولائي رقم 38","name:fr":"Route Wilayale 38"},"4079147":{"to":"تونان","ref":"CW 8","from":"الغزوات","name":"الطريق الولائي رقم 8","type":"route","route":"road","to:ar":"تونان","ref:ar":"ط ء 8","from:ar":"الغزوات","highway":"secondary","name:ar":"الطريق الولائي رقم 8","name:fr":"Route Wilayale 8","network":"DZ:regional"},"4079329":{"ref":"RN 7A","name":"Route nationale 7A","type":"route","route":"road","ref:ar":"ط و 7أ","ref:fr":"RN 7A","name:ar":"الطريق الوطني 7أ","name:fr":"Route nationale 7A","network":"DZ:national"},"4109910":{"to":"عين الصفراء","ref":"CW 5","from":"ط و 22","name":"الطريق الولائي رقم 5","type":"route","route":"road","ref:ar":"ط ء 5","highway":"secondary","name:ar":"الطريق الولائي رقم 5","name:fr":"Route Wilayale 5","network":"DZ:regional"},"4110013":{"to":"ط و 6 / عين الصفراء","ref":"RN 47","from":"آفلو","name":"الطريق الوطني رقم 47","type":"route","route":"road","ref:ar":"ط و 47","name:ar":"الطريق الوطني رقم 47","name:fr":"Route nationale 47","network":"DZ:national","operator":"وزارة الأشغال العمومية"},"4110054":{"ref":"CW 3","from":"ط و 47","name":"الطريق الولائي رقم 3","type":"route","route":"road","ref:ar":"ط ء 3","highway":"secondary","name:ar":"الطريق الولائي رقم 3","name:fr":"Route Wilayale 3","network":"DZ:regional"},"4110093":{"to":"ط و 47","ref":"RN 6B","from":"ط و 6","name":"الطريق الوطني رقم 6 ب","type":"route","route":"road","ref:ar":"ط و 6 ب","name:ar":"الطريق الوطني رقم 6 ب","name:fr":"Route nationale 6B","network":"DZ:national","operator":"وزارة الأشغال العمومية والنقل"},"4666720":{"to":"حمام ربي","ref":"RN 93","from":"ط و 6 / فروحة","name":"الطريق الوطني رقم 93","type":"route","route":"road","ref:ar":"ط و 93","name:ar":"الطريق الوطني رقم 93","name:fr":"Route nationale 93","network":"DZ:national","operator":"وزارة الأشغال العمومية والنقل","start_date":"1980"},"5673274":{"to":"زوج ابغال","ref":"RN 7","from":"غليزان","name":"الطريق الوطني رقم 7","type":"route","route":"road","ref:ar":"ط و 7","name:ar":"الطريق الوطني رقم 7","name:fr":"Route nationale 7","network":"DZ:national","operator":"وزارة الأشغال العمومية والنقل","start_date":"1940"},"5855673":{"to":"غرداية","ref":"RN 107","from":"البيض","name":"طريق البيض - غرداية","type":"route","route":"road","ref:ar":"ط و 107","name:ar":"طريق البيض - غرداية","name:fr":"Route de Bayadh - Ghardaïa","network":"DZ:national","operator":"وزارة الأشغال العمومية والنقل"},"5855971":{"lit":"yes","ref":"RN 11","name":"Rocade Nord","type":"route","route":"road","ref:ar":"طو 11","name:ar":"التجنب الشمالي","name:fr":"Rocade Nord","network":"DZ:national","surface":"asphalt","operator":"Ministère des Travaux Publics","wikipedia":"fr:Liste des autoroutes de l'Algérie"},"5856976":{"to":"بسكرة","ref":"RN 46","from":"الجلفة","name":"الطريق الوطني رقم 46","type":"route","route":"road","ref:ar":"ط و 46","name:ar":"الطريق الوطني رقم 46","name:fr":"Route nationale 46","network":"DZ:national","operator":"وزارة الأشغال العمومية والنقل"},"5857791":{"to":"جانت","ref":"RN 3","from":"سكيكدة","name":"طريق الطاسيلي","type":"route","route":"road","to:ar":"جانت","to:fr":"Djanet","ref:ar":"ط و 3","from:ar":"سكيكدة","from:fr":"Skikda","name:ar":"طريق الطاسيلي","name:fr":"La route du Tassili","network":"DZ:national","alt_name":"الطريق الوطني رقم 3;طريق وطني 3","distance":"2120","wikidata":"Q16673723","wikipedia":"ar:الطريق الوطني رقم 3 (الجزائر)","alt_name:ar":"الطريق الوطني رقم 3;طريق وطني 3"},"5862033":{"to":"El Hadaiek","ref":"RN 43","from":"Souk El Ténine","name":"RN 43","type":"route","route":"road","ref:ar":"ط و 43","name:ar":"الطريق الوطني رقم 43","network":"DZ:national"},"5862282":{"to":"Laghouat الأغواط","ref":"RN 23","from":"Mostaganem مستغانم","name":"RN 23","type":"route","route":"road","to:ar":"الأغواط","to:fr":"Laghouat","ref:ar":"ط و 23","from:ar":"مستغانم","from:fr":"Mostaganem","name:ar":"الطريق الوطني رقم 23","network":"DZ:national","operator":"وزارة الأشغال العمومية والنقل"},"5863380":{"ref":"RN 02","name":"طريق بنو زيان","type":"route","route":"road","ref:ar":"ط و 2","name:ar":"طريق بنو زيان","name:fr":"La route des Zianides","network":"DZ:national","operator":"وزير الأشغال العمومية والنقل"},"5863533":{"to":"تقرت","ref":"RN 16","from":"عنابة","name":"طريق سوف","type":"route","route":"road","to:ar":"تقرت","ref:ar":"ط و 16","from:ar":"عنابة","name:ar":"طريق سوف","name:fr":"La route du Souf","network":"DZ:national","operator":"وزارة الأشغال العمومية والنقل","operator:ar":"وزارة الأشغال العمومية والنقل","operator:wikidata":"Q3073286","operator:wikipedia":"ar:وزارة النقل (الجزائر)"},"5867251":{"to":"عين قزام","ref":"RN 1","from":"الجزائر","name":"Route transsaharienne","type":"route","route":"road","to:ar":"عين قزام","to:fr":"In Guezzam","ref:ar":"ط و 1","from:ar":"الجزائر","from:fr":"Alger","int_ref":"TAH 2","name:ar":"الطريق العابر للصحراء","name:en":"Trans-Sahara Highway","name:fr":"Route transsaharienne","network":"DZ:national","distance":"2172","wikidata":"Q1449946","int_ref:ar":"ط س 2","alt_name:ar":"الطريق العابرة للصحراء","old_name:ar":"طريق الاتحاد الأفريقي","old_name:fr":"Route de l'union africain"},"5868200":{"ref":"CW 49","name":"الطريق الولائي رقم 49","type":"route","route":"road","ref:ar":"ط ء 49","name:ar":"الطريق الولائي رقم 49","name:fr":"Chemin de Wilaya 49","network":"DZ:regional","operator":"وزارة الأشغال العمومية والنقل"},"5872825":{"to":"بوشبكة","ref":"RN 10","from":"أولاد رحمون","name":"الطريق الوطني رقم 10","type":"route","route":"road","ref:ar":"ط و 10","name:ar":"الطريق الوطني رقم 10","name:fr":"Route nationale 10","network":"DZ:national","operator":"وزارة الأشغال العمومية والنقل"},"5873057":{"to":"سور الغزلان","ref":"RN 62","from":"حناشة","name":"حناشة - سور الغزلان","type":"route","route":"road","ref:ar":"ط و 62","name:ar":"حناشة - سور الغزلان","name:fr":"Hannacha - Sour El-Ghozlane","network":"DZ:national","distance":"123","operator":"وزارة الأشغال العمومية والنقل","operator:ar":"وزارة الأشغال العمومية والنقل","operator:wikidata":"Q3073286","operator:wikipedia":"ar:وزارة النقل (الجزائر)"},"5873074":{"to":"ورقلة","ref":"RN 56","from":"تقرت","name":"تقرت - ورقلة","type":"route","route":"road","ref:ar":"ط و 56","name:ar":"تقرت - ورقلة","name:fr":"Touggourt - Ouargla","network":"DZ:national","surface":"asphalt","distance":"70","operator":"وزارة الأشغال العمومية والنقل","operator:ar":"وزارة الأشغال العمومية والنقل","operator:wikidata":"Q3073286","operator:wikipedia":"ar:وزارة النقل (الجزائر)"},"5873260":{"to":"Oran","ref":"RN 11","from":"Alger","name":"Alger - Oran","type":"route","route":"road","ref:ar":"ط و 11","name:ar":"الجزائر - وهران","name:en":"Alger - Oran","network":"DZ:national","distance":"416","operator":"وزارة الأشغال العمومية والنقل"},"5873304":{"to":"سيدي عمار","ref":"RN 67","from":"تسالة المرجة","name":"الطريق الوطني رقم 67","type":"route","route":"road","to:ar":"سيدي عمار","to:fr":"Sidi Amar","ref:ar":"ط و 67","from:ar":"تسالة المرجة","from:fr":"Tessala El Merdja","name:ar":"الطريق الوطني رقم 67","name:fr":"Route nationale 67","network":"DZ:national","distance":"67","operator":"وزارة الأشغال العمومية والنقل"},"5912845":{"to":"تيمياوين","ref":"RN 6","from":"سيق","name":"طريق الساورة","type":"route","route":"road","ref:ar":"ط و 6","name:ar":"طريق الساورة","name:en":"The Saoura road","name:fr":"La route de la Saoura","network":"DZ:national","operator":"وزارة الأشغال العمومية والنقل","start_date":"1879","operator:ar":"وزارة الأشغال العمومية والنقل","name:etymology":"الساورة","operator:wikidata":"Q3073286","operator:wikipedia":"ar:وزارة النقل (الجزائر)","operator:wikipedia:ar":"وزارة النقل (الجزائر)","name:etymology:wikidata":"Q3473104","name:etymology:wikipedia":"ar:الساورة"},"5915218":{"to":"Bejaïa","lit":"yes","ref":"RN 24","from":"Bordj El Kiffan","name":"Route de Béjaïa","note":"please do not remove","type":"route","route":"road","ref:ar":"طو 24","source":"Algerie Mapper Team (Superadlen)","name:ar":"طريق بجاية","network":"DZ:national","surface":"asphalt","distance":"258","operator":"Ministère des Travaux Publics","smoothness":"good"},"5937859":{"to":"حاسي مسعود","ref":"RN 49","from":"غرداية","name":"غرداية - حاسي مسعود","type":"route","route":"road","ref:ar":"ط و 49","name:ar":"غرداية - حاسي مسعود","name:en":"Ghardaïa - Hassi Messaoud","name:fr":"Ghardaïa - Hassi Messaoud","network":"DZ:national","operator":"وزارة الأشغال العمومية والنقل","operator:ar":"وزارة الأشغال العمومية والنقل","operator:website":"http://aaca.mtpt.gov.dz/mtpt2019/","operator:wikidata":"Q3073286","operator:wikipedia":"ar:وزارة النقل (الجزائر)"},"5973577":{"to":"Bou Saâda","ref":"RN 8","from":"Alger","name":"Alger - Bou Saâda","type":"route","route":"road","ref:ar":"طو 8","name:ar":"الجزائر - بوسعادة","network":"DZ:national","surface":"asphalt","alt_name":"La route des moutons","distance":"243","operator":"Ministère des Travaux Publics","smoothness":"good","start_date":"1879","alt_name:ar":"طريق الأغنام"},"5973717":{"to":"Sétif","ref":"RN 9","from":"Béjaïa","name":"Béjaïa - Sétif","type":"route","route":"road","to:ar":"سطيف","to:fr":"Sétif","ref:ar":"طو 9","ref:fr":"RN 9","from:ar":"بجاية","from:fr":"Béjaïa","highway":"primary","name:ar":"بجاية - سطيف","name:fr":"Béjaïa - Sétif","network":"DZ:national","start_date":"1879"},"5977577":{"to":"Béjaïa","ref":"RN 12","from":"Thenia","name":"Route de la Kabylie","type":"route","route":"road","ref:ar":"ط و 12","name:ar":"طريق القبائل","name:fr":"Route de la Kabylie","network":"DZ:national","alt_name:ar":"طريق الجزائر"},"5982019":{"to":"El Aricha العريشة","ref":"RN 13","from":"Arzew أرزيو","name":"Route de l'Atlas","type":"route","route":"road","ref:ar":"ط و 13","name:ar":"طريق الأطلس","network":"DZ:national","distance":"350","operator":"وزارة الأشغال العمومية والنقل"},"5982731":{"to":"Mascara","ref":"RN 14","from":"Miliana","name":"Route de l'Ouarsenis","type":"route","route":"road","ref:ar":"ط و 14","name:ar":"طريق الونشريس","name:fr":"Route de l'Ouarsenis","network":"DZ:national","distance":"360","operator":"وزارة الأشغال العمومية","wikidata":"Q65123558","wikipedia":"fr:Route nationale 14 (Algérie)"},"5982816":{"to":"سفيزف","ref":"RN 17","from":"مستغانم","name":"طريق الحمامات المعدنية","type":"route","route":"road","ref:ar":"ط و 17","highway":"primary","name:ar":"طريق الحمامات المعدنية","name:fr":"La route des thermes","network":"DZ:national","distance":"95","operator":"وزارة الأشغال العمومية والنقل"},"5986879":{"to":"Tissemsilt","ref":"RN 19","from":"Ténès","name":"Route nationale 19","type":"route","route":"road","ref:ar":"ط و 19","name:ar":"الطريق الوطني رقم 19","network":"DZ:national","distance":"170","operator":"وزارة الأشغال العمومية والنقل"},"5987010":{"to":"عين الزانة - الحدود تونس","ref":"RN 20","from":"الخروب","name":"الطريق الوطني 20","type":"route","route":"road","ref:ar":"طو 20","ref:es":"RN20","name:ar":"الطريق الوطني 20","name:es":"Ruta Nacional 20","name:fr":"Route Nationale 20","network":"DZ:national","distance":"275","operator":"وزارة الأشغال العمومية والنقل","wikidata":"Q16024503","start_date":"1915"},"5987689":{"to":"Guelma قالمة","ref":"RN 21","from":"El-Hadjar الحجار","name":"RN 21","type":"route","route":"road","colour":"red","ref:ar":"ط و 21","name:ar":"الطريق الوطني رقم 21","network":"DZ:national","distance":"55"},"5987749":{"to":"المشرية","ref":"RN 22","from":"بني صاف","name":"الطريق الوطني رقم 22","type":"route","route":"road","colour":"red","ref:ar":"ط و 22","name:ar":"الطريق الوطني رقم 22","name:fr":"Route nationale 22","network":"DZ:national","distance":"333","operator":"وزارة الأشغال العمومية والنقل"},"5993913":{"to":"الروراوة","ref":"RN 25","from":"تاقدمت","name":"الطريق الوطني رقم 25","type":"route","route":"road","to:ar":"الروراوة","to:fr":"Raouraoua","ref:ar":"ط و 25","from:ar":"تاقدمت","from:fr":"Tagdemt","name:ar":"الطريق الوطني رقم 25","name:fr":"Route nationale 25","network":"DZ:national","distance":"131","operator":"وزارة الأشغال العمومية والنقل"},"5994751":{"to":"Oran","ref":"RN 4","from":"Boufarik","name":"Route de l'Oranais","type":"route","route":"road","ref:ar":"ط و 4","name:ar":"طريق وهران","name:fr":"Route de l'Oranais","network":"DZ:national","distance":"497","operator":"وزارة الأشغال العمومية","wikidata":"Q30745847","wikipedia":"fr:Route nationale 4 (Algérie)","start_date":"1864"},"5997917":{"to":"الميلية","ref":"RN 27","from":"قسنطينة","name":"الطريق الوطني رقم 27","type":"route","route":"road","to:ar":"الميلية","to:fr":"El Milia","ref:ar":"ط و 27","from:ar":"قسنطينة","from:fr":"Constantine","name:ar":"الطريق الوطني رقم 27","network":"DZ:national","distance":"65","operator":"وزارة الأشغال العمومية والنقل","operator:ar":"وزارة الأشغال العمومية والنقل","operator:wikidata":"Q3073286","operator:wikipedia":"ar:وزارة النقل (الجزائر)"},"5997934":{"to":"سطيف","ref":"RN 28","from":"عين التوتة","name":"الطريق الوطني رقم 28","type":"route","route":"road","ref:ar":"ط و 28","name:ar":"الطريق الوطني رقم 28","name:fr":"Route nationale n ° 28","network":"DZ:national","distance":"220","operator":"وزارة الأشغال العمومية والنقل","operator:ar":"وزارة الأشغال العمومية والنقل","operator:website":"http://aaca.mtpt.gov.dz/mtpt2019/","operator:wikidata":"Q3073286","operator:wikipedia":"ar:وزارة النقل (الجزائر)"},"5997990":{"to":"البليدة","ref":"RN 29","from":"الأخضرية","name":"الطريق الوطني رقم 29","type":"route","route":"road","ref:ar":"ط و 29","name:ar":"الطريق الوطني رقم 29","name:fr":"Route nationale 29","network":"DZ:national","distance":"100","operator":"وزارة الأشغال العمومية والنقل"},"5998010":{"to":"ذراع الميزان","ref":"RN 30","from":"مشد الله","name":"Route nationale 30","type":"route","route":"road","ref:ar":"ط و 30","name:ar":"الطريق الوطني رقم 30","network":"DZ:national","distance":"95","operator":"وزارة الأشغال العمومية والنقل"},"5998022":{"to":"بسكرة","ref":"RN 31","from":"باتنة","name":"الطريق الوطني رقم 31","type":"route","route":"road","ref:ar":"ط و 31","name:ar":"الطريق الوطني رقم 31","network":"DZ:national","distance":"170","operator":"وزارة الأشغال العمومية والنقل","operator:ar":"وزارة الأشغال العمومية والنقل","operator:wikidata":"Q3073286","operator:wikipedia":"ar:وزارة النقل (الجزائر)"},"5998062":{"to":"تيكجدة","ref":"RN 33","from":"البويرة","name":"طريق تيكجدة","type":"route","route":"road","ref:ar":"ط و 33","name:ar":"طريق تيكجدة","name:fr":"Route de Tikejda","network":"DZ:national","distance":"45","operator":"وزارة الأشغال العمومية والنقل"},"5998069":{"to":"ط و 12","ref":"RN 34","from":"آدكار","name":"طريق أكفادو","type":"route","route":"road","ref:ar":"ط و 34","name:ar":"طريق أكفادو","name:en":"Akfadou Road","name:fr":"Route de l'Akfadou","network":"DZ:national","distance":"40","operator":"وزارة الأشغال العمومية والنقل"},"5998114":{"to":"عين تموشنت","ref":"RN 35","from":"مغنية","name":"الطريق الوطني رقم 35","type":"route","route":"road","ref:ar":"ط و 35","name:ar":"الطريق الوطني رقم 35","network":"DZ:national","distance":"133","operator":"وزارة الأشغال العمومية والنقل"},"5998122":{"to":"تسالة المرجة","ref":"RN 36","from":"الأبيار","name":"طريق الساحل الجزائري","type":"route","route":"road","ref:ar":"ط و 36","name:ar":"طريق الساحل الجزائري","name:fr":"La route du Sahel algérois","network":"DZ:national","distance":"23","operator":"وزارة الأشغال العمومية والنقل"},"5998139":{"to":"الشريعة","ref":"RN 37","from":"البليدة","name":"طريق الشريعة","type":"route","route":"road","ref:ar":"ط و 37","name:ar":"طريق الشريعة","name:fr":"Route de Chréa","network":"DZ:national","distance":"18","operator":"وزارة الأشغال العمومية والنقل"},"5998141":{"to":"بابا علي","ref":"RN 38","from":"الحراش","name":"الطريق الوطني رقم 38","type":"route","route":"road","ref:ar":"ط و 38","name:ar":"الطريق الوطني رقم 38","name:fr":"Route nationale 38","network":"DZ:national","distance":"9","operator":"وزارة الأشغال العمومية والنقل","operator:ar":"وزارة الأشغال العمومية والنقل","operator:wikidata":"Q3073286","operator:wikipedia":"ar:وزارة النقل (الجزائر)"},"5998166":{"to":"مقرة","ref":"RN 40","from":"دحموني","name":"الطريق الوطني رقم 40","type":"route","route":"road","ref:ar":"ط و 40","name:ar":"الطريق الوطني رقم 40","name:fr":"Route nationale n ° 40","network":"DZ:national","distance":"390","operator":"وزارة الأشغال العمومية والنقل","operator:ar":"وزارة الأشغال العمومية والنقل","operator:wikidata":"Q3073286","operator:wikipedia":"ar:وزارة النقل (الجزائر)"},"5998195":{"to":"سطاوالي","ref":"RN 41","from":"الأبيار","name":"الطريق الوطني رقم 41","type":"route","route":"road","ref:ar":"ط و 41","name:ar":"الطريق الوطني رقم 41","name:fr":"Route nationale 41","network":"DZ:national","distance":"21","operator":"وزارة الأشغال العمومية والنقل","operator:ar":"وزارة الأشغال العمومية والنقل","operator:wikidata":"Q3073286","operator:wikipedia":"ar:وزارة النقل (الجزائر)"},"5998201":{"to":"الناظور","ref":"RN 42","from":"الشفة","name":"الطريق الوطني رقم 42","type":"route","route":"road","ref:ar":"ط و 42","name:ar":"الطريق الوطني رقم 42","name:fr":"Route nationale 42","network":"DZ:national","distance":"40","operator":"وزارة الأشغال العمومية والنقل","operator:ar":"وزارة الأشغال العمومية والنقل","operator:wikidata":"Q3073286","operator:wikipedia":"ar:وزارة النقل (الجزائر)"},"5998547":{"to":"El Ayoun (Tunisie)","ref":"RN 44","from":"Skikda","name":"الطريق الوطني رقم 44","type":"route","route":"road","ref:ar":"ط و 44","name:ar":"الطريق الوطني رقم 44","name:fr":"Route nationale 44","network":"DZ:national","distance":"320"},"5998551":{"to":"Bou Saâda","ref":"RN 45","from":"Bordj Bou Arreridj","name":"RN 45","type":"route","route":"road","ref:ar":"ط و 45","name:ar":"الطريق الوطني رقم 45","network":"DZ:national","distance":"150","operator":"وزارة الأشغال العمومية والنقل"},"5998562":{"to":"طالب العربي","ref":"RN 48","from":"اسطيل","name":"الطريق الوطني رقم 48","type":"route","route":"road","ref:ar":"ط و 48","name:ar":"الطريق الوطني رقم 48","name:fr":"Route nationale n ° 48","network":"DZ:national","distance":"200","operator":"وزارة الأشغال العمومية والنقل","addr:city":"TAGHZOUT","addr:state":"EL OUED","addr:daïra":"GUEMAR","addr:suburb":"قمار","addr:city:ar":"تغزوت","addr:country":"DZ"},"5998589":{"to":"شناشن","ref":"RN 50","from":"ط و 6","name":"الطريق الوطني رقم 50","type":"route","route":"road","ref:ar":"ط و 50","name:ar":"الطريق الوطني رقم 50","name:fr":"Route nationale 50","network":"DZ:national","distance":"1254","operator":"وزارة الأشغال العمومية والنقل"},"6012403":{"to":"ط و 1","ref":"RN 51","from":"السبع","name":"الطريق الوطني رقم 51","type":"route","route":"road","ref:ar":"ط و 51","name:ar":"الطريق الوطني رقم 51","name:fr":"Route nationale 51","network":"DZ:national","distance":"430","operator":"وزارة الأشغال العمومية والنقل"},"6012409":{"to":"عين صالح","ref":"RN 52","from":"رقان","name":"الطريق الوطني رقم 52","type":"route","route":"road","ref:ar":"ط و 52","name:ar":"الطريق الوطني رقم 52","name:fr":"Route nationale 52","network":"DZ:national","distance":"250","operator":"وزارة الأشغال العمومية والنقل"},"6020952":{"to":"عين سخونة","ref":"RN 92","from":"تلموني","name":"الطريق الوطني رقم 92","type":"route","route":"road","ref:ar":"ط و 92","name:ar":"الطريق الوطني رقم 92","network":"DZ:national","distance":"178","operator":"وزارة الأشغال العمومية والنقل","start_date":"1980","operator:ar":"وزارة الأشغال العمومية والنقل","operator:website":"http://aaca.mtpt.gov.dz/mtpt2019/","operator:wikidata":"Q3073286","operator:wikipedia":"ar:وزارة النقل (الجزائر)"},"6021661":{"to":"عين تالوت","ref":"RN 94","from":"ط و 14","name":"الطريق الوطني رقم 94","type":"route","route":"road","ref:ar":"ط و 94","name:ar":"الطريق الوطني رقم 94","network":"DZ:national","distance":"163","operator":"وزارة الأشغال العمومية والنقل"},"6023672":{"to":"ط و 3","ref":"RN 53","from":"ط و 53 أ","name":"الطريق الوطني رقم 53","type":"route","route":"road","ref:ar":"ط و 53","name:ar":"الطريق الوطني رقم 53","network":"DZ:national","distance":"413","operator":"وزارة الأشغال العمومية والنقل"},"6023673":{"to":"البرمة","ref":"RN 53A","from":"حاسي مسعود","name":"الطريق الوطني رقم 53 أ","type":"route","route":"road","ref:ar":"ط و 53 أ","name:ar":"الطريق الوطني رقم 53 أ","name:fr":"Route nationale 53A","network":"DZ:national","distance":"340","operator":"وزارة الأشغال العمومية والنقل","start_date":"1985"},"6023681":{"ref":"RN 54","name":"الطريق الوطني رقم 54","type":"route","route":"road","ref:ar":"ط و 54","name:ar":"الطريق الوطني رقم 54","name:fr":"Route nationale 54","network":"DZ:national","operator":"وزارة الأشغال العمومية والنقل"},"6023686":{"ref":"RN 55","name":"الطريق الوطني رقم 55","type":"route","route":"road","ref:ar":"ط و 55","name:ar":"الطريق الوطني رقم 55","name:fr":"Route nationale 55","network":"DZ:national","operator":"وزارة الأشغال العمومية والنقل","operator:ar":"وزارة الأشغال العمومية والنقل","operator:wikidata":"Q3073286","operator:wikipedia":"ar:وزارة النقل (الجزائر)"},"6023687":{"ref":"RN 55A","name":"الطريق الوطني رقم 55 أ","type":"route","route":"road","ref:ar":"ط و 55 أ","highway":"primary","name:ar":"الطريق الوطني رقم 55 أ","name:fr":"Route nationale 55 A","network":"DZ:national","operator":"وزارة الأشغال العمومية والنقل"},"6023703":{"ref":"RN 60","name":"الطريق الوطني رقم 60","type":"route","route":"road","ref:ar":"ط و 60","name:ar":"الطريق الوطني رقم 60","name:fr":"Route nationale 60","network":"DZ:national","operator":"وزارة الأشغال العمومية والنقل"},"6029895":{"to":"تاغيت","ref":"RN 110","from":"بشار","name":"الطريق الوطني رقم 110","type":"route","route":"road","to:ar":"تاغيت","ref:ar":"ط و 110","from:ar":"بشار","name:ar":"الطريق الوطني رقم 110","network":"DZ:national","distance":"65","operator":"وزارة الأشغال العمومية والنقل الجزائرية","start_date":"2011","operator:ar":"وزارة الأشغال العمومية والنقل الجزائرية","operator:wikidata":"Q3073286","operator:wikipedia":"ar:وزارة النقل (الجزائر)","operator:wikipedia:ar":"وزارة النقل (الجزائر)"},"6050683":{"ref":"RN 47","name":"طريق آفلو - البيض","type":"route","route":"road","ref:ar":"ط و 47","name:ar":"طريق آفلو - البيض","name:fr":"Route Aflou - El Bayadh","network":"DZ:national","operator":"وزارة الأشغال العمومية"},"6102190":{"to":"Beni Haoua","ref":"RN 65","from":"Theniet El Had","name":"Theniet El Had > Beni Haoua","type":"route","route":"road","ref:ar":"طو 65","network":"DZ:national","distance":"137","operator":"Ministère des Travaux Publics"},"6118854":{"ref":"RN 41","name":"El Biar > Staoueli","type":"route","route":"road","ref:ar":"طو 41"},"6134730":{"from":"Le Caire","name":"Transafricaine 1 Le Caire - Dakar","type":"route","route":"road","name:ar":"الطريق السريع عبر أفريقيا 1 (الجزائر)","name:en":"Trans-African Highway 1 (Algeria)","int_name":"East-West Highway Algeria","wikipedia":"fr:Réseau des routes transafricaines#Transafricaine 1 (TAH 1), Le Caire - Dakar, 8636 km","destination":"Dakar"},"6333031":{"ref":"CW 4","name":"CW 4","type":"route","route":"road","ref:ar":"ط ء 4","name:ar":"ط ء 4"},"6547049":{"to":"زوج ابغال","ref":"RN 7","from":"غليزان","name":"الطريق الوطني رقم 7","type":"route","route":"road","ref:ar":"ط و 7","name:ar":"الطريق الوطني رقم 7","name:fr":"Route nationale 7","network":"DZ:national","operator":"وزارة الأشغال العمومية والنقل","start_date":"1940"},"6656949":{"name":"Rue du 17 Octobre 1961","type":"route","route":"road"},"6680723":{"ref":"ط و 5","name":"شارع أول نوفمبر","type":"route","route":"road","ref:ar":"ط و 5","name:ar":"شارع أول نوفمبر","name:fr":"Boulevard du 1er Novembre","surface":"asphalt","operator":"وزارة الأشغال العمومية والنقل","operator:ar":"وزارة الأشغال العمومية والنقل","operator:wikidata":"Q3073286","operator:wikipedia":"ar:وزارة النقل (الجزائر)"},"6682882":{"ref":"ط و 16 أ;ط ء 120","name":"شارع أول نوفمبر","type":"route","route":"road","ref:ar":"ط و 16 أ;ط ء 120","name:ar":"شارع أول نوفمبر","name:fr":"Rue du 1er Novembre","name:etymology":"بيان أول نوفمبر 1954","name:etymology:wikidata":"Q3042712","name:etymology:wikipedia":"ar:بيان أول نوفمبر 1954"},"6783197":{"ref":"CW 143","name":"Rue du 11 Décembre 1960","type":"route","route":"road","name:ar":"شارع 11 ديسمبر 1960","name:fr":"Rue du 11 Décembre 1960"},"6819647":{"ref":"2e RSA","name":"Deuxième rocade Sud d'Alger","type":"route","route":"road","detour":"RN 5","operator":"Ministère des Transports","destination":"Staoueli"},"6819774":{"ref":"RN 8","name":"La route des moutons","type":"route","route":"road","ref:ar":"طو 8","name:ar":"طريق الأغنام","network":"routes nationales de l'Algérie","operator":"Ministère des Transports"},"7032775":{"name":"3e Boulevard Périphérique","type":"route","route":"road","name:ar":"النهج المحيطي الثالث","name:fr":"3e Boulevard Périphérique"},"7126884":{"to":"بشار","ref":"RN6","from":"سعيدة","name":"الطريق الوطني رقم 6","type":"route","route":"road","ref:ar":"ط و 6","name:ar":"الطريق الوطني رقم 6","name:fr":"Route nationale 6","network":"DZ:national","operator":"وزارة الأشغال العمومية والنقل"},"7158532":{"to":"قسنطينة","ref":"RN 5","from":"الجزائر","name":"الطريق الوطني رقم 5","type":"route","route":"road","ref:ar":"ط و 5","name:ar":"الطريق الوطني رقم 5","name:fr":"Route nationale 5","network":"DZ:national","surface":"asphalt","operator":"وزارة الأشغال العمومية والنقل"},"7596272":{"to":"دواودة","ref":"RN 69","from":"البليدة","name":"البليدة - دواودة","type":"route","route":"road","ref:ar":"ط و 69","name:ar":"البليدة - دواودة","name:fr":"Blida - Douaouda","network":"DZ:national","operator":"وزارة الأشغال العمومية والنقل"},"7624578":{"name":"4e Rocade d'Oran","type":"route","route":"road","name:ar":"الطريق الاجتنابي الرابع لوهران","name:fr":"4e Rocade d'Oran"},"7631081":{"name":"Autoroute Alger - Tipaza","type":"route","route":"road","name:ar":"الطريق السيار الجزائر - تيبازة","name:fr":"Autoroute Alger - Tipaza"},"7698929":{"name":"Pénétrante de Béjaïa","type":"route","route":"road","name:ar":"الطريق السيار لبجاية","name:fr":"Pénétrante de Béjaïa","name:ber":"ⴰⴲⵔⵉⴸ ⴰⵎⴰⵣⵣⴰⵍ ⵏ ⴲⴳⴰⵢⴻⵝ","name:kab":"Abrid amazzal n Bgayet"},"7747406":{"to":"بوفاريك","ref":"RN 61","from":"وادي السمار","name":"الطريق الوطني رقم 61","type":"route","route":"road","ref:ar":"طو 61","name:ar":"الطريق الوطني رقم 61","name:fr":"Route nationale 61","network":"DZ:national","distance":"34","operator":"وزارة الأشغال العمومية والنقل"},"7747414":{"to":"سور الغزلان","ref":"RN 62","from":"حناشة","name":"الطريق الوطني رقم 62","type":"route","route":"road","ref:ar":"ط و 62","name:ar":"الطريق الوطني رقم 62","network":"DZ:national","distance":"123","operator":"وزارة الأشغال العمومية والنقل","operator:ar":"وزارة الأشغال العمومية والنقل","operator:wikidata":"Q3073286","operator:wikipedia":"ar:وزارة النقل (الجزائر)"},"7747845":{"to":"زرالدة","ref":"RN 63","from":"جسر قسنطينة","name":"الطريق الوطني رقم 63","type":"route","route":"road","ref:ar":"ط و 63","name:ar":"الطريق الوطني رقم 63","name:fr":"Route nationale 63","network":"DZ:national","distance":"40","operator":"وزارة الأشغال العمومية والنقل"},"9303163":{"to":"تبسة","ref":"RN 83","from":"بسكرة","name":"الطريق الوطني رقم 83","type":"route","route":"road","ref:ar":"ط و 83","name:ar":"الطريق الوطني رقم 83","name:fr":"Route nationale 83","network":"DZ:national"},"9306795":{"to":"خنشلة","ref":"RN 32","from":"أم البواقي","name":"طريق خنشلة","type":"route","route":"road","ref:ar":"ط و 32","name:ar":"طريق خنشلة","name:fr":"Route de khenchela","network":"DZ:national","operator":"وزارة الأشغال العمومية والنقل","operator:ar":"وزارة الأشغال العمومية والنقل","operator:wikidata":"Q3073286","operator:wikipedia":"ar:وزارة النقل (الجزائر)"},"9629736":{"to":"بابار","ref":"RN 80","from":"عين شرشار","name":"الطريق الوطني رقم 80","type":"route","route":"road","ref:ar":"ط و 80","name:ar":"الطريق الوطني رقم 80","name:fr":"Route nationale 80","network":"DZ:national","operator":"وزارة الأشغال العمومية والنقل"},"9683587":{"ref":"RN 81C","name":"DZ:national RN 81C","type":"route","route":"road","ref:ar":"طو 81ج"},"9683608":{"ref":"RN 81A","name":"DZ:national RN 81A","type":"route","route":"road","ref:ar":"طو 81 أ"},"11320041":{"ref":"ط ء 75","name":"الطريق الولائي رقم 75","type":"route","route":"road","ref:ar":"ط ء 75","name:ar":"الطريق الولائي رقم 75","name:fr":"Route wilayale N°75","operator":"وزارة الأشغال العمومية والنقل","operator:ar":"وزارة الأشغال العمومية والنقل","operator:wikidata":"Q3073286","operator:wikipedia":"ar:وزارة النقل (الجزائر)","operator:wikipedia:ar":"وزارة النقل (الجزائر)"},"12916701":{"name":"4e Rocade d'Alger","type":"route","route":"road","name:ar":"التجنب الرابع للجزائر","name:fr":"4e Rocade d'Alger"},"12921694":{"ref":"P15","name":"Pénétrante Autoroutière Tizi Ouzou","type":"route","route":"road"},"13113038":{"name":"Sec through Industry Puits","type":"route","route":"road"},"14557472":{"ref":"A2","name":"Autoroute de l'Est","note":"Road is still partially under construction","type":"route","route":"road","source":"https://www.joradp.dz/FTP/jo-francais/2022/F2022036.pdf","name:ar":"الطريق السبار شرق غرب","network":"DZ:highway","old_ref":"A1","alt_name":"Autoroute Est-Ouest","operator":"Ministère des Travaux Publics","wikipedia":"fr:Autoroute A2 (Algérie)"},"14557473":{"ref":"A3","name":"Autoroute de l'Ouest","type":"route","fixme":"name:ar is still missing","route":"road","source":"https://www.joradp.dz/FTP/jo-francais/2022/F2022036.pdf","network":"DZ:highway","old_ref":"A1","alt_name":"Autoroute Est-Ouest","operator":"Ministère des Travaux Publics","wikipedia":"fr:Autoroute A3 (Algérie)"},"16137793":{"name":"proprietaire du terrain","type":"route","route":"road"}}