{"1441357":{"ref":"35","name":"طريق القاهرة, اسيوط الصحراوى الغربى","type":"route","route":"road","name:ar":"طريق القاهرة, اسيوط الصحراوى الغربى","name:en":"Cairo, Asyout Western Desert Road","old_ref":"20","roundtrip":"no","description":"Cairo to south"},"6134744":{"name":"الطريق السريع عبر أفريقيا 1 (مصر)","type":"route","route":"road","int_ref":"TAH 1","name:ar":"الطريق السريع عبر أفريقيا 1 (مصر)","name:en":"Trans-African Highway 1 (Egypt)","name:fr":"Autoroute transafricaine 1 (Égypte)","wikidata":"Q1506411","int_ref:ar":"ط س 1"},"6498346":{"name":"طريق القبارى السريع","type":"route","route":"road","name:ar":"طريق القبارى السريع","name:en":"Al Kabary Fast Road"},"7741802":{"name":"elmidan squre","type":"route","route":"road","addr:city":"kafr shokr","addr:street":"gamal abdelnaser street","addr:postcode":"13718"},"8974178":{"name":"طريق البترول أبو سنان","type":"route","route":"road","highway":"primary","name:ar":"طريق البترول أبو سنان","name:en":"Abu Sannan Petrol Road"},"11896142":{"name":"الطريق الدائري الأوسطى","type":"route","route":"road","name:ar":"الطريق الدائري الأوسطى","name:en":"Middle Ring Road"},"11896315":{"ref":"515","name":"الطريق الدائري الإقليمي","type":"route","route":"road","name:ar":"الطريق الدائري الإقليمي","name:en":"The Regional Ring Road"}}