{"26791":{"ref":"E 12","name":"European route E 12","note":"for Norway, please read this https://forum.openstreetmap.org/viewtopic.php?id=72841","type":"superroute","route":"road","name:cs":"Evropská silnice E12","name:en":"European route E 12","name:fr":"Route européenne E 12","name:nl":"Europese route E12","name:sk":"Európska cesta E 12","network":"e-road","wikidata":"Q1346648","wikipedia":"en:European route E12","e-road:class":"A-intermediate","description:fr":"E 12 Mo i Rana - Helsinki"},"77546":{"ref":"E 63","name":"European route E 63","type":"route","route":"road","name:en":"European route E 63","name:fr":"Route européenne E 63","name:nl":"Europese route E63","name:sk":"Európska cesta E 63","name:sv":"E 63: Sodankylä - Åbo","network":"e-road","wikidata":"Q1375933","wikipedia":"en:European route E63","description":"Sodankylä - Turku","e-road:class":"A-intermediate","description:fr":"E 63 Sodankylä - Turku"},"190536":{"ref":"56","name":"Kantatie 56","type":"route","route":"road","name:fi":"Kantatie 56","name:sv":"Stamväg 56","network":"fi:trunk"},"191725":{"ref":"12","name":"Valtatie 12","type":"route","route":"road","name:fi":"Valtatie 12","name:sv":"Riksväg 12","network":"fi:national"},"196447":{"to":"Hämeenlinna","from":"Turku","name":"Hämeen Härkätie","type":"route","fixme":"Päät","route":"road","to:fi":"Hämeenlinna","to:sv":"Tavastehus","from:fi":"Turku","from:sv":"Åbo","name:fi":"Hämeen Härkätie","website":"http://www.rky.fi/read/asp/r_kohde_det.aspx?KOHDE_ID=2118","wikidata":"Q2013669","wikipedia":"fi:Hämeen Härkätie","description":"Historic road"},"376920":{"ref":"E 4","name":"E 4 Norrbottens län","type":"route","route":"road","int_ref":"E 04","network":"e-road","wikidata":"Q782249","wikipedia":"sv:E4"},"386332":{"ref":"404","name":"Länsväg 404","type":"route","route":"road","network":"SE:LV","wikidata":"Q2095296"},"1732801":{"ref":"118","name":"Highway 118","type":"route","route":"road","network":"CA:NS:H","wikidata":"Q3443546","wikipedia":"en:Nova Scotia Highway 118"},"2092608":{"ref":"E 75","name":"European route E 75 (Finland)","type":"route","route":"road","name:bg":"Европейски път E75","name:de":"Europastraße 75","name:el":"Ευρωπαϊκή Οδός 75","name:en":"European route E 75 (Finland)","name:fi":"Eurooppatie E75","name:fr":"route européenne 75","name:nl":"Europese route E75 (Finland)","name:pl":"Trasa europejska 75","name:ru":"Европейский маршрут E 75","name:sk":"Európska cesta E 75 (Fínsko)","network":"e-road","wikidata":"Q638912","wikipedia":"en:European route E75"},"2245569":{"name":"Museotie","type":"route","route":"road","name:en":"Museum Road","name:fi":"Museotie","name:sv":"Museumsväg"},"2427712":{"name":"Koiviston museotie","road":"tourism","type":"route","route":"road","website":"https://www.aanekoski.fi/matkailijalle/nahtavyydet/koiviston-museotie/","start_date":"1998-09-18"},"3160575":{"ref":"718","name":"Seututie 718","type":"route","route":"road","name:fi":"Seututie 718","name:sv":"Regionalväg 718","network":"fi:regional","surface":"paved","description":"Kaitsor-Vähäkyrö","description:fi":"Kaitsor-Vähäkyrö","description:sv":"Kaitsor-Lillkyro"},"3160583":{"ref":"725","name":"Seututie 725","type":"route","route":"road","name:fi":"Seututie 725","name:sv":"Regionalväg 725","network":"fi:regional","surface":"paved","description":"Koivulahti-Ylihärmä","description:fi":"Koivulahti-Ylihärmä","description:sv":"Kvevlax-Ylihärmä"},"3160609":{"ref":"717","name":"Seututie 717","type":"route","route":"road","name:fi":"Seututie 717","name:sv":"Regionalväg 717","network":"fi:regional","surface":"paved","description":"Vaasa-Tervajoki","description:fi":"Vaasa-Tervajoki","description:sv":"Vasa-Tervajoki"},"3160617":{"ref":"715","name":"Seututie 715","type":"route","route":"road","name:fi":"Seututie 715","name:sv":"Regionalväg 715","network":"fi:regional","surface":"paved","description":"Helsingby-Vanha Satama","description:fi":"Helsingby-Vanha Satama","description:sv":"Helsingby-Gamla Hamnen"},"3160687":{"ref":"724","name":"Seututie 724","type":"route","route":"road","name:fi":"Seututie 724","name:sv":"Regionalväg 724","network":"fi:regional","surface":"paved","description":"Vaasa-Raippaluoto","description:fi":"Vaasa-Raippaluoto","description:sv":"Vasa-Replot"},"3161069":{"ref":"723","name":"Seututie 723","type":"route","route":"road","name:fi":"Seututie 723","name:sv":"Regionalväg 723","network":"fi:regional","surface":"paved","description":"Ylistaro-Ylihärmä","description:fi":"Ylistaro-Ylihärmä","description:sv":"Ylistaro-Ylihärmä"},"3161105":{"ref":"673","name":"Seututie 673","type":"route","route":"road","name:fi":"Seututie 673","name:sv":"Regionalväg 673","network":"fi:regional","surface":"paved","loc_name":"Strandvägen","wikidata":"Q108319707","wikipedia":"fi:Seututie 673","description":"Vikby, Mustasaari-Perälä, Teuva","loc_name:fi":"Rantatie","loc_name:sv":"Strandvägen","description:fi":"Vikby, Mustasaari-Perälä, Teuva","description:sv":"Vikby, Korsholm-Perälä, Östermark"},"3161109":{"ref":"679","name":"Seututie 679","type":"route","route":"road","name:fi":"Seututie 679","name:sv":"Regionalväg 679","network":"fi:regional","surface":"paved","wikidata":"Q108540419","wikipedia":"fi:Seututie 679","description":"Långåminne-Maalahti","description:fi":"Långåminne-Maalahti","description:sv":"Långåminne-Malax"},"3161123":{"ref":"67","name":"Kantatie 67","type":"route","route":"road","name:fi":"Kantatie 67","name:sv":"Stamväg 67","network":"fi:trunk","description":"Seinäjoki-Kaskinen","description:fi":"Seinäjoki-Kaskinen","description:sv":"Seinäjoki-Kaskö"},"3161150":{"ref":"682","name":"Seututie 682","type":"route","route":"road","name:fi":"Seututie 682","name:sv":"Regionalväg 682","network":"fi:regional","surface":"paved","wikidata":"Q108537230","wikipedia":"fi:Seututie 682","description":"Ylimarkku-Teuva","description:fi":"Ylimarkku-Teuva","description:sv":"Övermark-Östermark"},"3161167":{"ref":"685","name":"Seututie 685","type":"route","route":"road","name:fi":"Seututie 685","name:sv":"Regionalväg 685","network":"fi:regional","surface":"paved","wikidata":"Q108394866","description":"Kolnebacken-Kauhajoki","description:fi":"Kolnebacken-Kauhajoki","description:sv":"Kolnebacken-Kauhajoki"},"3161182":{"ref":"687","name":"Seututie 687","type":"route","route":"road","name:fi":"Seututie 687","name:sv":"Regionalväg 687","network":"fi:regional","surface":"paved","wikidata":"Q89414574","wikipedia":"fi:Seututie 687","description":"Laihia-Karijoki","description:fi":"Laihia-Karijoki","description:sv":"Laihela-Karijoki"},"3161202":{"ref":"689","name":"Seututie 689","type":"route","route":"road","name:fi":"Seututie 689","name:sv":"Regionalväg 689","network":"fi:regional","surface":"paved","wikidata":"Q94503624","wikipedia":"fi:Seututie 689","description":"Kurikka-Jurva","description:fi":"Kurikka-Jurva","description:sv":"Kurikka-Jurva"},"3161208":{"ref":"672","name":"Seututie 672","type":"route","route":"road","name:fi":"Seututie 672","name:sv":"Regionalväg 672","network":"fi:regional","surface":"paved","wikidata":"Q11893185","wikipedia":"fi:Seututie 672","description":"Kauhajoki-Alavus","description:fi":"Kauhajoki-Alavus","description:sv":"Kauhajoki-Alavus"},"3161221":{"ref":"663","name":"Seututie 663","type":"route","route":"road","name:fi":"Seututie 663","name:sv":"Regionalväg 663","network":"fi:regional","surface":"paved","wikidata":"Q20254266","wikipedia":"fi:Seututie 663","description":"Kristiinankaupunki-Kauhajoki","description:fi":"Kristiinankaupunki-Kauhajoki","description:sv":"Kristinestad-Kauhajoki"},"3161236":{"ref":"701","name":"Seututie 701","type":"route","route":"road","name:fi":"Seututie 701","name:sv":"Regionalväg 701","network":"fi:regional","surface":"paved","description":"Huissi-Ilmajoki","description:fi":"Huissi-Ilmajoki","description:sv":"Huissi-Ilmajoki"},"3161295":{"ref":"19","name":"Valtatie 19","type":"route","route":"road","name:fi":"Valtatie 19","name:sv":"Riksväg 19","network":"fi:national","description":"Jalasjärvi-Uusikaarlepyy","description:fi":"Jalasjärvi-Uusikaarlepyy","description:sv":"Jalasjärvi-Nykarleby"},"3161338":{"ref":"16","name":"Valtatie 16","type":"route","route":"road","name:fi":"Valtatie 16","name:sv":"Riksväg 16","network":"fi:national","description":"Ylistaro-Kyyjärvi","description:fi":"Ylistaro-Kyyjärvi","description:sv":"Ylistaro-Kyyjärvi"},"3161361":{"ref":"704","name":"Seututie 704","type":"route","route":"road","name:fi":"Seututie 704","name:sv":"Regionalväg 704","network":"fi:regional","surface":"paved"},"3161602":{"ref":"18","name":"Valtatie 18","type":"route","route":"road","name:fi":"Valtatie 18","name:sv":"Riksväg 18","network":"fi:national","description":"Jyväskylä-Vaasa","description:fi":"Jyväskylä-Vaasa","description:sv":"Jyväskylä-Vasa"},"3168264":{"ref":"63","name":"Kantatie 63","type":"route","route":"road","name:fi":"Kantatie 63","name:sv":"Stamväg 63","network":"fi:trunk","description":"Kauhava-Ylivieska","description:fi":"Kauhava-Ylivieska","description:sv":"Kauhava-Ylivieska"},"3168277":{"ref":"66","name":"Kantatie 66","type":"route","route":"road","name:fi":"Kantatie 66","name:sv":"Stamväg 66","network":"fi:trunk","description":"Orivesi-Lapua","description:fi":"Orivesi-Lapua","description:sv":"Orivesi-Lappo"},"3168296":{"ref":"3","name":"Valtatie 3","type":"route","route":"road","name:fi":"Valtatie 3","name:sv":"Riksväg 3","network":"fi:national"},"3179566":{"ref":"E 18","name":"E 18 Finland","type":"route","route":"road","name:en":"European route E 18","name:nl":"E 18 Finland","name:ru":"Европейский маршрут E 18","network":"e-road","section":"Finland"},"3188612":{"ref":"28","name":"Valtatie 28","type":"route","route":"road","name:fi":"Valtatie 28","name:sv":"Riksväg 28","network":"fi:national","description":"Kokkola-Kajaani","description:fi":"Kokkola-Kajaani","description:sv":"Karleby-Kajana"},"3188622":{"ref":"27","name":"Valtatie 27","type":"route","route":"road","name:fi":"Valtatie 27","name:sv":"Riksväg 27","network":"fi:national","description":"Kalajoki-Iisalmi","description:fi":"Kalajoki-Iisalmi","description:sv":"Kalajoki-Idensalmi"},"3189477":{"ref":"22","name":"Valtatie 22","type":"route","route":"road","name:fi":"Valtatie 22","name:sv":"Riksväg 22","network":"fi:national","description":"Oulu-Kajaani","description:fi":"Oulu-Kajaani","description:sv":"Uleåborg-Kajana"},"3189507":{"ref":"20","name":"Valtatie 20","type":"route","route":"road","name:fi":"Valtatie 20","name:sv":"Riksväg 20","network":"fi:national","description":"Oulu-Kuusamo","description:fi":"Oulu-Kuusamo","description:sv":"Uleåborg-Kuusamo"},"3189514":{"ref":"29","name":"Valtatie 29","type":"route","route":"road","name:fi":"Valtatie 29","name:sv":"Riksväg 29","network":"fi:national","description":"Keminmaa-Tornio","description:fi":"Keminmaa-Tornio","description:sv":"Keminmaa-Torneå"},"3734231":{"name":"Ylinen Viipurintie","type":"route","route":"road","name:fi":"Ylinen Viipurintie","name:sv":"Övre Viborgsvägen","historic":"yes"},"3981024":{"ref":"9404","name":"9404","type":"route","route":"road"},"4168628":{"ref":"15","name":"Valtatie 15","type":"route","route":"road","name:fi":"Valtatie 15","name:sv":"Riksväg 15","network":"fi:national","wikidata":"Q1121444","wikipedia":"fi:Valtatie 15"},"5231887":{"ref":"24","name":"Ruta Nacional 24 (super)","type":"route","route":"road","symbol":"http://upload.wikimedia.org/wikipedia/commons/1/1a/Rutacol-24.svg","network":"co:national","wikipedia":"es:Ruta Nacional 24 (Colombia)"},"6496871":{"to":"城門 Shing Mun","ref":"9","via":"新田 San Tin","from":"城門 Shing Mun","name":"九號幹線 Route 9","type":"route","route":"road","to:en":"Shing Mun","to:zh":"城門","via:en":"San Tin","via:zh":"新田","from:en":"Shing Mun","from:zh":"城門","name:en":"Route 9","name:zh":"九號幹線","network":"HK","direction":"clockwise","roundtrip":"yes","description":"Clockwise","direction:ref":"A","description:en":"Clockwise","description:zh":"順時針方向"},"6823945":{"ref":"10","name":"Valtatie 10","type":"route","route":"road","name:fi":"Valtatie 10","name:sv":"Riksväg 10","network":"fi:national"},"8512500":{"ref":"230","name":"Taikayöntie","type":"route","route":"road","wikidata":"Q5395805","roundtrip":"no","wikipedia":"fi:Seututie 230","description":"Travel route"},"8598646":{"name":"Suuri Postitie","type":"route","fixme":"Add rest of the members","route":"road","website":"http://www.postitie.fi/","wikidata":"Q10638131","wikipedia":"fi:Suuri Postitie"},"9193462":{"ref":"1","name":"Valtatie 1","type":"route","route":"road","name:fi":"Valtatie 1","name:sv":"Riksväg 1","network":"fi:national","wikidata":"Q1474027","wikipedia":"fi:Valtatie 1"},"9193984":{"ref":"40","name":"Kantatie 40","type":"route","route":"road","name:fi":"Kantatie 40","name:sv":"Stamväg 40","network":"fi:national","wikidata":"Q798562","wikipedia":"fi:Kantatie 40","description":"Turun kehätie","description:fi":"Turun kehätie","description:sv":"Åbo ringväg"},"9194002":{"to":"Länsikeskus","ref":"1851","from":"Turun satama","name":"Suikkilantie pohjoiseen","type":"route","route":"road","to:fi":"Länsikeskus","to:sv":"Västra centrum","from:fi":"Turun satama","from:sv":"Åbo hamn","name:fi":"Suikkilantie pohjoiseen","name:sv":"Suikkilavägen norr","network":"fi:link"},"9194003":{"to":"Turun satama","ref":"1851","from":"Länsikeskus","name":"Suikkilantie etelään","type":"route","route":"road","to:fi":"Turun satama","to:sv":"Åbo hamn","from:fi":"Länsikeskus","from:sv":"Västra centrum","name:fi":"Suikkilantie etelään","name:sv":"Suikkilavägen österut","network":"fi:link"},"9194024":{"ref":"1821","name":"Yhdystie 1821","type":"route","route":"road","name:fi":"Yhdystie 1821","name:sv":"Förbindelseväg 1821","network":"fi:link"},"9194036":{"ref":"185","name":"Seututie 185","type":"route","route":"road","name:fi":"Seututie 185","name:sv":"Regionalväg 185","network":"fi:regional","wikidata":"Q11883880","wikipedia":"fi:Seututie 185"},"9194075":{"ref":"222","name":"Seututie 222","type":"route","route":"road","name:fi":"Seututie 222","name:sv":"Regionalväg 222","network":"fi:regional","wikidata":"Q14915851","wikipedia":"fi:Seututie 222"},"9194146":{"ref":"110","name":"Seututie 110","type":"route","route":"road","name:fi":"Seututie 110","name:sv":"Regionalväg 110","network":"fi:regional","wikidata":"Q10650516","wikipedia":"fi:Seututie 110"},"10492102":{"ref":"738","name":"Seututie 738","type":"route","route":"road","name:fi":"Seututie 738","name:sv":"Regionalväg 738","network":"fi:regional","surface":"paved","description":"Voltti-Kortesjärvi","description:fi":"Voltti-Kortesjärvi","description:sv":"Voltti-Kortesjärvi"},"10492488":{"ref":"733","name":"Seututie 733","type":"route","route":"road","name:fi":"Seututie 733","name:sv":"Regionalväg 733","network":"fi:regional","surface":"paved","description":"Kauhava-Lappajärvi","description:fi":"Kauhava-Lappajärvi","description:sv":"Kauhava-Lappajärvi"},"11823919":{"to":"Salla","from":"Virojoki","name":"Runon ja Rajan tie","road":"tourism","type":"route","route":"road","scenic":"yes","name:de":"Die Straße der Lieder und der Grenze","name:en":"The Road of Poem and Border","name:fi":"Runon ja Rajan tie","name:sv":"Poeternas och gränslandets väg","website":"https://viakarelia.fi/tiet/runon-rajan-tie/","distance":"1080","roundtrip":"no","wikipedia":"fi:Runon ja Rajan tie","start_date":"1966"},"11866975":{"name":"Mikonkatu","type":"route","route":"road","wikidata":"Q4909529","wikipedia":"fi:Mikonkatu (Helsinki)"},"11917617":{"to":"Hattuvaara","from":"Heinävesi","name":"Karjalan kirkkotie","road":"tourism","type":"route","route":"road","scenic":"yes","name:de":"Die Karelische Kirchenstraße","name:en":"The Karelian Church Route","name:fi":"Karjalan kirkkotie","website":"https://viakarelia.fi/tiet/karjalan-kirkkotie/","roundtrip":"no","wikipedia":"fi:Karjalan kirkkotie"},"12738558":{"to":"Kuhmo","from":"Oulu","name":"Tervan tie","road":"tourism","type":"route","route":"road","scenic":"yes","name:en":"Tar Route","name:fi":"Tervan tie","website":"http://www.tervantie.fi/UserFiles/File/tervantiekartta.pdf","roundtrip":"no","wikipedia":"fi:Tervan tie","description":"Website points to specific file as the main page seems to be unreachable (checked 21.5.2021)"},"12742525":{"name":"Vihreän Kullan Kulttuuritie","type":"route","route":"road","length":"266"},"12846715":{"name":"Kuninkaantie Loviisa-Vaalimaa","type":"route","route":"road"},"12846716":{"name":"Kuninkaantie Vantaa-Loviisa","type":"route","route":"road"},"12846717":{"name":"Kuninkaantie Siuntio-Vantaa","type":"route","route":"road"},"12846718":{"name":"Kuninkaantie Eteläinen","type":"route","route":"road"},"12846719":{"name":"Kuninkaantie Pohjoinen","type":"route","route":"road"},"12846720":{"name":"Kuninkaantie Turku-Pohja","note":"Part of parent relation King's Road","type":"route","route":"road"},"13065854":{"ref":"50","name":"Kehä III","type":"route","route":"road","name:en":"Ring III","name:fi":"Kehä III","name:sv":"Ring III","network":"fi:trunk","alt_name":"Kantatie 50","loc_name":"Kehä kolmonen","wikidata":"Q771137","alt_name:fi":"Kantatie 50","alt_name:sv":"Stamväg 50"},"13586952":{"name":"Deutsche Märchenstraße","type":"route","route":"road","scenic":"yes","tourism":"yes"},"14265641":{"ref":"4","name":"Valtatie 4","type":"route","route":"road","name:fi":"Valtatie 4","name:sv":"Riksväg 4","network":"fi:national"},"14265976":{"ref":"7","name":"Valtatie 7","type":"route","route":"road","name:fi":"Valtatie 7","name:sv":"Riksväg 7","network":"fi:national"},"14265977":{"ref":"6","name":"Valtatie 6","type":"route","route":"road","name:fi":"Valtatie 6","name:sv":"Riksväg 6","network":"fi:national","wikidata":"Q916345","wikipedia":"fi:Valtatie 6"},"14265978":{"ref":"5","name":"Valtatie 5","type":"route","route":"road","name:fi":"Valtatie 5","name:sv":"Riksväg 5","network":"fi:national","wikidata":"Q892019","wikipedia":"fi:Valtatie 5"},"14266735":{"ref":"11","name":"Valtatie 11","type":"route","route":"road","name:fi":"Valtatie 11","name:sv":"Riksväg 11","network":"fi:national"},"14266736":{"ref":"8","name":"Valtatie 8","type":"route","route":"road","name:fi":"Valtatie 8","name:sv":"Riksväg 8","network":"fi:national","wikidata":"Q1032078","wikipedia":"fi:Valtatie 8","description":"Turku-Liminka","description:fi":"Turku-Liminka","description:sv":"Åbo-Limingo"},"14272565":{"ref":"24","name":"Valtatie 24","type":"route","route":"road","name:fi":"Valtatie 24","name:sv":"Riksväg 24","network":"fi:national"},"14272566":{"ref":"23","name":"Valtatie 23","type":"route","route":"road","name:fi":"Valtatie 23","name:sv":"Riksväg 23","network":"fi:national"},"14272567":{"ref":"14","name":"Valtatie 14","type":"route","route":"road","name:fi":"Valtatie 14","name:sv":"Riksväg 14","network":"fi:national"},"14272568":{"ref":"13","name":"Valtatie 13","type":"route","route":"road","name:fi":"Valtatie 13","name:sv":"Riksväg 13","network":"fi:national"},"14276082":{"ref":"26","name":"Valtatie 26","type":"route","route":"road","name:fi":"Valtatie 26","name:sv":"Riksväg 26","network":"fi:national"},"14276083":{"ref":"25","name":"Valtatie 25","type":"route","route":"road","name:fi":"Valtatie 25","name:sv":"Riksväg 25","network":"fi:national"},"14280198":{"ref":"44","name":"Kantatie 44","type":"route","route":"road","name:fi":"Kantatie 44","name:sv":"Stamväg 44","network":"fi:trunk"},"14280199":{"ref":"43","name":"Kantatie 43","type":"route","route":"road","name:fi":"Kantatie 43","name:sv":"Stamväg 43","network":"fi:trunk"},"14280200":{"ref":"41","name":"Kantatie 41","type":"route","route":"road","name:fi":"Kantatie 41","name:sv":"Stamväg 41","network":"fi:trunk"},"14283010":{"ref":"57","name":"Kantatie 57","type":"route","route":"road","name:fi":"Kantatie 57","name:sv":"Stamväg 57","network":"fi:trunk"},"14283011":{"ref":"55","name":"Kantatie 55","type":"route","route":"road","name:fi":"Kantatie 55","name:sv":"Stamväg 55","network":"fi:trunk"},"14283012":{"ref":"54","name":"Kantatie 54","type":"route","route":"road","name:fi":"Kantatie 54","name:sv":"Stamväg 54","network":"fi:trunk"},"14283013":{"ref":"53","name":"Kantatie 53","type":"route","route":"road","name:fi":"Kantatie 53","name:sv":"Stamväg 53","network":"fi:trunk"},"14283014":{"ref":"52","name":"Kantatie 52","type":"route","route":"road","name:fi":"Kantatie 52","name:sv":"Stamväg 52","network":"fi:trunk"},"14283015":{"ref":"51","name":"Kantatie 51","type":"route","route":"road","name:fi":"Kantatie 51","name:sv":"Stamväg 51","network":"fi:trunk"},"14283016":{"ref":"46","name":"Kantatie 46","type":"route","route":"road","name:fi":"Kantatie 46","name:sv":"Stamväg 46","network":"fi:trunk"},"14283017":{"ref":"45","name":"Kantatie 45","type":"route","route":"road","name:fi":"Kantatie 45","name:sv":"Stamväg 45","network":"fi:trunk","description":"Tuusulanväylä","description:fi":"Tuusulanväylä","description:sv":"Tusbyleden"},"14286730":{"ref":"73","name":"Kantatie 73","type":"route","route":"road","name:fi":"Kantatie 73","name:sv":"Stamväg 73","network":"fi:trunk"},"14286731":{"ref":"72","name":"Kantatie 72","type":"route","route":"road","name:fi":"Kantatie 72","name:sv":"Stamväg 72","network":"fi:trunk"},"14286732":{"ref":"71","name":"Kantatie 71","type":"route","route":"road","name:fi":"Kantatie 71","name:sv":"Stamväg 71","network":"fi:trunk"},"14286733":{"ref":"69","name":"Kantatie 69","type":"route","route":"road","name:fi":"Kantatie 69","name:sv":"Stamväg 69","network":"fi:trunk"},"14286735":{"ref":"65","name":"Kantatie 65","type":"route","route":"road","name:fi":"Kantatie 65","name:sv":"Stamväg 65","network":"fi:trunk"},"14286736":{"ref":"62","name":"Kantatie 62","type":"route","route":"road","name:fi":"Kantatie 62","name:sv":"Stamväg 62","network":"fi:trunk"},"14286737":{"ref":"58","name":"Kantatie 58","type":"route","route":"road","name:fi":"Kantatie 58","name:sv":"Stamväg 58","network":"fi:trunk"},"14287428":{"ref":"98","name":"Kantatie 98","type":"route","route":"road","name:fi":"Kantatie 98","name:sv":"Stamväg 98","network":"fi:trunk"},"14287429":{"ref":"93","name":"Kantatie 93","type":"route","route":"road","name:fi":"Kantatie 93","name:sv":"Stamväg 93","network":"fi:trunk"},"14287431":{"ref":"91","name":"Kantatie 91","type":"route","route":"road","name:fi":"Kantatie 91","name:sv":"Stamväg 91","network":"fi:trunk"},"14287432":{"ref":"89","name":"Kantatie 89","type":"route","route":"road","name:fi":"Kantatie 89","name:sv":"Stamväg 89","network":"fi:trunk"},"14287433":{"ref":"88","name":"Kantatie 88","type":"route","route":"road","name:fi":"Kantatie 88","name:sv":"Stamväg 88","network":"fi:trunk"},"14287434":{"ref":"87","name":"Kantatie 87","type":"route","route":"road","name:fi":"Kantatie 87","name:sv":"Stamväg 87","network":"fi:trunk"},"14287435":{"ref":"86","name":"Kantatie 86","type":"route","route":"road","name:fi":"Kantatie 86","name:sv":"Stamväg 86","network":"fi:trunk"},"14287436":{"ref":"83","name":"Kantatie 83","type":"route","route":"road","name:fi":"Kantatie 83","name:sv":"Stamväg 83","network":"fi:trunk"},"14287437":{"ref":"82","name":"Kantatie 82","type":"route","route":"road","name:fi":"Kantatie 82","name:sv":"Stamväg 82","network":"fi:trunk"},"14287438":{"ref":"81","name":"Kantatie 81","type":"route","route":"road","name:fi":"Kantatie 81","name:sv":"Stamväg 81","network":"fi:trunk"},"14287439":{"ref":"80","name":"Kantatie 80","type":"route","route":"road","name:fi":"Kantatie 80","name:sv":"Stamväg 80","network":"fi:trunk"},"14287440":{"ref":"79","name":"Kantatie 79","type":"route","route":"road","name:fi":"Kantatie 79","name:sv":"Stamväg 79","network":"fi:trunk"},"14287441":{"ref":"78","name":"Kantatie 78","type":"route","route":"road","name:fi":"Kantatie 78","name:sv":"Stamväg 78","network":"fi:trunk"},"14287442":{"ref":"77","name":"Kantatie 77","type":"route","route":"road","name:fi":"Kantatie 77","name:sv":"Stamväg 77","network":"fi:trunk"},"14287443":{"ref":"76","name":"Kantatie 76","type":"route","route":"road","name:fi":"Kantatie 76","name:sv":"Stamväg 76","network":"fi:trunk"},"14287444":{"ref":"75","name":"Kantatie 75","type":"route","route":"road","name:fi":"Kantatie 75","name:sv":"Stamväg 75","network":"fi:trunk"},"14287445":{"ref":"74","name":"Kantatie 74","type":"route","route":"road","name:fi":"Kantatie 74","name:sv":"Stamväg 74","network":"fi:trunk"},"14289043":{"ref":"102","name":"Kehä II","type":"route","route":"road","name:en":"Ring II","name:fi":"Kehä II","name:sv":"Ring II","network":"fi:regional","alt_name":"Seututie 102","loc_name":"Kehä kakkonen","wikidata":"Q745716","wikipedia":"fi:Kehä II","alt_name:fi":"Seututie 102","alt_name:sv":"Regionalväg 102"},"14289044":{"ref":"100","name":"Seututie 100","type":"route","route":"road","name:fi":"Seututie 100","name:sv":"Regionalväg 100","network":"fi:regional","description":"Hakamäentie","description:fi":"Hakamäentie","description:sv":"Skogsbackavägen"},"15629852":{"ref":"694","name":"Seututie 694","type":"route","route":"road","name:fi":"Seututie 694","name:sv":"Regionalväg 694","network":"fi:regional","wikidata":"Q42904443","wikipedia":"fi:Seututie 694"},"15629853":{"ref":"637","name":"Seututie 637","type":"route","route":"road","name:fi":"Seututie 637","name:sv":"Regionalväg 637","network":"fi:regional","wikidata":"Q16498469","wikipedia":"fi:Seututie 637"},"15629854":{"ref":"632","name":"Seututie 632","type":"route","route":"road","name:fi":"Seututie 632","name:sv":"Regionalväg 632","network":"fi:regional","wikidata":"Q108256299"},"15629855":{"ref":"601","name":"Seututie 601","type":"route","route":"road","name:fi":"Seututie 601","name:sv":"Regionalväg 601","network":"fi:regional","wikidata":"Q110249187","wikipedia":"fi:Seututie 601"},"15629856":{"ref":"624","name":"Seututie 624","type":"route","route":"road","name:fi":"Seututie 624","name:sv":"Regionalväg 624","network":"fi:regional","wikidata":"Q102111699"},"15629857":{"ref":"642","name":"Seututie 642","type":"route","route":"road","name:fi":"Seututie 642","name:sv":"Regionalväg 642","network":"fi:regional","wikidata":"Q18661962","wikipedia":"fi:Seututie 642"},"15629858":{"ref":"638","name":"Seututie 638","type":"route","route":"road","name:fi":"Seututie 638","name:sv":"Regionalväg 638","network":"fi:regional","wikidata":"Q18661961","wikipedia":"fi:Seututie 638"},"15629859":{"ref":"640","name":"Seututie 640","type":"route","route":"road","name:fi":"Seututie 640","name:sv":"Regionalväg 640","network":"fi:regional","wikidata":"Q17278761","wikipedia":"fi:Seututie 640"},"15629860":{"ref":"630","name":"Seututie 630","type":"route","route":"road","name:fi":"Seututie 630","name:sv":"Regionalväg 630","network":"fi:regional","wikidata":"Q18691174","wikipedia":"fi:Seututie 630"},"15629861":{"ref":"627","name":"Seututie 627","type":"route","route":"road","name:fi":"Seututie 627","name:sv":"Regionalväg 627","network":"fi:regional","wikidata":"Q18691173","wikipedia":"fi:Seututie 627"},"15629862":{"ref":"659","name":"Seututie 659","type":"route","route":"road","name:fi":"Seututie 659","name:sv":"Regionalväg 659","network":"fi:regional","wikidata":"Q18691178","wikipedia":"fi:Seututie 659"},"15629863":{"ref":"641","name":"Seututie 641","type":"route","route":"road","name:fi":"Seututie 641","name:sv":"Regionalväg 641","network":"fi:regional","wikidata":"Q11893180","wikipedia":"fi:Seututie 641"},"15629864":{"ref":"618","name":"Seututie 618","type":"route","route":"road","name:fi":"Seututie 618","name:sv":"Regionalväg 618","network":"fi:regional","wikidata":"Q18691171","wikipedia":"fi:Seututie 618"},"15629865":{"ref":"648","name":"Seututie 648","type":"route","route":"road","name:fi":"Seututie 648","name:sv":"Regionalväg 648","network":"fi:regional","wikidata":"Q18691177","wikipedia":"fi:Seututie 648"},"15629866":{"ref":"633","name":"Seututie 633","type":"route","route":"road","name:fi":"Seututie 633","name:sv":"Regionalväg 633","network":"fi:regional","wikidata":"Q18661960","wikipedia":"fi:Seututie 633"},"15629867":{"ref":"636","name":"Seututie 636","type":"route","route":"road","name:fi":"Seututie 636","name:sv":"Regionalväg 636","network":"fi:regional","wikidata":"Q18691176","wikipedia":"fi:Seututie 636"},"15629868":{"ref":"621","name":"Seututie 621","type":"route","route":"road","name:fi":"Seututie 621","name:sv":"Regionalväg 621","network":"fi:regional","wikidata":"Q18661959","wikipedia":"fi:Seututie 621"},"15629869":{"ref":"604","name":"Seututie 604","type":"route","route":"road","name:fi":"Seututie 604","name:sv":"Regionalväg 604","network":"fi:regional","wikidata":"Q18661957","wikipedia":"fi:Seututie 604"},"15629870":{"ref":"607","name":"Seututie 607","type":"route","route":"road","name:fi":"Seututie 607","name:sv":"Regionalväg 607","network":"fi:regional","wikidata":"Q18661958","wikipedia":"fi:Seututie 607"},"15629871":{"ref":"610","name":"Seututie 610","type":"route","route":"road","name:fi":"Seututie 610","name:sv":"Regionalväg 610","network":"fi:regional","wikidata":"Q18691168","wikipedia":"fi:Seututie 610"},"15629872":{"ref":"612","name":"Seututie 612","type":"route","route":"road","name:fi":"Seututie 612","name:sv":"Regionalväg 616","network":"fi:regional","wikidata":"Q18691169","wikipedia":"fi:Seututie 612"},"15629873":{"ref":"697","name":"Seututie 697","type":"route","route":"road","name:fi":"Seututie 697","name:sv":"Regionalväg 697","network":"fi:regional","wikidata":"Q14525342","wikipedia":"fi:Seututie 697"},"15629874":{"ref":"658","name":"Seututie 658","type":"route","route":"road","name:fi":"Seututie 658","name:sv":"Regionalväg 658","network":"fi:regional","wikidata":"Q11893184","wikipedia":"fi:Seututie 658"},"15629875":{"ref":"662","name":"Seututie 662","type":"route","route":"road","name:fi":"Seututie 662","name:sv":"Regionalväg 662","network":"fi:regional","wikidata":"Q108429966","wikipedia":"fi:Seututie 662"},"15629876":{"ref":"664","name":"Seututie 664","type":"route","route":"road","name:fi":"Seututie 664","name:sv":"Regionalväg 664","network":"fi:regional","wikidata":"Q20252929","wikipedia":"fi:Seututie 664"},"15629877":{"ref":"661","name":"Seututie 661","type":"route","route":"road","name:fi":"Seututie 661","name:sv":"Regionalväg 661","network":"fi:regional","wikidata":"Q20252925","wikipedia":"fi:Seututie 661"},"15629878":{"ref":"616","name":"Seututie 616","type":"route","route":"road","name:fi":"Seututie 616","name:sv":"Regionalväg 616","network":"fi:regional","wikidata":"Q18691170","wikipedia":"fi:Seututie 616"},"15629879":{"ref":"644","name":"Seututie 644","type":"route","route":"road","name:fi":"Seututie 644","name:sv":"Regionalväg 644","network":"fi:regional","wikidata":"Q17278958","wikipedia":"fi:Seututie 644"},"15638781":{"ref":"6461","name":"Yhdystie 6461","type":"route","route":"road","name:fi":"Yhdystie 6461","name:sv":"Förbindelseväg 6461","network":"fi:local"},"15638782":{"ref":"6426","name":"Yhdystie 6426","type":"route","route":"road","name:fi":"Yhdystie 6426","name:sv":"Förbindelseväg 6426","network":"fi:local"},"15638783":{"ref":"6415","name":"Yhdystie 6415","type":"route","route":"road","name:fi":"Yhdystie 6415","name:sv":"Förbindelseväg 6415","network":"fi:local"},"15638784":{"ref":"6411","name":"Yhdystie 6411","type":"route","route":"road","name:fi":"Yhdystie 6411","name:sv":"Förbindelseväg 6411","network":"fi:local"},"15638785":{"ref":"6406","name":"Yhdystie 6406","type":"route","route":"road","name:fi":"Yhdystie 6406","name:sv":"Förbindelseväg 6406","network":"fi:local"},"15638786":{"ref":"6102","name":"Yhdystie 6102","type":"route","route":"road","name:fi":"Yhdystie 6102","name:sv":"Förbindelseväg 6102","network":"fi:local"},"15638787":{"ref":"6591","name":"Yhdystie 6591","type":"route","route":"road","name:fi":"Yhdystie 6591","name:sv":"Förbindelseväg 6591","network":"fi:local"},"15638788":{"ref":"6574","name":"Yhdystie 6574","type":"route","route":"road","name:fi":"Yhdystie 6574","name:sv":"Förbindelseväg 6574","network":"fi:local"},"15638789":{"ref":"6571","name":"Yhdystie 6571","type":"route","route":"road","name:fi":"Yhdystie 6571","name:sv":"Förbindelseväg 6571","network":"fi:local"},"15638790":{"ref":"6570","name":"Yhdystie 6570","type":"route","fixme":"tie haarautuu useampaan suuntaan","route":"road","name:fi":"Yhdystie 6570","name:sv":"Förbindelseväg 6570","network":"fi:local"},"15638791":{"ref":"6545","name":"Yhdystie 6545","type":"route","route":"road","name:fi":"Yhdystie 6545","name:sv":"Förbindelseväg 6545","network":"fi:local"},"15638792":{"ref":"6544","name":"Yhdystie 6544","type":"route","route":"road","name:fi":"Yhdystie 6544","name:sv":"Förbindelseväg 6544","network":"fi:local"},"15638793":{"ref":"6542","name":"Yhdystie 6542","type":"route","route":"road","name:fi":"Yhdystie 6542","name:sv":"Förbindelseväg 6542","network":"fi:local"},"15638794":{"ref":"6541","name":"Yhdystie 6541","type":"route","route":"road","name:fi":"Yhdystie 6541","name:sv":"Förbindelseväg 6541","network":"fi:local"},"15638795":{"ref":"6540","name":"Yhdystie 6540","type":"route","route":"road","name:fi":"Yhdystie 6540","name:sv":"Förbindelseväg 6540","network":"fi:local"},"15638796":{"ref":"6520","name":"Yhdystie 6520","type":"route","route":"road","name:fi":"Yhdystie 6520","name:sv":"Förbindelseväg 6520","network":"fi:local"},"15638797":{"ref":"6510","name":"Yhdystie 6510","type":"route","route":"road","name:fi":"Yhdystie 6510","name:sv":"Förbindelseväg 6510","network":"fi:local"},"15638798":{"ref":"6501","name":"Yhdystie 6501","type":"route","route":"road","name:fi":"Yhdystie 6501","name:sv":"Förbindelseväg 6501","network":"fi:local"},"15638799":{"ref":"6483","name":"Yhdystie 6483","type":"route","route":"road","name:fi":"Yhdystie 6483","name:sv":"Förbindelseväg 6483","network":"fi:local"},"15638800":{"ref":"6456","name":"Yhdystie 6456","type":"route","route":"road","name:fi":"Yhdystie 6456","name:sv":"Förbindelseväg 6456","network":"fi:local"},"15638801":{"ref":"6452","name":"Yhdystie 6452","type":"route","route":"road","name:fi":"Yhdystie 6452","name:sv":"Förbindelseväg 6452","network":"fi:local"},"15638802":{"ref":"6450","name":"Yhdystie 6450","type":"route","route":"road","name:fi":"Yhdystie 6450","name:sv":"Förbindelseväg 6450","network":"fi:local"},"15638803":{"ref":"6425","name":"Yhdystie 6425","type":"route","route":"road","name:fi":"Yhdystie 6425","name:sv":"Förbindelseväg 6425","network":"fi:local"},"15638804":{"ref":"6424","name":"Yhdystie 6424","type":"route","route":"road","name:fi":"Yhdystie 6424","name:sv":"Förbindelseväg 6424","network":"fi:local"},"15638805":{"ref":"6422","name":"Yhdystie 6422","type":"route","route":"road","name:fi":"Yhdystie 6422","name:sv":"Förbindelseväg 6422","network":"fi:local"},"15638806":{"ref":"6414","name":"Yhdystie 6414","type":"route","route":"road","name:fi":"Yhdystie 6414","name:sv":"Förbindelseväg 6414","network":"fi:local","wikidata":"Q94500499","wikipedia":"fi:Yhdystie 6414"},"15638807":{"ref":"6416","name":"Yhdystie 6416","type":"route","route":"road","name:fi":"Yhdystie 6416","name:sv":"Förbindelseväg 6416","network":"fi:local","wikidata":"Q94500379","wikipedia":"fi:Yhdystie 6416"},"15638808":{"ref":"6413","name":"Yhdystie 6413","type":"route","route":"road","name:fi":"Yhdystie 6413","name:sv":"Förbindelseväg 6413","network":"fi:local"},"15638809":{"ref":"6412","name":"Yhdystie 6412","type":"route","route":"road","name:fi":"Yhdystie 6412","name:sv":"Förbindelseväg 6412","network":"fi:local"},"15638810":{"ref":"6405","name":"Yhdystie 6405","type":"route","route":"road","name:fi":"Yhdystie 6405","name:sv":"Förbindelseväg 6405","network":"fi:local"},"15638811":{"ref":"6403","name":"Yhdystie 6403","type":"route","route":"road","name:fi":"Yhdystie 6403","name:sv":"Förbindelseväg 6403","network":"fi:local","wikidata":"Q18682912","wikipedia":"fi:Yhdystie 6403"},"15638812":{"ref":"6375","name":"Yhdystie 6375","type":"route","route":"road","name:fi":"Yhdystie 6375","name:sv":"Förbindelseväg 6375","network":"fi:local"},"15638813":{"ref":"6361","name":"Yhdystie 6361","type":"route","route":"road","name:fi":"Yhdystie 6361","name:sv":"Förbindelseväg 6361","network":"fi:local"},"15638814":{"ref":"6341","name":"Yhdystie 6341","type":"route","route":"road","name:fi":"Yhdystie 6341","name:sv":"Förbindelseväg 6341","network":"fi:local"},"15638815":{"ref":"6312","name":"Yhdystie 6312","type":"route","route":"road","name:fi":"Yhdystie 6312","name:sv":"Förbindelseväg 6312","network":"fi:local"},"15638816":{"ref":"6311","name":"Yhdystie 6311","type":"route","route":"road","name:fi":"Yhdystie 6311","name:sv":"Förbindelseväg 6311","network":"fi:local"},"15638817":{"ref":"6304","name":"Yhdystie 6304","type":"route","route":"road","name:fi":"Yhdystie 6304","name:sv":"Förbindelseväg 6304","network":"fi:local"},"15638818":{"ref":"6300","name":"Yhdystie 6300","type":"route","route":"road","name:fi":"Yhdystie 6300","name:sv":"Förbindelseväg 6300","network":"fi:local","wikidata":"Q84301096"},"15638819":{"ref":"6271","name":"Yhdystie 6271","type":"route","route":"road","name:fi":"Yhdystie 6271","name:sv":"Förbindelseväg 6271","network":"fi:local"},"15638820":{"ref":"6250","name":"Yhdystie 6250","type":"route","route":"road","name:fi":"Yhdystie 6250","name:sv":"Förbindelseväg 6250","network":"fi:local"},"15638821":{"ref":"6242","name":"Yhdystie 6242","type":"route","route":"road","name:fi":"Yhdystie 6242","name:sv":"Förbindelseväg 6242","network":"fi:local"},"15638822":{"ref":"6241","name":"Yhdystie 6241","type":"route","route":"road","name:fi":"Yhdystie 6241","name:sv":"Förbindelseväg 6241","network":"fi:local"},"15638823":{"ref":"6216","name":"Yhdystie 6216","type":"route","route":"road","name:fi":"Yhdystie 6216","name:sv":"Förbindelseväg 6216","network":"fi:local"},"15638824":{"ref":"6215","name":"Yhdystie 6215","type":"route","route":"road","name:fi":"Yhdystie 6215","name:sv":"Förbindelseväg 6215","network":"fi:local"},"15638825":{"ref":"6212","name":"Yhdystie 6212","type":"route","route":"road","name:fi":"Yhdystie 6212","name:sv":"Förbindelseväg 6212","network":"fi:local"},"15638826":{"ref":"6211","name":"Yhdystie 6211","type":"route","route":"road","name:fi":"Yhdystie 6211","name:sv":"Förbindelseväg 6211","network":"fi:local"},"15638827":{"ref":"6183","name":"Yhdystie 6183","type":"route","route":"road","name:fi":"Yhdystie 6183","name:sv":"Förbindelseväg 6183","network":"fi:local"},"15638828":{"ref":"6181","name":"Yhdystie 6181","type":"route","route":"road","name:fi":"Yhdystie 6181","name:sv":"Förbindelseväg 6181","network":"fi:local","wikidata":"Q18663047","wikipedia":"fi:Yhdystie 6181"},"15638829":{"ref":"6162","name":"Yhdystie 6162","type":"route","route":"road","name:fi":"Yhdystie 6162","name:sv":"Förbindelseväg 6162","network":"fi:local"},"15638830":{"ref":"6134","name":"Yhdystie 6134","type":"route","route":"road","name:fi":"Yhdystie 6134","name:sv":"Förbindelseväg 6134","network":"fi:local","wikidata":"Q94499399","wikipedia":"fi:Yhdystie 6134"},"15638831":{"ref":"6131","name":"Yhdystie 6131","type":"route","route":"road","name:fi":"Yhdystie 6131","name:sv":"Förbindelseväg 6131","network":"fi:local"},"15638832":{"ref":"6121","name":"Yhdystie 6121","type":"route","route":"road","name:fi":"Yhdystie 6121","name:sv":"Förbindelseväg 6121","network":"fi:local"},"15638833":{"ref":"6113","name":"Yhdystie 6113","type":"route","route":"road","name:fi":"Yhdystie 6113","name:sv":"Förbindelseväg 6113","network":"fi:local","wikidata":"Q97194136","wikipedia":"fi:Yhdystie 6113"},"15638834":{"ref":"6112","name":"Yhdystie 6112","type":"route","route":"road","name:fi":"Yhdystie 6112","name:sv":"Förbindelseväg 6112","network":"fi:local","wikidata":"Q97194124","wikipedia":"fi:Yhdystie 6112"},"15638835":{"ref":"6111","name":"Yhdystie 6111","type":"route","route":"road","name:fi":"Yhdystie 6111","name:sv":"Förbindelseväg 6111","network":"fi:local","wikidata":"Q97194111","wikipedia":"fi:Yhdystie 6111"},"15638836":{"ref":"6044","name":"Yhdystie 6044","type":"route","route":"road","name:fi":"Yhdystie 6044","name:sv":"Förbindelseväg 6044","network":"fi:local","wikidata":"Q97194086","wikipedia":"fi:Yhdystie 6044"},"15638837":{"ref":"6016","name":"Yhdystie 6016","type":"route","route":"road","name:fi":"Yhdystie 6016","name:sv":"Förbindelseväg 6016","network":"fi:local","wikidata":"Q97194022","wikipedia":"fi:Yhdystie 6016"},"15638838":{"ref":"6015","name":"Yhdystie 6015","type":"route","route":"road","name:fi":"Yhdystie 6015","name:sv":"Förbindelseväg 6015","network":"fi:local","wikidata":"Q97194012","wikipedia":"fi:Yhdystie 6015"},"15638839":{"ref":"6110","name":"Yhdystie 6110","type":"route","route":"road","name:fi":"Yhdystie 6110","name:sv":"Förbindelseväg 6110","network":"fi:local","wikidata":"Q65555414","wikipedia":"fi:Yhdystie 6110"},"15638840":{"ref":"6090","name":"Yhdystie 6090","type":"route","route":"road","name:fi":"Yhdystie 6090","name:sv":"Förbindelseväg 6090","network":"fi:local","wikidata":"Q65555368","wikipedia":"fi:Yhdystie 6090"},"15638841":{"ref":"6071","name":"Yhdystie 6071","type":"route","route":"road","name:fi":"Yhdystie 6071","name:sv":"Förbindelseväg 6071","network":"fi:local"},"15638842":{"ref":"6050","name":"Yhdystie 6050","type":"route","route":"road","name:fi":"Yhdystie 6050","name:sv":"Förbindelseväg 6050","network":"fi:local"},"15638843":{"ref":"6046","name":"Yhdystie 6046","type":"route","route":"road","name:fi":"Yhdystie 6046","name:sv":"Förbindelseväg 6046","network":"fi:local"},"15638844":{"ref":"6045","name":"Yhdystie 6045","type":"route","route":"road","name:fi":"Yhdystie 6045","name:sv":"Förbindelseväg 6045","network":"fi:local","wikidata":"Q97194096","wikipedia":"fi:Yhdystie 6045"},"15638845":{"ref":"6043","name":"Yhdystie 6043","type":"route","route":"road","name:fi":"Yhdystie 6043","name:sv":"Förbindelseväg 6043","network":"fi:local","wikidata":"Q97194071","wikipedia":"fi:Yhdystie 6043"},"15638846":{"ref":"6042","name":"Yhdystie 6042","type":"route","route":"road","name:fi":"Yhdystie 6042","name:sv":"Förbindelseväg 6042","network":"fi:local","wikidata":"Q97194056","wikipedia":"fi:Yhdystie 6042"},"15638847":{"ref":"6040","name":"Yhdystie 6040","type":"route","route":"road","name:fi":"Yhdystie 6040","name:sv":"Förbindelseväg 6040","network":"fi:local","wikidata":"Q105531047","wikipedia":"fi:Yhdystie 6040"},"15638848":{"ref":"6031","name":"Yhdystie 6031","type":"route","route":"road","name:fi":"Yhdystie 6031","name:sv":"Förbindelseväg 6031","network":"fi:local"},"15638849":{"ref":"6019","name":"Yhdystie 6019","type":"route","route":"road","name:fi":"Yhdystie 6019","name:sv":"Förbindelseväg 6019","network":"fi:local","wikidata":"Q97194046","wikipedia":"fi:Yhdystie 6019"},"15638850":{"ref":"6018","name":"Yhdystie 6018","type":"route","route":"road","name:fi":"Yhdystie 6018","name:sv":"Förbindelseväg 6018","network":"fi:local","wikidata":"Q18663046","wikipedia":"fi:Yhdystie 6018"},"15638851":{"ref":"6007","name":"Yhdystie 6007","type":"route","route":"road","name:fi":"Yhdystie 6007","name:sv":"Förbindelseväg 6007","network":"fi:local"},"16128248":{"name":"Valtatie 4","type":"route","route":"road"}}