{"1198386":{"ref":"შ 1","name":"Batumi–Akhaltsikhe Highway","type":"route","route":"road","nat_ref":"შ 1","network":"ge:national","is_in:country":"Georgia"},"2195411":{"ref":"E 70","name":"European route E 70 (Georgia)","type":"route","route":"road","name:en":"European route E 70 (Georgia)","name:nl":"Europese route E70 (Georgië)","name:sk":"Európska cesta E 70 (Gruzínsko)","network":"e-road","wikidata":"Q741488","wikipedia":"en:European route E70","description":"E70 - Georgia"},"3336074":{"name":"Военно-Осетинская дорога","type":"route","route":"road","name:ca":"Carretera Militar Osseta","name:de":"Ossetische Heerstraße","name:en":"Ossetian Military Road","name:es":"Camino Militar Osetio","name:fr":"Route militaire d'Ossétie","name:hr":"Osetska vojna cesta","name:it":"Strada militare osseta","name:ka":"ოსეთის სამხედრო გზა","name:os":"Уæлладжыры фæндаг","name:pl":"Osetyjska Droga Wojenna","wikidata":"Q1378530","wikipedia":"ru:Военно-Осетинская дорога"},"5941631":{"ref":"E 60","name":"European route E60","type":"route","route":"road","name:ru":"Европейский маршрут E60","network":"e-road"},"5943301":{"ref":"ს 1","name":"ს 1","type":"route","route":"road","network":"ge:national","wikidata":"Q1899539","wikipedia":"ka:საქართველოს საავტომობილო მაგისტრალი ს1"},"7826331":{"ref":"03К-454","name":"с. Весёлое — с. Нижняя Шиловка","type":"route","route":"road","network":"ru:regional","distance":"6.265"},"8452839":{"ref":"ს 2","name":"ს 2","type":"route","route":"road","name:en":"S2","name:ka":"ს 2","network":"ge:national","distance":"119","wikidata":"Q1638717","wikipedia":"ka:Საქართველოს საავტომობილო მაგისტრალი ს2","wikimedia_commons":"Category:ს 2"},"11700268":{"name":"ირაკლი აბაშიძის ქუჩა","type":"route","route":"road","name:en":"Irakli Abashidze Street","name:ru":"улица Ираклия Абашидзе","wikidata":"Q97249270","wikipedia":"en:Irakli Abashidze Street (Tbilisi)"},"11735366":{"ref":"Տ-5-53","name":"Տ-5-53","type":"route","route":"road","ref:en":"T-5-53","name:en":"Highway T-5-53","network":"am:national"},"11735555":{"ref":"Տ-5-71","name":"Տ-5-71","type":"route","route":"road","ref:en":"T-5-71","name:en":"Highway T-5-71","network":"am:national"},"11778063":{"ref":"Տ-10-40","name":"Տ-10-40","type":"route","route":"road","ref:en":"T-10-40","name:en":"Highway T-10-40","network":"am:national"},"13661739":{"name":"ზაქარია ფალიაშვილის ქუჩა","type":"route","route":"road","oneway":"yes","name:en":"Zakaria Paliashvili Street","name:ka":"ზაქარია ფალიაშვილის ქუჩა","name:ru":"улица Закарии Палиашвили","wikidata":"Q107264471","wikipedia":"en:Zakaria Paliashvili street","short_name":"ზ. ფალიაშვილის ქ.","name:ka-Latn":"Zakaria Paliashvilis Kucha","sorting_name":"ფალიაშვილის ქუჩა","wikipedia:ka":"ზაქარია ფალიაშვილის ქუჩა","short_name:en":"Z. Paliashvili St.","short_name:ru":"ул. З. Палиашвили","sorting_name:en":"Paliashvili Street","sorting_name:ka":"ფალიაშვილის ქუჩა","sorting_name:ru":"Палиашвили улица","name:etymology:wikidata":"Q732613","name:etymology:wikipedia":"ka:ზაქარია ფალიაშვილი"},"14406340":{"name":"к водопаду Тюльпан","type":"route","route":"road"},"14406360":{"name":"вдп Гегский","type":"route","route":"road"},"14407333":{"name":"перевал Пыв/Анчхо","type":"route","route":"road"},"14407340":{"name":"Псху","type":"route","route":"road"},"15717011":{"ref":"ს 10","name":"საქართველოს საავტომობილო მაგისტრალი ს10","type":"route","route":"road","name:en":"The Georgian route S10","name:ka":"საქართველოს საავტომობილო მაგისტრალი ს10","nat_ref":"S 10","wikidata":"Q114698","wikipedia":"ka:საქართველოს საავტომობილო მაგისტრალი ს10"}}