{"6495846":{"to":"柴灣 Chai Wan","ref":"4","from":"堅尼地城 Kennedy Town","name":"四號幹線 Route 4","type":"route","route":"road","to:en":"Chai Wan","to:zh":"柴灣","from:en":"Kennedy Town","from:zh":"堅尼地城","name:en":"Route 4","name:zh":"四號幹線","network":"HK","direction":"east","description":"Eastbound","direction:ref":"E","description:en":"Eastbound","description:zh":"東行","direction:name":"東行 Eastbound","direction:ref:en":"E","direction:ref:zh":"東","direction:name:en":"東行","direction:name:zh":"東行"},"8174259":{"to":"將軍澳 Tseung Kwan O","ref":"6","from":"茶果嶺 Cha Kwo Ling","name":"六號幹線 Route 6","type":"route","route":"road","to:en":"Tseung Kwan O","to:zh":"將軍澳","from:en":"Cha Kwo Ling","from:zh":"茶果嶺","name:en":"Route 6","name:zh":"六號幹線","network":"HK","direction":"east","description":"Eastbound","direction:ref":"E","description:en":"Eastbound","description:zh":"東行","direction:name":"東行 Eastbound","direction:ref:en":"E","direction:ref:zh":"東","construction:from":"油麻地 Yau Ma Tei","direction:name:en":"東行","direction:name:zh":"東行","construction:from:en":"Yau Ma Tei","construction:from:zh":"油麻地"},"14956255":{"name":"多實街 Dorset Crescent","type":"route","route":"road","name:en":"Dorset Crescent","name:zh":"多實街","wikidata":"Q10932571"}}