{"33232":{"to":"Chania","ref":"E 65","from":"Malmö","name":"European route E 65","type":"superroute","route":"road","name:cs":"Evropská silnice E65","name:en":"European route E 65","name:fr":"Route européenne E 65","name:mk":"Е65","name:nl":"Europese route E65","name:pl":"Trasa europejska E 65","name:sk":"Európska cesta E 65","network":"e-road","wikidata":"Q911135","wikipedia":"en:European route E65","e-road:class":"A-intermediate","description:fr":"E 65 Malmö - Chania"},"38304":{"ref":"E 66","name":"European route E 66","type":"route","route":"road","source":"ECE/TRANS/SC.1/2016/3 /Rev.1","name:de":"Europastraße E 66","name:en":"European route E 66","name:fr":"Route européenne E 66","name:nl":"Europese route E66","name:sk":"Európska cesta E 66","network":"e-road","wikidata":"Q689827","wikipedia":"en:European route E66","description":"Fortezza - Székesfehérvár","e-road:class":"A-intermediate","description:fr":"E 66 Fortezza - Székesfehérvár"},"38437":{"to":"Zenica (A1)","ref":"E 661","from":"Balatonkeresztúr (M7)","name":"European route E 661","type":"route","route":"road","name:bs":"Evropski put E661","name:en":"European route E 661","name:fr":"Route européenne E 661","name:hr":"Europski pravac E661","name:nl":"Europese route E661","name:ru":"Европейский маршрут E 661","name:sr":"Европски пут E661","network":"e-road","distance":"447","wikidata":"Q676174","wikipedia":"en:European route E661","description":"E 661 Balatonkeresztúr - Zenica","description:fr":"E 661 Balatonkeresztúr - Zenica"},"945988":{"ref":"B63","name":"Steinamangerer Straße","type":"route","route":"road"},"1249420":{"ref":"D210","name":"Državna cesta D210","type":"route","route":"road","network":"Državne ceste"},"1341092":{"ref":"2116","name":"Županijska cesta 2116","type":"route","route":"road","network":"Županijske ceste"},"1419844":{"name":"Županijska cesta 2115","type":"route","route":"road","old_ref":"2115"},"1625025":{"ref":"L391","name":"Eisenberger Straße","type":"route","route":"road"},"1661675":{"ref":"13","name":"A5-13p Priključek Pince","type":"route","route":"road","network":"SI:AC"},"1661676":{"name":"A5-13s Počivališče Pince","type":"route","route":"road","network":"SI:AC"},"1661871":{"ref":"H7","name":"H7 - Cesta","type":"route","route":"road","network":"SI:AC","operator":"DARS d.d."},"2093784":{"ref":"E 75","name":"European route E 75 (Hungary)","note":"Hungary","type":"route","route":"road","name:bg":"Европейски път E75","name:de":"Europastraße 75","name:el":"Ευρωπαϊκή Οδός 75","name:en":"European route E 75 (Hungary)","name:fr":"route européenne 75","name:nl":"Europese route E75 (Hongarije)","name:pl":"Trasa europejska 75","name:sk":"Európska cesta E 75 (Maďarsko)","name:sr":"Европски пут E75","network":"e-road","wikidata":"Q638912","wikipedia":"de:Europastraße 75","name:sr-Latn":"Evropski put E75"},"2336403":{"ref":"E 65","name":"European route E 65 (Hungary)","type":"route","route":"road","name:cs":"Evropská silnice E65 (Maďarsko)","name:en":"European route E 65 (Hungary)","name:nl":"Europese route E65 (Hongarije)","name:sk":"Európska cesta E 65 (Maďarsko)","network":"e-road"},"2384452":{"name":"M18","type":"route","route":"road","network":"RS:national","old_ref":"M18","distance":"100.6","osmonitor:road_components":"2"},"2439801":{"ref":"E 79","name":"European Route 79, Hungary","type":"route","route":"road","name:bg":"Европейски път E79, Унгария","name:nl":"Europese route E79 (Hongarije)","network":"e-road"},"2519470":{"ref":"35401","name":"Debrecen jobb gyűjtő-elosztó pálya","note":"route name relation test","type":"route","route":"road"},"3772026":{"ref":"439","name":"439 Kobilje - Dobrovnik - Beltinci in Bratonci - Križevci - Sv. Jurij ob Ščavnici - Senarska","type":"route","route":"road","network":"SI:R2","description":"Kobilje - Dobrovnik - Beltinci in Bratonci - Križevci - Sv. Jurij ob Ščavnici - Senarska"},"3772702":{"ref":"442","name":"442 Martjanci - Dobrovnik - Dolga vas","type":"route","route":"road","network":"SI:R2","description":"Martjanci - Dobrovnik - Dolga vas"},"3781708":{"ref":"232","name":"232 Hodoš - Petrovci - Murska Sobota - Lipovci","type":"route","route":"road","network":"SI:R1","description":"Hodoš - Petrovci - Murska Sobota - Lipovci"},"4072955":{"ref":"E 579","name":"E579 európai út","type":"route","route":"road","name:en":"European route E 579","name:fr":"Route européenne E 579","name:hu":"E579 európai út","name:nl":"Europese route E579","network":"e-road","wikidata":"Q10478772","wikipedia":"en:European route E579","description:fr":"E 579 Görbeháza - Beregdaróc"},"6290027":{"ref":"M4","name":"M4 - Törökszentmiklós-Kenderes","type":"route","route":"road"},"7638705":{"ref":"M0","name":"M0 északnyugati szektor Plan-A","type":"route","route":"road","highway":"proposed","proposed":"motorway"},"8052475":{"ref":"M85","name":"Épülő M85","type":"route","route":"road","source":"http://cyberpress.hu/az-m85-os-reszletes-vonalvezetese-peresztegtol-sopronig/","network":"HU:national","description":"Tervezett/épülő nyomvonal"},"9397590":{"ref":"M44","name":"Épülő/tervezett M44 Tiszakürt - Nagykőrös","type":"route","route":"road","network":"HU:national"},"9557828":{"ref":"M80","name":"M80","type":"route","route":"road","network":"nwn","surface":"asphalt","wikidata":"Q109335665"},"9558858":{"ref":"M76","name":"M76 Fenékpuszta-Balatonszentgyörgy","type":"route","route":"road","planned":"2022-01"},"9571464":{"ref":"M9","name":"M9 51-54","type":"route","route":"road"},"9571749":{"ref":"M4","name":"M4 - Kisújszállás-Püspökladány","type":"route","route":"road"},"9571750":{"ref":"M4","name":"M4 - Püspökladány-M35","type":"route","route":"road"},"9574885":{"ref":"M85","name":"M85 - Fertőrákos-Sopron Nyugat","type":"route","route":"road"},"9617109":{"ref":"M6","name":"M6 - Bóly-Ivándárda","type":"route","route":"road"},"12153251":{"ref":"E 77","name":"European route E 77 (Hungary)","type":"route","route":"road","name:en":"European route E 77 (Hungary)","name:nl":"Europese route E77 (Hongarije)","name:sk":"Európska cesta E 77 (Maďarsko)","network":"e-road","wikidata":"Q918092","wikipedia":"en:European route E77"},"14282648":{"to":"Kétvölgy","from":"Felsőszölnök","name":"Felsőszölnöki miseút","type":"route","route":"road","wikidata":"Q999546","wikipedia":"hu:Felsőszölnöki miseút"}}