{"3018805":{"ref":"M30","name":"غرب العراق - شرق المتوسط","type":"route","route":"road","name:ar":"غرب العراق - شرق المتوسط","name:de":"Westirak - Östliches Mittelmeer","name:en":"Western Iraq - Eastern Mediterranean","name:fr":"Irak Occidental - Méditerranée Orientale","network":"Arab Mashreq International Road Network","network:ar":"شبكة طرق المشرق العربي الدولية","network:fr":"Routes Internationales dans l'Arabie Orientale","colour:back":"white","colour:text":"blue","colour:arrow":"blue"},"3303566":{"name":"Hamilton Road","type":"route","route":"road"},"4436465":{"ref":"13","name":"Halton Regional Road 13 (super)","type":"route","route":"road","network":"CA:ON:Halton"},"4436467":{"ref":"3","name":"Halton Regional Road 3 (super)","type":"route","route":"road","network":"CA:ON:Halton"},"4436478":{"ref":"3","name":"York Regional Road 3 (super)","type":"route","route":"road","symbol":"http://upload.wikimedia.org/wikipedia/commons/a/aa/York_Regional_Road_3.svg","network":"CA:ON:York"},"4436483":{"ref":"49","name":"York Regional Road 49 (super)","type":"route","route":"road","symbol":"http://upload.wikimedia.org/wikipedia/commons/5/54/York_Regional_Road_49.svg","network":"CA:ON:York"},"4520297":{"ref":"440","name":"A 440 (Laval)","type":"route","route":"road","symbol":"http://upload.wikimedia.org/wikipedia/commons/6/65/Quebec_Autoroute_440.svg","network":"CA:QC:A","wikipedia":"fr:Autoroute 440 (Laval)","is_in:state":"QC"},"4520377":{"ref":"973","name":"A 973 (Québec)","type":"route","route":"road","symbol":"http://upload.wikimedia.org/wikipedia/commons/d/d1/Quebec_Autoroute_973.svg","network":"CA:QC:A","wikipedia":"fr:Autoroute 973 (Québec)","is_in:state":"QC"},"4520378":{"ref":"730","name":"A 730 (Saint-Constant)","type":"route","route":"road","symbol":"http://upload.wikimedia.org/wikipedia/commons/e/ea/Quebec_Autoroute_730.svg","network":"CA:QC:A","wikipedia":"fr:Autoroute 730 (Québec)","is_in:state":"QC"},"4520380":{"ref":"955","name":"A 955 (Victoriaville)","type":"route","route":"road","symbol":"http://upload.wikimedia.org/wikipedia/commons/d/dc/Quebec_Autoroute_955.svg","network":"CA:QC:A","wikipedia":"fr:Autoroute 955 (Québec)","is_in:state":"QC"},"7378223":{"ref":"1","name":"طريق المرور السريع رقم 1","type":"route","route":"road","name:ar":"طريق المرور السريع رقم 1","name:de":"Autobahn 1","name:en":"Freeway 1","name:he":"כביש מהיר 1","name:tr":"Otoyol 1","name:uz":"Magistral 1","alt_name":"الطريق السريع الدولي; الطريق الدولي","wikidata":"Q5501238","wikipedia":"ar:طريق المرور السريع رقم 1 (العراق)","alt_name:en":"Highway 1; Motorway 1","description":"طريق مرور سريع في العراق، يربط بين دول الخليج العربي وسوريا والأردن. يبدأ من أم قصر ويمر بسفوان، والناصرية، والديوانية، والحلة، وبغداد، والفلوجة، والرمادي والرطبة حيث يتفرع لفرعين، إلى منفذ الوليد المؤدي إلى سوريا وإلى منفذ طريبيل المؤدي إلى الأردن."},"7384471":{"ref":"2","name":"الطريق الخارجي رقم ٢","type":"route","route":"road","ref:ar":"٢","name:ar":"الطريق الخارجي رقم ٢","name:en":"Highway 2"},"11980123":{"name":"Road 0 border - Saudi to Iraq east of Arar","type":"route","route":"road"},"12890797":{"ref":"88","name":"Semalka Road","type":"route","route":"road","network":"الطرق_العراقیة"},"13562872":{"name":"150 Meter Street","type":"route","route":"road","name:ar":"شارع 150 متر","name:ku":"شەقامی 150 مەتری","name:tr":"150 Metre Sokak"},"14520355":{"to":"Safwan","ref":"8","via":"Baghdad;Al Hillah;Al-Qādisiyyah;Samawah;Nasiriyah;Basrah;Kuwait","from":"Baghdad","name":"Highway 8","type":"route","route":"road","network":"IQ:national","wikidata":"Q10860292","wikipedia":"en:Highway 8 (Iraq)"},"14527126":{"to":"Basrah","ref":"6","via":"Al Kut;Al Amarah","from":"Baghdad","name":"Highway 6","type":"route","route":"road","network":"IQ:national","wikidata":"Q5759861","wikipedia":"en:Highway 6 (Iraq)"},"14527551":{"to":"Silopi","ref":"2","via":"Baqubah;Al Khalis;Kirkuk;Irbil;Mosul;Dohuk;Zakhu","from":"Baghdad","name":"Highway 2","type":"route","route":"road","network":"IQ:national","wikidata":"Q5759830","wikipedia":"en:Highway 2 (Iraq)"},"14631804":{"ref":"65","name":"شەقامی کوردستان","type":"route","route":"road","name:ar":"شارع كردستان","name:en":"Kurdistan Street","name:fr":"Rue Kurdistan","name:ku":"Kolana Kurdistanê","network":"ڕێگاکانی کوردستان","name:ckb":"شەقامی کوردستان"},"14631890":{"name":"شەقامی پێشەوا قازی","type":"route","route":"road","name:ar":"شارع القاضي غازي","name:en":"Peshawa Qazi Street","name:ku":"Kolana Pêşewa Qazî","network":"ڕێگاکانی کوردستان","name:ckb":"شەقامی پێشەوا قازی"},"15070419":{"name":"طريق محمد القاسم للمرور السريع","type":"route","route":"road"},"15074971":{"name":"سريع قناة الجيش","type":"route","route":"road"},"15075139":{"name":"14th of July Street","type":"route","route":"road"},"15075149":{"name":"Jadriya Bridge","type":"route","route":"road"},"15075150":{"name":"شارع قطر الندى","type":"route","route":"road","name:ar":"شارع قطر الندى","name:en":"Qatr Al Nida Street"},"15075198":{"name":"شارع الكرادة داخل","type":"route","route":"road"},"15094302":{"to":"النجف","ref":"70","via":"الكفل;الكوفة","from":"الحلة","name":"طريق 70 - الحلة - النجف","type":"route","route":"road"},"15094303":{"to":"كربلاء","ref":"84","via":"ابي غرق;الهندية;طويريج","from":"الحلة","name":"طريق 84 - الحلة - كربلاء","type":"route","route":"road","wikipedia":"ar:شارع 84 (العراق)"},"15417630":{"name":"سريع الدورة - اليوسفية","type":"route","route":"road"}}