{"28929":{"ref":"E 117","name":"European route E 117","type":"route","route":"road","name:en":"European route E 117","name:fr":"Route européenne E 117","name:hy":"Եվրոպական մայրուղի E 117","name:ka":"ევროპის ავტომაგისტრალი E 117","name:nl":"Europese route E117","name:ru":"Европейский маршрут E 117","name:sk":"Európska cesta E 117","name:uk":"Європейський маршрут E 117","network":"e-road","wikidata":"Q1375799","wikipedia":"en:European route E117","description":"The E 117 starts from Mineralnye Vody, Russia, via the Georgian Military Road to Georgia's capital Tbilisi, via the Armenian capital Yerevan and on to Megri on the border of Iran.","description:fr":"E 117 Mineralnye Vody - Meghri","wikimedia_commons":"Category:E117"},"447842":{"ref":"44","name":"جاده ۴۴","type":"route","route":"road","ref:fa":"۴۴","name:en":"Road 44","network":"ir:national","distance":"860","wikidata":"Q4811748","wikipedia":"en:Road 44 (Iran)"},"1179604":{"ref":"95","name":"جاده ۹۵","type":"route","route":"road","ref:fa":"۹۵","name:en":"Road 95","network":"ir:national","distance":"1636","wikidata":"Q385031","wikipedia":"en:Road 95 (Iran)"},"1374182":{"ref":"5","name":"آزادراه ۵","type":"route","route":"road","name:en":"Freeway 5","network":"ir:freeways","wikidata":"Q4811452","wikipedia":"en:Freeway 5 (Iran)"},"1374183":{"ref":"1","name":"آزادراه ۱","type":"route","route":"road","ref:fa":"۱","name:en":"Freeway 1","network":"ir:freeways","distance":"138","wikidata":"Q5952564","wikipedia":"en:Freeway 1 (Iran)"},"1374293":{"ref":"7","name":"آزادراه ۷","type":"route","route":"road","symbol":"https://upload.wikimedia.org/wikipedia/commons/b/be/IRN-EN-Fwy_7.svg","name:en":"Freeway 7","network":"ir:freeways","alt_name":"آزادراه خلیج فارس","wikidata":"Q5501240","wikipedia":"en:Freeway 7 (Iran)","alt_name:en":"Persian Gulf Highway"},"1374313":{"ref":"51","name":"جاده ۵۱","type":"route","route":"road","name:en":"Road 51","network":"ir:national","distance":"28","wikidata":"Q7339288","wikipedia":"en:Road 51 (Iran)"},"1388196":{"ref":"9","name":"آزادراه ۹","type":"route","route":"road","name:en":"Freeway 9","network":"ir:freeways","alt_name":"آزادراه معلم","wikidata":"Q5501241","wikipedia":"en:Freeway 9 (Iran)","alt_name:en":"Mo'allem Freeway"},"1388244":{"ref":"12","name":"جاده ۱۲","type":"route","route":"road","name:en":"Road 12","network":"ir:national"},"1388881":{"ref":"11","name":"جاده ۱۱","type":"route","route":"road","name:en":"Road 11","network":"ir:national","wikidata":"Q4813945","wikipedia":"en:Road 11 (Iran)"},"1406030":{"ref":"23","name":"جاده ۲۳","type":"route","route":"road","name:en":"Road 23","network":"ir:national","wikidata":"Q4811744","wikipedia":"en:Road 23 (Iran)"},"1407994":{"ref":"94","name":"جاده ۹۴","type":"route","route":"road","ref:fa":"۹۴","name:en":"Road 94","network":"ir:national","distance":"905","wikidata":"Q4811404","wikipedia":"en:Road 94 (Iran)"},"1412676":{"ref":"16","name":"جاده ۱۶","type":"route","route":"road","name:en":"Road 16","network":"ir:national","wikidata":"Q4811766","wikipedia":"en:Road 16 (Iran)","wikimedia_commons":"Category:Road 16 (Iran)"},"1621522":{"ref":"24","name":"جاده ۲۴","type":"route","route":"road","name:en":"Road 24","network":"ir:national","wikidata":"Q4811956","wikipedia":"en:Road 24 (Iran)"},"1631718":{"ref":"27","name":"جاده ۲۷","type":"route","route":"road","name:en":"Road 27","network":"ir:national","wikidata":"Q7339271","wikipedia":"en:Road 27 (Iran)"},"1631798":{"ref":"31","name":"جاده ۳۱","type":"route","route":"road","name:en":"Road 31","network":"ir:national","wikidata":"Q4811378","wikipedia":"en:Road 31 (Iran)"},"1712730":{"ref":"81","name":"جاده ۸۱","type":"route","route":"road","ref:fa":"۸۱","name:en":"Road 81","network":"ir:national","wikidata":"Q7339301","wikipedia":"en:Road 81 (Iran)"},"3231396":{"ref":"49","name":"Road 49","type":"route","route":"road","name:fa":"جاده ۴۹","network":"ir:national","wikidata":"Q7339287","wikipedia":"en:Road 49 (Iran)"},"5326017":{"to":"Anar","ref":"84","from":"Mirjaveh","name":"جاده ۸۴","type":"route","route":"road","ref:fa":"۸۴","name:en":"Road 84","network":"ir:national","distance":"824","wikipedia":"en:Road 84 (Iran)"},"5326075":{"ref":"AH2","url":"http://wiki.openstreetmap.org/wiki/Asia/Asian_Highway_Network","name":"بزرگراه آسیایی شماره ۲","type":"route","route":"road","int_ref":"AH2","name:en":"Asian Highway AH2","name:ms":"Lebuhraya Asia AH2","name:ru":"Азиатский маршрут AH2","network":"AsianHighway","section":"Iran","wikidata":"Q727638","wikipedia":"en:AH2"},"5326768":{"to":"BandarAbbas","ref":"71","from":"Tehran","name":"جاده ۷۱","type":"route","route":"road","ref:fa":"۷۱","name:en":"Road 71","network":"ir:national","distance":"1244","wikipedia":"en:Road 71 (Iran)"},"5328342":{"ref":"86","name":"جاده ۸۶","type":"route","route":"road","ref:fa":"۸۶","name:en":"Road 86","network":"ir:national","distance":"1248","wikipedia":"en:Road 86 (Iran)"},"5328357":{"ref":"88","name":"جاده ۸۸","type":"route","route":"road","ref:fa":"۸۸","name:en":"Road 88","network":"ir:national","wikipedia":"en:Road 88 (Iran)"},"5328416":{"to":"Chatroud","ref":"82","from":"SafaShahr","name":"جاده ۸۲","type":"route","route":"road","name:en":"Road 82","network":"ir:national","distance":"502","wikipedia":"en:Road 82 (Iran)"},"5334781":{"ref":"6","name":"آزادراه ۶","type":"route","route":"road","name:en":"Freeway 6","network":"ir:freeways","alt_name":"آزادراه کربلا","wikipedia":"en:Freeway 6 (Iran)","alt_name:en":"Karbala Freeway"},"5335855":{"ref":"48","name":"جاده ۴۸","type":"route","route":"road","name:en":"Road 48","network":"ir:national","wikipedia":"en:Road 48 (Iran)"},"5335864":{"ref":"37","name":"جاده ۳۷","type":"route","route":"road","name:en":"Road 37","network":"ir:national","wikipedia":"en:Road 37 (Iran)"},"5341570":{"ref":"AH8","name":"بزرگراه آسیایی شماره ۸","type":"route","route":"road","int_ref":"AH8","name:en":"IR Asian Highway AH8","name:lt":"IR Azijos Plentas AH8","network":"AsianHighway","wikidata":"Q2813842","wikipedia":"en:AH8"},"5355785":{"ref":"39","name":"جاده ۳۹","type":"route","route":"road","name:en":"Road 39","network":"ir:national","wikipedia":"en:Road 39 (Iran)"},"5364840":{"ref":"62","name":"جاده ۶۲","type":"route","route":"road","name:en":"Road 62","network":"ir:national","wikipedia":"en:Road 62 (Iran)"},"5367461":{"ref":"68","name":"جاده ۶۸","type":"route","route":"road","name:en":"Road 68","network":"ir:national","wikipedia":"en:Road 68 (Iran)"},"5369997":{"name":"بزرگراه آسیایی شماره ۷۱","type":"route","route":"road","int_ref":"AH71","name:en":"Asian Highway AH71","network":"AsianHighway","source:link":"https://www.dodears.info/watch-video-aksar-2-full-movie-watch-online-full-hd-zareen-khan/"},"5370314":{"ref":"AH72","name":"بزرگراه آسیایی شماره ۷۲","type":"route","route":"road","highway":"service","int_ref":"AH72","name:en":"Asian Highway AH72","network":"AsianHighway","wikidata":"Q12973958","wikipedia":"en:AH72"},"5374303":{"ref":"55","name":"جاده ۵۵","type":"route","route":"road","name:en":"Road 55","network":"ir:national","wikipedia":"en:Road 55 (Iran)"},"5374503":{"ref":"AH75","name":"بزرگراه آسیایی شماره ۷۵","type":"route","route":"road","int_ref":"AH75","name:en":"Asian Highway AH75","network":"AsianHighway","wikidata":"Q15970990","wikipedia":"en:AH75"},"5425251":{"ref":"AH78","name":"بزرگراه آسیایی شماره ۷۸","type":"route","route":"road","int_ref":"AH78","name:en":"Asian Highway AH78","network":"AsianHighway","wikidata":"Q15970903","wikipedia":"en:AH78"},"5569286":{"name":"مریوان-کامیاران","type":"route","route":"road"},"5821660":{"ref":"3","name":"آزادراه ۳","type":"route","route":"road","ref:fa":"۳","symbol":"https://upload.wikimedia.org/wikipedia/commons/1/13/Freeway3.png","name:en":"Freeway 3","network":"ir:freeways","alt_name":"آزادراه تهران - شمال","wikidata":"Q6556344","wikipedia":"en:Tehran-Shomal Freeway","alt_name:en":"Tehran-Shomal Freeway"},"5822222":{"ref":"53","name":"جاده ۵۳","type":"route","route":"road","name:en":"Road 53","network":"ir:national","wikipedia":"en:Road 53 (Iran)"},"5822838":{"name":"آزادراه کنارگذر شمالی مشهد","type":"route","route":"road","name:en":"Mashhad Northern Bypass Freeway","network":"ir:freeways","wikidata":"Q17009592","wikipedia":"en:Mashhad Northern Bypass Freeway"},"5835472":{"ref":"79","name":"جاده فیروزکوه","type":"route","route":"road","name:en":"Road 79","network":"ir:national","wikipedia":"en:Road 79 (Iran)"},"5847696":{"ref":"77","name":"جاده هراز","type":"route","route":"road","name:en":"Haraz Road 77","network":"ir:national","wikipedia":"en:Road 77 (Iran)"},"5864091":{"ref":"45","name":"جاده ۴۵","type":"route","route":"road","name:en":"Road 45","network":"ir:national","wikipedia":"en:Road 45 (Iran)"},"5873795":{"ref":"98","name":"جاده ۹۸","type":"route","route":"road","ref:fa":"۹۸","name:en":"Road 98","network":"ir:national","distance":"493","wikipedia":"en:Road 98 (Iran)"},"5889538":{"ref":"58","name":"جاده ۵۸","type":"route","route":"road","name:en":"Road 58","network":"ir:national","wikipedia":"en:Road 58 (Iran)"},"5948280":{"ref":"59","name":"جاده چالوس","type":"route","route":"road","name:en":"Chalus Road","network":"ir:national","wikidata":"Q7339294","wikipedia":"en:Road 59 (Iran)"},"5971842":{"ref":"63","name":"جاده ۶۳","type":"route","route":"road","name:en":"Road 63","network":"ir:national","wikipedia":"en:Road 63 (Iran)"},"5971918":{"ref":"64","name":"جاده ۶۴","type":"route","route":"road","ref:fa":"۶۴","name:en":"Road 64","network":"ir:national","wikipedia":"en:Road 64 (Iran)"},"6013858":{"to":"BandarAbbas","ref":"96","from":"Shalamcheh","name":"جاده ۹۶","type":"route","route":"road","name:en":"Road 96","network":"ir:national","distance":"1150","wikipedia":"en:Road 96 (Iran)"},"7002489":{"to":"Chabahar","ref":"93","from":"RostamAbad","name":"جاده ۹۳","type":"route","route":"road","ref:fa":"۹۳","name:en":"Road 93","network":"ir:national","distance":"697","wikipedia":"en:Road 93 (Iran)"},"7063694":{"ref":"Մ-2","name":"Մ-2","type":"route","route":"road","ref:en":"M-2","name:en":"Highway M-2","name:ru":"М-2","network":"am:national"},"7527778":{"ref":"5","name":"آزادراه تهران - پردیس","type":"route","route":"road","name:en":"Tehran-Pardis Freeway","network":"ir:freeways","wikipedia":"en:Freeway 5 (Iran)"},"7624543":{"name":"میدان","type":"route","route":"road"},"7733446":{"name":"احمد ابن اسحاق","type":"route","route":"road"},"8794901":{"to":"Jask","ref":"91","from":"Feyzabad","name":"جاده ۹۱","type":"route","route":"road","ref:fa":"۹۱","name:en":"Road 91","network":"ir:national","distance":"1720"},"9254865":{"name":"میدان سهروردی","type":"route","route":"road"},"9319756":{"ref":"18","name":"جاده ۱۸","type":"route","route":"road","name:en":"Road 18","network":"ir:national","wikidata":"Q4811683","wikipedia":"en:Road 18 (Iran)"},"9427627":{"name":"بلوار دانشگاه","type":"route","route":"road","name:en":"Daneshghah Blvd."},"9495011":{"name":"شهدا","type":"route","route":"road"},"9602878":{"name":"خواجه نصیر طوسی","type":"route","route":"road"},"9602879":{"name":"دانشگاه","type":"route","route":"road"},"9621424":{"name":"لاله","type":"route","route":"road"},"9627483":{"name":"امیرکبیر","type":"route","route":"road"},"11206162":{"name":"پروژه آزادراه کنارگذر قم و آزادراه قم - سلفچگان - راهجرد","type":"route","route":"road"},"11292358":{"name":"Seymareh Blvd","type":"route","route":"road"},"11292359":{"name":"Niroo Havaei","type":"route","route":"road"},"11292360":{"name":"Imam Khomeini Blvd","type":"route","route":"road"},"11491238":{"ref":"16","name":"آزادراه تبریز-ارومیه","type":"route","route":"road","name:en":"Tabriz–Urmia Freeway","network":"ir:freeways","wikidata":"Q85847605","wikipedia":"fa:آزادراه تبریز–ارومیه"},"11539321":{"ref":"7","name":"آزادراه شیراز - اصفهان","type":"route","route":"road","name:en":"Shiraz - Isfahan Freeway","network":"ir:national"},"11642777":{"ref":"19","name":"Tehran 1"},"11642832":{"ref":"14","name":"Tehran 1"},"11642913":{"ref":"51","name":"Tehran 5"},"11665328":{"to":"سرخس","ref":"22","via":"رشت;ساری;گرگان;بجنورد;مشهد","from":"خلخال","name":"جاده ۲۲","type":"route","route":"road","name:en":"Road 22","network":"ir:national","wikidata":"Q4811906","wikipedia":"en:Road 22 (Iran)"},"11714437":{"ref":"Հ-49","name":"Հ-49","type":"route","route":"road","ref:en":"H-49","name:en":"Highway H-49","network":"am:national"},"11714438":{"ref":"Հ-50","name":"Հ-50","type":"route","route":"road","ref:en":"H-50","name:en":"Highway H-50","network":"am:national"},"11719443":{"ref":"Հ-82","name":"Հ-82","type":"route","route":"road","ref:en":"H-82","source":"https://hti.am/edfiles/files/POXADRUMNER/voroshum.pdf","name:en":"Highway H-82","network":"am:national"},"12048975":{"ref":"44","name":"Tehran 4"},"12049478":{"ref":"58","name":"Tehran 5"},"12049487":{"ref":"13","name":"Tehran 1"},"13430715":{"ref":"خیایان تجاری","name":"خیابان تجاری","type":"route","route":"road"},"13475538":{"to":"Saravan","from":"Khash","name":"جاده خاش-سراوان","type":"route","route":"road","name:en":"Khash-Saravan Road","name:fa":"جاده خاش-سراوان"},"13475626":{"to":"Suran","from":"Khash","name":"جاده خاش-سوران","type":"route","route":"road","name:en":"Khash-Suran Road","name:fa":"جاده خاش-سوران"},"13781912":{"to":"Saravan","ref":"92","from":"Shiraz","name":"جاده ۹۲","type":"route","route":"road","length":"1124","ref:fa":"92","name:en":"Road 92","distance":"1124","wikidata":"Q4811205","wikipedia":"fa:جاده ۹۲ (ایران)","description":"جاده ۹۲ یکی از جاده‌های ایران است. این جاده از پلیس راه فسا-شیراز دوراهی نیریز و استهبان شروع و به مرز کوهک در سراوان منتهی می گردد. قسمت کوچکی از آن با جاده ۹۱ و قسمت دیگری با جاده ۷۱ مشترک است.قسمتی از غرب این جاده، جادهٔ شیراز-بندرعباس است. قسمت مرکزی"},"13953800":{"to":"کنارک","from":"چابهار","name":"بزرگراه چابهار-کنارک","type":"route","route":"road","name:en":"Chabahar-Konarak highway"},"13977016":{"name":"Freight by-pass Teheran","type":"route","route":"road"},"15409231":{"ref":"AH70","name":"Asian Highway AH70","type":"route","route":"road","int_ref":"AH70","name:en":"Asian Highway AH70","name:fa":"بزرگراه آسیایی شماره ۷۰","name:ru":"Азиатский маршрут AH70","network":"AsianHighway","wikidata":"Q15966526","description":"Border of Ukraine – Donetsk – Volgograd – Astrakhan – Kotyaevka – Atyrau – Beyneu – Zhetybai (– Aktau) – Bekdash – Turkemenbashi – Serdar – Gudurolum – Inche Boroun – Gorgan – Sari – Semnan – Damghan – Yazd – Anar – Bandar Abbas"},"15619345":{"ref":"18","name":"جاده ۱۸","type":"route","route":"road","name:en":"Road 18","network":"ir:national","wikidata":"Q4811683","wikipedia":"en:Road 18 (Iran)"},"16205113":{"ref":"11","name":"Tehran 1"},"16205115":{"ref":"12","name":"Tehran 1"},"16205123":{"ref":"21","name":"Tehran 2"},"16205124":{"ref":"31","name":"Tehran 3"},"16205127":{"ref":"41","name":"Tehran 4"},"16205131":{"ref":"22","name":"Tehran 2"},"16205133":{"ref":"32","name":"Tehran 3"},"16205137":{"ref":"42","name":"Tehran 4"},"16205147":{"ref":"23","name":"Tehran 2"},"16205149":{"ref":"24","name":"Tehran 2"},"16205154":{"ref":"34","name":"Tehran 3"},"16205181":{"ref":"54","name":"Tehran 5"},"16205189":{"ref":"15","name":"Tehran 1"},"16205191":{"ref":"25","name":"Tehran 2"},"16207564":{"ref":"16","name":"Tehran 1"},"16207565":{"ref":"26","name":"Tehran 2"},"16207566":{"ref":"17","name":"Tehran 1"},"16207569":{"ref":"27","name":"Tehran 2"},"16207578":{"ref":"37","name":"Tehran 3"},"16207713":{"ref":"47","name":"Tehran 4"},"16207907":{"ref":"57","name":"Tehran 5"},"16208040":{"ref":"67","name":"Tehran 6"},"16208203":{"ref":"77","name":"Tehran 7"},"16208322":{"ref":"18","name":"Tehran 1"},"16208342":{"ref":"28","name":"Tehran 2"},"16208343":{"ref":"38","name":"Tehran 3"},"16208344":{"ref":"48","name":"Tehran 4"},"16208345":{"ref":"29","name":"Tehran 2"}}