{"180104":{"ref":"M41","name":"Памирский тракт","type":"route","route":"road","name:en":"Pamir Highway","name:ru":"Памирский тракт","wikidata":"Q2048673","wikipedia":"ru:Памирский тракт"},"1675066":{"to":"Раззаков","ref":"16","via":"Баткен","from":"Ош","name":"Ош - Баткен - Раззаков","type":"route","route":"road","name:en":"Osh - Batken - Razzakov","network":"ЭМ","distance":"239"},"5864981":{"ref":"E 60","name":"European route E 60","type":"route","route":"road","network":"e-road","section":"Kyrgyzstan"},"6901419":{"ref":"ЭМ-13","name":"ЭМ-13","type":"route","route":"road"},"8418873":{"ref":"E 011","name":"European route E 011","type":"route","route":"road","name:en":"European route E 011","name:fr":"Route européenne E 011","name:nl":"Europese route E011","network":"e-road","wikidata":"Q536536","description:fr":"E 011 Kokpek - Tyup"},"9923522":{"name":"North-south highway","type":"route","route":"road","wikipedia":"ru:Север — Юг (автодорога)"},"12143313":{"ref":"M-100","name":"Карагачи - Кулунду - Арка","type":"route","route":"road"},"12143711":{"ref":"M-090","from":"Osh","name":"Ош - Араван - Чекабад - граница с Республикой Узбекистан","type":"route","route":"road"},"12143730":{"ref":"M-092","name":"Караван - Тоо-Моюн - граница с Республикой Узбекистан","type":"route","route":"road"},"12145297":{"ref":"M-119","name":"Маданият - Майлуу-Суу","type":"route","route":"road"}}