{"1363359":{"to":"Svincolo di Padriciano con la S.S. n. 202 Dir","ref":"RA13","from":"Svincolo A4 presso Sistiana","name":"Raccordo autostradale 13 Sistiana-Padriciano","type":"route","route":"road","network":"IT:A-road","distance":"21.411","operator":"Anas","wikidata":"Q2125139","wikipedia":"it:Raccordo autostradale 13","official_name":"Raccordo autostradale 13 A4-Trieste"},"2810810":{"name":"청년영웅도로","type":"route","route":"road","name:en":"Youth Hero Motorway","name:ko":"청년영웅도로","name:ru":"шоссе Юных Героев","alt_name":"Pyongyang-Namp'o Motorway","wikidata":"Q1520774","name:ko-Hani":"靑年英雄道路"},"3521007":{"name":"평양-개성고속도로","type":"route","route":"road","name:en":"Pyongyang–Kaesong Motorway","name:ko":"평양-개성고속도로","name:ru":"шоссе Пхеньян-Кэсон","name:zh":"平壤—開城高速公路","wikidata":"Q710413","name:ko-Hani":"平壤-開城高速道路"},"5135421":{"name":"평양원산관광도로","type":"route","route":"road","name:en":"Pyongyang–Wonsan Tourist Motorway","name:ko":"평양원산관광도로","wikidata":"Q8013011"},"5135675":{"name":"원산금강산고속도로","type":"route","route":"road","name:en":"Wonsan–Kumgangsan Motorway","name:ko":"원산금강산고속도로","wikidata":"Q16165965"},"6597266":{"name":"평양희천고속도로","type":"route","route":"road","name:en":"Pyongyang–Huichon Motorway","name:ko":"평양희천고속도로","name:zh":"平壤熙川高速公路","wikidata":"Q4553316","name:ko-Hani":"平壤熙川高速道路"},"6992520":{"name":"천마선천간도로","type":"route","route":"road","name:en":"Chonma-Sonchon Route","name:ko":"천마선천간도로","name:ru":"шоссе Чхонма—Сончхон","name:ko-Hani":"天摩宣川間道路"},"6992568":{"name":"포태리명수간도로","type":"route","route":"road","name:en":"Potae-Rimyongsu Road","name:ko":"포태리명수간도로","name:ru":"шоссе Пхотхэ—Имёнсу","name:ko-Hani":"胞胎鯉明水間道路"},"6992601":{"name":"삼지연리명수간도로","type":"route","route":"road","name:en":"Samjiyon-Rimyongsu Road","name:ko":"삼지연리명수간도로","name:ru":"шоссе Самджиён—Имёнсу","name:ko-Hani":"三池淵鯉明水間道路"},"6992609":{"name":"백두산간삼봉간도로","type":"route","route":"road","name:en":"Paektusan-Kansambong Road","name:ko":"백두산간삼봉간도로","name:ru":"шоссе Пэктусан—Кансамбон","name:ko-Hani":"白頭山間三峯間道路"},"6992788":{"name":"신의주-우암간도로","type":"route","route":"road","name:en":"Sinuiju-Uam Road","name:ko":"신의주-우암간도로","name:ru":"шоссе Синыйджу—Уам","name:ko-Hani":"新義州-牛岩間道路"},"13008233":{"to":"Onsong","from":"Sinuiju","name":"National Road 10","type":"route","route":"road","name:ko":"국도 제10호선"},"13652344":{"name":"평양-강동고속도로","type":"route","route":"road","name:ko":"평양-강동고속도로","wikidata":"Q19162203","wikipedia":"ko:평양강동고속도로"},"17405185":{"name":"은폐도로","type":"route","route":"road","name:ko":"은폐도로"}}