{"3045934":{"name":"충절로","type":"route","route":"road","highway":"tertiary","name:en":"Chungjeol-ro","name:ko":"충절로"},"3599751":{"name":"필문대로","type":"route","route":"road"},"3836355":{"ref":"AH1","name":"아시안 하이웨이 1호선","type":"route","layer":"1","route":"road","state":"connection","int_ref":"AH1","name:bn":"এশিয়ান হাইওয়ে ১","name:de":"Asien Fernstraße AH1","name:en":"Asian Highway AH1","name:fa":"بزرگراه آسیایی شماره ۱","name:fr":"Route asiatique AH1","name:hi":"एशियाई राजमार्ग १","name:id":"Jalan Asia AH1","name:ja":"アジアハイウェイ1号線","name:km":"ផ្លូវហាយវេអាស៊ី១","name:ko":"아시안 하이웨이 1호선","name:ms":"Lebuh Raya Asia AH1","name:my":"အာရှအဝေးပြေး ၁","name:ru":"Азиатский маршрут AH1","name:th":"ทางหลวงสายเอเชียAH1","name:tr":"Asya Yolu AH1","name:vi":"Đường Xuyên Á AH1","name:zh":"亚洲公路1号线","network":"AH","section":"Korea","alt_name":"아주공로 1호선","int_name":"Asian Highway AH1","wikidata":"Q494205","wikipedia":"en:AH1"},"4422535":{"name":"박촌로","type":"route","route":"road","name:en":"Bakchon-ro","name:ko":"박촌로"},"4424719":{"to":"성남시 분당구 삼평동 판교JC (순환선)","ref":"100","from":"성남시 분당구 삼평동 판교JC (순환선)","name":"수도권제1순환고속도로","road":"kr:expressway","type":"route","route":"road","name:en":"Sudogwon Je1sunhwan Expressway","name:ko":"수도권제1순환고속도로","network":"KR:expressway","distance":"128","operator":"Korea Expressway Corporation","wikidata":"Q482928","wikipedia":"ko:서울외곽순환고속도로","alt_name:en":"Capital Region First Ring Expressway","name:ko-Latn":"Sudogwonjeilsunhwangosokdoro"},"4424980":{"ref":"130","name":"인천국제공항고속도로","road":"kr:expressway","type":"route","route":"road","name:en":"Incheon International Airport Expressway","name:ja":"仁川国際空港高速道路","name:ko":"인천국제공항고속도로","operator":"New Airport Highway","wikidata":"Q482936"},"6729349":{"ref":"15","name":"서해안고속도로","type":"route","route":"road","name:de":"Seohaean Expressway","name:en":"15 - Seohaean Expressway","name:ja":"西海岸高速道路","name:ko":"서해안고속도로","wikidata":"Q496927"},"6729351":{"ref":"60","name":"대한민국 국가지원지방도 제60호선","type":"route","route":"road","name:en":"Local Road 60 (South Korea)","name:ko":"대한민국 국가지원지방도 제60호선","wikidata":"Q12585625","wikipedia":"ko:국가지원지방도 제60호선"},"6769317":{"ref":"55","name":"중앙고속도로","toll":"yes","type":"route","route":"road","name:en":"Jungang Expressway","name:ko":"중앙고속도로","wikidata":"Q482956"},"6818097":{"to":"서울특별시 서초구 양재동 양재IC","ref":"1","from":"부산광역시 금정구 구서동 구서IC","name":"경부고속도로","type":"route","route":"road","name:en":"Gyeongbu Expressway","name:ko":"경부고속도로","distance":"416.05km","wikidata":"Q491254","wikipedia":"ko:경부고속도로"},"6820036":{"ref":"10","name":"남해고속도로","type":"route","route":"road","name:en":"10 - Namhae Expressway","name:ko":"남해고속도로","wikidata":"Q488991"},"6829828":{"ref":"34","name":"대한민국 국도 제34호선","type":"route","route":"road","name:en":"National Road 34 (South Korea)","name:ko":"대한민국 국도 제34호선","network":"KR:national"},"6902744":{"ref":"27","name":"순천완주고속도로","type":"route","route":"road","name:en":"Suncheonwanju Expressway","name:ko":"순천완주고속도로","wikidata":"Q485043","wikipedia":"ko:순천완주고속도로"},"6902745":{"ref":"20","name":"새만금포항고속도로","type":"route","route":"road","name:en":"Saemangeum Pohang Expressway","name:ja":"セマングム浦項高速道路","name:ko":"새만금포항고속도로","wikidata":"Q484617","wikipedia":"ko:새만금포항고속도로"},"6903346":{"ref":"35","name":"중부고속도로","type":"route","route":"road","name:en":"Jungbu Expressway","name:ko":"중부고속도로","wikidata":"Q489715"},"6947202":{"ref":"253","name":"고창담양고속도로","type":"route","route":"road","name:en":"Gochang–Damyang Expressway","name:ko":"고창담양고속도로","wikidata":"Q625003"},"6947203":{"ref":"451","name":"중부내륙고속도로지선","type":"route","route":"road","name:en":"Jungbunaeryuk Expressway Branch","name:ko":"중부내륙고속도로지선","wikidata":"Q483526","wikipedia":"ko:중부내륙고속도로지선"},"6947204":{"ref":"45","name":"중부내륙고속도로","type":"route","route":"road","name:en":"Jungbunaeryuk Expressway","name:ko":"중부내륙고속도로","wikidata":"Q487746"},"6947205":{"ref":"25","name":"논산천안고속도로","type":"route","route":"road","name:en":"Nonsan-Cheonan Expressway","name:ko":"논산천안고속도로","wikidata":"Q482778","wikipedia":"ko:논산천안고속도로"},"6947206":{"ref":"102","name":"남해고속도로제1지선","type":"route","route":"road","name:en":"Namhae Expressway Branch 1","name:ko":"남해고속도로제1지선","wikidata":"Q12590096"},"6947207":{"ref":"105","name":"남해고속도로제3지선","type":"route","route":"road","name:en":"Namhae Expressway Branch 3","name:ko":"남해고속도로제3지선","wikidata":"Q12590097"},"6947208":{"ref":"104","name":"남해고속도로제2지선","type":"route","route":"road","name:en":"Namhae Expressway Branch 2","name:ko":"남해고속도로제2지선","wikidata":"Q12590098"},"6947210":{"ref":"151","name":"서천공주고속도로","type":"route","route":"road","name:en":"Seocheon-Gongju Expressway","name:ko":"서천공주고속도로","wikidata":"Q624450"},"6952266":{"ref":"65","name":"동해고속도로","type":"route","layer":"1","route":"road","name:en":"Donghae Expressway","name:ko":"동해고속도로","wikidata":"Q482897","name:ko-Latn":"Donghaegosokdoro"},"6952267":{"ref":"16","name":"울산고속도로","type":"route","route":"road","name:en":"Ulsan Expressway","name:ko":"울산고속도로","wikidata":"Q482946","wikipedia":"ko:울산고속도로"},"6952268":{"to":"서창IC","ref":"50","from":"강릉JC","name":"영동고속도로","type":"route","layer":"1","route":"road","name:en":"Yeongdong Expressway","name:ja":"嶺東高速道路","name:ko":"영동고속도로","wikidata":"Q482953","wikipedia":"ko:영동고속도로"},"6952269":{"ref":"171","name":"용인서울고속도로","type":"route","route":"road","name:en":"Yongin–Seoul Expressway","name:ko":"용인서울고속도로","name:ko-Latn":"Yongin Seoul Gosok Doro"},"6952271":{"to":"경기도 화성시 방교동","ref":"400","from":"경기도 화성시 봉담읍","name":"수도권제2순환고속도로","type":"route","route":"road","name:en":"Sudogwon Je2sunhwan Expressway","name:ko":"수도권제2순환고속도로","network":"KR:expressway","wikidata":"Q623869","wikipedia":"ko:수도권제2순환고속도로","alt_name:en":"Capital Region Second Ring Expressway","name:ko-Latn":"sudogwonje2sunhwangosogdolo"},"6955528":{"ref":"40","name":"평택제천고속도로","type":"route","layer":"1","route":"road","name:en":"Pyeongtaek-Jecheon Expressway","name:ko":"평택제천고속도로","wikidata":"Q482933"},"6955529":{"ref":"120","name":"경인고속도로","type":"route","route":"road","name:en":"Gyeongin Expressway","name:ko":"경인고속도로"},"6955530":{"ref":"110","name":"제2경인고속도로","type":"route","route":"road","name:en":"Je2yeongin Expressway","name:ja":"第2京仁高速道路","name:ko":"제2경인고속도로","network":"KR:expressway","wikidata":"Q482896","alt_name:en":"Je2gyeongin Expressway"},"6955531":{"ref":"153","name":"평택시흥고속도로","type":"route","route":"road","name:en":"Pyeongtaek-Siheung Expressway","name:ko":"평택시흥고속도로","wikidata":"Q6808196"},"6959718":{"ref":"551","name":"중앙고속도로지선","type":"route","route":"road","name:en":"Jungang Expressway Branch","name:ko":"중앙고속도로지선","wikidata":"Q15972888","wikipedia":"ko:중앙고속도로지선"},"6959719":{"ref":"12","name":"무안광주고속도로","type":"route","route":"road","name:en":"Muangwangju Expressway","name:ko":"무안광주고속도로","wikidata":"Q624074","wikipedia":"ko:무안광주고속도로","name:ko-Latn":"Muangwangjugosokdoro"},"6959720":{"to":"대구광역시 달성군 옥포읍 옥포JC","ref":"12","from":"광주광역시 북구 문흥동 문흥JC","name":"광주대구고속도로","type":"route","layer":"1","route":"road","name:en":"Gwangju–Daegu Expressway","name:ko":"광주대구고속도로","old_name":"88올림픽고속도로","wikidata":"Q488988","wikipedia":"ko:광주대구고속도로","old_name:en":"88 Olympic Expressway"},"6962775":{"ref":"52","name":"광주원주고속도로","type":"route","fixme":"하이패스 경우에는 highway=toll_gantry 를 사용하는것을 추천드리며, 위성 경우에는 최근 블로그 위성이 업데이트 되었으나 완벽하지않아 서로 병해하며 최대한 자연스럽게 편집 부탁드립니다! - 한국 OSM","route":"road","name:en":"Gwangju-Wonju Expressway","name:ko":"광주원주고속도로","wikidata":"Q6806666","wikipedia":"ko:광주원주고속도로"},"6962776":{"ref":"37","name":"제2중부고속도로","type":"route","route":"road","name:en":"2nd Jungbu Expressway","name:ko":"제2중부고속도로","wikidata":"Q7443389"},"6962777":{"ref":"60","name":"서울양양고속도로","type":"route","route":"road","name:en":"Seoul–Yangyang Expressway","name:ko":"서울양양고속도로","wikidata":"Q484714","wikipedia":"ko:서울양양고속도로"},"6962778":{"ref":"251","name":"호남고속도로지선","type":"route","route":"road","name:en":"Honam Expressway Branch","name:ko":"호남고속도로지선","alt_name":"호남고속도로의지선","distance":"54 km","old_name":"호남고속도로","wikidata":"Q5892008","wikipedia":"ko:호남고속도로지선","start_date":"1970-12-30","name:ko-Latn":"Honam Gosok Doro Jiseon"},"6962937":{"ref":"300","name":"대전남부순환고속도로","type":"route","route":"road","name:en":"Daejeon Southern Ring Expressway","name:ko":"대전남부순환고속도로","wikidata":"Q483015","name:ko-Latn":"Daejeon Nambu Sunhwan Gosokdoro"},"6982100":{"to":"경기도 과천시 주암동 선암TG (양재대로 직결)","ref":"94;7","from":"경기도 광명시 소하동 소하JC","name":"강남순환로","type":"route","route":"road","name:en":"Gangnamsunhwan-ro","name:ko":"강남순환로","network":"KR:94:Seoul","alt_name":"서울특별시도 94번","distance":"13.82km","wikidata":"Q12582766","wikipedia":"ko:강남순환로","alt_name:en":"Seoul Metropolitan City Route 94"},"7112962":{"name":"금샘로485번길","type":"route","route":"road","highway":"tertiary","name:ko":"금샘로485번길"},"7186036":{"name":"지방도 제910호선","type":"route","route":"road","wikidata":"Q16726679","wikipedia":"ko:지방도 제910호선"},"7369785":{"name":"비봉-매송간 도시고속도로","type":"route","route":"road","alt_name":"비봉매송로","alt_name:en":"Bibongmaesong-ro"},"7388660":{"name":"번영로","type":"route","route":"road","name:en":"Beonyeong-ro","name:ko":"번영로"},"7390666":{"name":"서부대로","type":"route","route":"road","name:en":"Seobu-daero","name:ko":"서부대로"},"7800458":{"name":"세종오송로","type":"route","route":"road","name:en":"Sejongosong-ro","name:ko":"세종오송로"},"7800460":{"name":"한누리대로","type":"route","route":"road","name:en":"Hannuri-daero","name:ko":"한누리대로"},"7837152":{"name":"천안대로","type":"route","route":"road","name:en":"Cheonan-daero","name:ko":"천안대로"},"7873770":{"ref":"35","name":"통영대전고속도로","type":"route","layer":"1","route":"road","name:en":"Tongyeong–Daejeon Expressway","name:ko":"통영대전고속도로","wikidata":"Q12621239"},"7876182":{"ref":"17","name":"평택화성고속도로","type":"route","route":"road","name:en":"Pyeongtaek–Hwaseong Expressway","name:ko":"평택화성고속도로","wikidata":"Q624091","wikipedia":"ko:평택파주고속도로"},"7876414":{"ref":"171","name":"오산화성고속도로","type":"route","route":"road","name:en":"Osan–Hwaseong Expressway","name:ko":"오산화성고속도로","distance":"2.55 km","start_date":"2009-10-29"},"7876567":{"ref":"29","name":"세종포천고속도로","type":"route","route":"road","name:en":"Sejong-Pocheon Expressway","name:ko":"세종포천고속도로","network":"KR:29:expressway","old_name":"구리포천고속도로","wikidata":"Q6856141","wikipedia":"ko:세종포천고속도로","old_name:en":"Guri-Pocheon Expressway"},"7877760":{"name":"세종평택로","type":"route","route":"road","name:en":"Sejongpyeongtaek-ro","name:ko":"세종평택로"},"7883036":{"name":"세종로","type":"route","route":"road","name:en":"Sejong-ro","name:ko":"세종로"},"7883901":{"name":"정안세종로","type":"route","route":"road","name:en":"Jeongansejong-ro","name:ko":"정안세종로"},"7883902":{"ref":"43","name":"대한민국 국도 제43호선","type":"route","route":"road","name:en":"National Road 43 (South Korea)","name:ko":"대한민국 국도 제43호선","network":"KR:national","alt_name":"세종~고성선","name:ko-Hani":"大韓民國 國道 第43號線"},"7883994":{"name":"행복대로","type":"route","route":"road","name:en":"Haengbok-daero","name:ko":"행복대로"},"7885294":{"name":"연청로","type":"route","route":"road","name:en":"Yeoncheong-ro","name:ko":"연청로"},"7886282":{"ref":"32","from":"옥산JC","name":"당진청주고속도로","type":"route","route":"road","name:en":"Dangjin-Cheongju Expressway","name:ko":"당진청주고속도로","old_name":"아산청주고속도로","wikidata":"Q16098445","wikipedia":"ko:아산청주고속도로","old_name:en":"Asan-Cheongju Expressway"},"7894853":{"ref":"23","name":"대한민국 국도 제23호선","type":"route","route":"road","name:en":"National Road 23 (South Korea)","name:ko":"대한민국 국도 제23호선","network":"KR:national","alt_name":"강진~천안선","wikidata":"Q16098712","name:ko-Hani":"大韓民國 國道 第23號線"},"7895009":{"ref":"17","name":"대한민국 국도 제17호선","type":"route","route":"road","name:en":"National Road 17 (South Korea)","name:ko":"대한민국 국도 제17호선","network":"KR:national","alt_name":"여수~광주선","wikidata":"Q6838030"},"7895010":{"ref":"25","name":"대한민국 국도 제25호선","type":"route","route":"road","name:en":"National Road 25 (South Korea)","name:ko":"대한민국 국도 제25호선","network":"KR:national","alt_name":"창원 ~ 청주선","wikidata":"Q16099523"},"7895011":{"name":"3순환로","type":"route","route":"road","name:en":"3sunhwan-ro","name:ko":"3순환로"},"7895012":{"ref":"36","name":"대한민국 국도 제36호선","type":"route","route":"road","name:en":"National Road 36 (South Korea)","name:ko":"대한민국 국도 제36호선","network":"KR:national","alt_name":"보령~울진선"},"7897838":{"name":"1순환로","type":"route","route":"road","name:en":"1sunhwan-ro","name:ko":"1순환로"},"7897839":{"name":"2순환로","type":"route","route":"road","name:en":"2sunhwan-ro","name:ko":"2순환로"},"7901334":{"ref":"330","name":"제3경인고속화도로","type":"route","route":"road","name:en":"Je3gyeongin Expressway","name:ko":"제3경인고속화도로"},"7907028":{"ref":"38","name":"대한민국 국도 제38호선","type":"route","route":"road","name:en":"National Route 38 (South Korea)","name:ko":"대한민국 국도 제38호선","network":"KR:national","alt_name":"서산~동해선","name:ko-Hani":"大韓民國 國道 第38號線"},"7908637":{"ref":"600","name":"부산외곽순환고속도로","type":"route","route":"road","name:en":"Busan Ring Expressway","name:ko":"부산외곽순환고속도로","wikidata":"Q12598833"},"7920443":{"name":"경기대로","type":"route","route":"road","name:en":"Gyeonggi-daero","name:ko":"경기대로"},"8152474":{"ref":"17","name":"평택파주고속도로","type":"route","route":"road","name:en":"Pyeongtaek-Paju Expressway","name:ko":"평택파주고속도로","wikidata":"Q624091","wikipedia":"ko:평택파주고속도로"},"8241020":{"ref":"82","name":"대한민국 국도 제82호선","type":"route","route":"road","name:en":"National Route 82 (South Korea)","name:ko":"대한민국 국도 제82호선","network":"KR:national","wikipedia":"ko:국도 제82호선"},"8241566":{"ref":"88","name":"대한민국 국도 제88호선","type":"route","route":"road","name:en":"National Road 88 (South Korea)","name:ko":"대한민국 국도 제88호선","network":"KR:national","wikidata":"Q12585678","wikipedia":"ko:국도 제88호선"},"8247359":{"ref":"1131","name":"지방도 제1131호선","type":"route","route":"road","name:ko":"지방도 제1131호선","network":"KR:local","alt_name":"5·16도로","wikipedia":"ko:지방도 제1131호선"},"8253845":{"ref":"32","name":"대한민국 국가지원지방도 제32호선","type":"route","route":"road","name:en":"Local Road 32 (South Korea)","name:ko":"대한민국 국가지원지방도 제32호선"},"8372579":{"ref":"23","name":"대한민국 국가지원지방도 제23호선","type":"route","route":"road","name:en":"Local Road 23 (South Korea)","name:ko":"대한민국 국가지원지방도 제23호선","wikidata":"Q12585618","wikipedia":"ko:국가지원지방도 제23호선"},"8383868":{"name":"삼사로","type":"route","route":"road","name:en":"Samsa-ro","name:ko":"삼사로"},"8383942":{"ref":"45","name":"대한민국 국도 제45호선","type":"route","route":"road","name:en":"National Route 45 (South Korea)","name:ko":"대한민국 국도 제45호선","network":"KR:national"},"8384009":{"name":"대한민국 국도 제21호선","type":"route","route":"road","name:en":"National Road 21 (South Korea)","name:ko":"대한민국 국도 제21호선","network":"KR:national","wikidata":"Q16099518"},"8704222":{"to":"순천","ref":"25","from":"논산","name":"호남고속도로","toll":"yes","type":"route","route":"road","name:en":"Honam Expressway","name:ko":"호남고속도로","wikidata":"Q482726"},"8704223":{"to":"논산","ref":"25","from":"순천","name":"호남고속도로","toll":"yes","type":"route","route":"road","name:en":"Honam Expressway","name:ko":"호남고속도로","wikidata":"Q482726"},"8844053":{"ref":"1116","name":"지방도 제1116호선","type":"route","route":"road","name:ko":"지방도 제1116호선","alt_name":"한창로","wikipedia":"ko:지방도 제1116호선"},"8846860":{"ref":"1115","name":"지방도 제1115호선","type":"route","route":"road","name:ko":"지방도 제1115호선","alt_name":"제2산록도로","wikipedia":"ko:지방도 제1115호선"},"8847142":{"ref":"1117","name":"지방도 제1117호선","type":"route","route":"road","name:ko":"지방도 제1117호선","alt_name":"제1산록도로","wikipedia":"ko:지방도 제1117호선"},"8847398":{"ref":"99","name":"대한민국 국가지원지방도 제99호선","type":"route","route":"road","name:en":"Local Road 99 (South Korea)","name:ko":"대한민국 국가지원지방도 제99호선","alt_name":"남조로","wikidata":"Q12617913","wikipedia":"ko:국가지원지방도 제99호선"},"8849651":{"ref":"1119","name":"지방도 제1119호선","type":"route","route":"road","name:ko":"지방도 제1119호선","alt_name":"서성로","wikipedia":"ko:지방도 제1119호선"},"8895512":{"ref":"1120","name":"지방도 제1120호선","type":"route","route":"road","name:ko":"지방도 제1120호선","alt_name":"대한로","wikipedia":"ko:지방도 제1120호선"},"8895766":{"ref":"1121","name":"지방도 제1121호선","type":"route","route":"road","name:ko":"지방도 제1121호선","alt_name":"제안로","wikipedia":"ko:지방도 제1121호선"},"8897865":{"ref":"1112","name":"지방도 제1112호선","type":"route","route":"road","name:ko":"지방도 제1112호선","alt_name":"비자림로","wikipedia":"ko:지방도 제1112호선"},"8910045":{"ref":"87","name":"대한민국 국도 제87호선","type":"route","route":"road","name:en":"National Road 87 (South Korea)","name:ko":"대한민국 국도 제87호선","network":"KR:national","wikidata":"Q16098969","wikipedia":"ko:국도 제87호선"},"8940964":{"ref":"79","name":"대한민국 국도 제79호선","type":"route","route":"road","name:en":"National Route 79 (South Korea)","name:ko":"대한민국 국도 제79호선","network":"KR:national","wikipedia":"ko:국도 제79호선"},"8945164":{"ref":"75","name":"대한민국 국도 제75호선","type":"route","route":"road","name:en":"National Route 75 (South Korea)","name:ko":"대한민국 국도 제75호선","network":"KR:national","wikipedia":"ko:국도 제75호선"},"8975690":{"ref":"67","name":"대한민국 국도 제67호선","type":"route","route":"road","name:en":"National Route 67 (South Korea)","name:ko":"대한민국 국도 제67호선","network":"KR:national","wikipedia":"ko:국도 제67호선"},"9043750":{"ref":"28","name":"대한민국 국가지원지방도 제28호선","type":"route","route":"road","name:en":"Local Road 28 (South Korea)","name:ko":"대한민국 국가지원지방도 제28호선","wikipedia":"ko:국가지원지방도 제28호선"},"9045664":{"ref":"58","name":"대한민국 국도 제58호선","type":"route","route":"road","name:en":"National Route 58 (South Korea)","name:ko":"대한민국 국도 제58호선","network":"KR:national","wikipedia":"ko:국도 제58호선"},"9048220":{"ref":"56","name":"대한민국 국도 제56호선","type":"route","route":"road","name:en":"National Route 56 (South Korea)","name:ko":"대한민국 국도 제56호선","network":"KR:national","wikipedia":"ko:국도 제56호선"},"9050777":{"ref":"48","name":"대한민국 국도 제48호선","type":"route","route":"road","name:en":"National Route 48 (South Korea)","name:ko":"대한민국 국도 제48호선","network":"KR:national","wikipedia":"ko:국도 제48호선"},"9054186":{"ref":"47","name":"대한민국 국도 제47호선","type":"route","route":"road","name:en":"National Route 47 (South Korea)","name:ko":"대한민국 국도 제47호선","network":"KR:national","wikipedia":"ko:국도 제47호선"},"9060003":{"ref":"46","name":"대한민국 국도 제46호선","type":"route","route":"road","name:en":"National Route 46 (South Korea)","name:ko":"대한민국 국도 제46호선","network":"KR:national","wikipedia":"ko:국도 제46호선"},"9087297":{"ref":"842","name":"지방도 제842호선","type":"route","route":"road","name:ko":"지방도 제842호선","wikipedia":"ko:지방도 제842호선"},"9092010":{"ref":"701","name":"대한민국 지방도 제701호선","type":"route","route":"road","name:en":"Local Road 701 (South Korea)","name:ko":"대한민국 지방도 제701호선","wikidata":"Q16098801","wikipedia":"ko:지방도 제701호선"},"9092573":{"ref":"702","name":"대한민국 지방도 제702호선","type":"route","route":"road","name:en":"Local Road 702 (South Korea)","name:ko":"대한민국 지방도 제702호선","wikipedia":"ko:지방도 제702호선"},"9092989":{"ref":"705","name":"지방도 제705호선","type":"route","route":"road","name:ko":"지방도 제705호선","wikipedia":"ko:지방도 제705호선"},"9095228":{"ref":"706","name":"대한민국 지방도 제706호선","type":"route","route":"road","name:en":"Local Road 706 (South Korea)","name:ko":"대한민국 지방도 제706호선","wikipedia":"ko:지방도 제706호선"},"9095420":{"ref":"707","name":"지방도 제707호선","type":"route","route":"road","name:ko":"지방도 제707호선","wikipedia":"ko:지방도 제707호선"},"9097871":{"ref":"708","name":"지방도 제708호선","type":"route","route":"road","name:ko":"지방도 제708호선","wikipedia":"ko:지방도 제708호선"},"9099399":{"ref":"404","name":"대한민국 지방도 제404호선","type":"route","route":"road","name:en":"Local Road 404 (South Korea)","name:ko":"대한민국 지방도 제404호선","wikidata":"Q16101402","wikipedia":"ko:지방도 제404호선"},"9100963":{"ref":"406","name":"대한민국 지방도 제406호선","type":"route","route":"road","name:en":"Local Road 406 (South Korea)","name:ko":"대한민국 지방도 제406호선","wikidata":"Q15220475","wikipedia":"ko:지방도 제406호선"},"9100987":{"ref":"407","name":"대한민국 지방도 제407호선","type":"route","route":"road","name:en":"Local Road 407 (South Korea)","name:ko":"대한민국 지방도 제407호선","wikipedia":"ko:지방도 제407호선"},"9101483":{"ref":"408","name":"대한민국 지방도 제408호선","type":"route","route":"road","name:en":"Local Road 408 (South Korea)","name:ko":"대한민국 지방도 제408호선","wikipedia":"ko:지방도 제408호선"},"9192549":{"ref":"409","name":"지방도 제409호선","type":"route","route":"road","name:en":"Local Road 409 (South Korea)","name:ko":"지방도 제409호선","wikidata":"Q16101405","wikipedia":"ko:지방도 제409호선"},"9195221":{"ref":"410","name":"지방도 제410호선","type":"route","route":"road","name:en":"Local Road 410 (South Korea)","name:ko":"지방도 제410호선","wikidata":"Q12617934","wikipedia":"ko:지방도 제410호선"},"9195279":{"ref":"411","name":"대한민국 지방도 제411호선","type":"route","route":"road","name:en":"Local Road 411 (South Korea)","name:ko":"대한민국 지방도 제411호선","wikipedia":"ko:지방도 제411호선"},"9195285":{"ref":"414","name":"지방도 제414호선","type":"route","route":"road","name:en":"Local Road 414 (South Korea)","name:ko":"지방도 제414호선","wikidata":"Q16101411","wikipedia":"ko:지방도 제414호선"},"9197871":{"ref":"416","name":"지방도 제416호선","type":"route","route":"road","name:en":"Local Road 416 (South Korea)","name:ko":"지방도 제416호선","wikidata":"Q16101414","wikipedia":"ko:지방도 제416호선"},"9197896":{"ref":"418","name":"지방도 제418호선","type":"route","route":"road","name:en":"Local Road 418 (South Korea)","name:ko":"지방도 제418호선","wikidata":"Q16101415","wikipedia":"ko:지방도 제418호선"},"9197985":{"ref":"420","name":"대한민국 지방도 제420호선","type":"route","route":"road","name:en":"Local Road 420 (South Korea)","name:ko":"대한민국 지방도 제420호선","wikidata":"Q16189948","wikipedia":"ko:지방도 제420호선"},"9477715":{"ref":"601","name":"대한민국 지방도 제601호선","type":"route","route":"road","name:en":"Local Road 601","name:ko":"대한민국 지방도 제601호선","wikidata":"Q12617944","wikipedia":"ko:지방도 제601호선"},"9522936":{"ref":"606","name":"대한민국 지방도 제606호선","type":"route","route":"road","name:en":"Local Road 606 (South Korea)","name:ko":"대한민국 지방도 제606호선","wikidata":"Q16098741","wikipedia":"ko:지방도 제606호선"},"9523067":{"ref":"609","name":"대한민국 지방도 제609호선","type":"route","route":"road","name:en":"Local Road 609 (South Korea)","name:ko":"대한민국 지방도 제609호선","wikipedia":"ko:지방도 제609호선"},"9523493":{"ref":"611","name":"대한민국 지방도 제611호선","type":"route","route":"road","name:en":"Local Road 611 (South Korea)","name:ko":"대한민국 지방도 제611호선","wikidata":"Q16100125","wikipedia":"ko:지방도 제611호선"},"9524754":{"ref":"613","name":"대한민국 지방도 제613호선","type":"route","route":"road","name:en":"Local Road 613 (South Korea)","name:ko":"대한민국 지방도 제613호선","wikidata":"Q16865096","wikipedia":"ko:지방도 제613호선"},"9525060":{"ref":"615","name":"대한민국 지방도 제615호선","type":"route","route":"road","name:en":"Local Road 615 (South Korea)","name:ko":"대한민국 지방도 제615호선","wikipedia":"ko:지방도 제615호선"},"9531799":{"ref":"645","name":"지방도 제645호선","type":"route","route":"road","name:ko":"지방도 제645호선","wikipedia":"ko:지방도 제645호선"},"9533528":{"ref":"616","name":"대한민국 지방도 제616호선","type":"route","route":"road","name:en":"Local Road 616 (South Korea)","name:ko":"대한민국 지방도 제616호선","wikipedia":"ko:지방도 제616호선"},"10150630":{"ref":"618","name":"대한민국 지방도 제618호선","type":"route","route":"road","name:en":"Local Road 618 (South Korea)","name:ko":"대한민국 지방도 제618호선","wikipedia":"ko:지방도 제618호선"},"10517886":{"to":"경기도 의정부시 녹양동 녹양사거리","ref":"39","from":"충청남도 부여군 부여읍 신대리 신대리삼거리","name":"대한민국 국도 제39호선","type":"route","route":"road","name:en":"National Route 39 (South Korea)","name:ko":"대한민국 국도 제39호선","network":"KR:national","wikidata":"Q12585668","wikipedia":"ko:국도 제39호선"},"10662660":{"ref":"20","name":"대한민국 국도 제20호선","type":"route","route":"road","name:en":"National Road 20 (South Korea)","name:ko":"대한민국 국도 제20호선","network":"KR:national","wikidata":"Q12585655"},"10662661":{"ref":"33","name":"국도 제33호선","type":"route","route":"road","name:en":"National Route 33","name:ko":"국도 제33호선"},"10663276":{"ref":"14","name":"대한민국 국도 제14호선","type":"route","route":"road","name:en":"National Road 14 (South Korea)","name:ko":"대한민국 국도 제14호선","network":"KR:national","wikidata":"Q16099516"},"10663585":{"ref":"19","name":"대한민국 국도 제19호선","type":"route","route":"road","name:en":"National Road 19 (South Korea)","name:ko":"대한민국 국도 제19호선","network":"KR:national","wikidata":"Q12585657"},"10665554":{"ref":"204","name":"새만금포항고속도로지선","type":"route","route":"road","name:en":"Saemangeum-Pohang Jiseon Expressway","name:ko":"새만금포항고속도로지선","wikidata":"Q61095765","wikipedia":"ko:새만금포항고속도로지선"},"10669002":{"to":"장암동","ref":"61;2","from":"복정교차로","name":"동부간선도로","type":"route","route":"road","name:en":"Dongbu Expressway","name:ko":"동부간선도로","network":"KR:61:Seoul","alt_name":"서울특별시도 제61호선","distance":"32.53km","wikidata":"Q12593392","wikipedia":"ko:동부간선도로","start_date":"1992/1994","alt_name:en":"Seoul Metropolitan City Route 61","alt_name:ko":"동부간선로","name:ko-Latn":"Dongbuganseondoro"},"10670262":{"ref":"28","name":"대한민국 국도 제28호선","type":"route","route":"road","name:en":"National Road 28 (South Korea)","name:ko":"대한민국 국도 제28호선","network":"KR:national","wikidata":"Q16099529"},"10670441":{"ref":"35","name":"대한민국 국도 제35호선","type":"route","route":"road","name:en":"National Road 35 (South Korea)","name:ko":"대한민국 국도 제35호선","network":"KR:national"},"10670500":{"ref":"7","name":"대한민국 국도 제7호선","type":"route","route":"road","name:en":"National Road 7 (South Korea)","name:ko":"대한민국 국도 제7호선","network":"KR:national","wikidata":"Q6837784"},"10676761":{"to":"성동JC","ref":"30;C3","from":"성산대교 북단","name":"내부순환로","type":"route","route":"road","name:en":"Naebu Expressway","name:ko":"내부순환로","network":"KR:30:Seoul","alt_name":"서울특별시도 30번","distance":"19.73","wikidata":"Q10856106","wikipedia":"ko:내부순환로","alt_name:en":"Seoul Special Metropolitan City Route 30"},"10691853":{"ref":"301","name":"대한민국 지방도 제301호선","type":"route","route":"road","name:en":"Local Road 301 (South Korea)","name:ko":"대한민국 지방도 제301호선","network":"KR:local"},"10693910":{"ref":"306","name":"대한민국 지방도 제306호선","type":"route","route":"road","name:en":"Local Road 306 (South Korea)","name:ko":"대한민국 지방도 제306호선","network":"KR:local"},"10693911":{"ref":"305","name":"대한민국 지방도 제305호선","type":"route","route":"road","name:en":"Local Road 305 (South Korea)","name:ko":"대한민국 지방도 제305호선","network":"KR:local"},"10711328":{"to":"경기도 파주시 임진각(자유IC)","ref":"77","from":"부산광역시 중구 옛시청교차로","name":"대한민국 국도 제77호선","type":"route","route":"road","name:en":"National Route 77 (South Korea)","name:ko":"대한민국 국도 제77호선","network":"KR:national","wikidata":"Q12585675","wikipedia":"ko:국도 제77호선"},"10714313":{"ref":"32","name":"대한민국 국도 제32호선","type":"route","route":"road","name:en":"National Road 32 (South Korea)","name:ko":"대한민국 국도 제32호선","network":"KR:national"},"10714314":{"ref":"70","name":"대한민국 국가지원지방도 제70호선","type":"route","route":"road","name:en":"Local Road 70 (South Korea)","name:ko":"대한민국 국가지원지방도 제70호선"},"10714315":{"ref":"645","name":"대한민국 지방도 제645호선","type":"route","route":"road","name:en":"Local Road 645 (South Korea)","name:ko":"대한민국 지방도 제645호선"},"10714390":{"ref":"29","name":"대한민국 국도 제29호선","type":"route","route":"road","name:en":"National Road 29 (South Korea)","name:ko":"대한민국 국도 제29호선","network":"KR:national","wikidata":"Q12585660"},"10714431":{"ref":"40","name":"대한민국 국도 제40호선","type":"route","route":"road","name:en":"National Road 40 (South Korea)","name:ko":"대한민국 국도 제40호선","network":"KR:national"},"10716448":{"ref":"309","name":"대한민국 지방도 제309호선","type":"route","route":"road","name:en":"Local Road 309 (South Korea)","name:ko":"대한민국 지방도 제309호선","network":"KR:local"},"10716477":{"ref":"311","name":"대한민국 지방도 제311호선","type":"route","route":"road","name:en":"Local Road 311 (South Korea)","name:ko":"대한민국 지방도 제311호선","network":"KR:local"},"10716478":{"ref":"310","name":"대한민국 지방도 제310호선","type":"route","route":"road","name:en":"Local Road 310 (South Korea)","name:ko":"대한민국 지방도 제310호선","network":"KR:local"},"10717530":{"ref":"619","name":"대한민국 지방도 제619호선","type":"route","route":"road","name:en":"Local Road 619 (South Korea)","name:ko":"대한민국 지방도 제619호선"},"10717787":{"ref":"82","name":"대한민국 국가지원지방도 제82호선","type":"route","route":"road","name:en":"Local Road 82 (South Korea)","name:ko":"대한민국 국가지원지방도 제82호선"},"10724381":{"ref":"507","name":"대한민국 지방도 제507호선","type":"route","route":"road","name:en":"Local Road 507 (South Korea)","name:ko":"대한민국 지방도 제507호선"},"10724382":{"ref":"504","name":"대한민국 지방도 제504호선","type":"route","route":"road","name:en":"Local Road 504 (South Korea)","name:ko":"대한민국 지방도 제504호선"},"10724383":{"ref":"512","name":"대한민국 지방도 제512호선","type":"route","route":"road","name:en":"Local Road 512 (South Korea)","name:ko":"대한민국 지방도 제512호선"},"10724384":{"ref":"508","name":"대한민국 지방도 제508호선","type":"route","route":"road","name:en":"Local Road 508 (South Korea)","name:ko":"대한민국 지방도 제508호선","wikidata":"Q18998000","wikipedia":"ko:지방도 제508호선"},"10726333":{"ref":"592","name":"대한민국 지방도 제592호선","type":"route","route":"road","name:en":"Local Road 592 (South Korea)","name:ko":"대한민국 지방도 제592호선","wikidata":"Q16726672","wikipedia":"ko:지방도 제592호선"},"10726388":{"ref":"696","name":"대한민국 지방도 제696호선","type":"route","route":"road","name:en":"Local Road 696 (South Korea)","name:ko":"대한민국 지방도 제696호선"},"10727030":{"name":"갑천도시고속도로","type":"route","route":"road","name:en":"Gapcheondosi Expressway","name:ko":"갑천도시고속도로"},"10727443":{"ref":"635","name":"대한민국 지방도 제635호선","type":"route","route":"road","name:en":"Local Road 635 (South Korea)","name:ko":"대한민국 지방도 제635호선"},"10727745":{"ref":"57","name":"대한민국 국가지원지방도 제57호선","type":"route","route":"road","name:en":"Local Road 57 (South Korea)","name:ko":"대한민국 국가지원지방도 제57호선"},"10736921":{"ref":"623","name":"대한민국 지방도 제623호선","type":"route","route":"road","name:en":"Local Road 623 (South Korea)","name:ko":"대한민국 지방도 제623호선"},"10737017":{"ref":"693","name":"대한민국 지방도 제693호선","type":"route","route":"road","name:en":"Local Road 693 (South Korea)","name:ko":"대한민국 지방도 제693호선"},"10741371":{"ref":"313","name":"대한민국 지방도 제313호선","type":"route","route":"road","name:en":"Local Road 313 (South Korea)","name:ko":"대한민국 지방도 제313호선","network":"KR:local"},"10741394":{"ref":"314","name":"대한민국 지방도 제314호선","type":"route","route":"road","name:en":"Local Road 314 (South Korea)","name:ko":"대한민국 지방도 제314호선","network":"KR:local"},"10741807":{"ref":"318","name":"대한민국 지방도 제318호선","type":"route","route":"road","name:en":"Local Road 318 (South Korea)","name:ko":"대한민국 지방도 제318호선","network":"KR:local"},"10741808":{"ref":"317","name":"대한민국 지방도 제317호선","type":"route","route":"road","name:en":"Local Road 317 (South Korea)","name:ko":"대한민국 지방도 제317호선","network":"KR:local"},"10741812":{"ref":"315","name":"대한민국 지방도 제315호선","type":"route","route":"road","name:en":"Local Road 315 (South Korea)","name:ko":"대한민국 지방도 제315호선","network":"KR:local"},"10743651":{"ref":"37","name":"대한민국 국도 제37호선","type":"route","route":"road","name:en":"National Road 37 (South Korea)","name:ko":"대한민국 국도 제37호선","network":"KR:national"},"10743679":{"ref":"322","name":"대한민국 지방도 제322호선","type":"route","route":"road","name:en":"Local Road 322 (South Korea)","name:ko":"대한민국 지방도 제322호선","network":"KR:local"},"10743680":{"ref":"321","name":"대한민국 지방도 제321호선","type":"route","route":"road","name:en":"Local Road 321 (South Korea)","name:ko":"대한민국 지방도 제321호선","network":"KR:local"},"10749593":{"ref":"68","name":"대한민국 국가지원지방도 제68호선","type":"route","route":"road","name:en":"Local Road 68 (South Korea)","name:ko":"대한민국 국가지원지방도 제68호선"},"10755608":{"ref":"571","name":"대한민국 지방도 제571호선","type":"route","route":"road","name:en":"Local Road 571 (South Korea)","name:ko":"대한민국 지방도 제571호선","wikidata":"Q18511954","wikipedia":"ko:지방도 제571호선"},"10755789":{"ref":"691","name":"대한민국 지방도 제691호선","type":"route","route":"road","name:en":"Local Road 691 (South Korea)","name:ko":"대한민국 지방도 제691호선"},"10759594":{"to":"동두천","ref":"39","from":"양주","name":"대한민국 국가지원지방도 제39호선","type":"route","route":"road","name:en":"Local Road 39 (South Korea)","name:ko":"대한민국 국가지원지방도 제39호선","wikidata":"Q16099489","wikipedia":"ko:국가지원지방도 제39호선"},"10763045":{"ref":"329","name":"대한민국 지방도 제329호선","type":"route","route":"road","name:en":"Local Road 329 (South Korea)","name:ko":"대한민국 지방도 제329호선","network":"KR:local"},"10763046":{"ref":"325","name":"대한민국 지방도 제325호선","type":"route","route":"road","name:en":"Local Road 325 (South Korea)","name:ko":"대한민국 지방도 제325호선","network":"KR:local"},"10763420":{"ref":"1","name":"국도 제1호선 (정읍-익산)","type":"route","route":"road","name:en":"National Road 1 (South Korea) Jeongeup-Iksan"},"10763488":{"ref":"1","name":"국도 제1호선 (논산-천안)","type":"route","route":"road","name:en":"National Road 1 (South Korea) Nonseon-Cheonan"},"10763619":{"to":"파주 성동나들목","ref":"360","from":"포천 가산2교차로","name":"대한민국 지방도 제360호선","type":"route","route":"road","name:en":"Local Road 360 (South Korea)","name:ko":"대한민국 지방도 제360호선","wikidata":"Q12617927","wikipedia":"ko:지방도 제360호선"},"10764011":{"ref":"1","name":"국도 제1호선 (평택-파주)","type":"route","route":"road","name:en":"National Road 1 (South Korea) Pyeongtaek-Paju","name:ko":"국도 제1호선 (평택-파주)"},"10783716":{"name":"대한민국 국도 제31호선","type":"route","route":"road","name:en":"National Road 31 (South Korea)","name:ko":"대한민국 국도 제31호선","network":"KR:national"},"10799484":{"ref":"2","name":"대한민국 국도 제2호선","type":"route","route":"road","name:en":"National Route 2 (South Korea)","name:ko":"대한민국 국도 제2호선","network":"KR:national","alt_name":"신안~부산선","wikidata":"Q6838001","wikipedia":"ko:국도 제2호선","name:ko-Hani":"大韓民國 國道 第2號線"},"10799935":{"ref":"6","name":"대한민국 국도 제6호선","note":"인천 서구 일반국도: 2013년 지형도에서 가남로, 2015년 지형도에서 가정로로 그려져 있어 이를 반영함","type":"route","route":"road","name:en":"National Route 6 (South Korea)","name:ko":"대한민국 국도 제6호선","network":"KR:national","wikidata":"Q626015","wikipedia":"ko:국도 제6호선"},"10878382":{"ref":"30","name":"대한민국 국도 제30호선","type":"route","route":"road","name:en":"National Route 30 (South Korea)","name:ko":"대한민국 국도 제30호선","network":"KR:national"},"10878498":{"ref":"26","name":"대한민국 국도 제26호선","type":"route","route":"road","name:en":"National Route 26 (South Korea)","name:ko":"대한민국 국도 제26호선","network":"KR:national","wikidata":"Q16099526"},"10956277":{"ref":"3","name":"신평화로","type":"route","route":"road","name:en":"Sinpyeonghwa-ro","name:ko":"신평화로","wikidata":"Q12585651","wikipedia":"ko:신평화로"},"10956278":{"ref":"3","name":"국도 제3호선 (성남-철원)","type":"route","route":"road","name:en":"National Road 3 (Seongnam-Cheorwon)","name:ko":"국도 제3호선 (성남-철원)"},"10956279":{"name":"국도 제3호선 (괴산-성남)","type":"route","route":"road","name:en":"National Road 3 (South Korea) Goesan-Seongnam","name:ko":"국도 제3호선 (괴산-성남)"},"10956280":{"ref":"3","name":"국도 제3호선 (김천-문경)","type":"route","route":"road","name:en":"National Road 3 (Gimcheon-Mungyeong)","name:ko":"국도 제3호선 (김천-문경)"},"10956281":{"ref":"3","name":"국도 제3호선 (남해-거창)","type":"route","route":"road","name:en":"National Road 3 (Namhae-Geochang)","name:ko":"국도 제3호선 (남해-거창)"},"10963535":{"to":"경기도 수원시 팔달구 동수원 사거리 (순환선)","ref":"98","from":"경기도 수원시 팔달구 동수원 사거리 (순환선)","name":"대한민국 국가지원지방도 제98호선","type":"route","route":"road","name:en":"Local Road 98 (South Korea)","name:ko":"대한민국 국가지원지방도 제98호선","wikidata":"Q12585633","wikipedia":"ko:국가지원지방도 제98호선"},"10976460":{"ref":"359","name":"대한민국 지방도 제359호선","type":"route","route":"road","name:en":"Local Road 359 (South Korea)","name:ko":"대한민국 지방도 제359호선"},"10976757":{"ref":"357","name":"대한민국 지방도 제357호선","type":"route","route":"road","name:en":"Local Road 357 (South Korea)","name:ko":"대한민국 지방도 제357호선"},"10976758":{"ref":"358","name":"대한민국 지방도 제358호선","type":"route","route":"road","name:en":"Local Road 358 (South Korea)","name:ko":"대한민국 지방도 제358호선"},"10976966":{"ref":"363","name":"대한민국 지방도 제363호선","type":"route","route":"road","name:en":"Local Road 363 (South Korea)","name:ko":"대한민국 지방도 제363호선"},"10977360":{"ref":"364","name":"대한민국 지방도 제364호선","type":"route","route":"road","name:en":"Local Road 364 (South Korea)","name:ko":"대한민국 지방도 제364호선"},"10977391":{"ref":"367","name":"대한민국 지방도 제367호선","type":"route","route":"road","name:en":"Local Road 367 (South Korea)","name:ko":"대한민국 지방도 제367호선"},"10977392":{"ref":"78","name":"대한민국 지방도 제78호선","type":"route","route":"road","name:en":"Local Road 78 (South Korea)","name:ko":"대한민국 지방도 제78호선"},"10977431":{"ref":"368","name":"대한민국 지방도 제368호선","type":"route","route":"road","name:en":"Local Road 368 (South Korea)","name:ko":"대한민국 지방도 제368호선"},"10977989":{"ref":"371","name":"대한민국 지방도 제371호선","type":"route","route":"road","name:en":"Local Road 371 (South Korea)","name:ko":"대한민국 지방도 제371호선"},"10977990":{"ref":"372","name":"대한민국 지방도 제372호선","type":"route","route":"road","name:en":"Local Road 372","name:ko":"대한민국 지방도 제372호선"},"10978538":{"ref":"375","name":"대한민국 지방도 제375호선","type":"route","route":"road","name:en":"Local Road 375 (South Korea)","name:ko":"대한민국 지방도 제375호선"},"10981106":{"ref":"376","name":"대한민국 지방도 제376호선","type":"route","route":"road","name:en":"Local Road 376 (South Korea)","name:ko":"대한민국 지방도 제376호선"},"10981107":{"ref":"379","name":"대한민국 지방도 제379호선","type":"route","route":"road","name:en":"Local Road 379 (South Korea)","name:ko":"대한민국 지방도 제379호선"},"10981108":{"ref":"383","name":"대한민국 지방도 제383호선","type":"route","route":"road","name:en":"Local Road 383 (South Korea)","name:ko":"대한민국 지방도 제383호선"},"10981109":{"ref":"387","name":"대한민국 지방도 제387호선","type":"route","route":"road","name:en":"Local Road 387 (South Korea)","name:ko":"대한민국 지방도 제387호선"},"10981158":{"ref":"391","name":"대한민국 지방도 제391호선","type":"route","route":"road","name:en":"Local Road 391 (South Korea)","name:ko":"대한민국 지방도 제391호선"},"10984364":{"ref":"355","name":"대한민국 지방도 제355호선","type":"route","route":"road","name:en":"Local Road 355","name:ko":"대한민국 지방도 제355호선"},"10984365":{"ref":"352","name":"대한민국 지방도 제352호선","type":"route","route":"road","name:en":"Local Road 352","name:ko":"대한민국 지방도 제352호선"},"10984493":{"name":"대한민국 지방도 제349호선","type":"route","route":"road","name:en":"Local Road 349 (South Korea)","name:ko":"대한민국 지방도 제349호선"},"10984494":{"ref":"345","name":"대한민국 지방도 제345호선","type":"route","route":"road","name:en":"Local Road 345 (South Korea)","name:ko":"대한민국 지방도 제345호선"},"10984751":{"ref":"342","name":"대한민국 지방도 제342호선","type":"route","route":"road","name:en":"Local Road 342 (South Korea)","name:ko":"대한민국 지방도 제342호선"},"10984829":{"ref":"341","name":"대한민국 지방도 제341호선","type":"route","route":"road","name:en":"Local Road 341 (South Korea)","name:ko":"대한민국 지방도 제341호선"},"10984830":{"ref":"338","name":"대한민국 지방도 제338호선","type":"route","route":"road","name:en":"Local Road 338 (South Korea)","name:ko":"대한민국 지방도 제338호선"},"10984831":{"ref":"334","name":"대한민국 지방도 제334호선","type":"route","route":"road","name:en":"Local Road 334 (South Korea)","name:ko":"대한민국 지방도 제334호선"},"10985048":{"ref":"333","name":"대한민국 지방도 제333호선","type":"route","route":"road","name:en":"Local Road 333 (South Korea)","name:ko":"대한민국 지방도 제333호선"},"10985049":{"ref":"337","name":"대한민국 지방도 제337호선","type":"route","route":"road","name:en":"Local Road 337 (South Korea)","name:ko":"대한민국 지방도 제337호선"},"10985159":{"ref":"84","name":"대한민국 국가지원지방도 제84호선","type":"route","route":"road","name:en":"Local Road 84 (South Korea)","name:ko":"대한민국 국가지원지방도 제84호선"},"11018556":{"ref":"49","name":"대한민국 국가지원지방도 제49호선","type":"route","route":"road","name:en":"Local Road 49 (South Korea)","name:ko":"대한민국 국가지원지방도 제49호선"},"11023449":{"ref":"88","name":"대한민국 국가지원지방도 제88호선","type":"route","route":"road","name:en":"Local Road 88 (South Korea)","name:ko":"대한민국 국가지원지방도 제88호선"},"11028205":{"ref":"33","name":"대한민국 국도 제33호선","type":"route","route":"road","name:en":"National Route 33 (South Korea)","name:ko":"대한민국 국도 제33호선","network":"KR:national"},"11031051":{"ref":"42","name":"대한민국 국도 제42호선","type":"route","route":"road","name:en":"National Route 42 (South Korea)","name:ko":"대한민국 국도 제42호선","network":"KR:national"},"11033438":{"ref":"403","name":"대한민국 지방도 제403호선","type":"route","route":"road","name:en":"Local Road 403 (South Korea)","name:ko":"대한민국 지방도 제403호선","wikidata":"Q17401449","wikipedia":"ko:지방도 제403호선"},"11033440":{"ref":"86","name":"대한민국 국가지원지방도 제86호선","type":"route","route":"road","name:en":"Local Road 86 (South Korea)","name:ko":"대한민국 국가지원지방도 제86호선","wikidata":"Q16099510","wikipedia":"ko:국가지원지방도 제86호선"},"11075788":{"ref":"801","name":"대한민국 지방도 제801호선","type":"route","route":"road","name:en":"Local Road 801 (South Korea)","name:ko":"대한민국 지방도 제801호선","wikidata":"Q17095046","wikipedia":"ko:지방도 제801호선","name:ko-Hani":"大韓民國 地方道 第801號線"},"11075790":{"ref":"901","name":"대한민국 지방도 제901호선","type":"route","route":"road","name:en":"Local Road 901 (South Korea)","name:ko":"대한민국 지방도 제901호선"},"11075792":{"ref":"1001","name":"대한민국 지방도 제1001호선","type":"route","route":"road","name:en":"Local Road 1001 (South Korea)","name:ko":"대한민국 지방도 제1001호선","wikidata":"Q12617880","wikipedia":"ko:지방도 제1001호선"},"11075794":{"ref":"1112","name":"대한민국 지방도 제1112호선","type":"route","route":"road","name:en":"Local Road 1112 (South Korea)","name:ko":"대한민국 지방도 제1112호선","wikidata":"Q12617911","wikipedia":"ko:지방도 제1112호선"},"11075962":{"ref":"602","name":"대한민국 지방도 제602호선","type":"route","route":"road","name:en":"Local Road 602 (South Korea)","name:ko":"대한민국 지방도 제602호선"},"11075963":{"ref":"604","name":"대한민국 지방도 제604호선","type":"route","route":"road","name:en":"Local Road 604 (South Korea)","name:ko":"대한민국 지방도 제604호선","wikidata":"Q12617945","wikipedia":"ko:지방도 제604호선"},"11075964":{"ref":"617","name":"대한민국 지방도 제617호선","type":"route","route":"road","name:en":"Local Road 617 (South Korea)","name:ko":"대한민국 지방도 제617호선","wikidata":"Q16098762","wikipedia":"ko:지방도 제617호선"},"11075965":{"ref":"622","name":"대한민국 지방도 제622호선","type":"route","route":"road","name:en":"Local Road 622 (South Korea)","name:ko":"대한민국 지방도 제622호선","wikidata":"Q16098769","wikipedia":"ko:지방도 제622호선"},"11075966":{"ref":"624","name":"대한민국 지방도 제624호선","type":"route","route":"road","name:en":"Local Road 624 (South Korea)","name:ko":"대한민국 지방도 제624호선","wikidata":"Q12617949","wikipedia":"ko:지방도 제624호선"},"11075967":{"ref":"625","name":"대한민국 지방도 제625호선","type":"route","route":"road","name:en":"Local Road 625 (South Korea)","name:ko":"대한민국 지방도 제625호선","wikidata":"Q16865276","wikipedia":"ko:지방도 제625호선"},"11075968":{"ref":"628","name":"대한민국 지방도 제628호선","type":"route","route":"road","name:en":"Local Road 628 (South Korea)","name:ko":"대한민국 지방도 제628호선"},"11075969":{"ref":"629","name":"대한민국 지방도 제629호선","type":"route","route":"road","name:en":"Local Road 629 (South Korea)","name:ko":"대한민국 지방도 제629호선","wikidata":"Q12617952","wikipedia":"ko:지방도 제629호선"},"11075970":{"ref":"633","name":"대한민국 지방도 제633호선","type":"route","route":"road","name:en":"Local Road 633 (South Korea)","name:ko":"대한민국 지방도 제633호선"},"11075971":{"ref":"634","name":"대한민국 지방도 제634호선","type":"route","route":"road","name:en":"Local Road 634 (South Korea)","name:ko":"대한민국 지방도 제634호선","wikidata":"Q16098778","wikipedia":"ko:지방도 제634호선"},"11075972":{"ref":"643","name":"대한민국 지방도 제643호선","type":"route","route":"road","name:en":"Local Road 643 (South Korea)","name:ko":"대한민국 지방도 제643호선","wikidata":"Q16098783","wikipedia":"ko:지방도 제643호선"},"11075973":{"ref":"647","name":"대한민국 지방도 제647호선","type":"route","route":"road","name:en":"Local Road 647 (South Korea)","name:ko":"대한민국 지방도 제647호선","wikidata":"Q16098788","wikipedia":"ko:지방도 제647호선"},"11075974":{"ref":"649","name":"대한민국 지방도 제649호선","type":"route","route":"road","name:en":"Local Road 649 (South Korea)","name:ko":"대한민국 지방도 제649호선"},"11075975":{"ref":"651","name":"대한민국 지방도 제651호선","type":"route","route":"road","name:en":"Local Road 651 (South Korea)","name:ko":"대한민국 지방도 제651호선","wikidata":"Q16098792","wikipedia":"ko:지방도 제651호선"},"11075976":{"ref":"697","name":"대한민국 지방도 제697호선","type":"route","route":"road","name:en":"Local Road 697 (South Korea)","name:ko":"대한민국 지방도 제697호선","wikidata":"Q16098797","wikipedia":"ko:지방도 제697호선"},"11076037":{"ref":"501","name":"대한민국 지방도 제501호선","type":"route","route":"road","name:en":"Local Road 501 (South Korea)","name:ko":"대한민국 지방도 제501호선","wikidata":"Q16098723","wikipedia":"ko:지방도 제501호선"},"11076038":{"ref":"502","name":"대한민국 지방도 제502호선","type":"route","route":"road","name:en":"Local Road 502 (South Korea)","name:ko":"대한민국 지방도 제502호선","wikidata":"Q16189950","wikipedia":"ko:지방도 제502호선"},"11076039":{"ref":"505","name":"대한민국 지방도 제505호선","type":"route","route":"road","name:en":"Local Road 505 (South Korea)","name:ko":"대한민국 지방도 제505호선"},"11076040":{"ref":"509","name":"대한민국 지방도 제509호선","type":"route","route":"road","name:en":"Local Road 509 (South Korea)","name:ko":"대한민국 지방도 제509호선","wikidata":"Q16319036","wikipedia":"ko:지방도 제509호선"},"11076041":{"ref":"511","name":"대한민국 지방도 제511호선","type":"route","route":"road","name:en":"Local Road 511 (South Korea)","name:ko":"대한민국 지방도 제511호선","wikidata":"Q16098727","wikipedia":"ko:지방도 제511호선"},"11076042":{"ref":"513","name":"대한민국 지방도 제513호선","type":"route","route":"road","name:en":"Local Road 513 (South Korea)","name:ko":"대한민국 지방도 제513호선"},"11076043":{"name":"대한민국 지방도 제514호선","type":"route","route":"road","name:en":"Local Road 514 (South Korea)","name:ko":"대한민국 지방도 제514호선","wikidata":"Q16101435","wikipedia":"ko:지방도 제514호선"},"11076044":{"ref":"516","name":"대한민국 지방도 제516호선","type":"route","route":"road","name:en":"Local Road 516 (South Korea)","name:ko":"대한민국 지방도 제516호선","wikidata":"Q12617939","wikipedia":"ko:지방도 제516호선"},"11076045":{"ref":"517","name":"대한민국 지방도 제517호선","type":"route","route":"road","name:en":"Local Road 517 (South Korea)","name:ko":"대한민국 지방도 제517호선","wikidata":"Q16726667","wikipedia":"ko:지방도 제517호선"},"11076046":{"ref":"519","name":"대한민국 지방도 제519호선","type":"route","route":"road","name:en":"Local Road 519","name:ko":"대한민국 지방도 제519호선","wikidata":"Q16726668","wikipedia":"ko:지방도 제519호선"},"11076047":{"ref":"522","name":"대한민국 지방도 제522호선","type":"route","route":"road","name:en":"Local Road 522 (South Korea)","name:ko":"대한민국 지방도 제522호선","wikidata":"Q12617941","wikipedia":"ko:지방도 제522호선"},"11076048":{"ref":"525","name":"대한민국 지방도 제525호선","type":"route","route":"road","name:en":"Local Road 525 (South Korea)","name:ko":"대한민국 지방도 제525호선","wikidata":"Q22974998","wikipedia":"ko:지방도 제525호선"},"11076049":{"ref":"531","name":"대한민국 지방도 제531호선","type":"route","route":"road","name:en":"Local Road 531 (South Korea)","name:ko":"대한민국 지방도 제531호선","wikidata":"Q16726669","wikipedia":"ko:지방도 제531호선"},"11076050":{"ref":"532","name":"대한민국 지방도 제532호선","type":"route","route":"road","name:en":"Local Road 532 (South Korea)","name:ko":"대한민국 지방도 제532호선","wikidata":"Q12617940","wikipedia":"ko:지방도 제532호선"},"11076051":{"ref":"533","name":"대한민국 지방도 제533호선","type":"route","route":"road","name:en":"Local Road 533 (South Korea)","name:ko":"대한민국 지방도 제533호선"},"11076081":{"ref":"540","name":"대한민국 지방도 제540호선","type":"route","route":"road","name:en":"Local Road 540 (South Korea)","name:ko":"대한민국 지방도 제540호선","wikidata":"Q16726670","wikipedia":"ko:지방도 제540호선"},"11076082":{"ref":"575","name":"대한민국 지방도 제575호선","type":"route","route":"road","name:en":"Local Road 575 (South Korea)","name:ko":"대한민국 지방도 제575호선","wikidata":"Q16098733","wikipedia":"ko:지방도 제575호선"},"11076083":{"ref":"595","name":"대한민국 지방도 제595호선","type":"route","route":"road","name:en":"Local Road 595 (South Korea)","name:ko":"대한민국 지방도 제595호선","wikidata":"Q16726673","wikipedia":"ko:지방도 제595호선"},"11076084":{"ref":"599","name":"대한민국 지방도 제599호선","type":"route","route":"road","name:en":"Local Road 599","name:ko":"대한민국 지방도 제599호선","wikidata":"Q21060349","wikipedia":"ko:지방도 제599호선"},"11091365":{"ref":"22","name":"대한민국 국도 제22호선","type":"route","route":"road","name:en":"National Road 22 (South Korea)","name:ko":"대한민국 국도 제22호선","network":"KR:national","wikidata":"Q12585658","wikipedia":"ko:국도 제22호선"},"11091366":{"ref":"24","name":"대한민국 국도 제24호선","type":"route","route":"road","name:en":"National Road 24 (South Korea)","name:ko":"대한민국 국도 제24호선","network":"KR:national","wikidata":"Q16099521","wikipedia":"ko:국도 제24호선"},"11091367":{"ref":"18","name":"대한민국 국도 제18호선","type":"route","route":"road","name:en":"National Road 18 (South Korea)","name:ko":"대한민국 국도 제18호선","network":"KR:national","wikidata":"Q12585656","wikipedia":"ko:국도 제18호선"},"11116926":{"to":"서울특별시 강동구 강일동 강동대교","ref":"88;5","from":"서울특별시 강서구 개화동 행주대교","name":"올림픽대로","type":"route","route":"road","name:en":"Olympic-daero","name:ko":"올림픽대로","network":"KR:88:Seoul","alt_name":"서울특별시도 제88호선","distance":"40.678km","wikidata":"Q624164","wikipedia":"ko:올림픽대로","alt_name:en":"Seoul Special Metropolitan City Route 88"},"11116928":{"to":"경기도 남양주시 가운동 가운사거리","ref":"70;4","from":"서울특별시 마포구 상암동 가양대교","name":"강변북로","type":"route","route":"road","name:en":"Gangbyeonbuk-ro","name:ko":"강변북로","network":"KR:70:Seoul","alt_name":"서울특별시도 70번 강변북로","wikidata":"Q10855121","wikipedia":"ko:강변북로","alt_name:en":"Seoul Special Metropolitan City Route 70"},"11143964":{"name":"서부로","type":"route","route":"road","name:ko":"서부로","distance":"7.88km","wikidata":"Q55730805","wikipedia":"ko:서부로 (의정부시)"},"11144019":{"to":"서울특별시 중랑구 신내동 구리시계","ref":"3","from":"서울특별시 성북구 월곡동 하월곡JC","name":"북부간선도로","type":"route","route":"road","name:en":"Bukbu Expressway","name:ko":"북부간선도로","network":"KR;03;Seoul","alt_name":"서울특별시도 제03호선","distance":"14.4km","wikidata":"Q12599072","wikipedia":"ko:북부간선도로","alt_name:en":"Seoul Special Metropolitan City Route 03","name:ko-Latn":"Bukbuganseondoro"},"11144067":{"to":"서울특별시 영등포구 양평동3가 성산대교남단","ref":"1","from":"서울특별시 금천구 독산동 금천IC","name":"서부간선도로","type":"route","route":"road","name:en":"Seobu Expressway","name:ko":"서부간선도로","network":"KR:01:Seoul","alt_name":"서울특별시도 제01호선","distance":"12.4","wikidata":"Q16100558","wikipedia":"ko:서부간선도로","alt_name:en":"Seoul Special Metropolitan City Route 01"},"11179771":{"ref":"39","name":"신호국로","type":"route","route":"road","name:en":"Sinhoguk-ro","name:ko":"신호국로","distance":"8.3km","wikidata":"Q55731413","wikipedia":"ko:신호국로"},"11278541":{"ref":"421","name":"대한민국 일반지방도 제421호선","type":"route","route":"road","name:en":"Local Road 421 (South Korea)","name:ko":"대한민국 일반지방도 제421호선","wikipedia":"ko:지방도 제421호선"},"11285662":{"ref":"424","name":"대한민국 지방도 제424호선","type":"route","route":"road","name:en":"Local Road 424 (South Korea)","name:ko":"대한민국 지방도 제424호선","wikipedia":"ko:지방도 제424호선"},"11286320":{"ref":"427","name":"대한민국 일반지방도 제427호선","type":"route","route":"road","name:en":"Local Road 427 (South Korea)","name:ko":"대한민국 일반지방도 제427호선","wikipedia":"ko:지방도 제427호선"},"11288833":{"ref":"442","name":"대한민국 지방도 제442호선","type":"route","route":"road","name:en":"Local Road 442 (South Korea)","name:ko":"대한민국 지방도 제442호선","wikipedia":"ko:지방도 제442호선"},"11289227":{"ref":"444","name":"대한민국 일반지방도 제444호선","type":"route","route":"road","name:en":"Local Road 444 (South Korea)","name:ko":"대한민국 일반지방도 제444호선","wikipedia":"ko:지방도 제444호선"},"11291788":{"ref":"446","name":"대한민국 일반지방도 제446호선","type":"route","route":"road","name:en":"Local Road 446 (South Korea)","name:ko":"대한민국 일반지방도 제446호선","wikipedia":"ko:지방도 제446호선"},"11311126":{"ref":"13","name":"대한민국 국도 제13호선","type":"route","route":"road","name:en":"National Route 13 (South Korea)","name:ko":"대한민국 국도 제13호선","network":"KR:national","wikidata":"Q12585653"},"11321100":{"ref":"56","name":"파주로","type":"route","route":"road","name:en":"Paju-ro","name:ko":"파주로"},"11321167":{"ref":"56","name":"광남로","type":"route","route":"road","name:en":"Gwangnam-ro","name:ko":"광남로"},"11349132":{"to":"상도지하차도","from":"상촌IC","name":"동부간선로","type":"route","route":"road","name:en":"Dongbuganseonro","name:ko":"동부간선로","description":"동부간선도로 의정부 구간 (의정부 구간은 서울구간과는 별계로 의정부시에서 관리함) 동부간선로는 동부간선도로의 도로명 주소임,","name:ko-Latn":"Dongbuganseonro"},"11477776":{"ref":"15","name":"대한민국 국도 제15호선","type":"route","route":"road","name:en":"National Route 15 (South Korea)","name:ko":"대한민국 국도 제15호선","network":"KR:national","wikidata":"Q12585654"},"11477865":{"ref":"44","name":"대한민국 국도 제44호선","type":"route","route":"road","name:en":"National Route 44 (South Korea)","name:ko":"대한민국 국도 제44호선","network":"KR:national"},"11779821":{"name":"없음","type":"route","route":"road"},"11842567":{"name":"문산개성고속도로","type":"route","route":"road","name:en":"Munsan-Kaesong Expressway","name:ko":"문산개성고속도로"},"11999440":{"ref":"14","name":"함양울산고속도로","type":"route","route":"road","name:en":"Hamyang-Ulsan Expressway","name:ko":"함양울산고속도로"},"12002745":{"ref":"69","name":"대한민국 국가지원지방도 제69호선","type":"route","route":"road","name:en":"Local Road 69 (South Korea)","name:ko":"대한민국 국가지원지방도 제69호선","name:ko-Hani":"大韓民國 國家支援地方道 第69號線"},"12003029":{"ref":"60","name":"대한민국 국가지원지방도 제60호선","type":"route","route":"road","name:en":"Local Road 60 (South Korea)","name:ko":"대한민국 국가지원지방도 제60호선","name:ko-Hani":"大韓民國 國家支援地方道 弟60號線"},"12220025":{"ref":"176","name":"미사대로","type":"route","route":"road","name:en":"Misa-daero","name:ko":"미사대로","wikidata":"Q16096537","wikipedia":"ko:미사대로"},"12424024":{"ref":"17","name":"평택파주고속도로 지선","type":"route","route":"road","name:en":"Pyeongtaek-Paju Expressway","name:ko":"평택파주고속도로 지선"},"12480942":{"ref":"744","name":"대한민국 지방도 제744호선","type":"route","route":"road","name:en":"Local Road 744 (South Korea)","name:ko":"대한민국 지방도 제744호선","wikipedia":"ko:지방도 제744호선"},"12588994":{"name":"신월여의지하도로","type":"route","route":"road","name:ko":"신월여의지하도로","start_date":"2021-04-16"},"13184002":{"ref":"97","name":"대한민국 국가지원지방도 제97호선","type":"route","route":"road","name:en":"Local Road 97 (South Korea)","name:ko":"대한민국 국가지원지방도 제97호선"},"13184034":{"ref":"13","name":"대한민국 국가지원지방도 제13호선","type":"route","route":"road","name:en":"Local Road 13 (South Korea)","name:ko":"대한민국 국가지원지방도 제13호선"},"13186159":{"ref":"15","name":"대한민국 국가지원지방도 제15호선","type":"route","route":"road","name:en":"Local Road 15 (South Korea)","name:ko":"대한민국 국가지원지방도 제15호선"},"13186200":{"ref":"22","name":"대한민국 국가지원지방도 제22호선","type":"route","route":"road","name:en":"Local Road 22 (South Korea)","name:ko":"대한민국 국가지원지방도 제22호선"},"13186449":{"ref":"30","name":"대한민국 국가지원지방도 제30호선","type":"route","route":"road","name:en":"Local Road 30 (South Korea)","name:ko":"대한민국 국가지원지방도 제30호선"},"13186461":{"ref":"37","name":"대한민국 국가지원지방도 제37호선","type":"route","route":"road","name:en":"Local Road 37 (South Korea)","name:ko":"대한민국 국가지원지방도 제37호선","wikidata":"Q16098669","wikipedia":"ko:국가지원지방도 제37호선"},"13186479":{"ref":"55","name":"대한민국 국가지원지방도 제55호선","type":"route","route":"road","name:en":"Local Road 55 (South Korea)","name:ko":"대한민국 국가지원지방도 제55호선","wikidata":"Q12585622","wikipedia":"ko:국가지원지방도 제55호선"},"13186484":{"ref":"56","name":"대한민국 국가지원지방도 제56호선","type":"route","route":"road","name:en":"Local Road 56 (South Korea)","name:ko":"대한민국 국가지원지방도 제56호선","wikidata":"Q12585624","wikipedia":"ko:국가지원지방도 제56호선"},"13186525":{"ref":"67","name":"대한민국 국가지원지방도 제67호선","type":"route","route":"road","name:en":"Local Road 67 (South Korea)","name:ko":"대한민국 국가지원지방도 제67호선","wikidata":"Q16099499","wikipedia":"ko:국가지원지방도 제67호선"},"13186604":{"ref":"79","name":"대한민국 국가지원지방도 제79호선","type":"route","route":"road","name:en":"Local Road 79 (South Korea)","name:ko":"대한민국 국가지원지방도 제79호선","wikidata":"Q16099502","wikipedia":"ko:국가지원지방도 제79호선"},"13196917":{"to":"성산대교 남단","from":"금천IC","name":"서부간선지하도로","type":"route","route":"road","name:en":"Seobu Underground Expressway","name:ko":"서부간선지하도로","distance":"9.1","wikidata":"Q16100558","wikipedia":"ko:서부간선도로","start_date":"2021-09-01"},"13196918":{"name":"서부간선도로","type":"route","route":"road","name:ko":"서부간선도로","description":"서부간선도로 자동차전용도로에서 해제한 구간"},"13234103":{"ref":"1024","name":"대한민국 지방도 제1024호선","type":"route","route":"road","name:en":"Local Road 1024 (South Korea)","name:ko":"대한민국 지방도 제1024호선","wikidata":"Q16101350","wikipedia":"ko:지방도 제1024호선"},"13643776":{"ref":"415","name":"지방도 제415호선","type":"route","route":"road","name:en":"Local Road 415 (South Korea)","name:ko":"지방도 제415호선","wikidata":"Q16101413","wikipedia":"ko:지방도 제415호선"},"13645377":{"ref":"461","name":"대한민국 지방도 제461호선","type":"route","route":"road","name:en":"Local Road 461 (South Korea)","name:ko":"대한민국 지방도 제461호선","wikidata":"Q16833358","wikipedia":"ko:지방도 제461호선"},"13645378":{"ref":"460","name":"대한민국 지방도 제460호선","type":"route","route":"road","name:en":"Local Road 460 (South Korea)","name:ko":"대한민국 지방도 제460호선","wikidata":"Q16101432","wikipedia":"ko:지방도 제460호선"},"13645379":{"ref":"456","name":"대한민국 지방도 제456호선","type":"route","route":"road","name:en":"Local Road 456 (South Korea)","name:ko":"대한민국 지방도 제456호선","wikidata":"Q12617933","wikipedia":"ko:지방도 제456호선"},"13645380":{"ref":"453","name":"대한민국 지방도 제453호선","type":"route","route":"road","name:en":"Local Road 453 (South Korea)","name:ko":"대한민국 지방도 제453호선","wikidata":"Q16101430","wikipedia":"ko:지방도 제453호선"},"13645381":{"ref":"451","name":"대한민국 지방도 제451호선","type":"route","route":"road","name:en":"Local Road 451 (South Korea)","name:ko":"대한민국 지방도 제451호선","wikidata":"Q16101428","wikipedia":"ko:지방도 제451호선"},"13645382":{"ref":"426","name":"대한민국 지방도 제426호선","note":"incomplete (used existing highways with corresponding ref)","type":"route","route":"road","name:en":"Local Road 426 (South Korea)","name:ko":"대한민국 지방도 제426호선","wikidata":"Q16101420","wikipedia":"ko:지방도 제426호선"},"13646933":{"ref":"464","name":"대한민국 지방도 제464호선","type":"route","route":"road","name:en":"Local Road 464 (South Korea)","name:ko":"대한민국 지방도 제464호선","wikidata":"Q16101433","wikipedia":"ko:지방도 제464호선"},"13646934":{"ref":"463","name":"대한민국 지방도 제463호선","type":"route","route":"road","name:en":"Local Road 463 (South Korea)","name:ko":"대한민국 지방도 제463호선","wikidata":"Q12617935","wikipedia":"ko:지방도 제463호선"},"13647019":{"ref":"494","name":"대한민국 지방도 제494호선","type":"route","route":"road","name:en":"Local Road 494 (South Korea)","name:ko":"대한민국 지방도 제494호선","wikidata":"Q16833360","wikipedia":"ko:지방도 제494호선"},"13660050":{"ref":"819","name":"대한민국 지방도 제819호선","type":"route","route":"road","name:en":"Local Road 819 (South Korea)","name:ko":"대한민국 지방도 제819호선"},"13683705":{"ref":"806","name":"대한민국 지방도 제806호선","type":"route","route":"road","name:en":"Local Road 806 (South Korea)","name:ko":"대한민국 지방도 제806호선","wikidata":"Q16098879","wikipedia":"ko:지방도 제806호선","name:ko-Hani":"大韓民國 地方道 第806號線"},"13864010":{"name":"남해고속도로 시내구간","type":"route","route":"road","name:ko":"남해고속도로 시내구간"},"13985364":{"ref":"700","name":"대구외곽순환고속도로","type":"route","route":"road","name:en":"Daeguoegwaksunhwan Expressway","name:ko":"대구외곽순환고속도로","network":"kr:700:daegu","alt_name":"Daegu Ring Expressway","start_date":"2022-03-31"},"14071933":{"ref":"2","name":"양주시도 2호선","type":"route","route":"road","name:ko":"양주시도 2호선","network":"kr:02:yangju"},"14071934":{"ref":"1","name":"양주시도 1호선","type":"route","route":"road","name:ko":"양주시도 1호선"},"14071935":{"ref":"4","name":"양주시도 4호선","type":"route","route":"road","name:ko":"양주시도 4호선"},"14071936":{"ref":"5","name":"양주시도 5호선","type":"route","route":"road","name:ko":"양주시도 5호선"},"14071937":{"ref":"7","name":"양주시도 7호선","type":"route","route":"road","name:ko":"양주시도 7호선"},"14071938":{"ref":"9","name":"양주시도 9호선","type":"route","route":"road","name:ko":"양주시도 9호선"},"14071939":{"ref":"11","name":"양주시도 11호선","type":"route","route":"road","name:ko":"양주시도 11호선"},"14071940":{"ref":"30","name":"양주시도 30호선","type":"route","route":"road","name:ko":"양주시도 30호선"},"14071941":{"ref":"31","name":"양주시도 31호선","type":"route","route":"road","name:ko":"양주시도 31호선"},"14071942":{"ref":"34","name":"양주시도 34호선","type":"route","route":"road","name:ko":"양주시도 34호선"},"14071943":{"ref":"18","name":"양주시도 18호선","type":"route","route":"road","name:ko":"양주시도 18호선"},"14071944":{"ref":"41","name":"양주시도 41호선","type":"route","route":"road","name:ko":"양주시도 41호선"},"14071951":{"ref":"32","name":"양주시도 32호선","type":"route","route":"road","name:ko":"양주시도 32호선"},"14536027":{"name":"분당-수서 도시고속화도로","type":"route","route":"road","name:en":"Bundang-Suseo Urban Expressway","name:ko":"분당-수서 도시고속화도로","wikidata":"Q12599143","wikipedia":"ko:분당수서도시고속화도로"},"14541221":{"name":"서해안고속도로 지정해제 구간","type":"route","route":"road","name:ko":"서해안고속도로 지정해제 구간"},"14615982":{"name":"대한민국 국가지원지방도 제20호선","type":"route","route":"road"},"14760765":{"ref":"60","name":"서울양양고속도로 대통령령 지정 구간(서울-하남)","type":"route","route":"road","name:ko":"서울양양고속도로 대통령령 지정 구간(서울-하남)","description":"강일 나들목 - 미사대교 사이 약 1.9km 구간은 대통령령으로만 고속도로로 지정되어 있고, 실제 운용은 단순한 자동차전용도로로 지정되어 있으며 무료 구간이다. 따라서 고속도로 시종점 표지판은 미사교차로 부근에 있다. 서울 방향으로 차를 타고 가다 보면 덕소삼패 나들목을 지나고 미사대교를 건너면 종점 표지판이 바로 나온다."},"15025969":{"ref":"500","name":"광주외곽순환고속도로","type":"route","route":"road","name:en":"Gwangjuoegwaksunhwan Expressway","name:ko":"광주외곽순환고속도로","network":"KR:500:Gwangju","start_date":"2022-12-20"},"15537842":{"to":"상일 나들목","ref":"50","from":"덕은교 교차로","name":"50번 서울특별시도","type":"route","route":"road"},"15537843":{"ref":"90","name":"90번 서울특별시도","type":"route","route":"road"},"15572045":{"ref":"51","name":"51번 서울특별시도","type":"route","route":"road"},"15612404":{"ref":"61","name":"분당수서로","type":"route","route":"road","name:en":"Bundangsuseo-ro","name:ko":"분당수서로","wikidata":"Q24855701","wikipedia":"ko:분당수서로"},"15666276":{"ref":"4","name":"원주시도 4번","type":"route","route":"road"},"15666277":{"name":"원주시도 5번","type":"route","route":"road"},"15666278":{"ref":"3","name":"원주시도 3번","type":"route","route":"road"},"15762109":{"ref":"904","name":"대한민국 국가지원지방도 제904호선","type":"route","route":"road"}}