{"2817773":{"ref":"E 125","name":"European route E 125","type":"route","route":"road","name:en":"European route E 125","name:fr":"Route européenne E 125","name:nl":"Europese route E125","name:pl":"Trasa europejska E 125","name:ru":"Европейский маршрут E 125","name:sk":"Európska cesta E 125","network":"e-road","wikidata":"Q2625376","wikipedia":"en:European route E125","description":"Ishim — Petropavlovsk — Kokshetau — Shchuchinsk — Astana — Karagandy — Balkhash — Burubaytal — Almaty — Bishkek — Naryn — Torugart","description:fr":"E 125 Ishim - Torugart"},"2817782":{"ref":"E 127","name":"European route E 127","note":"!!! WARNING: DO NOT USE AUTOMATIC SORTING IN RELATION EDITOR","type":"route","route":"road","name:en":"European route E 127","name:fr":"Route européenne E 127","name:nl":"Europese route E127","name:pl":"Trasa europejska E 127","name:ru":"Европейский маршрут E 127","name:sk":"Európska cesta E 127","network":"e-road","wikidata":"Q2078255","description:fr":"E 127 Omsk - Maikapshagai"},"2822796":{"ref":"E 40","name":"European route E 40","type":"route","route":"road","name:fr":"Route européenne E 40","name:pl":"Trasa europejska E 40","name:ru":"Европейский маршрут E 40","network":"e-road","section":"Kazakhstan East","wikidata":"Q327162","wikipedia":"en:European route E40"},"3323517":{"ref":"AH64","name":"Asian Highway AH64","type":"route","route":"road","name:ru":"Азиатский маршрут AH64","network":"AsianHighway","operator":"en:AH64","wikidata":"Q17049145","wikipedia":"en:AH64","description:ru":"Барнаул — Веселоярский — Красный Аул — Семипалатинск — Павлодар — Шидерты — Астана — Кокчетав — Петропавловск"},"3778303":{"ref":"75К-066","name":"Катенино — Красный Октябрь — автодорога Черноречье — Чесма — Варна — Карталы — Бреды","type":"route","route":"road","network":"ru:regional","distance":"38.721 km"},"3789747":{"ref":"75К-297","name":"Новопокровка — Алтырка","type":"route","route":"road","network":"ru:regional","distance":"9.201 km"},"3972446":{"ref":"AH60","name":"Asian Highway AH60","type":"route","route":"road","int_ref":"AH60","name:en":"Asian Highway AH60","name:ru":"Азиатский маршрут AH60","network":"AsianHighway","wikidata":"Q12973951","description":"Omsk – Cherlak – Pnirtyshskoe – Pavlodar – Semipalatinsk – Georgievka – Taskesken – Ucharal – Almaty – Kaskelen – Burubaital"},"4632678":{"ref":"12Н-116","name":"Подъезд к с. Кошелевка от автодороги Сеитовка — Ватажное — граница Казахстана","type":"route","route":"road","network":"ru:regional","distance":"1.62 km"},"4798230":{"ref":"75К-490","name":"Тарутино — Ковыльный","type":"route","route":"road","name:en":"Tarutino — Kovyl'ny","network":"ru:regional","distance":"12 km","int_name":"Tarutino — Kovyl'ny"},"5868031":{"ref":"AH67","name":"Asian Highway AH67","type":"route","route":"road","int_ref":"AH67","network":"AsianHighway"},"5868810":{"ref":"AH68","name":"Asian Highway AH68","type":"route","route":"road","int_ref":"AH68","network":"AsianHighway"},"6424928":{"ref":"E 018","name":"European route E 018","type":"route","route":"road","name:de":"Europastraße 018","name:en":"European route E 018","name:fr":"Route européenne E 018","name:nl":"Europese route E018","network":"e-road","wikidata":"Q1945568","description":"E 018 Jezkazgan - Uspenka","description:fr":"E 018 Djezkazgan - Uspenovka"},"6476418":{"ref":"E 40","name":"European route E 40","type":"route","route":"road","name:fr":"Route européenne E 40","name:pl":"Trasa europejska E 40","name:ru":"Европейский маршрут E 40","network":"e-road","section":"Kazakhstan West","wikidata":"Q327162","wikipedia":"en:European route E40"},"7588949":{"ref":"E 019","name":"European route E 019","type":"route","route":"road","name:de":"Europastraße 019","name:en":"European route E 019","name:fr":"Route européenne E 019","name:nl":"Europese route E019","network":"e-road","wikidata":"Q2194280","wikipedia":"de:Europastraße 019","description":"E 019 Petropavl - Toqsan bi","wikipedia:en":"European route E019","description:fr":"E 019 Petropavl - Toqsan bi"},"7591671":{"ref":"E 016","name":"European route E 016","type":"route","route":"road","name:de":"Europastraße 016","name:en":"European route E 016","name:fr":"Route européenne E 016","name:nl":"Europese route E016","network":"e-road","wikidata":"Q2329549","wikipedia":"de:Europastraße 016","description":"E 016 Toqsan bi - Astana","description:fr":"E 016 Toqsan bi - Astana"},"7769833":{"ref":"KR-KG-4","name":"Құрық станциясының кіреберісі","type":"route","route":"road","name:kk":"Құрық станциясының кіреберісі","name:ru":"Подъезд к станции Курык","network":"kz:regional","distance":"12. km","int_name":"Qurıq stancïyasınıñ kireberisi","old_name:ru":"Подъезд к станции Ералиево"},"7769837":{"ref":"KNH-20","name":"Самара — Шымкент — ст. Бесарык","type":"route","route":"road","distance":"3.0 km","operator":"kz:regional"},"7769877":{"to":"Макинск","ref":"1","from":"Жалтыр","name":"Жалтыр — Макинск","type":"route","route":"road","network":"KC","distance":"122.6 km"},"7785945":{"name":"Подъезд к селу Талапты","type":"route","route":"road","network":"kz:regional","description":"http://doralmaty.kz/index.php?p=sub_road&did=13&rid=825"},"7785990":{"name":"Подъезд к разъезду № 8","type":"route","route":"road","network":"kz:regional","description":"http://doralmaty.kz/index.php?p=sub_road&did=13&rid=813"},"7785995":{"name":"Подъезд к селу Алгабас","type":"route","route":"road","network":"kz:regional","description":"http://doralmaty.kz/index.php?p=sub_road&did=13&rid=816"},"7789893":{"ref":"KH-4","name":"Саудакент — Тогызкент","type":"route","route":"road","distance":"43.2 km","operator":"kz:regional"},"7789924":{"ref":"КХHS-11","name":"«КХ-8 Шардара — Арыс — Темирлан» — Целинное","type":"route","route":"road","network":"kz:regional","distance":"0.3 km"},"7789925":{"ref":"КХHS-10","name":"«КХ-8 Шардара — Арыс — Темирлан» — Казахстан","type":"route","route":"road","network":"kz:regional","distance":"0.3 km"},"7822145":{"ref":"A-9","name":"Усть-Каменогорск - Лениногорск - граница РФ","type":"route","route":"road"},"7824354":{"to":"Утмек","ref":"14","from":"Тараз","name":"Тараз - Утмек - граница РК","type":"route","route":"road","network":"А","distance":"14.0 km","old_name":"Тараз - Утмек - граница Кыргызстана","description":"Тараз - Утмек - граница РК"},"7831556":{"ref":"P-46","name":"Подъезд к развлекательному центру Шучинско-Боровской курортной зоны","type":"route","route":"road","network":"kz:national","distance":"8.9 km"},"7904354":{"ref":"KP-4","name":"Подъезд к аэропорту","type":"route","route":"road","network":"kz:regional","distance":"6.0 km"},"7905161":{"ref":"KP-6","name":"Подъезд к городу Костанай","type":"route","route":"road","network":"kz:regional","distance":"6.0 km"},"7905202":{"ref":"KP-9","name":"Подъезд к УК 161/11","type":"route","route":"road","network":"kz:regional","distance":"4.5 km"},"8235454":{"ref":"E 015","name":"European route E 015","type":"route","route":"road","name:en":"European route E 015","name:fr":"Route européenne E 015","name:nl":"Europese route E015","name:pl":"Trasa europejska E 015","name:ru":"Европейский маршрут E 015","network":"e-road","wikidata":"Q662647","wikipedia":"en:European route E015","description:fr":"E 015 Taskesken - Bakhty"},"8235463":{"ref":"E 014","name":"European route E 014","type":"route","route":"road","name:en":"European route E 014","name:fr":"Route européenne E 014","name:nl":"Europese route E014","name:pl":"Trasa europejska E 014","name:ru":"Европейский маршрут E 014","network":"e-road","wikidata":"Q1375781","wikipedia":"en:European route E014","description:fr":"E 014 Usharal - Dostyk"},"8235498":{"ref":"E 012","name":"European route E 012","type":"route","route":"road","name:en":"European route E 012","name:fr":"Route européenne E 012","name:nl":"Europese route E012","network":"e-road","wikidata":"Q1375783","description:fr":"E 012 Almaty - Khorgos"},"8542404":{"ref":"E 013","name":"European route E 013","type":"route","route":"road","name:en":"European route E 013","name:fr":"Route européenne E 013","name:nl":"Europese route E013","network":"e-road","wikidata":"Q1375778","wikipedia":"en:European route E013","description:fr":"E 013 Sary-Ozek - Koktal"},"8616777":{"to":"Самарское","ref":"9","via":"Таргын","from":"Усть Каменогорск","name":"Самарское шоссе","type":"route","route":"road","network":"KF","old_ref":"P-157","distance":"128"},"10436925":{"ref":"37А-0004","name":"Курган — Половинное — Воскресенское — граница Казахстана","type":"route","route":"road","network":"ru:regional","distance":"102.853 km"},"11535330":{"to":"Шыңғыстай","via":"Ұрынқай","from":"Марқакөл","name":"Аустрия жолы","type":"route","route":"road","name:de":"Alte Österreicher Straße","name:en":"Old Austrian road","name:kk":"Аустрия жолы","name:pl":"Stara droga austriacka","name:ru":"Австрийская дорога","distance":"128","int_name":"Awstrïya jolı","loc_name":"Староавстрийка","wikidata":"Q4056122","wikipedia":"kk:Аустрия жолы","start_date":"1914..1916"},"13166210":{"name":"Мектеп","type":"route","route":"road"},"14405101":{"to":"Алматау","via":"Лесная сказка","from":"Талгар","name":"Катырский тракт","type":"route","route":"road"},"14405362":{"to":"Коклайсай","via":"Раимбек","from":"Авангард","name":"АЛ-72","type":"route","route":"road"},"14405954":{"to":"Мынбаево","via":"Новороссийское","from":"Фабричный","name":"АЛ-84","type":"route","route":"road"},"14407929":{"to":"Кзыл Гайрат","via":"Покровка","from":"Каргалы","name":"BAKAD","type":"route","route":"road","description":"Большая Алматинская кольцевая автомобильная дорога"},"14409287":{"to":"Коктал","ref":"49","via":"Насосная №№ 1-6","from":"Ченгельды","name":"АЛ-49","type":"route","route":"road","network":"АЛ","distance":"24"},"14409488":{"to":"Городская зона отдыха","from":"А3","name":"Городская зона отдыха","type":"route","route":"road"},"14409491":{"to":"Дикий пляж","from":"А3","name":"Золотые пески","type":"route","route":"road"},"14409555":{"to":"Акший","via":"Курты","from":"Капчагай","name":"АЛ-18","type":"route","route":"road"},"14411133":{"to":"Кербулак","from":"Капчагай","name":"Кербулак","type":"route","route":"road"},"14412439":{"to":"Водозабор","via":"Октябрьское","from":"Чилик","name":"Водозабор","type":"route","route":"road"},"14412446":{"to":"Джайляу","from":"Таутургень","name":"Турежайляу","type":"route","route":"road"},"14412450":{"to":"Бартоғай","from":"А6","name":"Бартоғай","type":"route","route":"road","name:kk":"Бартоғай","name:ru":"Бартогай","int_name":"Bartoğay"},"14414047":{"to":"Парасат","from":"Ремизовка","name":"Парасат","type":"route","route":"road"},"14414050":{"to":"Весна","from":"Пятилетка","name":"Весна","type":"route","route":"road"},"14415516":{"to":"Нурлы","via":"Чилик","from":"Байсеит","name":"АЛ-68","type":"route","route":"road"},"14479084":{"to":"«Ауыл» бақылау-өткізу пункті","ref":"11","from":"Семей","name":"Семей - Барнауыл","type":"route","route":"road","network":"А","distance":"111","int_name":"Semey - Barnawıl"},"14479965":{"to":"Кустанай","ref":"21","from":"Мамлюка","name":"Мамлютка - Қостанай","type":"route","route":"road","name:kk":"Мамлютка - Қостанай","name:ru":"Мамлютка — Костанай","network":"А","distance":"398","int_name":"Mamlyutka - Qostanay"},"14555271":{"ref":"53Н-2915000","name":"Троицк — Ивановка","type":"route","route":"road","network":"ru:regional"},"14647647":{"to":"Куйган","from":"KF-30","name":"418","type":"route","route":"road","network":"KF","distance":"3"},"14868305":{"to":"Бозой","ref":"0","name":"Бозой-Саксаульский","type":"route","route":"road","network":"KD","distance":"218"},"15706690":{"to":"Балашово","ref":"0","from":"Музбел","name":"М Б","type":"route","route":"road","network":"Дж","network:type":"local"},"15853637":{"to":"Сарыозек","ref":"0","via":"Жаломан","from":"Казахстан","name":"Ж\\\\Д","type":"route","route":"road"},"15853772":{"to":"Казахстан","ref":"0","via":"Бабахты","from":"Маулимбай","name":"Ж\\\\Д","type":"route","route":"road"},"15927031":{"to":"КВ-81","ref":"0","from":"А-3","name":"Окружная","type":"route","route":"road","network":"КВ"}}