{"57817":{"ref":"E 44","name":"Route européenne E 44","type":"route","route":"road","name:en":"European route E 44","name:fr":"Route européenne E 44","name:nl":"Europese route E44","name:sk":"Európska cesta E 44","network":"e-road","wikidata":"Q705125","wikipedia":"en:European route E44","description":"E 44 Le Havre - Giessen","e-road:class":"A-intermediate","description:fr":"E 44 Le Havre - Giessen"},"1415440":{"ref":"A 4","name":"Autoroute d'Esch","type":"route","route":"road","network":"LU:A-road","distance":"15.4","operator":"Ponts & Chaussées","wikidata":"Q781207","wikipedia":"lb:Autobunn A4 (Lëtzebuerg)"},"1415441":{"ref":"A 6","name":"Autoroute d'Arlon","type":"route","route":"road","name:lb":"Areler Autobunn","network":"LU:A-road","distance":"20.791","wikidata":"Q591506","wikipedia":"lb:Autobunn A6 (Lëtzebuerg)"},"1415442":{"ref":"A 3","name":"Autoroute de Dudelange","type":"route","route":"road","name:lb":"Diddelénger Autobunn","network":"LU:A-road","wikidata":"Q788627","wikipedia":"lb:Autobunn A3 (Lëtzebuerg)"},"1415444":{"ref":"A 1","name":"Autoroute de Trèves","type":"route","route":"road","name:lb":"Tréierer Autobunn","network":"LU:A-road","wikidata":"Q788619","wikipedia":"lb:Autobunn A1 (Lëtzebuerg)"},"1415445":{"ref":"1A","name":"N 1A","type":"route","route":"road","network":"LU:N-road","wikidata":"Q13104274","wikipedia":"lb:Nationalstrooss 1A"},"1415446":{"ref":"1","name":"N 1","type":"route","route":"road","network":"LU:N-road","wikidata":"Q2199176","wikipedia":"lb:Nationalstrooss 1"},"1415447":{"ref":"53","name":"N 53","type":"route","route":"road","network":"LU:N-road","wikidata":"Q16367767","wikipedia":"lb:Nationalstrooss 53"},"1415465":{"ref":"3","name":"N 3","type":"route","route":"road","network":"LU:N-road","wikidata":"Q1564642","wikipedia":"lb:Nationalstrooss 3"},"1415466":{"ref":"2","name":"N 2","type":"route","route":"road","network":"LU:N-road","wikidata":"Q836122","wikipedia":"lb:Nationalstrooss 2"},"1415570":{"ref":"101","name":"CR 101","type":"route","route":"road","network":"LU:CR-road","wikidata":"Q2785085","wikipedia":"lb:CR101"},"1415964":{"ref":"4","name":"N 4","note":"Gap between Leudelange-Sud and Lallange","type":"route","route":"road","network":"LU:N-road","wikidata":"Q2464276","wikipedia":"lb:Nationalstrooss 4"},"1560155":{"ref":"5","name":"N 5","type":"route","route":"road","network":"LU:N-road","wikidata":"Q12177501","wikipedia":"lb:Nationalstrooss 5"},"1616072":{"ref":"109","name":"CR 109","type":"route","route":"road","network":"LU:CR-road","wikidata":"Q13101873","wikipedia":"lb:CR109"},"1616073":{"ref":"6","name":"N 6","type":"route","route":"road","network":"LU:N-road","wikidata":"Q2685474","wikipedia":"lb:Nationalstrooss 6"},"1616074":{"ref":"105","name":"CR 105","type":"route","route":"road","network":"LU:CR-road","wikidata":"Q16366962","wikipedia":"lb:CR105"},"1616075":{"ref":"110","name":"CR 110","type":"route","fixme":"incomplete","route":"road","network":"LU:CR-road","wikidata":"Q16366978","wikipedia":"lb:CR110"},"1636468":{"ref":"11","name":"N 11","note":"gap in route at Echternach","type":"route","route":"road","network":"LU:N-road","wikidata":"Q2684817","wikipedia":"lb:Nationalstrooss 11"},"1637547":{"ref":"8","name":"N 8","type":"route","route":"road","network":"LU:N-road","wikidata":"Q2150997","wikipedia":"lb:Nationalstrooss 8"},"1956568":{"ref":"175","name":"CR 175","type":"route","route":"road","network":"LU:CR-road","wikidata":"Q16367197","wikipedia":"lb:CR175"},"2330998":{"ref":"A 7","name":"Autoroute du Nord","type":"route","route":"road","name:lb":"Nordstrooss","network":"LU:A-road","distance":"15.04","operator":"Ponts & Chaussées","wikidata":"Q788632","wikipedia":"lb:Autobunn A7 (Lëtzebuerg)"},"2330999":{"ref":"B 7","name":"B 7","type":"route","route":"road","network":"LU:B-road","wikidata":"Q10976987","wikipedia":"lb:Schnellstrooss B7 (Lëtzebuerg)"},"3874800":{"ref":"106","name":"CR 106","type":"route","route":"road","network":"LU:CR-road","wikidata":"Q16366966","wikipedia":"lb:CR106"},"3874835":{"ref":"106B","name":"CR 106B","type":"route","route":"road","network":"LU:CR-road","wikidata":"Q16366970","wikipedia":"lb:CR106B"},"3875041":{"ref":"106A","name":"CR 106A","type":"route","route":"road","network":"LU:CR-road","wikidata":"Q16367581","wikipedia":"lb:CR106A"},"4111691":{"ref":"A 13","name":"Autoroute de la Sarre","type":"route","route":"road","name:fr":"Autoroute de la Sarre","name:lb":"Saarautobunn","network":"LU:A-road","operator":"Ponts & Chaussées","wikidata":"Q788618","wikipedia":"lb:Autobunn A13 (Lëtzebuerg)"},"4111692":{"ref":"A 13","name":"Collectrice du Sud","type":"route","route":"road","network":"LU:A-road","distance":"19.1","operator":"Ponts & Chaussées","wikidata":"Q788618","wikipedia":"lb:Autobunn A13 (Lëtzebuerg)"},"5206283":{"ref":"Cité Steen","name":"Cité Steen","type":"route","route":"road"},"14639132":{"ref":"1C","name":"N 1C","type":"route","route":"road","network":"LU:N-road","wikidata":"Q13104275","wikipedia":"lb:Nationalstrooss 1C"},"14639133":{"ref":"2A","name":"N 2A","type":"route","route":"road","network":"LU:N-road","wikidata":"Q13104281","wikipedia":"lb:Nationalstrooss 2A"},"14639173":{"ref":"11D","name":"N 11D","type":"route","route":"road","network":"LU:N-road","wikidata":"Q16367793","wikipedia":"lb:Nationalstrooss 11D"},"14639220":{"ref":"175A","name":"CR 175A","type":"route","route":"road","network":"LU:CR-road","wikidata":"Q13101912","wikipedia":"lb:CR175A"},"14639221":{"ref":"175B","name":"CR 175B","type":"route","route":"road","network":"LU:CR-road","wikidata":"Q114315440"},"14648535":{"ref":"13","name":"N 13","type":"route","route":"road","network":"LU:N-road","wikidata":"Q13102369","wikipedia":"lb:Dräikantonstrooss"},"14648549":{"ref":"13A","name":"N 13A","type":"route","route":"road","network":"LU:N-road","wikidata":"Q114358253"},"14649677":{"ref":"39","name":"N 39","type":"route","route":"road","network":"LU:N-road","wikidata":"Q97360868","wikipedia":"fr:Route nationale 39 (Luxembourg)"},"14649714":{"ref":"161A","name":"CR 161A","type":"route","route":"road","network":"LU:CR-road","wikidata":"Q16367160","wikipedia":"lb:CR161A"},"14649715":{"ref":"161","name":"CR 161","type":"route","route":"road","network":"LU:CR-road","wikidata":"Q13101905","wikipedia":"lb:CR161"},"14649716":{"ref":"160","name":"CR 160","type":"route","route":"road","network":"LU:CR-road","wikidata":"Q16367157","wikipedia":"lb:CR160"},"14651421":{"ref":"56D","name":"N 56D","type":"route","route":"road","network":"LU:N-road","wikidata":"Q104767043","wikipedia":"lb:Nationalstrooss 56D"},"14651422":{"ref":"56C","name":"N 56C","type":"route","route":"road","network":"LU:N-road","wikidata":"Q104767023","wikipedia":"lb:Nationalstrooss 56C"},"14651423":{"ref":"56B","name":"N 56B","type":"route","route":"road","network":"LU:N-road","wikidata":"Q104766977","wikipedia":"lb:Nationalstrooss 56B"},"14651424":{"ref":"56A","name":"N 56A","type":"route","route":"road","network":"LU:N-road","wikidata":"Q16367774","wikipedia":"lb:Nationalstrooss 56A"},"14651425":{"ref":"56","name":"N 56","type":"route","route":"road","network":"LU:N-road","wikidata":"Q16367770","wikipedia":"lb:Nationalstrooss 56"},"14651451":{"ref":"B 40","name":"B 40","type":"route","route":"road","network":"LU:B-road","wikidata":"Q114390457"},"14651473":{"ref":"7","name":"N 7","type":"route","route":"road","network":"LU:N-road","wikidata":"Q836277","wikipedia":"lb:Nationalstrooss 7"},"14651474":{"ref":"50","name":"N 50","type":"route","route":"road","network":"LU:N-road","wikidata":"Q2137143","wikipedia":"lb:Nationalstrooss 50"},"14651475":{"ref":"51","name":"N 51","type":"route","route":"road","network":"LU:N-road","wikidata":"Q1246544","wikipedia":"lb:Nationalstrooss 51"},"14651476":{"ref":"5A","name":"N 5A","type":"route","route":"road","network":"LU:N-road","wikidata":"Q16367721","wikipedia":"lb:Nationalstrooss 5A"},"14651497":{"ref":"57","name":"N 57","type":"route","route":"road","network":"LU:N-road","wikidata":"Q13104286","wikipedia":"lb:Nationalstrooss 57"},"14651498":{"ref":"52","name":"N 52","type":"route","route":"road","network":"LU:N-road","wikidata":"Q13104285","wikipedia":"lb:Nationalstrooss 52"},"14651547":{"ref":"55","name":"N 55","type":"route","route":"road","network":"LU:N-road","wikidata":"Q13104284","wikipedia":"lb:Nationalstrooss 55"},"14651548":{"ref":"21","name":"N 21","type":"route","route":"road","network":"LU:N-road","wikidata":"Q2564284","wikipedia":"lb:Nationalstrooss 21"},"14651549":{"ref":"12","name":"N 12","type":"route","route":"road","network":"LU:N-road","wikidata":"Q13104276","wikipedia":"lb:Nationalstrooss 12"},"14651635":{"ref":"7F","name":"N 7F","type":"route","route":"road","network":"LU:N-road","wikidata":"Q114391001"},"14651636":{"ref":"7D","name":"N 7D","type":"route","route":"road","network":"LU:N-road","wikidata":"Q114390971"},"14651637":{"ref":"7C","name":"N 7C","type":"route","route":"road","network":"LU:N-road","wikidata":"Q16367731","wikipedia":"lb:Nationalstrooss 7C"},"14651654":{"ref":"7B","name":"N 7B","type":"route","route":"road","network":"LU:N-road","wikidata":"Q16367728","wikipedia":"lb:Nationalstrooss 7B"},"14651655":{"ref":"7A","name":"N 7A","type":"route","route":"road","network":"LU:N-road","wikidata":"Q13104290","wikipedia":"lb:Nationalstrooss 7A"},"14651694":{"ref":"27B","name":"N 27B","type":"route","route":"road","network":"LU:N-road","wikidata":"Q16367761","wikipedia":"lb:Nationalstrooss 27B"},"14651695":{"ref":"27A","name":"N 27A","type":"route","route":"road","network":"LU:N-road","wikidata":"Q13104280","wikipedia":"lb:Nationalstrooss 27A"},"14651822":{"ref":"20","name":"N 20","type":"route","route":"road","network":"LU:N-road","wikidata":"Q2196993","wikipedia":"lb:Nationalstrooss 20"}}