{"1298889":{"ref":"RN13","name":"Route Nationale 13 الطريق الوطني","type":"route","route":"road","ref:ar":"طو 13","ref:es":"RN13","highway":"primary","name:ar":"الطريق الوطني 13","name:es":"Ruta Nacional 13","name:fr":"Route Nationale 13","network":"MA:RN","distance":"867","wikidata":"Q3444761","wikipedia":"ar:الطريق الوطنية رقم 13 (المغرب)"},"1309199":{"to":"N 12 (Bab Arhiyoul)","ref":"RR108","name":"الطريق الجهوي 108","type":"route","route":"road","highway":"secondary","name:ar":"الطريق الجهوي 108","name:es":"Ruta Regional 108","network":"MA:RR"},"1309228":{"ref":"RN9","name":"Route Nationale 9 / الطريق الوطني رقم 9","type":"route","route":"road","ref:ar":"طو 9","name:ar":"الطريق الوطني رقم 9","name:es":"Ruta Nacional 9","name:fr":"Route Nationale 9","network":"MA:RN"},"1316479":{"ref":"RN10","name":"Route Nationale 10 الطريق الوطني رقم","type":"route","route":"road","ref:ar":"ط و 10","ref:es":"RN10","highway":"primary","name:ar":"الطريق الوطني رقم 10","name:es":"Ruta Nacional 10","name:fr":"Route Nationale 10","network":"MA:RN"},"1325960":{"ref":"RR301","name":"الطريق الجهوي 301","type":"route","route":"road","ref:ar":"ط ج 301","highway":"secondary","name:ar":"الطريق الجهوي 301","name:fr":"Route régionale 301","network":"MA:RR"},"1354704":{"ref":"A 5","name":"Autoroute Port Tanger Med - Rabat طرق السيارات ميناء طنجة المتوسط - الرباط","toll":"yes","type":"route","route":"road","ref:ar":"ط س 5","highway":"motorway","name:ar":"طرق السيارات ميناء طنجة المتوسط - الرباط","name:fr":"Autoroute Port Tanger Med - Rabat"},"1827298":{"to":"Saidia السعيدية","ref":"RN16","from":"Tanger طنجة","name":"La Rocade Méditerranéenne الطريق الساحلية المتوسطية","type":"route","route":"road","to:ar":"السعيدية","to:fr":"Saidia","ref:ar":"ط و 16","from:ar":"طنجة","from:fr":"Tanger","name:ar":"الطريق الساحلية المتوسطية","name:fr":"La Rocade Méditerranéenne","network":"MA:RN","distance":"507","wikidata":"Q2398180","wikipedia":"ar:الطريق الوطنية رقم 16 (المغرب)","alt_name:ar":"الطريق الوطني رقم 16;الطريق الوطنية رقم 16;طريق وطنية 16","alt_name:fr":"La Rocade du Rif","wikipedia:ar":"الطريق الوطنية رقم 16 (المغرب)"},"1827356":{"ref":"RN1","name":"Route Nationale 1 الطريق الوطنية","type":"route","route":"road","ref:ar":"طو 1","name:ar":"الطريق الوطنية 1","name:en":"National Route 1","name:es":"Ruta Nacional 1","name:fr":"Route Nationale 1","network":"MA:RN","wikidata":"Q735201","wikipedia":"ar:الطريق الوطنية 1"},"1827404":{"ref":"RN2","name":"Route Nationale طريق الوطنية 2","type":"route","route":"road","ref:ar":"طو 2","highway":"primary","name:ar":"الطريق الوطنية 2","name:es":"Ruta Nacional 2","name:fr":"Route Nationale 2","network":"MA:RN","wikidata":"Q2397334","wikipedia":"ar:الطريق الوطنية 2"},"1827491":{"ref":"RN4","name":"Route Nationale 4 الطريق الوطني رقم","type":"route","route":"road","ref:ar":"طو 4","highway":"primary","name:ar":"الطريق الوطني رقم 4","name:es":"Ruta Nacional 4","name:fr":"Route Nationale 4","network":"MA:RN"},"1827532":{"ref":"RN6","name":"Route Nationale 6الطريق الوطني","type":"route","route":"road","ref:ar":"طو 6","name:ar":"الطريق الوطني 6","name:es":"Ruta Nacional 6","name:fr":"Route Nationale 6","network":"MA:RN"},"1827668":{"ref":"RN8","name":"Route Nationale الطريق الوطني رقم 8","type":"route","route":"road","ref:ar":"طو 8","name:ar":"الطريق الوطني رقم 8","name:es":"Ruta Nacional 8","name:fr":"Route Nationale 8","network":"MA:RN"},"1827699":{"ref":"RN7","name":"Route Nationale 7 / الطريق الوطني رقم 7","type":"route","route":"road","ref:ar":"ط و 7","highway":"primary","name:ar":"الطريق الوطني رقم 7","name:fr":"Route Nationale 7","network":"MA:RN"},"1827899":{"ref":"RN11","name":"Route Nationale 11","type":"route","route":"road","highway":"primary","network":"MA:RN"},"1828054":{"to":"زبزات","ref":"RN15","name":"Route Nationale 15 الطريق الوطني رقم","type":"route","route":"road","to:ar":"زبزات","ref:ar":"ط و 15","highway":"primary","name:ar":"الطريق الوطني رقم 15","name:es":"Ruta Nacional 15","name:fr":"Route Nationale 15","network":"MA:RN"},"1828266":{"ref":"A 5","name":"Autoroute Port Tanger Med - Rabat طرق السيارات ميناء طنجة المتوسط - الرباط","toll":"yes","type":"route","route":"road","ref:ar":"طس 5","name:ar":"طرق السيارات ميناء طنجة المتوسط - الرباط","name:es":"Autopista Puerto Tánger Med - Rabat","name:fr":"Autoroute Port Tanger Med - Rabat"},"1828267":{"ref":"A1","name":"Autoroute Casablanca – Rabat","toll":"yes","type":"route","lanes":"3","route":"road","highway":"motorway","network":"Autoroute du Maroc","operator":"Société Nationale des Autoroutes du Maroc","wikidata":"Q2126421"},"2431634":{"to":"P 1105 Aousserd / ط إ 1105 الوسرد","ref":"RN3","from":"N 1 / ط و 1","name":"Route Nationale 3 / الطريق الوطنية 3","type":"route","route":"road","to:ar":"ط إ 1105 الوسرد","to:es":"P 1105 Auserd","to:fr":"P 1105 Aousserd","oneway":"no","ref:ar":"ط و 3","ref:es":"RN3","from:ar":"ط و 1","from:es":"N 1","from:fr":"N 1","highway":"primary","name:ar":"الطريق الوطنية 3","name:es":"Ruta Nacional 3","name:fr":"Route Nationale 3","network":"MA:RN"},"4032314":{"ref":"RP6209","name":"الطريق الإقليمي 6209","type":"route","route":"road","ref:ar":"ط إ 6209","highway":"tertiary","name:ar":"الطريق الإقليمي 6209","name:fr":"Route Provinciale 6209","network":"MA:RP"},"4081563":{"ref":"RR607","name":"الطريق الجهوي 607","type":"route","route":"road","ref:ar":"طج 607","highway":"secondary","name:ar":"الطريق الجهوي 607","name:es":"Ruta Regional 607","network":"MA:RR"},"4082192":{"ref":"A2","name":"Autoroute Rabat - Oujda الطريق السيار الرباط - وجدة","type":"route","route":"road","ref:ar":"أ 2","name:ar":"الطريق السيار الرباط - وجدة","name:es":"Autopista Rabat - Uchda","name:fr":"Autoroute Rabat - Oujda","network":"MA:A"},"4085829":{"ref":"RP6015","name":"الطريق الإقليمي رقم 6015","type":"route","route":"road","ref:ar":"ط إ 6015","highway":"tertiary","name:ar":"الطريق الإقليمي رقم 6015","network":"MA:RP"},"4088162":{"ref":"RP6012","name":"الطريق الإقليمي رقم 6012","type":"route","route":"road","ref:ar":"ط إ 6012","highway":"tertiary","name:ar":"الطريق الإقليمي رقم 6012","network":"MA:RP"},"4096889":{"to":"RR601","ref":"RR604","from":"RN19","name":"الطريق الجهوي رقم 604","type":"route","route":"road","to:ar":"ط ج 601","ref:ar":"ط ج 604","from:ar":"ط و 19","highway":"secondary","name:ar":"الطريق الجهوي رقم 604","network":"MA:RR"},"4110412":{"ref":"RR610","name":"الطريق الجهوي 610","type":"route","route":"road","oneway":"no","ref:ar":"طج 610","highway":"secondary","name:ar":"الطريق الجهوي 610","name:es":"Ruta Regional 610","network":"MA:RR"},"4110489":{"ref":"RP6200","name":"الطريق الإقليمي 6200","type":"route","route":"road","ref:ar":"ط إ 6200","highway":"tertiary","name:ar":"الطريق الإقليمي 6200","name:fr":"Route Provinciale 6200","network":"MA:RP"},"4111462":{"to":"امسون","ref":"RR511","from":"Ben Taïeb ابن الطيب","name":"الطريق الجهوي 511","type":"route","route":"road","to:ar":"امسون","to:es":"Msun","oneway":"no","ref:ar":"طج 511","from:ar":"ابن الطيب","from:es":"Ben Tieb","from:fr":"Ben Taïeb","highway":"secondary","name:ar":"الطريق الجهوي 511","name:es":"Ruta Regional 511","network":"MA:RR"},"4111776":{"to":"RN 16","ref":"RP6205","from":"Annoual أنوال","name":"الطريق الإقليمي رقم 6205","type":"route","route":"road","to:ar":"ط و 16","ref:ar":"ط إ 6205","from:ar":"أنوال","from:fr":"Annoual","highway":"tertiary","name:ar":"الطريق الإقليمي رقم 6205","network":"MA:RP"},"4126344":{"ref":"RR606","name":"الطريق الجهوي رقم 606","type":"route","route":"road","ref:ar":"ط ج 606","highway":"secondary","name:ar":"الطريق الجهوي رقم 606","network":"MA:RR"},"4128205":{"ref":"RR502","name":"الطريق الجهوي 502","type":"route","route":"road","highway":"secondary","name:ar":"الطريق الجهوي 502","name:es":"Ruta Regional 502","network":"MA:RR"},"4128348":{"to":"سكورة مداز","ref":"RP5109","from":"إفكر","name":"الطريق الإقليمي رقم 5109","type":"route","route":"road","to:ar":"سكورة مداز","ref:ar":"ط إ 5109","from:ar":"إفكر","highway":"tertiary","name:ar":"الطريق الإقليمي رقم 5109","network":"MA:RP"},"4128403":{"to":"تمهديت","ref":"RP7235","name":"الطريق الإقليمي رقم 7235","type":"route","route":"road","to:ar":"تمهديت","ref:ar":"ط إ 7235","highway":"tertiary","name:ar":"الطريق الإقليمي رقم 7235","network":"MA:RP"},"4132506":{"ref":"RP7109","name":"الطريق الإقليمي رقم 7109","type":"route","route":"road","oneway":"no","ref:ar":"ط إ 7109","highway":"tertiary","name:ar":"الطريق الإقليمي رقم 7109","network":"MA:RP"},"4137508":{"ref":"RR702","name":"الطريق الجهوي 702","type":"route","route":"road","ref:ar":"طج 702","ref:es":"RR702","highway":"secondary","name:ar":"الطريق الجهوي 702","name:es":"Ruta Regional 702","network":"MA:RR"},"4143019":{"ref":"RP5425","name":"الطريق الإقليمي رقم 5425","type":"route","route":"road","ref:ar":"ط إ 5425","highway":"tertiary","name:ar":"الطريق الإقليمي رقم 5425","network":"MA:RP"},"4163485":{"ref":"RP1300","name":"الطريق الإقليمي 1300","type":"route","route":"road","ref:ar":"طإ 1300","highway":"tertiary","name:ar":"الطريق الإقليمي 1300","name:es":"Ruta Provincial 1300","network":"MA:RP"},"4163664":{"ref":"RP1901","from":"Sidi Ifni سيدي إفني","name":"الطريق الإقليمي رقم 1901","type":"route","route":"road","ref:ar":"ط إ 1901","from:ar":"سيدي إفني","from:fr":"Sidi Ifni","highway":"tertiary","name:ar":"الطريق الإقليمي رقم 1901","network":"MA:RP"},"4163843":{"to":"Echatea El Abied الشاطئ الأبيض","ref":"RP1302","from":"Laqsabi Tagoust القصابي تاكوست","name":"الطريق الإقليمي رقم 1302","type":"route","route":"road","to:ar":"الشاطئ الأبيض","to:fr":"Echatea El Abied","ref:ar":"ط إ 1302","from:ar":"القصابي تاكوست","from:fr":"Laqsabi Tagoust","highway":"tertiary","name:ar":"الطريق الإقليمي رقم 1302","network":"MA:RP"},"4164012":{"ref":"RN14","from":"N 1 (Tan-Tan) / ط و 1 (طانطان)","name":"Route Nationale 14 / الطريق الوطنية 14","type":"route","route":"road","ref:ar":"ط و 14","highway":"primary","name:ar":"الطريق الوطنية 14","name:es":"Ruta Nacional 14","name:fr":"Route Nationale 14","network":"MA:RN","old_ref":"R101","old_ref:ar":"ط 101"},"4168182":{"ref":"RP1102","name":"الطريق الإقليمي رقم 1103","type":"route","route":"road","ref:ar":"ط إ 1102","highway":"tertiary","name:ar":"الطريق الإقليمي رقم 1102","network":"MA:RP"},"6046229":{"ref":"RR415","name":"الطريق الجهوي 415","type":"route","route":"road","highway":"secondary","name:ar":"الطريق الجهوي 415","name:es":"Ruta Regional 415","network":"MA:RR"},"6101727":{"ref":"RR105","name":"الطريق الجهوي رقم 105","type":"route","route":"road","ref:ar":"ط ج 105","highway":"secondary","name:ar":"الطريق الجهوي رقم 105","network":"MA:RR"},"6102807":{"ref":"RP1303","name":"الطريق الإقليمي 1303","type":"route","route":"road","ref:ar":"طإ 1303","highway":"tertiary","name:ar":"الطريق الإقليمي 1303","name:es":"Ruta Provincial 1303","network":"MA:RP"},"6103045":{"ref":"RP1304","name":"الطريق الإقليمي 1304","type":"route","route":"road","ref:ar":"طإ 1304","highway":"tertiary","name:ar":"الطريق الإقليمي 1304","name:es":"Ruta Provincial 1304","network":"MA:RP"},"6104360":{"ref":"RP1714","name":"الطريق الإقليمي 1714","type":"route","route":"road","name:ar":"الطريق الإقليمي 1714","name:es":"Ruta Provincial 1714","network":"MA:RP"},"6105412":{"ref":"RR311","name":"الطريق الجهوي رقم 311","type":"route","route":"road","ref:ar":"ط ج 311","name:ar":"الطريق الجهوي رقم 311","network":"MA:RR"},"6105456":{"ref":"RR312","name":"الطريق الجهوي رقم 312","type":"route","route":"road","ref:ar":"ط ج 312","highway":"secondary","name:ar":"الطريق الجهوي رقم 312","network":"MA:RR"},"6110341":{"to":"الخميسات","ref":"RR402","from":"صفرو","name":"الطريق الجهوي رقم 402","type":"route","route":"road","to:ar":"الخميسات","ref:ar":"ط ج 402","from:ar":"صفرو","name:ar":"الطريق الجهوي رقم 402","network":"MA:RR"},"6111206":{"ref":"RR417","name":"الطريق الجهوي رقم 417","type":"route","route":"road","ref:ar":"ط ج 417","highway":"secondary","name:ar":"الطريق الجهوي رقم 417","network":"MA:RR"},"6119700":{"ref":"A7","name":"Autoroute Tétouan - Fnideq","toll":"yes","type":"route","lanes":"2","route":"road","highway":"motorway","network":"Autoroute du Maroc","maxspeed":"120","operator":"Société Nationale des Autoroutes du Maroc"},"6120938":{"ref":"RP1103","name":"الطريق الإقليمي 1103","type":"route","route":"road","ref:ar":"ط إ 1103","ref:es":"RP1103","highway":"tertiary","name:ar":"الطريق الإقليمي 1103","name:es":"Ruta Provincial 1103","network":"MA:RP"},"6147652":{"ref":"RP1200","name":"الطريق الإقليمي 1200","type":"route","route":"road","ref:ar":"طإ 1200","name:ar":"الطريق الإقليمي 1200","name:es":"Ruta Provincial 1200","network":"MA:RP"},"6147738":{"ref":"RP5107","name":"الطريق الإقليمي رقم 5107","type":"route","route":"road","ref:ar":"ط إ 5107","highway":"tertiary","name:ar":"الطريق الإقليمي رقم 5107","network":"MA:RP"},"6147899":{"ref":"RP5101","name":"الطريق الإقليمي رقم 5101","type":"route","route":"road","ref:ar":"ط إ 5101","highway":"tertiary","name:ar":"الطريق الإقليمي رقم 5101","network":"MA:RP"},"6148044":{"ref":"RP5121","name":"الطريق الإقليمي رقم 5121","type":"route","route":"road","ref:ar":"ط إ 5121","highway":"tertiary","name:ar":"الطريق الإقليمي رقم 5121","network":"MA:RP"},"6148262":{"ref":"RP5102","name":"الطريق الإقليمي رقم 5102","type":"route","route":"road","ref:ar":"ط إ 5102","highway":"tertiary","name:ar":"الطريق الإقليمي رقم 5102","network":"MA:RP"},"6158989":{"ref":"RP4100","name":"الطريق الإقليمي رقم 4100","type":"route","route":"road","ref:ar":"ط إ 4100","name:ar":"الطريق الإقليمي رقم 4100","network":"MA:RP","old_ref":"P4100","old_ref:ar":"إ 4100"},"6160853":{"ref":"RP1909","name":"الطريق الإقليمي رقم 1909","type":"route","route":"road","ref:ar":"ط إ 1909","highway":"tertiary","name:ar":"الطريق الإقليمي رقم 1909","network":"MA:RP"},"6170810":{"ref":"RP3403","name":"الطريق الإقليمي رقم 3403","type":"route","route":"road","ref:ar":"ط إ 3403","highway":"tertiary","name:ar":"الطريق الإقليمي رقم 3403","network":"MA:RP"},"6171000":{"ref":"RP3409","name":"الطريق الإقليمي رقم 3409","type":"route","route":"road","ref:ar":"ط إ 3409","highway":"tertiary","name:ar":"الطريق الإقليمي رقم 3409","network":"MA:RP","old_ref":"P3409","old_ref:ar":"إ 3409"},"6171183":{"ref":"RP3428","name":"الطريق الإقليمي رقم 3428","type":"route","route":"road","ref:ar":"ط إ 3428","highway":"tertiary","name:ar":"الطريق الإقليمي رقم 3428","network":"MA:RP","old_ref":"P3428","old_ref:ar":"إ 3428"},"6173644":{"ref":"RP2101","name":"الطريق الإقليمي رقم 2101","type":"route","route":"road","ref:ar":"ط إ 2101","highway":"tertiary","name:ar":"الطريق الإقليمي رقم 2101","network":"MA:RP"},"6175301":{"ref":"RP1400","name":"الطريق الإقليمي رقم 1400","type":"route","route":"road","ref:ar":"ط إ 1400","highway":"tertiary","name:ar":"الطريق الإقليمي رقم 1400","network":"MA:RP"},"6185790":{"ref":"RP1737","name":"الطريق الإقليمي رقم 1737","type":"route","route":"road","ref:ar":"ط إ 1737","highway":"tertiary","name:ar":"الطريق الإقليمي رقم 1737","network":"MA:RP"},"6194309":{"ref":"RP1915","name":"الطريق الإقليمي رقم 1915","type":"route","route":"road","ref:ar":"ط إ 1915","highway":"tertiary","name:ar":"الطريق الإقليمي رقم 1915","network":"MA:RP"},"6463799":{"ref":"RP1521","name":"الطريق الإقليمي 1521","type":"route","route":"road","highway":"tertiary","name:ar":"الطريق الإقليمي 1521","name:es":"Ruta Provincial 1521","network":"MA:RP"},"6463939":{"ref":"RP1500","name":"الطريق الإقليمي 1500","type":"route","route":"road","highway":"tertiary","name:ar":"الطريق الإقليمي 1500","name:es":"Ruta Provincial 1500","network":"MA:RP"},"6564757":{"ref":"RP4405","name":"الطريق الإقليمي رقم 4405","type":"route","route":"road","ref:ar":"ط إ 4405","highway":"tertiary","name:ar":"الطريق الإقليمي رقم 4405","network":"MA:RP","old_ref":"P4405","old_ref:ar":"إ 4405"},"6579146":{"ref":"RP1503","name":"الطريق الإقليمي رقم 1503","type":"route","route":"road","ref:ar":"ط إ 1503","highway":"tertiary","name:ar":"الطريق الإقليمي رقم 1503","network":"MA:RP"},"6579417":{"ref":"RP1520","name":"الطريق الإقليمي رقم 1520","type":"route","route":"road","ref:ar":"ط إ 1520","name:ar":"الطريق الإقليمي رقم 1520","network":"MA:RP"},"6582452":{"ref":"RP4002","name":"الطريق الإقليمي رقم 4002","type":"route","route":"road","ref:ar":"ط إ 4002","highway":"tertiary","name:ar":"الطريق الإقليمي رقم 4002","network":"MA:RP"},"6583158":{"ref":"RP4024","name":"الطريق الإقليمي رقم 4024","type":"route","route":"road","ref:ar":"ط إ 4024","highway":"tertiary","name:ar":"الطريق الإقليمي رقم 4024","network":"MA:RP","old_ref":"P4024","old_ref:ar":"إ 4024"},"6588804":{"ref":"RP4603","name":"الطريق الإقليمي 4603","type":"route","route":"road","highway":"tertiary","name:ar":"الطريق الإقليمي 4603","name:es":"Ruta Provincial 4603","network":"MA:RP","old_ref":"P4603"},"6839025":{"ref":"A 101","name":"Autoroute Casablanca – Rabat","toll":"no","type":"route","route":"road","highway":"motorway"},"8373790":{"ref":"RN1B","from":"N 1","name":"Route Nationale 1B","type":"route","route":"road","highway":"primary","network":"MA:RN","network:name":"Route Nationale du Maroc"},"8713248":{"ref":"RN1A","name":"Route Nationale 1A","note":"nouvelle numeration de cette route","type":"route","route":"road","highway":"primary","network":"MA:RN","old_ref":"1","wikipedia":"fr:Route Nationale 1A Maroc","network:name":"Route Nationale du Maroc"},"8722156":{"to":"الطاوس","ref":"RN17A","from":"الريصاني","name":"Route Nationale 17A / الطريق الوطني رقم 17 أ","type":"route","route":"road","to:ar":"الطاوس","to:en":"Taouz","to:fr":"Taouz","ref:ar":"ط و 17 أ","from:ar":"الريصاني","from:en":"Rissani","from:fr":"Rissani","highway":"primary","name:ar":"الطريق الوطني رقم 17 أ","name:fr":"Route Nationale 17A","network":"MA:RN"},"8728035":{"ref":"RN21","name":"Route Nationale 21","type":"route","route":"road","highway":"primary","name:ar":"الطريق الوطني 21","name:es":"Ruta Nacional 21","network":"MA:RN"},"8740150":{"ref":"RN11A","name":"Route Nationale 11A","type":"route","route":"road","highway":"primary","network":"MA:RN"},"8741174":{"ref":"RN12","name":"Route Nationale 12","type":"route","route":"road","highway":"primary","name:ar":"الطريق الوطني 12","name:es":"Ruta Nacional 12","network":"MA:RN"},"8749338":{"ref":"RN7A","name":"Route Nationale 7A","type":"route","route":"road","highway":"primary","network":"MA:RN","network:name":"Route Nationale du Maroc"},"8749390":{"ref":"RN17B","name":"Route Nationale 17B / الطريق الوطنية 17ب","type":"route","route":"road","ref:ar":"طو 17ب","ref:es":"RN17B","highway":"primary","name:ar":"الطريق الوطنية 17ب","name:es":"Ruta Nacional 17B","name:fr":"Route Nationale 17B","network":"MA:RN"},"8753976":{"ref":"RN23","name":"Route Nationale 23 الطريق الوطني","type":"route","route":"road","ref:ar":"ط و 23","ref:es":"RN23","highway":"primary","name:ar":"23 الطريق الوطني","name:es":"Ruta Nacional 23","name:fr":"Route Nationale 23","network":"MA:RN"},"8754423":{"ref":"RN25","name":"Route Nationale 25","type":"route","route":"road","highway":"primary","network":"MA:RN","network:name":"Route Nationale du Maroc"},"8767317":{"ref":"RN29","name":"الطريق الوطني 29","type":"route","route":"road","ref:ar":"طو 29","ref:es":"RN29","name:ar":"الطريق الوطني 29","name:es":"Ruta Nacional 29","network":"MA:RN"},"8826625":{"ref":"RR406","name":"الطريق الجهوي رقم 406","type":"route","route":"road","ref:ar":"ط ج 406","highway":"secondary","name:ar":"الطريق الجهوي رقم 406","network":"MA:RR"}}