{"7207880":{"to":"Хрустовая","ref":"M4","from":"Тирасполь","name":"Тирасполь-Дубоссары-Рыбница","note":"https://wiki.openstreetmap.org/wiki/Moldova_roads","type":"route","route":"road","name:de":"Tiraspol-Dubossary-Rybniza","name:en":"Tiraspol-Dubossary-Ribnita","name:md":"Тираспол-Дубэсарь-Рыбница","name:pl":"Tyraspol-Dubosary-Rybnica","name:ro":"Tiraspol-Dubăsari-Rîbnița","name:ru":"Тирасполь-Дубоссары-Рыбница","name:uk":"Тирасполь-Дубоссари-Рибниця","network":"md:national","wikidata":"Q2007660","wikipedia":"ro:M4 (Republica Moldova)"},"7918476":{"to":"Frontiera cu Ucraina","ref":"M1","from":"Leușeni","name":"Leușeni – Chișinău – Dubăsari – frontiera cu Ucraina","note":"https://wiki.openstreetmap.org/wiki/Moldova_roads","type":"route","route":"road","name:ru":"Леушень – Кишинэу – Дубэсарь – гранница с Украиной","network":"md:national"},"7921245":{"to":"Джурджулешты","ref":"M3","via":"Чимишлия;Комрат;Вулканешты","from":"Кишинев","name":"Chişinău – Comrat – Giurgiuleşti – frontiera cu România","note":"https://wiki.openstreetmap.org/wiki/Moldova_roads","type":"route","route":"road","name:mo":"Chișinău-Comrat-Giurgiulești","name:ro":"Chişinău – Comrat – Giurgiuleşti – frontiera cu România","name:ru":"Кишинэу-Комрат-Джюрджюлешть-гранница с Румынией","network":"md:national"},"7928413":{"ref":"R1","name":"Chişinău-Ungheni-frontiera cu România","note":"https://wiki.openstreetmap.org/wiki/Moldova_roads","type":"route","route":"road","name:ru":"Кишинэу-Унгень-граница с Румынией","network":"md:national"},"7928414":{"ref":"R1.1","name":"R1-drumul de acces spre or. Ungheni","note":"https://wiki.openstreetmap.org/wiki/Moldova_roads","type":"route","route":"road","name:ru":"R1-подъезд к городу Унгень","network":"md:national"},"7944281":{"ref":"L355","name":"Drumul de acces spre satul Bulhac","type":"route","route":"road","name:ro":"Drumul de acces spre satul Bulhac","name:ru":"Подъезд к селу Булхак"},"7944283":{"ref":"L356","name":"Drumul de acces spre satul Costuleni","type":"route","route":"road","name:ro":"Drumul de acces spre satul Costuleni","name:ru":"Подъезд к селу Костулень"},"7944314":{"ref":"L357","name":"Drumul de acces spre satul Buzduganii de Sus","type":"route","route":"road","name:ro":"Drumul de acces spre satul Buzduganii de Sus","name:ru":"Подъезд к селу Буздуганий де Сус"},"7946356":{"ref":"L358","name":"Boghenii Noi-Măgurele","type":"route","route":"road","name:ro":"Boghenii Noi-Măgurele","name:ru":"Богений Ной-Мэгуреле"},"7946357":{"ref":"L358.1","name":"Drumul de acces spre satul Izvoreni","type":"route","route":"road","name:ro":"Drumul de acces spre satul Izvoreni","name:ru":"Подъезд к селу Изворень"},"7946364":{"ref":"L359","name":"Drumul de acces spre satul Poiana","type":"route","route":"road","name:ro":"Drumul de acces spre satul Poiana","name:ru":"Подъезд к селу Пояна"},"7946366":{"ref":"L360","name":"Drumul de acces spre satul Boghenii Vechi","type":"route","route":"road","name:ro":"Drumul de acces spre satul Boghenii Vechi","name:ru":"Подъезд к селу Богений Векь"},"7946433":{"ref":"L361","name":"Drumul de acces spre satul Sinești","type":"route","route":"road","name:ro":"Drumul de acces spre satul Sinești","name:ru":"Подъезд к селу Синешть"},"7946446":{"ref":"L362","name":"Drujba - Hîrcești","type":"route","route":"road","name:ro":"Drujba - Hîrcești","name:ru":"Дружба - Хырчешть"},"7946452":{"ref":"L362.1","name":"Drumul de acces spre satul Mînzătești","type":"route","route":"road","name:ro":"Drumul de acces spre satul Mînzătești","name:ru":"Подъезд к селу Мынзэтешть"},"7946457":{"ref":"L363","name":"G88 - Condrătești - Curtoaia","type":"route","route":"road","name:ro":"G88 - Condrătești - Curtoaia","name:ru":"G88 - Кондрэтешть - Куртоая"},"7946494":{"ref":"G88","name":"Cornești-Boghenii Noi-Năpădeni-M5","type":"route","route":"road","name:ru":"Корнешть-Богений Ной-Нэпэдень-M5","network":"md:regional"},"7946498":{"ref":"M5","name":"Frontiera cu Ucraina-Criva-Bălți-Chișinău-Tiraspol-frontiera cu Ucraina","note":"https://wiki.openstreetmap.org/wiki/Moldova_roads","type":"route","route":"road","name:ru":"Граница с Украиной-Крива-Бельцы-Кишинёв-Тирасполь-Граница с Украиной","name:uk":"Кордон з Україною-Крива-Бєльці-Кишинів-Тирасполь-кордон з Україною","network":"md:national"},"7948107":{"ref":"R2","name":"Chișinău-Bender-Tiraspol-M5","note":"https://wiki.openstreetmap.org/wiki/Moldova_roads","type":"route","route":"road","name:pl":"Kiszyniów-Bendery-Tyraspol","name:ru":"Кишинёв-Бендеры-Тирасполь - M5","name:uk":"Кишинів-Бендери-Тирасполь - M5","network":"md:national"},"7948194":{"ref":"R3","name":"Chișinău-Hâncești-Cimișlia-Basarabeasca-frontiera cu Ucraina","note":"https://wiki.openstreetmap.org/wiki/Moldova_roads","type":"route","route":"road","name:ru":"Кишинэу-Хынчешть-Чимишлия-Басарабяска-граница с Украиной","network":"md:national"},"7968147":{"ref":"L364","name":"Drumul de acces spre satul Năpădeni","type":"route","route":"road","name:ro":"Drumul de acces spre satul Năpădeni","name:ru":"Подъезд к селу Нэпэдень"},"7968148":{"ref":"L365","name":"Drumul de acces spre satul Cornova","type":"route","route":"road","name:ro":"Drumul de acces spre satul Cornova","name:ru":"Подъезд к селу Корнова"},"7968159":{"ref":"L366","name":"R1 - Romanovca - Teșcureni","type":"route","route":"road","name:ro":"R1 - Romanovca - Teșcureni","name:ru":"R1 - Романовка - Тешкурень"},"7968168":{"ref":"L367","name":"Drumul de acces spre satul Zăzulenii Vechi","type":"route","route":"road","name:ro":"Drumul de acces spre satul Zăzulenii Vechi","name:ru":"Подъезд к селу Зэзулений Векь"},"7968182":{"ref":"L368","name":"Pîrlița - Agronomovca - Negurenii Vechi","type":"route","route":"road","name:ro":"Pîrlița - Agronomovca - Negurenii Vechi","name:ru":"Пырлица - Агрономовка - Негурений Векь"},"7968264":{"ref":"L369","name":"Sculeni - Buciumeni - Cioropcani","type":"route","route":"road","name:ro":"Sculeni - Buciumeni - Cioropcani","name:ru":"Скулень - Бучумень - Чоропкань"},"7968273":{"ref":"L369.1","name":"Drumul de acces spre satul Floreni","type":"route","route":"road","name:ro":"Drumul de acces spre satul Floreni","name:ru":"Подъезд к селу Флорень"},"7968302":{"ref":"R16","name":"Bălți-Fălești-Sculeni-Ungheni","note":"https://wiki.openstreetmap.org/wiki/Moldova_roads","type":"route","route":"road","name:ro":"Bălți-Fălești-Sculeni-Ungheni","name:ru":"Бэлць-Фэлешть-Скулень-Унгень","network":"md:national"},"7968310":{"ref":"R17","name":"Fălești-Pîrlița","note":"https://wiki.openstreetmap.org/wiki/Moldova_roads","type":"route","route":"road","name:ru":"Фэлешть-Пырлица","network":"md:national"},"7968414":{"ref":"L432","name":"Drumul de acces spre satul Stețcani","type":"route","route":"road","name:ru":"Подъезд к селу Стецкань"},"7970998":{"ref":"R25","name":"Bucovăț-Nisporeni","note":"https://wiki.openstreetmap.org/wiki/Moldova_roads","type":"route","route":"road","name:ru":"Буковэц-Ниспорень","network":"md:national"},"7971003":{"ref":"R10","name":"R25-M1","note":"https://wiki.openstreetmap.org/wiki/Moldova_roads","type":"route","route":"road","name:ru":"R25-M1","network":"md:national"},"8061726":{"ref":"L391","name":"R1-drumul de acces spre satul Novaia Nicolaevca","type":"route","route":"road","name:ro":"R1-drumul de acces spre satul Novaia Nicolaevca","name:ru":"R1-подъезд к селу Новая Николаевка"},"8061727":{"ref":"L390","name":"Drumul de acces spre satul Săghieni","type":"route","route":"road","name:ro":"Drumul de acces spre satul Săghieni","name:ru":"Подъезд к селу Сэгиень"},"8061729":{"ref":"L388","name":"R1 - drumul de acces spre satul Veverița","type":"route","route":"road","name:ro":"R1 - drumul de acces spre satul Veverița","name:ru":"R1-подъезд к селу Веверица"},"8061730":{"ref":"L387","name":"Drumul de acces spre satul Șicovăț","type":"route","route":"road","name:ro":"Drumul de acces spre satul Șicovăț","name:ru":"Подъезд к селу Шиковэц"},"8061732":{"ref":"L385","name":"R1.1-Mănoilești-Cetireni","type":"route","route":"road","name:ro":"R1.1-Mănoilești-Cetireni","name:ru":"R1.-Мэноилешть-Четирень"},"8061733":{"ref":"L384","name":"Drumul de acces spre satul Lidovca","type":"route","route":"road","name:ro":"Drumul de acces spre satul Lidovca","name:ru":"Подъезд к селу Лидовка"},"8061734":{"ref":"L383","name":"Drumul de acces spre satul Florițoaia Nouă","type":"route","route":"road","name:ro":"Drumul de acces spre satul Florițoaia Nouă","name:ru":"Подъезд к селу Флорицоая Ноуэ"},"8061735":{"ref":"L382.1","name":"Drumul de acces spre satul Florițoaia Veche","type":"route","route":"road","name:ro":"Drumul de acces spre satul Florițoaia Veche","name:ru":"Подъезд к селу Флорицоая Веке"},"8061736":{"ref":"L382","name":"Drumul de acces spre satul Grozasca","type":"route","route":"road","name:ro":"Drumul de acces spre satul Grozasca","name:ru":"Подъезд к селу Грозаска"},"8061737":{"ref":"L381","name":"Rădenii Vechi - Bahmut","type":"route","route":"road","name:ro":"Rădenii Vechi - Bahmut","name:ru":"Рэдений Векь-Бахмут"},"8061738":{"ref":"L380","name":"Drumul de ocolire a satul Alexeevca","type":"route","route":"road","name:ro":"Drumul de ocolire a satul Alexeevca","name:ru":"Объездная дорога села Алексеевка"},"8061739":{"ref":"L379","name":"R1 - drumul de acces spre satul Bumbăta","type":"route","route":"road","name:ro":"R1 - drumul de acces spre satul Bumbăta","name:ru":"R1-подъезд к селу Бумбэта"},"8061740":{"ref":"L378","name":"R1-drumul de acces spre satul Cornești","type":"route","route":"road","name:ru":"R1-подъезд к селу Корнешть"},"8061741":{"ref":"L377","name":"R16-drumul de acces spre stația Berești","type":"route","route":"road","name:ro":"R16-drumul de acces spre stația Berești","name:ru":"R16-подъезд к станции Берешть"},"8061742":{"ref":"L376","name":"R17-Grăseni-Todirești","type":"route","route":"road","name:ru":"R17-Грэсень-Тодирешть"},"8061743":{"ref":"L375","name":"Petrești-R17","type":"route","route":"road","name:ro":"Petrești-R17","name:ru":"Петрешть-R17"},"8061744":{"ref":"L374","name":"R17 - drumul de acces spre satul Bușila","type":"route","route":"road","name:ro":"R17 - drumul de acces spre satul Bușila","name:ru":"R17-подъезд к селу Бушила"},"8061745":{"ref":"L383","name":"R17 - drumul de acces spre satul Chirileni","type":"route","route":"road","name:ro":"R17 - drumul de acces spre satul Chirileni","name:ru":"R17-подъезд к селу Кирилень"},"8061747":{"ref":"L371","name":"R1 - drumul de acces spre satul Teșcureni","type":"route","route":"road","name:ro":"R1 - drumul de acces spre satul Teșcureni","name:ru":"R1-подъезд к селу Тешкурень"},"8061748":{"ref":"L370","name":"R16 - drumul de acces spre satul Medeleni","type":"route","route":"road","name:ro":"R16 - drumul de acces spre satul Medeleni","name:ru":"R16-подъезд к селу Меделень"},"8139968":{"to":"Ocnița","ref":"L3","from":"R11","name":"R11 - drumul de acces spre orașul Ocnița","note":"https://wiki.openstreetmap.org/wiki/Moldova_roads","type":"route","route":"road","name:ru":"R11 - подъезд к городу Окница","network":"md:local"},"8159079":{"ref":"R12","name":"R8-Dondușeni-Drochia-Pelinia-M5","note":"https://wiki.openstreetmap.org/wiki/Moldova_roads","type":"route","route":"road","name:ru":"R8-Дондушень-Дрокия-Пелиния-M5","network":"md:national"},"8341531":{"ref":"L431","name":"Drumul de acces spre satul Rîșcova","type":"route","route":"road","name:ru":"Подъезд к селу Рышкова"},"8341549":{"ref":"L336","name":"M5-Lupa-Recea-Vatici","type":"route","route":"road","name:ru":"M5-Лупа-Реча-Ватич"},"8346579":{"ref":"L433","name":"Drumul de acces spre satul Ișnovăț","type":"route","route":"road","name:ru":"Подъезд к селу Ишновэц"},"8347334":{"ref":"L435","name":"Chișinău-Colonița-Maximovca","type":"route","route":"road","name:ru":"Кишинёв-Колоница-Максимовка"},"8347338":{"ref":"L435.1","name":"Drumul de acces spre satul Dolinnoe","type":"route","route":"road","name:ru":"Подъезд к селу Долинное"},"8347352":{"ref":"L436","name":"Budești-Bălțata","type":"route","route":"road","name:ru":"Будешть-Бэлцата"},"8347361":{"ref":"L437","name":"Drumul de acces spre satul Bălțata","type":"route","route":"road","name:ru":"Подъезд к селу Бэлцата"},"8347372":{"ref":"L439","name":"M1-drumul de acces spre satul Cruglic","type":"route","route":"road","name:ru":"M1-подъезд к селу Круглик"},"8347383":{"ref":"L438","name":"G72-Jevreni-Răculești","type":"route","route":"road","name:ru":"G72-Жеврень-Рэкулешть"},"8347405":{"ref":"L440","name":"Hîrtopul Mic-Zăicana-Hrușova","type":"route","route":"road","name:ru":"Хыртопул Мик-Зэикана-Хрушова"},"8347410":{"ref":"L440.1","name":"Zăicana-M1","type":"route","route":"road","name:ru":"Зэикана-M1"},"8347439":{"ref":"L441","name":"Ratuș-Drăsliceni","type":"route","route":"road","name:ru":"Ратуш-Дрэсличень"},"8347447":{"ref":"L442","name":"R6-drumul de acces spre satul Pașcani","type":"route","route":"road","name:ru":"R6-подъезд к селу Пашкань"},"8347465":{"ref":"L443","name":"Vadul lui Vodă-Bălăbănești","type":"route","route":"road","name:ru":"Вадул луй Водэ-Бэлэбэнешть"},"8347609":{"ref":"L444","name":"Drumul de acces spre satul Corjova","type":"route","route":"road","name:ru":"Подъезд к селу Коржова"},"8347612":{"ref":"L445","name":"Drumul de acces spre satul Mălăiești","type":"route","route":"road","name:ru":"Подъезд к селу Мэлэешть"},"8347618":{"ref":"L446","name":"Drumul de acces spre satul Dubăsarii Vechi","type":"route","route":"road","name:ru":"Подъезд к селу Дубэсарий Векь"},"8348836":{"ref":"L310","name":"Butuceni-Morovaia-G69","type":"route","route":"road","name:ru":"Бутучень-Моровая-G69"},"8348844":{"ref":"L311","name":"R20-Podgoreni-Zahoreni","type":"route","route":"road","name:ru":"R20-Подгорень-Захорень"},"8348859":{"ref":"L313","name":"Drumul de acces spre satul Bolohan","type":"route","route":"road","name:ru":"Подъезд к селу Болохан"},"8348866":{"ref":"L312","name":"Chiperceni-Voroteț-Andreevca","type":"route","route":"road","name:ru":"Киперчень-Воротец-Андреевка"},"8348877":{"ref":"L314","name":"Drumul de acces spre satul Vîșcăuți","type":"route","route":"road","name:ru":"Подъезд к селу Вышкэуць"},"8348910":{"ref":"L315","name":"G68-Piatra-Jeloboc","type":"route","route":"road","name:ru":"G68-Пятра-Желобок"},"8348969":{"ref":"L316","name":"R6-drumul de acces spre satul Pohorniceni","type":"route","route":"road","name:ru":"R6-подъезд к селу Похорничень"},"8348978":{"ref":"L317","name":"G44-Bulăiești-Mîrzești","type":"route","route":"road","name:ru":"G44-Булэешть-Мырзешть"},"8348985":{"ref":"L318","name":"Brănești-Furceni","type":"route","route":"road","name:ru":"Брэнешть-Фурчень"},"8348986":{"ref":"L319","name":"G73-drumul de acces spre satul Trebujeni","type":"route","route":"road","name:ru":"G73-подъезд к селу Требужень"},"8348988":{"ref":"L320","name":"R6-drumul de acces spre satul Miclești","type":"route","route":"road","name:ru":"R6-подъезд к селу Миклешть"},"8348993":{"ref":"L321","name":"Drumul de acces spre satul Sămănanca","type":"route","route":"road","name:ru":"Подъезд к селу Сэмэнанка"},"8352129":{"ref":"L455.1","name":"Tohatin-Colonița","type":"route","route":"road","name:ru":"Тохатин-Колоница"},"8352130":{"ref":"L434","name":"Drumul de ocolire a satul Izbiște","type":"route","route":"road","name:ru":"Объездная дорога села Избиште"},"8353030":{"ref":"L322","name":"Drumul de acces spre satul Pocșești","type":"route","route":"road","name:ru":"Подъезд к селу Покшешть"},"8353034":{"ref":"L322.1","name":"Camencea-Teleșeu","type":"route","route":"road","name:ro":"Camencea-Teleșeu","name:ru":"Каменча-Телешеу"},"8353045":{"ref":"L323","name":"Drumul de acces spre satul Teleșeu","type":"route","route":"road","name:ro":"Drumul de acces spre satul Teleșeu","name:ru":"Подъезд к селу Телешеу"},"8353051":{"ref":"L324","name":"R21-drumul de acces spre satul Seliște","type":"route","route":"road","name:ru":"R21-подъезд к селу Селиште"},"8353061":{"ref":"L325","name":"R21-drumul de acces spre Mănăstirea Curchi","type":"route","route":"road","name:ru":"R21-подъезд к Монастырю Курки"},"8353085":{"ref":"L326","name":"R21-drumul de acces spre satul Puțintei","type":"route","route":"road","name:ru":"R21-подъезд к селу Пуцинтей"},"8353117":{"ref":"L327","name":"R21-Isacova-Neculăieuca-R21","type":"route","route":"road","name:ru":"R21-Исакова-Некулэеука-R21"},"8353142":{"ref":"L328","name":"R6-drumul de acces spre satul Pelivan","type":"route","route":"road","name:ru":"R6-подъезд к селу Пеливан"},"8353151":{"ref":"L329","name":"R14-drumul de acces spre satul Budăi","type":"route","route":"road","name:ru":"R14-подъезд к селу Будэй"},"8353168":{"ref":"L330","name":"R6-Mălăiești-Morozeni","type":"route","route":"road","name:ru":"R6-Мэлэешть-Морозень"},"8353172":{"ref":"L331","name":"R6-drumul de acces spre satul Brăviceni","type":"route","route":"road","name:ru":"R6-подъезд к селу Брэвичень"},"8353178":{"ref":"L332","name":"R6-drumul de acces spre satul Mitoc","type":"route","route":"road","name:ru":"R6-подъезд к селу Миток"},"8353186":{"ref":"L333","name":"Drumul de acces spre satul Ocnița-Răzeși","type":"route","route":"road","name:ru":"Подъезд к селу Окница-Рэзешь"},"8353200":{"ref":"L334","name":"Drumul de acces spre satul Inculeț","type":"route","route":"road","name:ru":"Подъезд к селу Инкулец"},"8353206":{"ref":"L334.1","name":"Drumul de acces spre satul Ocnița-Țărani","type":"route","route":"road","name:ru":"Подъезд к селу Окница-Цэрань"},"8353210":{"ref":"L335","name":"G68-Berezlogi-Hîjdieni","type":"route","route":"road","name:ru":"G68-Березлоджь-Хыждиень"},"8353217":{"ref":"L336.1","name":"Drumul de acces spre satul Tabăra","type":"route","route":"road","name:ru":"Подъезд к селу Табэра"},"8353229":{"ref":"L337","name":"G85-drumul de acces spre satul Hoginești","type":"route","route":"road","name:ru":"G85-подъезд к селу Ходжинешть"},"8353245":{"ref":"L338","name":"Drumul de acces spre satul Hirova","type":"route","route":"road","name:ru":"Подъезд к селу Хирова"},"8353263":{"ref":"L339","name":"R21-drumul de acces spre satul Săseni","type":"route","route":"road","name:ru":"R21-подъезд к селу Сэсень"},"8353286":{"ref":"L340","name":"M5-drumul de acces spre satul Meleșeni","type":"route","route":"road","name:ru":"M5-подъезд к селу Мелешень"},"8353290":{"ref":"L341","name":"M5-drumul de acces spre satul Țibirica","type":"route","route":"road","name:ru":"M5-подъезд к селу Цибирика"},"8353296":{"ref":"L342","name":"Dereneu-Bularda","type":"route","route":"road","name:ru":"Деренеу-Буларда"},"8353338":{"ref":"L343","name":"Drumul de acces spre satul Răciula","type":"route","route":"road","name:ru":"Подъезд к селу Рэчула"},"8353367":{"ref":"L344","name":"R21-drumul de acces spre satul Parcani","type":"route","route":"road","name:ru":"R21-подъезд к селу Паркань"},"8353541":{"ref":"L345","name":"R21-drumul de acces spre satul Frumoasa","type":"route","route":"road","name:ru":"R21-подъезд к селу Фрумоаса"},"8353599":{"ref":"L346","name":"Drumul de acces spre satul Păulești","type":"route","route":"road","name:ru":"Подъезд к селу Пэулешть"},"8353628":{"ref":"L347","name":"Drumul de acces spre satul Nișcani","type":"route","route":"road","name:ru":"Подъезд к селу Нишкань"},"8353630":{"ref":"L348","name":"R1-Pitușca-Vărzăreștii Noi","type":"route","route":"road","name:ru":"R1-Питушка-Вэрзэрештий Ной"},"8353631":{"ref":"L348.1","name":"Drumul de acces spre satul Pitușca","type":"route","route":"road","name:ru":"Подъезд к селу Питушка"},"8353632":{"ref":"L349","name":"R1-drumul de acces spre satul Oricova","type":"route","route":"road","name:ru":"R1-подъезд к селу Орикова"},"8354749":{"ref":"L351","name":"R1-drumul de acces spre satul Sipoteni","type":"route","route":"road","name:ru":"R1-подъезд к селу Сипотень"},"8354998":{"ref":"L352","name":"G95-Peticeni-Vălcineț","type":"route","route":"road","name:ru":"G95-Петичень-Вэлчинец"},"8355045":{"ref":"L352.1","name":"Drumul de acces spre satul Novaci","type":"route","route":"road","name:ru":"Подъезд к селу Новачь"},"8355063":{"ref":"L352.2","name":"Drumul de acces spre satul Temeleuți","type":"route","route":"road","name:ru":"Подъезд к селу Темелеуць"},"8355080":{"ref":"L353","name":"Drumul de acces spre satul Tuzara","type":"route","route":"road","name:ru":"Подъезд к селу Тузара"},"8355325":{"ref":"L354.1","name":"Drumul de acces spre satul Horodiște","type":"route","route":"road","name:ru":"Подъезд к селу Хородиште"},"8355451":{"ref":"L16","name":"M5-drumul de acces spre orașul Briceni","type":"route","route":"road","name:ru":"M5-подъезд к городу Бричень"},"8355497":{"ref":"L17.1","name":"Drumul de acces spre satul Trebisăuți","type":"route","route":"road","name:ru":"Подъезд к селу Требисэуць"},"8355529":{"ref":"L18","name":"Halahora de Sus-Tîrnova-G4","type":"route","route":"road","name:ru":"Халахора де Сус-Тырнова-G4"},"8355545":{"ref":"L18.1","name":"Drumul de acces spre satul Chirilovca","type":"route","route":"road","name:ru":"Подъезд к селу Кириловка"},"8355560":{"ref":"L350","name":"R1-drumul de acces spre satul Tochile","type":"route","route":"road","name:ru":"R1-подъезд к селу Токила","alt_name":"R1-drumul de acces spre satul Tochila"},"8355571":{"ref":"L19","name":"Drumul de acces spre satul Mărcăuții Noi","type":"route","route":"road","name:ru":"Подъезд к селу Мэркэуций Ной"},"8355579":{"ref":"L20","name":"M5-Mihăileni-Bălcăuți","type":"route","route":"road","name:ru":"M5-Михэйлень-Бэлкэуць"},"8355657":{"ref":"L21","name":"M5-Colicăuți-Trebisăuți","type":"route","route":"road","name:ru":"M5-Коликэуць-Требисэуць"},"8355674":{"ref":"L22","name":"Bălcăuți-Colicăuți","type":"route","route":"road","name:ru":"Бэлкэуць-Коликэуць"},"8355712":{"ref":"L23","name":"M5-Tabani-Trinca","type":"route","route":"road","name:ru":"M5-Табань-Тринка"},"8355719":{"ref":"L24","name":"M5-Trestieni-Caracușenii Vechi","type":"route","route":"road","name:ru":"M5-Трестиень-Каракушений Векь"},"8355735":{"ref":"L25","name":"M5-Berlinți-Cotiujeni","type":"route","route":"road","name:ru":"M5-Берлинць-Котюжень"},"8355744":{"ref":"L26","name":"Beleavinți-Balasinești-Pererita","type":"route","route":"road","name:ru":"Белявинць-Баласинешть-Перерита"},"8355747":{"ref":"L27","name":"Lipcani-Larga","type":"route","route":"road","name:ru":"Липкань-Ларга"},"8355800":{"ref":"L30","name":"Larga-Medveja-frontiera cu Ucraina","type":"route","route":"road","name:ru":"Ларга-Медвежа-граница с Украиной","name:uk":"Larga-Medveja-frontiera cu Ucraina"},"8355825":{"ref":"L31","name":"Drumul de acces spre satul Hlina","type":"route","route":"road","name:ru":"Подъезд к селу Хлина"},"8355827":{"ref":"L32","name":"Drumul de acces spre satul Pavlovca","type":"route","route":"road","name:ru":"Подъезд к селу Павловка"},"8355830":{"ref":"L34","name":"Medveja-frontiera cu Ucraina","type":"route","route":"road","name:ru":"Медвежа-граница с Украиной"},"8362208":{"ref":"L35","name":"Lipcani-stația Lipcani","type":"route","route":"road","name:ru":"Липкань-станция Липкань"},"8362209":{"ref":"L36","name":"Lipcani-frontiera cu România","type":"route","route":"road","name:ru":"Липкань-граница с Румынией"},"8362275":{"ref":"L38","name":"G3-Bogdănești-Grimești","type":"route","route":"road","name:ru":"G3-Богдэнешть-Гримешть"},"8362402":{"ref":"L61","name":"Drumul de acces spre satul Caraiman","type":"route","route":"road","name:ru":"Подъезд к селу Карайман"},"8362405":{"ref":"L62","name":"Drumul de acces spre satul Elenovca","type":"route","route":"road","name:ru":"Подъезд к селу Еленовка"},"8362409":{"ref":"L63","name":"Dondușeni-Scăieni-Tîrnova","type":"route","route":"road","name:ru":"Дондушень-Скэень-Тырнова"},"8362422":{"ref":"L64","name":"Dondușeni-Țaul-Tîrnova","type":"route","route":"road","name:ru":"Дондушень-Цаул-Тырнова"},"8362469":{"ref":"L67","name":"R8-drumul de acces spre satul Pivniceni","type":"route","route":"road","name:ru":"R8-подъезд к селу Пивничень"},"8362489":{"ref":"L68","name":"R8-drumul de acces spre satul Cernoleuca","type":"route","route":"road","name:ru":"R8-подъезд к селу Чернолеука"},"8362515":{"ref":"L70","name":"Drumul de acces spre satul Boroseni","type":"route","route":"road","name:ru":"Подъезд к селу Боросень"},"8362540":{"ref":"L69","name":"Drumul de acces spre satul Elizavetovca","type":"route","route":"road","name:ru":"Подъезд к селу Елизаветовка"},"8362554":{"ref":"L71","name":"Drumul de acces spre satul Octeabriscoe","type":"route","route":"road","name:ru":"Подъезд к селу Октябрьское"},"8362602":{"ref":"L72","name":"Horodiște-Sudarca","type":"route","route":"road","name:ru":"Хородиште-Сударка"},"8362645":{"ref":"L73","name":"R14-Crișcăuți","type":"route","route":"road","name:ru":"R14-Кришкэуць"},"8362678":{"ref":"L74","name":"R8.1-drumul de acces spre satul Arionești","type":"route","route":"road","name:ru":"R8.1-подъезд к селу Арионешть"},"8362703":{"ref":"L75","name":"R14-drumul de acces spre satul Arionești","type":"route","route":"road","name:ru":"R14-подъезд к селу Арионешть"},"8377061":{"ref":"L110","name":"R12-Maramonovca-Ceapaevca","type":"route","route":"road","name:ru":"R12-Марамоновка-Чапаевка"},"8377068":{"ref":"L111","name":"Drumul de acces spre satul Iliciovca","type":"route","route":"road","name:ru":"Подъезд к селу Ильичёвка"},"8377112":{"ref":"L112","name":"R7-Palanca-Cotova","type":"route","route":"road","name:ru":"R7-Паланка-Котова"},"8377131":{"ref":"L113","name":"Drumul de acces spre satul Măcăreuca","type":"route","route":"road","name:ru":"Подъезд к селу Мэкэреука"},"8377138":{"ref":"L114","name":"Popeștii de Sus-Schineni","type":"route","route":"road","name:ru":"Попештий де Сус-Скинень"},"8377141":{"ref":"L115","name":"Drumul de acces spre satul Popeștii de Jos","type":"route","route":"road","name:ru":"Подъезд к селу Попештий де Жос"},"8377146":{"ref":"L116","name":"R12-drumul de acces spre satul Drochia","type":"route","route":"road","name:ru":"R12-подъезд к селу Дрокия"},"8377166":{"ref":"L117","name":"Drumul de ocolire a orașul Drochia","type":"route","route":"road","name:ru":"Объездная дорога города Дрокия"},"8377173":{"ref":"L118","name":"Drumul de acces spre orașul Drochia","type":"route","route":"road","name:ru":"Подъезд к городу Дрокия"},"8377178":{"ref":"L119","name":"Chetrosu-Șuri-Drochia","type":"route","route":"road","name:ru":"Кетросу-Шурь-Дрокия"},"8377182":{"ref":"L120","name":"Drumul de acces spre satul Antoneuca","type":"route","route":"road","name:ru":"Подъезд к селу Антонеука"},"8377186":{"ref":"L121","name":"Mihăileni-Nicoreni","type":"route","route":"road","name:ru":"Михэйлень-Никорень"},"8377191":{"ref":"L121.1","name":"Drumul de acces spre satul Ochiul Alb","type":"route","route":"road","name:ru":"Подъезд к селу Окюл Алб"},"8377195":{"ref":"L122","name":"R12-drumul de acces spre satul Miciurin","type":"route","route":"road","name:ru":"R12-подъезд к селу Мичурин"},"8377198":{"ref":"L123","name":"G27-Baroncea-Baroncea Nouă","type":"route","route":"road","name:ru":"G27-Баронча-Баронча Ноуэ"},"8377202":{"ref":"L124","name":"G27-drumul de acces spre satul Gribova","type":"route","route":"road","name:ru":"G27-подъезд к селу Грибова"},"8377203":{"ref":"L125","name":"G27-drumul de acces spre satul Popeștii Noi","type":"route","route":"road","name:ru":"G27-подъезд к селу Попештий Ной"},"8377204":{"ref":"L126","name":"G27-drumul de acces spre satul Dominteni","type":"route","route":"road","name:ru":"G27-подъезд к селу Доминтень"},"8377217":{"ref":"L127","name":"G27-drumul de acces spre satul Petreni","type":"route","route":"road","name:ru":"G27-подъезд к селу Петрень"},"8377220":{"ref":"L128","name":"G27-drumul de acces spre satul Hăsnășenii Mari","type":"route","route":"road","name:ru":"G27-подъезд к селу Хэснэшений Марь"},"8379450":{"ref":"L129","name":"R12-drumul de acces spre satul Sofia","type":"route","route":"road","name:ru":"R12-подъезд к селу София"},"8379455":{"ref":"L130","name":"Drumul de acces spre satul Lazo","type":"route","route":"road","name:ru":"Подъезд к селу Лазо"},"8379461":{"ref":"L131","name":"Hăsnășenii Noi-Pelinia","type":"route","route":"road","name:ru":"Хэснэшений Ной-Пелиния"},"8379470":{"ref":"L132","name":"R12-drumul de acces spre satul Baroncea Nouă","type":"route","route":"road","name:ru":"R12-подъезд к селу Баронча Ноуэ"},"8379477":{"ref":"L133","name":"R7-drumul de acces spre mănăstirea Nicoreni","type":"route","route":"road","name:ru":"R7-подъезд к монастырю Никорень"},"8379491":{"ref":"L39","name":"Drumul de acces spre satul Vancicăuți","type":"route","route":"road","name:ru":"Подъезд к селу Ванчикэуць"},"8379515":{"ref":"L40","name":"Drumul de acces spre satul Rîngaci","type":"route","route":"road","name:ru":"Подъезд к селу Рынгач"},"8379660":{"ref":"L41","name":"Hincăuți-Bîrlădeni","type":"route","route":"road","name:ru":"Хинкэуць-Бырлэдень"},"8379696":{"ref":"L41.1","name":"Drumul de acces spre satul Poiana","type":"route","route":"road","name:ru":"Подъезд к селу Пояна"},"8381238":{"ref":"L41.2","name":"Drumul de acces spre satul Clișcăuți","type":"route","route":"road","name:ru":"Подъезд к селу Клишкэуць"},"8381244":{"ref":"L42","name":"Drumul de acces spre satul Hlinaia Mică","type":"route","route":"road","name:ru":"Подъезд к селу Хлиная Микэ"},"8381278":{"ref":"L43","name":"Drumul de acces spre satul Rotunda","type":"route","route":"road","name:ru":"Подъезд к селу Ротунда"},"8381284":{"ref":"L44","name":"Drumul de acces spre satul Hlinaia","type":"route","route":"road","name:ru":"Подъезд к селу Хлиная"},"8381316":{"ref":"L45.1","name":"Drumul de acces spre satul Gordineștii Noi","type":"route","route":"road","name:ru":"Подъезд к селу Гординештий Ной"},"8381362":{"ref":"L46","name":"Tîrnova-G15","type":"route","route":"road"},"8381371":{"ref":"L47","name":"Corjeuți-Fetești","type":"route","route":"road","name:ru":"Коржеуць-Фетешть"},"8381378":{"ref":"L47.1","name":"Drumul de acces spre satul Trinca","type":"route","route":"road","name:ru":"Подъезд к селу Тринка"},"8381412":{"ref":"L48","name":"G15-Burlănești-Viișoara","type":"route","route":"road","name:ru":"G15-Бурлэнешть-Виишоара"},"8381436":{"ref":"L49","name":"G3-Burlănești","type":"route","route":"road","name:ru":"G3-Бурлэнешть"},"8381447":{"ref":"L49.1","name":"Drumul de acces spre satul Buzdugeni","type":"route","route":"road","name:ru":"Подъезд к селу Буздуджень"},"8381483":{"ref":"L50","name":"G21-Zăbriceni-Volodeni-Gordinești","type":"route","route":"road","name:ru":"G21-Зэбричень-Володень-Гординешть"},"8381489":{"ref":"L51","name":"Drumul de acces spre satul Alexăndreni","type":"route","route":"road","name:ru":"Подъезд к селу Алексэндрень"},"8381519":{"ref":"L52","name":"Brînzeni-Cuconeștii Noi","type":"route","route":"road","name:ru":"Брынзень-Куконештий Ной"},"8381521":{"ref":"L52.1","name":"Drumul de acces spre satul Corpaci","type":"route","route":"road","name:ru":"Подъезд к селу Корпач"},"8381522":{"ref":"L53","name":"Drumul de acces spre satul Bădragii Vechi","type":"route","route":"road","name:ru":"Подъезд к селу Бэдраджий Векь"},"8381524":{"ref":"L54","name":"Drumul de acces spre satul Cuconeștii Noi","type":"route","route":"road","name:ru":"Подъезд к селу Куконештий Ной"},"8381531":{"ref":"L56","name":"Brătușeni-Zăbriceni","type":"route","route":"road","name:ru":"Брэтушень-Зэбричень"},"8381534":{"ref":"L56.1","name":"Drumul de acces spre satul Stolniceni","type":"route","route":"road","name:ru":"Подъезд к селу Столничень"},"8381535":{"ref":"L57","name":"Cupcini-Parcova","type":"route","route":"road","name:ru":"Купчинь-Паркова"},"8381538":{"ref":"L58","name":"M5-drumul de acces spre stația Cupcini","type":"route","route":"road","name:ru":"M5-подъезд к станции Купчинь"},"8381540":{"ref":"L59","name":"M5-Chetroșica Nouă-Gașpar-R8","type":"route","route":"road","name:ru":"M5-Кетрошика Ноуэ-Гашпар-R8"},"8381545":{"ref":"L60","name":"M5-drumul de acces spre satul Brătușenii Noi","type":"route","route":"road","name:ru":"M5-подъезд к селу Брэтушений Ной"},"8381735":{"ref":"L1","name":"R11.1-drumul de acces spre satul Lipnic","type":"route","route":"road","name:ru":"R11.1-подъезд к селу Липник"},"8381736":{"ref":"L2","name":"Drumul de acces spre orașul Ocnița","type":"route","route":"road","name:ru":"Подъезд к городу Окница"},"8381741":{"ref":"R11.1","name":"Drumul de acces spre orașul Ocnița","type":"route","route":"road","name:ru":"Подъезд к городу Окница","network":"md:national"},"8381757":{"ref":"L4","name":"Vălcineț-G8","type":"route","route":"road","name:ru":"Вэлчинец-G8"},"8381758":{"ref":"L5","name":"R8-drumul de acces spre satul Berezovca","type":"route","route":"road","name:ru":"R8-подъезд к селу Березовка"},"8381806":{"ref":"L6","name":"Ocnița-Naslavcea-Lencăuți","type":"route","route":"road","name:ru":"Окница-Наславча-Ленкэуць"},"8381829":{"ref":"L8","name":"R11-drumul de acces spre satul Maiovca","type":"route","route":"road","name:ru":"R11-подъезд к селу Майовка"},"8382017":{"ref":"L9","name":"Drumul de acces spre orașul Frunză","type":"route","route":"road","name:ru":"Подъезд к городу Фрунзэ"},"8382048":{"ref":"L10","name":"Drumul de acces spre satul Mihălășeni","type":"route","route":"road","name:ru":"Подъезд к селу Михэлэшень"},"8382098":{"ref":"L11","name":"Grinăuți-Raia-stația Rediul Mare","type":"route","route":"road","name:ru":"Гринэуць-Рая-станция Редиул Маре"},"8382130":{"ref":"L12","name":"G9-drumul de acces spre satul Rujnița","type":"route","route":"road","name:ru":"G9-подъезд к селу Ружница"},"8382138":{"ref":"L13.1","name":"Clocușna-frontiera cu Ucraina","type":"route","route":"road","name:ru":"Клокушна-граница с Украиной"},"8384051":{"ref":"L76","name":"R14-drumul de acces spre satul Rudi","type":"route","route":"road","name:ru":"R14-подъезд к селу Рудь"},"8384052":{"ref":"L77","name":"R14-drumul de acces spre satul Tolocănești","type":"route","route":"road","name:ru":"R14-подъезд к селу Толокэнешть"},"8384095":{"ref":"L78","name":"Niorcani-Teleșeuca","type":"route","route":"road","name:ru":"Нёркань-Телешеука"},"8384096":{"ref":"L79","name":"R14-drumul de acces spre satul Tătărăuca Nouă","type":"route","route":"road","name:ru":"R14-подъезд к селу Тэтэрэука Ноуэ"},"8384121":{"ref":"L81","name":"R14-Tătărăuca Veche-L80","type":"route","route":"road","name:ru":"R14-Тэтэрэука Веке-L80"},"8384345":{"ref":"L82","name":"R14-drumul de acces spre satul Slobozia Nouă","type":"route","route":"road","name:ru":"R14-подъезд к селу Слобозия Ноуэ"},"8384351":{"ref":"L83","name":"R14-Oclanda-Cremenciug-R14","type":"route","route":"road","name:ru":"R14-Окланда-Кременчуг-R14"},"8384356":{"ref":"L84","name":"R14-drumul de acces spre satul Valea","type":"route","route":"road","name:ru":"R14-подъезд к селу Валя"},"8384362":{"ref":"L85","name":"R14-drumul de acces spre satul Livezi","type":"route","route":"road","name:ru":"R14-подъезд к селу Ливезь"},"8384367":{"ref":"L86","name":"Dărcăuți-Cotova","type":"route","route":"road","name:ru":"Дэркэуць-Котова"},"8384372":{"ref":"L86.1","name":"Drumul de acces spre satul Dărcăuții Noi","type":"route","route":"road","name:ru":"Подъезд к селу Дэркэуций Ной"},"8384384":{"ref":"L86.2","name":"Drumul de acces spre satul Mălcăuți","type":"route","route":"road","name:ru":"Подъезд к селу Мэлкэуць"},"8384387":{"ref":"L87","name":"G12-drumul de acces spre satul Bădiceni","type":"route","route":"road","name:ru":"G12-подъезд к селу Бэдичень"},"8384395":{"ref":"L89","name":"Soroca-Holoșnița-Grigorăuca","type":"route","route":"road","name:ru":"Сорока-Холошница-Григорэука"},"8384406":{"ref":"L90","name":"R14-drumul de acces spre satul Șeptelici","type":"route","route":"road","name:ru":"R14-подъезд к селу Шептелич"},"8384407":{"ref":"L91","name":"R14-drumul de acces spre satul Cureșnița Nouă","type":"route","route":"road","name:ru":"R14-подъезд к селу Курешница Ноуэ"},"8384409":{"ref":"L92","name":"R14-drumul de acces spre satul Rublenița Nouă","type":"route","route":"road","name:ru":"R14-подъезд к селу Рубленица Ноуэ"},"8384425":{"ref":"L93","name":"R14.1-drumul de acces spre satul Cosăuți","type":"route","route":"road","name:ru":"R14.1-подъезд к селу Косэуць"},"8384430":{"ref":"L95","name":"Drumul de acces spre satul Hristici","type":"route","route":"road","name:ru":"Подъезд к селу Христич"},"8384434":{"ref":"L96","name":"Drumul de acces spre satul Țepilova","type":"route","route":"road","name:ru":"Подъезд к селу Цепилова"},"8384435":{"ref":"L97","name":"R14-drumul de acces spre satul Ocolina","type":"route","route":"road","name:ru":"R14-подъезд к селу Околина"},"8384443":{"ref":"L98","name":"Drumul de acces spre satul Vanțina","type":"route","route":"road","name:ru":"Подъезд к селу Ванцина"},"8384453":{"ref":"L99","name":"G35-Regina Maria-Bulboci","type":"route","route":"road","name:ru":"G35-Реджина Мария-Булбочь"},"8384454":{"ref":"L100.1","name":"Drumul de acces spre satul Bulbocii Noi","type":"route","route":"road","name:ru":"Подъезд к селу Булбочий Ной"},"8384467":{"ref":"L101","name":"R14-Redi-Cereșnovăț-Voloave-R14","type":"route","route":"road","name:ru":"R14-Редь-Черешновэц-Волоаве-R14"},"8384469":{"ref":"L101.1","name":"Drumul de acces spre satul Parcani","type":"route","route":"road","name:ru":"Подъезд к селу Паркань"},"8384489":{"ref":"L102","name":"R14-drumul de acces spre satul Racovăț","type":"route","route":"road","name:ru":"R14-подъезд к селу Раковэц"},"8384490":{"ref":"L103","name":"Volovița-Vasilcău","type":"route","route":"road","name:ru":"Воловица-Василкэу"},"8384491":{"ref":"L103.1","name":"Ruslanovca-Inundeni-Trifăuți","type":"route","route":"road","name:ru":"Руслановка-Инундень-Трифэуць"},"8384495":{"ref":"L103.2","name":"Trifăuți-Vasilcău","type":"route","route":"road","name:ru":"Трифэуць-Василкэу"},"8384527":{"ref":"L104","name":"R14-drumul de acces spre satul Dubna","type":"route","route":"road","name:ru":"R14-подъезд к селу Дубна"},"8384529":{"ref":"L105","name":"Drumul de acces spre satul Slobozia-Cremene","type":"route","route":"road","name:ru":"Подъезд к селу Слобозия-Кремене"},"8384548":{"ref":"L106","name":"G38-Nimereuca-Cerlina","type":"route","route":"road","name:ru":"G38-Нимереука-Черлина"},"8384551":{"ref":"L107","name":"G33-drumul de acces spre satul Floriceni","type":"route","route":"road","name:ru":"G33-подъезд к селу Флоричень"},"8395200":{"ref":"L537","name":"R34-drumul de acces spre satul Cîzlar","type":"route","route":"road","name:ru":"R34-подъезд к селу Кызлар"},"8395202":{"ref":"L538","name":"Sărăteni-Ceadîr","type":"route","route":"road","name:ru":"Сэрэтень-Чадыр"},"8395249":{"ref":"L538.1","name":"Drumul de acces spre satul Orac","type":"route","route":"road","name:ru":"Подъезд к селу Орак"},"8395253":{"ref":"L539","name":"R34-drumul de acces spre satul Victoria","type":"route","route":"road","name:ru":"R34-подъезд к селу Виктория"},"8395267":{"ref":"L540","name":"Drumul de acces spre satul Cupcui","type":"route","route":"road","name:ru":"Подъезд к селу Купкуй"},"8395274":{"ref":"L541","name":"Drumul de acces spre satul Tomai","type":"route","route":"road","name:ru":"Подъезд к селу Томай"},"8395295":{"ref":"L542","name":"Drumul de acces spre satul Tochile-Răducani","type":"route","route":"road","name:ru":"Подъезд к селу Токиле-Рэдукань"},"8397073":{"ref":"L543","name":"R34-drumul de acces spre satul Troița","type":"route","route":"road","name:ru":"R34-подъезд к селу Троица"},"8397080":{"ref":"L544","name":"G102-Beștemac-Pitești","type":"route","route":"road","name:ru":"G102-Бештемак-Питешть"},"8397090":{"ref":"L545","name":"R34-drumul de acces spre satul Cazangic","type":"route","route":"road","name:ru":"R34-подъезд к селу Казанджик"},"8397132":{"ref":"L546","name":"R34-drumul de acces spre satul Romanovca","type":"route","route":"road","name:ru":"R34-подъезд к селу Романовка"},"8397133":{"ref":"L546.1","name":"Drumul de acces spre satul Filipeni","type":"route","route":"road","name:ru":"Подъезд к селу Филипень"},"8397136":{"ref":"L547","name":"R34-drumul de acces spre satul Filipeni","type":"route","route":"road","name:ru":"R34-подъезд к селу Филипень"},"8397138":{"ref":"L548","name":"R34-drumul de acces spre satul Hănăsenii Noi","type":"route","route":"road","name:ru":"R34-подъезд к селу Хэнэсений Ной"},"8397147":{"ref":"L549","name":"Drumul de acces spre satul Tigheci","type":"route","route":"road","name:ru":"Подъезд к селу Тигеч"},"8397152":{"ref":"L550","name":"R34-drumul de acces spre satul Nicolaevca","type":"route","route":"road","name:ru":"R34-подъезд к селу Николаевка"},"8397154":{"ref":"L551","name":"R34-drumul de acces spre satul Frumușica","type":"route","route":"road","name:ru":"R34-подъезд к селу Фрумушика"},"8397256":{"ref":"L552","name":"Băiuș-Hîrtop","type":"route","route":"road","name:ru":"Бэюш-Хыртоп"},"8397267":{"ref":"L471","name":"G109-drumul de acces spre satul Telița","type":"route","route":"road","name:ru":"G109-подъезд к селу Телица"},"8397269":{"ref":"L472","name":"G109-drumul de acces spre satul Speia","type":"route","route":"road","name:ru":"G109-подъезд к селу Спея"},"8397276":{"ref":"L473","name":"G109-drumul de acces spre satul Șerpeni","type":"route","route":"road","name:ru":"G109-подъезд к селу Шерпень"},"8397279":{"ref":"L474","name":"G109-drumul de acces spre satul Puhăceni","type":"route","route":"road","name:ru":"G109-подъезд к селу Пухэчень"},"8397284":{"ref":"L475","name":"Varnița-Gura Bîcului","type":"route","route":"road","name:ru":"Варница-Гура Быкулуй"},"8397289":{"ref":"L476","name":"R2-drumul de acces spre satul Hîrbovăț","type":"route","route":"road","name:ru":"R2-подъезд к селу Хырбовэц"},"8397296":{"ref":"L477","name":"R2-Calfa-Roșcani","type":"route","route":"road","name:ru":"R2-Калфа-Рошкань"},"8397305":{"ref":"L478","name":"Bulboaca-Chirca-Merenii Noi-Floreni","type":"route","route":"road","name:ru":"Булбоака-Кирка-Мерений Ной-Флорень"},"8397311":{"ref":"L478.1","name":"Drumul de acces prin satul Albinița","type":"route","route":"road","name:ru":"Подъезд к селу Албиница"},"8397314":{"ref":"L478.2","name":"Botnăreștii Noi-Botnărești-Salcia","type":"route","route":"road","name:ru":"Ботнэрештий Ной-Ботнэрешть-Салчия"},"8397317":{"ref":"L479","name":"Beriozchi-Hîrbovățul Nou","type":"route","route":"road","name:ru":"Березки-Хырбовэцул Ноу"},"8397320":{"ref":"L480","name":"Drumul de acces spre satul Humulești","type":"route","route":"road","name:ru":"Подъезд к селу Хумулешть"},"8397504":{"ref":"L481","name":"R2-drumul de acces spre satul Ruseni","type":"route","route":"road","name:ru":"R2-подъезд к селу Русень"},"8397505":{"ref":"L482","name":"R2-drumul de acces spre orașul Anenii Noi","type":"route","route":"road","name:ru":"R2-подъезд к городу Анений Ной"},"8397512":{"ref":"L483","name":"Drumul de acces spre satul Crețoaia","type":"route","route":"road","name:ru":"Подъезд к селу Крецоая"},"8397513":{"ref":"L484","name":"Drumul de acces spre satul Picus","type":"route","route":"road","name:ru":"Подъезд к селу Пикус"},"8397521":{"ref":"L485","name":"Ciobanovca-Geamăna","type":"route","route":"road","name:ru":"Чобановка-Джямэна"},"8397522":{"ref":"L485.1","name":"Drumul de acces spre satul Batîc","type":"route","route":"road","name:ru":"Подъезд к селу Батык"},"8397531":{"ref":"L486","name":"R30-drumul de acces spre satul Mirnoe","type":"route","route":"road","name:ru":"R30-подъезд к селу Мирное"},"8397533":{"ref":"L487","name":"R30-drumul de acces spre satul Balmaz","type":"route","route":"road","name:ru":"R30-подъезд к селу Балмаз"},"8397538":{"ref":"L489","name":"Zolotievca-Larga","type":"route","route":"road","name:ru":"Золотиевка-Ларга"},"8397555":{"ref":"L490","name":"Drumul de acces spre monumentul „Capul de pod Șerpeni”","type":"route","route":"road","name:ru":"Подъезд к мемориальному комплексу \\\"Шерпенский Плацдарм\\\""},"8397558":{"ref":"L491","name":"R2-drumul de acces spre satul Varnița","type":"route","route":"road","name:ru":"R2-подъезд к селу Варница"},"8400641":{"ref":"L596","name":"R3-Sadaclia","type":"route","route":"road","name:ru":"R3-Садаклия"},"8400661":{"ref":"L597","name":"Drumul de acces spre satul Carabiber","type":"route","route":"road","name:ru":"Подъезд к селу Карабибер"},"8400671":{"ref":"L598","name":"R23-drumul de acces spre satul Bașcalia","type":"route","route":"road","name:ru":"R23-подъезд к селу Башкалия"},"8400690":{"ref":"L235","name":"M5-drumul de acces spre municipiul Bălți","type":"route","route":"road","name:ru":"M5-подъезд к муниципию Бэлць"},"8400705":{"ref":"L236","name":"R6-drumul de acces spre municipiul Bălți","type":"route","route":"road","name:ru":"R6-подъезд к муниципию Бэлць"},"8400780":{"ref":"L237","name":"R16-drumul de acces spre municipiul Bălți","type":"route","route":"road","name:ru":"R16-подъезд к муниципию Бэлць"},"8400784":{"ref":"L238","name":"R13-drumul de acces spre satul Elizaveta","type":"route","route":"road","name:ru":"R13-подъезд к селу Елизавета"},"8400787":{"ref":"L652","name":"Drumul de acces spre satul Doina","type":"route","route":"road"},"8400788":{"ref":"L653","name":"Drumul de acces spre satul Iasnaia Poleana","type":"route","route":"road"},"8400792":{"ref":"L654","name":"Drumul de acces spre satul Spicoasa","type":"route","route":"road"},"8400793":{"ref":"L655","name":"Drumul de acces spre satul Frumușica","type":"route","route":"road"},"8400794":{"ref":"L656","name":"Drumul de acces spre satul Borceag","type":"route","route":"road","name:ru":"Подъезд к селу Борчаг"},"8404061":{"ref":"L657","name":"Drumul de acces spre satul Trifeștii Noi","type":"route","route":"road"},"8404062":{"ref":"L658","name":"Drumul de acces spre satul Lucești","type":"route","route":"road","name:ru":"Подъезд к селу Лучешть"},"8404066":{"ref":"L661","name":"R32-drumul de acces spre satul Moscovei","type":"route","route":"road"},"8404084":{"ref":"L663","name":"R32-Andrușul de Sus-Rumeanțev-G134","type":"route","route":"road","name:ru":"Р32-Андрушул де Сус-Румянцев-Г134"},"8404150":{"ref":"L664.1","name":"Drumul de acces spre satul Cotihana","type":"route","route":"road","name:ru":"Подъезд к селу Котихана"},"8404164":{"ref":"L665","name":"R34-Larga Nouă-Rumeanțev","type":"route","route":"road"},"8404168":{"ref":"L665.1","name":"Drumul de acces spre satul Larga Veche","type":"route","route":"road"},"8404173":{"ref":"L666","name":"Zîrnești-Baurci-Moldoveni","type":"route","route":"road"},"8404178":{"ref":"L667","name":"Zîrnești-Paicu","type":"route","route":"road"},"8404179":{"ref":"L668","name":"R34-Andrușul de Jos-Andrușul de Sus","type":"route","route":"road","name:ru":"R34-Андрушул де Жос-Андрушул де Сус"},"8404185":{"ref":"L669","name":"R32-drumul de acces spre aeroportul Cahul","type":"route","route":"road","name:ru":"R32-Подъезд к аэропорту Кагул"},"8404186":{"ref":"L670","name":"R32-drumul de acces spre satul Lebedenco","type":"route","route":"road"},"8404190":{"ref":"L671","name":"R32-drumul de acces spre satul Ursoaia","type":"route","route":"road"},"8404191":{"ref":"L672","name":"R32-drumul de acces spre satul Pelinei","type":"route","route":"road"},"8404194":{"ref":"L673","name":"R32-drumul de acces spre satul Alexanderfeld","type":"route","route":"road","name:ru":"R32-Подъезд к селу Александерфелд"},"8404201":{"ref":"L674","name":"R32-drumul de acces spre satul Vladimirovca","type":"route","route":"road","name:ru":"Подъезд к селу Владимировка"},"8404202":{"ref":"L675","name":"M3-Burlăceni-Musaitu","type":"route","route":"road"},"8404205":{"ref":"L676","name":"M3-drumul de acces spre satul Burlăceni","type":"route","route":"road"},"8404206":{"ref":"L677","name":"Drumul de acces spre satul Iujnoe","type":"route","route":"road","name:ru":"R3-подъезд к селу Южное"},"8404224":{"ref":"L678","name":"M3-drumul de acces spre stația Greceni","type":"route","route":"road","name:ru":"M3-Подъезд к станции Гречень"},"8404229":{"ref":"L680","name":"M3-drumul de acces spre satul Slobozia Mare","type":"route","route":"road"},"8404231":{"ref":"L599","name":"Cociulia-Capaclia-Șamalia","type":"route","route":"road","name:ru":"Кочулия-Капаклия-Шамалия"},"8404240":{"ref":"L599.1","name":"Drumul de acces spre satul Capaclia","type":"route","route":"road","name:ru":"Подъезд к селу Капаклия"},"8404242":{"ref":"L599.2","name":"Drumul de acces spre satul Haragîș","type":"route","route":"road","name:ru":"Подъезд к селу Харагыш"},"8404243":{"ref":"L600","name":"Drumul de acces spre satul Floricica","type":"route","route":"road","name:ru":"Подъезд к селу Флоричика"},"8404311":{"ref":"L601","name":"Drumul de acces spre satul Țolica","type":"route","route":"road","name:ru":"Подъезд к селу Цолика"},"8404316":{"ref":"L602","name":"Drumul de acces spre satul Enichioi","type":"route","route":"road","name:ru":"Подъезд к селу Еникёй"},"8404450":{"ref":"L603","name":"R35-Lărguța-Cîrpești-G136","type":"route","route":"road","name:ru":"R35-Лэргуца-Кырпешть-G136"},"8404452":{"ref":"L604","name":"R35-drumul de acces spre satul Porumbești","type":"route","route":"road","name:ru":"R35-подъезд к селу Порумбешть"},"8404453":{"ref":"L605","name":"R34-drumul de acces spre satul Vîlcele","type":"route","route":"road","name:ru":"R34-подъезд к селу Вылчеле"},"8408719":{"ref":"L606","name":"R34-drumul de acces spre satul Toceni","type":"route","route":"road","name:ru":"R34-подъезд к селу Точень"},"8408720":{"ref":"L607","name":"R34-Antonești-Leca","type":"route","route":"road","name:ru":"R34-Антонешть-Лека"},"8408789":{"ref":"L609","name":"G132-Taraclia-Plopi","type":"route","route":"road","name:ru":"G132-Тараклия-Плопь"},"8408795":{"ref":"L609.1","name":"Drumul de acces spre satul Alexandrovca","type":"route","route":"road","name:ru":"Подъезд к селу Александровка"},"8409840":{"ref":"L610","name":"R34-drumul de acces spre satul Stoianovca","type":"route","route":"road","name:ru":"R34-подъезд к селу Стояновка"},"8409843":{"ref":"L611","name":"R34-drumul de acces spre satul Țiganca","type":"route","route":"road","name:ru":"R34-подъезд к селу Циганка"},"8409882":{"ref":"L613","name":"R34-Gotești-stația Gotești","type":"route","route":"road","name:ru":"R34-Готешть-станция Готешть"},"8409887":{"ref":"L614","name":"Cîșla-Suhat-Baimaclia","type":"route","route":"road","name:ru":"Кышла-Сухат-Баймаклия"},"8409902":{"ref":"L616","name":"Drumul de acces spre satul Iepureni","type":"route","route":"road","name:ru":"Подъезд к селу Епурень"},"8409903":{"ref":"L617","name":"Drumul de acces spre satul Lingura","type":"route","route":"road","name:ru":"Подъезд к селу Лингура"},"8409906":{"ref":"L618","name":"Drumul de acces spre satul Crăciun","type":"route","route":"road","name:ru":"Подъезд к селу Крэчун"},"8409913":{"ref":"L619","name":"R35-Sadîc-Taraclia","type":"route","route":"road","name:ru":"R35-Садык-Тараклия"},"8409935":{"ref":"R3.1","name":"Drumul de acces spre orașul Hîncești","type":"route","route":"road","name:ru":"Подъезд к городу Хынчешть","network":"md:national"},"8410941":{"ref":"R4","name":"R6-Goian-Criuleni-M1","type":"route","route":"road","name:ru":"R6-Гоян-Криулень-M1","network":"md:national"},"8410969":{"ref":"R5","name":"M5-Vadul lui Vodă-M4","type":"route","route":"road","name:ru":"M5-Вадул луй Водэ-M4","network":"md:national"},"8410984":{"ref":"R6","name":"Chișinău-Orhei-Bălți","type":"route","route":"road","name:ru":"Кишинёв-Орхей-Бельцы","network":"md:national"},"8411071":{"ref":"R14.1","name":"R14-Cosăuți-frontiera cu Ucraina","type":"route","route":"road","name:ru":"R14-Косэуць-граница с Украиной","network":"md:national"},"8413484":{"ref":"R14","name":"R6-Codrul Nou-Soroca-Unguri-frontiera cu Ucraina","type":"route","route":"road","name:ru":"R6-Кодрул Ноу-Сорока-Унгурь-граница с Украиной","network":"md:national"},"8413503":{"ref":"R7","name":"R14-Drochia-Costești-frontiera cu România","type":"route","route":"road","name:ru":"R14-Дрокия-Костешть-граница с Румынией","network":"md:national"},"8413541":{"ref":"R8","name":"Edineț-Otaci-frontiera cu Ucraina","type":"route","route":"road","name:ru":"Единец-Отачь-граница с Украиной","network":"md:national"},"8419391":{"ref":"R8.1","name":"R8-Arionești-R14","type":"route","route":"road","name:ru":"R8-Арионешть-R14","network":"md:national"},"8419408":{"ref":"R20","name":"Orhei-Rezina-Rîbnița","type":"route","route":"road","name:ru":"Орхей-Резина-Рыбница","network":"md:national"},"8419413":{"ref":"R9","name":"R14-Șoldănești-R20","type":"route","route":"road","name:ru":"R14-Шолдэнешть-R20","network":"md:national"},"8419468":{"ref":"R11","name":"Frontiera cu Ucraina-Briceni-Ocnița-Otaci-R8","type":"route","route":"road","name:ru":"Граница с Украиной-Бричень-Окница-Отачь-R8","network":"md:national"},"8422194":{"ref":"G2","name":"M5-Hlina-Coteala-Larga-G1","type":"route","route":"road","name:ru":"M5-Хлина-Котяла-Ларга-G1","network":"md:regional"},"8422229":{"ref":"G3","name":"Lipcani-Bădragii Vechi-Brînzeni-M5","type":"route","route":"road","name:ru":"Липкань-Бэдраджий Векь-Брынзень-M5","network":"md:regional"},"8422326":{"ref":"R12.1","name":"Drumul de acces spre orașul Dondușeni","type":"route","route":"road","name:ru":"Подъезд к городу Дондушень","network":"md:national"},"8422354":{"ref":"R13","name":"Bălți-Florești-R14","type":"route","route":"road","name:ru":"Бэлць-Флорешть-R14","network":"md:national"},"8422362":{"ref":"R15","name":"M5-Glodeni","type":"route","route":"road","name:ru":"M5-Глодень","network":"md:national"},"8422394":{"ref":"R18","name":"M4 – Каменка – Граница с Украиной","type":"route","route":"road","name:md":"М4 – Каменка – фронтиера ку Украина","name:mo":"M4-Camenca-frontiera cu Ucraina","name:ro":"M4 – Camenca – frontiera cu Ucraina","name:ru":"M4 – Каменка – Граница с Украиной","name:uk":"M4 – Кам'янка – Кордон з Україною","network":"md:national"},"8422418":{"ref":"R19","name":"R9-Cunicea-Camenca","type":"route","route":"road","name:ru":"R9-Кунича-Каменка","network":"md:national"},"8423174":{"ref":"R21","name":"Orhei-Bravicea-Călărași","type":"route","route":"road","name:ru":"Орхей-Бравича-Кэлэраш","network":"md:national"},"8427636":{"ref":"R22","name":"Telenești-Ratuș-R6","type":"route","route":"road","name:ru":"Теленешть-Ратуш-R6","network":"md:national"},"8427645":{"ref":"R23","name":"Basarabeasca-M3","type":"route","route":"road","name:mo":"Basarabeasca-M3","name:ro":"Basarabeasca-M3","name:ru":"Басарабяска-M3","network":"md:national","name:gag":"Basarabka-M3","old_name":"Comrat-Basarabeasca","old_name:ro":"Comrat-Basarabeasca","old_name:ru":"Комрат-Басарабяска","name:gag-cyr":"Басарабка-M3","old_name:gag-cyr":"Комрат-Басарабка"},"8427689":{"ref":"R24","name":"R2-Парканы-Бычок-Спея","type":"route","route":"road","name:ro":"R2-Parcani-Bîcioc-Speia","name:ru":"R2-Парканы-Бычок-Спея","name:uk":"R2-Паркани-Бичок-Спея","network":"md:national"},"8427761":{"ref":"R26","name":"Bender-Căușeni-Cimișlia","type":"route","route":"road","name:ru":"Бендеры-Кэушень-Чимишлия","network":"md:national"},"8429891":{"ref":"L7","name":"R11-drumul de acces spre Muzeul \\\"Constantin Stamati\\\"","type":"route","route":"road","name:ru":"R11-подъезд к музею \\\"Константин Стамати\\\""},"8431438":{"ref":"R29","name":"Comrat-Ceadîr-Lunga-frontiera cu Ucraina","type":"route","route":"road","name:ru":"Комрат-Чадыр-Лунга-граница с Украиной","network":"md:national"},"8431442":{"ref":"R29.1","name":"R29-frontiera cu Ucraina","type":"route","route":"road","name:ru":"R29-граница с Украиной","network":"md:national"},"8431579":{"to":"Frontiera cu Ucraina","ref":"R30","from":"Anenii Noi","name":"Anenii Noi - Căușeni - Ștefan Vodă - frontiera cu Ucraina","type":"route","route":"road","name:ru":"Анений Ной - Кэушень - Штефан Водэ - граница с Украиной","network":"md:national"},"8431753":{"ref":"R31","name":"R30 – Tudora – Palanca – frontiera cu Ucraina","type":"route","route":"road","name:ru":"R30 – Тудора – Паланка – граница с Украиной","network":"md:national"},"8431861":{"ref":"R32","name":"M3-Vulcănești-Cahul-Taraclia","type":"route","route":"road","name:ru":"M3-Вулкэнешть-Кахул-Тараклия","network":"md:national"},"8431908":{"ref":"R33","name":"Hîncești-Lăpușna-M1","type":"route","route":"road","name:ru":"Хынчешть-Лэпушна-M1","network":"md:national"},"8432032":{"ref":"R34","name":"Hîncești-Leova-Cahul-Giurgiulești","type":"route","route":"road","name:ru":"Хынчешть-Леова-Кахул-Джюрджюлешть","network":"md:national"},"8432042":{"ref":"R34.1","name":"Cahul-frontiera cu România","type":"route","route":"road","name:ro":"Cahul - frontiera cu România","name:ru":"Кахул-граница с Румынией","network":"md:national"},"8432055":{"to":"R34","ref":"R35","from":"Comrat","name":"Comrat-Cantemir-R34","type":"route","route":"road","name:ru":"Комрат-Кантемир-R34","network":"md:national"},"8432098":{"ref":"R34.2","name":"Drumul de acces spre Portul Giurgiulești","type":"route","route":"road","name:ru":"Подъезд к порту Джюрджюлешть","network":"md:national"},"8432136":{"ref":"R36","name":"Basarabeasca-Ceadîr-Lunga-R29","type":"route","route":"road","name:ru":"Басарабяска-Чадыр-Лунга-R29","network":"md:national"},"8432171":{"ref":"R37","name":"Ceadîr-Lunga-Taraclia-R32","type":"route","route":"road","name:ru":"Чадыр-Лунга-Тараклия-R32","network":"md:national"},"8439113":{"ref":"R30.1","name":"Drumul de acces spre orașul Căușeni","type":"route","route":"road","name:ru":"Подъезд к городу Кэушень","network":"md:national"},"8439813":{"ref":"R32.2","name":"Drumul de acces spre orașul Cahul","type":"route","route":"road","name:ru":"Подъезд к городу Кахул","network":"md:national"},"8441365":{"ref":"G3.1","name":"M5-Lipcani-frontiera cu România","type":"route","route":"road","name:ru":"M5-Липкань-граница с Румынией","network":"md:regional"},"8441419":{"ref":"G4","name":"M5-Lipcani-Balasinești-Corjeuți-Tîrnova-M5","type":"route","route":"road","name:ru":"M5-Липкань-Баласинешть-Коржеуць-Тырнова-M5","network":"md:regional"},"8441528":{"ref":"G6","name":"M5-Bălcăuți-Mărcăuți-Corestăuți-R11","type":"route","route":"road","name:ru":"M5-Бэлкэуць-Мэркэуць-Корестэуць-R11","network":"md:regional"},"8441554":{"ref":"G7","name":"R11-Corestăuți-Hincăuți-Hlinaia-M5","type":"route","route":"road","name:ru":"R11-Корестэуць-Хинкэуць-Хлиная-M5","network":"md:regional"},"8441568":{"ref":"G8","name":"R11-Bîrnova-Gîrbova-Sauca-R8","type":"route","route":"road","name:ru":"R11-Бырнова-Гырбова-Саука-R8","network":"md:regional"},"8441571":{"ref":"G9","name":"R11-Ocnița-Ruseni-R8","type":"route","route":"road","name:ru":"R11-Окница-Русень-R8","network":"md:regional"},"8441587":{"ref":"G10","name":"G9-Dîngeni-Cernoleuca-Climăuți-G8","type":"route","route":"road","name:ru":"G9-Дынджень-Чернолеука-Климэуць-G8","network":"md:regional"},"8441618":{"ref":"G11","name":"R12-Dondușeni-Sudarca-R8.1","type":"route","route":"road","name:ru":"R12-Дондушень-Сударка-R8.1","network":"md:regional"},"8441724":{"ref":"G15","name":"G3-Lopatnic-Gordinești-Edineț-M5","type":"route","route":"road","name:ru":"G3-Лопатник-Гординешть-Единец-M5","network":"md:regional"},"8441763":{"ref":"G16","name":"R12-Tîrnova-Gașpar-Cupcini-M5","type":"route","route":"road","name:ru":"R12-Тырнова-Гашпар-Купчинь-M5","network":"md:regional"},"8441795":{"ref":"G17","name":"G16-Tîrnova-Mihăileni-Rîșcani-R7","type":"route","route":"road","name:ru":"G16-Тырнова-Михэйлень-Рышкань-R7","network":"md:regional"},"8441816":{"ref":"G18","name":"R7-Rîșcani-Vasileuți-Moșeni","type":"route","route":"road","name:ru":"R7-Рышкань-Василеуць-Мошень","network":"md:regional"},"8441870":{"ref":"G26","name":"R7-Rîșcani-Lupăria-Glodeni-R15","type":"route","route":"road","name:ru":"R7-Рышкань-Лупэрия-Глодень-R15","network":"md:regional"},"8441877":{"ref":"G19","name":"G26-Sturzeni-Ivănești","type":"route","route":"road","name:ru":"G26-Стурзень-Ивэнешть","network":"md:regional"},"8441895":{"ref":"G20","name":"G17-Fîntînița-Țarigrad-Drochia-R7","type":"route","route":"road","name:ru":"G17-Фынтыница-Цариград-Дрокия-R7","network":"md:regional"},"8441901":{"ref":"G21","name":"G3-Zăbriceni-Cuconeștii Noi-Duruitoarea Nouă","type":"route","route":"road","name:ru":"G3-Зэбричень-Куконештий Ной-Дуруитоаря Ноуэ","network":"md:regional"},"8441927":{"ref":"G22","name":"M5-Brătușeni-Zăicani-Văratic-Duruitoarea Nouă-G21","type":"route","route":"road","name:ru":"M5-Брэтушень-Зэикань-Вэратик-Дуруитоаря Ноуэ-G21","network":"md:regional"},"8441935":{"ref":"G23","name":"G22-Zăicani-Pîrjota-R7","type":"route","route":"road","name:ru":"G22-Зэикань-Пыржота-R7","network":"md:regional"},"8441948":{"ref":"G58","name":"R7-Păscăuți-Călinești-Fălești-R16","type":"route","route":"road","name:ru":"R7-Пэскэуць-Кэлинешть-Фэлешть-R16","network":"md:regional"},"8441965":{"ref":"G60","name":"G58-Călinești-Pruteni-Lucăсeni-R16","type":"route","route":"road","name:ru":"G58-Кэлинешть-Прутень-Лукэчень-R16","network":"md:regional"},"8442002":{"ref":"G24","name":"R7-Petrușeni-Camenca-G25","type":"route","route":"road","name:ru":"R7-Петрушень-Каменка-G25","network":"md:regional"},"8443768":{"ref":"G27","name":"R7-Chetrosu-Moara de Piatră-Cubolta-R13","type":"route","route":"road","name:ru":"R7-Кетросу-Моара де Пятрэ-Куболта-R13","network":"md:regional"},"8443832":{"ref":"G28","name":"G27-Moara de Piatră-Hăsnășenii Noi-Dobrogea Nouă-R6","type":"route","route":"road","name:ru":"G27-Моара де Пятрэ-Хэснэшений Ной-Доброджя Ноуэ-R6","network":"md:regional"},"8443843":{"ref":"G50","name":"Florești-Nicolaevca-Sîngerei","type":"route","route":"road","name:ru":"Флорешть-Николаевка-Сынджерей","network":"md:regional"},"8443860":{"ref":"G30","name":"R6-Mîndreștii Noi-Sîngereii Noi-G50","type":"route","route":"road","name:ru":"R6-Мындрештий Ной-Сынджереий Ной-G50","network":"md:regional"},"8443870":{"ref":"G29","name":"R13-Alexăndreni-Sîngereii Noi-G30","type":"route","route":"road","name:ru":"R13-Алексэндрень-Сынджереий Ной-G30","network":"md:regional"},"8443888":{"ref":"G31","name":"R6-Bilicenii Vechi-M5","type":"route","route":"road","name:ru":"R6-Биличений Векь-M5","network":"md:regional"},"8443904":{"ref":"G64","name":"R6-Bănești-Telenești-Budăi-M5","type":"route","route":"road","name:ru":"R6-Бэнешть-Теленешть-Будэй-M5","network":"md:regional"},"8443911":{"ref":"G65","name":"G64-Telenești-Mîndrești-Ghiliceni-M5","type":"route","route":"road","name:ru":"G64-Теленешть-Мындрешть-Гиличень-M5","network":"md:regional"},"8443929":{"ref":"G32","name":"R6-Brejeni-Cîșla-G65","type":"route","route":"road","name:ru":"R6-Брежень-Кышла-G65","network":"md:regional"},"8443946":{"ref":"G33","name":"R12-Mîndîc-Zgurița-Mărculești-R13","type":"route","route":"road","name:ru":"R12-Мындык-Згурица-Мэркулешть-R13","network":"md:regional"},"8443973":{"ref":"G34","name":"G27–Cubolta-Frumușica-G33","type":"route","route":"road","name:ru":"G27-Куболта-Фрумушика-G33","network":"md:regional"},"8443982":{"ref":"G35","name":"R14-Țepilova-Vanțina-Căinarii Vechi-G33","type":"route","route":"road","name:ru":"R14-Цепилова-Ванцина-Кэинарий Векь-G33","network":"md:regional"},"8444003":{"ref":"G36","name":"G35-Pîrlița-Vădeni-Florești-R13","type":"route","route":"road","name:ru":"G35-Пырлица-Вэдень-Флорешть-R13","network":"md:regional"},"8444015":{"ref":"G39","name":"R14-Unchitești-Țipordei-R19","type":"route","route":"road","name:ru":"R14-Ункитешть-Ципордей-R19","network":"md:regional"},"8444049":{"ref":"G38","name":"R14-Soloneț-Unchitești-G39","type":"route","route":"road","name:ru":"R14-Солонец-Ункитешть-G39","network":"md:regional"},"8444133":{"ref":"G37","name":"R14-Slobozia-Cremene-Vărăncău-Temeleuți-G38","type":"route","route":"road","name:ru":"R14-Слобозия-Кремене-Вэрэнкэу-Темелеуць-G38","network":"md:regional"},"8444160":{"ref":"G42","name":"Rezina-Saharna-Saharna Nouă","type":"route","route":"road","name:ru":"Резина-Сахарна-Сахарна Ноуэ","network":"md:regional"},"8444178":{"ref":"G43","name":"R20-Horodiște-Lalova-Izvoare-Chiperceni-R20","type":"route","route":"road","name:ru":"R20-Хородиште-Лалова-Извоаре-Киперчень-R20","network":"md:regional"},"8444224":{"ref":"G68","name":"R20-Orhei-Susleni-Ustia-Criuleni","type":"route","route":"road","name:ru":"R20-Орхей-Суслень-Устия-Криулень","network":"md:regional"},"8444269":{"ref":"G44","name":"G68-Susleni-Lopatna-Izvoare-G43","type":"route","route":"road","name:ru":"G68-Суслень-Лопатна-Извоаре-G43"},"8444326":{"ref":"G45","name":"R6-Zorile-Crihana-Sirota-R20","type":"route","route":"road","name:ru":"R6-Зориле-Крихана-Сирота-R20","network":"md:regional"},"8444336":{"ref":"G46","name":"R9-Dobrușa-Ignăței-Scorțeni-Codrul Nou-R14","type":"route","route":"road","name:ru":"R9-Добруша-Игнэцей-Скорцень-Кодрул Ноу-R14","network":"md:regional"},"8444346":{"ref":"G47","name":"R9-Olișcani-Peciște-Ignăței-G46","type":"route","route":"road","name:ru":"R9-Олишкань-Печиште-Игнэцей-G46","network":"md:regional"},"8444350":{"ref":"G48","name":"R9-Sîrcova-Sămășcani-G47","type":"route","route":"road","name:ru":"R9-Сыркова-Сэмэшкань-G47","network":"md:regional"},"8444354":{"ref":"G49","name":"G47-Peciște-Trifești-R20","type":"route","route":"road","name:ru":"G47-Печиште-Трифешть-R20","network":"md:regional"},"8444360":{"ref":"G51","name":"R13-Lunga-Valea Norocului-G50","type":"route","route":"road","name:ru":"R13-Лунга-Валя Норокулуй-G50","network":"md:regional"},"8444382":{"ref":"G52","name":"G50-Cașunca-Prodănești-R14","type":"route","route":"road","name:ru":"G50-Кашунка-Продэнешть-R14","network":"md:regional"},"8444398":{"ref":"G57","name":"Glodeni-Dușmani-Moara Domnească","type":"route","route":"road","name:ru":"Глодень-Душмань-Моара Домняскэ","network":"md:regional"},"8444428":{"to":"R16","ref":"G53","from":"R15","name":"R15–Glodeni–Egorovca–R16","type":"route","route":"road","name:ru":"R15–Глодень–Егоровка–R16","network":"md:regional"},"8444449":{"ref":"G54","name":"R16-Răuțel-Pompa-Glinjeni-Catranîc-R16","type":"route","route":"road","name:ru":"R16-Рэуцел-Помпа-Глинжень-Катранык-R16","network":"md:regional"},"8444456":{"ref":"G56","name":"R6-Prepelița-Bălășești","type":"route","route":"road","name:ru":"R6-Препелица-Бэлэшешть","network":"md:regional"},"8444471":{"ref":"G59","name":"G57-Dușmani-Cajba-Balatina-G58","type":"route","route":"road","name:ru":"G57-Душмань-Кажба-Балатина-G58","network":"md:regional"},"8445702":{"ref":"G61","name":"G58-Albinețul Vechi-Cuzmenii Vechi-G60","type":"route","route":"road","name:ru":"G58-Албинецул Векь-Кузмений Векь-G60","network":"md:regional"},"8445711":{"ref":"G62","name":"R16-Izvoare-Stolniceni-Sculeni-R16","type":"route","route":"road","name:ru":"R16-Извоаре-Столничень-Скулень-R16","network":"md:regional"},"8445737":{"ref":"G63","name":"R17-Fălești-Bocani-Coșcodeni-M5","type":"route","route":"road","name:ru":"R17-Фэлешть-Бокань-Кошкодень-M5","network":"md:regional"},"8445741":{"ref":"G66","name":"R6-Clișova-Sărătenii Noi-R22","type":"route","route":"road","name:ru":"R6-Клишова-Сэрэтений Ной-R22","network":"md:regional"},"8445743":{"ref":"G67","name":"G66-Văsieni-Bahu-R21","type":"route","route":"road","name:ru":"G66-Вэсиень-Баху-R21","network":"md:regional"},"8445747":{"ref":"G72","name":"R6-Brănești-Criuleni","type":"route","route":"road","name:ru":"R6-Брэнешть-Криулень","network":"md:regional"},"8445762":{"ref":"G69","name":"G68-Ustia-Mаșcăuți-G72","type":"route","route":"road","name:ru":"G68-Устия-Машкэуць-G72","network":"md:regional"},"8445774":{"ref":"G70","name":"Strășeni-Scoreni-Dănceni-R3","type":"route","route":"road","name:ru":"Стрэшень-Скорень-Дэнчень-R3","network":"md:regional"},"8445801":{"to":"R2","ref":"G71","from":"R3","name":"R3-Ialoveni-Băcioi-Sîngera-R2","type":"route","route":"road","name:ru":"R3-Яловень-Бэчой-Сынджера-R2","network":"md:regional"},"8445807":{"ref":"G73","name":"G72-Brănești-Complexul istorico-cultural „Orheiul Vechi”","type":"route","route":"road","name:ru":"G72-Брэнешть-Культурно-природный заповедник \\\"Orheiul Vechi\\\"","network":"md:regional"},"8445823":{"ref":"G74","name":"R6– Peresecina-Donici","type":"route","route":"road","name:ru":"R6-Пересечина-Донич","network":"md:regional"},"8445839":{"ref":"G81","name":"R6-Romănești-Greblești-Recea","type":"route","route":"road","name:ru":"R6-Ромэнешть-Греблешть-Реча","network":"md:regional"},"8445888":{"ref":"G82","name":"Strășeni-Recea-Voinova","type":"route","route":"road","name:ru":"Стрэшень-Реча-Войнова","network":"md:regional"},"8445902":{"ref":"G82.1","name":"Strășeni-M5","type":"route","route":"road","name:ru":"Стрэшень-M5","network":"md:regional"},"8445943":{"ref":"G83","name":"R21-Hîrjauca-Sanatoriul „Codru”-Leordoaia","type":"route","route":"road","name:ru":"R21-Хыржаука-санаторий \\\"Кодру\\\"-Леордоая","network":"md:regional"},"8445949":{"ref":"G84","name":"R21-Nișcani-R1","type":"route","route":"road","name:ru":"R21-Нишкань-R1","network":"md:regional"},"8445959":{"ref":"G85","name":"G83-Hîrbovăț-Onișcani-M5","type":"route","route":"road","name:ru":"G83-Хырбовэц-Онишкань-M5","network":"md:regional"},"8445993":{"ref":"G86","name":"G88-Dereneu-G83","type":"route","route":"road","name:ru":"G88-Деренеу-G83","network":"md:regional"},"8446000":{"ref":"G87","name":"R17-Țîghira-Hristoforovca-R1","type":"route","route":"road","name:ru":"R17-Цыгира-Христофоровка-R1","network":"md:regional"},"8446075":{"ref":"G91","name":"Ungheni-Bărboieni-Nemțeni-M1","type":"route","route":"road","name:ru":"Унгень-Бэрбоень-Немцень-M1","network":"md:regional"},"8446100":{"ref":"G89","name":"R1-Pîrlița-Nisporeni-G91","type":"route","route":"road","name:ru":"R1-Пырлица-Ниспорень-G91","network":"md:regional"},"8446112":{"ref":"G90","name":"G89-Alexeevca-Florițoaia Veche-Ungheni-G91","type":"route","route":"road","name:ru":"G89-Алексеевка-Флорицоая Веке-Унгень-G91","network":"md:regional"},"8446131":{"ref":"G92","name":"G91-Marinici-Șișcani-M1","type":"route","route":"road","name:ru":"G91-Маринич-Шишкань-M1","network":"md:regional"},"8446148":{"ref":"G93","name":"M1-Bolțun-Pașcani-Lăpușna-R33","type":"route","route":"road","name:ru":"M1-Болцун-Пашкань-Лэпушна-R33","network":"md:regional"},"8446204":{"ref":"G94","name":"G91-Valea Mare-Boldurești-Valea-Trestieni-G89","type":"route","route":"road","name:ru":"G91-Валя Маре-Болдурешть-Валя-Трестиень-G89","network":"md:regional"},"8446215":{"ref":"G95","name":"R1-Călărași-Pîrjolteni-Căbăiești","type":"route","route":"road","name:ru":"R1-Кэлэрашь-Пыржолтень-Кэбэешть","network":"md:regional"},"8446227":{"ref":"G96","name":"G95-Sadova-Vorniceni-R25","type":"route","route":"road","name:ru":"G95-Садова-Ворничень-R25","network":"md:regional"},"8446229":{"ref":"G97","name":"R1-Pănășești-Căpriana-M1","type":"route","route":"road","name:ru":"R1-Пэнэшешть-Кэприяна-M1","network":"md:regional"},"8446243":{"ref":"G98","name":"R25-Lozova-Stolniceni-Hîncești","type":"route","route":"road","name:ru":"R25-Лозова-Столничень-Хынчешть","network":"md:regional"},"8446252":{"ref":"G99","name":"M1-Leușeni-Leova-R34","type":"route","route":"road","name:ru":"M1-Леушень-Леова-R34","network":"md:regional"},"8446286":{"ref":"G100","name":"R33-Sofia-Cărpineni-Mingir-R34","type":"route","route":"road","name:ru":"R33-София-Кэрпинень-Минджир-R34","network":"md:regional"},"8446302":{"ref":"G101","name":"G100-Covurlui-Vozneseni","type":"route","route":"road","name:ru":"G100-Ковурлуй-Вознесень","network":"md:regional"},"8446361":{"to":"M3","ref":"G104","from":"Ialoveni","name":"Ialoveni-Costești-Molești-Răzeni-M3","type":"route","route":"road","name:ru":"Яловень-Костешть-Молешть-Рэзень-M3","network":"md:regional"},"8446481":{"ref":"G109","name":"Delacău-Bulboaca-R2","type":"route","route":"road","name:ru":"Делакэу-Булбоака-R2","network":"md:regional"},"8450934":{"ref":"G111","name":"G110-Fîrlădenii Noi-Ursoaia-R26","type":"route","route":"road","name:ru":"G110-Фырлэдений Ной-Урсоая-R26","network":"md:regional"},"8450963":{"ref":"G110","name":"Gîsca-Zolotievcа-Pervomaisc-Gangura-Răzeni-M3","type":"route","route":"road","name:ru":"Гыска-Золотиевка-Первомайск-Гангура-Рэзень-M3","network":"md:regional"},"8450979":{"ref":"G112","name":"R2-Țînțăreni-Geamăna-Nicolaevca-G110","type":"route","route":"road","name:ru":"R2-Цынцэрень-Джямэна-Николаевка-G110","network":"md:regional"},"8450994":{"ref":"G118","name":"G110-Căinari-Sălcuța-R26","type":"route","route":"road","name:ru":"G110-Кэинарь-Сэлкуца-R26","network":"md:regional"},"8451000":{"ref":"G120","name":"R26-Ucrainca-frontiera cu Ucraina","type":"route","route":"road","name:ru":"R26-Украинка-граница с Украиной","network":"md:regional"},"8451008":{"ref":"G122","name":"M3-Sagaidacul Nou-Satul Nou-Mihailovca-R26","type":"route","route":"road","name:ru":"M3-Сагайдакул Ноу-Сатул Ноу-Михайловка-R26","network":"md:regional"},"8451038":{"ref":"G123","name":"R3-Gura Galbenei-Lipoveni-Porumbrei","type":"route","route":"road","name:ru":"R3-Гура Галбеней-Липовень-Порумбрей","network":"md:regional"},"8451061":{"ref":"G124","name":"R26-Ivanovca-Carabetovca-R3","type":"route","route":"road","name:ru":"R26-Ивановка-Карабетовка-R3","network":"md:regional"},"8451072":{"ref":"G125","name":"Cimișlia-Iargara-Sărata Nouă","type":"route","route":"road","name:ru":"Чимишлия-Яргара-Сэрата Ноуэ","network":"md:regional"},"8451085":{"ref":"G126","name":"G125-Cenac-Bugeac-R28","type":"route","route":"road","name:ru":"G125-Ченак-Буджяк-R28","network":"md:regional"},"8451097":{"ref":"G127","name":"R3-Valea Perjei-Maximeni-Javgur-G125","type":"route","route":"road","name:ru":"R3-Валя Пержей-Максимень-Жавгур-G125","network":"md:regional"},"8451107":{"ref":"G128","name":"G125-Iargara-Borogani-Congazcicul de Jos-R35","type":"route","route":"road","name:ru":"G125-Яргара-Борогань-Конгазчикул де Жос-R35","network":"md:regional"},"8451190":{"ref":"G129","name":"R29-Ferapontievca-Chiriet-Lunga-frontiera cu Ucraina","type":"route","route":"road","name:ru":"R29-Ферапонтьевка-Кириет-Лунга-граница с Украиной","network":"md:regional"},"8451201":{"ref":"G130","name":"G125–Iargara-Tigheci-R35","type":"route","route":"road","name:ru":"G125-Яргара-Тигеч-R35","network":"md:regional"},"8451222":{"ref":"G132","name":"R35-Baimaclia-Taraclia de Salcie-R32","type":"route","route":"road","name:ru":"R35-Баймаклия-Тараклия де Салчие-R32","network":"md:regional"},"8451229":{"ref":"G132","name":"R35-Bobocica-G132","type":"route","route":"road","name:ru":"R35-Бобочика-G132","network":"md:regional"},"8451236":{"ref":"G133","name":"G132-Tartaul-Gotești-R34","type":"route","route":"road","name:ru":"G132-Тартаул-Готешть-R34","network":"md:regional"},"8451256":{"ref":"G134","name":"R34-Doina-Coștangalia-G132","type":"route","route":"road","name:ru":"R34-Дойна-Коштангалия-G132","network":"md:regional"},"8451304":{"ref":"G135","name":"Ceadîr-Lunga-Congaz-Dimitrova-G131","type":"route","route":"road","name:ru":"Чадыр-Лунга-Конгаз-Димитрова-G131","network":"md:regional"},"8451312":{"ref":"G136","name":"G135-Cîietu-Chioselia Rusă-M3","type":"route","route":"road","name:ru":"G135-Кыету-Кеселия Русэ-M3","network":"md:regional"},"8451313":{"ref":"G137","name":"Roșița-Albota de Sus-Hagichioi","type":"route","route":"road","name:ru":"Рошица-Албота де Сус-Хаджикёй","network":"md:regional"},"8451318":{"ref":"G138","name":"Huluboaia-Bucuria-R32","type":"route","route":"road","name:ru":"Хулубоая-Букурия-R32","network":"md:regional"},"8451333":{"ref":"G139","name":"R32-Moscovei-Musaitu-M3","type":"route","route":"road","name:ru":"R32-Московей-Мусаиту-M3","network":"md:regional"},"8451337":{"ref":"G140","name":"R32-Taraclia-Copceac-Cairaclia-frontiera cu Ucraina","type":"route","route":"road","name:ru":"R32-Тараклия-Копчак-Кайраклия-граница с Украиной","network":"md:regional"},"8451340":{"ref":"G141","name":"Vulcănești-Colibași-R34","type":"route","route":"road","name:ru":"Вулкэнешть-Колибашь-R34","network":"md:regional"},"8451348":{"ref":"G142","name":"M3-Vulcănești-Etulia-frontiera cu Ucraina","type":"route","route":"road","name:ru":"M3-Вулканешты-Етулия-граница с Украиной","network":"md:regional"},"8451352":{"ref":"L568","name":"G110-drumul de acces spre satul Fîrlădeni","type":"route","route":"road","name:ru":"G110-подъезд к селу Фырлэдень"},"8451354":{"ref":"L568.1","name":"Gîsca-Fîrlădeni","type":"route","route":"road","name:ro":"Gîsca-Fîrlădeni","name:ru":"Гыска-Фырлэдень"},"8451358":{"ref":"L569","name":"Bender-Chircăiești-R26","type":"route","route":"road","name:ru":"Бендеры-Киркаешты-R26"},"8451360":{"ref":"L570","name":"Drumul de acces spre satul Ștefănești","type":"route","route":"road","name:ru":"Подъезд к селу Штефэнешть"},"8451365":{"ref":"L571","name":"R26-drumul de acces spre satul Ursoaia","type":"route","route":"road","name:ru":"R26-подъезд к селу Урсоая"},"8451369":{"ref":"L572","name":"R30-drumul de acces spre satul Tricolici","type":"route","route":"road","name:ru":"R30-подъезд к селу Триколич"},"8451380":{"ref":"L575","name":"R30-drumul de acces spre satul Cîrnățeni","type":"route","route":"road","name:ru":"R30-подъезд к селу Кырнэцень"},"8451381":{"ref":"L576","name":"R26-drumul de acces spre satul Marianca de Sus","type":"route","route":"road","name:ru":"R26-подъезд к селу Мариянка де Сус"},"8451386":{"ref":"L577","name":"R26-drumul de acces spre satul Opaci","type":"route","route":"road","name:ru":"R26-подъезд к селу Опачь"},"8451390":{"ref":"L578","name":"Căinari-Chircăieștii Noi","type":"route","route":"road","name:ru":"Кэинарь-Киркэештий Ной"},"8451418":{"ref":"G5","name":"Frontiera cu Ucraina-Grimăncăuți-Briceni-Corjeuți-Tețcani-G3","type":"route","route":"road","name:ru":"Граница с Украиной-Гримэнкэуць-Бричень-Коржеуць-Тецкань-G3","network":"md:regional"},"8451430":{"ref":"G13","name":"G12–Bădiceni-Baxani-Schineni-Vanțina-G35","type":"route","route":"road","name:ru":"G12-Бэдичень-Бэксань-Скинень-Ванцина-G35","network":"md:regional"},"8451528":{"to":"R20","ref":"G41","from":"R9","name":"R9-Șoldănești-Alcedar-Boșernița-Rezina-R20","type":"route","route":"road","name:ru":"R9-Шолдэнешть-Алчедар-Бошерница-Резина-R20","network":"md:regional"},"8451566":{"ref":"G40","name":"R19-Japca-Șestaci-Șoldănești-G41","type":"route","route":"road","name:ru":"R19-Жапка-Шестачь-Шолдэнешть-G41","network":"md:regional"},"8451607":{"ref":"G103","name":"M1-Văsieni-R3","type":"route","route":"road","name:ru":"M1-Вэсиень-R3","network":"md:regional"},"8451623":{"ref":"G106","name":"M5-Bălțata-Maximovca-Mereni-Chetrosu-Gangura-G110","type":"route","route":"road","name:ru":"M5-Бэлцата-Максимовка-Мерень-Кетросу-Гангура-G110","network":"md:regional"},"8451629":{"ref":"G105","name":"R3-Costești-Țipala-G106","type":"route","route":"road","name:ru":"R3-Костешть-Ципала-G106","network":"md:regional"},"8453163":{"ref":"G106.1","name":"G106-G112","type":"route","route":"road","name:ru":"G106-G112","network":"md:regional"},"8453167":{"ref":"G107","name":"Delacău-Cimișeni-Mereni-G106","type":"route","route":"road","name:ru":"Делакэу-Чимишень-Мерень-G106"},"8453193":{"ref":"G113","name":"Bender-Copanca-Plop-Știubei-Căușeni","type":"route","route":"road","name:ru":"Бендеры-Копанка-Плоп-Штюбей-Кэушень","network":"md:regional"},"8453277":{"ref":"G114","name":"G113-Talmaza-Olănești-R31","type":"route","route":"road","name:ru":"G113-Талмаза-Олэнешть-R31","network":"md:regional"},"8453279":{"ref":"G117","name":"Căușeni-frontiera cu Ucraina","type":"route","route":"road","name:ru":"Кэушень-граница с Украиной","network":"md:regional"},"8453296":{"ref":"G116","name":"R30-Ștefan Vodă-Alava-Săiți-G117","type":"route","route":"road","name:ru":"R30-Штефан Водэ-Алава-Сэиць-G117","network":"md:regional"},"8453341":{"ref":"G115","name":"R30-Răscăieți-Hlinaia-R27","type":"route","route":"road","name:ru":"R30-Рэскэець-Хлиная-R27","network":"md:regional"},"8453367":{"ref":"G119","name":"G118-Coșcalia-Plop-Baccealia-R30","type":"route","route":"road","name:ru":"G118-Кошкалия-Плоп-Бакчалия-R30","network":"md:regional"},"8453403":{"ref":"G121","name":"G122-Zloți-Chircăieștii Noi-Taraclia-R26","type":"route","route":"road","name:ru":"G122-Злоць-Киркэештий Ной-Тараклия-R26","network":"md:regional"},"8453426":{"ref":"G12","name":"G11-Plopi-Horodiște-Teleșeuca-Grigorăuca-R14","type":"route","route":"road","name:ru":"G11-Плопь-Хородиште-Телешеука-Григорэука-R14","network":"md:regional"},"8456840":{"ref":"G14","name":"R14-Drumul de acces spre orașul Soroca","type":"route","route":"road","name:ru":"R14-подъезд к г. Сорока","network":"md:regional"},"8457608":{"ref":"L553","name":"R26-Batîr-Ciuflești","type":"route","route":"road","name:ru":"R26-Батыр-Чуфлешть"},"8457612":{"ref":"L554","name":"Albina-Fetița-R3","type":"route","route":"road","name:ru":"Албина-Фетица-R3"},"8457614":{"ref":"L554.1","name":"Drumul de acces spre satul Mereni","type":"route","route":"road","name:ru":"Подъезд к селу Мерень"},"8457616":{"ref":"L555","name":"Drumul de acces spre satul Ivanovca Nouă","type":"route","route":"road","name:ru":"Подъезд к селу Ивановка Ноуэ"},"8457619":{"ref":"L556","name":"Drumul de acces spre satul Schinoșica","type":"route","route":"road","name:ru":"Подъезд к селу Скиношика"},"8457625":{"ref":"L557","name":"Lipoveni-Munteni","type":"route","route":"road","name:ru":"Липовень-Мунтень"},"8457627":{"ref":"L558","name":"R3-Hîrtop-Ialpug","type":"route","route":"road","name:ru":"R3-Хыртоп-Ялпуг"},"8457629":{"ref":"L558.1","name":"Drumul de acces spre satul Prisaca","type":"route","route":"road","name:ru":"Подъезд к селу Присака"},"8462535":{"ref":"L559.1","name":"Gradiște-Coștangalia","type":"route","route":"road","name:ru":"Градиште-Коштангалия"},"8462537":{"ref":"L560","name":"Drumul de acces spre satul Suric","type":"route","route":"road","name:ru":"Подъезд к селу Сурик"},"8462538":{"ref":"L561","name":"Drumul de acces spre satul Satul Nou","type":"route","route":"road","name:ru":"Подъезд к селу Сатул Ноу"},"8462540":{"ref":"L562","name":"Drumul de acces spre satul Artimonovca","type":"route","route":"road","name:ru":"Подъезд к селу Артимоновка"},"8462553":{"ref":"L565","name":"Ciucur-Mingir-Cenac","type":"route","route":"road","name:ru":"Чукур-Минджир -Ченак"},"8462555":{"ref":"L565.1","name":"Drumul de acces spre satul Ciucur-Mingir","type":"route","route":"road","name:ru":"Подъезд к селу Чукур-Минджир"},"8462556":{"ref":"L566","name":"G125-drumul de acces spre satul Cenac","type":"route","route":"road","name:ru":"G125-подъезд к селу Ченак"},"8465807":{"ref":"L423","name":"M4-Dubăsari-Cocieri-Roghi-М4","type":"route","route":"road","name:ru":"M4-Дубоссары-Кочиеры-Роги-М4","name:uk":"M4-Дубоссари-Кочієри-Роги-М4"},"8465810":{"ref":"L423.1","name":"Drumul de acces spre satul Molovata Nouă","type":"route","route":"road","name:ru":"Подъезд к селу Моловата Ноуэ"},"8465835":{"ref":"L424","name":"М4-drumul de acces spre satul Pohrebea","type":"route","route":"road","name:ru":"М4-подъезд к селу Похребя"},"8465842":{"ref":"L425","name":"R5-Pîrîta-Coșnița","type":"route","route":"road","name:ru":"R5-Пырыта-Кошница"},"8465850":{"ref":"L426","name":"Drumul de acces spre satul Holercani","type":"route","route":"road","name:ru":"Подъезд к селу Холеркань"},"8465865":{"ref":"L427","name":"Drumul de acces spre satul Mаrcăuți","type":"route","route":"road","name:ru":"Подъезд к селу Маркэуць"},"8465940":{"ref":"L428","name":"Drumul de acces spre satul Molovata","type":"route","route":"road","name:ru":"Подъезд к селу Моловата"},"8465942":{"ref":"L428.1","name":"Drumul de acces spre satul Oxentea","type":"route","route":"road","name:ru":"Подъезд к селу Оксентя"},"8465946":{"ref":"L430","name":"Drumul de acces spre satul Vasilievca","type":"route","route":"road","name:ru":"Подъезд к селу Васильевка"},"8474623":{"ref":"L239","name":"R16-drumul de acces spre satul Pîrlița","type":"route","route":"road","name:ru":"R16-подъезд к селу Пырлица"},"8474735":{"ref":"L241","name":"Bălți-Comarovca","type":"route","route":"road","name:ru":"Бельцы-Комаровка"},"8474740":{"ref":"L241.1","name":"Drumul de acces spre satul Natalievca","type":"route","route":"road","name:ru":"Подъезд к селу Натальевка"},"8474793":{"ref":"L241.2","name":"Drumul de acces spre satul Țapoc","type":"route","route":"road","name:ru":"Подъезд к селу Цапок"},"8476579":{"ref":"L242","name":"Ciuluc-Hiliuți-Răuțelul Nou","type":"route","route":"road","name:ru":"Чулук-Хилиуць-Рэуцелул Ноу"},"8476597":{"ref":"L243","name":"R16-drumul de acces spre satul Mărăndeni","type":"route","route":"road","name:ru":"R16-подъезд к селу Мэрэндень"},"8476611":{"ref":"L244","name":"Drumul de acces spre satul Ivanovca","type":"route","route":"road","name:ru":"Подъезд к селу Ивановка"},"8476619":{"ref":"L245","name":"Drumul de acces spre satul Pervomaisc","type":"route","route":"road","name:ru":"Подъезд к селу Первомайск"},"8476654":{"ref":"L246","name":"Ilenuța-Pînzărenii Noi","type":"route","route":"road","name:ru":"Иленуца-Пынзэрений Ной"},"8476660":{"ref":"L247","name":"Fălești-Pînzărenii Noi-Năvîrneț","type":"route","route":"road","name:ru":"Фэлешть-Пынзэрений Ной-Нэвырнец"},"8476670":{"ref":"L248","name":"Stația Fălești-Pietrosul Nou","type":"route","route":"road","name:ru":"Станция Фэлешть-Петросул Ноу"},"8476734":{"ref":"L249","name":"Catranîc-Ișcălău-G63","type":"route","route":"road","name:ru":"Катранык-Ишкэлэу-G63"},"8476740":{"ref":"L249.1","name":"Drumul de acces spre stația Catranîc","type":"route","route":"road","name:ru":"Подъезд к станции Катранык"},"8476741":{"ref":"L250","name":"Drumul de acces spre satul Doltu","type":"route","route":"road","name:ru":"Подъезд к селу Долту"},"8476744":{"ref":"L251","name":"Drumul de acces spre satul Hitrești","type":"route","route":"road","name:ru":"Подъезд к селу Хитрешть"},"8476755":{"ref":"L252","name":"Albinețul Vechi-Albinețul Nou","type":"route","route":"road","name:ru":"Албинецул Векь-Албинецул Ноу"},"8476758":{"ref":"L253","name":"Călugăr-Musteața-Albinețul Nou","type":"route","route":"road"},"8476772":{"ref":"L253.1","name":"Drumul de acces spre satul Rediul de Sus","type":"route","route":"road","name:ru":"Подъезд к селу Редиул де Сус"},"8481760":{"ref":"L256","name":"R17-drumul de acces spre satul Sărata Veche","type":"route","route":"road","name:ru":"R17-подъезд к селу Сэрата Веке"},"8487027":{"ref":"L257","name":"Frumușica-Scumpia-stația Scumpia","type":"route","route":"road","name:ru":"Фрумушика-Скумпия-станция Скумпия"},"8487048":{"ref":"L257.1","name":"Drumul de acces spre satul Hîrtop","type":"route","route":"road","name:ru":"Подъезд к селу Хыртоп"},"8487075":{"ref":"L258","name":"Sărata Nouă-Ciolacu Nou-Pocrovca","type":"route","route":"road","name:ru":"Сэрата Ноуэ-Чолаку Ноу-Покровка"},"8487078":{"ref":"L259","name":"R17-drumul de acces spre satul Șoltoaia","type":"route","route":"road","name:ru":"R17-подъезд к селу Шолтоая"},"8487100":{"ref":"L260","name":"Drumul de acces spre satul Valea Rusului","type":"route","route":"road","name:ru":"Подъезд к селу Валя Русулуй"},"8487101":{"ref":"L261","name":"G60-Taxobeni","type":"route","route":"road","name:ru":"G60-Таксобень"},"8487102":{"ref":"L263","name":"R16-drumul de acces spre satul Risipeni","type":"route","route":"road","name:ru":"R16-подъезд к селу Рисипень"},"8487103":{"ref":"L264","name":"R16-drumul de acces spre satul Hrubna Nouă","type":"route","route":"road","name:ru":"R16-подъезд к селу Хрубна Ноуэ"},"8493408":{"ref":"L163","name":"Trifănești-Alexandrovca-Izvoare","type":"route","route":"road","name:ru":"Трифэнешть-Александровка-Извоаре"},"8493416":{"ref":"L164","name":"Ivanovca-Gura Căinarului-Putinești","type":"route","route":"road","name:ru":"Ивановка-Гура Кэинарулуй-Путинешть"},"8493418":{"ref":"L165","name":"R13-Zarojeni-Gura Căinarului","type":"route","route":"road","name:ru":"R13-Зарожень-Гура Кэинарулуй"},"8493425":{"ref":"L167","name":"Drumul de acces spre satul Mărculești","type":"route","route":"road","name:ru":"Подъезд к селу Мэркулешть"},"8493428":{"ref":"L168","name":"Drumul de acces spre satul Băhrinești","type":"route","route":"road","name:ru":"Подъезд к селу Бэхринешть"},"8493438":{"ref":"L169","name":"Drumul de acces spre satul Mihailovca","type":"route","route":"road","name:ru":"Подъезд к селу Михайловка"},"8493442":{"ref":"L170","name":"Drumul de acces spre satul Antonovca","type":"route","route":"road","name:ru":"Подъезд к селу Антоновка"},"8493443":{"ref":"L171","name":"Drumul de acces spre satul Frunzești","type":"route","route":"road","name:ru":"Подъезд к селу Фрунзешть"},"8493446":{"ref":"L172","name":"Drumul de acces spre satul Mărinești","type":"route","route":"road","name:ru":"Подъезд к селу Мэринешть"},"8493448":{"ref":"L174","name":"Ghindești-Cenușa-G50","type":"route","route":"road","name:ru":"Гиндешть-Ченуша-G50"},"8493449":{"ref":"L173","name":"R14-drumul de acces spre satul Domulgeni","type":"route","route":"road","name:ru":"R14-подъезд к селу Домулджень"},"8493452":{"ref":"L174.1","name":"Drumul de acces spre satul Țîra","type":"route","route":"road","name:ru":"Подъезд к селу Цыра"},"8493460":{"ref":"L175","name":"Drumul de acces spre satul Roșietici","type":"route","route":"road","name:ru":"Подъезд к селу Рошиетичь"},"8493461":{"ref":"L177","name":"Drumul de acces spre satul Rădulenii Vechi","type":"route","route":"road","name:ru":"Подъезд к селу Рэдулений Векь"},"8493467":{"ref":"L178","name":"Drumul de acces spre satul Rădulenii Noi","type":"route","route":"road","name:ru":"Подъезд к селу Рэдулений Ной"},"8493476":{"ref":"L179","name":"Alexeevca-Dumitreni","type":"route","route":"road","name:ru":"Алексеевка-Думитрень"},"8493481":{"ref":"L180","name":"Hîrtop-Cernița","type":"route","route":"road","name:ru":"Хыртоп-Черница"},"8493483":{"ref":"L180.1","name":"Drumul de acces spre satul Coșernița","type":"route","route":"road","name:ru":"Подъезд к селу Кошерница"},"8493501":{"ref":"L181","name":"Drumul de acces spre satul Hîrtop","type":"route","route":"road","name:ru":"Подъезд к селу Хыртоп"},"8493503":{"ref":"L182","name":"G38-stația de cale ferată Unchitești","type":"route","route":"road","name:ru":"G38-железнодорожная станция Ункитешть"},"8493506":{"ref":"L183","name":"Drumul de acces spre satul Vertiujeni","type":"route","route":"road","name:ru":"Подъезд к селу Вертюжень"},"8493509":{"ref":"L184","name":"Drumul de acces spre satul Tîrgul Vertiujeni","type":"route","route":"road","name:ru":"Подъезд к селу Тыргул Вертюжень"},"8493513":{"ref":"L185","name":"Drumul de acces spre satul Zăluceni","type":"route","route":"road"},"8493518":{"ref":"L186","name":"R19-drumul de acces spre satul Napadova","type":"route","route":"road","name:ru":"R19-подъезд к селу Нападова"},"8493519":{"ref":"L187","name":"R19-drumul de acces spre satul Bursuc","type":"route","route":"road","name:ru":"R19-подъезд к селу Бурсук"},"8493520":{"ref":"L188","name":"G50-drumul de acces spre satul Ion Vodă","type":"route","route":"road","name:ru":"G50-подъезд к селу Ион Водэ"},"8493521":{"ref":"L189","name":"G50-drumul de acces spre satul Valea Rădoaiei","type":"route","route":"road","name:ru":"G50-подъезд к селу Валя Рэдоаей"},"8514107":{"ref":"L620","name":"R23-drumul de acces spre satul Cioc-Maidan","type":"route","route":"road","name:ru":"R23-подъезд к селу Чок-Майдан"},"8514137":{"ref":"L621","name":"Cioc-Maidan-Avdarma","type":"route","route":"road","name:ru":"Чок-Майдан-Авдарма"},"8514212":{"ref":"L624","name":"M3-drumul de acces spre satul Beșalma","type":"route","route":"road","name:ru":"M3-подъезд к селу Бешалма"},"8514219":{"ref":"L625","name":"Drumul de acces spre satul Cotovscoe","type":"route","route":"road","name:ru":"Подъезд к селу Котовское"},"8514221":{"ref":"L626","name":"Congaz-Chioselia Rusă","type":"route","route":"road","name:ru":"Конгаз-Русская Киселия","name:gag":"Kongaz-Köseli Rus"},"8514223":{"ref":"L627","name":"R29-Joltai-Beșghioz-R36","type":"route","route":"road","name:ru":"R29-Жолтай-Бешгёз-R36"},"8514224":{"ref":"L627.1","name":"Drumul de acces spre stația Joltai","type":"route","route":"road","name:ru":"Подъезд к станции Жолтай"},"8514226":{"ref":"L628","name":"R29-drumul de acces spre satul Gaidar","type":"route","route":"road","name:ru":"R29-подъезд к селу Гайдар"},"8514257":{"ref":"L629","name":"R29-drumul de acces spre stația Ceadîr-Lunga","type":"route","route":"road","name:ru":"R29-подъезд к станции Чадыр-Лунга"},"8514260":{"ref":"L630","name":"Corten-Baurci","type":"route","route":"road","name:ru":"Кортен-Баурчи"},"8514262":{"ref":"L631","name":"R37-drumul de acces spre satul Cazaclia","type":"route","route":"road","name:ru":"R37-подъезд к селу Казаклия"},"8514264":{"ref":"L632","name":"R37-Cazaclia-stația Cazaclia","type":"route","route":"road","name:ru":"R37-Казаклия-станция Казаклия"},"8514267":{"ref":"L633","name":"Drumul de acces spre satul Carbalia","type":"route","route":"road","name:ru":"Подъезд к селу Карбалия"},"8514317":{"ref":"L635","name":"M3-drumul de acces spre stația Vulcănești","type":"route","route":"road","name:ru":"M3-подъезд к станции Вулкэнешть"},"8514351":{"ref":"L637","name":"M3-Vulcănești-Vadul lui Isac","type":"route","route":"road","name:ru":"M3-Вулкэнешть-Вадул луй Исак"},"8514358":{"ref":"L638","name":"M3-Cișmichioi-Etulia","type":"route","route":"road","name:ru":"M3-Чишмикиой-Етулия"},"8514360":{"ref":"L638.1","name":"Drumul de acces spre frontiera cu Ucraina","type":"route","route":"road","name:ru":"Подъезд к границе с Украиной"},"8514371":{"ref":"L639","name":"M3 – drumul de acces spre frontiera cu Ucraina","type":"route","route":"road","name:en":"M3 – approach to the border of Ukraine","name:ro":"M3 – drumul de acces spre frontiera cu Ucraina","name:ru":"M3 – подъезд к границе с Украиной","name:uk":"M3 – під'їзд до кордону з Україною"},"8523068":{"ref":"L223","name":"Cobani-Camenca-G24","type":"route","route":"road","name:ru":"Кобань-Каменка-G24"},"8523069":{"ref":"L224","name":"Danu-Nicolaevca","type":"route","route":"road","name:ru":"Дану-Николаевка"},"8523082":{"ref":"L225","name":"R15-Danu-Camencuța","type":"route","route":"road","name:ru":"R15-Дану-Каменкуца"},"8525226":{"ref":"L225.2","name":"R15-drumul de acces spre satul Soroca","type":"route","route":"road","name:ru":"R15-подъезд к селу Сорока"},"8525237":{"ref":"L225.3","name":"R15-drumul de acces spre satul Iabloana","type":"route","route":"road","name:ru":"R15-подъезд к селу Яблоана"},"8526657":{"ref":"L225.4","name":"Fundurii Vechi-Sturzovca","type":"route","route":"road","name:ru":"Фундурий Векь-Стурзовка"},"8526664":{"ref":"L226","name":"R15-Fundurii Noi-Limbenii Vechi-Ustia","type":"route","route":"road","name:ru":"R15-Фундурий Ной-Лимбений Векь-Устия"},"8526667":{"ref":"L227","name":"Drumul de acces spre satul Limbenii Noi","type":"route","route":"road","name:ru":"Подъезд к селу Лимбений Ной"},"8526670":{"ref":"L228","name":"Drumul de acces spre satul Petrunea","type":"route","route":"road","name:ru":"Подъезд к селу Петруня"},"8526671":{"ref":"L230","name":"Hîjdieni-Cajba","type":"route","route":"road","name:ru":"Хыждиень-Кажба"},"8526680":{"ref":"L231","name":"Balatina-Lipovăț","type":"route","route":"road","name:ru":"Балатина-Липовэц"},"8526684":{"ref":"L232","name":"Drumul de acces spre satul Tomeștii Vechi","type":"route","route":"road","name:ru":"Подъезд к селу Томештий Векь"},"8526689":{"ref":"L233","name":"Cuhnești-Bisericani","type":"route","route":"road","name:ru":"Кухнешть-Бисерикань"},"8526690":{"ref":"L234","name":"Drumul de acces spre satul Viișoara","type":"route","route":"road","name:ru":"Подъезд к селу Виишоара"},"8536530":{"ref":"G76","name":"Рыбница-Красненькое-Плопь-Граница с Украиной","type":"route","route":"road","name:ro":"Rîbnița-Crasnencoe-Plopi-frontiera cu Ucraina","name:ru":"Рыбница-Красненькое-Плопь-Граница с Украиной","network":"md:regional"},"8536543":{"ref":"G78","name":"Рыбница-Воронково-Колбасна-Граница с Украиной","type":"route","route":"road","name:md":"Рыбница-Вэрэнкэу-Кобасна-фронтиера ку Украина","name:ro":"Rîbnița-Vărăncău-Cobasna-frontiera cu Ucraina","name:ru":"Рыбница-Воронково-Колбасна-Граница с Украиной","name:uk":"Рибниця-Воронкове-Колбасна-Кордон з Україною","network":"md:regional"},"8536573":{"ref":"G80","name":"M4-Григориополь-Мочаровка-Победа","type":"route","route":"road","name:md":"M4-Григориопол-Мочаровка-Победа","name:ro":"M4-Grigoriopol-Mocearovca-Pobeda","name:ru":"M4-Григориополь-Мочаровка-Победа","name:uk":"M4-Григоріополь-Мочарівка-Побєда","network":"md:regional"},"8539575":{"ref":"L608","name":"Drumul de ocolire a orașul Cantemir","type":"route","route":"road","name:ru":"Объездная дорога города Кантемир"},"8539969":{"ref":"L509","name":"M1-drumul de acces spre satul Mirești","type":"route","route":"road","name:ru":"M1-подъезд к селу Мирешть"},"8540018":{"ref":"L510","name":"Ivanovca-Cățeleni-Heleșteni","type":"route","route":"road","name:ru":"Ивановка-Кэцелень-Хелештень"},"8540021":{"ref":"L510.1","name":"Drumul de acces spre satul Costești","type":"route","route":"road","name:ru":"Подъезд к селу Костешть"},"8540024":{"ref":"L511","name":"Drumul de acces spre satul Drăgușenii Noi","type":"route","route":"road","name:ru":"Подъезд к селу Дрэгушений Ной"},"8540026":{"ref":"L512","name":"Drumul de acces spre satul Ciuciuleni","type":"route","route":"road","name:ru":"Подъезд к селу Чучулень"},"8540033":{"ref":"L513","name":"R3-drumul de acces spre satul Fundul Galbenei","type":"route","route":"road","name:ru":"R3-подъезд к селу Фундул Галбеней"},"8540059":{"ref":"L514","name":"Buțeni-Fîrlădeni-Bozieni","type":"route","route":"road","name:ru":"Буцень-Фырлэдень-Бозиень"},"8540063":{"ref":"L515","name":"R3-drumul de acces spre satul Dubovca","type":"route","route":"road","name:ru":"R3-подъезд к селу Дубовка"},"8540065":{"ref":"L516","name":"R34-drumul de acces spre satul Sărata-Mereșeni","type":"route","route":"road","name:ru":"R34-подъезд к селу Сэрата-Мерешень"},"8540067":{"ref":"L517","name":"Sărata Galbenă-Valea Florii","type":"route","route":"road","name:ru":"Сэрата-Галбенэ-Валя Флорий"},"8540070":{"ref":"L517.1","name":"Drumul de acces spre satul Brătianovca","type":"route","route":"road","name:ru":"Подъезд к селу Брэтияновка"},"8540072":{"ref":"L517.2","name":"Drumul de acces spre satul Cărpineanca","type":"route","route":"road","name:ru":"Подъезд к селу Кэрпинянка"},"8540076":{"ref":"L518","name":"R34-drumul de acces spre satul Caracui","type":"route","route":"road","name:ru":"R34-подъезд к селу Каракуй"},"8540077":{"ref":"L519","name":"R33-drumul de acces spre satul Anini","type":"route","route":"road","name:ru":"R33-подъезд к селу Анинь"},"8540080":{"ref":"L520","name":"Lăpușna-Stolniceni","type":"route","route":"road","name:ru":"Лэпушна-Столничень"},"8540084":{"ref":"L520.1","name":"Drumul de acces spre satul Șipoteni","type":"route","route":"road","name:ru":"Подъезд к селу Шипотень"},"8540097":{"ref":"L521","name":"Drumul de acces spre satul Bobeica","type":"route","route":"road","name:ru":"Подъезд к селу Бобейка"},"8540113":{"ref":"L522","name":"Drumul de acces spre satul Secăreni","type":"route","route":"road","name:ru":"Подъезд к селу Секэрень"},"8540115":{"ref":"L523","name":"Drumul de acces spre satul Pereni","type":"route","route":"road","name:ru":"Подъезд к селу Перень"},"8540124":{"ref":"L524","name":"Drumul de acces spre satul Bălceana","type":"route","route":"road","name:ru":"Подъезд к селу Бэлчана"},"8540126":{"ref":"L525","name":"Drumul de acces spre satul Negrea","type":"route","route":"road","name:ru":"Подъезд к селу Негря"},"8540131":{"ref":"L526","name":"Drumul de acces spre satul Semionovca","type":"route","route":"road","name:ru":"Подъезд к селу Семёновка"},"8540135":{"ref":"L527","name":"R33-drumul de acces spre satul Boghiceni","type":"route","route":"road","name:ru":"R33-подъезд к селу Богичень"},"8540136":{"ref":"L528","name":"R33-drumul de acces spre satul Pervomaiscoe","type":"route","route":"road","name:ru":"R33-подъезд к селу Первомайское"},"8540176":{"ref":"L529","name":"R33-Bujor-M1","type":"route","route":"road","name:ru":"R33-Бужор-M1"},"8540178":{"ref":"L530","name":"R33-drumul de acces spre satul Tălăiești","type":"route","route":"road","name:ro":"R33-drumul de acces spre satul Tălăiești","name:ru":"R33-подъезд к селу Тэлэешть"},"8540179":{"ref":"L531","name":"Drumul de acces spre satul Nemțeni","type":"route","route":"road","name:ru":"Подъезд к селу Немцень"},"8540181":{"ref":"L532","name":"Drumul de acces spre satul Sărăteni","type":"route","route":"road","name:ru":"Подъезд к селу Сэрэтень"},"8540182":{"ref":"L533","name":"Drumul de acces spre satul Cotul Morii","type":"route","route":"road","name:ru":"Подъезд к селу Котул Морий"},"8540189":{"ref":"L535","name":"Drumul de acces spre satul Călmățui","type":"route","route":"road","name:ru":"Подъезд к селу Кэлмэцуй"},"8540195":{"ref":"L536","name":"M1-drumul de acces spre satul Leușeni","type":"route","route":"road","name:ru":"M1-подъезд к селу Леушень"},"8547705":{"ref":"G612","name":"Drumul de acces spre satul Victorovca","type":"route","route":"road","name:ru":"Подъезд к селу Викторовка"},"8547773":{"ref":"L615","name":"G132-Drumul de acces spre orașul Cantemir","type":"route","route":"road","name:ru":"G132-подъезд к городу Кантемир"},"8547788":{"ref":"L288","name":"Drumul de acces spre satul Ciofu","type":"route","route":"road","name:ru":"Подъезд к селу Чофу"},"8547789":{"ref":"L291","name":"Drumul de acces spre satul Ghiliceni","type":"route","route":"road","name:ru":"Подъезд к селу Гиличень"},"8547798":{"ref":"L290","name":"Drumul de acces spre Cucioaia","type":"route","route":"road","name:ru":"Подъезд к селу Кучоая"},"8547840":{"ref":"L289","name":"Drumul de acces spre satul Zgărdești","type":"route","route":"road","name:ru":"Подъезд к селу Згэрдешть"},"8547844":{"ref":"L292","name":"M5-drumul de acces spre satul Cucioaia Nouă","type":"route","route":"road","name:ru":"M5-подъезд к селу Кучоая Ноуэ"},"8547858":{"ref":"L293","name":"Ordășei-Pistruieni-Hîrtop","type":"route","route":"road","name:ru":"Ордэшей-Пиструень-Хыртоп"},"8547883":{"ref":"G293.1","name":"Drumul de acces spre satul Pistruienii Noi","type":"route","route":"road","name:ru":"Подъезд к селу Пиструений Ной"},"8547950":{"ref":"L294","name":"R14-drumul de acces spre satul Brînzenii Vechi","type":"route","route":"road","name:ru":"R14-подъезд к селу Брынзений Векь"},"8548116":{"ref":"L295","name":"Vadul-Leca Nou-Căzănești-Tîrșiței","type":"route","route":"road","name:ru":"Вадул-Лека Ноу-Кэзэнешть-Тыршицей"},"8548207":{"ref":"L295.1","name":"Vadul-Leca Nou-Căzănești-Tîrșiței","type":"route","route":"road","name:ru":"Подъезд к селу Кэзэнешть"},"8549762":{"ref":"L295.2","name":"Drumul de acces spre satul Flutura","type":"route","route":"road","name:ru":"Подъезд к селу Флутура"},"8549780":{"ref":"L296","name":"R14-Dobrușa-Chersac-Scorțeni","type":"route","route":"road","name:ru":"R14-Добруша-Керсак-Скорцень"},"8549816":{"ref":"L297","name":"R14-drumul de acces spre satul Nucăreni","type":"route","route":"road","name:ru":"R14-подъезд к селу Нукэрень"},"8549835":{"ref":"L298","name":"Ratuș-Chițcanii Noi-Negureni","type":"route","route":"road","name:ru":"Ратуш-Кицканий Ной-Негурень"},"8549852":{"ref":"L299","name":"R6-drumul de acces spre satul Sărătenii Vechi","type":"route","route":"road","name:ru":"R6-подъезд к селу Сэрэтений Векь"},"8549866":{"ref":"L300","name":"R6-drumul de acces spre satul Băneștii Noi","type":"route","route":"road","name:ru":"R6-подъезд к селу Бэнештий Ной"},"8549871":{"ref":"L301","name":"R22-drumul de acces spre satul Inești","type":"route","route":"road","name:ru":"R22-подъезд к селу Инешть"},"8549904":{"ref":"L302","name":"Mîndrești-Hirișeni-G64","type":"route","route":"road"},"8549945":{"ref":"L303","name":"Drumul de acces spre satul Mihălașa","type":"route","route":"road","name:ru":"Подъезд к селу Михэлаша"},"8549976":{"ref":"L304","name":"Drumul de acces spre satul Verejeni","type":"route","route":"road","name:ru":"Подъезд к селу Вережень"},"8549991":{"ref":"L305","name":"Drumul de acces spre satul Sărătenii Noi","type":"route","route":"road","name:ru":"Подъезд к селу Сэрэтений Ной"},"8549994":{"ref":"L306","name":"Drumul de acces spre satul Leușeni","type":"route","route":"road","name:ru":"Подъезд к селу Леушень"},"8549998":{"ref":"L308","name":"Drumul de acces spre satul Ghermănești","type":"route","route":"road","name:ru":"Подъезд к селу Гермэнешть"},"8550200":{"ref":"L309","name":"Budăi-Crăsnășeni-Bahu","type":"route","route":"road","name:ru":"Будэй-Крэснэшень-Баху"},"8550239":{"ref":"L392","name":"Drumul de acces spre satul Bălănești","type":"route","route":"road","name:ru":"Подъезд к селу Бэлэнешть"},"8550254":{"ref":"L393.1","name":"Drumul de acces spre satul Boldurești-G94","type":"route","route":"road","name:ru":"Подъезд к селу Болдурешть-G94"},"8550308":{"ref":"L394","name":"Drumul de acces spre satul Cîrnești","type":"route","route":"road","name:ru":"Подъезд к селу Кырнешть"},"8550319":{"ref":"L395","name":"M1-drumul de acces spre satul Bursuc","type":"route","route":"road","name:ru":"M1-подъезд к селу Бурсук"},"8550360":{"ref":"L396","name":"M1-drumul de acces spre satul Iurceni","type":"route","route":"road","name:ru":"M1-подъезд к селу Юрчень"},"8550400":{"ref":"L397","name":"M1-drumul de acces spre satul Cristești","type":"route","route":"road","name:ru":"M1-подъезд к селу Кристешть"},"8550402":{"ref":"L398","name":"R25-drumul de acces spre satul Ciorești","type":"route","route":"road","name:ru":"R25-подъезд к селу Чорешть"},"8550431":{"ref":"L399","name":"R25-drumul de acces spre satul Vărzărești","type":"route","route":"road","name:ru":"R25-подъезд к селу Вэрзэрешть"},"8550528":{"ref":"L401","name":"R10-drumul de acces la Mănăstirea Vărzărești","type":"route","route":"road","name:ru":"R10-подъезд к Монастырю Вэрзэрешть"},"8550692":{"ref":"L402","name":"Păruceni-Seliște-Vînători","type":"route","route":"road","name:ru":"Пэручень-Селиште-Вынэторь"},"8550807":{"ref":"L403","name":"Nisporeni-Marinici","type":"route","route":"road","name:ru":"Ниспорень-Маринич"},"8550826":{"ref":"L403.1","name":"Drumul de acces spre satul Odaia","type":"route","route":"road","name:ru":"Подъезд к селу Одая"},"8550831":{"ref":"L404","name":"Drumul de acces spre satul Drojdieni","type":"route","route":"road","name:ru":"Подъезд к селу Дрождиень"},"8550834":{"ref":"L405","name":"Drumul de acces spre satul Vînători","type":"route","route":"road","name:ru":"Подъезд к селу Вынэторь"},"8553399":{"ref":"L354","name":"G95-Pîrjolteni-R25","type":"route","route":"road","name:ru":"G95-Пыржолтень-R25"},"8556846":{"ref":"L372","name":"R16-drumul de acces spre satul Petrești","type":"route","route":"road","name:ru":"R16-подъезд к селу Петрешть"},"8576074":{"ref":"L492","name":"Piatra Albă-Mileștii Mici","type":"route","route":"road","name:ru":"Пятра Албэ-Милештий Мичь"},"8578048":{"ref":"L494","name":"R3-drumul de acces spre orașul Ialoveni","type":"route","route":"road","name:ru":"R3-подъезд к городу Яловень"},"8579220":{"ref":"L495.1","name":"Drumul de acces spre satul Hansca","type":"route","route":"road","name:ru":"Подъезд к селу Ханска"},"8579852":{"ref":"L496","name":"R3-drumul de acces spre satul Sociteni","type":"route","route":"road","name:ru":"R3-подъезд к селу Сочитень"},"8580444":{"ref":"L497","name":"Drumul de acces spre satul Ruseștii Vechi","type":"route","route":"road","name:ru":"Подъезд к селу Русештий Векь"},"8580979":{"ref":"L498","name":"Drumul de acces spre satul Horodca","type":"route","route":"road","name:ru":"Подъезд к селу Хородка"},"8581512":{"ref":"L499","name":"Drumul de acces spre satul Găureni","type":"route","route":"road","name:ru":"Подъезд к селу Гэурень"},"8581882":{"ref":"L500","name":"Drumul de acces spre satul Budăi","type":"route","route":"road","name:ru":"Подъезд к селу Будэй"},"8586037":{"ref":"L501","name":"Drumul de acces spre satul Bălțați","type":"route","route":"road","name:ru":"Подъезд к селу Бэлцаць"},"8587974":{"ref":"L502","name":"R3-drumul de acces spre satul Bardar","type":"route","route":"road","name:ru":"R3-подъезд к селу Бардар"},"8588064":{"ref":"L505","name":"Gangura-Homuteanovca","type":"route","route":"road","name:ru":"Гангура-Хомутяновка"},"8588067":{"ref":"L506","name":"Drumul de acces spre satul Cigîrleni","type":"route","route":"road","name:ru":"Подъезд к селу Чигырлень"},"8588071":{"ref":"L507","name":"Drumul de acces spre satul Răzeni","type":"route","route":"road","name:ru":"Подъезд к селу Рэзень"},"8588076":{"ref":"L508","name":"Mileștii Noi-Cărbuna-Căinari","type":"route","route":"road","name:ru":"Милештий Ной-Кэрбуна-Кэинарь"},"8589734":{"ref":"L265","name":"Drumul de acces spre satul Cotovca","type":"route","route":"road","name:ru":"Подъезд к селу Котовка"},"8589739":{"ref":"L265.1","name":"Drumul de acces spre satul Dobrogea Nouă","type":"route","route":"road","name:ru":"Подъезд к селу Доброджя Ноуэ"},"8589749":{"ref":"L266","name":"R13-drumul de acces spre satul Mărășești","type":"route","route":"road","name:ru":"R13-подъезд к селу Мэрэшешть"},"8589762":{"ref":"L267","name":"G29-Alexăndreni-Țiplești","type":"route","route":"road","name:ru":"G29-Алексэндрень-Циплешть"},"8589769":{"ref":"L267.1","name":"Drumul de acces spre satul Heciul Vechi","type":"route","route":"road","name:ru":"Подъезд к селу Хечул Векь"},"8589771":{"ref":"L267.3","name":"Drumul de acces spre satul Grigorești","type":"route","route":"road","name:ru":"Подъезд к селу Григорешть"},"8589782":{"ref":"L268","name":"Sloveanca-Romanovca","type":"route","route":"road","name:ru":"Словянка-Романовка"},"8589784":{"ref":"L268.1","name":"Drumul de acces spre satul Răzălăi","type":"route","route":"road","name:ru":"Подъезд к селу Рэзэлэй"},"8589795":{"ref":"L269","name":"R6-drumul de acces spre satul Șestaci","type":"route","route":"road","name:ru":"R6-подъезд к селу Шестачь"},"8589818":{"ref":"L273","name":"Sacarovca-Chirileni","type":"route","route":"road","name:ru":"Сакаровка-Кирилень"},"8589821":{"ref":"L274","name":"Sîngerei-Sîngereii Noi","type":"route","route":"road","name:ru":"Сынджерей-Сынджереий Ной"},"8589847":{"ref":"L275","name":"Drumul de acces spre satul Heciul Nou","type":"route","route":"road","name:ru":"Подъезд к селу Хечул Ноу"},"8589863":{"ref":"L276","name":"G29-Rădoaia-G30","type":"route","route":"road","name:ru":"G29-Рэдоая-G30"},"8589868":{"ref":"L277","name":"R6-Țambula-Pălăria","type":"route","route":"road","name:ru":"R6-Цамбула-Пэлэрия"},"8589869":{"ref":"L278","name":"R6-drumul de acces spre satul Bilicenii Noi","type":"route","route":"road","name:ru":"R6-подъезд к селу Биличений Ной"},"8589878":{"ref":"L279","name":"M5-Chișcăreni","type":"route","route":"road","name:ru":"M5-Кишкэрень"},"8589886":{"ref":"L279.1","name":"Drumul de acces spre satul Slobozia-Chișcăreni","type":"route","route":"road","name:ru":"Подъезд к селу Слобозия-Кишкэрень"},"8589898":{"ref":"L280","name":"Chișcăreni-Tăura Veche-Tăura Nouă","type":"route","route":"road","name:ru":"Кишкэрень-Тэура Веке-Тэура Ноуэ"},"8589914":{"ref":"L281","name":"Chișcăreni-Ciuciuieni-Dumbrăvița","type":"route","route":"road","name:ru":"Кишкэрень-Чучуень-Думбрэвица"},"8589925":{"ref":"L282","name":"R6-Vrănești-Iezărenii Vechi","type":"route","route":"road","name:ru":"R6-Врэнешть-Езэрений Векь"},"8589939":{"ref":"L282.1","name":"Drumul de acces spre satul Iezărenii Noi","type":"route","route":"road","name:ru":"Подъезд к селу Езэрений Ной"},"8589946":{"ref":"L284","name":"R6-drumul de acces spre satul Lipovanca","type":"route","route":"road","name:ru":"R6-подъезд к селу Липованка"},"8589948":{"ref":"L285","name":"Grigorăuca-Petropavlovca","type":"route","route":"road","name:ru":"Григорэука-Петропавловка"},"8590014":{"ref":"L286","name":"R6-drumul de acces spre satul Mihailovca","type":"route","route":"road","name:ru":"R6-подъезд к селу Михайловка"},"8590021":{"ref":"L287","name":"Drumul de acces spre satul Bobletici","type":"route","route":"road","name:ru":"Подъезд к селу Боблетичь"},"8590033":{"ref":"L270","name":"Drumul de acces spre satul Gura-Oituz","type":"route","route":"road","name:ru":"Подъезд к селу Гура Ойтуз"},"8590090":{"ref":"L206","name":"Șoldănești-Păpăuți-Țareuca","type":"route","route":"road","name:ru":"Шолдэнешть-Пэпэуць-Цареука"},"8590111":{"ref":"L206.2","name":"Drumul de acces spre satul Păpăuți","type":"route","route":"road","name:ru":"Подъезд к селу Пэпэуць"},"8590131":{"ref":"L206.3","name":"Drumul de acces spre satul Lipceni","type":"route","route":"road","name:ru":"Подъезд к селу Липчень"},"8590144":{"ref":"L207","name":"Drumul de acces spre satul Tarasova","type":"route","route":"road","name:ru":"Подъезд к селу Тарасова"},"8590160":{"ref":"L208","name":"Drumul de ocolire a orașul Rezina","type":"route","route":"road","name:ru":"Объездная дорога города Резина"},"8590169":{"ref":"L209","name":"Țareuca-Țahnăuți","type":"route","route":"road","name:ru":"Цареука-Цахнэуць"},"8590225":{"ref":"L210","name":"R20-Cinișeuți-Echimăuți","type":"route","route":"road","name:ru":"R20-Чинишеуць-Екимэуць"},"8590241":{"ref":"L211","name":"R20-Cinișeuți-Buciușca","type":"route","route":"road","name:ru":"R20-Чинишеуць-Бучушка"},"8590251":{"ref":"L211.1","name":"Drumul de acces spre satul Gordinești","type":"route","route":"road","name:ru":"Подъезд к селу Гординешть"},"8590263":{"ref":"L212","name":"Drumul de acces spre satul Pereni","type":"route","route":"road","name:ru":"Подъезд к селу Перень"},"8590269":{"ref":"L214","name":"R20-drumul de acces spre satul Cogîlniceni","type":"route","route":"road","name:ru":"R20-подъезд к селу Когылничень"},"8603988":{"ref":"L215","name":"R20-drumul de acces spre satul Cuizăuca","type":"route","route":"road","name:ru":"R20-подъезд к селу Куйзэука"},"8603989":{"ref":"L216","name":"R20-drumul de acces spre satul Otac","type":"route","route":"road","name:ru":"R20-подъезд к селу Отак"},"8603992":{"ref":"L217","name":"R20-Bușăuca-Ghiduleni","type":"route","route":"road","name:ru":"R20-Бушэука-Гидулень"},"8603993":{"ref":"L217.1","name":"Drumul de acces spre satul Roșcanii de Sus","type":"route","route":"road","name:ru":"Подъезд к селу Рошканий де Сус"},"8604006":{"ref":"L218","name":"G43-Mincenii de Jos-Mincenii de Sus","type":"route","route":"road","name:ru":"G43-Минчений де Жос-Минчений де Сус"},"8604009":{"ref":"L219","name":"Drumul de acces spre satul Slobozia-Horodiște","type":"route","route":"road","name:ru":"Подъезд к селу Слобозия-Хородиште"},"8604010":{"ref":"L220","name":"Drumul de acces spre satul Horodiște","type":"route","route":"road","name:ru":"Подъезд к селу Хородиште"},"8604016":{"ref":"L221","name":"Drumul de acces spre satul Țipova","type":"route","route":"road","name:ru":"Подъезд к селу Ципова"},"8604030":{"ref":"L222","name":"G43-drumul de acces spre satul Nistreni","type":"route","route":"road","name:ru":"G43-подъезд к селу Нистрень"},"8604042":{"ref":"L134","name":"M5-drumul de acces spre satul Ciubara","type":"route","route":"road","name:ru":"M5-подъезд к селу Чубара"},"8604054":{"ref":"L135","name":"Pîrjota-Borosenii Noi-Mihăilenii Noi","type":"route","route":"road","name:ru":"Пыржота-Боросений Ной-Михэйлений Ной"},"8612958":{"ref":"L272","name":"Drumul de acces spre satul Gavrilovca","type":"route","route":"road","name:ru":"Подъезд к селу Гавриловка"},"8613011":{"ref":"L271","name":"Drumul de acces spre satul Evghenievca","type":"route","route":"road","name:ru":"Подъезд к селу Евгеньевка"},"8613032":{"ref":"L271.1","name":"Drumul de acces spre satul Antonovca","type":"route","route":"road","name:ru":"Подъезд к селу Антоновка"},"8644880":{"ref":"L503","name":"G 106-Văratic-G 106.1","type":"route","route":"road","name:ru":"G106-Пухой-Вэратик-G106"},"8648620":{"ref":"L534","name":"M1-drumul de acces spre satul Cotul Morii","type":"route","route":"road","name:ru":"M1-подъезд к селу Котул Морий"},"8649483":{"ref":"L135.1","name":"Drumul de acces spre satul Borosenii Noi","type":"route","route":"road","name:ru":"Подъезд к селу Боросений Ной"},"8649509":{"ref":"L135.2","name":"Drumul de acces spre satul Știubeieni","type":"route","route":"road","name:ru":"Подъезд к селу Штюбеень"},"8649563":{"ref":"L136","name":"M5-drumul de acces spre satul Rămăzan","type":"route","route":"road","name:ru":"M5-подъезд к селу Рэмэзан"},"8649610":{"ref":"L137","name":"R7-drumul de acces spre satul Balanul Nou","type":"route","route":"road","name:ru":"R7-подъезд к селу Баланул Ноу"},"8649647":{"ref":"L190","name":"R9-drumul de acces spre satul Rogojeni","type":"route","route":"road","name:ru":"R9-подъезд к селу Рогожень"},"8649675":{"ref":"L191","name":"R9-drumul de acces spre satul Pohoarna","type":"route","route":"road","name:ru":"R9-подъезд к селу Похоарна"},"8649688":{"ref":"L192","name":"R19-drumul de acces spre satul Cușelăuca","type":"route","route":"road","name:ru":"R19-подъезд к селу Кушелэука"},"8649694":{"ref":"L193","name":"Șoldănești-Cobîlea-R19","type":"route","route":"road","name:ru":"Шолдэнешть-Кобыля-R19"},"8649708":{"ref":"L194","name":"Dobrușa-Zahorna","type":"route","route":"road","name:ru":"Добруша-Захорна"},"8649726":{"ref":"L195","name":"Drumul de acces spre satul Chipeșca","type":"route","route":"road"},"8649872":{"to":"Găuzeni","ref":"L196","from":"Răspopeni","name":"Răspopeni–Găuzeni","type":"route","route":"road","name:ru":"G46-Гэузень-Продэнешть","network":"md:local"},"8649893":{"ref":"L198","name":"Drumul de acces spre satul Cușmirca","type":"route","route":"road","name:ru":"Подъезд к селу Кушмирка"},"8649936":{"ref":"L200","name":"G40-Vadul-Rașcov-Climăuții de Jos-Cot","type":"route","route":"road","name:ru":"G40-Вадул-Рашков-Климэуций де Жос-Кот"},"8650191":{"ref":"L200.1","name":"Drumul de acces spre satul Socola","type":"route","route":"road","name:ru":"Подъезд к селу Сокола"},"8650200":{"ref":"L201","name":"Drumul de acces spre satul Poiana","type":"route","route":"road","name:ru":"Подъезд к селу Пояна"},"8650221":{"ref":"L202","name":"Drumul de acces spre satul Odaia","type":"route","route":"road","name:ru":"Подъезд к селу Одая"},"8650225":{"ref":"L203","name":"Drumul de acces spre satul Șipca","type":"route","route":"road","name:ru":"Подъезд к селу Шипка"},"8650250":{"ref":"L205","name":"G41-Mateuți-Boșernița","type":"route","route":"road","name:ru":"G41-Матеуць-Бошерница"},"8650259":{"ref":"L206.1","name":"Drumul de acces spre satul Parcani","type":"route","route":"road","name:ru":"Подъезд к селу Паркань"},"8653499":{"ref":"L138","name":"Drumul de acces spre satul Zăicani","type":"route","route":"road","name:ru":"Подъезд к селу Зэикань"},"8653507":{"ref":"L139","name":"Drumul de acces spre satul Pociumbăuți","type":"route","route":"road","name:ru":"Подъезд к селу Почумбэуць"},"8653520":{"ref":"L140","name":"Drumul de acces spre satul Horodiște","type":"route","route":"road","name:ru":"Подъезд к селу Хородиште"},"8653531":{"ref":"L141","name":"Drumul de acces spre satul Druța","type":"route","route":"road","name:ru":"Подъезд к селу Друца"},"8653533":{"ref":"L142","name":"Drumul de acces spre satul Dumeni","type":"route","route":"road","name:ru":"Подъезд к селу Думень"},"8653579":{"ref":"L144.1","name":"Drumul de acces spre satul Dămășcani","type":"route","route":"road","name:ru":"Подъезд к селу Дэмэшкань"},"8653591":{"ref":"L144","name":"Costești-Petrușeni","type":"route","route":"road","name:ru":"Костешть-Петрушень"},"8653710":{"ref":"L145","name":"R7-drumul de acces spre satul Păscăuți","type":"route","route":"road","name:ru":"R7-подъезд к селу Пэскэуць"},"8653801":{"ref":"L146","name":"G58-drumul de acces spre satul Braniște","type":"route","route":"road","name:ru":"G58-подъезд к селу Браниште"},"8653822":{"ref":"L147","name":"R7-Șaptebani-Gălășeni-R7","type":"route","route":"road","name:ru":"R7-Шаптебань-Гэлэшень-R7"},"8653824":{"ref":"L148","name":"Drumul de acces spre satul Gălășeni","type":"route","route":"road","name:ru":"Подъезд к селу Гэлэшень"},"8653837":{"ref":"L149","name":"R7-drumul de acces spre satul Hiliuți","type":"route","route":"road","name:ru":"R7-подъезд к селу Хилиуць"},"8655488":{"ref":"L94","name":"R14.1-drumul de acces spre satul Egoreni","type":"route","route":"road","name:ru":"R14.1-подъезд к селу Егорень"},"8661360":{"to":"Valea Perjei","ref":"G122.1","from":"G122","name":"G122-Sagaidac-Valea Perjei","type":"route","route":"road","name:ru":"G122-Сагайдак-Валя Пержей","network":"md:regional"},"8672410":{"ref":"L563","name":"G125-drumul de acces spre satul Dimitrovca","type":"route","route":"road","name:ru":"G125-подъезд к селу Димитровка"},"8672657":{"ref":"L662","name":"R32-drumul de acces spre satul Lopățica","type":"route","route":"road","name:ru":"R32-Подъезд к селу Лопатика"},"8682005":{"ref":"L176","name":"Drumul de acces spre orașul Florești","type":"route","route":"road","name:ru":"Подъезд к городу Флорешть"},"8682739":{"ref":"L240","name":"L239-drumul de acces spre stația Răuțel","type":"route","route":"road","name:ru":"L239-подъезд к станции Рэуцел"},"8688983":{"ref":"L254","name":"Călinești-r. Prut","type":"route","route":"road","name:ru":"Кэлинешть-река Прут"},"8688991":{"ref":"L255","name":"R17-stația Fălești-Călugăr","type":"route","route":"road","name:ru":"R17-станция Фэлешть-Кэлугэр"},"8694469":{"ref":"L262","name":"Taxobeni-r. Prut","type":"route","route":"road","name:ru":"Таксобень-река Прут"},"8695001":{"ref":"L66","name":"G11-drumul de acces spre orașul Dondușeni","type":"route","route":"road","name:ru":"G11-подъезд к городу Дондушень"},"8714226":{"ref":"L229","name":"G57-Ciuciulea-Dușmani-Limbenii Vechi","type":"route","route":"road","name:ru":"G57-Чучуля-Душмань-Лимбений Векь"},"8718195":{"ref":"L37","name":"Drumul de acces spre satul Corjeuți","type":"route","route":"road","name:ru":"Подъезд к селу Коржеуць"},"8722463":{"ref":"L640","name":"R29.1-Valea Perjei-frontiera cu Ucraina","type":"route","route":"road","name:ru":"R29.1-Валя Пержей-граница с Украиной"},"8722525":{"ref":"L641","name":"R29-drumul de acces spre satul Valea Perjei","type":"route","route":"road","name:ru":"R29-подъезд к селу Валя Пержей"},"8722534":{"ref":"L642","name":"Ceadîr-Lunga-Taraclia","type":"route","route":"road","name:ru":"Чадыр-Лунга - Тараклия"},"8722617":{"ref":"L644","name":"M3-drumul de acces spre satul Cealîc","type":"route","route":"road","name:ru":"M3-подъезд к селу Чалык"},"8722641":{"ref":"L645","name":"G140-drumul de acces spre orașul Taraclia","type":"route","route":"road","name:ru":"G140-подъезд к городу Тараклия"},"8722647":{"to":"R32","ref":"L646","from":"M3","name":"M3–drum de acces spre or. Taraclia–R32","type":"route","route":"road","name:ru":"M3-подъезд к городу Тараклия-R32"},"8722791":{"ref":"L647","name":"Drumul de acces spre satul Novosiolovca","type":"route","route":"road","name:ru":"Подъезд к селу Новосёловка"},"8722820":{"to":"Salcia","ref":"L648","from":"G137","name":"G137-Hîrtop-Salcia","type":"route","route":"road","name:ru":"G137-Хыртоп-Салчия"},"8723053":{"ref":"L649","name":"M3-drumul de acces spre satul Aluatu","type":"route","route":"road","name:ru":"M3-подъезд к селу Алуату"},"8723078":{"ref":"L650","name":"Ciumai-Mirnoe-frontiera cu Ucraina","type":"route","route":"road","name:ru":"Чумай-Мирное-Граница с Украиной"},"8723091":{"ref":"L651","name":"Vinogradovca-Orehovca","type":"route","route":"road","name:ru":"Виноградовка-Ореховка"},"8726266":{"ref":"L150","name":"G26-drumul de acces spre satul Malinovscoe","type":"route","route":"road","name:ru":"G26-подъезд к селу Малиновское"},"8726285":{"ref":"L151","name":"Rîșcani-G26","type":"route","route":"road","name:ru":"Рышкань-G26"},"8731832":{"ref":"L152","name":"R7-drumul de acces spre orașul Rîșcani","type":"route","route":"road","name:ru":"R7-подъезд к городу Рышкань"},"8731842":{"ref":"L153","name":"G18-drumul de acces spre orașul Rîșcani","type":"route","route":"road","name:ru":"G18-подъезд к городу Рышкань"},"8732085":{"ref":"L154","name":"R7-Rîșcani","type":"route","route":"road","name:ru":"R7-Рышкань"},"8732094":{"ref":"L155","name":"Rîșcani-Răcăria","type":"route","route":"road","name:ru":"Рышканы-Рэкэрия"},"8732104":{"ref":"L156","name":"M5-Răcăria-Ușurei","type":"route","route":"road","name:ru":"M5-Рэкэрия-Ушурей"},"8732170":{"ref":"L157","name":"M5-Șumna-Cepăria","type":"route","route":"road","name:ru":"M5-Шумна-Чепэрия"},"8732228":{"ref":"L157.1","name":"Drumul de acces spre satul Bulhac","type":"route","route":"road","name:ru":"Подъезд к селу Булхак"},"8732243":{"ref":"L162","name":"M5-Corlăteni-Singureni","type":"route","route":"road","name:ru":"M5-Корлэтень-Сингурень"},"8732410":{"ref":"L161","name":"R12-Grinăuți-Ciobanovca","type":"route","route":"road","name:ru":"R12-Гринэуць-Чобановка"},"8732487":{"ref":"L160","name":"M5-drumul de acces spre satul Slobozia-Recea","type":"route","route":"road","name:ru":"M5-подъезд к селу Слобозия-Реча"},"8732503":{"ref":"L159","name":"M5-drumul de acces spre satul Sverdiac","type":"route","route":"road","name:ru":"M5-подъезд к селу Свердиак"},"8732519":{"ref":"L158","name":"M5-drumul de acces spre satul Aluniș","type":"route","route":"road","name:ru":"M5-подъезд к селу Алуниш"},"8732633":{"ref":"L143","name":"Duruitoarea-Duruitoarea Nouă","type":"route","route":"road","name:ru":"Дуруитоаря-Дуруитоаря Ноуэ"},"8732688":{"ref":"L447","name":"Vadul lui Vodă-Văduleni","type":"route","route":"road","name:ru":"Вадул луй Водэ-Вэдулень"},"8736489":{"ref":"L449","name":"Goian-Făurești","type":"route","route":"road","name:ru":"Гоян-Фэурешть"},"8736513":{"ref":"L454","name":"Sîngera-Floreni","type":"route","route":"road","name:ru":"Сынджера-Флорень"},"8736591":{"ref":"L452","name":"R1-drumul de acces spre satul Trușeni","type":"route","route":"road","name:ru":"R1-подъезд к селу Трушень"},"8736685":{"ref":"L455","name":"Chișinău-Budești-M5","type":"route","route":"road","name:ru":"Кишинэу-Будешть-M5"},"8736953":{"ref":"L455.2","name":"L455-Cheltuitori-Tohatin","type":"route","route":"road","name:ru":"L455-Келтуиторь-Тохатин"},"8736968":{"ref":"L456","name":"M1-Grătiești-Hulboaca","type":"route","route":"road","name:ru":"M1-Грэтиешть-Хулбоака"},"8737063":{"ref":"L457","name":"R4-drumul de acces spre satul Ciorescu","type":"route","route":"road","name:ru":"R4-подъезд к селу Чореску"},"8737071":{"ref":"L458","name":"R4-drumul de acces spre orașul Cricova","type":"route","route":"road","name:ru":"R4-подъезд к городу Крикова"},"8737080":{"ref":"L459","name":"R6-drumul de acces spre orașul Cricova","type":"route","route":"road","name:ru":"R6-подъезд к городу Крикова"},"8737091":{"ref":"L461","name":"M1-Condrița-G70","type":"route","route":"road","name:ru":"M1-Кондрица-G70"},"8737127":{"ref":"L462","name":"M1-drumul de acces spre satul Ghidighici","type":"route","route":"road","name:ru":"M1-подъезд к селу Гидигич"},"8737145":{"ref":"L463","name":"M1-drumul de acces spre satul Trușeni","type":"route","route":"road","name:ru":"M1-подъезд к селу Трушень"},"8737155":{"ref":"L464","name":"R4-drumul de acces spre Goianul Nou","type":"route","route":"road","name:ru":"R4-подъезд к селу Гоянул Ноу"},"8737174":{"ref":"L465","name":"M5-Buneți","type":"route","route":"road","name:ru":"M5-Бунець"},"8737221":{"ref":"L466","name":"M5-Cruzești-Ceroborta","type":"route","route":"road","name:ru":"M5-Крузешть-Чероборта"},"8737277":{"ref":"L467","name":"Chișinău-Bubuieci-Bîc","type":"route","route":"road","name:ru":"Кишинэу-Бубуечь-Бык"},"8737303":{"ref":"L468","name":"R2-Sîngera-Dobrogea","type":"route","route":"road","name:ru":"R2-Сынджера-Доброджя"},"8737351":{"ref":"L469","name":"Chișinău-Codru-Piatra Albă","type":"route","route":"road","name:ru":"Кишинэу-Кодру-Пятра Албэ"},"8737372":{"ref":"L448","name":"R4-drumul de acces spre orașul Vadul lui Vodă","type":"route","route":"road","name:ru":"R4-подъезд к городу Вадул луй Водэ"},"8737393":{"ref":"L450","name":"M1-drumul de acces spre municipiul Chișinău","type":"route","route":"road","name:ru":"M1-подъезд к муниципию Кишинэу"},"8737461":{"ref":"L452.1","name":"Drumul de acces spre satul Frumușica","type":"route","route":"road","name:ru":"Подъезд к селу Фрумушика"},"8747099":{"ref":"L406","name":"R25-drumul de acces spre satul Micleușeni","type":"route","route":"road"},"8747118":{"ref":"L407","name":"R25-drumul de acces spre satul Dolna","type":"route","route":"road"},"8747222":{"ref":"L408","name":"Codreanca-Onești","type":"route","route":"road"},"8747558":{"ref":"L408.1","name":"Drumul de acces spre satul Țigănești","type":"route","route":"road"},"8747635":{"ref":"L409","name":"G81-Rădeni-Drăgușeni","type":"route","route":"road"},"8747817":{"ref":"L410","name":"R6-drumul de acces spre satul Micăuți","type":"route","route":"road"},"8748027":{"ref":"L411","name":"M5-drumul de acces spre satul Greblești","type":"route","route":"road","name:ru":"M5-подъезд к селу Греблешть"},"8748164":{"ref":"L412","name":"Drumul de acces spre satul Recea","type":"route","route":"road","name:ru":"Подъезд к селу Реча"},"8748285":{"ref":"L413","name":"Drumul de acces spre satul Saca","type":"route","route":"road","name:ru":"Подъезд к селу Сака"},"8748339":{"ref":"L414","name":"Drumul de acces spre satul Negrești","type":"route","route":"road","name:ru":"Подъезд к селу Негрешть"},"8751774":{"ref":"L415","name":"R1-Roșcani-stația Ghidighici","type":"route","route":"road","name:ru":"R1-Рошкань-станция Гидигич"},"8751877":{"ref":"L416","name":"Bucovăț-Gălești-Zubrești","type":"route","route":"road","name:ru":"Буковэц-Гэлешть-Зубрешть"},"8752082":{"ref":"L417","name":"R25-drumul de acces spre stația Bucovăț","type":"route","route":"road","name:ru":"R25-подъезд к станции Буковэц"},"8752243":{"ref":"L418","name":"R1-drumul de acces spre satul Tătărești","type":"route","route":"road","name:ru":"R1-подъезд к селу Тэтэрешть"},"8752321":{"ref":"L419","name":"R25-drumul de acces spre satul Lozova","type":"route","route":"road","name:ru":"R25-подъезд к селу Лозова"},"8752411":{"ref":"L420","name":"M1-drumul de acces spre satul Lozova","type":"route","route":"road","name:ru":"M1-подъезд к селу Лозова"},"8752534":{"ref":"L421","name":"R1-drumul de acces spre satul Făgureni","type":"route","route":"road","name:ru":"R1-подъезд к селу Фэгурень"},"8752603":{"ref":"L422","name":"R1-drumul de acces spre satul Cojușna","type":"route","route":"road","name:ru":"R1-подъезд к селу Кожушна"},"8760608":{"ref":"L573","name":"R30-drumul de acces spre orașul Căușeni","type":"route","route":"road","name:ru":"R30-подъезд к городу Кэушень"},"8760623":{"ref":"L574","name":"R26-drumul de acces spre orașul Căușeni","type":"route","route":"road","name:ru":"R26-подъезд к городу Кэушень"},"8761039":{"ref":"L429","name":"L363-Hîrtop-Doroțcaia","type":"route","route":"road","name:md":"L363-Хыртоп-Дороцкая","name:ro":"L363-Hîrtop-Doroțcaia","name:ru":"L363-Гыртоп-Дороцкое","name:uk":"L363-Гиртоп-Дороцьке"},"8761348":{"ref":"L582","name":"R30-drumul de acces spre satul Popeasca","type":"route","route":"road","name:ru":"R30-подъезд к селу Попяска"},"8761542":{"ref":"L583","name":"Ermoclia-Alava","type":"route","route":"road","name:ru":"Ермоклия-Алава"},"8761695":{"ref":"L583.1","name":"Drumul de acces spre satul Ermoclia","type":"route","route":"road","name:ru":"Подъезд к селу Ермоклия"},"8761845":{"ref":"L581","name":"Copanca-Cremenciug-Slobozia-M5","type":"route","route":"road","name:md":"Копанка-Кременчуг-Слобозия-М5","name:mo":"Copanca-Cremenciug-Slobozia-M5","name:ro":"Copanca-Cremenciug-Slobozia-M5","name:ru":"Копанка-Кременчуг-Слободзея-M5"},"8762071":{"ref":"L583.2","name":"L569-Feștelița-Marianca de Jos","type":"route","route":"road","name:ru":"L569-Фештелица-Марианка де Жос"},"8763124":{"ref":"L681","name":"Рашков-Янтарное","type":"route","route":"road","name:md":"Рашков-Янтарное","name:ro":"Rașcov-Iantarnoe","name:ru":"Рашков-Янтарное","name:uk":"Рашків-Янтарне"},"8763136":{"ref":"L682","name":"Рашков-Валя Адынкэ-Константиновка","type":"route","route":"road","name:md":"Рашков-Валя Адынкэ-Константиновка","name:ro":"Rașcov-Valea Adîncă-Constantinovca","name:ru":"Рашков-Валя Адынкэ-Константиновка","name:uk":"Рашків-Валя Адинке-Костянтинівка"},"8763150":{"ref":"L683","name":"Хрустовая-Ротар-Соколовка-Подоймица","type":"route","route":"road","name:ro":"Hristovaia-Rotari-Socolovca-Podoimița","name:ru":"Хрустовая-Ротар-Соколовка-Подоймица"},"8763156":{"ref":"L683.1","name":"Подъезд к селу Боданы","type":"route","route":"road","name:ro":"Drumul de acces spre satul Bodeni","name:ru":"Подъезд к селу Боданы"},"8763169":{"ref":"L684","name":"Drumul de acces spre satul Ocnița","type":"route","route":"road","name:ru":"Подъезд к селу Окница"},"8763174":{"ref":"L685","name":"Подъезд к селу Войтовка","type":"route","route":"road","name:ro":"Drumul de acces spre satul Voitovca"},"8763193":{"ref":"L687","name":"Каменка-Красный Октябрь","type":"route","route":"road","name:md":"Каменка-Красный Октябрь","name:ro":"Camenca-Crasnîi Octeabri","name:ru":"Каменка-Красный Октябрь","name:uk":"Кам'янка-Красний Октябр"},"8763247":{"ref":"L730","name":"Глиное-Первомайск","type":"route","route":"road","name:md":"Хлиная-Первомайск","name:ro":"Hlinaia-Pervomaisc","name:ru":"Глиное-Первомайск","name:uk":"Глинне-Первомайськ"},"8765384":{"ref":"L690","name":"Drumul de acces spre satul Vasilievca","type":"route","route":"road","name:mo":"Drumul de acces spre satul Vasilievca","name:ro":"Drumul de acces spre satul Vasilievca","name:ru":"Подъезд к селу Васильевка"},"8765397":{"ref":"L584","name":"Ștefan Vodă-Ștefănești-Volintiri-Alava","type":"route","route":"road","name:ru":"Штефан Водэ-Штефэнешть-Волинтирь-Алава"},"8765437":{"ref":"L691","name":"Красненькое-Малый Молокиш-Вадатурково-Белочи-Строенцы-М4","type":"route","route":"road","name:md":"Красненкое-Молокишул Мик-Вадул Туркулуй-Белочи-Строиешть-М4","name:ro":"Crasnencoe-Molochișul Mic-Vadul Turcului-Beloci-Stroiești-М4","name:ru":"Красненькое-Молокишул Мик-Вадул Туркулуй-Белоч-Строешть-М4","name:uk":"Красненьке-Малий Молокиш-Вадатурково-Білоч-Строїнці-М4"},"8765463":{"ref":"L692","name":"М4-Большой Молокиш-Гараба","type":"route","route":"road","name:md":"М4-Молокишул Маре-Хараба","name:ro":"М4-Molochișul Mare-Haraba","name:ru":"М4-Большой Молокиш-Гараба","name:uk":"М4-Великий Молокиш-Гараба"},"8765470":{"ref":"L694","name":"М4-подъезд к селу Гидирим","type":"route","route":"road","name:ro":"М4-drumul de acces spre satul Ghidirim","name:ru":"М4-подъезд к селу Гидирим","name:uk":"М4-під'їзд до села Гідірім"},"8765550":{"ref":"L584.1","name":"Drumul de acces spre satul Copceac","type":"route","route":"road","name:ru":"Подъезд к селу Копчак"},"8765593":{"ref":"L585","name":"R30-Talmaza","type":"route","route":"road","name:ru":"R30-Талмаза"},"8765628":{"ref":"L586","name":"R30-drumul de acces spre tabăra de odihnă „Dumbrava”","type":"route","route":"road","name:ru":"R30-подъезд к базе отдыха \\\"Dumbrava\\\""},"8765795":{"ref":"L587","name":"R30-drumul de acces spre satul Cioburciu","type":"route","route":"road","name:ru":"R30-подъезд к селу Чобурчиу"},"8765827":{"ref":"L588","name":"Drumul de acces spre satul Cioburciu","type":"route","route":"road","name:ru":"Подъезд к селу Чобурчиу"},"8765886":{"ref":"L695.1","name":"Подъезд к селу Гершуновка","type":"route","route":"road","name:md":"Друмул де акчес спре сатул Гершуновка","name:ro":"Drumul de acces spre satul Gherșunovca","name:ru":"Подъезд к селу Гершуновка","name:uk":"Під'їзд до села Гершунівка"},"8765888":{"ref":"L589","name":"R30-Viișoara-Purcari","type":"route","route":"road","name:ru":"R30-Виишоара-Пуркарь"},"8765902":{"ref":"L590","name":"R30-drumul de acces spre satul Olănești","type":"route","route":"road","name:ru":"R30-подъезд к селу Олэнешть"},"8765908":{"ref":"L591","name":"R30-Antonești-Carahasani","type":"route","route":"road","name:ru":"R30-Антонешть-Карахасань"},"8765930":{"ref":"L592","name":"R30-drumul de acces spre satul Căplani","type":"route","route":"road","name:ru":"R30-подъезд к селу Кэплань"},"8765943":{"ref":"L593","name":"R30-drumul de acces spre satul Crocmaz","type":"route","route":"road","name:ru":"R30-подъезд к селу Крокмаз"},"8765971":{"ref":"L594","name":"R30-drumul de acces spre orașul Ștefan Vodă","type":"route","route":"road","name:ru":"R30-подъезд к городу Штефан Водэ"},"8765973":{"ref":"L696","name":"G78-Андреевка-Шмалена","type":"route","route":"road","name:md":"G78-Андреевка-Шмалена","name:ro":"G78-Andreevca-Șmalena","name:ru":"G78-Андреевка-Шмалена","name:uk":"G78-Андріївка-Шмалена"},"8765999":{"ref":"L595","name":"R30-Slobozia-Ștefan Vodă","type":"route","route":"road","name:ru":"R30-Слобозия-Штефан Водэ"},"8766006":{"ref":"L697","name":"Рыбница-Малая Ульма","type":"route","route":"road","name:md":"Рыбница-Улмул Мик","name:ro":"Rîbnița-Ulmul Mic","name:ru":"Рыбница-Малая Ульма","name:uk":"Рибниця-Мала Ульма"},"8766012":{"ref":"L595.1","name":"Drumul de acces spre satul Slobozia","type":"route","route":"road","name:ru":"Подъезд к селу Слобозия"},"8766146":{"ref":"L688.1","name":"Drumul de acces spre satul Erjova","type":"route","route":"road","name:ru":"Подъезд к селу Ержово"},"8766155":{"ref":"L693","name":"L674-Большой Молокиш-Вадатурково","type":"route","route":"road","name:md":"L674-Молокишул Маре-Вадул Туркулуй","name:ro":"L674-Molochișul Mare-Vadul Turcului","name:ru":"L674-Большой Молокиш-Вадатурково","name:uk":"L674-Великий Молокиш-Вадатурково"},"8767969":{"ref":"L729","name":"R27-подъезд к селу Коротное","type":"route","route":"road","name:ro":"R27-drumul de acces spre satul Corotna","name:ru":"R27-подъезд к селу Коротное"},"8767998":{"ref":"L698","name":"Воронково-Мокра-Шевченко","type":"route","route":"road","name:md":"Вэрэнкэу-Мокра-Шевченко","name:ro":"Vărăncău-Mocra-Șevcenco","name:ru":"Воронково-Мокра-Шевченко","name:uk":"Воронкове-Мокра-Шевченко"},"8768017":{"ref":"R27","name":"Тирасполь-Незавертайловка-Первомайск","type":"route","route":"road","name:md":"Тираспол-Незавертайловка-Первомайск","name:ro":"Tiraspol-Nezavertailovca-Pervomaisc","name:ru":"Тирасполь-Незавертайловка-Первомайск","name:uk":"Тирасполь-Незавертайлівка-Первомайськ"},"8768045":{"ref":"L698.2","name":"Drumul de acces spre satul Zaporojeț","type":"route","route":"road","name:ro":"Drumul de acces spre satul Zaporojeț","name:ru":"Подъезд к селу Запорожец"},"8768066":{"ref":"L699","name":"М4-подъезд к селу Выхватинцы","type":"route","route":"road","name:ro":"М4-drumul de acces spre satul Ofatinți","name:ru":"М4-подъезд к селу Выхватинцы"},"8768083":{"ref":"L701","name":"М4-Popencu-Zăzuleni-М4","type":"route","route":"road","name:ro":"М4-Popencu-Zăzuleni-М4","name:ru":"М4-Попенку-Зэзулень-М4","name:uk":"М4-Попенки-Зозуляни-М4"},"8768095":{"ref":"L702","name":"М4-подъезд к селу Владимировка","type":"route","route":"road","name:ro":"М4-drumul de acces spre satul Vladimirovca","name:ru":"М4-подъезд к селу Владимировка","name:uk":"М4-під'їзд до села Володимирівка"},"8768116":{"ref":"L623.1","name":"M3-drumul de acces spre municipiul Comrat","type":"route","route":"road","name:ru":"M3-подъезд к муниципию Комрат","old_name":"R23-drumul de acces spre municipiul Comrat","old_name:ru":"R23-подъезд к муниципию Комрат"},"8768140":{"ref":"L703","name":"М4-Жура-Бутучаны-М4","type":"route","route":"road","name:md":"М4-Жура-Бутучень-М4","name:ro":"М4-Jura-Butuceni-М4","name:ru":"М4-Жура-Бутучаны-М4","name:uk":"М4-Жура-Бутучани-М4"},"8768170":{"ref":"L704","name":"М4-подъезд к селу Михайловка","type":"route","route":"road","name:ro":"М4-drumul de acces spre satul Мihailovca","name:ru":"М4-подъезд к селу Михайловка","name:uk":"М4-під'їзд до села Михайлівка"},"8768204":{"ref":"L623.2","name":"R29-drumul de acces spre mun. Comrat","type":"route","route":"road","name:ru":"R29-подъезд к муниципию Комрат"},"8768236":{"ref":"L623.3","name":"R35-drumul de acces spre mun. Comrat","type":"route","route":"road","name:ru":"R35-подъезд к муниципию Комрат"},"8768266":{"ref":"L705","name":"G78-Pervomaisc-Lenin","type":"route","route":"road","name:ro":"G78-Pervomaisc-Lenin","name:ru":"G78-Первомайск-Ленин"},"8768371":{"ref":"L706","name":"М4-Гармацкое-Цыбулёвка-Граница с Украиной","type":"route","route":"road","name:ro":"М4-Harmațca-Țîbuleuca-frontiera cu Ucraina","name:ru":"М4-Гармацкое-Цыбулёвка-Граница с Украиной","name:uk":"М4-Гармацьке-Цибулівка-кордон з Україною"},"8768524":{"ref":"L707.1","name":"Подъезд к селу Дойбаны","type":"route","route":"road","name:ro":"Drumul de acces spre satul Doibani","name:ru":"Подъезд к селу Дойбаны","name:uk":"Під'їзд до села Дойбани"},"8768592":{"ref":"L709","name":"М1-подъезд к городу Дубоссары","type":"route","route":"road","name:md":"М1-друмул де акчес спре орашул Дубэсарь","name:ro":"М1-drumul de acces spre orașul Dubăsari","name:ru":"М1-подъезд к городу Дубоссары","name:uk":"М1-під'їзд до міста Дубоссари"},"8768633":{"ref":"L710","name":"М1-Comisarovca Nouă-Vasilievca","type":"route","route":"road","name:ro":"М1-Comisarovca Nouă-Vasilievca","name:ru":"М1-Комисаровка Ноуэ-Васильевка","name:uk":"М1-Ново-Комісарівка-Василівка"},"8771372":{"ref":"L718","name":"М4-drumul de acces spre satul Mălăiești","type":"route","route":"road","name:ro":"М4-drumul de acces spre satul Mălăiești","name:ru":"М4-подъезд к селу Мэлэешть"},"8771389":{"ref":"L719","name":"М4-Граница с Украиной","type":"route","route":"road","name:ro":"М4-drumul de acces spre frontiera cu Ucraina","name:ru":"М4-Граница с Украиной","name:uk":"М4-кордон з Україною"},"8771417":{"ref":"L720","name":"Гыртоп-Мокряки-Бруслаки","type":"route","route":"road","name:ro":"Hîrtop-Mocreachi-Bruslachi","name:ru":"Гыртоп-Мокряки-Бруслаки","name:uk":"Гиртоп-Мокряки-Бруслаки"},"8774538":{"ref":"L710.1","name":"Подъезд к селу Афанасьевка","type":"route","route":"road","name:ro":"Drumul de acces spre satul Afanasievca","name:ru":"Подъезд к селу Афанасьевка","name:uk":"Під'їзд до села Афанасіївка"},"8774602":{"ref":"L710.2","name":"Drumul de acces spre satul Crasnîi Vinogradari","type":"route","route":"road","name:ro":"Drumul de acces spre satul Crasnîi Vinogradari","name:ru":"Подъезд к селу Красный Виноградарь"},"8774704":{"ref":"L723","name":"М4-Ближний Хутор-Тирасполь","type":"route","route":"road","name:md":"М4-Ближний Хутор-Тираспол","name:ro":"М4-Blijnii Hutor-Tiraspol","name:ru":"М4-Ближний Хутор-Тирасполь","name:uk":"М4-Ближній Хутір-Тирасполь"},"8774705":{"ref":"L711","name":"Новая Лунга-Боска","type":"route","route":"road","name:md":"Лунга Ноуэ-Боска","name:ro":"Lunga Nouă-Bosca","name:ru":"Новая Лунга-Боска","name:uk":"Нова Лунга-Боска"},"8774724":{"ref":"L721.2","name":"Подъезд к селу Новосавицкая","type":"route","route":"road","name:ro":"Drumul de acces spre satul Novosavițcaia","name:ru":"Подъезд к селу Новосавицкая"},"8774761":{"ref":"L722","name":"Тирасполь-граница с Украиной","type":"route","route":"road","name:md":"Тираспол-фронтиера ку Украина","name:ro":"Tiraspol-frontiera cu Ucraina","name:ru":"Тирасполь-граница с Украиной","name:uk":"Тирасполь-кордон з Україною"},"8774797":{"ref":"L726","name":"R27-подъезд к селу Суклея","type":"route","route":"road","name:ro":"R27-drumul de acces spre satul Sucleia","name:ru":"R27-подъезд к селу Суклея","name:uk":"R27-під'їзд до села Суклея"},"8774818":{"ref":"L727","name":"R27-подъезд к селу Чобручи","type":"route","route":"road","name:ro":"R27-drumul de acces spre satul Cioburciu","name:ru":"R27-подъезд к селу Чобручи"},"8774830":{"ref":"L711.1","name":"Подъезд к селу Новая Кошница","type":"route","route":"road","name:ro":"Drumul de acces spre satul Coșnița Nouă","name:ru":"Подъезд к селу Новая Кошница"},"8774837":{"ref":"L712","name":"Подъезд к городу Григориополь","type":"route","route":"road","name:ro":"Drumul de acces spre Grigoriopol","name:ru":"Подъезд к городу Григориополь","name:uk":"Під'їзд до міста Григоріополь"},"8777544":{"ref":"L717","name":"Drumul de acces spre satul Speia","type":"route","route":"road","name:ro":"Drumul de acces spre satul Speia","name:ru":"Подъезд к селу Спея"},"8777558":{"ref":"L716","name":"М4-drumul de acces spre satul Novovladimirovca","type":"route","route":"road","name:ro":"М4-drumul de acces spre satul Novovladimirovca","name:ru":"М4-подъезд к селу Нововладимировка"},"8777603":{"ref":"L715","name":"М4-Виноградное-Красногорка","type":"route","route":"road","highway":"tertiary","name:ro":"М4-Vinogradnoe-Crasnogorca","name:ru":"М4-Виноградное-Красногорка","name:uk":"М4-Виноградне-Красногірка"},"8777648":{"ref":"L714","name":"М4-Butor-India","type":"route","route":"road","name:ro":"М4-Butor-India","name:ru":"М4-Бутор-Индия","name:uk":"М4-Бутор-Індія"},"8777664":{"ref":"L713.1","name":"Drumul de acces spre satul Crasnoe","type":"route","route":"road","name:ro":"Drumul de acces spre satul Crasnoe","name:ru":"Подъезд к селу Красное"},"8777792":{"ref":"L712.2","name":"Drumul de acces spre orașul Maiac","type":"route","route":"road","name:ro":"Drumul de acces spre orașul Maiac","name:ru":"Подъезд к городу Маяк"},"8777808":{"ref":"L712.3","name":"Подъезд к селу Котовка","type":"route","route":"road","name:ro":"Drumul de acces spre satul Cotovca","name:ru":"Подъезд к селу Котовка","name:uk":"Під'їзд до села Котовка"},"9671303":{"name":"G63 - Drum de acces spre mahala Tăbîrțăni (s. Bocani)","type":"route","route":"road"},"9841917":{"ref":"M2","name":"Drumul de centură al mun. Chișinău","note":"https://wiki.openstreetmap.org/wiki/Moldova_roads","type":"route","route":"road","network":"md:national"},"9996546":{"to":"G21","ref":"L55","from":"G21","name":"Drumul de ocolire a satului Terebna","type":"route","route":"road"},"10014627":{"to":"G57","ref":"G25","from":"G58","name":"G58-Cobani-Hîjdieni-Glodeni-G57","type":"route","route":"road","network":"md:regional"},"10014674":{"to":"G72","from":"R6","name":"R6-Peresecina-Hîrtopul Mare-Cruglic-G72","type":"route","route":"road","network":"md:regional"},"10570422":{"to":"R34","ref":"M34.3","from":"M3","name":"M3–drum de acces spre s. Slobozia Mare","type":"route","route":"road"},"10570438":{"to":"Vulcănești","ref":"R32.1","from":"R32","name":"Drumul de acces spre orașul Vulcănești","type":"route","route":"road"},"10626946":{"to":"Dudulești","ref":"L619.1","from":"R35","name":"Drum de acces spre satul Duduleşti","type":"route","route":"road","network":"MD:local"},"10627016":{"to":"R7","ref":"G23.1","from":"Zăicani","name":"Zăicani–R7","type":"route","route":"road","network":"md:regional"},"10627126":{"to":"Zona de odihnă din Holercani","ref":"G68.1","from":"G68","name":"G68-Ustia–zona de odihnă din Holercani","type":"route","route":"road","name:ru":"G68- Устия-Зона отдыха в Холерканах","network":"MD:regional"},"10627127":{"ref":"G68.2","name":"Ustia–acces spre hidrocentrală","type":"route","route":"road","name:ru":"Устия - подъезд к ГЭС"},"11280989":{"to":"frontiera cu Ucraina","ref":"L13","from":"R11","name":"R11 – Clocuşna – frontiera cu Ucraina","type":"route","route":"road","name:ru":"R11 – Клокушна – граница с Украиной","name:uk":"R11 – Clocuşna – frontiera cu Ucraina","network":"md:local"},"11344421":{"ref":"С-162306","name":"Автошлях С-162306","type":"route","route":"road","loc_ref":"С-162306","name:uk":"Автошлях С-162306","network":"ua:local","distance":"13.2","description":"кордон Молдови – Ганнівка – Слобідка"},"11346563":{"to":"Міняйлівка","ref":"С-162301","from":"Т-16-44","name":"Автошлях С-162301","type":"route","route":"road","loc_ref":"С-162301","name:uk":"Автошлях С-162301","network":"ua:local","distance":"17.8","description":"Т-16-44 – Олександрівка – Міняйлівка"},"11346727":{"to":"Червоне","ref":"С-162304","from":"С-162307","name":"Автошлях С-162304","type":"route","route":"road","loc_ref":"С-162304","name:uk":"Автошлях С-162304","network":"ua:local","distance":"2.4","description":"Під'їзд до с. Червоне"},"11378294":{"to":"Р-72","ref":"С-160413","from":"Удобне","name":"Автошлях С-160413","type":"route","route":"road","loc_ref":"С-160413","name:uk":"Автошлях С-160413","network":"ua:local","distance":"5.5","description":"Удобне – Казацьке – Р-72"},"11648807":{"to":"municipiul Comrat","ref":"L623","from":"R28","name":"R28 – drumul de acces spre municipiul Comrat","type":"route","route":"road","name:ru":"R28 – подъездная дорога к муниципию Комрат","network":"MD:GA:L"},"11648940":{"to":"Comrat","from":"M3","name":"M3 – Comrat","type":"route","route":"road","name:ru":"M3 – Комрат","network":"md:national","name:gag":"M3 – Komrat","name:gag-cyr":"M3 – Комрат"},"11649290":{"to":"orașul Ungheni","ref":"L389","from":"R1.1","name":"R1.1 - drumul de acces spre orașul Ungheni","type":"route","route":"road","network":"MD:UN:L"},"12028872":{"to":"Soroca","ref":"L109","from":"R14","name":"R14 - drumul de acces spre orașul Soroca","type":"route","route":"road"},"12172209":{"ref":"L664","name":"R32 - Drumul de acces spre orașul Cahul","type":"route","route":"road","name:ru":"R32 - Подъездная дорога к городу Кагул"},"12172305":{"ref":"L659","name":"R34 - drumul de acces spre orașul Cahul","type":"route","route":"road"},"12172334":{"ref":"L660","name":"R34 - drumul de acces spre orașul Cahul","type":"route","route":"road"},"12206765":{"to":"frontiera cu Ucraina","ref":"G77","from":"Camenca","name":"Camenca – Cuzmin – Hrușca – frontiera cu Ucraina","type":"route","route":"road","network":"md:regional"},"13381952":{"name":"G102   R34-Stoianovca-Sărățica Nouă-Troian-R34","type":"route","route":"road","network":"md:regional"},"13525797":{"ref":"L493","name":"R3-Buțeni-Molești","type":"route","route":"road","network":"md:local"},"14359017":{"ref":"R14.3","name":"Drum de acces la podul Cosăuți – Yampil","type":"route","route":"road","name:ru":"Подъезд к мосту Косэуць - Ямполь","network":"md:national"}}