{"2309481":{"to":"Bogorodica","ref":"А1","from":"Tabanovce","name":"Автопат А1","type":"route","route":"road","source":"http://www.slvesnik.com.mk/Issues/B22010B153B90043AC591E126031B472.pdf","name:bg":"Автомагистрала А1","name:de":"Autobahn Freundschaft","name:el":"Αυτοκινητόδρομος Α1","name:en":"A1 motorway","name:fr":"Autoroute de l’amitié","name:hu":"A1-es autópálya","name:it":"Autostrada A1","name:mk":"Автопат А1","network":"mk:national","old_ref":"M1","wikidata":"Q606601","wikipedia":"en:A1 motorway (North Macedonia)","wikipedia:mk":"Автопат А1 (Македонија)"},"2333624":{"ref":"E 65","name":"European route E 65 (North Macedonia)","type":"route","route":"road","name:cs":"Evropská silnice E65 (Makedonie)","name:en":"European route E 65 (North Macedonia)","name:mk":"Е65 (Македонија)","name:nl":"Europese route E65 (Noord-Macedonië)","name:pl":"Trasa europejska E65 (Macedonia Północna)","name:sk":"Európska cesta E 65 (Macedónia)","network":"e-road","wikipedia":"en:European route E65"},"2401407":{"to":"Delčevo","ref":"A3","from":"Тrebenišта","name":"Автопат А3","type":"route","route":"road","colour":"#FFEEDD","name:en":"A3 Motorway","name:mk":"Автопат А3","network":"mk:national","old_ref":"M5"},"2401887":{"ref":"E 75","name":"Е75 (Македонија)","type":"route","route":"road","name:en":"European route E 75 (North Macedonia)","name:mk":"Е75 (Македонија)","name:nl":"Europese route E75 (Noord-Macedonië)","name:sk":"Európska cesta E 75 (Severné Macedónsko)","network":"e-road","wikidata":"Q638912","wikipedia":"en:European route E75"},"2402013":{"to":"GP Novo Selo","ref":"A4","from":"GP Blace","name":"Автопат А4","type":"route","route":"road","name:en":"A4 Motorway","name:mk":"Автопат А4","network":"mk:national"},"2406749":{"to":"Nikushtak","ref":"R2133","from":"Kumanovo","name":"R2133","type":"route","route":"road","network":"mk:national","wikidata":"Q104812795"},"2409518":{"to":"Govrlevo","ref":"R2134","from":"Drachevo","name":"R2134","type":"route","route":"road","network":"mk:national","wikidata":"Q104812835"},"2410835":{"to":"Prilep","ref":"B1","from":"Gradsko","name":"Експресен пат Б1","type":"route","route":"road","name:en":"B1 Expressway","name:mk":"Експресен пат Б1","network":"mk:national","old_ref":"R106","description":"Gradsko (connection withA1) - Prilep connection with A3"},"2413766":{"to":"Katlanovo","ref":"R2131","from":"Drachevo","name":"R2131","type":"route","route":"road","network":"mk:national","wikidata":"Q104812772"},"2417120":{"to":"Marvinci","ref":"R1401","from":"Strumica","name":"R1401","type":"route","route":"road","network":"mk:national","wikidata":"Q104786730"},"2419345":{"to":"Demir Kapija","ref":"R2137","from":"Vojshanci","name":"R2137","type":"route","route":"road","network":"mk:national","wikidata":"Q104820883"},"2421927":{"to":"Granica so Srbija","ref":"R2244","from":"Zhegljane","name":"R2244","type":"route","route":"road","network":"mk:national","wikidata":"Q104904321"},"2422068":{"to":"Nerav","ref":"Р2248","from":"Rankovce","name":"Р2248","type":"route","route":"road","network":"mk:national","wikidata":"Q104904422"},"2422336":{"to":"Ogut - Granica so Srbija","ref":"R2245","from":"Kriva Palanka","name":"R2245","type":"route","route":"road","network":"mk:national","wikidata":"Q104904327"},"2423723":{"to":"Krupishte","ref":"R1205","from":"Stracin","name":"R1205","type":"route","route":"road","network":"mk:national","wikidata":"Q104634383"},"2424273":{"to":"Sekulica","ref":"R2247","from":"Pavleshinci","name":"R2247","type":"route","route":"road","network":"mk:national","wikidata":"Q104904332"},"2424300":{"to":"Neokazi","ref":"R2236","from":"Sveti Nikole","name":"R2236","type":"route","route":"road","network":"mk:national","wikidata":"Q104867278"},"2425427":{"to":"Hidroakumilacija Zletovica","ref":"R2232","from":"Buchiste","name":"R2232","type":"route","route":"road","network":"mk:national","wikidata":"Q104820894"},"2435036":{"to":"Tanushevci","ref":"R2239","from":"Stenkovec","name":"R2239","type":"route","route":"road","network":"mk:national","wikidata":"Q104867604"},"2443227":{"ref":"R1202","from":"Mavrovi Anovi","name":"R1202","type":"route","route":"road","network":"mk:regional","old_ref":"R409","wikidata":"Q104622042"},"2443383":{"to":"Burinec","ref":"R2243","from":"Struga","name":"R2243","type":"route","route":"road","network":"mk:national","wikidata":"Q104904313"},"2445440":{"to":"Probishtip","ref":"R1309","from":"Zrnovci","name":"R1309","type":"route","route":"road","network":"mk:national","wikidata":"Q104767234"},"2458064":{"to":"Bunec","ref":"R2235","from":"Mavrovi Anovi","name":"R2235","type":"route","route":"road","network":"mk:national","wikidata":"Q104867272"},"2458921":{"to":"Granica so Albanija - GP Lakavica","ref":"R2241","from":"Globochica","name":"R2241","type":"route","route":"road","network":"mk:national","wikidata":"Q104867614"},"2461631":{"to":"Granica so Albanija GP Stenje","ref":"R1307","from":"Resen","name":"R1307","type":"route","route":"road","network":"mk:national","wikidata":"Q94390332"},"2461653":{"to":"Sv.Naum","ref":"R1301","from":"Ohrid","name":"R1301","type":"route","route":"road","network":"mk:national","old_ref":"R501","wikidata":"Q104682589"},"2461656":{"to":"Trpejca","ref":"R2332","from":"Carina","name":"R2332","type":"route","route":"road","network":"mk:national","wikidata":"Q94572579"},"2463792":{"to":"Staravina","ref":"R1311","from":"Bitola","name":"R1311","type":"route","route":"road","network":"mk:national","wikidata":"Q104777099"},"2472488":{"to":"Struga","ref":"A2","from":"Kriva Palanka","name":"Автопат А2","type":"route","route":"road","name:en":"A2 Motorway","name:mk":"Автопат А2","network":"mk:national"},"2519845":{"to":"Dabile","ref":"R1302","from":"Delchevo","name":"R1302","type":"route","route":"road","network":"mk:national","wikidata":"Q104682822"},"2521053":{"to":"Smojmirovo","ref":"R1304","from":"Prevalec","name":"R1304","type":"route","route":"road","network":"mk:national","wikidata":"Q104701212"},"2522793":{"to":"Granica so Bugarija GP Klepalo","ref":"R1310","from":"Radovish","name":"R1310","type":"route","route":"road","network":"mk:national","wikidata":"Q104767241"},"2524847":{"to":"Novo Konjarevo","ref":"R1402","from":"Kuklish","name":"R1402","type":"route","route":"road","network":"mk:national","wikidata":"Q104786788"},"2525829":{"to":"Kalugjerec","ref":"R2132","from":"Most Blizansko","name":"R2132","type":"route","route":"road","network":"mk:national","wikidata":"Q104812786"},"2526687":{"to":"Orashac","ref":"R2136","from":"Rzhanichino","name":"R2136","type":"route","route":"road","network":"mk:national","wikidata":"Q104820882"},"2526755":{"to":"Sveti Nikole","ref":"R2135","from":"Gorno Konjare","name":"R2135","type":"route","route":"road","network":"mk:national","wikidata":"Q104812848"},"2529611":{"to":"Lazaropole","ref":"R2238","from":"Mavrovo","name":"R2238","type":"route","route":"road","wikidata":"Q104867582"},"2532361":{"to":"Oktisi","ref":"R2240","from":"Vevchani","name":"R2240","type":"route","route":"road","network":"mk:national","wikidata":"Q104867610"},"4040817":{"to":"Gorno Nerezi","ref":"R2138","from":"Sonchev Grad","name":"R2138","type":"route","route":"road","network":"mk:national","wikidata":"Q104820885"},"5949461":{"to":"Medžitlija-Border with Greece","ref":"B3","from":"Bitola- crosroad Kukurechani","name":"Експресен пат Б3","type":"route","route":"road","name:en":"B3 Expressway","name:mk":"Експресен пат Б3","network":"mk:national"},"11249214":{"ref":"SK-04","name":"8. Септември","type":"route","route":"road","name:en":"8 Septemvri","network":"mk:local"},"11271669":{"ref":"SK-05","name":"Градски пат 5","type":"route","route":"road","name:en":"City road 5","network":"mk:local"},"11271727":{"ref":"SK-06","name":"АСНОМ","type":"route","route":"road","name:en":"ASNOM","network":"mk:local"},"12812299":{"to":"Demir Kapija","ref":"R29178","from":"Davidovo","name":"R29178","type":"route","route":"road","network":"mk:national","wikidata":"Q105966821"},"12848600":{"to":"Mogorce","name":"R29280","type":"route","route":"road","network":"mk:national","wikidata":"Q107232996"},"12966276":{"to":"vrska so R1205","ref":"R29281","from":"Rankovci","name":"R29281","type":"route","route":"road","network":"mk:national","wikidata":"Q107232999"},"12969907":{"to":"Kurbinivo/Slivnica","ref":"R29376","from":"vrska so R1308","name":"R29376","type":"route","route":"road","network":"mk:national","wikidata":"Q107542870"},"17368653":{"ref":"E 852","name":"Е852 (Македонија)","type":"route","route":"road","name:en":"European route E852 (Macedonia)","name:mk":"Е852 (Македонија)","network":"e-road","wikidata":"Q2041537","wikipedia":"en:European route E852"},"17467213":{"name":"O2018","type":"route","route":"road","network":"mk:local"}}