{"6134836":{"name":"الطريق السريع عبر أفريقيا 1 (موريتانيا)","type":"route","route":"road","int_ref":"TAH 1","name:ar":"الطريق السريع عبر أفريقيا 1 (موريتانيا)","name:en":"Trans-African Highway 1 (Mauritania)","name:fr":"Route transafricaine 1 (Mauritanie)","int_name":"TAH 1-MR","wikidata":"Q1506411","int_ref:ar":"ط س 1"},"6651734":{"to":"النعمة","ref":"RN3","from":"نواكشوط","name":"طريق الأمل","type":"route","route":"road","ref:ar":"ط و 3","ref:es":"RN3","name:ar":"طريق الأمل","name:de":"Tariq al-Amal","name:en":"Tariq al-Amal","name:es":"Ruta de la Esperanza","name:fr":"Route de l’Espoir","wikidata":"Q2169407"},"6682326":{"to":"Rosso","ref":"RN2","name":"المسار الإمبراطوري","type":"route","route":"road","name:ar":"المسار الإمبراطوري","name:fr":"Piste Impériale"},"6682327":{"ref":"RN3","name":"طريق الأمل","type":"route","route":"road","ref:ar":"ط و 3","ref:es":"RN3","name:ar":"طريق الأمل","name:de":"Tariq al-Amal","name:en":"Tariq al-Amal","name:es":"Ruta de la Esperanza","name:fr":"Route de l’Espoir","wikidata":"Q2169407"},"6682328":{"ref":"RN1","name":"طريق وطني 1","type":"route","route":"road","ref:ar":"ط و 1","name:ar":"طريق وطني 1","name:fr":"Route nationale 1","operator":"الجمهورية الإسلامية الموريتانية"},"6759223":{"to":"ouadane","name":"Piste de Ouadane","type":"route","route":"road","highway":"tertiary"},"6761832":{"to":"Chinguitti","name":"الطريق في شنقيط","type":"route","route":"road","highway":"tertiary","name:ar":"الطريق في شنقيط","name:fr":"Route vers Chinguetti"},"6772721":{"name":"الطريق إلى اوجفت","type":"route","route":"road","highway":"tertiary","name:ar":"الطريق إلى اوجفت","name:fr":"Route vers Aoujeft"},"6772778":{"to":"Mhaïreth","name":"طريق أمحيرث","type":"route","route":"road","highway":"unclassified","name:ar":"طريق أمحيرث","name:fr":"Route vers Mhaïreth"}}