{"2130832":{"ref":"E8","name":"Lebuhraya Kuala Lumpur–Karak","type":"route","route":"road","int_ref":"AH141","name:en":"Kuala Lumpur–Karak Expressway","name:ms":"Lebuhraya Kuala Lumpur–Karak","name:ur":"کوالا لمپور-کاراک ایکسپریس وے","name:zh":"吉隆坡－加叻大道","wikidata":"Q6441036","wikipedia":"en:Kuala Lumpur–Karak Expressway"},"2832297":{"name":"Relation","type":"route","route":"road"},"3947280":{"ref":"50","name":"Jalan Batu Pahat - Ayer Hitam - Jemaluang","type":"route","route":"road","network":"my:federal","distance":"135.38","wikipedia":"en:Malaysia Federal Route 50"},"3947281":{"ref":"173","name":"Jalan Besar","type":"route","route":"road","network":"my:federal","distance":"2.87","wikipedia":"en:Malaysia Federal Route 173"},"3947282":{"ref":"90","name":"Jalan Desaru","type":"route","route":"road","network":"my:federal","distance":"9.22","wikipedia":"en:Malaysia Federal Route 90"},"3947283":{"ref":"3","name":"Jalan Johor Bharu-Pintas Kuantan-Kuala Terengganu-Pasir Mas","type":"route","route":"road","network":"my:federal","distance":"739.06","wikipedia":"en:Malaysia Federal Route 3"},"3947284":{"ref":"91","name":"Jalan Kota Tinggi-Kluang","type":"route","route":"road","network":"my:federal","distance":"81.60","wikipedia":"en:Malaysia Federal Route 91"},"3947285":{"ref":"94","name":"Jalan Kota Tinggi-Kulai","type":"route","route":"road","source":"https://openstreetcam.org/details/2732626/918","network":"my:federal","distance":"36.01","wikipedia":"en:Malaysia Federal Route 94"},"3947286":{"ref":"92","name":"Jalan Kota Tinggi-Sungei Rengit","type":"route","route":"road","network":"my:federal","distance":"66.80","wikipedia":"en:Malaysia Federal Route 92"},"3947287":{"ref":"99","name":"Jalan Lok Heng","type":"route","route":"road","network":"my:federal","distance":"39.63","wikipedia":"en:Malaysia Federal Route 99"},"3947288":{"ref":"93","name":"Jalan Sungei Sayong","type":"route","route":"road","network":"my:federal","distance":"14.32","wikipedia":"en:Malaysia Federal Route 93"},"3947289":{"ref":"89","name":"Jalan Tanjung Belungkor","type":"route","route":"road","network":"my:federal","distance":"16.93","wikipedia":"en:Malaysia Federal Route 89"},"4452807":{"ref":"1","name":"Laluan Persekutuan 1","note":"Kedah","type":"route","route":"road"},"4452899":{"ref":"1","name":"Laluan Persekutuan 1","note":"Penang","type":"route","route":"road","name:en":"Federal Route 1","name:zh":"联邦公路1号","wikipedia":"en:Malaysia Federal Route 1"},"4452907":{"ref":"1","name":"Laluan Persekutuan 1","note":"Jambatan Merdeka Kedah - Penang border","type":"route","route":"road"},"4486664":{"to":"Nilai North","ref":"E6","from":"Shah Alam","name":"North–South Expressway Central Link","type":"route","route":"road","name:en":"North–South Expressway Central Link","name:ms":"Lebuhraya Utara–Selatan Hubungan Tengah","name:zh":"南北大道第二中环衔接大道","network":"MY:E","operator":"PLUS Expressways","wikidata":"Q7060519","wikipedia":"en:North–South Expressway Central Link","description":"Asian Highway 2 subrelation: E6 ELITE, Malaysia","operator:wikidata":"Q4384792"},"4489197":{"ref":"E3","name":"Lebuhraya Hubungan Kedua","type":"route","route":"road","name:en":"Second Link Expressway","name:zh":"第二通道高速公路","network":"MY:E","wikidata":"Q17055632","wikipedia":"en:Second Link Expressway","description":"Asian Highway 2 subrelation: E3 Linkedua, Johor, Malaysia"},"4624582":{"ref":"E15","name":"Lebuhraya Butterworth – Kulim","type":"route","route":"road","name:en":"Butterworth – Kulim Expressway","name:zh":"北海居林大道","wikidata":"Q5003048","wikipedia":"en:Butterworth–Kulim Expressway","short_name":"BKE"},"4761795":{"ref":"E36","name":"Jambatan Pulau Pinang (arah timur)","type":"route","route":"road","name:en":"Penang Bridge (eastbound)","name:ms":"Jambatan Pulau Pinang (arah timur)","name:zh":"槟威大桥（东向）","network":"MY:E","distance":"13.5","operator":"PLUS Expressways","wikidata":"Q1155649","wikipedia":"en:Penang Bridge"},"4761796":{"ref":"E36","name":"Jambatan Pulau Pinang (arah barat)","type":"route","route":"road","name:en":"Penang Bridge (westbound)","name:ms":"Jambatan Pulau Pinang (arah barat)","name:zh":"槟威大桥（西向）","network":"MY:E","distance":"13.5","operator":"PLUS Expressways","wikipedia":"en:Penang Bridge"},"4764486":{"ref":"6","name":"Laluan Persekutuan 6 (lawan pusingan jam)","type":"route","route":"road","name:en":"Federal Route 6 (anticlockwise)","name:ms":"Laluan Persekutuan 6 (lawan pusingan jam)","name:zh":"联邦路线6（逆时针）","network":"MY:Federal","distance":"62.3","wikipedia":"en:Malaysia Federal Route 6"},"4764487":{"ref":"6","name":"Laluan Persekutuan 6 (ikut pusingan jam)","type":"route","route":"road","name:en":"Federal Route 6 (clockwise)","name:ms":"Laluan Persekutuan 6 (ikut pusingan jam)","name:zh":"联邦路线6（顺时针）","network":"MY:Federal","distance":"62.3","wikipedia":"en:Malaysia Federal Route 6"},"5219654":{"ref":"2","name":"Lebuhraya Persekutuan","type":"route","route":"road","name:zh":"联邦大道","operator":"Projek Lebuhraya Utara Selatan Berhad"},"5288245":{"name":"Asian Highway AH150","note":"From Telok Melano to Lahad Datu","type":"route","route":"road","int_ref":"AH150","name:de":"Asien Fernstraße AH150","name:en":"Asian Highway AH150","name:fr":"Route asiatique AH150","name:id":"Jalan Asia AH150","name:ja":"アジアハイウェイ150号線","name:ko":"아시안 하이웨이 150호선","name:ms":"Lebuhraya Asia AH150","name:ru":"Азиатский маршрут AH150","name:vi":"Đường Xuyên Á AH150","name:zh":"亚洲公路150号线","network":"AsianHighway","alt_name":"Pan-Borneo Highway","wikidata":"Q4202293","wikipedia":"en:Pan-Borneo Highway"},"5288246":{"ref":"1","name":"Laluan persekutuan 1 (Sabah & Sarawak) (arah timur)","type":"route","route":"road","name:en":"Federal route 1 (Sabah & Sarawak) (eastbound)","name:ms":"Laluan persekutuan 1 (Sabah & Sarawak) (arah timur)","name:zh":"联邦1号公路（沙巴和砂拉越）（东向）","network":"my:federal"},"5288247":{"ref":"1","name":"Laluan persekutuan 1 (Sabah & Sarawak) (arah barat)","type":"route","route":"road","name:en":"Federal route 1 (Sabah & Sarawak) (westbound)","name:ms":"Laluan persekutuan 1 (Sabah & Sarawak) (arah barat)","name:zh":"联邦1号公路（沙巴和砂拉越）（西向）","network":"my:federal","wikipedia":"en:Malaysia Federal"},"5341627":{"ref":"801","name":"Laluan Persekutuan 801 (arah timur laut)","role":"northeast","type":"route","route":"road","name:en":"Federal Route 801 (northeast-bound)","name:ms":"Laluan Persekutuan 801 (arah timur laut)","name:zh":"联邦路线801（东北向）","network":"MY:Federal","alt_name":"Kuching Bypass","wikipedia":"en:Kuching Bypass"},"5341628":{"ref":"801","name":"Laluan Persekutuan 801 (arah barat daya)","role":"southwest","type":"route","route":"road","name:en":"Federal Route 801 (southwest-bound)","name:ms":"Laluan Persekutuan 801 (arah barat daya)","name:zh":"联邦路线801（西南向）","network":"MY:Federal","alt_name":"Kuching Bypass","wikipedia":"en:Kuching Bypass"},"5421266":{"ref":"22","name":"Laluan Persekutuan 22 (arah timur)","role":"east","type":"route","route":"road","name:en":"Federal Route 22 (eastbound)","name:ms":"Laluan Persekutuan 22 (arah timur)","name:zh":"联邦路线22（东向）","network":"my:federal","wikipedia":"en:Malaysia Federal Route 22"},"5453932":{"ref":"3113","name":"Laluan Persekutuan 3113 (arah utara)","type":"route","route":"road","name:en":"Federal Route 3113 (northbound)","name:ms":"Laluan Persekutuan 3113 (arah utara)","name:zh":"联邦路线3113（北向）","network":"my:federal","distance":"17.8","wikipedia":"en:Malaysia Federal Route 3113"},"5453933":{"ref":"3113","name":"Laluan Persekutuan 3113 (arah selatan)","type":"route","route":"road","name:en":"Federal Route 3113 (southbound)","name:ms":"Laluan Persekutuan 3113 (arah selatan)","name:zh":"联邦路线3113（南向）","network":"my:federal","distance":"17.8","wikipedia":"en:Malaysia Federal Route 3113"},"5473481":{"name":"Bulatan Wan Jah","type":"route","route":"road","junction":"roundabout"},"5900509":{"to":"Kuala Lumpur","ref":"E12","from":"Ampang","name":"Lebuhraya Bertingkat Ampang - Kuala Lumpur","type":"route","route":"road","name:en":"Ampang - Kuala Lumpur Elevated Highway","network":"MY:E","operator":"Projek Lintasan Kota Holdings Sdn Bhd","wikidata":"Q4748046","wikipedia":"en:Ampang–Kuala Lumpur Elevated Highway","short_name":"AKLEH"},"5989433":{"name":"Federal Route 1","type":"route","route":"road"},"5989434":{"name":"Federal Route 1 (eastbound)","type":"route","route":"road"},"5989435":{"name":"Federal Route 1 (westbound)","type":"route","route":"road"},"6000670":{"ref":"SA51","name":"Jalan Tawau Semporna","type":"route","route":"road","name:en":"Tawau-Semporna Road"},"6110277":{"ref":"28","name":"Jalan Lingkaran Tengah 2","type":"route","route":"road","highway":"trunk","name:en":"Middle Ring Road 2","short_name":"JLT II;MRR II;JLT 2;MRR 2"},"6125332":{"ref":"E1","name":"Lebuhraya Baru Lembah Klang","type":"route","route":"road","name:en":"New Klang Valley Expressway","name:zh":"新巴生河流域大道","network":"MY:E","website":"https://www.plus.com.my/index.php","alt_name":"NKVE","operator":"PLUS Malaysia Berhad","wikidata":"Q12695764","wikipedia":"en:New Klang Valley Expressway","short_name":"NKVE"},"6259966":{"ref":"E18","name":"Lebuhraya Lingkaran Penyuraian Trafik Kajang","type":"route","route":"road","name:en":"Kajang Dispersal Link Expressway","network":"MY:E","website":"http://www.silk.my/KajangSilk/","alt_name":"SILK","operator":"SILK Holdings Bhd","wikidata":"Q6348879","wikipedia":"en:Kajang Dispersal Link Expressway","short_name":"SILK"},"6413474":{"ref":"194","name":"Jalan Kuala Perlis – Changlun","type":"route","route":"road","alt_name":"Lebuhraya Changlun – Kuala Perlis"},"6618276":{"ref":"E9","name":"Lebuhraya Sungai Besi","type":"route","route":"road","name:en":"Sungai Besi Expressway","name:ms":"Lebuhraya Sungai Besi","network":"MY:E","alt_name":"Besraya","wikidata":"Q7640130","wikipedia":"en:Sungai Besi Expressway","short_name":"Besraya"},"6640537":{"name":"Bulatan Batu Caves","type":"route","route":"road","junction":"roundabout"},"6715347":{"name":"Asian Highway AH141","type":"route","route":"road","int_ref":"AH141","name:ru":"Азиатский маршрут AH141","network":"AsianHighway","wikidata":"Q16936996","wikipedia":"en:AH141"},"7102771":{"ref":"K351","name":"Jalan Padang Hang","type":"route","route":"road"},"7231840":{"ref":"E32","name":"Lebuhraya Pesisiran Pantai Barat","type":"route","route":"road","name:en":"West Coast Expressway","name:ms":"Lebuhraya Pesisiran Pantai Barat","name:zh":"西海岸大道","network":"MY:E","wikidata":"Q7984791","wikipedia":"en:West Coast Expressway","short_name":"WCE"},"8397397":{"ref":"E14","name":"Lebuhraya Skim Penyuraian Trafik Johor Bahru Timur","type":"route","route":"road","highway":"motorway","name:en":"Johor Bahru Eastern Dispersal Link Expressway","name:zh":"新山东部疏散大道","wikidata":"Q6268878","wikipedia":"en:Johor Bahru Eastern Dispersal Link Expressway"},"9324953":{"to":"Kuala Nerus","ref":"E8","from":"Karak","name":"Lebuhraya Pantai Timur","type":"route","route":"road","int_ref":"AH141","name:en":"East Coast Expressway","name:zh":"东海岸大道","wikidata":"Q2945410","wikipedia":"en:East Coast Expressway"},"9334821":{"to":"Sungai Dua","ref":"E17","from":"Perai","name":"Lebuhraya Lingkaran Luar Butterworth","type":"route","route":"road","name:en":"Butterworth Outer Ring Road","name:zh":"北海外环公路","wikidata":"Q5003043","wikipedia":"en:Butterworth Outer Ring Road"},"10043049":{"ref":"E2","name":"North–South Expressway Southern Route","type":"route","route":"road","network":"MY:E","wikidata":"Q7060522","wikipedia":"en:North–South Expressway southern route"},"10043392":{"ref":"E22","name":"Senai Desaru Expressway","type":"route","route":"road","name:ms":"Lebuhraya Senai-Desaru","name:zh":"士乃－迪沙鲁大道","wikidata":"Q14475770","wikipedia":"en:Senai–Desaru Expressway"},"10043449":{"ref":"76","name":"Jalan Kuala Kangsar - Grik - Pengkalan Hulu","type":"route","route":"road","name:en":"Jalan Kuala Kangsar - Grik - Pengkalan Hulu","wikidata":"Q17053365","wikipedia":"en:Malaysia Federal Route 76","source:name":"JKR"},"10788725":{"ref":"E35","name":"Lebuhraya Koridor Guthrie","type":"route","route":"road","name:en":"Guthrie Corridor Expressway","network":"MY:E","alt_name":"GCE","wikidata":"Q5621769","wikipedia":"en:Guthrie Corridor Expressway","short_name":"GCE"},"11038840":{"ref":"31","name":"Jalan Banting - Semenyih","type":"route","route":"road","wikipedia":"en:Jalan Banting–Semenyih","source:name":"https://openstreetcam.org/details/2127086/8919/track-info; https://openstreetcam.org/details/1947921/2059/track-info"},"11108241":{"ref":"59","name":"Jalan Tapah - Cameron Highlands","type":"route","route":"road","source:name":"https://openstreetcam.org/details/2224786/3858/track-info"},"11129286":{"ref":"Q26","name":"Jalan Matading - Selangau","type":"route","route":"road","source:ref":"https://openstreetcam.org/details/2261998/2277/track-info","source:name":"https://openstreetcam.org/details/2261998/2277/track-info"},"11129346":{"ref":"Q2026","name":"Jalan Mukah - Balingian","type":"route","route":"road","short_name":"Jln Mukah - Balingian","source:name":"https://openstreetcam.org/details/2255402/1522/track-info"},"11153003":{"to":"Tawau","ref":"13","from":"Sandakan","name":"Malaysia Federal Route 13 (Sabah)","type":"route","route":"road","old_ref":"A5","wikidata":"Q6741752","wikipedia":"en:Malaysia Federal Route 13 (Sabah)","source:ref":"https://openstreetcam.org/details/2243242/3/track-info"},"12109589":{"to":"Seremban","ref":"E21","from":"Kajang","name":"Lebuhraya Kajang-Seremban","type":"route","route":"road","name:en":"Kajang–Seremban Highway","name:zh":"加影－芙蓉大道","network":"MY:E","wikidata":"Q6348895","wikipedia":"en:Kajang–Seremban Highway","short_name":"LEKAS"},"12852943":{"ref":"255","name":"Lebuhraya Sultanah Bahiyah","type":"route","route":"road","alt_name":"Jalan Sultanah Bahiyah","wikidata":"Q488597","name:ms-Arab":"لبوهراي صلطانه بهيه"},"13023718":{"to":"Jerteh","ref":"189","from":"Bachok","name":"Jalan Persekutuan 189","type":"route","route":"road","wikidata":"Q6741774","wikipedia":"en:Malaysia Federal Route 189"},"15402337":{"to":"Bestari Jaya","ref":"B33","from":"Kuala Selangor","name":"Selangor State Highway B33","type":"route","route":"road","wikidata":"Q6126294"},"15660982":{"to":"Hat Yai","ref":"AH18","url":"http://wiki.openstreetmap.org/wiki/Asia/Asian_Highway_Network","from":"Su-Ngai Kolok - Thailand-Malaysia Border","name":"Asian Highway AH18","note":"Thai part","type":"route","route":"road","int_ref":"AH18","name:de":"Asiatische Fernstraße 18","name:en":"Asian Highway AH18","name:ms":"Lebuhraya Asia AH18","name:ru":"Азиатский маршрут AH18","name:th":"ทางหลวงเอเชียสาย 18","name:zh":"亚洲高速公路 AH18","network":"AsianHighway","wikidata":"Q3524847","wikipedia":"en:AH18"},"15661821":{"to":"Hat Yai","ref":"AH18","url":"http://wiki.openstreetmap.org/wiki/Asia/Asian_Highway_Network","from":"Johor Bahru - Rantau Panjang","name":"Asian Highway AH18","note":"Malaysian part Nortbound, from Johor Bahru to border of Thailand","type":"route","route":"road","int_ref":"AH18","name:de":"Asiatische Fernstraße 18","name:en":"Asian Highway AH18","name:ms":"Lebuhraya Asia AH18","name:ru":"Азиатский маршрут AH18","name:th":"ทางหลวงเอเชียสาย 18","name:zh":"亚洲高速公路 AH18","network":"AsianHighway","wikidata":"Q3524847","wikipedia":"en:AH18","description":"Rantau Panjang (Border of Thailand) - Kota Bharu - Kuala Terengganu - Kuantan - Kota Tinggi - Johor Bahru"},"15661822":{"to":"Hat Yai","ref":"AH18","url":"http://wiki.openstreetmap.org/wiki/Asia/Asian_Highway_Network","from":"Rantau Panjang - Johor Bahru","name":"Asian Highway AH18","note":"Malaysian part Southbound, from Border of Thailand to Johor Bahru","type":"route","route":"road","int_ref":"AH18","name:de":"Asiatische Fernstraße 18","name:en":"Asian Highway AH18","name:ms":"Lebuhraya Asia AH18","name:ru":"Азиатский маршрут AH18","name:th":"ทางหลวงเอเชียสาย 18","name:zh":"亚洲高速公路 AH18","network":"AsianHighway","wikidata":"Q3524847","wikipedia":"en:AH18","description":"Rantau Panjang (Border of Thailand) - Kota Bharu - Kuala Terengganu - Kuantan - Kota Tinggi - Johor Bahru"},"15693172":{"name":"Asian Highway AH150","note":"From Lahad Datu to Telok Melano","type":"route","route":"road","int_ref":"AH150","name:de":"Asien Fernstraße AH150","name:en":"Asian Highway AH150","name:fr":"Route asiatique AH150","name:id":"Jalan Asia AH150","name:ja":"アジアハイウェイ150号線","name:ko":"아시안 하이웨이 150호선","name:ms":"Lebuhraya Asia AH150","name:ru":"Азиатский маршрут AH150","name:vi":"Đường Xuyên Á AH150","name:zh":"亚洲公路150号线","network":"AsianHighway","alt_name":"Pan-Borneo Highway","wikidata":"Q4202293","wikipedia":"en:Pan-Borneo Highway"},"15725065":{"name":"AH143","type":"route","route":"road","int_ref":"AH143","network":"AsianHighway"},"15730352":{"to":"Ulu Klang","ref":"E19","from":"Sungai Besi","name":"Lebuhraya Bertingkat Sungai Besi–Ulu Klang","type":"route","route":"road","name:en":"Sungai Besi–Ulu Klang Elevated Expressway","name:ms":"Lebuhraya Bertingkat Sungai Besi–Ulu Klang","name:zh":"新街场－淡江高架大道","network":"MY:E","wikidata":"Q17056528","wikipedia":"en:Sungai Besi–Ulu Klang Elevated Expressway","short_name":"SUKE"},"15735766":{"to":"Pantai","ref":"E39","from":"Setiawangsa","name":"Lebuhraya SPE","type":"route","route":"road","name:en":"Setiawangsa–Pantai Expressway","name:ms":"Lebuhraya Setiawangsa–Pantai","network":"MY:E","wikidata":"Q107210757","wikipedia":"en:Setiawangsa–Pantai Expressway","short_name":"SPE"},"15749474":{"to":"Sri Petaling","ref":"E5","from":"Pandamaran","name":"Lebuhraya Shah Alam","type":"route","route":"road","name:en":"Shah Alam Expressway","network":"MY:E","wikidata":"Q7461233","wikipedia":"en:Shah Alam Expressway","short_name":"KESAS"},"15752300":{"to":"Sungai Long","ref":"E27","from":"Ukay Perdana","name":"Lebuhraya Lembah Klang Timur","type":"route","route":"road","name:en":"East Klang Valley Expressway","name:ms":"Lebuhraya Lembah Klang Timur","name:zh":"东巴生谷大道","network":"MY:E","wikidata":"Q6441029","wikipedia":"en:East Klang Valley Expressway","short_name":"EKVE"},"15761797":{"to":"Kajang","ref":"E7","from":"Cheras","name":"Lebuhraya Cheras–Kajang","type":"route","route":"road","name:en":"Cheras–Kajang Expressway","name:ms":"Lebuhraya Cheras–Kajang","name:ur":"چیراس-کاجانگ ایکسپریس وے","name:zh":"蕉赖－加影大道","network":"MY:E","wikidata":"Q12695763","wikipedia":"en:Cheras–Kajang Expressway"},"15765563":{"ref":"E10","name":"Lebuhraya Baru Pantai","type":"route","route":"road","name:en":"New Pantai Expressway","name:ms":"Lebuhraya Baru Pantai","name:zh":"新班底大道","network":"MY:E","wikidata":"Q7010901","wikipedia":"en:New Pantai Expressway","short_name":"NPE"},"15765622":{"to":"Puchong","ref":"E11","from":"Damansara","name":"Lebuhraya Damansara–Puchong","type":"route","route":"road","name:en":"Damansara–Puchong Expressway","name:ms":"Lebuhraya Damansara–Puchong","name:zh":"白沙罗－蒲种大道","network":"MY:E","wikidata":"Q2945398","wikipedia":"en:Damansara–Puchong Expressway","short_name":"LDP"},"15768099":{"to":"Shah Alam","ref":"E13","from":"Kota Kemuning","name":"Lebuhraya Kemuning–Shah Alam","type":"route","route":"road","name:en":"Kemuning–Shah Alam Highway","name:zh":"哥文宁－莎亚南大道","network":"MY:E","wikidata":"Q6387182","wikipedia":"en:Kemuning–Shah Alam Highway","short_name":"SUKE"},"15772373":{"to":"Putrajaya","ref":"E20","from":"Kuala Lumpur","name":"Lebuhraya Maju","type":"route","route":"road","name:en":"Maju Expressway","name:ms":"Lebuhraya Maju","name:zh":"隆布大道","network":"MY:E","wikidata":"Q6738488","wikipedia":"en:Maju Expressway"},"15772431":{"ref":"E26","name":"Lebuhraya Lembah Klang Selatan","type":"route","route":"road","name:en":"South Klang Valley Expressway","network":"MY:E","operator":"SKVE Holdings Sdn Bhd","wikidata":"Q7567631","wikipedia":"en:South Klang Valley Expressway","short_name":"SKVE"},"15772448":{"ref":"E6","name":"Putrajaya Link","type":"route","route":"road","name:en":"Putrajaya Link","network":"MY:E","operator":"PLUS Expressways","wikidata":"Q7060519","wikipedia":"en:North–South Expressway Central Link","operator:wikidata":"Q4384792"},"15772455":{"ref":"E37","name":"Lebuhraya Kuala Lumpur–Seremban","type":"route","route":"road","name:en":"Kuala Lumpur–Seremban Expressway","name:ms":"Lebuhraya Kuala Lumpur–Seremban","network":"MY:E","wikidata":"Q6441042","wikipedia":"en:Kuala Lumpur–Seremban Expressway"},"15772456":{"ref":"E37","name":"Lebuhraya Hubungan Timur–Barat","type":"route","route":"road","name:en":"East–West Link Expressway","name:ms":"Lebuhraya Hubungan Timur–Barat","network":"MY:E","wikidata":"Q5331046","wikipedia":"en:East–West Link Expressway","alt_name:en":"Salak Expressway","alt_name:ms":"Lebuhraya Salak"},"15772470":{"to":"Shah Alam","ref":"E31","from":"Damansara","name":"Damansara–Shah Alam Elevated Expressway","type":"route","route":"road","network":"MY:E","wikidata":"Q5211970","wikipedia":"en:Damansara–Shah Alam Elevated Expressway","short_name":"DASH"},"15777892":{"ref":"E30","name":"Lebuhraya Baru Selat Klang Utara","type":"route","route":"road","name:en":"New North Klang Straits Bypass","name:zh":"新巴生北部海峡环城大道","network":"MY:E","alt_name":"Shapadu Highway","wikidata":"Q17054183","wikipedia":"en:New North Klang Straits Bypass","short_name":"NNKSB"},"15777942":{"ref":"E25","name":"Lebuhraya Kuala Lumpur–Kuala Selangor","type":"route","route":"road","name:en":"Kuala Lumpur–Kuala Selangor Expressway LATAR","name:zh":"瓜雪大道","network":"MY:E","wikidata":"Q6441037","wikipedia":"en:Kuala Lumpur–Kuala Selangor Expressway","short_name":"LATAR"},"15791718":{"ref":"E33","name":"Lebuhraya Duta-Ulu Kelang","type":"route","route":"road","name:en":"Duta-Ulu Kelang Expressway","name:ms":"Lebuhraya Duta-Ulu Kelang","name:zh":"淡江-大使路大道","network":"MY:E","wikidata":"Q5317238","wikipedia":"en:Duta–Ulu Klang Expressway","short_name":"DUKE"},"15793282":{"ref":"E23","name":"Lebuhraya Sprint","type":"route","route":"road","name:en":"Sprint Expressway","name:zh":"西部疏散大道","network":"MY:E","wikidata":"Q7581312","wikipedia":"en:Sprint Expressway"}}