{"6288938":{"ref":"22","name":"NIC-22","type":"route","route":"road","length":"38.15","network":"Red Vial Nicaragua","operator":"MTI","description":"Carretera La Paz Centro-Malpaisillo","project_ref":"IDB_NI-L1052","project_url":"http://www.iadb.org/en/projects/project-description-title,1303.html?id=NI-L1052"},"12825548":{"to":"Orotina","from":"Frontera con Nicaragua","name":"Camino del Arreo","type":"route","route":"road","description":"Ruta histórica usada por los españoles para introducir el ganado vacuno y otros animales de granja a Costa Rica."},"14635933":{"ref":"5","name":"NIC-5","type":"route","route":"road","network":"Red Vial Nicaragua","distance":"204.4","operator":"MTI"},"14653959":{"ref":"29","name":"NIC-29","type":"route","route":"road","network":"NIC-29","operator":"MTI","wikidata":"Q114401525","description":"NIC-29 is a paved highway and connects Ocotal to Jalapa and close to Trojes (Honduras)"},"14764195":{"ref":"38","name":"NIC-38","type":"route","route":"road","network":"Red Vial Nicaragua","website":"https://biblioteca.mti.gob.ni/","distance":"105.15","operator":"MTI","source:imagery":"BingSat, ESRI, and other open satellite imagery available to OSM as of 2024"},"14874298":{"ref":"4","name":"NN-4","type":"route","lanes":"2","route":"road","highway":"secondary","nat_ref":"NN-4","surface":"paving_stones","paving_stones:shape":"zigzag","paving_stones:material":"concrete"},"14877388":{"ref":"24","name":"NN-24","type":"route","lanes":"2","route":"road","highway":"secondary","network":"Red Vial Nicaragua","surface":"paving_stones","maxspeed":"65","operator":"MTI","source:imagery":"BingSat, ESRI, and other open satellite imagery available to OSM as of 2024","paving_stones:shape":"zigzag","paving_stones:material":"concrete"},"14879112":{"ref":"13B","name":"NIC-13B","type":"route","route":"road","network":"Red Vial Nicaragua","website":"https://www.el19digital.com/articulos/ver/titulo:117702-nueva-carretera-vincula-bocana-de-paiwas-a-red-vial-troncal","operator":"MTI"},"14950728":{"ref":"25A","name":"NIC-25A","type":"route","route":"road","network":"Red Vial Nicaragua","operator":"MTI"},"14950729":{"ref":"117","name":"NN-117","type":"route","route":"road","nat_ref":"NN-117","network":"Red Vial de Nicaragua","operator":"MTI"},"14950768":{"ref":"67","name":"NIC-67","type":"route","route":"road","network":"MTI","operator":"MTI"},"14950828":{"ref":"65","name":"NIC-65","type":"route","route":"road","highway":"secondary","network":"MTI","surface":"asphalt","operator":"MTI","smoothness":"intermediate","source:imagery":"BingSat, ESRI, and other open satellite imagery available to OSM as of 2024"},"14955181":{"ref":"25B","name":"NIC-25B","type":"route","route":"road","network":"Red Vial Nicaragua","distance":"16.36","operator":"MTI"},"14955182":{"ref":"118","name":"NN-118","type":"route","route":"road","network":"Red Vial de Nicaragua","operator":"MTI","source:imagery":"BingSat, ESRI, and other open satellite imagery available to OSM as of 2024"},"14997596":{"ref":"53","name":"NIC-53","type":"route","route":"road","network":"MTI","operator":"MTI"},"15035369":{"name":"La Dalia - Bijao","type":"route","route":"road"},"15047321":{"ref":"33","name":"NIC-33","type":"route","route":"road","network":"Red Vial Nicaragua","distance":"57.43","operator":"MTI","description":"NIC-33 from San Ramon to Cotintillo"},"15077640":{"ref":"9","name":"NIC-9","type":"route","route":"road","highway":"secondary","website":"https://biblioteca.mti.gob.ni/","distance":"110.7","operator":"MTI"},"15467721":{"ref":"272","name":"NN-272","type":"route","route":"road","source":"MTI Red Vial Nicaragua 2019","network":"MTI-Chinandega","distance":"25.43km","operator":"MTI"},"15507576":{"ref":"49A1","name":"NIC-49A1","type":"route","route":"road","network":"Red Vial Nicaragua","distance":"40.57","operator":"MTI"},"15597361":{"ref":"265","name":"NN-265","type":"route","route":"road","network":"MTI","surface":"paved","distance":"14.65","operator":"MTI"},"15736247":{"ref":"37B","name":"NIC-37B","type":"route","route":"road","highway":"tertiary","operator":"MTI","source:imagery":"Bing & Maxar Sat Imagery as of 2023"},"15753418":{"ref":"32","name":"NIC-32","type":"route","route":"road","network":"MTI","operator":"MTI"},"15792088":{"ref":"19","name":"NIC-19","type":"route","route":"road","highway":"secondary","network":"MTI","distance":"30.51","operator":"MTI"},"15792102":{"ref":"21","name":"NIC-21","type":"route","route":"road","network":"Red Vial Nicaragua","distance":"203","operator":"MTI"},"16140095":{"ref":"18","name":"NIC-18","type":"route","route":"road","network":"Red Vial Nicaragua","distance":"27","operator":"MTI"},"16203472":{"name":"Carretera a Las Piedras","type":"route","route":"road"},"16276893":{"ref":"66","name":"NIC-66","type":"route","route":"road","network":"MTI","distance":"52.78","operator":"MTI"},"16385078":{"ref":"287","name":"NN-287","type":"route","route":"road","nat_ref":"NN-287","network":"MTI","distance":"13.58","operator":"MTI"},"16720240":{"ref":"23B","name":"NIC-23B","type":"route","route":"road","network":"Red Vial de Nicaragua","distance":"32.93","operator":"MTI"},"16720241":{"ref":"23A","name":"NIC-23A","type":"route","route":"road","network":"Red Vial de Nicaragua","distance":"23.07","operator":"MTI"},"16807202":{"ref":"37B","name":"Carretera Juigalpa - Puerto Díaz","type":"route","route":"road","highway":"tertiary","network":"Red Vial de Nicaragua","distance":"27.45","operator":"MTI","source:imagery":"BingSat, ESRI, and other open satellite imagery available to OSM as of 2023"},"16910881":{"ref":"275","name":"NN-275","type":"route","route":"road","network":"Red Vial Nicaragua","distance":"9.88","operator":"MTI"},"16916391":{"ref":"116","name":"NN-116","type":"route","route":"road","highway":"tertiary","network":"Red Vial Nicaragua","surface":"unpaved","4wd_only":"recommended","distance":"6.55","operator":"MTI","smoothness":"intermediate","source:imagery":"BingSat, ESRI, and other open satellite imagery available to OSM as of 2024"},"17021072":{"ref":"26","name":"NIC-26","type":"route","route":"road","network":"Red Vial Nicaragua","distance":"96.23","operator":"MTI"},"17021091":{"ref":"10","name":"NIC-10","type":"route","route":"road","network":"Red Vial de Nicaragua","distance":"33.5","operator":"MTI"},"17021092":{"ref":"8","name":"NIC-8","type":"route","route":"road","network":"Red Vial de Nicaragua","distance":"33.19","operator":"MTI"},"17021381":{"ref":"265","name":"NN-265","type":"route","route":"road","network":"Red Vial de Nicaragua","distance":"25.4","operator":"MTI"},"17022785":{"ref":"131","name":"NN-131","type":"route","route":"road","network":"Red Vial Nicaragua","distance":"18.7","operator":"MTI"},"17022787":{"ref":"114","name":"NN-114","type":"route","route":"road","network":"Red Vial Nicaragua","distance":"41.2","operator":"MTI"},"17022792":{"ref":"134","name":"NN-134","type":"route","route":"road","network":"Red Vial Nicaragua","distance":"28.24","operator":"MTI"},"17022796":{"ref":"132","name":"NN-132","type":"route","route":"road","network":"Red Vial Nicaragua","distance":"9.6","operator":"MTI"},"17024566":{"ref":"136","name":"NN-136","type":"route","route":"road","network":"Red Vial Nicaragua","distance":"25.51","operator":"MTI"},"17024567":{"ref":"135","name":"NN-135","type":"route","route":"road","network":"Red Vial Nicaragua","distance":"25.95","operator":"MTI"},"17024617":{"ref":"138","name":"NN-138","type":"route","route":"road","network":"Red Vial Nicaragua","distance":"23.94","operator":"MTI"},"17024618":{"ref":"137","name":"NN-137","type":"route","route":"road","network":"Red Vial Nicaragua","distance":"9.1","operator":"MTI"},"17024682":{"ref":"71","name":"NIC-71","type":"route","route":"road","network":"Red Vial Nicaragua","distance":"120","operator":"MTI"},"17026667":{"ref":"133","name":"NN-133","type":"route","route":"road","network":"Red Vial Nicaragua","distance":"23.39","operator":"MTI"},"17027106":{"ref":"45","name":"NN-45","type":"route","route":"road","network":"Red Vial Nicaragua","distance":"13.11","operator":"MTI"},"17027107":{"ref":"35C","name":"NIC-35C","type":"route","route":"road","network":"Red Vial Nicaragua","distance":"10.29","operator":"MTI"},"17033921":{"ref":"54","name":"NIC-54","type":"route","route":"road","network":"Red Vial de Nicaragua","distance":"23.62","operator":"MTI"},"17033922":{"ref":"56","name":"NIC-56","type":"route","route":"road","network":"Red Vial de Nicaragua","distance":"3.61","operator":"MTI"},"17033923":{"ref":"36","name":"NIC-36","type":"route","route":"road","highway":"secondary","network":"Red Vial de Nicaragua","distance":"3.11","operator":"MTI"},"17033965":{"ref":"35A","name":"NN-35A","type":"route","route":"road","network":"Red Vial Nicaragua","distance":"16.38","operator":"MTI"},"17034058":{"ref":"49","name":"NIC-49","type":"route","route":"road","network":"Red Vial Nicaragua","distance":"43.77","operator":"MTI"},"17048835":{"ref":"270","name":"NN-270","type":"route","route":"road","network":"Red Vial Nicaragua","distance":"35","operator":"MTI"},"17054421":{"ref":"32","name":"NIC-32","type":"route","route":"road","nat_ref":"NIC-32","network":"Red Vial Nicaragua","distance":"45","operator":"MTI"},"17054898":{"ref":"38","name":"NN-38","type":"route","route":"road","network":"Red Vial Nicaragua","distance":"40","operator":"MTI"},"17062581":{"ref":"51","name":"NIC-51","type":"route","route":"road","network":"Red Vial Nicaragua","distance":"100","operator":"MTI"},"17062619":{"ref":"5","name":"NN-5","type":"route","route":"road","network":"Red Vial Nicaragua","distance":"19.7","operator":"MTI"},"17144680":{"ref":"68","name":"NIC-68","type":"route","route":"road","network":"Red Vial Nicaragua","distance":"14.6","operator":"MTI"},"17226098":{"ref":"70A","name":"NIC-70A","type":"route","route":"road","network":"Red Vial Nicaragua","distance":"55","operator":"MTI"},"17228368":{"ref":"333","name":"NN-333","type":"route","route":"road","network":"Red Vial Nicaragua","distance":"15.75","operator":"MTI"},"17238464":{"ref":"44B","name":"NIC-44B","type":"route","route":"road","network":"Red Vial Nicaragua","distance":"4.09","operator":"MTI"},"17263814":{"ref":"47","name":"NIC-47","type":"route","route":"road","network":"Red Vial Nicaragua","distance":"21.5","operator":"MTI"},"17269418":{"ref":"78","name":"NN-78","type":"route","route":"road","network":"Red Vial Nicaragua","distance":"10.9","operator":"MTI"},"17275431":{"ref":"80","name":"NN-80","type":"route","route":"road","network":"Red Vial Nicaragua","distance":"35.7","operator":"MTI"},"17275432":{"ref":"21","name":"NIC-21","type":"route","route":"road","network":"Red Vial Nicaragua","distance":"39.00","operator":"MTI"},"17299047":{"ref":"31","name":"NIC-31","type":"route","route":"road","network":"Red Vial Nicaragua","distance":"31.52","operator":"MTI"},"17299048":{"ref":"17","name":"NIC-17","type":"route","route":"road","nat_ref":"NIC-17","network":"Red Vial Nicaragua","distance":"139","operator":"MTI"},"17299049":{"ref":"19B1","name":"NIC-19B","type":"route","route":"road","network":"Red Vial Nicaragua","distance":"27.12","operator":"MTI"},"17299050":{"ref":"102","name":"NN-102","type":"route","route":"road","network":"Red Vial Nicaragua","distance":"19.09","operator":"MTI"},"17299051":{"ref":"59","name":"NIC-59","type":"route","route":"road","network":"Red Vial Nicaragua","distance":"11.86","operator":"MTI"},"17299052":{"ref":"47","name":"NIC-47","type":"route","route":"road","network":"Red Vial Nicaragua","distance":"15","operator":"MTI"},"17300886":{"ref":"20A","name":"NIC-20A","type":"route","route":"road","network":"Red Vial Nicaragua","distance":"7.9","operator":"MTI"},"17300887":{"ref":"11","name":"NIC-11","type":"route","route":"road","network":"Red Vial Nicaragua","distance":"23.57","operator":"MTI"},"17300888":{"ref":"153","name":"NN-153","type":"route","route":"road","network":"Red Vial Nicaragua","distance":"14.32","operator":"MTI"},"17300889":{"ref":"109","name":"NN-109","type":"route","route":"road","network":"Red Vial Nicaragua","distance":"6.89","operator":"MTI"},"17300890":{"ref":"27","name":"NIC-27","type":"route","route":"road","network":"Red Vial Nicaragua","distance":"27.81","operator":"MTI"},"17300891":{"ref":"188","name":"NN-188","type":"route","route":"road","network":"Red Vial Nicaragua","distance":"8.25","operator":"MTI"},"17300892":{"ref":"39","name":"NIC-39","type":"route","route":"road","network":"Red Vial Nicaragua","distance":"56.64","operator":"MTI"},"17300893":{"ref":"149","name":"NN-149","type":"route","route":"road","network":"Red Vial Nicaragua","distance":"38.32","operator":"MTI"},"17304593":{"ref":"64","name":"NIC-64","type":"route","route":"road","network":"Red Vial Nicaragua","distance":"39.96","operator":"MTI"},"17304616":{"ref":"226","name":"NN-226","type":"route","route":"road","network":"Red Vial Nicaragua","distance":"43.18","operator":"MTI"},"17356303":{"ref":"83","name":"NN-83","type":"route","route":"road","network":"Red Vial Nicaragua","distance":"27.66","operator":"MTI"},"17370322":{"ref":"19","name":"NIC-19","type":"route","route":"road","network":"Red Vial Nicaragua","distance":"21.3","operator":"MTI"},"17374684":{"ref":"37A","name":"NIC-37A","type":"route","route":"road","network":"Red Vial Nicaragua","distance":"19.6","operator":"MTI"},"17416251":{"ref":"16","name":"NIC-16","type":"route","route":"road","network":"Red Vial Nicaragua","distance":"19.0","operator":"MTI"},"17436309":{"ref":"25","name":"NIC-25","type":"route","route":"road","network":"Red Vial Nicaragua","distance":"50","operator":"MTI"},"17436361":{"ref":"49","name":"NIC-49","type":"route","route":"road","network":"Red Vial Nicaragua","distance":"41.45","operator":"MTI"},"17436427":{"ref":"35D","name":"NIC-35D","type":"route","route":"road","network":"Red Vial Nicaragua","distance":"26.41","operator":"MTI"},"17439658":{"ref":"20B2","name":"NIC-20B2","type":"route","route":"road","network":"Red Vial Nicaragua","distance":"7.02","operator":"MTI"},"17439673":{"ref":"20B1","name":"NIC-20B1","type":"route","route":"road","network":"Red Vial Nicaragua","distance":"23.03","operator":"MTI"},"17439693":{"ref":"18","name":"NIC-18","type":"route","route":"road","network":"Red Vial Nicaragua","distance":"19.8","operator":"MTI"},"17439868":{"ref":"62","name":"NIC-62","type":"route","route":"road","network":"Red Vial Nicaragua","distance":"20","operator":"MTI"},"17439986":{"ref":"52","name":"NIC-52","type":"route","route":"road","network":"Red Vial Nicaragua","distance":"9.69","operator":"MTI"},"17439996":{"ref":"52B","name":"NIC-52B","type":"route","route":"road","network":"Red Vial Nicaragua","distance":"7.48","operator":"MTI"},"17440001":{"ref":"40","name":"NIC-40","type":"route","route":"road","network":"Red Vial Nicaragua","distance":"12.4","operator":"MTI"},"17440015":{"ref":"278","name":"NN-278","type":"route","route":"road","network":"Red Vial Nicaragua","distance":"1.72","operator":"MTI"},"17440048":{"ref":"34A","name":"NIC-34A","type":"route","route":"road","network":"Red Vial Nicaragua","distance":"12.55","operator":"MTI"},"17440056":{"ref":"34B","name":"NIC-34B","type":"route","route":"road","nat_ref":"NIC-34B","network":"Red Vial Nicaragua","distance":"19.05","operator":"MTI"},"17440084":{"ref":"20","name":"NIC-20","type":"route","route":"road","network":"Red Vial Nicaragua","distance":"22.66","operator":"MTI"},"17440093":{"ref":"285","name":"NN-285","type":"route","route":"road","network":"Red Vial Nicaragua","distance":"5.08","operator":"MTI"},"17440464":{"ref":"11B","name":"NIC-11B","type":"route","route":"road","network":"Red Vial Nicaragua","distance":"30","operator":"MTI"},"17445200":{"ref":"72","name":"NIC-72","type":"route","route":"road","network":"Red Vial Nicaragua","alt_name":"Calle La Chocolata;Calle Chocolata","distance":"20","operator":"MTI"},"17446884":{"ref":"14","name":"NIC-14","type":"route","route":"road","network":"Red Vial Nicaragua","distance":"19.07","operator":"MTI"},"17446901":{"ref":"24A","name":"NIC-24A","type":"route","route":"road","network":"Red Vial Nicaragua","distance":"20.67","operator":"MTI"},"17446927":{"ref":"50","name":"NIC-50","type":"route","route":"road","network":"Red Vial Nicaragua","distance":"26","operator":"MTI"},"17446941":{"ref":"262","name":"NN-262","type":"route","route":"road","network":"Red Vial Nicaragua","distance":"6","operator":"MTI"},"17447012":{"ref":"264","name":"NN-264","type":"route","route":"road","network":"Red Vial Nicaragua","distance":"10.5","operator":"MTI"},"17447014":{"ref":"12B","name":"NIC-12B","type":"route","route":"road","network":"Red Vial Nicaragua","distance":"25","operator":"MTI"},"17447015":{"ref":"58","name":"NIC-58","type":"route","route":"road","network":"Red Vial Nicaragua","distance":"11.73","operator":"MTI"},"17451457":{"ref":"115","name":"NN-115","type":"route","route":"road","network":"Red Vial Nicaragua","distance":"23.74","operator":"MTI"},"17451693":{"ref":"73","name":"NIC-73","type":"route","route":"road","network":"Red Vial Nicaragua","distance":"115.88","operator":"MTI"},"17465016":{"ref":"168","name":"NN-168","type":"route","route":"road","nat_ref":"NN-168","network":"Red Vial Nicaragua","distance":"15.43","operator":"MTI"},"17465024":{"ref":"169","name":"NN-169","type":"route","route":"road","nat_ref":"NN-169","network":"Red Vial Nicaragua","distance":"11.57","operator":"MTI"},"17465212":{"ref":"224","name":"NN-224","type":"route","route":"road","nat_ref":"NN-224","network":"Red Vial Nicaragua","distance":"35.26","operator":"MTI","MTI:clasificacion":"Colectora Secundaria"},"17465958":{"ref":"312","name":"NN-312","type":"route","route":"road","nat_ref":"NN-312","network":"Red Vial Nicaragua","distance":"6.27","operator":"MTI","MTI:clasificacion":"Camino Vecinal"},"17466448":{"ref":"212","name":"NN-212","type":"route","route":"road","nat_ref":"NN-212","network":"Red Vial Nicaragua","distance":"20","operator":"MTI"},"17466449":{"ref":"211","name":"NN-211","type":"route","route":"road","nat_ref":"NN-211","network":"Red Vial Nicaragua","distance":"28.76","operator":"MTI"},"17466504":{"ref":"213","name":"NN-213","type":"route","route":"road","nat_ref":"NN-213","network":"Red Vial Nicaragua","surface":"asphalt","distance":"850","operator":"MTI","source:imagery":"BingSat, ESRI, and other open satellite imagery available to OSM as of 2024","MTI:clasificacion":"Camino Vecinal"},"17466505":{"ref":"214","name":"NN-214","type":"route","route":"road","nat_ref":"NN-214","network":"Red Vial Nicaragua","distance":"27.90","operator":"MTI"},"17467224":{"ref":"311","name":"NN-311","type":"route","route":"road","nat_ref":"NN-311","network":"Red Vial Nicaragua","distance":"2.58","operator":"MTI","MTI:clasificacion":"Camino Vecinal"},"17467225":{"ref":"219","name":"NN-219","type":"route","route":"road","nat_ref":"NN-219","network":"Red Vial Nicaragua","distance":"5.89","operator":"MTI","MTI:clasificacion":"Colectora Secundaria"},"17467226":{"ref":"218","name":"NN-218","type":"route","route":"road","nat_ref":"218","network":"Red Vial Nicaragua","distance":"2.71","operator":"MTI"},"17467268":{"ref":"221","name":"NN-221","type":"route","route":"road","nat_ref":"NN-221","network":"Red Vial Nicaragua","distance":"4.54","operator":"MTI","MTI:clasificacion":"Colectora Principal"},"17467269":{"ref":"317","name":"NN-317","type":"route","route":"road","nat_ref":"NN-317","network":"Red Vial Nicaragua","distance":"1.71","operator":"MTI"},"17467392":{"ref":"222","name":"NN-222","type":"route","route":"road","nat_ref":"NN-222","network":"Red Vial Nicaragua","distance":"3.23","operator":"MTI"},"17475335":{"ref":"151","name":"NN-151","type":"route","route":"road","nat_ref":"NN-151","network":"Red Vial Nicaragua","distance":"8.38","operator":"MTI","MTI:codigo":"NN-151","MTI:clasificacion":"Troncal Secundaria"},"17478469":{"ref":"74","name":"NN-74","type":"route","route":"road","network":"Red Vial Nicaragua","distance":"22.9","operator":"MTI","MTI:codigo":"NN-74","MTI:clasificacion":"Colectora Principal"},"17478872":{"ref":"22A","name":"NIC-22A","type":"route","route":"road","nat_ref":"NIC-22A","network":"Red Vial Nicaragua","distance":"38.82","operator":"MTI"},"17479484":{"ref":"24B","name":"NIC-24B","type":"route","route":"road","nat_ref":"NIC-24B","network":"Red Vial Nicaragua","surface":"asphalt","distance":"44","operator":"MTI","MTI:codigo":"24HL0000000","smoothness":"excellent","source:imagery":"BingSat, ESRI, and other open satellite imagery available to OSM as of 2024","MTI:clasificacion":"Troncal Principal"},"17479746":{"ref":"321","name":"NN-321","type":"route","route":"road","nat_ref":"NN-321","network":"Red Vial Nicaragua","distance":"20.66","operator":"MTI","MTI:clasificacion":"Camino Vecinal"},"17479817":{"ref":"169","name":"NN-269","type":"route","route":"road","network":"Red Vial Nicaragua","distance":"9.5","operator":"MTI"},"17495260":{"ref":"101","name":"NN-101","type":"route","route":"road","nat_ref":"NN-101","network":"Red Vial Nicaragua","distance":"9.18","operator":"MTI"},"17528786":{"ref":"207","name":"NN-207","type":"route","route":"road","network":"Red Vial de Nicaragua","distance":"20.22","operator":"MTI"},"17534096":{"ref":"23B","name":"NIC-23B","type":"route","route":"road","nat_ref":"NIC-23B","network":"Red Vial de Nicaragua","distance":"60.32","operator":"MTI"},"17550184":{"ref":"198","name":"NN-198","type":"route","route":"road","network":"Red Vial Nicaragua","distance":"3.26","operator":"MTI"},"17639508":{"ref":"288","name":"NN-288","type":"route","route":"road","network":"Red Vial de Nicaragua","distance":"75.55","operator":"MTI"}}