{"65338":{"ref":"B 220","name":"Bundesstraße 220","type":"route","route":"road","operator":"Bundesrepublik Deutschland","wikidata":"Q878980","wikipedia":"de:Bundesstraße 220","TMC:cid_58:tabcd_1:Class":"Road","TMC:cid_58:tabcd_1:LCLversion":"9.00","TMC:cid_58:tabcd_1:LocationCode":"8612"},"75144":{"to":"Eindhoven","ref":"E 312","from":"Vlissingen","name":"Europese route E312","type":"route","route":"road","name:en":"European route E 312","name:fr":"Route européenne E 312","name:nl":"Europese route E312","nat_ref":"E312","network":"e-road","wikidata":"Q2138240","wikipedia":"nl:Europese weg 312","description":"E312 Vlissingen - Eindhoven","e-road:class":"B","description:fr":"E 312 Flessingue - Eindhoven"},"75433":{"to":"Amersfoort","ref":"E 231","from":"Amsterdam","name":"Europese route E231","type":"route","route":"road","name:en":"European route E 231","name:fr":"Route européenne E 231","name:nl":"Europese route E231","nat_ref":"E231","network":"e-road","wikidata":"Q2707350","wikipedia":"nl:Europese weg 231","description":"E231 Amsterdam - Amersfoort","e-road:class":"B","description:fr":"E 231 Amsterdam - Amersfoort"},"75438":{"to":"Groningen","ref":"E 232","from":"Amersfoort","name":"Europese route E232","type":"route","route":"road","name:en":"European route E 232","name:fr":"Route européenne E 232","name:nl":"Europese route E232","nat_ref":"E232","network":"e-road","wikidata":"Q1375818","wikipedia":"nl:Europese weg 232","description":"E232 Amersfoort - Groningen","e-road:class":"B","description:fr":"E 232 Amersfoort - Groningue"},"77612":{"ref":"20","name":"I 20 (super)","type":"route","route":"road","symbol":"http://upload.wikimedia.org/wikipedia/commons/8/8c/I-20.svg","network":"US:I","wikidata":"Q93686","wikipedia":"en:Interstate 20"},"78837":{"to":"Utrecht","ref":"E 311","from":"Breda","name":"Europese route E311","type":"route","route":"road","name:en":"European route E 311","name:fr":"Route européenne E 311","name:nl":"Europese route E311","nat_ref":"A27","network":"e-road","wikidata":"Q613422","wikipedia":"nl:Europese weg 311","description":"E311 Breda - Utrecht","e-road:class":"B","description:fr":"E 311 Bréda - Utrecht"},"165334":{"to":"Amsterdam-Noord","ref":"A10","from":"Amsterdam-Noord","name":"A10","note":"Begin/einde/richting op basis van hectometrering. Afritnummering loopt in tegenovergestelde richting en begint/eindigt op iets andere plek.","type":"route","route":"road","network":"NL:A","operator":"Rijkswaterstaat","wikidata":"Q1852074","wikipedia":"nl:Rijksweg 10"},"167873":{"to":"De Lutte (grens Duitsland)","ref":"A1","from":"Amsterdam","name":"A1","type":"route","route":"road","network":"NL:A","operator":"Rijkswaterstaat","wikidata":"Q2152975","wikipedia":"nl:Rijksweg 1"},"183729":{"ref":"6","name":"US 6 Business (Scranton-Carbondale, PA super)","type":"route","route":"road","network":"US:US:Business","modifier":"Business","wikidata":"Q2428949","wikipedia":"en:U.S. Route 6 Business (Scranton, Pennsylvania)","is_in:state":"PA"},"294979":{"ref":"80","name":"I 80 (super)","type":"route","route":"road","symbol":"http://upload.wikimedia.org/wikipedia/commons/1/11/I-80.svg","name:en":"I 80 (super)","name:es":"Interestatal 80","network":"US:I","wikidata":"Q94873","wikipedia":"en:Interstate 80"},"303058":{"ref":"90","name":"I 90 (super)","type":"route","route":"road","symbol":"http://upload.wikimedia.org/wikipedia/commons/c/ca/I-90.svg","network":"US:I","wikidata":"Q94958","wikipedia":"en:Interstate 90"},"332561":{"ref":"S100","name":"Centrumring S100","type":"route","route":"road","network":"NL:S:Den Haag","wikidata":"Q2710543","wikipedia":"nl:S100 (Den Haag)","description":"Centrumring Den Haag"},"397259":{"to":"Amsterdam","ref":"A5","from":"Hoofddorp","name":"A5","type":"route","route":"road","network":"NL:A","operator":"Rijkswaterstaat","wikidata":"Q996833","wikipedia":"nl:Rijksweg 5"},"399847":{"to":"Rotterdam","ref":"A13","from":"Den Haag","name":"A13","type":"route","route":"road","network":"NL:A","operator":"Rijkswaterstaat","wikidata":"Q652212","wikipedia":"nl:Rijksweg 13"},"402491":{"ref":"83","name":"I 83 (super)","type":"route","route":"road","symbol":"http://upload.wikimedia.org/wikipedia/commons/c/c1/I-83.svg","network":"US:I","wikidata":"Q94891","wikipedia":"en:Interstate 83"},"417307":{"to":"Gouda","ref":"A20","from":"Maasdijk","name":"A20","type":"route","route":"road","network":"NL:A","operator":"Rijkswaterstaat","wikidata":"Q1815154","wikipedia":"nl:Rijksweg 20"},"452017":{"ref":"550","name":"US 550 (Super)","type":"route","route":"road","network":"US:US","is_in:state":"NM;CO"},"455624":{"ref":"6N","name":"US 6N (super)","type":"route","route":"road","symbol":"http://upload.wikimedia.org/wikipedia/commons/d/d0/US_6N.svg","network":"US:US","wikidata":"Q934667","wikipedia":"en:U.S. Route 6N","is_in:state":"PA"},"963701":{"ref":"5","name":"PA 5 (super)","type":"route","route":"road","symbol":"http://upload.wikimedia.org/wikipedia/commons/7/74/PA-5.svg","network":"US:PA","wikidata":"Q1052257","wikipedia":"en:Pennsylvania Route 5","is_in:state":"PA"},"975232":{"ref":"3","name":"PA 3 (super)","type":"route","route":"road","symbol":"https://upload.wikimedia.org/wikipedia/commons/6/68/PA-3.svg","network":"US:PA"},"1004551":{"ref":"5","name":"PA 5 Alternate (super)","type":"route","route":"road","network":"US:PA:Alternate","modifier":"Alternate","wikidata":"Q1052257","wikipedia":"en:Pennsylvania Route 5 Alternate","is_in:state":"PA"},"1004578":{"ref":"8","name":"PA 8 (super)","type":"route","route":"road","symbol":"https://upload.wikimedia.org/wikipedia/commons/6/6b/PA-8.svg","network":"US:PA"},"1013409":{"ref":"17","name":"PA 17 (super)","type":"route","is_in":"PA","route":"road","symbol":"https://upload.wikimedia.org/wikipedia/commons/a/a2/PA-17.svg","network":"US:PA","wikidata":"Q1052384","wikipedia":"en:Pennsylvania Route 17"},"1013410":{"ref":"14","name":"PA 14 (super)","type":"route","is_in":"PA","route":"road","symbol":"https://upload.wikimedia.org/wikipedia/commons/b/b3/PA-14.svg","network":"US:PA","wikidata":"Q1052341","wikipedia":"en:Pennsylvania Route 14"},"1013411":{"ref":"16","name":"PA 16 (super)","type":"route","is_in":"PA","route":"road","symbol":"https://upload.wikimedia.org/wikipedia/commons/5/5f/PA-16.svg","network":"US:PA","wikidata":"Q1052361","wikipedia":"en:Pennsylvania Route 16"},"1534076":{"to":"Bad Nieuweschans (grens Duitsland)","ref":"A7","from":"Amsterdam","name":"A7","note":"Tweemaal onderbroken door N7. Dubbelnummering met A8 (Coentunnelweg) vooralsnog alleen bewegwijzerd richting Coenplein.","type":"route","route":"road","network":"NL:A","operator":"Rijkswaterstaat","wikidata":"Q2152999","wikipedia":"nl:Rijksweg 7","from:-2014":"Zaandam","source:from":"https://nl.wikipedia.org/wiki/Rijksweg_7#Routewijziging_Zaandam"},"1548354":{"to":"Eemshaven","ref":"N33","from":"Assen","name":"N33","type":"route","route":"road","network":"NL:N","operator":"Rijkswaterstaat","wikidata":"Q1926026","wikipedia":"nl:Rijksweg 33"},"1599868":{"ref":"RING","name":"Ring Utrecht","type":"route","route":"road","alt_ref":"RING A2;RING A12;RING A27;RING N230","name:fy":"Ring Utert","name:nl":"Ring Utrecht","network":"NL:ring","wikidata":"Q2551675","wikipedia":"nl:Ring Utrecht"},"1625593":{"ref":"66","name":"Oklahoma State Highway 66 (Super)","type":"route","route":"road","network":"US:OK","operator":"Oklahoma Department of Transportation","wikidata":"Q2172628","wikipedia":"en:Oklahoma State Highway 66"},"1629630":{"ref":"54","name":"US 54 (KS, super)","type":"route","route":"road","network":"US:US","is_in:state":"KS"},"1629638":{"ref":"54","name":"US 54 (OK, Super)","type":"route","route":"road","network":"US:US","is_in:state":"OK"},"1710167":{"to":"De Lutte (grens Duitsland)","ref":"E 30","from":"Hoek van Holland (veer Engeland)","name":"E30 Nederland","note":"Sluit aan op \\\"E30 Noordzee\\\"","type":"route","route":"road","name:en":"E 30 Netherlands","name:nl":"E30 Nederland","nat_ref":"E30","network":"e-road","section":"Nederland","operator":"Rijkswaterstaat;Provincie Zuid-Holland;Gemeente Rotterdam","wikidata":"Q160249","wikipedia":"nl:Europese weg 30"},"1776207":{"to":"Eemshaven","ref":"N46","from":"Groningen","name":"N46","type":"route","route":"road","network":"NL:N","operator":"Provincie Groningen;Rijkswaterstaat","wikidata":"Q1903448","wikipedia":"nl:Provinciale weg 46"},"1785495":{"to":"Scheemda","ref":"N362","from":"Appingedam","name":"N362","type":"route","route":"road","network":"NL:N","operator":"Provincie Groningen","wikidata":"Q2178797","wikipedia":"nl:Provinciale weg 362"},"2094111":{"ref":"E 105","name":"European route E 105","type":"superroute","route":"road","name:de":"Europastraße 105","name:en":"European route E 105","name:fr":"Route européenne E 105","name:nl":"Europese route E105","name:ru":"Европейский маршрут E 105","name:sk":"Európska cesta E 105","network":"e-road","wikidata":"Q1321545","wikipedia":"en:European route E105","description":"Kirkenes - Murmansk - Petrozavodsk - Sankt Petersburg - Moskva - Orel - Kharkov - Simferopol - Alushta - Yalta","e-road:class":"A-intermediate","description:fr":"E 105 Kirkenes - Yalta"},"2148361":{"to":"Babberich (grens Duitsland)","ref":"E 35","from":"Amsterdam","name":"E35 Nederland","type":"route","route":"road","name:de":"E 35 Niederlande","name:en":"E 35 Netherlands","name:nl":"E35 Nederland","nat_ref":"E35","network":"e-road","section":"Nederland","operator":"Rijkswaterstaat","wikidata":"Q313416","wikipedia":"nl:Europese weg 35","e-road:class":"A-intermediate"},"2310349":{"ref":"64","name":"US 64 (OK, super)","type":"superroute","route":"road","symbol":"http://upload.wikimedia.org/wikipedia/commons/b/bf/US_64.svg","network":"US:US","wikipedia":"en:U.S. Route 64 in Oklahoma","is_in:state":"OK"},"2471521":{"to":"Eijsden (grens België)","ref":"E 25","from":"Hoek van Holland (veer Engeland)","name":"E25 Nederland","note":"Sluit aan op \\\"E30 Noordzee\\\"","type":"route","route":"road","nat_ref":"E25","network":"e-road","section":"Nederland","wikidata":"Q659345","wikipedia":"en:European route E25"},"2523953":{"to":"Bad Nieuweschans (grens Duitsland)","ref":"E 22","from":"Amsterdam","name":"E22 Nederland","type":"route","route":"road","name:de":"E 22 Niederlande","name:en":"E 22 Netherlands","name:nl":"E22 Nederland","name:ru":"Европейский маршрут E 22","nat_ref":"E22","network":"e-road","section":"Netherlands"},"2888844":{"ref":"9","name":"Oklahoma State Highway 9 (Super)","type":"route","route":"road","network":"US:OK","operator":"Oklahoma Department of Transportation","wikipedia":"en:Oklahoma State Highway 9"},"3552079":{"ref":"E 20","name":"E 20 Sverige","type":"superroute","route":"road","name:en":"E 20 Sweden","name:fr":"E 20 Suède","name:nl":"E20 Zweden","network":"e-road","section":"Sweden"},"4520347":{"ref":"640","name":"A 640 (Laval)","type":"route","route":"road","symbol":"http://upload.wikimedia.org/wikipedia/commons/f/fe/Quebec_Autoroute_640.svg","network":"CA:QC:A","wikipedia":"fr:Autoroute 640 (Québec)","is_in:state":"QC"},"5467440":{"ref":"1","name":"대한민국 국도 제1호선","type":"route","route":"road","name:en":"National Route 1 (South Korea)","name:ko":"대한민국 국도 제1호선","name:zh":"國道1號線","network":"KR:national","alt_name":"목포 ~ 신의주선","wikidata":"Q483660","official_name:ko":"대한민국 국도 제1호선","official_name:zh":"大韓民國國道第1號線","official_name:ko_hanja":"大韓民國 國道 第1號線"},"6582648":{"ref":"5","name":"Longitudinal Sur","type":"route","route":"road","network":"CL:national","alt_name":"Ruta 5 Sur","official_name":"Longitudinal Sur, Sector: Pichirropulli (Límite Regional) - Quellón"},"6599259":{"ref":"SP45bis;SPBS45bis","name":"ex Strada Statale 45bis Gardesana Occidentale","type":"route","route":"road","old_ref":"SS45bis","operator":"Provincia di Brescia;Provincia di Cremona"},"6625495":{"ref":"SS237","name":"ex Strada Statale 237 del Caffaro","type":"route","route":"road","network":"IT:BS"},"6662869":{"to":"Bad Tölz-Sylvensteinspeicher","ref":"B 13","from":"BAB A3 AS-Würzburg-Randersacker","name":"B 13","note":"B13 zwischen M und Holzkirchen zur Staatsstrasse abgestuft","type":"route_master","route":"road","operator":"Bundesrepublik Deutschland","wikidata":"Q34472","wikipedia":"de:Bundesstraße 13","description":"B13 in Abschnitte gegliedert wegen leichterer Bearbeitung/Korrektur","route_master":"fixme"},"6702549":{"ref":"SS496","name":"ex Strada Statale 496 Virgiliana","type":"route","route":"road","operator":"Provincia di Mantova"},"6738120":{"ref":"SS358","name":"ex Strada Statale 358 di Castelnovo","type":"route","route":"road","operator":"Anas"},"7145959":{"ref":"Ferienstraße in Niedersachsen","name":"Elbuferstraße","type":"route","route":"road","network":"unknown","tourism":"yes","operator":"unknown"},"8386229":{"to":"Meppel","ref":"N371","from":"Assen","name":"N371","type":"route","route":"road","network":"NL:N","website":"https://www.provincie.drenthe.nl/onderwerpen/verkeer-vervoer/wegen/n371/","operator":"Provincie Drenthe","wikidata":"Q2189496","wikipedia":"nl:Provinciale weg 371"},"8386347":{"to":"Oosterwolde","ref":"N919","from":"Huis ter Heide","name":"N919","type":"route","route":"road","network":"NL:N","operator":"Provincie Drenthe;Provincie Fryslân","wikidata":"Q1967479","wikipedia":"nl:Provinciale weg 919"},"8386351":{"to":"Haulerwijk","ref":"N918","from":"Oosterwolde","name":"N918","type":"route","route":"road","network":"NL:N","operator":"Provincie Fryslân","wikidata":"Q14178381","wikipedia":"nl:Provinciale weg 918"},"8439416":{"to":"Ommen","ref":"N34","from":"De Punt","name":"N34","type":"route","route":"road","network":"NL:N","website":"https://www.provincie.drenthe.nl/onderwerpen/verkeer-vervoer/wegen/n34/","alt_name":"Hunebed Highway","operator":"Provincie Drenthe;Provincie Overijssel","wikidata":"Q2113982","wikipedia":"nl:Provinciale weg 34"},"8439812":{"to":"Veenoord","ref":"N376","from":"Rolde","name":"N376","type":"route","route":"road","network":"NL:N","website":"https://www.provincie.drenthe.nl/onderwerpen/verkeer-vervoer/wegen/n376/","operator":"Provincie Drenthe","wikidata":"Q2203639","wikipedia":"nl:Provinciale weg 376"},"8439872":{"to":"Roden","ref":"N373","from":"Bovensmilde","name":"N373","type":"route","route":"road","network":"NL:N","website":"https://www.provincie.drenthe.nl/onderwerpen/verkeer-vervoer/wegen/n373/","operator":"Provincie Drenthe","wikidata":"Q4401784","wikipedia":"nl:Provinciale weg 373"},"8440063":{"to":"Donderen","ref":"N858","from":"Norg","name":"N858","type":"route","route":"road","network":"NL:N","website":"https://www.provincie.drenthe.nl/onderwerpen/verkeer-vervoer/wegen/n858/","operator":"Provincie Drenthe","wikidata":"Q2059486","wikipedia":"nl:Provinciale weg 858"},"8440105":{"to":"Zwartemeer","ref":"N379","from":"Gasselternijveenschemond","name":"N379","type":"route","route":"road","network":"NL:N","website":"https://www.provincie.drenthe.nl/onderwerpen/verkeer-vervoer/wegen/n379/","operator":"Provincie Drenthe","wikidata":"Q2468998","wikipedia":"nl:Provinciale weg 379"},"8440119":{"to":"Coevorden (N34)","ref":"N382","from":"Coevorden (grens Duitsland)","name":"N382","type":"route","route":"road","network":"NL:N","website":"https://www.provincie.drenthe.nl/onderwerpen/verkeer-vervoer/wegen/n382/","operator":"Provincie Drenthe","wikidata":"Q2681105","wikipedia":"nl:Provinciale weg 382"},"8448338":{"to":"Groningen","ref":"A28","from":"Utrecht","name":"A28","type":"route","route":"road","network":"NL:A","website":"https://www.rijkswaterstaat.nl/wegen/wegenoverzicht/a28/index.aspx","operator":"Rijkswaterstaat","wikidata":"Q1512120","wikipedia":"nl:Rijksweg 28"},"8449159":{"to":"Peize","ref":"N386","from":"Kolham","name":"N386","type":"route","route":"road","network":"NL:N","operator":"Provincie Groningen;Provincie Drenthe","wikidata":"Q2180140","wikipedia":"nl:Provinciale weg 386"},"8480814":{"to":"Siebengewald (grens Duitsland)","ref":"A77","from":"Rijkevoort","name":"A77","type":"route","route":"road","network":"NL:A","website":"https://www.rijkswaterstaat.nl/wegen/wegenoverzicht/a77/index.aspx","distance":"10","operator":"Rijkswaterstaat","wikidata":"Q646399","wikipedia":"nl:Rijksweg 77"},"8480827":{"to":"Ellecom","ref":"A348","from":"Arnhem","name":"A348","type":"route","route":"road","network":"NL:A","website":"https://www.gelderland.nl/A348-Arnhem-Dieren.html","operator":"Provincie Gelderland","wikidata":"Q430370","wikipedia":"nl:Provinciale weg 348"},"9245698":{"to":"Oudehorne","ref":"N353","from":"Havelte","name":"N353","type":"route","route":"road","network":"NL:N","website":"https://www.provincie.drenthe.nl/onderwerpen/verkeer-vervoer/wegen/n353/","operator":"Provincie Drenthe;Provincie Fryslân","wikidata":"Q2309850","wikipedia":"nl:Provinciale weg 353"},"9245741":{"to":"Leek","ref":"N372","from":"Groningen","name":"N372","type":"route","route":"road","network":"NL:N","website":"https://www.provincie.drenthe.nl/onderwerpen/verkeer-vervoer/wegen/n372/","operator":"Provincie Groningen;Provincie Drenthe","wikidata":"Q2250835","wikipedia":"nl:Provinciale weg 372"},"9703514":{"ref":"14","name":"I 14 (TX)","type":"route","route":"road","network":"US:I","wikidata":"Q876745","addr:state":"TX"},"10293645":{"ref":"Zuiderzeeweg","name":"gevaarlijke stoffen","type":"route","route":"road"},"10293784":{"ref":"Provincialeweg","name":"gevaarlijke stoffen","type":"route","route":"road"},"13091213":{"to":"Heerlen","ref":"A79","from":"Maastricht","name":"A79","type":"route","route":"road","network":"NL:A","operator":"Rijkswaterstaat;Gemeente Heerlen","wikidata":"Q1857114","wikipedia":"nl:Rijksweg 79","note:operator":"Gemeente Heerlen beheert alleen kort laatste stukje met afrit 7."},"13091420":{"to":"Eijsden (grens België)","ref":"A2","from":"Amsterdam","name":"A2","type":"route","route":"road","network":"NL:A","operator":"Rijkswaterstaat","wikidata":"Q1422024","wikipedia":"nl:Rijksweg 2"},"13091482":{"to":"Ewijk","ref":"A73","from":"Echt","name":"A73","type":"route","route":"road","network":"NL:A","operator":"Rijkswaterstaat","wikidata":"Q646268","wikipedia":"nl:Rijksweg 73"},"13091506":{"to":"Venlo (grens Duitsland)","ref":"A67","from":"Reusel (grens België)","name":"A67","type":"route","route":"road","network":"NL:A","operator":"Rijkswaterstaat","wikidata":"Q1517975","wikipedia":"nl:Rijksweg 67"},"13091512":{"to":"Venlo","ref":"A74","from":"Venlo (grens Duitsland)","name":"A74","type":"route","route":"road","network":"NL:A","operator":"Rijkswaterstaat","wikidata":"Q1022542","wikipedia":"nl:Rijksweg 74"},"13091891":{"to":"Zwartemeer (grens Duitsland)","ref":"A37","from":"Hoogeveen","name":"A37","type":"route","route":"road","network":"NL:A","website":"https://www.rijkswaterstaat.nl/wegen/wegenoverzicht/a37","operator":"Rijkswaterstaat","wikidata":"Q1465749","wikipedia":"nl:Rijksweg 37"},"13092146":{"to":"Vlodrop (grens Duitsland)","ref":"N570","from":"Roermond","name":"N570","type":"route","route":"road","network":"NL:N","operator":"Provincie Limburg","wikidata":"Q2680405","wikipedia":"nl:Provinciale weg 570"},"13092187":{"to":"Heerlen","ref":"N300","from":"Nuth","name":"N300","type":"route","route":"road","network":"NL:N","alt_name":"Buitenring Parkstad","operator":"Provincie Limburg","wikidata":"Q28150105","wikipedia":"nl:Buitenring Parkstad Limburg"},"13094687":{"to":"Posterholt (grens Duitsland)","ref":"N293","from":"Roermond","name":"N293","type":"route","route":"road","network":"NL:N","operator":"Provincie Limburg","wikidata":"Q2051915","wikipedia":"nl:Provinciale weg 293"},"13094711":{"to":"Posterholt","ref":"N274","from":"Brunssum","name":"N274","note":"onderbroken door Duitse L228 en L410","type":"route","route":"road","network":"NL:N","operator":"Provincie Limburg","wikidata":"Q2646101","wikipedia":"nl:Provinciale weg 274"},"13094754":{"to":"Asenray (grens Duitsland)","ref":"N280","from":"Weert","name":"N280","type":"route","route":"road","network":"NL:N","operator":"Provincie Limburg","wikidata":"Q1540694","wikipedia":"nl:Provinciale weg 280"},"13094970":{"to":"Venlo","ref":"N273","from":"Ittervoort (grens België)","name":"N273","type":"route","route":"road","network":"NL:N","operator":"Provincie Limburg","wikidata":"Q2012167","wikipedia":"nl:Provinciale weg 273"},"13099434":{"to":"Maasbracht","ref":"N276","from":"Brunssum","name":"N276","type":"route","route":"road","network":"NL:N","operator":"Provincie Limburg","wikidata":"Q2849126","wikipedia":"nl:Provinciale weg 276"},"13100501":{"to":"Vaals (grens Duitsland)","ref":"N278","from":"Maastricht (grens België)","name":"N278","type":"route","route":"road","network":"NL:N","operator":"Provincie Limburg","wikidata":"Q2113974","wikipedia":"nl:Provinciale weg 278"},"13100545":{"to":"Heerlen","ref":"N281","from":"Nijswiller","name":"N281","type":"route","route":"road","network":"NL:N","operator":"Provincie Limburg","wikidata":"Q1630634","wikipedia":"nl:Provinciale weg 281"},"13103677":{"to":"Sittard (grens Duitsland)","ref":"N297","from":"Born","name":"N297","type":"route","route":"road","network":"NL:N","operator":"Provincie Limburg","wikidata":"Q3016073","wikipedia":"nl:Provinciale weg 297"},"13103690":{"to":"Urmond","ref":"N294","from":"Sittard","name":"N294","type":"route","route":"road","network":"NL:N","operator":"Provincie Limburg","wikidata":"Q2680964","wikipedia":"nl:Provinciale weg 294"},"13103725":{"to":"Molenhoek","ref":"N271","from":"Venlo","name":"N271","type":"route","route":"road","network":"NL:N","operator":"Provincie Limburg;Provincie Gelderland","wikidata":"Q14178234","wikipedia":"nl:Provinciale weg 271"},"13103774":{"to":"Weert","ref":"N275","from":"Venlo","name":"N275","type":"route","route":"road","network":"NL:N","operator":"Provincie Limburg","wikidata":"Q1954947","wikipedia":"nl:Provinciale weg 275"},"13103915":{"to":"Kessel","ref":"N277","from":"Ravenstein","name":"N277","type":"route","route":"road","network":"NL:N","operator":"Provincie Noord-Brabant;Provincie Limburg","wikidata":"Q14178240","wikipedia":"nl:Provinciale weg 277"},"13139181":{"to":"Lierop","ref":"N266","from":"Nederweert","name":"N266","type":"route","route":"road","network":"NL:N","operator":"Provincie Noord-Brabant;Provincie Limburg","wikidata":"Q2328539","wikipedia":"nl:Provinciale weg 266"},"13144832":{"to":"Helmond","ref":"N612","from":"Lierop","name":"N612","type":"route","route":"road","network":"NL:N","operator":"Provincie Noord-Brabant","wikidata":"Q2222726","wikipedia":"nl:Provinciale weg 612"},"13144922":{"to":"Leende","ref":"N396","from":"Valkenswaard","name":"N396","type":"route","route":"road","network":"NL:N","operator":"Provincie Noord-Brabant","wikidata":"Q2577204","wikipedia":"nl:Provinciale weg 396"},"13144937":{"to":"Bergeijk (grens België)","ref":"N69","from":"Veldhoven","name":"N69","type":"route","route":"road","network":"NL:N","operator":"Provincie Noord-Brabant","wikidata":"Q14178320","wikipedia":"nl:Provinciale weg 69"},"13144938":{"to":"Valkenswaard","ref":"N397","from":"Eersel","name":"N397","type":"route","route":"road","network":"NL:N","operator":"Provincie Noord-Brabant","wikidata":"Q2732602","wikipedia":"nl:Provinciale weg 397"},"13147043":{"to":"'s-Hertogenbosch","ref":"N279","from":"Horn","name":"N279","type":"route","route":"road","network":"NL:N","operator":"Provincie Limburg;Provincie Noord-Brabant","wikidata":"Q2492631","wikipedia":"nl:Provinciale weg 279"},"13148437":{"to":"Wassenaar","ref":"S101","from":"Den Haag-Centrum","name":"S101","type":"route","route":"road","network":"NL:S:Den Haag","wikidata":"Q2196953","wikipedia":"nl:S101 (Den Haag)"},"13148438":{"to":"Den Haag-Scheveningen","ref":"S103","from":"Den Haag-Scheveningen","name":"S103","type":"route","route":"road","network":"NL:S:Den Haag","wikidata":"Q2661639","wikipedia":"nl:S103 (Den Haag)"},"13148439":{"to":"Den Haag-Scheveningen","ref":"S102","from":"Den Haag-Centrum","name":"S102","type":"route","route":"road","network":"NL:S:Den Haag","wikidata":"Q2536224","wikipedia":"nl:S102 (Den Haag)"},"13148467":{"to":"Den Haag-Loosduinen","ref":"S104","from":"Den Haag-Centrum","name":"S104","type":"route","route":"road","network":"NL:S:Den Haag","wikidata":"Q1923266","wikipedia":"nl:S104 (Den Haag)"},"13148536":{"to":"Den Haag-Escamp","ref":"S105","from":"Den Haag-Laak","name":"S105","type":"route","route":"road","network":"NL:S:Den Haag","wikidata":"Q14293447","wikipedia":"nl:S105 (Den Haag)"},"13148544":{"to":"Rijswijk","ref":"S106","from":"Den Haag-Escamp","name":"S106","type":"route","route":"road","network":"NL:S:Den Haag","wikidata":"Q1871608","wikipedia":"nl:S106 (Den Haag)"},"13148546":{"to":"Den Haag-Ypenburg","ref":"S107","from":"Den Haag-Laak","name":"S107","type":"route","route":"road","network":"NL:S:Den Haag","wikidata":"Q2017760","wikipedia":"nl:S107 (Den Haag)"},"13148555":{"to":"Voorburg","ref":"S108","from":"Den Haag-Laak","name":"S108","type":"route","route":"road","network":"NL:S:Den Haag","wikidata":"Q2695447","wikipedia":"nl:S108 (Den Haag)"},"13148567":{"to":"Wassenaar","ref":"S200","from":"Den Haag-Loosduinen","name":"Ring S200","note":"Onderdeel van Ring Den Haag. Deel dubbelgenummerd met N440 beheerd door provincie, rest door gemeente.","type":"route","route":"road","network":"NL:S:Den Haag","operator":"Gemeente Den Haag;Provincie Zuid-Holland","wikidata":"Q1810601","wikipedia":"nl:S200 (Den Haag)"},"13148594":{"to":"Den Hoorn","ref":"N223","from":"Hoek van Holland","name":"N223","type":"route","route":"road","network":"NL:N","operator":"Provincie Zuid-Holland;Gemeente Rotterdam","wikidata":"Q2327238","wikipedia":"nl:Provinciale weg 223"},"13148623":{"to":"Den Hoorn","ref":"N211","from":"Hoek van Holland","name":"N211","type":"route","route":"road","network":"NL:N","operator":"Provincie Zuid-Holland;Gemeente Rotterdam;Gemeente Den Haag","wikidata":"Q1784648","wikipedia":"nl:Provinciale weg 211"},"13148702":{"to":"Maasdijk","ref":"N220","from":"'s-Gravenzande","name":"N220","type":"route","route":"road","network":"NL:N","operator":"Provincie Zuid-Holland","wikidata":"Q2113951","wikipedia":"nl:Provinciale weg 220"},"13148955":{"to":"Wateringen","ref":"N222","from":"Naaldwijk","name":"N222","type":"route","route":"road","network":"NL:N","operator":"Provincie Zuid-Holland","wikidata":"Q2311702","wikipedia":"nl:Provinciale weg 222"},"13148956":{"to":"Poeldijk","ref":"N213","from":"Westerlee","name":"N213","type":"route","route":"road","network":"NL:N","operator":"Provincie Zuid-Holland","wikidata":"Q14178217","wikipedia":"nl:Provinciale weg 213"},"13149141":{"to":"Naaldwijk (N222)","ref":"N465","from":"Naaldwijk (N213)","name":"N465","type":"route","route":"road","network":"NL:N","operator":"Provincie Zuid-Holland","wikidata":"Q1924780","wikipedia":"nl:Provinciale weg 465"},"13149259":{"to":"Zoetermeer","ref":"N470","from":"Delft","name":"N470","type":"route","route":"road","network":"NL:N","operator":"Provincie Zuid-Holland;Gemeente Zoetermeer;Rijkswaterstaat","wikidata":"Q1814587","wikipedia":"nl:Provinciale weg 470"},"13149266":{"to":"Pijnacker","ref":"N471","from":"Rotterdam","name":"N471","type":"route","route":"road","network":"NL:N","operator":"Provincie Zuid-Holland;Gemeente Rotterdam","wikidata":"Q2714761","wikipedia":"nl:Provinciale weg 471"},"13149323":{"to":"Hazerwoude-Rijndijk","ref":"N209","from":"Rotterdam","name":"N209","type":"route","route":"road","network":"NL:N","operator":"Provincie Zuid-Holland;Rijkswaterstaat","wikidata":"Q2961119","wikipedia":"nl:Provinciale weg 209","note:operator":"Rijkswaterstaat heeft wegbeheer Doenkade overgenomen van provincie i.v.m. aanleg A16 Rotterdam."},"13149335":{"to":"Waddinxveen","ref":"N457","from":"Gouda","name":"N457","type":"route","route":"road","network":"NL:N","operator":"Provincie Zuid-Holland","wikidata":"Q28114231","wikipedia":"nl:Provinciale weg 457"},"13149353":{"to":"Waddinxveen (N207)","ref":"N452","from":"Waddinxveen (N451)","name":"N452","type":"route","route":"road","network":"NL:N","operator":"Provincie Zuid-Holland","wikidata":"Q2332982","wikipedia":"nl:Provinciale weg 452"},"13149354":{"to":"Gouda","ref":"N451","from":"Waddinxveen","name":"N451","type":"route","route":"road","network":"NL:N","operator":"Provincie Zuid-Holland","wikidata":"Q28114230","wikipedia":"nl:Provinciale weg 451"},"13149391":{"to":"Hoogvliet","ref":"S101","from":"Rotterdam-Charlois","name":"S101","type":"route","route":"road","network":"NL:S:Rotterdam","wikidata":"Q108333165"},"13149543":{"to":"Breda (grens België)","ref":"A16","from":"Rotterdam","name":"A16","type":"route","route":"road","network":"NL:A","operator":"Rijkswaterstaat","wikidata":"Q1469578","wikipedia":"nl:Rijksweg 16"},"13151365":{"to":"Ossendrecht (grens België)","ref":"A4","from":"Amsterdam","name":"A4","note":"Het deel Klaaswaal-Sabina is onderdeel van Rijksweg 4, maar niet van de A4. (Net als dat de A18 geen onderdeel van de A15 is, maar wel van Rijksweg 15.)","type":"route","route":"road","network":"NL:A","operator":"Rijkswaterstaat","wikidata":"Q1557823","wikipedia":"nl:Rijksweg 4"},"13151450":{"to":"Vlissingen","ref":"A58","from":"Eindhoven","name":"A58","type":"route","route":"road","network":"NL:A","operator":"Rijkswaterstaat","wikidata":"Q1604527","wikipedia":"nl:Rijksweg 58"},"13151480":{"to":"Den Haag-Leidschenveen","ref":"N14","from":"Wassenaar","name":"N14","type":"route","route":"road","network":"NL:N","operator":"Rijkswaterstaat","wikidata":"Q1925337","wikipedia":"nl:Rijksweg 14"},"13151573":{"to":"Rotterdam-Charlois","ref":"S102","from":"Spijkenisse","name":"S102","type":"route","route":"road","network":"NL:S:Rotterdam","wikidata":"Q108333166"},"13151609":{"ref":"S100","name":"Centrumring S100","type":"route","route":"road","network":"NL:S:Rotterdam","wikidata":"Q108333162","description":"Centrumring Rotterdam"},"13151669":{"to":"Rotterdam-Vaanplein","ref":"S103","from":"Rotterdam-Centrum","name":"S103","type":"route","route":"road","network":"NL:S:Rotterdam","wikidata":"Q108333168"},"13151682":{"to":"Barendrecht","ref":"S104","from":"Rotterdam-IJsselmonde","name":"S104","type":"route","route":"road","network":"NL:S:Rotterdam","wikidata":"Q108333170"},"13151879":{"to":"Babberich (grens Duitsland)","ref":"A12","from":"Den Haag","name":"A12","type":"route","route":"road","network":"NL:A","alt_name":"Regenboogroute","operator":"Rijkswaterstaat;Gemeente Den Haag","wikidata":"Q2093936","wikipedia":"nl:Rijksweg 12"},"13151969":{"to":"Kootwijk","ref":"N302","from":"Lelystad","name":"N302","type":"route","route":"road","network":"NL:N","operator":"Provincie Flevoland;Provincie Gelderland","wikidata":"Q2113981","wikipedia":"nl:Provinciale weg 302"},"13151970":{"to":"Lelystad (A6)","ref":"N727","from":"Lelystad Airport","name":"N727","type":"route","route":"road","network":"NL:N","operator":"Provincie Flevoland","wikidata":"Q32426322","wikipedia":"nl:Provinciale weg 727"},"13152002":{"to":"Lelystad (N302)","ref":"N706","from":"Almere","name":"N706","type":"route","route":"road","network":"NL:N","operator":"Provincie Flevoland","wikidata":"Q2566891","wikipedia":"nl:Provinciale weg 706"},"13152003":{"to":"Zeewolde (N706)","ref":"N705","from":"Zeewolde (N301)","name":"N705","type":"route","route":"road","network":"NL:N","operator":"Provincie Flevoland","wikidata":"Q1833092","wikipedia":"nl:Provinciale weg 705"},"13152028":{"to":"Almere","ref":"N305","from":"Dronten","name":"N305","type":"route","route":"road","network":"NL:N","operator":"Provincie Flevoland","wikidata":"Q2060424","wikipedia":"nl:Provinciale weg 305"},"13152090":{"ref":"N7","name":"N7","type":"route","route":"road","network":"NL:N","operator":"Rijkswaterstaat","wikidata":"Q2152999","wikipedia":"nl:Rijksweg 7"},"13152422":{"to":"Bolnes","ref":"S105","from":"Rotterdam-Feijenoord","name":"S105","type":"route","route":"road","network":"NL:S:Rotterdam","wikidata":"Q108347921"},"13152438":{"to":"Zeewolde (N301)","ref":"N704","from":"Zeewolde (N305)","name":"N704","type":"route","route":"road","network":"NL:N","operator":"Provincie Flevoland","wikidata":"Q2611555","wikipedia":"nl:Provinciale weg 704"},"13152442":{"to":"Barneveld","ref":"N301","from":"Zeewolde","name":"N301","type":"route","route":"road","network":"NL:N","operator":"Provincie Flevoland;Provincie Gelderland","wikidata":"Q2406828","wikipedia":"nl:Provinciale weg 301"},"13152555":{"to":"Almere","ref":"A27","from":"Breda","name":"A27","type":"route","route":"road","network":"NL:A","operator":"Rijkswaterstaat","wikidata":"Q685888","wikipedia":"nl:Rijksweg 27"},"13154710":{"to":"Joure","ref":"A6","from":"Muiderberg","name":"A6","type":"route","route":"road","network":"NL:A","operator":"Rijkswaterstaat","wikidata":"Q1666761","wikipedia":"nl:Rijksweg 6"},"13154736":{"to":"Almere Buiten","ref":"N702","from":"Almere Poort","name":"N702","type":"route","route":"road","network":"NL:N","operator":"Provincie Flevoland","wikidata":"Q5105706","wikipedia":"nl:Provinciale weg 702"},"13154753":{"to":"Almere (A6)","ref":"N703","from":"Almere (N702)","name":"N703","type":"route","route":"road","network":"NL:N","operator":"Provincie Flevoland","wikidata":"Q1935852","wikipedia":"nl:Provinciale weg 703"},"13158458":{"to":"Rotterdam-IJsselmonde","ref":"S106","from":"Rotterdam-Centrum","name":"S106","type":"route","route":"road","network":"NL:S:Rotterdam","wikidata":"Q108347925"},"13158484":{"to":"Rotterdam-Kralingen (A16)","ref":"S108","from":"Rotterdam-Kralingen (S107)","name":"S108","type":"route","route":"road","network":"NL:S:Rotterdam","wikidata":"Q108347932"},"13158485":{"to":"Capelle aan den IJssel","ref":"S107","from":"Rotterdam-Centrum","name":"S107","type":"route","route":"road","network":"NL:S:Rotterdam","wikidata":"Q108347928"},"13158535":{"to":"Rotterdam-Prins Alexander","ref":"S109","from":"Rotterdam-Centrum","name":"S109","type":"route","route":"road","network":"NL:S:Rotterdam","wikidata":"Q108347942"},"13158549":{"to":"Rotterdam-Crooswijk","ref":"S111","from":"Rotterdam-Kralingen","name":"S111","type":"route","route":"road","network":"NL:S:Rotterdam","wikidata":"Q108347947"},"13158558":{"to":"Berkel en Rodenrijs","ref":"S112","from":"Rotterdam-Centrum","name":"S112","type":"route","route":"road","network":"NL:S:Rotterdam","wikidata":"Q108347949"},"13158601":{"to":"Rotterdam-Overschie","ref":"S114","from":"Rotterdam-Centrum","name":"S114","type":"route","route":"road","network":"NL:S:Rotterdam","wikidata":"Q108350484"},"13158602":{"to":"Rotterdam-Kleinpolderplein","ref":"S113","from":"Rotterdam-Centrum","name":"S113","type":"route","route":"road","network":"NL:S:Rotterdam","wikidata":"Q108347951"},"13158633":{"to":"Schiedam","ref":"S115","from":"Rotterdam-Centrum","name":"S115","type":"route","route":"road","network":"NL:S:Rotterdam","wikidata":"Q108350492"},"13158671":{"to":"Roosendaal","ref":"A17","from":"Moerdijk","name":"A17","type":"route","route":"road","network":"NL:A","operator":"Rijkswaterstaat","wikidata":"Q847531","wikipedia":"nl:Rijksweg 17"},"13158680":{"to":"Heijningen","ref":"A29","from":"Rotterdam","name":"A29","type":"route","route":"road","network":"NL:A","operator":"Rijkswaterstaat","wikidata":"Q847373","wikipedia":"nl:Rijksweg 29"},"13158697":{"to":"Knooppunt Ridderkerk","ref":"A38","from":"Bolnes","name":"A38","type":"route","route":"road","network":"NL:A","operator":"Rijkswaterstaat","wikidata":"Q1410119","wikipedia":"nl:Rijksweg 38"},"13158746":{"to":"Barneveld","ref":"A30","from":"Ede","name":"A30","type":"route","route":"road","network":"NL:A","operator":"Rijkswaterstaat","wikidata":"Q1543288","wikipedia":"nl:Rijksweg 30"},"13160786":{"to":"Rotterdam-Charlois","ref":"S118","from":"Rotterdam-IJsselmonde","name":"S118","type":"route","route":"road","network":"NL:S:Rotterdam","wikidata":"Q108350499"},"13160797":{"to":"Rotterdam-Charlois","ref":"S120","from":"Rotterdam-Feijenoord","name":"S120","type":"route","route":"road","network":"NL:S:Rotterdam","wikidata":"Q108350506"},"13160798":{"to":"Portland","ref":"S121","from":"Rotterdam-Zuidplein","name":"S121","type":"route","route":"road","network":"NL:S:Rotterdam","wikidata":"Q108350510"},"13160846":{"to":"Rotterdam-Zuidplein","ref":"S122","from":"Rotterdam-Centrum","name":"S122","type":"route","route":"road","network":"NL:S:Rotterdam","wikidata":"Q108350518"},"13160896":{"to":"Rotterdam-IJsselmonde","ref":"S123","from":"Rotterdam-Centrum","name":"S123","type":"route","route":"road","network":"NL:S:Rotterdam","wikidata":"Q108350522"},"13160898":{"to":"Rotterdam-IJsselmonde","ref":"S124","from":"Rotterdam-Charlois","name":"S124","type":"route","route":"road","network":"NL:S:Rotterdam","wikidata":"Q108350527"},"13160974":{"to":"Rotterdam-Feijenoord","ref":"S126","from":"Rotterdam-IJsselmonde","name":"S126","type":"route","route":"road","network":"NL:S:Rotterdam","wikidata":"Q108350539"},"13160975":{"to":"Rotterdam-Zuidplein","ref":"S125","from":"Rotterdam-Feijenoord","name":"S125","type":"route","route":"road","network":"NL:S:Rotterdam","wikidata":"Q108350534"},"13160991":{"to":"Capelle aan den IJssel","ref":"S127","from":"Rotterdam-Prins Alexander","name":"S127","type":"route","route":"road","network":"NL:S:Rotterdam","wikidata":"Q108350549"},"13161021":{"to":"Westzaan","ref":"A8","from":"Amsterdam","name":"A8","type":"route","route":"road","network":"NL:A","operator":"Rijkswaterstaat","wikidata":"Q1668976","wikipedia":"nl:Rijksweg 8"},"13161036":{"to":"Uitgeest","ref":"N8","from":"Westzaan","name":"N8","type":"route","route":"road","network":"NL:N","operator":"Provincie Noord-Holland","wikidata":"Q1668976","wikipedia":"nl:Rijksweg 8"},"13161086":{"to":"Alkmaar","ref":"A9","from":"Amsterdam","name":"A9","type":"route","route":"road","network":"NL:A","operator":"Rijkswaterstaat","wikidata":"Q654031","wikipedia":"nl:Rijksweg 9"},"13161140":{"to":"Den Helder","ref":"N9","from":"Alkmaar","name":"N9","type":"route","route":"road","network":"NL:N","operator":"Rijkswaterstaat","wikidata":"Q654031","wikipedia":"nl:Rijksweg 9"},"13161155":{"to":"Den Oever","ref":"N99","from":"Den Helder","name":"N99","type":"route","route":"road","network":"NL:N","operator":"Rijkswaterstaat","wikidata":"Q4631453","wikipedia":"nl:Rijksweg 99"},"13161158":{"to":"Van Ewijcksluis","ref":"N249","from":"Stolpen","name":"N249","type":"route","route":"road","network":"NL:N","operator":"Provincie Noord-Holland","wikidata":"Q2133735","wikipedia":"nl:Provinciale weg 249"},"13161165":{"to":"Den Helder","ref":"N250","from":"Den Helder (N9)","name":"N250","type":"route","route":"road","network":"NL:N","operator":"Provincie Noord-Holland","wikidata":"Q4310548","wikipedia":"nl:Provinciale weg 250"},"13161186":{"to":"Dordrecht","ref":"N3","from":"Papendrecht","name":"N3","type":"route","route":"road","network":"NL:N","operator":"Rijkswaterstaat","wikidata":"Q143060","wikipedia":"nl:Rijksweg 3"},"13161216":{"to":"Bodegraven","ref":"N11","from":"Leiden","name":"N11","type":"route","route":"road","network":"NL:N","operator":"Rijkswaterstaat","wikidata":"Q732527","wikipedia":"nl:Rijksweg 11"},"13161312":{"to":"Harderhaven","ref":"N306","from":"Roggebotsluis","name":"N306","type":"route","route":"road","network":"NL:N","operator":"Provincie Flevoland","wikidata":"Q2551156","wikipedia":"nl:Provinciale weg 306"},"13161313":{"to":"Zeewolde","ref":"N707","from":"Harderhaven","name":"N707","type":"route","route":"road","network":"NL:N","operator":"Provincie Flevoland","wikidata":"Q13584020","wikipedia":"nl:Provinciale weg 707"},"13161351":{"to":"Biddinghuizen","ref":"N710","from":"Swifterbant","name":"N710","type":"route","route":"road","network":"NL:N","operator":"Provincie Flevoland","wikidata":"Q2209956","wikipedia":"nl:Provinciale weg 710"},"13161352":{"to":"Dronten (N309)","ref":"N709","from":"Biddinghuizen","name":"N709","type":"route","route":"road","network":"NL:N","operator":"Provincie Flevoland","wikidata":"Q9210868","wikipedia":"nl:Provinciale weg 709"},"13161353":{"to":"Biddinghuizen","ref":"N708","from":"Biddinghuizen (N306)","name":"N708","type":"route","route":"road","network":"NL:N","operator":"Provincie Flevoland","wikidata":"Q2380528","wikipedia":"nl:Provinciale weg 708"},"13161355":{"to":"Dronten","ref":"N711","from":"Swifterbant","name":"N711","type":"route","route":"road","network":"NL:N","operator":"Provincie Flevoland","wikidata":"Q1960424","wikipedia":"nl:Provinciale weg 711"},"13161422":{"to":"Epe","ref":"N309","from":"Lelystad","name":"N309","type":"route","route":"road","network":"NL:N","operator":"Provincie Flevoland;Provincie Gelderland","wikidata":"Q4457178","wikipedia":"nl:Provinciale weg 309"},"13161423":{"to":"Wezep","ref":"N308","from":"Elburg","name":"N308","type":"route","route":"road","network":"NL:N","operator":"Provincie Gelderland","wikidata":"Q3271587","wikipedia":"nl:Provinciale weg 308"},"13161461":{"to":"Kampen","ref":"N307","from":"Hoorn","name":"N307","type":"route","route":"road","network":"NL:N","operator":"Provincie Noord-Holland;Provincie Flevoland;Provincie Overijssel","wikidata":"Q2286194","wikipedia":"nl:Provinciale weg 307"},"13161527":{"to":"Bemmel","ref":"A15","from":"Rotterdam","name":"A15","type":"route","route":"road","network":"NL:A","operator":"Rijkswaterstaat","wikidata":"Q589064","wikipedia":"nl:Rijksweg 15"},"13161564":{"to":"Helmond","ref":"A270","from":"Nuenen","name":"A270","type":"route","route":"road","network":"NL:A","operator":"Provincie Noord-Brabant","wikidata":"Q2804781","wikipedia":"nl:Provinciale weg 270"},"13161630":{"to":"Nijmegen","ref":"A326","from":"Wijchen","name":"A326","type":"route","route":"road","network":"NL:A","operator":"Provincie Gelderland","wikidata":"Q4411434","wikipedia":"nl:Provinciale weg 326"},"13161631":{"to":"Hattem","ref":"A50","from":"Eindhoven","name":"A50","type":"route","route":"road","network":"NL:A","operator":"Rijkswaterstaat","wikidata":"Q1476638","wikipedia":"nl:Rijksweg 50"},"13161715":{"to":"Emmeloord","ref":"N50","from":"Hattem","name":"N50","type":"route","route":"road","network":"NL:N","operator":"Rijkswaterstaat","wikidata":"Q1476638","wikipedia":"nl:Rijksweg 50"},"13161925":{"to":"Oss","ref":"A59","from":"Hellegatsplein","name":"A59","type":"route","route":"road","network":"NL:A","operator":"Rijkswaterstaat","wikidata":"Q1479591","wikipedia":"nl:Rijksweg 59"},"13161945":{"to":"Goes","ref":"A256","from":"Goes (A58)","name":"A256","type":"route","route":"road","network":"NL:A","operator":"Provincie Zeeland","wikidata":"Q2113967","wikipedia":"nl:Provinciale weg 256"},"13161979":{"to":"Varsseveld","ref":"A18","from":"Babberich","name":"A18","type":"route","route":"road","network":"NL:A","operator":"Rijkswaterstaat","wikidata":"Q589064","wikipedia":"nl:Rijksweg 15"},"13162099":{"to":"Beverwijk","ref":"A22","from":"Velsen","name":"A22","type":"route","route":"road","network":"NL:A","operator":"Rijkswaterstaat","wikidata":"Q1813127","wikipedia":"nl:Rijksweg 22"},"13162106":{"to":"Haarlem","ref":"A200","from":"Halfweg","name":"A200","type":"route","route":"road","network":"NL:A","operator":"Rijkswaterstaat;Gemeente Haarlem","wikidata":"Q2152928","wikipedia":"nl:Rijksweg 200","old_ref:-1993":"A5","old_name:-1993":"A5"},"13162112":{"to":"Zandvoort","ref":"N200","from":"Amsterdam","name":"N200","note":"onderbroken door A200","type":"route","route":"road","network":"NL:N","operator":"Rijkswaterstaat;Provincie Noord-Holland;Gemeente Haarlem;Gemeente Bloemendaal","wikidata":"Q2152928","wikipedia":"nl:Rijksweg 200","old_ref:-1993":"N5","old_name:-1993":"N5"},"13162182":{"to":"Wassenaar","ref":"A44","from":"Nieuw-Vennep","name":"A44","type":"route","route":"road","network":"NL:A","operator":"Rijkswaterstaat","wikidata":"Q1429839","wikipedia":"nl:Rijksweg 44"},"13162183":{"to":"Wassenaar (N14)","ref":"N44","from":"Wassenaar","name":"N44","type":"route","route":"road","network":"NL:N","operator":"Rijkswaterstaat","wikidata":"Q1429839","wikipedia":"nl:Rijksweg 44"},"13162209":{"to":"Enschede","ref":"N18","from":"Varsseveld","name":"N18","type":"route","route":"road","network":"NL:N","operator":"Rijkswaterstaat","wikidata":"Q589064","wikipedia":"nl:Rijksweg 15"},"13162245":{"to":"Enschede (grens Duitsland)","ref":"N35","from":"Zwolle","name":"N35","note":"onderbroken door A35","type":"route","route":"road","network":"NL:N","operator":"Rijkswaterstaat;Gemeente Zwolle","wikidata":"Q1763757","wikipedia":"nl:Rijksweg 35"},"13162246":{"to":"Enschede","ref":"A35","from":"Wierden","name":"A35","type":"route","route":"road","network":"NL:A","operator":"Rijkswaterstaat","wikidata":"Q1763757","wikipedia":"nl:Rijksweg 35"},"13162324":{"to":"Tilburg","ref":"N65","from":"Vught","name":"N65","type":"route","route":"road","network":"NL:N","operator":"Rijkswaterstaat","wikidata":"Q616141","wikipedia":"nl:Rijksweg 65"},"13162325":{"to":"Tilburg","ref":"A65","from":"Vught","name":"A65","note":"onderbroken door N65","type":"route","route":"road","network":"NL:A","operator":"Rijkswaterstaat","wikidata":"Q616141","wikipedia":"nl:Rijksweg 65"},"13162342":{"to":"Drachten","ref":"N31","from":"Zurich","name":"N31","note":"onderbroken door A31","type":"route","route":"road","network":"NL:N","operator":"Rijkswaterstaat","wikidata":"Q1552352","wikipedia":"nl:Rijksweg 31"},"13162343":{"to":"Marsum","ref":"A31","from":"Harlingen","name":"A31","note":"onderbroken door N31","type":"route","route":"road","network":"NL:A","operator":"Rijkswaterstaat","wikidata":"Q1552352","wikipedia":"nl:Rijksweg 31"},"13162353":{"to":"Leeuwarden","ref":"A32","from":"Meppel","name":"A32","type":"route","route":"road","network":"NL:A","operator":"Rijkswaterstaat","wikidata":"Q1573208","wikipedia":"nl:Rijksweg 32"},"13162354":{"to":"Leeuwarden","ref":"N32","from":"Wirdum","name":"N32","type":"route","route":"road","network":"NL:N","operator":"Rijkswaterstaat","wikidata":"Q1573208","wikipedia":"nl:Rijksweg 32"},"13164960":{"to":"Oirschot","ref":"N395","from":"Hilvarenbeek","name":"N395","type":"route","route":"road","network":"NL:N","operator":"Provincie Noord-Brabant","wikidata":"Q2201823","wikipedia":"nl:Provinciale weg 395"},"13164977":{"to":"Tilburg","ref":"N269","from":"Reusel","name":"N269","type":"route","route":"road","network":"NL:N","operator":"Provincie Noord-Brabant","wikidata":"Q2099963","wikipedia":"nl:Provinciale weg 269"},"13164994":{"to":"Hapert","ref":"N284","from":"Reusel","name":"N284","type":"route","route":"road","network":"NL:N","operator":"Provincie Noord-Brabant","wikidata":"Q2372814","wikipedia":"nl:Provinciale weg 284"},"13184114":{"to":"Well","ref":"N270","from":"Eindhoven","name":"N270","note":"onderbroken door A270","type":"route","route":"road","network":"NL:N","operator":"Provincie Noord-Brabant;Provincie Limburg;Gemeente Eindhoven;Gemeente Helmond","wikidata":"Q2804781","wikipedia":"nl:Provinciale weg 270"},"13184141":{"to":"Boxmeer","ref":"N272","from":"Beek en Donk","name":"N272","type":"route","route":"road","network":"NL:N","operator":"Provincie Noord-Brabant","wikidata":"Q2060702","wikipedia":"nl:Provinciale weg 272"},"13184196":{"to":"Gennep","ref":"N264","from":"Uden","name":"N264","type":"route","route":"road","network":"NL:N","operator":"Provincie Noord-Brabant;Provincie Limburg","wikidata":"Q2396042","wikipedia":"nl:Provinciale weg 264"},"13184200":{"to":"Ven-Zelderheide (grens Duitsland)","ref":"N291","from":"Ottersum","name":"N291","type":"route","route":"road","network":"NL:N","operator":"Provincie Limburg","wikidata":"Q2945365","wikipedia":"nl:Provinciale weg 291"},"13184261":{"to":"Beek en Donk","ref":"N615","from":"Gerwen","name":"N615","type":"route","route":"road","network":"NL:N","operator":"Provincie Noord-Brabant","wikidata":"Q2020024","wikipedia":"nl:Provinciale weg 615"},"13184264":{"to":"Bakel","ref":"N607","from":"Helmond","name":"N607","type":"route","route":"road","network":"NL:N","operator":"Provincie Noord-Brabant","wikidata":"Q14178308","wikipedia":"nl:Provinciale weg 607"},"13184271":{"to":"Volkel","ref":"N605","from":"Gemert","name":"N605","type":"route","route":"road","network":"NL:N","operator":"Provincie Noord-Brabant","wikidata":"Q2603089","wikipedia":"nl:Provinciale weg 605"},"13184292":{"to":"Son en Breugel","ref":"N620","from":"Best","name":"N620","type":"route","route":"road","network":"NL:N","operator":"Provincie Noord-Brabant","wikidata":"Q2471844","wikipedia":"nl:Provinciale weg 620"},"13188197":{"to":"Horst","ref":"N556","from":"Venlo","name":"N556","type":"route","route":"road","network":"NL:N","operator":"Provincie Limburg","wikidata":"Q1981404","wikipedia":"nl:Provinciale weg 556"},"13188198":{"to":"Sevenum","ref":"N295","from":"Venlo","name":"N295","type":"route","route":"road","network":"NL:N","operator":"Provincie Limburg","wikidata":"Q2586064","wikipedia":"nl:Provinciale weg 295"},"13188343":{"to":"Hulten","ref":"N260A","from":"Tilburg","name":"N260A","type":"route","route":"road","network":"NL:N","operator":"Provincie Noord-Brabant","wikidata":"Q108478516"},"13188344":{"to":"Tilburg","ref":"N260","from":"Baarle (grens België)","name":"N260","type":"route","route":"road","network":"NL:N","operator":"Provincie Noord-Brabant;Gemeente Tilburg","wikidata":"Q1868632","wikipedia":"nl:Provinciale weg 260","note:operator":"Ook delen van de N260 door Belgische enclaves zijn in beheer van de Nederlandse provincie Noord-Brabant."},"13188387":{"to":"Waalwijk","ref":"N261","from":"Tilburg","name":"N261","type":"route","route":"road","network":"NL:N","operator":"Provincie Noord-Brabant;Gemeente Tilburg","wikidata":"Q2113972","wikipedia":"nl:Provinciale weg 261"},"13188398":{"to":"Tilburg","ref":"N632","from":"Dongen","name":"N632","type":"route","route":"road","network":"NL:N","operator":"Provincie Noord-Brabant;Gemeente Dongen","wikidata":"Q2692086","wikipedia":"nl:Provinciale weg 632"},"13188399":{"to":"Dongen","ref":"N629","from":"Oosterhout","name":"N629","type":"route","route":"road","network":"NL:N","operator":"Provincie Noord-Brabant","wikidata":"Q2048424","wikipedia":"nl:Provinciale weg 629"},"13188456":{"to":"Tilburg","ref":"N282","from":"Breda","name":"N282","type":"route","route":"road","network":"NL:N","operator":"Provincie Noord-Brabant;Gemeente Breda","wikidata":"Q2084932","wikipedia":"nl:Provinciale weg 282"},"13188457":{"to":"Oosterhout","ref":"N631","from":"Rijen","name":"N631","type":"route","route":"road","network":"NL:N","operator":"Provincie Noord-Brabant","wikidata":"Q2562218","wikipedia":"nl:Provinciale weg 631"},"13188524":{"to":"Roosendaal","ref":"N268","from":"Dinteloord","name":"N268","type":"route","route":"road","network":"NL:N","operator":"Provincie Noord-Brabant","wikidata":"Q2420436","wikipedia":"nl:Provinciale weg 268"},"13188525":{"to":"Roosendaal","ref":"N262","from":"Nispen (grens België)","name":"N262","type":"route","route":"road","network":"NL:N","operator":"Provincie Noord-Brabant;Gemeente Roosendaal","wikidata":"Q2473114","wikipedia":"nl:Provinciale weg 262"},"13188552":{"to":"Giessen","ref":"N267","from":"Nieuwkuijk","name":"N267","type":"route","route":"road","network":"NL:N","operator":"Provincie Noord-Brabant","wikidata":"Q2437179","wikipedia":"nl:Provinciale weg 267"},"13201637":{"to":"Oss","ref":"N324","from":"Nijmegen","name":"N324","type":"route","route":"road","network":"NL:N","operator":"Provincie Gelderland;Provincie Noord-Brabant","wikidata":"Q2008636","wikipedia":"nl:Provinciale weg 324"},"13201638":{"to":"Cuijk","ref":"N321","from":"Grave","name":"N321","type":"route","route":"road","network":"NL:N","operator":"Provincie Noord-Brabant","wikidata":"Q2514640","wikipedia":"nl:Provinciale weg 321"},"13202078":{"to":"Puiflijk","ref":"N329","from":"Oss","name":"N329","type":"route","route":"road","network":"NL:N","operator":"Provincie Noord-Brabant;Provincie Gelderland","wikidata":"Q2905529","wikipedia":"nl:Provinciale weg 329"},"13202095":{"to":"Beuningen","ref":"N322","from":"Nieuwendijk","name":"N322","type":"route","route":"road","network":"NL:N","operator":"Provincie Noord-Brabant;Provincie Gelderland","wikidata":"Q2469487","wikipedia":"nl:Provinciale weg 322"},"13202096":{"to":"Echteld","ref":"N323","from":"Beneden-Leeuwen","name":"N323","type":"route","route":"road","network":"NL:N","operator":"Provincie Gelderland","wikidata":"Q2425837","wikipedia":"nl:Provinciale weg 323"},"13202131":{"to":"Wijk en Aalburg","ref":"N283","from":"Hank","name":"N283","type":"route","route":"road","network":"NL:N","operator":"Provincie Noord-Brabant","wikidata":"Q14178246","wikipedia":"nl:Provinciale weg 283"},"13221631":{"to":"Blaricum","ref":"N526","from":"Crailo","name":"N526","type":"route","route":"road","network":"NL:N","operator":"Provincie Noord-Holland","wikidata":"Q2669501","wikipedia":"nl:Provinciale weg 526"},"13221632":{"to":"Huizen","ref":"N527","from":"Crailo","name":"N527","type":"route","route":"road","network":"NL:N","operator":"Provincie Noord-Holland","wikidata":"Q2006511","wikipedia":"nl:Provinciale weg 527"},"13221688":{"to":"Bussum","ref":"N524","from":"Hilversum","name":"N524","type":"route","route":"road","network":"NL:N","operator":"Provincie Noord-Holland","wikidata":"Q2501475","wikipedia":"nl:Provinciale weg 524"},"13221689":{"to":"Hilversum","ref":"N525","from":"Laren","name":"N525","type":"route","route":"road","network":"NL:N","operator":"Provincie Noord-Holland","wikidata":"Q2410198","wikipedia":"nl:Provinciale weg 525"},"13221861":{"to":"Bussum","ref":"N236","from":"Amsterdam-Zuidoost","name":"N236","type":"route","route":"road","network":"NL:N","operator":"Provincie Noord-Holland","wikidata":"Q2855520","wikipedia":"nl:Provinciale weg 236"},"13221965":{"to":"N201","ref":"N523","from":"N236","name":"N523","note":"Onderbroken in Nederhorst den Berg","type":"route","route":"road","network":"NL:N","operator":"Provincie Noord-Holland","wikidata":"Q5435576","wikipedia":"nl:Provinciale weg 523"},"13231913":{"to":"Amersfoort","ref":"N221","from":"Baarn","name":"N221","type":"route","route":"road","network":"NL:N","operator":"Provincie Utrecht;Gemeente Amersfoort;Gemeente Soest","wikidata":"Q2273614","wikipedia":"nl:Provinciale weg 221"},"13232527":{"to":"Middelburg","ref":"N57","from":"Europoort","name":"N57","type":"route","route":"road","network":"NL:N","operator":"Rijkswaterstaat","wikidata":"Q447309","wikipedia":"nl:Rijksweg 57"},"13232690":{"to":"Hoogeveen","ref":"N48","from":"Ommen","name":"N48","type":"route","route":"road","network":"NL:N","operator":"Rijkswaterstaat","wikidata":"Q2049033","wikipedia":"nl:Rijksweg 48"},"13236835":{"to":"Lelystad","ref":"N701","from":"Almere Poort","name":"N701","type":"route","route":"road","network":"NL:N","operator":"Provincie Flevoland","wikidata":"Q2714607","wikipedia":"nl:Provinciale weg 701"},"13240594":{"to":"Middenmeer","ref":"N242","from":"Alkmaar","name":"N242","type":"route","route":"road","network":"NL:N","operator":"Provincie Noord-Holland","wikidata":"Q2301854","wikipedia":"nl:Provinciale weg 242"},"13241172":{"to":"Groenekan","ref":"N230","from":"Maarssen","name":"N230","type":"route","route":"road","network":"NL:N","operator":"Provincie Utrecht","wikidata":"Q2641327","wikipedia":"nl:Provinciale weg 230"},"13241696":{"to":"Breda (grens België)","ref":"E 19","from":"Amsterdam","name":"E19 Nederland","type":"route","route":"road","name:de":"E 19 Niederlande","name:en":"E 19 Netherlands","name:nl":"E19 Nederland","nat_ref":"E19","network":"e-road","section":"Nederland","operator":"Rijkswaterstaat","wikidata":"Q1375828","wikipedia":"en:European route E19"},"13246796":{"to":"Den Burg","ref":"N501","from":"'t Horntje, Veerhaven","name":"N501","type":"route","route":"road","network":"NL:N","operator":"Provincie Noord-Holland","wikidata":"Q2805071","wikipedia":"nl:Provinciale weg 501"},"13246882":{"to":"Noord-Scharwoude","ref":"N504","from":"Schoorl","name":"N504","type":"route","route":"road","network":"NL:N","operator":"Provincie Noord-Holland","wikidata":"Q2800966","wikipedia":"nl:Provinciale weg 504"},"13248707":{"to":"Knooppunt Rottepolderplein (A9)","ref":"A205","from":"Knooppunt Rottepolderplein (N205)","name":"A205","type":"route","route":"road","network":"NL:A","operator":"Rijkswaterstaat","wikidata":"Q2417014","wikipedia":"nl:Rijksweg 205"},"13251872":{"to":"Hellegatsplein","ref":"N59","from":"Serooskerke","name":"N59","note":"N59 begint met omgekeerde (aflopende) hectometrering. Vanaf Zierikzee is er normale (oplopende) hectometrering.","type":"route","route":"road","network":"NL:N","operator":"Rijkswaterstaat","wikidata":"Q1479591","wikipedia":"nl:Rijksweg 59"},"13251881":{"to":"Heinkenszand","ref":"N62","from":"Westdorpe (grens België)","name":"N62","type":"route","route":"road","network":"NL:N","operator":"Provincie Zeeland;N.V. Westerscheldetunnel","wikidata":"Q1997927","wikipedia":"nl:Provinciale weg 62"},"13251953":{"to":"Terneuzen","ref":"N61","from":"Schoondijke","name":"N61","type":"route","route":"road","network":"NL:N","operator":"Rijkswaterstaat","wikidata":"Q2079851","wikipedia":"nl:Rijksweg 61"},"13251985":{"to":"Middelburg","ref":"N254","from":"'s-Heerenhoek","name":"N254","type":"route","route":"road","network":"NL:N","operator":"Provincie Zeeland","wikidata":"Q5653474","wikipedia":"nl:Provinciale weg 254"},"13252007":{"to":"Kamperland","ref":"N255","from":"Kats","name":"N255","type":"route","route":"road","network":"NL:N","operator":"Provincie Zeeland","wikidata":"Q2297824","wikipedia":"nl:Provinciale weg 255"},"13252125":{"to":"Zierikzee","ref":"N256","from":"Goes","name":"N256","type":"route","route":"road","network":"NL:N","operator":"Provincie Zeeland","wikidata":"Q2113967","wikipedia":"nl:Provinciale weg 256"},"13252265":{"to":"Schoondijke","ref":"N253","from":"Sint Anna ter Muiden (grens België)","name":"N253","type":"route","route":"road","network":"NL:N","operator":"Provincie Zeeland","wikidata":"Q1933910","wikipedia":"nl:Provinciale weg 253"},"13252266":{"to":"Terneuzen","ref":"N252","from":"Sas van Gent (grens België)","name":"N252","type":"route","route":"road","network":"NL:N","operator":"Provincie Zeeland","wikidata":"Q14178229","wikipedia":"nl:Provinciale weg 252"},"13252267":{"to":"Draaiburg","ref":"N251","from":"Eede (grens België)","name":"N251","type":"route","route":"road","network":"NL:N","operator":"Provincie Zeeland","wikidata":"Q2473140","wikipedia":"nl:Provinciale weg 251"},"13252411":{"ref":"RING","name":"Ring Almere","note":"geen officieel start- en eindpunt","type":"route","route":"road","alt_ref":"RING A6;RING N702","name:fy":"Ring Almeare","name:nl":"Ring Almere","network":"NL:ring","operator":"Rijkswaterstaat;Provincie Flevoland","wikidata":"Q2212669","wikipedia":"nl:Ring Almere"},"13252413":{"to":"Hulst","ref":"N258","from":"Westdorpe","name":"N258","type":"route","route":"road","network":"NL:N","operator":"Provincie Zeeland","wikidata":"Q3124626","wikipedia":"nl:Provinciale weg 258"},"13252434":{"to":"Grevelingendam","ref":"N257","from":"Steenbergen","name":"N257","type":"route","route":"road","network":"NL:N","operator":"Provincie Noord-Brabant;Provincie Zeeland","wikidata":"Q2456450","wikipedia":"nl:Provinciale weg 257"},"13252472":{"to":"Breda","ref":"N263","from":"Wernhout (grens België)","name":"N263","note":"zowel qua wegbeheer als op de bewegwijzering onderbroken bij Zundert en Wernhout","type":"route","route":"road","network":"NL:N","operator":"Provincie Noord-Brabant","wikidata":"Q325011","wikipedia":"nl:Provinciale weg 263"},"13252473":{"to":"Rucphen","ref":"N638","from":"Zundert","name":"N638","type":"route","route":"road","network":"NL:N","operator":"Provincie Noord-Brabant","wikidata":"Q2051830","wikipedia":"nl:Provinciale weg 638"},"13252495":{"to":"Etten-Leur","ref":"N394","from":"Rijsbergen","name":"N394","type":"route","route":"road","network":"NL:N","operator":"Provincie Noord-Brabant","wikidata":"Q2170780","wikipedia":"nl:Provinciale weg 394"},"13252498":{"to":"Ulvenhout","ref":"N639","from":"Baarle-Nassau","name":"N639","type":"route","route":"road","network":"NL:N","operator":"Provincie Noord-Brabant","wikidata":"Q2880393","wikipedia":"nl:Provinciale weg 639"},"13252530":{"to":"Etten-Leur","ref":"N640","from":"Oud Gastel","name":"N640","type":"route","route":"road","network":"NL:N","operator":"Provincie Noord-Brabant","wikidata":"Q2290332","wikipedia":"nl:Provinciale weg 640"},"13252537":{"to":"Zevenbergen","ref":"N389","from":"Etten-Leur","name":"N389","type":"route","route":"road","network":"NL:N","operator":"Provincie Noord-Brabant","wikidata":"Q2588744","wikipedia":"nl:Provinciale weg 389"},"13252538":{"to":"Breda","ref":"N285","from":"Moerdijk","name":"N285","type":"route","route":"road","network":"NL:N","operator":"Provincie Noord-Brabant","wikidata":"Q2509787","wikipedia":"nl:Provinciale weg 285"},"13252564":{"ref":"RING","name":"Ring","type":"route","route":"road","network":"NL:binnenstedelijke_ring","nat_name":"Ring Eindhoven","wikidata":"Q4578280","wikipedia":"nl:Ring Eindhoven"},"13252633":{"to":"Simpelveld","ref":"S100","from":"Heerlen-Noord","name":"S100","type":"route","route":"road","network":"NL:S:Parkstad","alt_name":"Binnenring Parkstad","wikidata":"Q2610408","wikipedia":"nl:Binnenring Parkstad"},"13252718":{"to":"Maasvlakte","ref":"N218","from":"Botlek","name":"N218","type":"route","route":"road","network":"NL:N","operator":"Provincie Zuid-Holland","wikidata":"Q5001001","wikipedia":"nl:Provinciale weg 218"},"13252719":{"to":"Dordrecht","ref":"N217","from":"Nieuw-Beijerland","name":"N217","type":"route","route":"road","network":"NL:N","operator":"Provincie Zuid-Holland","wikidata":"Q1935971","wikipedia":"nl:Provinciale weg 217"},"13252720":{"to":"Schoonhoven","ref":"N216","from":"Gorinchem","name":"N216","type":"route","route":"road","network":"NL:N","operator":"Provincie Zuid-Holland","wikidata":"Q2476316","wikipedia":"nl:Provinciale weg 216"},"13252721":{"to":"Noordeloos","ref":"N214","from":"Papendrecht","name":"N214","type":"route","route":"road","network":"NL:N","operator":"Provincie Zuid-Holland","wikidata":"Q1876008","wikipedia":"nl:Provinciale weg 214"},"13252722":{"to":"Oude-Tonge","ref":"N215","from":"Stellendam","name":"N215","type":"route","route":"road","network":"NL:N","operator":"Provincie Zuid-Holland","wikidata":"Q2155688","wikipedia":"nl:Provinciale weg 215"},"13252815":{"to":"Waddinxveen","ref":"N219","from":"Capelle aan den IJssel","name":"N219","type":"route","route":"road","network":"NL:N","operator":"Provincie Zuid-Holland","wikidata":"Q2509623","wikipedia":"nl:Provinciale weg 219"},"13252822":{"to":"Nieuwegein","ref":"N210","from":"Rotterdam","name":"N210","type":"route","route":"road","network":"NL:N","operator":"Provincie Zuid-Holland;Provincie Utrecht;Gemeente Capelle aan den IJssel;Gemeente Krimpen aan den IJssel","wikidata":"Q2137946","wikipedia":"nl:Provinciale weg 210"},"13252903":{"to":"Siebengewald (grens Duitsland)","ref":"E 31","from":"Rotterdam","name":"E31 Nederland","type":"route","route":"road","name:en":"E 31 Netherlands","name:nl":"E31 Nederland","network":"e-road","section":"Nederland","wikidata":"Q699601","wikipedia":"nl:Europese weg 31","e-road:class":"A-intermediate"},"13252920":{"to":"Woerden","ref":"N212","from":"Vinkeveen","name":"N212","type":"route","route":"road","network":"NL:N","operator":"Provincie Utrecht","wikidata":"Q2223497","wikipedia":"nl:Provinciale weg 212"},"13252954":{"to":"Venlo (grens Duitsland)","ref":"E 34","from":"Reusel (grens België)","name":"E34 Nederland","type":"route","route":"road","name:de":"E 34 Niederlande","name:en":"E 34 Netherlands","name:nl":"E34 Nederland","nat_ref":"E34","network":"e-road","section":"Nederland","operator":"Rijkswaterstaat","wikidata":"Q819141","wikipedia":"nl:Europese weg 34","e-road:class":"A-intermediate"},"13252970":{"to":"Woerden","ref":"N204","from":"Lopik","name":"N204","type":"route","route":"road","network":"NL:N","operator":"Provincie Utrecht","wikidata":"Q2533682","wikipedia":"nl:Provinciale weg 204"},"13253016":{"to":"Velserbroek","ref":"N208","from":"Sassenheim","name":"N208","type":"route","route":"road","network":"NL:N","operator":"Provincie Zuid-Holland;Provincie Noord-Holland;diverse gemeenten","wikidata":"Q3272030","wikipedia":"nl:Provinciale weg 208"},"13253017":{"to":"Velsen-Zuid","ref":"A208","from":"Velserbroek","name":"A208","type":"route","route":"road","network":"NL:A","operator":"Rijkswaterstaat","wikidata":"Q3272030","wikipedia":"nl:Rijksweg 708"},"13253051":{"to":"Hillegom","ref":"N207","from":"Bergambacht","name":"N207","type":"route","route":"road","network":"NL:N","operator":"Provincie Zuid-Holland;Provincie Noord-Holland","wikidata":"Q2696268","wikipedia":"nl:Provinciale weg 207"},"13253079":{"to":"Aerdenhout","ref":"N206","from":"Zoetermeer","name":"N206","type":"route","route":"road","network":"NL:N","operator":"Provincie Zuid-Holland;Provincie Noord-Holland;diverse gemeenten","wikidata":"Q2615797","wikipedia":"nl:Provinciale weg 206"},"13253086":{"to":"Nieuw-Vennep","ref":"N205","from":"Haarlem","name":"N205","type":"route","route":"road","network":"NL:N","operator":"Provincie Noord-Holland;Gemeente Haarlem","wikidata":"Q1865839","wikipedia":"nl:Provinciale weg 205"},"13253137":{"to":"Ommen","ref":"N36","from":"Almelo","name":"N36","type":"route","route":"road","network":"NL:N","operator":"Rijkswaterstaat","wikidata":"Q1834923","wikipedia":"nl:Rijksweg 36"},"13253154":{"to":"Ommen","ref":"N340","from":"Zwolle","name":"N340","type":"route","route":"road","network":"NL:N","operator":"Provincie Overijssel;Rijkswaterstaat","wikidata":"Q2597937","wikipedia":"nl:Provinciale weg 340","note:operator":"Rijkswaterstaat beheert klein stukje aan begin."},"13253183":{"to":"Ommen","ref":"N348","from":"Ellecom","name":"N348","type":"route","route":"road","network":"NL:N","operator":"Provincie Gelderland;Provincie Overijssel;Gemeente Deventer","wikidata":"Q430370","wikipedia":"nl:Provinciale weg 348"},"13254969":{"to":"Nijmegen","ref":"N326","from":"Nijmegen (A326)","name":"N326","type":"route","route":"road","network":"NL:N","operator":"Gemeente Nijmegen","wikidata":"Q4411434","wikipedia":"nl:Provinciale weg 326"},"13254976":{"to":"Nederasselt","ref":"N845","from":"Leur","name":"N845","type":"route","route":"road","network":"NL:N","operator":"Provincie Gelderland","wikidata":"Q2436601","wikipedia":"nl:Provinciale weg 845"},"13254989":{"to":"Nijmegen","ref":"N844","from":"Malden","name":"N844","type":"route","route":"road","network":"NL:N","operator":"Provincie Gelderland","wikidata":"Q1948113","wikipedia":"nl:Provinciale weg 844"},"13255016":{"to":"Groesbeek","ref":"N842","from":"Nijmegen","name":"N842","type":"route","route":"road","network":"NL:N","operator":"Provincie Gelderland","wikidata":"Q14178366","wikipedia":"nl:Provinciale weg 842"},"13255020":{"to":"Groesbeek","ref":"N841","from":"Berg en Dal","name":"N841","type":"route","route":"road","network":"NL:N","operator":"Provincie Gelderland","wikidata":"Q2641012","wikipedia":"nl:Provinciale weg 841"},"13255245":{"to":"Ressen","ref":"S111","from":"Lent","name":"S111","type":"route","route":"road","network":"NL:S:Nijmegen","wikidata":"Q108664807"},"13255247":{"to":"Nijmegen-Zuid","ref":"S105","from":"Nijmegen-Centrum","name":"S105","type":"route","route":"road","network":"NL:S:Nijmegen","wikidata":"Q108664802"},"13255249":{"to":"Nijmegen-Midden","ref":"S103","from":"Nijmegen-Centrum","name":"S103","type":"route","route":"road","network":"NL:S:Nijmegen","wikidata":"Q108664799"},"13255250":{"to":"Nijmegen-Nieuw-West","ref":"S102","from":"Nijmegen-Centrum","name":"S102","type":"route","route":"road","network":"NL:S:Nijmegen","wikidata":"Q15881537","wikipedia":"nl:S102 (Nijmegen)"},"13255251":{"to":"Nijmegen-Nieuw-West","ref":"S101","from":"Nijmegen-Centrum","name":"S101","type":"route","fixme":"Route via volledige Weurtseweg niet langer mogelijk; ik lees op de site van Rob Essers dat deze mogelijk nu via de waalbrug (N325) loopt of gaat lopen; elders zie ik Laan v. Oost-Indië","route":"road","network":"NL:S:Nijmegen","wikidata":"Q15881536","wikipedia":"nl:S101 (Nijmegen)"},"13255252":{"to":"Heilig Landstichting","ref":"S100","from":"Nijmegen-Centrum","name":"S100","type":"route","route":"road","network":"NL:S:Nijmegen","wikidata":"Q15881535","wikipedia":"nl:S100 (Nijmegen)"},"13255684":{"to":"Stramproy (grens België)","ref":"N292","from":"Weert","name":"N292","type":"route","route":"road","network":"NL:N","operator":"Provincie Limburg","wikidata":"Q14178258","wikipedia":"nl:Provinciale weg 292"},"13255694":{"to":"Roosteren (grens België)","ref":"N296","from":"Susteren","name":"N296","type":"route","route":"road","network":"NL:N","operator":"Provincie Limburg","wikidata":"Q2369194","wikipedia":"nl:Provinciale weg 296"},"13255750":{"to":"Born","ref":"N296n","from":"Roosteren","name":"N296n","type":"route","route":"road","network":"NL:N","operator":"Provincie Limburg","wikidata":"Q96610458"},"13255760":{"to":"Nuth","ref":"N298","from":"Valkenburg","name":"N298","type":"route","route":"road","network":"NL:N","operator":"Provincie Limburg","wikidata":"Q2592325","wikipedia":"nl:Provinciale weg 298"},"13255804":{"to":"Weert (grens België)","ref":"N564","from":"Weert","name":"N564","type":"route","route":"road","network":"NL:N","operator":"Provincie Limburg","wikidata":"Q2487184","wikipedia":"nl:Provinciale weg 564"},"13259234":{"to":"Koningsbosch","ref":"N572","from":"Echt","name":"N572","type":"route","route":"road","network":"NL:N","operator":"Provincie Limburg","wikidata":"Q2741885","wikipedia":"nl:Provinciale weg 572"},"13259242":{"to":"Roggel","ref":"N562","from":"Koningslust","name":"N562","type":"route","route":"road","network":"NL:N","operator":"Provincie Limburg;Gemeente Peel en Maas","wikidata":"Q2143388","wikipedia":"nl:Provinciale weg 562"},"13259270":{"to":"Meerlo","ref":"N554","from":"Tienray","name":"N554","type":"route","route":"road","network":"NL:N","operator":"Provincie Limburg","wikidata":"Q2494953","wikipedia":"nl:Provinciale weg 554"},"13259317":{"to":"Wittem","ref":"N595","from":"Valkenburg","name":"N595","type":"route","route":"road","network":"NL:N","operator":"Provincie Limburg","wikidata":"Q2455037","wikipedia":"nl:Provinciale weg 595"},"13259318":{"to":"Valkenburg","ref":"N590","from":"Maastricht","name":"N590","type":"route","route":"road","network":"NL:N","operator":"Provincie Limburg","wikidata":"Q2593955","wikipedia":"nl:Provinciale weg 590"},"13259327":{"to":"Slenaken (grens België)","ref":"N598","from":"Ingber","name":"N598","type":"route","route":"road","network":"NL:N","operator":"Provincie Limburg","wikidata":"Q2795321","wikipedia":"nl:Provinciale weg 598"},"13259843":{"to":"Alblasserdam","ref":"N915","from":"Hendrik-Ido-Ambacht","name":"N915","type":"route","route":"road","network":"NL:N","operator":"Rijkswaterstaat","wikidata":"Q14277053","wikipedia":"nl:Rijksweg 915"},"13267970":{"to":"Berkhout","ref":"N194","from":"Heerhugowaard","name":"N194","type":"route","route":"road","network":"NL:N","operator":"Provincie Noord-Holland","wikidata":"Q56605592","wikipedia":"nl:Provinciale weg 194"},"13268168":{"to":"De Goorn","ref":"N243","from":"Alkmaar","name":"N243","type":"route","route":"road","network":"NL:N","operator":"Provincie Noord-Holland","wikidata":"Q2205445","wikipedia":"nl:Provinciale weg 243"},"13268177":{"to":"Aalsmeer","ref":"N196","from":"Hoofddorp","name":"N196","type":"route","route":"road","network":"NL:N","operator":"Provincie Noord-Holland","wikidata":"Q15881026","wikipedia":"nl:Provinciale weg 196"},"13268322":{"to":"Amsterdam","ref":"N202","from":"Velsen-Zuid","name":"N202","type":"route","route":"road","network":"NL:N","operator":"Provincie Noord-Holland","wikidata":"Q4293644","wikipedia":"nl:Provinciale weg 202"},"13268335":{"to":"Heemskerk","ref":"N197","from":"Velsen-Noord","name":"N197","type":"route","route":"road","network":"NL:N","operator":"Provincie Noord-Holland","wikidata":"Q3136099","wikipedia":"nl:Provinciale weg 197"},"13268395":{"to":"Castricum","ref":"N203","from":"Wormerveer","name":"N203","type":"route","route":"road","network":"NL:N","operator":"Provincie Noord-Holland","wikidata":"Q2165904","wikipedia":"nl:Provinciale weg 203"},"13268411":{"to":"Leeuwarden","ref":"N359","from":"Lemmer","name":"N359","type":"route","route":"road","network":"NL:N","operator":"Provincie Fryslân","wikidata":"Q2466703","wikipedia":"nl:Provinciale weg 359"},"13271194":{"ref":"RING","name":"Ring Rotterdam","note":"Ring loopt over de parallelrijbanen! Geen officieel begin- en eindpunt.","type":"route","route":"road","alt_ref":"RING A4;RING A15;RING A16;RING A20","network":"NL:ring","alt_name":"Ruit van Rotterdam;Rotterdamse Ruit","operator":"Rijkswaterstaat","wikidata":"Q2169042","wikipedia":"nl:Ring Rotterdam","short_name":"Ring R'dam","source:short_name":"https://www.mapillary.com/app/?lat=51.86567285197199&lng=4.556037787972173&z=19.9&pKey=889123461761192&focus=photo&x=0.49375133651731545&y=0.49819484181103985&zoom=0"},"13281314":{"ref":"RING","name":"Ring Groningen","type":"route","route":"road","alt_ref":"RING N7;RING N46;RING N370","name:fy":"Ring Grins","name:nl":"Ring Groningen","network":"NL:ring","wikidata":"Q4899137","wikipedia":"nl:Ring Groningen"},"13285893":{"ref":"N2","name":"N2","note":"parallelbaan van de A2 bij Eindhoven en Maastricht","type":"route","route":"road","network":"NL:N","operator":"Rijkswaterstaat","wikidata":"Q1422024","wikipedia":"nl:Rijksweg 2"},"13285978":{"to":"Stavenisse","ref":"N286","from":"Halsteren","name":"N286","type":"route","route":"road","network":"NL:N","operator":"Provincie Noord-Brabant;Provincie Zeeland","wikidata":"Q1815191","wikipedia":"nl:Provinciale weg 286"},"13285993":{"to":"Goes","ref":"N289","from":"Putte (grens België)","name":"N289","type":"route","route":"road","network":"NL:N","operator":"Provincie Noord-Brabant;Provincie Zeeland;diverse gemeenten","wikidata":"Q14178251","wikipedia":"nl:Provinciale weg 289"},"13286074":{"to":"Westkapelle","ref":"N288","from":"Vlissingen","name":"N288","type":"route","route":"road","network":"NL:N","operator":"Provincie Zeeland;Gemeente Vlissingen;Gemeente Veere","wikidata":"Q1427221","wikipedia":"nl:Provinciale weg 288"},"13286075":{"to":"Westkapelle","ref":"N287","from":"Serooskerke","name":"N287","note":"qua wegbeheer en bewegwijzering onderbroken in Oostkapelle","type":"route","route":"road","network":"NL:N","operator":"Provincie Zeeland;Gemeente Veere","wikidata":"Q2627149","wikipedia":"nl:Provinciale weg 287"},"13286166":{"to":"Woerden","ref":"N458","from":"Bodegraven","name":"N458","type":"route","route":"road","network":"NL:N","operator":"Provincie Zuid-Holland;Provincie Utrecht","wikidata":"Q2057313","wikipedia":"nl:Provinciale weg 458"},"13286167":{"to":"Waarder","ref":"N420","from":"Woerden","name":"N420","type":"route","route":"road","network":"NL:N","operator":"Provincie Utrecht;Provincie Zuid-Holland","wikidata":"Q54800780","wikipedia":"nl:Provinciale weg 420"},"13286168":{"to":"Utrecht","ref":"N419","from":"Harmelen","name":"N419","type":"route","route":"road","network":"NL:N","operator":"Provincie Utrecht","wikidata":"Q54800707","wikipedia":"nl:Provinciale weg 419"},"13286169":{"to":"Harmelen","ref":"N198","from":"Woerden","name":"N198","type":"route","route":"road","network":"NL:N","operator":"Provincie Utrecht","wikidata":"Q2240391","wikipedia":"nl:Provinciale weg 198"},"13286226":{"to":"Amersfoort","ref":"N199","from":"Bunschoten","name":"N199","type":"route","route":"road","network":"NL:N","operator":"Provincie Utrecht","wikidata":"Q2609294","wikipedia":"nl:Provinciale weg 199"},"13286239":{"to":"Arnhem","ref":"N224","from":"Zeist","name":"N224","type":"route","route":"road","network":"NL:N","operator":"Provincie Utrecht;Provincie Gelderland;Gemeente Zeist;Gemeente Ede","wikidata":"Q2223266","wikipedia":"nl:Provinciale weg 224"},"13286280":{"to":"Barneveld","ref":"N802","from":"Scherpenzeel","name":"N802","type":"route","route":"road","network":"NL:N","operator":"Provincie Gelderland","wikidata":"Q1922571","wikipedia":"nl:Provinciale weg 802"},"13286747":{"to":"Zwartemeer (grens Duitsland)","ref":"E 233","from":"Hoogeveen","name":"E233 Nederland","type":"route","route":"road","name:de":"E 233 Niederlande","name:en":"E 233 Netherlands","name:nl":"E233 Nederland","nat_ref":"E233","network":"e-road","section":"Nederland","operator":"Rijkswaterstaat","wikidata":"Q658777","wikipedia":"nl:Europese weg 233","e-road:class":"B"},"13286819":{"to":"Nieuw-Schoonebeek","ref":"N862","from":"Emmen","name":"N862","note":"onderbroken in Klazienaveen en Weiteveen","type":"route","route":"road","network":"NL:N","operator":"Provincie Drenthe","wikidata":"Q14178377","wikipedia":"nl:Provinciale weg 862"},"13286820":{"to":"Emmen","ref":"N391","from":"Roswinkel","name":"N391","type":"route","route":"road","network":"NL:N","operator":"Provincie Drenthe;Gemeente Emmen","wikidata":"Q2376607","wikipedia":"nl:Provinciale weg 391"},"13286885":{"to":"Ter Apel (grens Duitsland)","ref":"N366","from":"Veendam","name":"N366","type":"route","route":"road","network":"NL:N","operator":"Provincie Groningen","wikidata":"Q2330752","wikipedia":"nl:Provinciale weg 366"},"13286892":{"to":"Emmen","ref":"N381","from":"Drachten","name":"N381","type":"route","route":"road","network":"NL:N","operator":"Provincie Fryslân;Provincie Drenthe","wikidata":"Q2562142","wikipedia":"nl:Provinciale weg 381"},"13286928":{"to":"Groningen (N7)","ref":"N370","from":"Groningen (N46)","name":"N370","type":"route","route":"road","network":"NL:N","operator":"Provincie Groningen","wikidata":"Q2686920","wikipedia":"nl:Provinciale weg 370"},"13286968":{"to":"Groningen","ref":"N355","from":"Leeuwarden","name":"N355","type":"route","route":"road","network":"NL:N","operator":"Provincie Fryslân;Provincie Groningen","wikidata":"Q2732747","wikipedia":"nl:Provinciale weg 355"},"13287073":{"to":"Garyp","ref":"N913","from":"Sumar","name":"N913","type":"route","route":"road","network":"NL:N","operator":"Provincie Fryslân","wikidata":"Q2803427","wikipedia":"nl:Provinciale weg 913"},"13287365":{"to":"Stroe","ref":"R101","from":"Voorthuizen","name":"R101","type":"route","route":"road","network":"NL:R:Voorthuizen","wikidata":"Q97244599","wikipedia":"nl:R101 (Voorthuizen)"},"13287393":{"to":"Witte Paal","ref":"R105","from":"Ommen","name":"R105","type":"route","route":"road","network":"NL:R:Ommen","wikidata":"Q19974099","wikipedia":"nl:R105 (Ommen)"},"13287394":{"to":"Lemele","ref":"R104","from":"Ommen","name":"R104","type":"route","route":"road","network":"NL:R:Ommen","wikidata":"Q18088436","wikipedia":"nl:R104 (Ommen)"},"13287395":{"to":"Beerze","ref":"R103","from":"Ommen","name":"R103","type":"route","route":"road","network":"NL:R:Ommen","wikidata":"Q18088317","wikipedia":"nl:R103 (Ommen)"},"13287396":{"to":"Vlisteren","ref":"R102","from":"Ommen","name":"R102","type":"route","route":"road","network":"NL:R:Ommen","wikidata":"Q18088389","wikipedia":"nl:R102 (Ommen)"},"13287397":{"to":"Ommerschans","ref":"R101","from":"Ommen","name":"R101","type":"route","route":"road","network":"NL:R:Ommen","wikidata":"Q18088387","wikipedia":"nl:R101 (Ommen)"},"13287459":{"to":"Waddinxveen","ref":"N455","from":"Benthuizen","name":"N455","type":"route","route":"road","network":"NL:N","operator":"Provincie Zuid-Holland","wikidata":"Q2315661","wikipedia":"nl:Provinciale weg 455"},"13287460":{"to":"Distripark Doelwijk","ref":"N456","from":"Waddinxveen","name":"N456","type":"route","route":"road","network":"NL:N","operator":"Provincie Zuid-Holland","wikidata":"Q2128794","wikipedia":"nl:Provinciale weg 456"},"13287461":{"to":"Waddinxveen (N219)","ref":"N453","from":"Waddinxveen","name":"N453","type":"route","route":"road","network":"NL:N","operator":"Provincie Zuid-Holland","wikidata":"Q5120146","wikipedia":"nl:Provinciale weg 453"},"13287462":{"to":"Gouda","ref":"N454","from":"Waddinxveen","name":"N454","type":"route","route":"road","network":"NL:N","operator":"Provincie Zuid-Holland","wikidata":"Q2400618","wikipedia":"nl:Provinciale weg 454"},"13287481":{"ref":"RING","name":"Ring","type":"route","route":"road","network":"NL:binnenstedelijke_ring","nat_name":"Ring Zoetermeer","wikidata":"Q4899175","wikipedia":"nl:Ring Zoetermeer"},"13287486":{"ref":"RING","name":"Ring Den Haag","type":"route","route":"road","alt_ref":"RING A4;RING N14;Ring S200;RING N211","name:fy":"Ring De Haach","name:nl":"Ring Den Haag","network":"NL:ring","alt_name":"Internationale Ring","operator":"Rijkswaterstaat;Provincie Zuid-Holland;Gemeente Den Haag","wikidata":"Q1887503","wikipedia":"nl:Ring Den Haag"},"13287488":{"ref":"RING","name":"Ring Tilburg","type":"route","route":"road","alt_ref":"RING A58;RING A65;RING N261;RING N260","name:fy":"Ring Tilburch","name:nl":"Ring Tilburg","network":"NL:ring","wikidata":"Q2593094","wikipedia":"nl:Ring Tilburg","description":"Grote Ring om Tilburg"},"13287505":{"to":"Wanroij","ref":"N602","from":"Sint Hubert","name":"N602","type":"route","route":"road","network":"NL:N","operator":"Provincie Noord-Brabant","wikidata":"Q2308418","wikipedia":"nl:Provinciale weg 602"},"13287508":{"ref":"RING","name":"Ring 's-Hertogenbosch","type":"route","route":"road","alt_ref":"RING A2;RING A59","name:fy":"Ring De Bosk","name:nl":"Ring 's-Hertogenbosch","network":"NL:ring","alt_name":"Ring Den Bosch","wikidata":"Q14942373","wikipedia":"nl:Ring 's-Hertogenbosch","proposed:alt_ref":"RING A2;RING A59;RING N601"},"13289122":{"to":"Kwintsheul","ref":"N466","from":"Honselersdijk","name":"N466","type":"route","route":"road","network":"NL:N","operator":"Provincie Zuid-Holland","wikidata":"Q2124789","wikipedia":"nl:Provinciale weg 466"},"13289128":{"to":"Naaldwijk","ref":"N467","from":"'s-Gravenzande","name":"N467","note":"onderbroken bij 's-Gravenzande door ongenummerde gemeentelijke weg","type":"route","route":"road","network":"NL:N","operator":"Provincie Zuid-Holland","wikidata":"Q3180621","wikipedia":"nl:Provinciale weg 467"},"13289130":{"to":"Den Haag","ref":"N464","from":"Poeldijk","name":"N464","type":"route","route":"road","network":"NL:N","operator":"Provincie Zuid-Holland","wikidata":"Q1976876","wikipedia":"nl:Provinciale weg 464"},"13289132":{"to":"Den Hoorn","ref":"N468","from":"Maasland","name":"N468","type":"route","route":"road","network":"NL:N","operator":"Provincie Zuid-Holland","wikidata":"Q2500978","wikipedia":"nl:Provinciale weg 468"},"13289152":{"to":"N210","ref":"N477","from":"Krimpen aan de Lek","name":"N477","type":"route","route":"road","network":"NL:N","operator":"Provincie Zuid-Holland","wikidata":"Q2191862","wikipedia":"nl:Provinciale weg 477"},"13289153":{"to":"Krimpen aan den IJssel","ref":"N474","from":"N210","name":"N474","type":"route","route":"road","network":"NL:N","operator":"Provincie Zuid-Holland","wikidata":"Q14178291","wikipedia":"nl:Provinciale weg 474"},"13289159":{"to":"N210","ref":"N475","from":"Ouderkerk aan den IJssel","name":"N475","type":"route","route":"road","network":"NL:N","operator":"Provincie Zuid-Holland","wikidata":"Q2130838","wikipedia":"nl:Provinciale weg 475"},"13289160":{"to":"N210","ref":"N476","from":"Lekkerkerk","name":"N476","type":"route","route":"road","network":"NL:N","operator":"Provincie Zuid-Holland","wikidata":"Q2185815","wikipedia":"nl:Provinciale weg 476"},"13289228":{"to":"Sliedrecht","ref":"N482","from":"Bleskensgraaf","name":"N482","type":"route","route":"road","network":"NL:N","operator":"Provincie Zuid-Holland","wikidata":"Q2189964","wikipedia":"nl:Provinciale weg 482"},"13289264":{"to":"Streefkerk","ref":"N480","from":"Nieuw-Lekkerland","name":"N480","type":"route","route":"road","network":"NL:N","operator":"Provincie Zuid-Holland","wikidata":"Q3027016","wikipedia":"nl:Provinciale weg 480"},"13289265":{"to":"Bergambacht (veerhaven)","ref":"N478","from":"Bergambacht (N210)","name":"N478","type":"route","route":"road","network":"NL:N","operator":"Provincie Zuid-Holland","wikidata":"Q2679633","wikipedia":"nl:Provinciale weg 478"},"13289266":{"to":"Streefkerk (veerhaven)","ref":"N479","from":"Streefkerk (N480)","name":"N479","type":"route","route":"road","network":"NL:N","operator":"Provincie Zuid-Holland","wikidata":"Q2794048","wikipedia":"nl:Provinciale weg 479"},"13289267":{"to":"Nieuw-Lekkerland","ref":"N481","from":"Oud-Alblas","name":"N481","type":"route","route":"road","network":"NL:N","operator":"Provincie Zuid-Holland","wikidata":"Q1814068","wikipedia":"nl:Provinciale weg 481"},"13289308":{"to":"Bodegraven","ref":"N459","from":"Reeuwijk","name":"N459","type":"route","route":"road","network":"NL:N","operator":"Provincie Zuid-Holland","wikidata":"Q2555572","wikipedia":"nl:Provinciale weg 459"},"13289311":{"to":"Kamerik","ref":"N463","from":"Noorden","name":"N463","type":"route","route":"road","network":"NL:N","operator":"Provincie Zuid-Holland;Provincie Utrecht","wikidata":"Q1898906","wikipedia":"nl:Provinciale weg 463"},"13289357":{"to":"Nieuwveen","ref":"N462","from":"Papenveer","name":"N462","type":"route","route":"road","network":"NL:N","operator":"Provincie Zuid-Holland","wikidata":"Q1812816","wikipedia":"nl:Provinciale weg 462"},"13289358":{"to":"Papenveer","ref":"N461","from":"Ter Aar","name":"N461","type":"route","route":"road","network":"NL:N","operator":"Provincie Zuid-Holland","wikidata":"Q2909423","wikipedia":"nl:Provinciale weg 461"},"13289359":{"to":"Ter Aar","ref":"N460","from":"Alphen aan den Rijn","name":"N460","type":"route","route":"road","network":"NL:N","operator":"Provincie Zuid-Holland","wikidata":"Q2337696","wikipedia":"nl:Provinciale weg 460"},"13289410":{"to":"Schiphol-Oost","ref":"N231","from":"Alphen aan den Rijn","name":"N231","type":"route","route":"road","network":"NL:N","operator":"Provincie Zuid-Holland;Provincie Noord-Holland","wikidata":"Q1834766","wikipedia":"nl:Provinciale weg 231"},"13289442":{"to":"Veghel","ref":"N622","from":"Schijndel","name":"N622","type":"route","route":"road","network":"NL:N","operator":"Provincie Noord-Brabant","wikidata":"Q2645468","wikipedia":"nl:Provinciale weg 622"},"13289452":{"to":"Schijndel","ref":"N637","from":"Sint-Oedenrode","name":"N637","type":"route","route":"road","network":"NL:N","operator":"Provincie Noord-Brabant","wikidata":"Q14178314","wikipedia":"nl:Provinciale weg 637"},"13289459":{"to":"Schijndel","ref":"N618","from":"Boxtel","name":"N618","type":"route","route":"road","network":"NL:N","operator":"Provincie Noord-Brabant","wikidata":"Q2530097","wikipedia":"nl:Provinciale weg 618"},"13289465":{"to":"Schijndel","ref":"N617","from":"'s-Hertogenbosch","name":"N617","type":"route","route":"road","network":"NL:N","operator":"Provincie Noord-Brabant","wikidata":"Q3238713","wikipedia":"nl:Provinciale weg 617"},"13290670":{"ref":"S100","name":"S100","type":"route","route":"road","network":"NL:S:Amsterdam","wikidata":"Q3989450","wikipedia":"nl:S100 (Amsterdam)","description":"Centrumring Amsterdam","old_name:-2019":"Centrumring S100"},"13290691":{"to":"Knooppunt Zaandam","ref":"S151","from":"Zaandam","name":"S151","type":"route","route":"road","network":"NL:S:Zaanstad","wikidata":"Q23001152","wikipedia":"nl:S151"},"13290731":{"to":"Wijdewormer","ref":"N515","from":"Westzaan","name":"N515","note":"onderbroken in Zaandijk","type":"route","route":"road","network":"NL:N","operator":"Provincie Noord-Holland","wikidata":"Q4847467","wikipedia":"nl:Provinciale weg 515"},"13290732":{"to":"Wijdewormer","ref":"S153","from":"Westzaan","name":"S153","type":"route","route":"road","network":"NL:S:Zaanstad","wikidata":"Q23001154","wikipedia":"nl:S153"},"13290739":{"to":"Wormerveer","ref":"S152","from":"Zaandam","name":"S152","type":"route","route":"road","network":"NL:S:Zaanstad","wikidata":"Q23001153","wikipedia":"nl:S152"},"13290750":{"to":"Wijdewormer","ref":"S155","from":"Zaandam","name":"S155","type":"route","route":"road","network":"NL:S:Zaanstad","wikidata":"Q23043509","wikipedia":"nl:S155"},"13290760":{"to":"Assendelft","ref":"S154","from":"Westzaan","name":"S154","type":"route","route":"road","network":"NL:S:Zaanstad","wikidata":"Q23043507","wikipedia":"nl:S154"},"13290798":{"to":"Oostzaan","ref":"N516","from":"Zaandam","name":"N516","type":"route","route":"road","network":"NL:N","operator":"Provincie Noord-Holland","wikidata":"Q2618311","wikipedia":"nl:Provinciale weg 516"},"13290799":{"to":"Assendelft","ref":"S150","from":"Oostzaan","name":"S150","type":"route","route":"road","network":"NL:S:Zaanstad","wikidata":"Q23001151","wikipedia":"nl:S150"},"13290854":{"to":"Amsterdam-Zuidoost","ref":"S113","from":"Amsterdam-Centrum","name":"S113","type":"route","route":"road","network":"NL:S:Amsterdam","wikidata":"Q2600593","wikipedia":"nl:S113 (Amsterdam)"},"13291237":{"to":"Oss","ref":"N625","from":"Rosmalen","name":"N625","type":"route","route":"road","network":"NL:N","operator":"Provincie Noord-Brabant","wikidata":"Q1828906","wikipedia":"nl:Provinciale weg 625"},"13291247":{"to":"Kerkdriel","ref":"N831","from":"Nederhemert","name":"N831","type":"route","route":"road","network":"NL:N","operator":"Provincie Gelderland","wikidata":"Q14178359","wikipedia":"nl:Provinciale weg 831"},"13291262":{"to":"Gameren","ref":"N832","from":"Well","name":"N832","type":"route","route":"road","network":"NL:N","operator":"Provincie Gelderland","wikidata":"Q2569102","wikipedia":"nl:Provinciale weg 832"},"13291301":{"to":"Meteren","ref":"N830","from":"Vuren","name":"N830","type":"route","route":"road","network":"NL:N","operator":"Provincie Gelderland","wikidata":"Q1959537","wikipedia":"nl:Provinciale weg 830"},"13291385":{"to":"Leerdam","ref":"N848","from":"Vuren","name":"N848","type":"route","route":"road","network":"NL:N","operator":"Provincie Gelderland","wikidata":"Q2354374","wikipedia":"nl:Provinciale weg 848"},"13291396":{"to":"Zijderveld","ref":"N484","from":"Leerdam","name":"N484","type":"route","route":"road","network":"NL:N","operator":"Provincie Utrecht","wikidata":"Q2723646","wikipedia":"nl:Provinciale weg 484"},"13291401":{"to":"A12","ref":"N421","from":"Houten","name":"N421","type":"route","route":"road","network":"NL:N","operator":"Provincie Utrecht","wikidata":"Q21528708","wikipedia":"nl:Provinciale weg 421"},"13291435":{"to":"Oostzaan","ref":"S118","from":"Amsterdam-Noord","name":"S118","type":"route","route":"road","network":"NL:S:Amsterdam","wikidata":"Q3199210","wikipedia":"nl:S118 (Amsterdam)"},"13291466":{"to":"Geldermalsen","ref":"N327","from":"Leerdam","name":"N327","type":"route","route":"road","network":"NL:N","operator":"Provincie Gelderland","wikidata":"Q2495804","wikipedia":"nl:Provinciale weg 327"},"13291474":{"to":"Tiel","ref":"N834","from":"Asch","name":"N834","type":"route","route":"road","network":"NL:N","operator":"Provincie Gelderland","wikidata":"Q2044155","wikipedia":"nl:Provinciale weg 834"},"13291475":{"to":"Geldermalsen","ref":"N833","from":"Culemborg","name":"N833","type":"route","route":"road","network":"NL:N","operator":"Provincie Gelderland","wikidata":"Q2482638","wikipedia":"nl:Provinciale weg 833"},"13291477":{"to":"Ingen","ref":"N835","from":"Tiel","name":"N835","type":"route","route":"road","network":"NL:N","operator":"Provincie Gelderland","wikidata":"Q2152941","wikipedia":"nl:Provinciale weg 835"},"13291489":{"to":"Kesteren","ref":"N320","from":"Culemborg","name":"N320","type":"route","route":"road","network":"NL:N","operator":"Provincie Gelderland","wikidata":"Q2061534","wikipedia":"nl:Provinciale weg 320"},"13291524":{"to":"Urk","ref":"N712","from":"Lemmer","name":"N712","type":"route","route":"road","network":"NL:N","operator":"Provincie Fryslân;Provincie Flevoland","wikidata":"Q2536332","wikipedia":"nl:Provinciale weg 712"},"13291528":{"to":"Nagele","ref":"N713","from":"Tollebeek","name":"N713","type":"route","route":"road","network":"NL:N","operator":"Provincie Flevoland","wikidata":"Q2422488","wikipedia":"nl:Provinciale weg 713"},"13291529":{"to":"Emmeloord","ref":"N714","from":"Espel","name":"N714","type":"route","route":"road","network":"NL:N","operator":"Provincie Flevoland","wikidata":"Q2036531","wikipedia":"nl:Provinciale weg 714"},"13291548":{"to":"Marknesse","ref":"N715","from":"Creil","name":"N715","type":"route","route":"road","network":"NL:N","operator":"Provincie Flevoland","wikidata":"Q3265428","wikipedia":"nl:Provinciale weg 715"},"13291557":{"to":"Emmeloord","ref":"N716","from":"Nagele","name":"N716","type":"route","route":"road","network":"NL:N","operator":"Provincie Flevoland","wikidata":"Q2413372","wikipedia":"nl:Provinciale weg 716"},"13291566":{"to":"Emmeloord (N351)","ref":"N717","from":"Emmeloord (N716)","name":"N717","type":"route","route":"road","network":"NL:N","operator":"Provincie Flevoland","wikidata":"Q2587831","wikipedia":"nl:Provinciale weg 717"},"13291576":{"to":"Emmeloord","ref":"N718","from":"Bant","name":"N718","type":"route","route":"road","network":"NL:N","operator":"Provincie Flevoland","wikidata":"Q2048915","wikipedia":"nl:Provinciale weg 718"},"13291586":{"to":"Marknesse","ref":"N719","from":"Kraggenburg","name":"N719","type":"route","route":"road","network":"NL:N","operator":"Provincie Flevoland","wikidata":"Q14178325","wikipedia":"nl:Provinciale weg 719"},"13291594":{"to":"Urk","ref":"N352","from":"Marknesse","name":"N352","type":"route","route":"road","network":"NL:N","operator":"Provincie Flevoland","wikidata":"Q2115932","wikipedia":"nl:Provinciale weg 352"},"13291648":{"to":"Amsterdam-Westpoort","ref":"S102","from":"Amsterdam-Centrum","name":"S102","type":"route","route":"road","network":"NL:S:Amsterdam","wikidata":"Q20830955","wikipedia":"nl:S102 (Amsterdam)"},"13291649":{"to":"Amsterdam-Hempont","ref":"S101","from":"Amsterdam-West","name":"S101","type":"route","route":"road","network":"NL:S:Amsterdam","wikidata":"Q5597081","wikipedia":"nl:S101 (Amsterdam)"},"13291652":{"to":"Amsterdam-Westpoort","ref":"S103","from":"Amsterdam-Centrum","name":"S103","type":"route","route":"road","network":"NL:S:Amsterdam","wikidata":"Q29414058","wikipedia":"nl:S103 (Amsterdam)"},"13291655":{"to":"Amsterdam-Nieuw-West","ref":"S104","from":"Amsterdam-West","name":"S104","type":"route","route":"road","network":"NL:S:Amsterdam","wikidata":"Q2323205","wikipedia":"nl:S104 (Amsterdam)"},"13293178":{"to":"Arnhem","ref":"N225","from":"Driebergen","name":"N225","type":"route","route":"road","network":"NL:N","operator":"Provincie Utrecht;Provincie Gelderland;diverse gemeenten","wikidata":"Q1953180","wikipedia":"nl:Provinciale weg 225"},"13293212":{"to":"Maurik","ref":"N229","from":"Bunnik","name":"N229","type":"route","route":"road","network":"NL:N","operator":"Provincie Utrecht;Provincie Gelderland","wikidata":"Q1859275","wikipedia":"nl:Provinciale weg 229"},"13293367":{"to":"Ochten","ref":"N233","from":"Veenendaal","name":"N233","type":"route","route":"road","network":"NL:N","operator":"Provincie Utrecht;Provincie Gelderland","wikidata":"Q2496208","wikipedia":"nl:Provinciale weg 233"},"13293452":{"to":"Leersum","ref":"N226","from":"Amersfoort","name":"N226","type":"route","route":"road","network":"NL:N","operator":"Provincie Utrecht","wikidata":"Q2356595","wikipedia":"nl:Provinciale weg 226"},"13293459":{"to":"Cothen","ref":"N227","from":"Amersfoort","name":"N227","type":"route","route":"road","network":"NL:N","operator":"Provincie Utrecht","wikidata":"Q4666084","wikipedia":"nl:Provinciale weg 227"},"13293487":{"to":"Bunnik","ref":"N411","from":"Utrecht","name":"N411","type":"route","route":"road","network":"NL:N","operator":"Provincie Utrecht","wikidata":"Q2786276","wikipedia":"nl:Provinciale weg 411"},"13293488":{"to":"Houten","ref":"N409","from":"Nieuwegein","name":"N409","type":"route","route":"road","network":"NL:N","operator":"Provincie Utrecht","wikidata":"Q2494395","wikipedia":"nl:Provinciale weg 409"},"13293489":{"to":"Nieuwegein","ref":"N408","from":"Utrecht","name":"N408","type":"route","route":"road","network":"NL:N","operator":"Provincie Utrecht","wikidata":"Q3065453","wikipedia":"nl:Provinciale weg 408"},"13293490":{"to":"Odijk","ref":"N410","from":"Houten","name":"N410","type":"route","route":"road","network":"NL:N","operator":"Provincie Utrecht","wikidata":"Q4009318","wikipedia":"nl:Provinciale weg 410"},"13293548":{"to":"De Meern","ref":"N228","from":"Gouda","name":"N228","type":"route","route":"road","network":"NL:N","operator":"Provincie Zuid-Holland;Provincie Utrecht","wikidata":"Q2785203","wikipedia":"nl:Provinciale weg 228"},"13293719":{"to":"Amsterdam-Nieuw-West","ref":"S105","from":"Amsterdam-Centrum","name":"S105","type":"route","route":"road","network":"NL:S:Amsterdam","wikidata":"Q29414072","wikipedia":"nl:S105 (Amsterdam)"},"13293738":{"to":"Badhoevedorp","ref":"S106","from":"Amsterdam-Centrum","name":"S106","type":"route","route":"road","network":"NL:S:Amsterdam","wikidata":"Q29455447","wikipedia":"nl:S106 (Amsterdam)"},"13293758":{"to":"Amsterdam-Nieuw-West","ref":"S107","from":"Amsterdam-West","name":"S107","type":"route","route":"road","network":"NL:S:Amsterdam","wikidata":"Q29455442","wikipedia":"nl:S107 (Amsterdam)"},"13293801":{"to":"Amstelveen","ref":"S108","from":"Amsterdam-Centrum","name":"S108","type":"route","route":"road","network":"NL:S:Amsterdam","wikidata":"Q1891182","wikipedia":"nl:S108 (Amsterdam)"},"13293820":{"to":"Amstelveen","ref":"S109","from":"Amsterdam-Zuid","name":"S109","type":"route","route":"road","network":"NL:S:Amsterdam","wikidata":"Q29468569","wikipedia":"nl:S109 (Amsterdam)"},"13293828":{"to":"Knooppunt Amstel","ref":"S110","from":"Amsterdam-Centrum","name":"S110","type":"route","route":"road","network":"NL:S:Amsterdam","wikidata":"Q2746768","wikipedia":"nl:S110 (Amsterdam)"},"13293872":{"to":"Amsterdam-Zuidoost","ref":"S111","from":"Amsterdam-Oost","name":"S111","type":"route","route":"road","network":"NL:S:Amsterdam","wikidata":"Q2381987","wikipedia":"nl:S111 (Amsterdam)"},"13293900":{"to":"Amsterdam-Zuidoost","ref":"S112","from":"Amsterdam-Centrum","name":"S112","type":"route","route":"road","network":"NL:S:Amsterdam","wikidata":"Q2734269","wikipedia":"nl:S112 (Amsterdam)"},"13293938":{"to":"Diemen","ref":"S114","from":"Amsterdam-Centrum","name":"S114","type":"route","route":"road","network":"NL:S:Amsterdam","wikidata":"Q1809661","wikipedia":"nl:S114 (Amsterdam)"},"13294017":{"to":"Landsmeer","ref":"S117","from":"Amsterdam-Centrum","name":"S117","type":"route","route":"road","network":"NL:S:Amsterdam","wikidata":"Q2557428","wikipedia":"nl:S117 (Amsterdam)"},"13294018":{"to":"Amsterdam-Noord","ref":"S116","from":"Amsterdam-Centrum","name":"S116","type":"route","route":"road","network":"NL:S:Amsterdam","wikidata":"Q2097288","wikipedia":"nl:S116 (Amsterdam)"},"13294019":{"to":"Amsterdam-Noord","ref":"S115","from":"Amsterdam-Noord","name":"S115","type":"route","route":"road","network":"NL:S:Amsterdam","wikidata":"Q2695314","wikipedia":"nl:S115 (Amsterdam)"},"13297066":{"to":"Stroe","ref":"N800","from":"Barneveld","name":"N800","note":"onderbroken in Stroe","type":"route","route":"road","network":"NL:N","operator":"Provincie Gelderland","wikidata":"Q2056061","wikipedia":"nl:Provinciale weg 800"},"13297073":{"to":"Otterlo","ref":"N801","from":"Barneveld","name":"N801","type":"route","route":"road","network":"NL:N","operator":"Provincie Gelderland","wikidata":"Q2141095","wikipedia":"nl:Provinciale weg 801"},"13297126":{"to":"Harderwijk","ref":"N303","from":"Voorthuizen","name":"N303","type":"route","route":"road","network":"NL:N","operator":"Provincie Gelderland;Gemeente Putten","wikidata":"Q2265574","wikipedia":"nl:Provinciale weg 303"},"13297183":{"to":"Apeldoorn","ref":"N304","from":"Ede","name":"N304","type":"route","route":"road","network":"NL:N","operator":"Provincie Gelderland","wikidata":"Q4355810","wikipedia":"nl:Provinciale weg 304"},"13297203":{"to":"De Bilt","ref":"N412","from":"Utrecht","name":"N412","type":"route","route":"road","network":"NL:N","operator":"Provincie Utrecht","wikidata":"Q2798502","wikipedia":"nl:Provinciale weg 412"},"13297231":{"to":"Amersfoort","ref":"N237","from":"Utrecht","name":"N237","type":"route","route":"road","network":"NL:N","operator":"Provincie Utrecht;Gemeente Amersfoort","wikidata":"Q2747998","wikipedia":"nl:Provinciale weg 237"},"13298495":{"ref":"RING","name":"Ring","type":"route","route":"road","network":"NL:binnenstedelijke_ring","nat_name":"Ring Weert","wikidata":"Q2512410","wikipedia":"nl:Ring Weert"},"13298507":{"to":"Hilversum","ref":"N417","from":"Groenekan","name":"N417","type":"route","route":"road","network":"NL:N","operator":"Provincie Utrecht;Provincie Noord-Holland","wikidata":"Q1815543","wikipedia":"nl:Provinciale weg 417"},"13298543":{"to":"Soest","ref":"N234","from":"Groenekan","name":"N234","type":"route","route":"road","network":"NL:N","operator":"Provincie Utrecht","wikidata":"Q2925286","wikipedia":"nl:Provinciale weg 234"},"13298549":{"to":"Zeist","ref":"N238","from":"Den Dolder","name":"N238","type":"route","route":"road","network":"NL:N","operator":"Provincie Utrecht","wikidata":"Q2414101","wikipedia":"nl:Provinciale weg 238"},"13298584":{"to":"Bunschoten (grens Gelderland)","ref":"N806","from":"Bunschoten","name":"N806","type":"route","route":"road","network":"NL:N","operator":"Provincie Utrecht","wikidata":"Q2675194","wikipedia":"nl:Provinciale weg 806"},"13298585":{"to":"Bunschoten","ref":"N414","from":"Baarn","name":"N414","type":"route","route":"road","network":"NL:N","operator":"Provincie Utrecht","wikidata":"Q2598652","wikipedia":"nl:Provinciale weg 414"},"13298586":{"to":"Baarn","ref":"N415","from":"Hilversum","name":"N415","type":"route","route":"road","network":"NL:N","operator":"Provincie Noord-Holland;Provincie Utrecht","wikidata":"Q2437058","wikipedia":"nl:Provinciale weg 415"},"13298587":{"to":"Soest","ref":"N413","from":"Soesterberg","name":"N413","type":"route","route":"road","network":"NL:N","operator":"Provincie Utrecht;Gemeente Soest","wikidata":"Q2666222","wikipedia":"nl:Provinciale weg 413"},"13298588":{"to":"Veenendaal","ref":"N416","from":"Elst","name":"N416","type":"route","route":"road","network":"NL:N","operator":"Provincie Utrecht","wikidata":"Q4441788","wikipedia":"nl:Provinciale weg 416"},"13298607":{"to":"Schiphol-Rijk","ref":"N232","from":"Haarlem","name":"N232","type":"route","route":"road","network":"NL:N","operator":"Provincie Noord-Holland","wikidata":"Q2453912","wikipedia":"nl:Provinciale weg 232"},"13298623":{"to":"Purmerend","ref":"N235","from":"Amsterdam","name":"N235","type":"route","route":"road","network":"NL:N","operator":"Provincie Noord-Holland;Gemeente Purmerend","wikidata":"Q2525148","wikipedia":"nl:Provinciale weg 235"},"13298671":{"to":"Oud-Loosdrecht","ref":"N403","from":"Loenen aan de Vecht","name":"N403","type":"route","route":"road","network":"NL:N","operator":"Provincie Utrecht;Provincie Noord-Holland","wikidata":"Q2512199","wikipedia":"nl:Provinciale weg 403"},"13298672":{"to":"Maarssen","ref":"N402","from":"Loenen aan de Vecht","name":"N402","note":"onderbroken in Breukelen","type":"route","route":"road","network":"NL:N","operator":"Provincie Utrecht","wikidata":"Q1899257","wikipedia":"nl:Provinciale weg 402"},"13298673":{"to":"Breukelen","ref":"N401","from":"Kamerik","name":"N401","type":"route","route":"road","network":"NL:N","operator":"Provincie Utrecht","wikidata":"Q2175112","wikipedia":"nl:Provinciale weg 401"},"13298674":{"to":"Kamerik","ref":"N405","from":"Woerden","name":"N405","type":"route","route":"road","network":"NL:N","operator":"Provincie Utrecht","wikidata":"Q2781756","wikipedia":"nl:Provinciale weg 405"},"13298683":{"to":"Bitgum","ref":"N398","from":"Stiens","name":"N398","type":"route","route":"road","network":"NL:N","operator":"Provincie Fryslân","wikidata":"Q1815562","wikipedia":"nl:Provinciale weg 398"},"13298717":{"to":"Renesse","ref":"R105","from":"Noordwelle","name":"R105","type":"route","route":"road","oneway":"no","network":"NL:R:Schouwen","wikidata":"Q18088664","wikipedia":"nl:R105 (Schouwen)","signed_direction":"yes"},"13298718":{"to":"Haamstede","ref":"R106","from":"Noordwelle","name":"R106","note":"Beide delen lopen dood tegen paaltje Hogezoom. Deel ten noorden hiervan alleen in zuidelijke richting bewegwijzerd. Deel ten zuiden hiervan in beide richtingen.","type":"route","route":"road","oneway":"no","network":"NL:R:Schouwen","wikidata":"Q18088637","wikipedia":"nl:R106 (Schouwen)","signed_direction":"partial"},"13298719":{"to":"Renesse (strand)","ref":"R102","from":"Renesse (N652)","name":"R102","type":"route","route":"road","network":"NL:R:Schouwen","wikidata":"Q18088240","wikipedia":"nl:R102 (Schouwen)","signed_direction":"yes"},"13298720":{"to":"Renesse (strand)","ref":"R101","from":"Renesse (N652)","name":"R101","type":"route","route":"road","oneway":"no","network":"NL:R:Schouwen","wikidata":"Q18088388","wikipedia":"nl:R101 (Schouwen)","signed_direction":"yes"},"13298735":{"to":"Nieuw-Haamstede","ref":"R107","from":"Haamstede","name":"R107","type":"route","route":"road","oneway":"no","network":"NL:R:Schouwen","wikidata":"Q18088359","wikipedia":"nl:R107 (Schouwen)","signed_direction":"yes"},"13298742":{"to":"Velsen-Zuid (R101)","ref":"R102","from":"Velsen-Zuid (N202)","name":"R102","type":"route","route":"road","network":"NL:R:Spaarnwoude","old_ref":"r102","wikidata":"Q18088086","wikipedia":"nl:R102 (Spaarnwoude)"},"13298818":{"to":"Renesse (strand)","ref":"R103","from":"Renesse","name":"R103","type":"route","route":"road","oneway":"no","network":"NL:R:Schouwen","wikidata":"Q18088148","wikipedia":"nl:R103 (Schouwen)","signed_direction":"yes"},"13302101":{"to":"Wieringerwerf","ref":"N248","from":"Stolpen","name":"N248","type":"route","route":"road","network":"NL:N","operator":"Provincie Noord-Holland","wikidata":"Q14178223","wikipedia":"nl:Provinciale weg 248"},"13302131":{"to":"Wognum","ref":"N241","from":"Schagen","name":"N241","type":"route","route":"road","network":"NL:N","operator":"Provincie Noord-Holland","wikidata":"Q2209418","wikipedia":"nl:Provinciale weg 241"},"13304029":{"to":"De Zilk","ref":"N442","from":"Hillegom","name":"N442","type":"route","route":"road","network":"NL:N","operator":"Provincie Zuid-Holland","wikidata":"Q2922198","wikipedia":"nl:Provinciale weg 442"},"13304093":{"to":"Voorhout (N443)","ref":"N450","from":"Voorhout","name":"N450","type":"route","route":"road","network":"NL:N","operator":"Provincie Zuid-Holland","wikidata":"Q2279692","wikipedia":"nl:Provinciale weg 450"},"13304094":{"to":"Sassenheim","ref":"N443","from":"Noordwijkerhout","name":"N443","type":"route","route":"road","network":"NL:N","operator":"Provincie Zuid-Holland","wikidata":"Q1988699","wikipedia":"nl:Provinciale weg 443"},"13304105":{"to":"Noordwijk","ref":"N444","from":"Oegstgeest","name":"N444","type":"route","route":"road","network":"NL:N","operator":"Provincie Zuid-Holland","wikidata":"Q2779530","wikipedia":"nl:Provinciale weg 444"},"13304106":{"to":"Noordwijk","ref":"N449","from":"Noordwijk","name":"N449","type":"route","route":"road","network":"NL:N","operator":"Provincie Zuid-Holland","wikidata":"Q2489289","wikipedia":"nl:Provinciale weg 449"},"13304347":{"to":"Leiden","ref":"N447","from":"Leidschendam","name":"N447","note":"onderbroken in Voorschoten","type":"route","route":"road","network":"NL:N","operator":"Provincie Zuid-Holland","wikidata":"Q2199313","wikipedia":"nl:Provinciale weg 447"},"13304367":{"to":"Voorschoten","ref":"N448","from":"Wassenaar","name":"N448","type":"route","route":"road","network":"NL:N","operator":"Provincie Zuid-Holland","wikidata":"Q2636519","wikipedia":"nl:Provinciale weg 448"},"13304378":{"to":"Katwijk","ref":"N441","from":"Wassenaar","name":"N441","type":"route","route":"road","network":"NL:N","operator":"Provincie Zuid-Holland","wikidata":"Q2616284","wikipedia":"nl:Provinciale weg 441"},"13304392":{"to":"Roelofarendsveen","ref":"N445","from":"Leiderdorp","name":"N445","type":"route","route":"road","network":"NL:N","operator":"Provincie Zuid-Holland","wikidata":"Q2119402","wikipedia":"nl:Provinciale weg 445"},"13304400":{"to":"Ter Aar","ref":"N446","from":"Leiderdorp","name":"N446","type":"route","route":"road","network":"NL:N","operator":"Provincie Zuid-Holland","wikidata":"Q2183682","wikipedia":"nl:Provinciale weg 446"},"13304430":{"to":"Wassenaar","ref":"N440","from":"Den Haag","name":"N440","type":"route","route":"road","network":"NL:N","operator":"Provincie Zuid-Holland","wikidata":"Q108837767"},"13304500":{"to":"Medemblik","ref":"N239","from":"Nieuwe Niedorp","name":"N239","type":"route","route":"road","network":"NL:N","operator":"Provincie Noord-Holland","wikidata":"Q1817015","wikipedia":"nl:Provinciale weg 239"},"13304540":{"to":"Hoogkarspel","ref":"N240","from":"Westerland","name":"N240","type":"route","route":"road","network":"NL:N","operator":"Provincie Noord-Holland;Gemeente Hollands Kroon","wikidata":"Q1821717","wikipedia":"nl:Provinciale weg 240"},"13304544":{"to":"Edam","ref":"N244","from":"Alkmaar","name":"N244","type":"route","route":"road","network":"NL:N","operator":"Provincie Noord-Holland","wikidata":"Q2160498","wikipedia":"nl:Provinciale weg 244"},"13304641":{"to":"Zuidschermer","ref":"N246","from":"Beverwijk","name":"N246","type":"route","route":"road","network":"NL:N","operator":"Provincie Noord-Holland;Gemeente Beverwijk","wikidata":"Q2462535","wikipedia":"nl:Provinciale weg 246"},"13304673":{"to":"Schagen","ref":"N245","from":"Alkmaar","name":"N245","type":"route","route":"road","network":"NL:N","operator":"Provincie Noord-Holland;Gemeente Alkmaar","wikidata":"Q3249981","wikipedia":"nl:Provinciale weg 245"},"13304682":{"to":"Berkhout","ref":"N247","from":"Amsterdam","name":"N247","type":"route","route":"road","network":"NL:N","operator":"Provincie Noord-Holland","wikidata":"Q2640101","wikipedia":"nl:Provinciale weg 247"},"13314037":{"to":"Arnhem (A50)","ref":"N311","from":"Arnhem (N310)","name":"N311","type":"route","route":"road","network":"NL:N","operator":"Provincie Gelderland","wikidata":"Q2279450","wikipedia":"nl:Provinciale weg 311"},"13314038":{"to":"Elburg","ref":"N310","from":"Arnhem","name":"N310","type":"route","route":"road","network":"NL:N","operator":"Provincie Gelderland;Gemeente Barneveld;Gemeente Apeldoorn;Gemeente Nunspeet","wikidata":"Q1840594","wikipedia":"nl:Provinciale weg 310"},"13314118":{"to":"Lichtenvoorde","ref":"N312","from":"Lochem","name":"N312","note":"onderbroken in Ruurlo en Zieuwent","type":"route","route":"road","network":"NL:N","operator":"Provincie Gelderland","wikidata":"Q2748255","wikipedia":"nl:Provinciale weg 312"},"13314124":{"to":"Lichtenvoorde","ref":"N313","from":"Aalten (grens Duitsland)","name":"N313","type":"route","route":"road","network":"NL:N","operator":"Provincie Gelderland","wikidata":"Q2084515","wikipedia":"nl:Provinciale weg 313"},"13314157":{"to":"Zutphen","ref":"N314","from":"Hummelo","name":"N314","type":"route","route":"road","network":"NL:N","operator":"Provincie Gelderland","wikidata":"Q1960929","wikipedia":"nl:Provinciale weg 314"},"13314247":{"to":"Den Bommel","ref":"N498","from":"Oude-Tonge","name":"N498","type":"route","route":"road","network":"NL:N","operator":"Provincie Zuid-Holland","wikidata":"Q2962527","wikipedia":"nl:Provinciale weg 498"},"13314248":{"to":"Westmaas","ref":"N488","from":"Numansdorp","name":"N488","note":"onderbroken in Klaaswaal","type":"route","route":"road","network":"NL:N","operator":"Provincie Zuid-Holland","wikidata":"Q2297078","wikipedia":"nl:Provinciale weg 488"},"13314249":{"to":"Numansdorp","ref":"N487","from":"Numansdorp (A29)","name":"N487","type":"route","route":"road","network":"NL:N","operator":"Provincie Zuid-Holland","wikidata":"Q2064839","wikipedia":"nl:Provinciale weg 487"},"13314250":{"to":"Heinenoord","ref":"N489","from":"Westmaas","name":"N489","type":"route","route":"road","network":"NL:N","operator":"Provincie Zuid-Holland","wikidata":"Q2203490","wikipedia":"nl:Provinciale weg 489"},"13314251":{"to":"Maasdam","ref":"N491","from":"Strijen","name":"N491","type":"route","route":"road","network":"NL:N","operator":"Provincie Zuid-Holland","wikidata":"Q2010195","wikipedia":"nl:Provinciale weg 491"},"13314297":{"to":"Oostvoorne","ref":"N496","from":"Hellevoetsluis","name":"N496","type":"route","route":"road","network":"NL:N","operator":"Provincie Zuid-Holland","wikidata":"Q2216094","wikipedia":"nl:Provinciale weg 496"},"13314298":{"to":"Hellevoetsluis","ref":"N494","from":"Zwartewaal","name":"N494","type":"route","route":"road","network":"NL:N","operator":"Provincie Zuid-Holland","wikidata":"Q2929167","wikipedia":"nl:Provinciale weg 494"},"13314299":{"to":"Hellevoetsluis","ref":"N497","from":"Hellevoetsluis (N57)","name":"N497","type":"route","route":"road","network":"NL:N","operator":"Provincie Zuid-Holland","wikidata":"Q2238126","wikipedia":"nl:Provinciale weg 497"},"13314348":{"to":"Spijkenisse","ref":"N492","from":"Rotterdam","name":"N492","type":"route","route":"road","network":"NL:N","operator":"Provincie Zuid-Holland;Rijkswaterstaat","wikidata":"Q2336963","wikipedia":"nl:Provinciale weg 492"},"13314349":{"to":"Spijkenisse","ref":"N493","from":"Spijkenisse (N218)","name":"N493","type":"route","route":"road","network":"NL:N","operator":"Provincie Zuid-Holland","wikidata":"Q2411827","wikipedia":"nl:Provinciale weg 493"},"13314401":{"to":"Wanneperveen","ref":"N762","from":"Vollenhove","name":"N762","type":"route","route":"road","network":"NL:N","operator":"Provincie Overijssel","wikidata":"Q2191988","wikipedia":"nl:Provinciale weg 762"},"13314402":{"to":"Steenwijk","ref":"N334","from":"Zwartsluis","name":"N334","type":"route","route":"road","network":"NL:N","operator":"Provincie Overijssel","wikidata":"Q2151685","wikipedia":"nl:Provinciale weg 334"},"13314844":{"to":"Emmeloord","ref":"N331","name":"N331","type":"route","route":"road","network":"NL:N","operator":"Provincie Overijssel;Provincie Flevoland;Gemeente Zwolle","wikidata":"Q1835243","wikipedia":"nl:Provinciale weg 331"},"13314870":{"to":"Steenwijk","ref":"N333","from":"Marknesse","name":"N333","type":"route","route":"road","network":"NL:N","operator":"Provincie Flevoland;Provincie Overijssel","wikidata":"Q3239857","wikipedia":"nl:Provinciale weg 333"},"13314892":{"to":"Urk","ref":"N351","from":"Oosterwolde","name":"N351","type":"route","route":"road","network":"NL:N","operator":"Provincie Fryslân;Provincie Overijssel;Provincie Flevoland;Gemeente Weststellingwerf;Gemeente Urk","wikidata":"Q4378255","wikipedia":"nl:Provinciale weg 351"},"13315031":{"to":"Haaksbergen","ref":"N315","from":"Doetinchem","name":"N315","type":"route","route":"road","network":"NL:N","operator":"Provincie Gelderland;Provincie Overijssel","wikidata":"Q2530896","wikipedia":"nl:Provinciale weg 315"},"13315109":{"to":"'s-Heerenberg","ref":"N827","from":"'s-Heerenberg (grens Duitsland)","name":"N827","type":"route","route":"road","network":"NL:N","operator":"Provincie Gelderland","wikidata":"Q2164771","wikipedia":"nl:Provinciale weg 827"},"13315110":{"to":"Vorden","ref":"N316","from":"'s-Heerenberg","name":"N316","type":"route","route":"road","network":"NL:N","operator":"Provincie Gelderland;Gemeente Doetinchem","wikidata":"Q4026412","wikipedia":"nl:Provinciale weg 316"},"13315259":{"to":"Dinxperlo (grens Duitsland)","ref":"N317","from":"Ellecom","name":"N317","note":"onderbroken bij A18","type":"route","route":"road","network":"NL:N","operator":"Provincie Gelderland;Gemeente Doetinchem","wikidata":"Q2359520","wikipedia":"nl:Provinciale weg 317"},"13315330":{"to":"Winterswijk","ref":"N318","from":"Varsseveld","name":"N318","type":"route","route":"road","network":"NL:N","operator":"Provincie Gelderland","wikidata":"Q14178264","wikipedia":"nl:Provinciale weg 318"},"13315348":{"to":"Winterswijk (grens Duitsland)","ref":"N319","from":"Zutphen","name":"N319","note":"onderbroken in Vorden","type":"route","route":"road","network":"NL:N","operator":"Provincie Gelderland","wikidata":"Q3467176","wikipedia":"nl:Provinciale weg 319"},"13315436":{"to":"Varsseveld","ref":"N330","from":"Hummelo","name":"N330","type":"route","route":"road","network":"NL:N","operator":"Provincie Gelderland","wikidata":"Q1865838","wikipedia":"nl:Provinciale weg 330"},"13324255":{"ref":"RING","name":"Ring","type":"route","route":"road","network":"NL:binnenstedelijke_ring","nat_name":"Ring Roosendaal","wikidata":"Q108885126"},"13327054":{"to":"Lochem","ref":"N332","from":"Raalte","name":"N332","type":"route","route":"road","network":"NL:N","operator":"Provincie Overijssel;Provincie Gelderland","wikidata":"Q14178270","wikipedia":"nl:Provinciale weg 332"},"13327281":{"to":"Doesburg","ref":"N338","from":"Duiven","name":"N338","type":"route","route":"road","network":"NL:N","operator":"Provincie Gelderland","wikidata":"Q2003992","wikipedia":"nl:Provinciale weg 338"},"13327282":{"to":"Zevenaar","ref":"N810","from":"Duiven","name":"N810","type":"route","route":"road","network":"NL:N","operator":"Provincie Gelderland","wikidata":"Q1835437","wikipedia":"nl:Provinciale weg 810"},"13327283":{"to":"Didam","ref":"N812","from":"Babberich","name":"N812","type":"route","route":"road","network":"NL:N","operator":"Provincie Gelderland","wikidata":"Q3249716","wikipedia":"nl:Provinciale weg 812"},"13327284":{"to":"Angerlo","ref":"N336","from":"Babberich","name":"N336","type":"route","route":"road","network":"NL:N","operator":"Provincie Gelderland;Gemeente Zevenaar","wikidata":"Q2387086","wikipedia":"nl:Provinciale weg 336"},"13327285":{"to":"Etten","ref":"N335","from":"Didam","name":"N335","type":"route","route":"road","network":"NL:N","operator":"Provincie Gelderland","wikidata":"Q2739753","wikipedia":"nl:Provinciale weg 335"},"13328438":{"to":"Spijk","ref":"N363","from":"Winsum","name":"N363","type":"route","route":"road","network":"NL:N","operator":"Provincie Groningen","wikidata":"Q2631968","wikipedia":"nl:Provinciale weg 363"},"13328439":{"to":"Holwierde","ref":"N997","from":"Delfzijl","name":"N997","type":"route","route":"road","network":"NL:N","operator":"Provincie Groningen","wikidata":"Q4975280","wikipedia":"nl:Provinciale weg 997"},"13328440":{"to":"Uithuizen","ref":"N999","from":"Startenhuizen","name":"N999","type":"route","route":"road","network":"NL:N","operator":"Provincie Groningen","wikidata":"Q2265503","wikipedia":"nl:Provinciale weg 999"},"13328441":{"to":"Usquert","ref":"N998","from":"Middelstum","name":"N998","type":"route","route":"road","network":"NL:N","operator":"Provincie Groningen","wikidata":"Q1971271","wikipedia":"nl:Provinciale weg 998"},"13328512":{"to":"Woldendorp","ref":"N992","from":"Farmsum","name":"N992","type":"route","route":"road","network":"NL:N","operator":"Provincie Groningen","wikidata":"Q2403837","wikipedia":"nl:Provinciale weg 992"},"13328513":{"to":"Farmsum (N362)","ref":"N991","from":"Farmsum","name":"N991","type":"route","route":"road","network":"NL:N","operator":"Provincie Groningen","wikidata":"Q2743584","wikipedia":"nl:Provinciale weg 991"},"13328514":{"to":"Farmsum","ref":"N990","from":"Farmsum","name":"N990","type":"route","route":"road","network":"NL:N","operator":"Provincie Groningen","wikidata":"Q2100741","wikipedia":"nl:Provinciale weg 990"},"13328515":{"to":"Delfzijl","ref":"N360","from":"Groningen","name":"N360","type":"route","route":"road","network":"NL:N","operator":"Provincie Groningen","wikidata":"Q3265611","wikipedia":"nl:Provinciale weg 360"},"13328516":{"to":"Garrelsweer","ref":"N996","from":"Winsum","name":"N996","type":"route","route":"road","network":"NL:N","operator":"Provincie Groningen","wikidata":"Q1990372","wikipedia":"nl:Provinciale weg 996"},"13328527":{"to":"Bedum","ref":"N994","from":"Zuidwolde","name":"N994","type":"route","route":"road","network":"NL:N","operator":"Provincie Groningen","wikidata":"Q2366483","wikipedia":"nl:Provinciale weg 994"},"13328528":{"to":"Ten Boer","ref":"N993","from":"Bedum","name":"N993","type":"route","route":"road","network":"NL:N","operator":"Provincie Groningen","wikidata":"Q2240344","wikipedia":"nl:Provinciale weg 993"},"13328529":{"to":"Onderdendam","ref":"N995","from":"Bedum","name":"N995","type":"route","route":"road","network":"NL:N","operator":"Provincie Groningen","wikidata":"Q1844382","wikipedia":"nl:Provinciale weg 995"},"13328557":{"to":"Gendt","ref":"N839","from":"Huissen","name":"N839","type":"route","route":"road","network":"NL:N","operator":"Provincie Gelderland","wikidata":"Q2417377","wikipedia":"nl:Provinciale weg 839"},"13328558":{"to":"Heumen","ref":"N846","from":"Nederasselt","name":"N846","type":"route","route":"road","network":"NL:N","operator":"Provincie Gelderland","wikidata":"Q2224780","wikipedia":"nl:Provinciale weg 846"},"13328559":{"to":"Millingen aan de Rijn","ref":"N840","from":"Beek","name":"N840","type":"route","route":"road","network":"NL:N","operator":"Provincie Gelderland","wikidata":"Q2356849","wikipedia":"nl:Provinciale weg 840"},"13328570":{"to":"Gendt","ref":"N838","from":"Huissen","name":"N838","type":"route","route":"road","network":"NL:N","operator":"Provincie Gelderland","wikidata":"Q1814192","wikipedia":"nl:Provinciale weg 838"},"13328571":{"to":"Lobith","ref":"N811","from":"Babberich","name":"N811","type":"route","route":"road","network":"NL:N","operator":"Provincie Gelderland","wikidata":"Q2005740","wikipedia":"nl:Provinciale weg 811"},"13328581":{"to":"Nederasselt","ref":"N847","from":"Wijchen","name":"N847","type":"route","route":"road","network":"NL:N","operator":"Provincie Gelderland","wikidata":"Q1878596","wikipedia":"nl:Provinciale weg 847"},"13328604":{"to":"Elst","ref":"N836","from":"Randwijk","name":"N836","type":"route","route":"road","network":"NL:N","operator":"Provincie Gelderland","wikidata":"Q2693207","wikipedia":"nl:Provinciale weg 836"},"13328605":{"to":"Arnhem","ref":"N837","from":"Randwijk","name":"N837","type":"route","route":"road","network":"NL:N","operator":"Provincie Gelderland","wikidata":"Q1867174","wikipedia":"nl:Provinciale weg 837"},"13328619":{"to":"Zwolle","ref":"N337","from":"Deventer","name":"N337","type":"route","route":"road","network":"NL:N","operator":"Provincie Overijssel;Gemeente Deventer;Gemeente Zwolle","wikidata":"Q1944005","wikipedia":"nl:Provinciale weg 337"},"13328620":{"to":"Laren","ref":"N339","from":"Epse","name":"N339","type":"route","route":"road","network":"NL:N","operator":"Provincie Gelderland","wikidata":"Q3423170","wikipedia":"nl:Provinciale weg 339"},"13328645":{"to":"Brummen","ref":"N345","from":"Apeldoorn","name":"N345","type":"route","route":"road","network":"NL:N","operator":"Provincie Gelderland;Gemeente Apeldoorn","wikidata":"Q1814485","wikipedia":"nl:Provinciale weg 345"},"13328646":{"to":"Holten","ref":"N344","from":"Voorthuizen","name":"N344","type":"route","route":"road","network":"NL:N","operator":"Provincie Gelderland;Provincie Overijssel;Gemeente Barneveld;Gemeente Apeldoorn;Gemeente Deventer","wikidata":"Q14178275","wikipedia":"nl:Provinciale weg 344"},"13333684":{"to":"Kloosterhaar","ref":"N341","from":"Ommen","name":"N341","type":"route","route":"road","network":"NL:N","operator":"Provincie Overijssel;Gemeente Twenterand","wikidata":"Q1879017","wikipedia":"nl:Provinciale weg 341"},"13333712":{"to":"Denekamp (grens Duitsland)","ref":"N342","from":"Hengelo","name":"N342","type":"route","route":"road","network":"NL:N","operator":"Provincie Overijssel;Gemeente Dinkelland","wikidata":"Q2054918","wikipedia":"nl:Provinciale weg 342"},"13333749":{"to":"Denekamp","ref":"N349","from":"Almelo","name":"N349","type":"route","route":"road","network":"NL:N","operator":"Provincie Overijssel;Gemeente Almelo;Gemeente Dinkelland","wikidata":"Q2558668","wikipedia":"nl:Provinciale weg 349"},"13333771":{"to":"Slagharen","ref":"N343","from":"Oldenzaal","name":"N343","type":"route","route":"road","network":"NL:N","operator":"Provincie Overijssel;Gemeente Oldenzaal;Gemeente Haaksbergen","wikidata":"Q3039346","wikipedia":"nl:Provinciale weg 343"},"13333811":{"to":"Midwolda","ref":"N985","from":"Midwolda (N362)","name":"N985","type":"route","route":"road","network":"NL:N","operator":"Provincie Groningen","wikidata":"Q2713402","wikipedia":"nl:Provinciale weg 985"},"13333812":{"to":"Wagenborgen (N362)","ref":"N988","from":"Wagenborgen","name":"N988","type":"route","route":"road","network":"NL:N","operator":"Provincie Groningen","wikidata":"Q1890756","wikipedia":"nl:Provinciale weg 988"},"13333813":{"to":"Wagenborgen","ref":"N987","from":"Siddeburen","name":"N987","type":"route","route":"road","network":"NL:N","operator":"Provincie Groningen","wikidata":"Q2467826","wikipedia":"nl:Provinciale weg 987"},"13333814":{"to":"Siddeburen","ref":"N387","from":"Hoogezand","name":"N387","type":"route","route":"road","network":"NL:N","operator":"Provincie Groningen","wikidata":"Q2412888","wikipedia":"nl:Provinciale weg 387"},"13333815":{"to":"Schildwolde","ref":"N865","from":"Ten Post","name":"N865","note":"onderbroken in Schildwolde","type":"route","route":"road","network":"NL:N","operator":"Provincie Groningen","wikidata":"Q1932310","wikipedia":"nl:Provinciale weg 865"},"13333841":{"to":"Winschoten","ref":"N972","from":"Oude Pekela","name":"N972","type":"route","route":"road","network":"NL:N","operator":"Provincie Groningen","wikidata":"Q2786093","wikipedia":"nl:Provinciale weg 972"},"13333842":{"to":"Finsterwolde","ref":"N967","from":"Winschoten","name":"N967","type":"route","route":"road","network":"NL:N","operator":"Provincie Groningen","wikidata":"Q2608873","wikipedia":"nl:Provinciale weg 967"},"13333843":{"to":"Beerta","ref":"N966","from":"Winschoten","name":"N966","type":"route","route":"road","network":"NL:N","operator":"Provincie Groningen","wikidata":"Q2136385","wikipedia":"nl:Provinciale weg 966"},"13333856":{"to":"Nieuwe Pekela","ref":"N367","from":"Winschoten","name":"N367","type":"route","route":"road","network":"NL:N","operator":"Provincie Groningen","wikidata":"Q2092837","wikipedia":"nl:Provinciale weg 367"},"13333857":{"to":"Vlagtwedde","ref":"N368","from":"Blijham","name":"N368","type":"route","route":"road","network":"NL:N","operator":"Provincie Groningen","wikidata":"Q14178280","wikipedia":"nl:Provinciale weg 368"},"13333876":{"to":"Rhederbrug (grens Duitsland)","ref":"N969","from":"Blijham","name":"N969","type":"route","route":"road","network":"NL:N","operator":"Provincie Groningen","wikidata":"Q3442591","wikipedia":"nl:Provinciale weg 969"},"13333887":{"to":"Bourtange (grens Duitsland)","ref":"N365","from":"Alteveer","name":"N365","type":"route","route":"road","network":"NL:N","operator":"Provincie Groningen","wikidata":"Q2374451","wikipedia":"nl:Provinciale weg 365"},"13333891":{"to":"Ter Apel","ref":"N976","from":"Vlagtwedde","name":"N976","type":"route","route":"road","network":"NL:N","operator":"Provincie Groningen","wikidata":"Q2403893","wikipedia":"nl:Provinciale weg 976"},"13334036":{"to":"De Groeve","ref":"N962","from":"Kiel-Windeweer","name":"N962","type":"route","route":"road","network":"NL:N","operator":"Provincie Groningen;Provincie Drenthe","wikidata":"Q2855323","wikipedia":"nl:Provinciale weg 962"},"13334037":{"to":"Veendam","ref":"N963","from":"Kiel-Windeweer","name":"N963","type":"route","route":"road","network":"NL:N","operator":"Provincie Groningen","wikidata":"Q1933128","wikipedia":"nl:Provinciale weg 963"},"13334038":{"to":"Wildervank","ref":"N385","from":"Hoogezand","name":"N385","type":"route","route":"road","network":"NL:N","operator":"Provincie Groningen","wikidata":"Q13743281","wikipedia":"nl:Kielsterachterweg"},"13334039":{"to":"Stadskanaal","ref":"N378","from":"Gasselte","name":"N378","type":"route","route":"road","network":"NL:N","operator":"Provincie Drenthe;Provincie Groningen","wikidata":"Q2153791","wikipedia":"nl:Provinciale weg 378"},"13334041":{"to":"Musselkanaal","ref":"N975","from":"Onstwedde","name":"N975","type":"route","route":"road","network":"NL:N","operator":"Provincie Groningen","wikidata":"Q2107886","wikipedia":"nl:Provinciale weg 975"},"13334046":{"to":"Coevorden","ref":"N377","from":"Hasselt","name":"N377","type":"route","route":"road","network":"NL:N","operator":"Provincie Overijssel;Provincie Drenthe;Gemeente Zwartewaterland","wikidata":"Q2678544","wikipedia":"nl:Provinciale weg 377"},"13334095":{"to":"Cadzand","ref":"N674","from":"Oostburg","name":"N674","note":"onderbroken in Zuidzande","type":"route","route":"road","network":"NL:N","operator":"Provincie Zeeland","wikidata":"Q2022904","wikipedia":"nl:Provinciale weg 674"},"13334096":{"to":"Zuidzande","ref":"N675","from":"Breskens","name":"N675","note":"onderbroken in Groede","type":"route","route":"road","network":"NL:N","operator":"Provincie Zeeland","wikidata":"Q2133869","wikipedia":"nl:Provinciale weg 675"},"13334097":{"to":"Schoondijke","ref":"N676","from":"Breskens","name":"N676","type":"route","route":"road","network":"NL:N","operator":"Provincie Zeeland","wikidata":"Q3169287","wikipedia":"nl:Provinciale weg 676"},"13335440":{"to":"Hengelo","ref":"N346","from":"Zutphen","name":"N346","type":"route","route":"road","network":"NL:N","operator":"Provincie Gelderland;Provincie Overijssel;Gemeente Lochem","wikidata":"Q2759592","wikipedia":"nl:Provinciale weg 346"},"13335464":{"to":"Ommen","ref":"N347","from":"Haaksbergen","name":"N347","note":"onderbroken door N35","type":"route","route":"road","network":"NL:N","operator":"Provincie Overijssel;Gemeente Rijssen-Holten;Gemeente Haaksbergen;Gemeente Hellendoorn;Gemeente Ommen","wikidata":"Q2369435","wikipedia":"nl:Provinciale weg 347"},"13335498":{"to":"Wierden","ref":"N350","from":"Holten","name":"N350","type":"route","route":"road","network":"NL:N","operator":"Provincie Overijssel;Gemeente Rijssen-Holten","wikidata":"Q2520365","wikipedia":"nl:Provinciale weg 350"},"13335559":{"to":"Idaerd","ref":"N354","from":"Oosterzee","name":"N354","note":"onderbroken bij N7","type":"route","route":"road","network":"NL:N","operator":"Provincie Fryslân;Gemeente Súdwest-Fryslân","wikidata":"Q2662768","wikipedia":"nl:Provinciale weg 354"},"13335588":{"to":"Balk","ref":"N928","from":"Woudsend","name":"N928","type":"route","route":"road","network":"NL:N","operator":"Provincie Fryslân","wikidata":"Q2498759","wikipedia":"nl:Provinciale weg 928"},"13335589":{"to":"Tjerkgaast","ref":"N927","from":"Sint Nicolaasga","name":"N927","type":"route","route":"road","network":"NL:N","operator":"Provincie Fryslân","wikidata":"Q2059860","wikipedia":"nl:Provinciale weg 927"},"13335625":{"ref":"RING","name":"Ring Sneek","type":"route","route":"road","alt_ref":"RING N7;RING N354","name:fy":"Ring Snits","name:nl":"Ring Sneek","network":"NL:ring","wikidata":"Q2097599","wikipedia":"nl:Ring Sneek"},"13335639":{"to":"Oosterzee","ref":"N924","from":"Heerenveen","name":"N924","note":"onderbroken in Delfstrahuizen en Echtenerbrug","type":"route","route":"road","network":"NL:N","operator":"Provincie Fryslân","wikidata":"Q3046445","wikipedia":"nl:Provinciale weg 924"},"13335799":{"to":"Ryptsjerk","ref":"N361","from":"Groningen","name":"N361","type":"route","route":"road","network":"NL:N","operator":"Provincie Groningen;Provincie Fryslân","wikidata":"Q2561968","wikipedia":"nl:Provinciale weg 361"},"13335860":{"to":"Holwerd","ref":"N357","from":"Leeuwarden","name":"N357","type":"route","route":"road","network":"NL:N","operator":"Provincie Fryslân;Gemeente Leeuwarden","wikidata":"Q2382082","wikipedia":"nl:Provinciale weg 357"},"13335904":{"to":"Ureterp","ref":"N358","from":"Holwerd","name":"N358","type":"route","route":"road","network":"NL:N","operator":"Provincie Fryslân","wikidata":"Q2046573","wikipedia":"nl:Provinciale weg 358"},"13335937":{"to":"Kootstertille","ref":"N369","from":"Drachten","name":"N369","type":"route","route":"road","network":"NL:N","operator":"Provincie Fryslân","wikidata":"Q2081882","wikipedia":"nl:Provinciale weg 369"},"13335966":{"to":"Hoogeveen","ref":"N374","from":"Stadskanaal","name":"N374","type":"route","route":"road","network":"NL:N","operator":"Provincie Groningen;Provincie Drenthe;Gemeente Borger-Odoorn;Gemeente Midden-Drenthe","wikidata":"Q2323395","wikipedia":"nl:Provinciale weg 374"},"13336010":{"to":"Wanneperveen","ref":"N375","from":"Pesse","name":"N375","type":"route","route":"road","network":"NL:N","operator":"Provincie Drenthe;Provincie Overijssel","wikidata":"Q4380011","wikipedia":"nl:Provinciale weg 375"},"13336076":{"to":"Donkerbroek","ref":"N380","from":"Heerenveen","name":"N380","type":"route","route":"road","network":"NL:N","operator":"Provincie Fryslân","wikidata":"Q2176555","wikipedia":"nl:Provinciale weg 380"},"13336086":{"to":"Jubbega","ref":"N392","from":"Akkrum","name":"N392","type":"route","route":"road","network":"NL:N","operator":"Provincie Fryslân","wikidata":"Q2119659","wikipedia":"nl:Provinciale weg 392"},"13336110":{"to":"Harlingen","ref":"N390","from":"Midlum","name":"N390","type":"route","route":"road","network":"NL:N","operator":"Provincie Fryslân;Gemeente Harlingen","wikidata":"Q2050026","wikipedia":"nl:Provinciale weg 390"},"13336131":{"to":"Sint Annaparochie","ref":"N383","from":"Marsum","name":"N383","type":"route","route":"road","network":"NL:N","operator":"Provincie Fryslân;Gemeente Waadhoeke","wikidata":"Q14818210","wikipedia":"nl:Provinciale weg 383"},"13336188":{"to":"Midlum","ref":"N393","from":"Stiens","name":"N393","type":"route","route":"road","network":"NL:N","operator":"Provincie Fryslân;Gemeente Waadhoeke","wikidata":"Q2690108","wikipedia":"nl:Provinciale weg 393"},"13336337":{"to":"Tzummarum","ref":"N384","from":"Dearsum","name":"N384","type":"route","route":"road","network":"NL:N","operator":"Provincie Fryslân;Gemeente Waadhoeke","wikidata":"Q2603028","wikipedia":"nl:Provinciale weg 384"},"13336358":{"to":"Vierhuizen","ref":"N388","from":"Niebert","name":"N388","type":"route","route":"road","network":"NL:N","operator":"Provincie Groningen","wikidata":"Q2314805","wikipedia":"nl:Provinciale weg 388"},"13336619":{"to":"Hoenderlo","ref":"N804","from":"Arnhem","name":"N804","type":"route","route":"road","network":"NL:N","operator":"Provincie Gelderland","wikidata":"Q2933281","wikipedia":"nl:Provinciale weg 804"},"13336646":{"to":"Twello","ref":"N792","from":"Vaassen","name":"N792","type":"route","route":"road","network":"NL:N","operator":"Provincie Gelderland","wikidata":"Q2051643","wikipedia":"nl:Provinciale weg 792"},"13336647":{"to":"Wilp","ref":"N791","from":"Wilp (A1)","name":"N791","type":"route","route":"road","network":"NL:N","operator":"Provincie Gelderland","wikidata":"Q3471133","wikipedia":"nl:Provinciale weg 791"},"13336648":{"to":"Steenenkamer","ref":"N790","from":"Voorst","name":"N790","type":"route","route":"road","network":"NL:N","operator":"Provincie Gelderland","wikidata":"Q2574232","wikipedia":"nl:Provinciale weg 790"},"13336716":{"to":"Lutjebroek","ref":"N506","from":"Hoorn","name":"N506","type":"route","route":"road","network":"NL:N","operator":"Provincie Noord-Holland","wikidata":"Q2420030","wikipedia":"nl:Provinciale weg 506"},"13336717":{"to":"Enkhuizen","ref":"N505","from":"Zwaagdijk-Oost","name":"N505","type":"route","route":"road","network":"NL:N","operator":"Provincie Noord-Holland","wikidata":"Q47260182","wikipedia":"nl:Provinciale weg 505"},"13336736":{"to":"Julianabrug","ref":"N502","from":"Burgerbrug","name":"N502","note":"onderbroken in Callantsoog","type":"route","route":"road","network":"NL:N","operator":"Provincie Noord-Holland","wikidata":"Q2509063","wikipedia":"nl:Provinciale weg 502"},"13336737":{"to":"Stolpen (N502)","ref":"N503","from":"Stolpen (N9)","name":"N503","type":"route","route":"road","network":"NL:N","operator":"Provincie Noord-Holland","wikidata":"Q2792915","wikipedia":"nl:Provinciale weg 503"},"13338686":{"to":"Oosthuizen","ref":"N509","from":"Noordbeemster","name":"N509","type":"route","route":"road","network":"NL:N","operator":"Provincie Noord-Holland","wikidata":"Q3323387","wikipedia":"nl:Provinciale weg 509"},"13339057":{"to":"Egmond aan den Hoef","ref":"N511","from":"Bergen","name":"N511","type":"route","route":"road","network":"NL:N","operator":"Provincie Noord-Holland","wikidata":"Q2476482","wikipedia":"nl:Provinciale weg 511"},"13339058":{"to":"Bergen aan Zee","ref":"N510","from":"Alkmaar","name":"N510","note":"onderbroken in Bergen","type":"route","route":"road","network":"NL:N","operator":"Provincie Noord-Holland","wikidata":"Q1909434","wikipedia":"nl:Provinciale weg 510"},"13339059":{"to":"Ursem","ref":"N509","from":"Alkmaar","name":"N508","type":"route","route":"road","network":"NL:N","operator":"Provincie Noord-Holland","wikidata":"Q2098877","wikipedia":"nl:Provinciale weg 508"},"13339185":{"to":"Bakkum","ref":"N512","from":"Alkmaar","name":"N512","type":"route","route":"road","network":"NL:N","operator":"Provincie Noord-Holland","wikidata":"Q1828264","wikipedia":"nl:Provinciale weg 512"},"13339186":{"to":"Castricum aan Zee","ref":"N513","from":"Limmen","name":"N513","type":"route","route":"road","network":"NL:N","operator":"Provincie Noord-Holland","wikidata":"Q2259983","wikipedia":"nl:Provinciale weg 513"},"13339189":{"to":"Wormer","ref":"N514","from":"Wormerveer","name":"N514","type":"route","route":"road","network":"NL:N","operator":"Provincie Noord-Holland","wikidata":"Q2315966","wikipedia":"nl:Provinciale weg 514"},"13339692":{"to":"Marken","ref":"N518","from":"Monnickendam","name":"N518","type":"route","route":"road","network":"NL:N","operator":"Provincie Noord-Holland","wikidata":"Q2980896","wikipedia":"nl:Provinciale weg 518"},"13339693":{"to":"Volendam","ref":"N517","from":"Edam","name":"N517","type":"route","route":"road","network":"NL:N","operator":"Provincie Noord-Holland","wikidata":"Q14178296","wikipedia":"nl:Provinciale weg 517"},"13339700":{"to":"Uithoorn","ref":"N521","from":"Amstelveen","name":"N521","type":"route","route":"road","network":"NL:N","operator":"Provincie Noord-Holland","wikidata":"Q2453213","wikipedia":"nl:Provinciale weg 521"},"13339701":{"to":"Zwanenburg","ref":"N519","from":"Boesingheliede","name":"N519","type":"route","route":"road","network":"NL:N","operator":"Provincie Noord-Holland","wikidata":"Q3080613","wikipedia":"nl:Provinciale weg 519"},"13339702":{"to":"Nieuw-Vennep","ref":"N520","from":"Lijnden","name":"N520","note":"onderbroken in Hoofddorp","type":"route","route":"road","network":"NL:N","operator":"Provincie Noord-Holland","wikidata":"Q2804104","wikipedia":"nl:Provinciale weg 520"},"13339717":{"to":"Amstelveen","ref":"N522","from":"Amsterdam-Duivendrecht","name":"N522","type":"route","route":"road","network":"NL:N","operator":"Provincie Noord-Holland","wikidata":"Q2616258","wikipedia":"nl:Provinciale weg 522"},"13347194":{"to":"Kerkwerve","ref":"N655","from":"Zierikzee","name":"N655","type":"route","route":"road","network":"NL:N","operator":"Provincie Zeeland","wikidata":"Q2461533","wikipedia":"nl:Provinciale weg 655"},"13347195":{"to":"Zonnemaire","ref":"N654","from":"Zierikzee","name":"N654","type":"route","route":"road","network":"NL:N","operator":"Provincie Zeeland","wikidata":"Q2024157","wikipedia":"nl:Provinciale weg 654"},"13347196":{"to":"Brouwershaven","ref":"N653","from":"Serooskerke","name":"N653","type":"route","route":"road","network":"NL:N","operator":"Provincie Zeeland","wikidata":"Q2683466","wikipedia":"nl:Delingsdijk"},"13347197":{"to":"Burgh-Haamstede","ref":"N652","from":"Scharendijke","name":"N652","type":"route","route":"road","network":"NL:N","operator":"Provincie Zeeland","wikidata":"Q2684543","wikipedia":"nl:Provinciale weg 652"},"13347198":{"to":"Noordwelle","ref":"N651","from":"Serooskerke","name":"N651","type":"route","route":"road","network":"NL:N","operator":"Provincie Zeeland","wikidata":"Q2611929","wikipedia":"nl:Provinciale weg 651"},"13347490":{"to":"Tholen","ref":"N659","from":"Rilland","name":"N659","type":"route","route":"road","network":"NL:N","operator":"Provincie Zeeland","wikidata":"Q2444113","wikipedia":"nl:Provinciale weg 659"},"13347491":{"to":"Sint Annaland","ref":"N658","from":"Tholen","name":"N658","type":"route","route":"road","network":"NL:N","operator":"Provincie Zeeland","wikidata":"Q2801325","wikipedia":"nl:Provinciale weg 658"},"13347492":{"to":"Sint Philipsland","ref":"N656","from":"Tholen","name":"N656","note":"onderbroken in Oud-Vossemeer","type":"route","route":"road","network":"NL:N","operator":"Provincie Zeeland","wikidata":"Q2455593","wikipedia":"nl:Provinciale weg 656"},"13347527":{"to":"Vlissingen-Sloegebied","ref":"N662","from":"Oost-Souburg","name":"N662","type":"route","route":"road","network":"NL:N","operator":"Provincie Zeeland","wikidata":"Q2235599","wikipedia":"nl:Provinciale weg 662"},"13347528":{"to":"Vlissingen","ref":"N661","from":"Middelburg","name":"N661","type":"route","route":"road","network":"NL:N","operator":"Provincie Zeeland","wikidata":"Q2463243","wikipedia":"nl:Provinciale weg 661"},"13347529":{"to":"Middelburg","ref":"N660","from":"Koudekerke","name":"N660","type":"route","route":"road","network":"NL:N","operator":"Provincie Zeeland","wikidata":"Q2529114","wikipedia":"nl:Provinciale weg 660"},"13347574":{"to":"'s-Heerenhoek","ref":"N667","from":"Heinkenszand","name":"N667","type":"route","route":"road","network":"NL:N","operator":"Provincie Zeeland","wikidata":"Q2364970","wikipedia":"nl:Provinciale weg 667"},"13347575":{"to":"Arnemuiden","ref":"N665","from":"Kwadendamme","name":"N665","note":"onderbroken in Lewedorp","type":"route","route":"road","network":"NL:N","operator":"Provincie Zeeland","wikidata":"Q3914393","wikipedia":"nl:Provinciale weg 665"},"13347576":{"to":"'s-Heer Arendskerke","ref":"N664","from":"Goes","name":"N664","type":"route","route":"road","network":"NL:N","operator":"Provincie Zeeland","wikidata":"Q2212161","wikipedia":"nl:Provinciale weg 664"},"13347577":{"to":"Veere","ref":"N663","from":"Middelburg","name":"N663","type":"route","route":"road","network":"NL:N","operator":"Provincie Zeeland","wikidata":"Q2306145","wikipedia":"nl:Provinciale weg 663"},"13347667":{"to":"'s-Gravenpolder","ref":"N669","from":"Goes","name":"N669","type":"route","route":"road","network":"NL:N","operator":"Provincie Zeeland","wikidata":"Q1998345","wikipedia":"nl:Provinciale weg 669"},"13347668":{"to":"Wolphaartsdijk","ref":"N668","from":"'s-Heer Hendrikskinderen","name":"N668","type":"route","route":"road","network":"NL:N","operator":"Provincie Zeeland","wikidata":"Q1984798","wikipedia":"nl:Provinciale weg 668"},"13347669":{"to":"Kwadendamme","ref":"N666","from":"Kapelle","name":"N666","type":"route","route":"road","network":"NL:N","operator":"Provincie Zeeland","wikidata":"Q3420748","wikipedia":"nl:Provinciale weg 666"},"13347704":{"to":"Kruiningen","ref":"N673","from":"Yerseke","name":"N673","type":"route","route":"road","network":"NL:N","operator":"Provincie Zeeland","wikidata":"Q2721997","wikipedia":"nl:Provinciale weg 673"},"13347705":{"to":"Wemeldinge","ref":"N671","from":"Kapelle","name":"N671","type":"route","route":"road","network":"NL:N","operator":"Provincie Zeeland","wikidata":"Q1892764","wikipedia":"nl:Provinciale weg 671"},"13347706":{"to":"Yerseke","ref":"N670","from":"Goes","name":"N670","note":"onderbroken in Kapelle","type":"route","route":"road","network":"NL:N","operator":"Provincie Zeeland","wikidata":"Q2239813","wikipedia":"nl:Provinciale weg 670"},"13347821":{"to":"Walsoorden","ref":"N689","from":"Terhole","name":"N689","type":"route","route":"road","network":"NL:N","operator":"Provincie Zeeland","wikidata":"Q2514079","wikipedia":"nl:Provinciale weg 689"},"13347843":{"to":"Axel","ref":"N686","from":"Terneuzen","name":"N686","note":"onderbroken bij fabriek YARA","type":"route","route":"road","network":"NL:N","operator":"Provincie Zeeland","wikidata":"Q2321805","wikipedia":"nl:Provinciale weg 686"},"13347860":{"to":"Hoek (N252)","ref":"N682","from":"Hoek (N61)","name":"N682","type":"route","route":"road","network":"NL:N","operator":"Provincie Zeeland","wikidata":"Q2604546","wikipedia":"nl:Provinciale weg 682"},"13361931":{"to":"Losser","ref":"N734","from":"Oldenzaal","name":"N734","type":"route","route":"road","network":"NL:N","operator":"Provincie Overijssel","wikidata":"Q1841238","wikipedia":"nl:Provinciale weg 734"},"13361932":{"to":"Losser","ref":"N732","from":"Enschede","name":"N732","type":"route","route":"road","network":"NL:N","operator":"Provincie Overijssel","wikidata":"Q2626491","wikipedia":"nl:Provinciale weg 732"},"13361933":{"to":"Oldenzaal","ref":"N733","from":"Enschede","name":"N733","type":"route","route":"road","network":"NL:N","operator":"Provincie Overijssel","wikidata":"Q2935764","wikipedia":"nl:Provinciale weg 733"},"13361934":{"to":"Overdinkel","ref":"N731","from":"Glanerbrug","name":"N731","type":"route","route":"road","network":"NL:N","operator":"Provincie Overijssel","wikidata":"Q1935035","wikipedia":"nl:Provinciale weg 731"},"13361968":{"to":"Ootmarsum","ref":"N736","from":"Oldenzaal","name":"N736","type":"route","route":"road","network":"NL:N","operator":"Provincie Overijssel","wikidata":"Q2502995","wikipedia":"nl:Provinciale weg 736"},"13361969":{"to":"De Lutte","ref":"N735","from":"Oldenzaal","name":"N735","type":"route","route":"road","network":"NL:N","operator":"Provincie Overijssel","wikidata":"Q2085233","wikipedia":"nl:Provinciale weg 735"},"13362044":{"to":"Hengelo","ref":"N739","from":"Haaksbergen","name":"N739","type":"route","route":"road","network":"NL:N","operator":"Provincie Overijssel","wikidata":"Q2755368","wikipedia":"nl:Provinciale weg 739"},"13362045":{"to":"Weerselo","ref":"N738","from":"Hengelo","name":"N738","type":"route","route":"road","network":"NL:N","operator":"Provincie Overijssel","wikidata":"Q2504052","wikipedia":"nl:Provinciale weg 738"},"13362046":{"to":"Deurningen","ref":"N737","from":"Enschede","name":"N737","type":"route","route":"road","network":"NL:N","operator":"Provincie Overijssel","wikidata":"Q2156933","wikipedia":"nl:Provinciale weg 737"},"13362162":{"to":"Neede","ref":"N823","from":"Eibergen","name":"N823","type":"route","route":"road","network":"NL:N","operator":"Provincie Gelderland","wikidata":"Q2470870","wikipedia":"nl:Provinciale weg 823"},"13362163":{"to":"Diepenheim","ref":"N824","from":"Neede","name":"N824","type":"route","route":"road","network":"NL:N","operator":"Provincie Overijssel;Provincie Gelderland","wikidata":"Q3216967","wikipedia":"nl:Provinciale weg 824"},"13362164":{"to":"Neede","ref":"N740","from":"Delden","name":"N740","type":"route","route":"road","network":"NL:N","operator":"Provincie Overijssel;Provincie Gelderland","wikidata":"Q2663379","wikipedia":"nl:Provinciale weg 740"},"13362197":{"to":"Laren","ref":"N826","from":"Zutphen","name":"N826","type":"route","route":"road","network":"NL:N","operator":"Provincie Gelderland","wikidata":"Q3941390","wikipedia":"nl:Provinciale weg 826"},"13362198":{"to":"Borculo","ref":"N825","from":"Lochem","name":"N825","type":"route","route":"road","network":"NL:N","operator":"Provincie Gelderland","wikidata":"Q2800637","wikipedia":"nl:Provinciale weg 825"},"13362199":{"to":"Borculo","ref":"N821","from":"Barchem","name":"N821","type":"route","route":"road","network":"NL:N","operator":"Provincie Gelderland","wikidata":"Q2467731","wikipedia":"nl:Provinciale weg 821"},"13362200":{"to":"Eibergen","ref":"N822","from":"Borculo","name":"N822","type":"route","route":"road","network":"NL:N","operator":"Provincie Gelderland","wikidata":"Q1873215","wikipedia":"nl:Provinciale weg 822"},"13362288":{"to":"Holten","ref":"N755","from":"Markelo","name":"N755","type":"route","route":"road","network":"NL:N","operator":"Provincie Overijssel","wikidata":"Q2788939","wikipedia":"nl:Provinciale weg 755"},"13362289":{"to":"Markelo","ref":"N754","from":"Markelo (N346)","name":"N754","type":"route","route":"road","network":"NL:N","operator":"Provincie Overijssel","wikidata":"Q14178330","wikipedia":"nl:Provinciale weg 754"},"13362290":{"to":"Goor","ref":"N753","from":"Markelo","name":"N753","type":"route","route":"road","network":"NL:N","operator":"Provincie Overijssel","wikidata":"Q2217691","wikipedia":"nl:Provinciale weg 753"},"13362291":{"to":"Rijssen","ref":"N752","from":"Markelo","name":"N752","type":"route","route":"road","network":"NL:N","operator":"Provincie Overijssel","wikidata":"Q3420860","wikipedia":"nl:Provinciale weg 752"},"13362339":{"to":"Tubbergen","ref":"N745","from":"Albergen","name":"N745","type":"route","route":"road","network":"NL:N","operator":"Provincie Overijssel","wikidata":"Q2460443","wikipedia":"nl:Provinciale weg 745"},"13362340":{"to":"Albergen","ref":"N744","from":"Zenderen","name":"N744","type":"route","route":"road","network":"NL:N","operator":"Provincie Overijssel","wikidata":"Q2446107","wikipedia":"nl:Provinciale weg 744"},"13362341":{"to":"Borne","ref":"N743","from":"Almelo","name":"N743","type":"route","route":"road","network":"NL:N","operator":"Provincie Overijssel","wikidata":"Q2444540","wikipedia":"nl:Provinciale weg 743"},"13362342":{"to":"Almelo","ref":"N741","from":"Delden","name":"N741","type":"route","route":"road","network":"NL:N","operator":"Provincie Overijssel","wikidata":"Q2969982","wikipedia":"nl:Provinciale weg 741"},"13362396":{"to":"Den Ham","ref":"N751","from":"Wierden","name":"N751","type":"route","route":"road","network":"NL:N","operator":"Provincie Overijssel","wikidata":"Q2649336","wikipedia":"nl:Provinciale weg 751"},"13362397":{"to":"Vriezenveen","ref":"N749","from":"Wierden","name":"N749","type":"route","route":"road","network":"NL:N","operator":"Provincie Overijssel","wikidata":"Q2362437","wikipedia":"nl:Provinciale weg 749"},"13362398":{"to":"Vroomshoop","ref":"N750","from":"Vriezenveen","name":"N750","type":"route","route":"road","network":"NL:N","operator":"Provincie Overijssel","wikidata":"Q2614995","wikipedia":"nl:Provinciale weg 750"},"13362399":{"to":"Geesteren","ref":"N748","from":"Vriezenveen","name":"N748","type":"route","route":"road","network":"NL:N","operator":"Provincie Overijssel","wikidata":"Q2118195","wikipedia":"nl:Provinciale weg 748"},"13362400":{"to":"Geesteren (N343)","ref":"N747","from":"Geesteren","name":"N747","type":"route","route":"road","network":"NL:N","operator":"Provincie Overijssel","wikidata":"Q3278131","wikipedia":"nl:Provinciale weg 747"},"13362401":{"to":"Tubbergen","ref":"N746","from":"Almelo","name":"N746","type":"route","route":"road","network":"NL:N","operator":"Provincie Overijssel","wikidata":"Q2078355","wikipedia":"nl:Provinciale weg 746"},"13362412":{"to":"Raalte","ref":"N756","from":"Wijhe","name":"N756","type":"route","route":"road","network":"NL:N","operator":"Provincie Overijssel","wikidata":"Q2675708","wikipedia":"nl:Provinciale weg 756"},"13362427":{"to":"Nieuwleusen","ref":"N758","from":"Zwolle","name":"N758","type":"route","route":"road","network":"NL:N","operator":"Provincie Overijssel","wikidata":"Q2501135","wikipedia":"nl:Provinciale weg 758"},"13362428":{"to":"Dalfsen","ref":"N757","from":"Wijthmen","name":"N757","type":"route","route":"road","network":"NL:N","operator":"Provincie Overijssel","wikidata":"Q2037100","wikipedia":"nl:Provinciale weg 757"},"13362688":{"to":"Kampen","ref":"N764","from":"Zwolle","name":"N764","type":"route","route":"road","network":"NL:N","operator":"Provincie Overijssel","wikidata":"Q2314833","wikipedia":"nl:Provinciale weg 764"},"13362689":{"to":"Genemuiden","ref":"N760","from":"IJsselmuiden","name":"N760","type":"route","route":"road","network":"NL:N","operator":"Provincie Overijssel","wikidata":"Q3366275","wikipedia":"nl:Provinciale weg 760"},"13362690":{"to":"Genemuiden","ref":"N759","from":"Zwolle","name":"N759","type":"route","route":"road","network":"NL:N","operator":"Provincie Overijssel","wikidata":"Q2656812","wikipedia":"nl:Provinciale weg 759"},"13362708":{"to":"Wezep","ref":"N763","from":"Kamperveen","name":"N763","type":"route","route":"road","network":"NL:N","operator":"Provincie Overijssel;Provincie Gelderland","wikidata":"Q2230364","wikipedia":"nl:Provinciale weg 763"},"13362709":{"to":"Witte Paarden","ref":"N761","from":"Oldemarkt","name":"N761","type":"route","route":"road","network":"NL:N","operator":"Provincie Overijssel","wikidata":"Q2693268","wikipedia":"nl:Provinciale weg 761"},"13362729":{"to":"Haaksbergen (grens Gelderland)","ref":"N18","from":"Haaksbergen","name":"Oude N18","note":"Rijkswaterstaat gaat deze weg overdragen aan de Provincie Overijssel. Rijksweg N18 (voorheen Rijksweg 15) wordt dan Provinciale weg N768.","type":"route","route":"road","network":"NL:N","operator":"Rijkswaterstaat","wikidata":"Q109138969","wikipedia":"nl:Provinciale weg 768","proposed:ref":"N768","proposed:name":"N768","proposed:operator":"Provincie Overijssel"},"13362730":{"to":"Schalkhaar","ref":"N766","from":"Deventer","name":"N766","type":"route","route":"road","network":"NL:N","operator":"Provincie Overijssel","wikidata":"Q14178336","wikipedia":"nl:Provinciale weg 766"},"13362731":{"to":"IJsselmuiden","ref":"N765","from":"Ens","name":"N765","type":"route","route":"road","network":"NL:N","operator":"Provincie Flevoland;Provincie Overijssel","wikidata":"Q2863936","wikipedia":"nl:Provinciale weg 765"},"13362831":{"to":"Velp","ref":"N785","from":"Arnhem","name":"N785","type":"route","route":"road","network":"NL:N","operator":"Provincie Gelderland","wikidata":"Q2466974","wikipedia":"nl:Provinciale weg 785"},"13362832":{"to":"Arnhem (A50)","ref":"N784","from":"Arnhem","name":"N784","type":"route","route":"road","network":"NL:N","operator":"Provincie Gelderland","wikidata":"Q2784887","wikipedia":"nl:Provinciale weg 784"},"13362833":{"to":"Wolfheze","ref":"N783","from":"Oosterbeek","name":"N783","type":"route","route":"road","network":"NL:N","operator":"Provincie Gelderland","wikidata":"Q2112015","wikipedia":"nl:Provinciale weg 783"},"13362834":{"to":"Doorwerth","ref":"N782","from":"Bennekom","name":"N782","type":"route","route":"road","network":"NL:N","operator":"Provincie Gelderland","wikidata":"Q2349389","wikipedia":"nl:Provinciale weg 782"},"13362835":{"to":"Ede","ref":"N781","from":"Wageningen","name":"N781","type":"route","route":"road","network":"NL:N","operator":"Provincie Gelderland","wikidata":"Q2870618","wikipedia":"nl:Provinciale weg 781"},"13362882":{"to":"Klarenbeek","ref":"N789","from":"Loenen","name":"N789","type":"route","route":"road","network":"NL:N","operator":"Provincie Gelderland","wikidata":"Q14178347","wikipedia":"nl:Provinciale weg 789"},"13362883":{"to":"Apeldoorn","ref":"N788","from":"Beekbergen","name":"N788","type":"route","route":"road","network":"NL:N","operator":"Provincie Gelderland","wikidata":"Q14178342","wikipedia":"nl:Provinciale weg 788"},"13362884":{"to":"Brummen","ref":"N787","from":"Eerbeek","name":"N787","type":"route","route":"road","network":"NL:N","operator":"Provincie Gelderland","wikidata":"Q2499929","wikipedia":"nl:Provinciale weg 787"},"13362885":{"to":"Dieren","ref":"N786","from":"Beekbergen","name":"N786","note":"onderbroken in Laag-Soeren","type":"route","route":"road","network":"NL:N","operator":"Provincie Gelderland","wikidata":"Q2375918","wikipedia":"nl:Provinciale weg 786"},"13362921":{"to":"Putten","ref":"N798","from":"Nijkerk","name":"N798","type":"route","route":"road","network":"NL:N","operator":"Provincie Gelderland","wikidata":"Q4377166","wikipedia":"nl:Provinciale weg 798"},"13362922":{"to":"Garderen","ref":"N797","from":"Putten","name":"N797","type":"route","route":"road","network":"NL:N","operator":"Provincie Gelderland","wikidata":"Q2208663","wikipedia":"nl:Provinciale weg 797"},"13362923":{"to":"Harderwijk","ref":"N796","from":"Ermelo","name":"N796","type":"route","route":"road","network":"NL:N","operator":"Provincie Gelderland","wikidata":"Q2693989","wikipedia":"nl:Provinciale weg 796"},"13362924":{"to":"Epe","ref":"N795","from":"Nunspeet","name":"N795","type":"route","route":"road","network":"NL:N","operator":"Provincie Gelderland","wikidata":"Q2756468","wikipedia":"nl:Provinciale weg 795"},"13362925":{"to":"Heerde","ref":"N794","from":"Epe","name":"N794","type":"route","route":"road","network":"NL:N","operator":"Provincie Gelderland","wikidata":"Q1926487","wikipedia":"nl:Provinciale weg 794"},"13362996":{"to":"Kilder","ref":"N815","from":"Wehl","name":"N815","type":"route","route":"road","network":"NL:N","operator":"Provincie Gelderland","wikidata":"Q2370374","wikipedia":"nl:Provinciale weg 815"},"13362997":{"to":"Laag-Keppel","ref":"N814","from":"Wehl","name":"N814","type":"route","route":"road","network":"NL:N","operator":"Provincie Gelderland","wikidata":"Q3242613","wikipedia":"nl:Provinciale weg 814"},"13362998":{"to":"Doetinchem","ref":"N813","from":"Zevenaar","name":"N813","type":"route","route":"road","network":"NL:N","operator":"Provincie Gelderland","wikidata":"Q1816059","wikipedia":"nl:Provinciale weg 813"},"13363020":{"to":"Winterswijk (grens Duitsland)","ref":"N820","from":"Winterswijk","name":"N820","type":"route","route":"road","network":"NL:N","operator":"Provincie Gelderland","wikidata":"Q2076581","wikipedia":"nl:Provinciale weg 820"},"13363021":{"to":"Aalten","ref":"N819","from":"Dinxperlo","name":"N819","type":"route","route":"road","network":"NL:N","operator":"Provincie Gelderland","wikidata":"Q2147451","wikipedia":"nl:Provinciale weg 819"},"13363022":{"to":"Varsseveld","ref":"N818","from":"Terborg","name":"N818","type":"route","route":"road","network":"NL:N","operator":"Provincie Gelderland","wikidata":"Q2412946","wikipedia":"nl:Provinciale weg 818"},"13363023":{"to":"Gendringen","ref":"N817","from":"Etten","name":"N817","type":"route","route":"road","network":"NL:N","operator":"Provincie Gelderland","wikidata":"Q2688469","wikipedia":"nl:Provinciale weg 817"},"13363024":{"to":"Ulft","ref":"N816","from":"'s-Heerenberg","name":"N816","type":"route","route":"road","network":"NL:N","operator":"Provincie Gelderland","wikidata":"Q2320924","wikipedia":"nl:Provinciale weg 816"},"13363113":{"to":"Zweeloo","ref":"N854","from":"Dalen","name":"N854","note":"onderbroken in Aalden en Zweeloo","type":"route","route":"road","network":"NL:N","operator":"Provincie Drenthe","wikidata":"Q2526512","wikipedia":"nl:Provinciale weg 854"},"13363114":{"to":"Meppel","ref":"N851","from":"De Schiphorst","name":"N851","type":"route","route":"road","network":"NL:N","operator":"Provincie Drenthe","wikidata":"Q2091173","wikipedia":"nl:Provinciale weg 851"},"13363166":{"to":"Schoonebeek (grens Duitsland)","ref":"N853","from":"Nieuw-Amsterdam","name":"N853","type":"route","route":"road","network":"NL:N","operator":"Provincie Drenthe","wikidata":"Q3003055","wikipedia":"nl:Provinciale weg 853"},"13363167":{"to":"Nieuw-Schoonebeek (grens Duitsland)","ref":"N863","from":"Coevorden","name":"N863","note":"onderbroken in Schoonebeek en Nieuw-Schoonebeek","type":"route","route":"road","network":"NL:N","operator":"Provincie Drenthe","wikidata":"Q2194325","wikipedia":"nl:Provinciale weg 863"},"13363171":{"to":"Steenwijk","ref":"N855","from":"Spier","name":"N855","note":"onderbroken in Diever, Wapse, Vledder en Frederiksoord","type":"route","route":"road","network":"NL:N","operator":"Provincie Drenthe;Provincie Overijssel","wikidata":"Q14178371","wikipedia":"nl:Provinciale weg 855"},"13363193":{"to":"Kolham","ref":"N860","from":"Haren","name":"N860","type":"route","route":"road","network":"NL:N","operator":"Provincie Groningen","wikidata":"Q2160602","wikipedia":"nl:Provinciale weg 860"},"13363194":{"to":"Borger","ref":"N857","from":"Rolde","name":"N857","type":"route","route":"road","network":"NL:N","operator":"Provincie Drenthe","wikidata":"Q1869088","wikipedia":"nl:Provinciale weg 857"},"13363195":{"to":"Beilen","ref":"N856","from":"Westerbork","name":"N856","type":"route","route":"road","network":"NL:N","operator":"Provincie Drenthe","wikidata":"Q2751544","wikipedia":"nl:Provinciale weg 856"},"13363216":{"to":"Een-West","ref":"N979","from":"Leek","name":"N979","type":"route","route":"road","network":"NL:N","operator":"Provincie Groningen;Provincie Drenthe","wikidata":"Q1899800","wikipedia":"nl:Provinciale weg 979"},"13363217":{"to":"Haulerwijk","ref":"N917","from":"Drachten","name":"N917","note":"onderbroken in Ureterp, Bakkeveen en Waskemeer","type":"route","route":"road","network":"NL:N","operator":"Provincie Fryslân","wikidata":"Q1837356","wikipedia":"nl:Provinciale weg 917"},"13363218":{"to":"Buitenpost","ref":"N910","from":"Dokkum","name":"N910","type":"route","route":"road","network":"NL:N","operator":"Provincie Fryslân","wikidata":"Q2727319","wikipedia":"nl:Provinciale weg 910"},"13363228":{"to":"Wehe-den Hoorn","ref":"N983","from":"Aduard","name":"N983","type":"route","route":"road","network":"NL:N","operator":"Provincie Groningen","wikidata":"Q2110626","wikipedia":"nl:Provinciale weg 983"},"13363229":{"to":"Oldehove","ref":"N982","from":"Oldehove (N983)","name":"N982","type":"route","route":"road","network":"NL:N","operator":"Provincie Groningen","wikidata":"Q2690711","wikipedia":"nl:Provinciale weg 982"},"13363230":{"to":"Marum","ref":"N980","from":"Zuidhorn","name":"N980","type":"route","route":"road","network":"NL:N","operator":"Provincie Groningen","wikidata":"Q2382859","wikipedia":"nl:Provinciale weg 980"},"13363231":{"to":"Leek","ref":"N978","from":"Zuidhorn","name":"N978","type":"route","route":"road","network":"NL:N","operator":"Provincie Groningen","wikidata":"Q2438341","wikipedia":"nl:Provinciale weg 978"},"13363232":{"to":"Scheemda","ref":"N964","from":"Winschoten","name":"N964","type":"route","route":"road","network":"NL:N","operator":"Provincie Groningen","wikidata":"Q1853025","wikipedia":"nl:Provinciale weg 964"},"13363291":{"to":"Velsen-Zuid","ref":"R103","from":"Velsen-Zuid (N202)","name":"R103","type":"route","route":"road","network":"NL:R:Spaarnwoude","old_ref":"r103","wikidata":"Q18088027","wikipedia":"nl:R103 (Spaarnwoude)"},"13363292":{"to":"Velsen-Zuid","ref":"R101","from":"Velsen-Zuid (N202)","name":"R101","type":"route","route":"road","network":"NL:R:Spaarnwoude","old_ref":"r101","wikidata":"Q18088126","wikipedia":"nl:R101 (Spaarnwoude)"},"13363295":{"to":"Haarlemmerliede","ref":"R106","from":"Haarlem","name":"R106","type":"route","route":"road","network":"NL:R:Spaarnwoude","old_ref":"r106","wikidata":"Q1881059","wikipedia":"nl:R106 (Spaarnwoude)"},"13363296":{"to":"Halfweg","ref":"R105","from":"Amsterdam-Westpoort","name":"R105","type":"route","route":"road","network":"NL:R:Spaarnwoude","old_ref":"r105","wikidata":"Q2666647","wikipedia":"nl:R105 (Spaarnwoude)"},"13363297":{"to":"Spaarnwoude","ref":"R104","from":"Spaardam (N202)","name":"R104","type":"route","route":"road","network":"NL:R:Spaarnwoude","old_ref":"r104","wikidata":"Q18088002","wikipedia":"nl:R104 (Spaarnwoude)"},"13373313":{"ref":"RING","name":"Ring","type":"route","route":"road","network":"NL:binnenstedelijke_ring","nat_name":"Ring Zwolle","operator":"Gemeente Zwolle;Rijkswaterstaat","wikidata":"Q4489535","wikipedia":"nl:Ring Zwolle"},"13537038":{"ref":"RING","name":"Ring Amsterdam","note":"Identiek aan A10 maar aparte relatie voor consistentie met andere ringwegen.","type":"route","route":"road","alt_ref":"RING A10","network":"NL:ring","operator":"Rijkswaterstaat","wikidata":"Q1852074","wikipedia":"nl:Rijksweg 10"},"13575683":{"to":"Leenderheide","ref":"Randweg","from":"Batadorp","name":"Randweg Eindhoven","type":"route","route":"road","alt_ref":"Randweg N2","name:fy":"Rânewei Eindhoven","name:nl":"Randweg Eindhoven","network":"NL:ring","operator":"Rijkswaterstaat","wikidata":"Q174448","wikipedia":"nl:Randweg Eindhoven"},"13576830":{"ref":"RING","name":"Ring Parkstad","type":"route","route":"road","alt_ref":"RING N281;RING N300","name:fy":"Ring Parkstêd","name:li":"Rink Parksjtad","name:nl":"Ring Parkstad","network":"NL:ring","alt_name":"Buitenring Parkstad","operator":"Provincie Limburg;Rijkswaterstaat","wikidata":"Q101150469","wikipedia":"nl:Ring Parkstad"},"13577886":{"ref":"RING","name":"Ring Alkmaar","type":"route","route":"road","alt_ref":"RING N9;RING N242;RING N508;RING N245","name:fy":"Ring Alkmar","name:nl":"Ring Alkmaar","network":"NL:ring","operator":"Rijkswaterstaat;Provincie Noord-Holland;Gemeente Alkmaar","wikidata":"Q5002190","wikipedia":"nl:Ring Alkmaar"},"13601521":{"ref":"RING","name":"Ring","type":"route","route":"road","network":"NL:binnenstedelijke_ring","nat_name":"Ring Assen","wikidata":"Q19365232","wikipedia":"nl:Ring Assen"},"13727758":{"ref":"RING","name":"Ring Barendrecht","type":"route","route":"road","network":"NL:binnenstedelijke_ring","wikidata":"Q18286563","note:name":"De plaatsnaam Barendrecht wordt als onderdeel van de ringnaam getoond op bewegwijzering nabij het raakpunt met de Ring Rotterdam.","wikipedia":"nl:Ring Barendrecht","source:name":"https://www.mapillary.com/app/?lat=51.86567285197199&lng=4.556037787972173&z=19.9&pKey=889123461761192&focus=photo&x=0.49375133651731545&y=0.49819484181103985&zoom=0"},"13853725":{"ref":"65","name":"Route 65","type":"superroute","route":"road","operator":"Department of Public Works and Highways"},"14229172":{"ref":"RING","name":"Ring","type":"route","route":"road","network":"NL:binnenstedelijke_ring","nat_name":"Ring Enschede","wikidata":"Q2352317","wikipedia":"nl:Ring Enschede"},"14229247":{"ref":"RING","name":"Ring","type":"route","route":"road","network":"NL:binnenstedelijke_ring","nat_name":"Ring Almelo","wikidata":"Q2343654","wikipedia":"nl:Ring Almelo"},"14229267":{"ref":"RING","name":"Ring","type":"route","route":"road","network":"NL:binnenstedelijke_ring","nat_name":"Ring Apeldoorn","wikidata":"Q1940593","wikipedia":"nl:Ring Apeldoorn"},"14229353":{"ref":"RING","name":"Ring","type":"route","route":"road","network":"NL:binnenstedelijke_ring","nat_name":"Ring Hilversum","wikidata":"Q4358554","wikipedia":"nl:Ring Hilversum"},"14229420":{"ref":"RING","name":"Ring","type":"route","route":"road","network":"NL:binnenstedelijke_ring","nat_name":"Ring Leeuwarden","wikidata":"Q2123216","wikipedia":"nl:Ring Leeuwarden"},"14236158":{"to":"Kennemerstrand","ref":"r103","from":"Velsen-Zuid","name":"r103","note":"Alleen vermeld op toeristische bewegwijzeringsborden.","type":"route","route":"road","oneway":"no","network":"NL:R:IJmuiden","wikidata":"Q2229656","wikipedia":"nl:R103 (IJmuiden)","signed_direction":"yes"},"14236161":{"to":"IJmuiden","ref":"r101","from":"Velsen-Zuid","name":"r101","note":"Alleen vermeld op toeristische bewegwijzeringsborden.","type":"route","route":"road","oneway":"no","network":"NL:R:IJmuiden","wikidata":"Q18088085","wikipedia":"nl:R101 (IJmuiden)","signed_direction":"yes"},"14236178":{"to":"IJmuiderslag","ref":"r102","from":"Velsen-Zuid","name":"r102","note":"Alleen vermeld op toeristische bewegwijzeringsborden.","type":"route","route":"road","oneway":"no","network":"NL:R:IJmuiden","wikidata":"Q18088001","wikipedia":"nl:R102 (IJmuiden)","signed_direction":"yes"},"14236771":{"to":"Burgh-Haamstede-Centrum","ref":"R108","from":"Burgh-Haamstede (N57)","name":"R108","type":"route","route":"road","network":"NL:R:Schouwen","wikidata":"Q18088286","wikipedia":"nl:R108 (Schouwen)","signed_direction":"yes"},"14236809":{"to":"Burgh-Haamstede (Hogeweg)","ref":"R110","from":"Burgh-Haamstede (N57)","name":"R110","type":"route","route":"road","oneway":"no","source":"https://www.mapillary.com/app/?pKey=515840146108594","network":"NL:R:Schouwen","wikidata":"Q113837117","signed_direction":"yes"},"14236819":{"to":"Burgh-Haamstede (Steursweg)","ref":"R109","from":"Burgh-Haamstede (Weeldeweg)","name":"R109","note":"Met één resterende wegwijzer is er niet veel van deze route naar Burghsluis meer over.","type":"route","route":"road","oneway":"no","was:to":"Burghsluis","network":"NL:R:Schouwen","wikidata":"Q18088288","wikipedia":"nl:R109 (Schouwen)","signed_direction":"yes"},"14236839":{"to":"Westenschouwen","ref":"R112","from":"Burgh-Haamstede (N57)","name":"R112","type":"route","route":"road","oneway":"no","network":"NL:R:Schouwen","wikidata":"Q113837124","signed_direction":"yes"},"14236853":{"to":"Burgh","ref":"R111","from":"Burgh-Haamstede (N57)","name":"R111","type":"route","route":"road","oneway":"no","network":"NL:R:Schouwen","wikidata":"Q113837120","signed_direction":"yes"},"14236911":{"to":"Renesse (Hoogenboomlaan)","ref":"R104","from":"Renesse","name":"R104","type":"route","route":"road","oneway":"no","network":"NL:R:Schouwen","wikidata":"Q18088149","wikipedia":"nl:R104 (Schouwen)","signed_direction":"yes"},"14239414":{"to":"Cadzand","ref":"r104","from":"Zuidzande (N675)","name":"r104","type":"route","route":"road","oneway":"no","network":"NL:R:Sluis","wikidata":"Q113834927","signed_direction":"yes"},"14239415":{"to":"Nieuwvliet-Bad","ref":"r103","from":"Nieuwvliet (N675)","name":"r103","note":"Alleen vermeld op toeristische bewegwijzeringsborden.","type":"route","route":"road","oneway":"no","network":"NL:R:Sluis","wikidata":"Q113834917","signed_direction":"yes"},"14239416":{"to":"Nieuwvliet","ref":"r102","from":"Nieuwvliet (N675)","name":"r102","note":"Alleen vermeld op toeristische bewegwijzeringsborden.","type":"route","route":"road","oneway":"no","network":"NL:R:Sluis","wikidata":"Q113834902","signed_direction":"yes"},"14239417":{"to":"Waterdunen","ref":"r101","from":"Groede (N675)","name":"r101","note":"Alleen vermeld op toeristische bewegwijzeringsborden.","type":"route","route":"road","oneway":"no","network":"NL:R:Sluis","wikidata":"Q113834907","signed_direction":"yes"},"14292156":{"ref":"RING","name":"Ring","type":"route","route":"road","network":"NL:binnenstedelijke_ring","nat_name":"Ring Haagse Beemden","wikidata":"Q113833279"},"14292266":{"ref":"RING","name":"Ring","type":"route","route":"road","network":"NL:binnenstedelijke_ring","nat_name":"Ring Rijssen","wikidata":"Q113833715"},"14293027":{"ref":"RING","name":"Ring","type":"route","route":"road","network":"NL:binnenstedelijke_ring","nat_name":"Ring Spijkenisse","operator":"Gemeente Nissewaard;Provincie Zuid-Holland","wikidata":"Q113833725"},"14297102":{"ref":"RING","name":"Ring","type":"route","route":"road","network":"NL:binnenstedelijke_ring","nat_name":"Ring Lelystad","operator":"Gemeente Lelystad","wikidata":"Q113832898"},"14451899":{"ref":"R348","name":"R348","type":"route","route":"road","source":"https://www.wegenforum.nl/viewtopic.php?t=14194","network":"NL-OV:R","operator":"Provincie Overijssel","wikidata":"Q430370","wikipedia":"nl:Provinciale weg 348"},"14651466":{"to":"Voorthuizen","ref":"N30","from":"Barneveld","name":"N30","type":"route","route":"road","network":"NL:N","operator":"Rijkswaterstaat","wikidata":"Q1543288","wikipedia":"nl:Rijksweg 30"},"14655450":{"to":"Knooppunt Hofvliet","ref":"N434","from":"Knooppunt Ommedijk","name":"N434","type":"route","route":"road","network":"NL:N","operator":"Provincie Zuid-Holland","wikidata":"Q27649698","wikipedia":"nl:Provinciale weg 434"},"14655709":{"to":"Knooppunt Vlaardingen","ref":"A24","from":"Knooppunt Rozenburg","name":"A24","type":"route","route":"road","network":"NL:A","operator":"Rijkswaterstaat","wikidata":"Q22075586","wikipedia":"nl:Rijksweg 24"},"15256968":{"to":"Westdorpe (N62)","ref":"N683","from":"Sas van Gent","name":"N683","type":"route","route":"road","network":"NL:N","operator":"Provincie Zeeland","wikidata":"Q2143666","wikipedia":"nl:Provinciale weg 683"}}