{"23623":{"name":"Aursjøvegen","type":"route","route":"road"},"48042":{"ref":"E 10","name":"European route E10","note":"Temporarily redirected due to construction of new route.","type":"route","route":"road","name:cs":"Evropská silnice E10","name:en":"European route E10","name:fr":"Route européenne E 10","name:nl":"Europese route E10","name:sk":"Európska cesta E10","name:sv":"Europaväg E 10","network":"e-road","wikidata":"Q586592","wikipedia":"en:European route E10","e-road:class":"A-intermediate","description:fr":"E 10 Norvège - Luleå"},"49085":{"name":"Villmarksveien","type":"route","route":"road"},"52833":{"ref":"84","name":"Riksväg 84","type":"route","route":"road","network":"SE:RV"},"60745":{"ref":"E 8","name":"European route E08","type":"route","route":"road","int_ref":"E 08","name:cs":"Evropská silnice E08","name:en":"European route E08","name:fi":"E 8 Tromssa - Turku","name:fr":"Route européenne E 08","name:nl":"Europese route E08","name:sk":"Európska cesta E08","network":"e-road","wikidata":"Q1129207","wikipedia":"en:European route E8","e-road:class":"A-intermediate","description:fr":"E 08 Norvège - Turku"},"195218":{"ref":"Р-21","name":"Кола","type":"route","route":"road","name:uk":"«Кола»","network":"ru:national","old_ref":"М18","distance":"1592 km","wikidata":"Q1536553","wikipedia":"ru:Кола (автодорога)","description":"Санкт-Петербург — Петрозаводск — Мурманск — Печенга — граница с Королевством Норвегия"},"255726":{"ref":"510","name":"Solasplitten","type":"route","route":"road","website":"https://www.vegvesen.no/Vegprosjekter/solasplitten"},"899059":{"ref":"Ring 1","name":"Ring 1","type":"route","route":"road","alt_name":"Riksvei 162","wikidata":"Q6399435","wikipedia":"no:Riksvei 162"},"899120":{"name":"Ullevålseterveien","type":"route","route":"road"},"1108154":{"name":"Ringvei vest","type":"route","route":"road"},"1153557":{"ref":"E 12","name":"E 12 Storumans kommun","type":"route","route":"road","name:en":"E 12 Storuman municipality","name:sv":"E 12 Storumans kommun","network":"e-road"},"1170752":{"name":"Andøya","type":"route","route":"road","tourism":"yes"},"1170753":{"name":"Sognefjellet","type":"route","route":"road","tourism":"yes"},"1170754":{"name":"Havøysund","type":"route","route":"road","network":"nasjonaleturistveger","tourism":"yes","website":"https://www.nasjonaleturistveger.no/no","distance":"66","operator":"Statens Vegvesen","wikipedia":"en:National Tourist Routes"},"1170756":{"name":"Gamle Strynefjellsvegen","type":"route","route":"road","tourism":"yes"},"1170791":{"name":"Helgelandskysten nord","type":"route","route":"road","tourism":"yes"},"1171818":{"name":"Atlanterhavsvegen","type":"route","route":"road","scenic":"yes","name:de":"Atlantikstraße","name:en":"Atlantic Ocean Road","name:fr":"Route de l'Atlantique","name:ru":"Атлантическая дорога","tourism":"yes","website":"https://www.visitnorway.no/reisemal/vestlandet/nordvest/listings-northwest/nasjonal-turistveg-atlanterhavsvegen/26864/","wikidata":"Q756561","wikipedia":"nn:Atlanterhavsvegen","alt_name:en":"Atlantic Road"},"1171823":{"name":"Geiranger - Trollstigen","type":"route","route":"road","scenic":"yes","tourism":"yes","wikidata":"Q3133282"},"1171824":{"name":"Rondane","type":"route","route":"road","tourism":"yes"},"1171845":{"name":"Gaularfjellet","type":"route","route":"road","tourism":"yes"},"1172384":{"name":"Hardanger","type":"route","route":"road","tourism":"yes"},"1172385":{"name":"Ryfylke","type":"route","route":"road","tourism":"yes"},"1172390":{"name":"Jæren","type":"route","route":"road","tourism":"yes"},"1447879":{"ref":"Ring 2","name":"Ring 2","type":"route","route":"road"},"1546742":{"name":"Oldtidsruta","type":"route","route":"road","tourism":"attraction"},"1693967":{"name":"Trollstigen","type":"route","route":"road"},"2237404":{"name":"Svineroivegen","note":"Chains recommended for tracktion. Closed in winter. Not suitable for HGV, though not strictly illegal","type":"route","fixme":"tagging","route":"road","max_incline":"10%"},"2631169":{"name":"Eiganestunnelen","type":"route","route":"road"},"2747664":{"name":"Jæringsveien","type":"route","route":"road","start_date":"1908"},"2747667":{"name":"Deledalsveien","type":"route","route":"road"},"2747678":{"name":"Knappaveien","type":"route","route":"road"},"2747679":{"name":"Sakrisveien","type":"route","route":"road","alt_name":"Sakariasveien"},"2747694":{"name":"Langliveien","type":"route","route":"road"},"2747711":{"name":"Kalvedalen","type":"route","route":"road"},"2747727":{"name":"Katnosveien","type":"route","route":"road","start_date":"1970"},"2747728":{"name":"Spålsveien","type":"route","route":"road","start_date":"1971"},"2763127":{"name":"Fjellsjøvegen","type":"route","route":"road","alt_name":"Almenningsvegen"},"2924352":{"name":"Liggerenveien","type":"route","route":"road","alt_name":"Tømteveien"},"2992587":{"to":"Gjerdingsdammen","from":"Hammeren","name":"Nordmarksveien","type":"route","route":"road","alt_name":"Nordmarksvegen"},"3183624":{"name":"Nordlysvegen","type":"route","route":"road","name:en":"Northern Lights Route","name:no":"Nordlysvegen","wikidata":"Q11890637"},"3189522":{"ref":"21","name":"Valtatie 21","type":"route","route":"road","name:fi":"Valtatie 21","name:sv":"Riksväg 21","network":"fi:national","wikidata":"Q1154350","description":"Tornio-Kilpisjärvi","description:fi":"Tornio-Kilpisjärvi","description:sv":"Torneå-Kilpisjärvi"},"3294050":{"name":"Revontultentie","type":"route","route":"road","scenic":"yes","name:en":"Northern Lights Route","name:no":"Nordlysvegen","name:sv":"Norrskensvägen"},"3596554":{"name":"Plogveien","type":"route","route":"road"},"3631515":{"name":"Blå vägen","type":"route","route":"road","name:sv":"Blå vägen"},"4123442":{"name":"Nye Stubdalsvei","type":"route","route":"road"},"4512295":{"name":"Heimtjernsveien","type":"route","route":"road"},"4519572":{"name":"Uglaveien","type":"route","route":"road"},"4519573":{"name":"Østerdamveien","type":"route","route":"road"},"5373171":{"name":"Røaveien","type":"route","route":"road"},"5388520":{"ref":"47К-088","name":"Автоподъезд к Борисоглебской ГЭС","type":"route","route":"road","network":"ru:regional","distance":"3.3 km","operator":"ru:regional"},"5429699":{"name":"Ytre Ringvei","type":"route","route":"road"},"5488338":{"ref":"Ring 3","name":"Store ringvei","type":"route","route":"road"},"6141370":{"ref":"Rv 41","name":"Telemarksvegen","type":"route","route":"road","name:de":"Telemarkstraße","name:en":"Telemark Road","alt_name":"Riksvei 41;Telemarksveien","wikidata":"Q689119","wikipedia":"no:Riksvei 41","alt_name:de":"Reichsstraße 41","alt_name:en":"National Road 41","wikipedia:en":"Norwegian National Road 41"},"6349127":{"name":"Dammyrdalsveien","type":"route","route":"road","description:no":"Løvenskiold har søkt om å bygge vei her"},"6552932":{"name":"Hardangervidda","type":"route","route":"road","tourism":"yes"},"8427166":{"name":"Kongsbergtunnelen","type":"route","route":"road","wikidata":"Q22079482"},"8699885":{"name":"Skogens Bomvei","note":"toll payment via SMS, details given on board, car 48 NOK","toll":"yes","type":"route","route":"road","source":"local_knowledge","payment":"sms","toll:bicycle":"no"},"11050280":{"ref":"E 134","name":"Vollåstunnelen","type":"route","route":"road","wikidata":"Q78902548","wikipedia":"no:Vollåstunnelen"},"11050281":{"ref":"E 134","name":"Moanetunnelen","type":"route","route":"road","wikidata":"Q78896409","wikipedia":"no:Moanetunnelen"},"11050282":{"ref":"E 134","name":"Svartåstunnelen","type":"route","route":"road","wikidata":"Q72712716"},"11050283":{"name":"Saggrenda bru","type":"route","route":"road","wikidata":"Q78903165"},"11050284":{"ref":"E 134","name":"Kongsberg bru","type":"route","route":"road","wikidata":"Q78908786"},"14287430":{"ref":"92","name":"Kantatie 92","type":"route","route":"road","name:fi":"Kantatie 92","name:sv":"Stamväg 92","network":"fi:trunk"},"16550738":{"ref":"172","name":"愛媛県道172号　弓削島循環線","type":"route","route":"road","network":"JP:prefectural"},"16642830":{"name":"Kjekstadveien","type":"route","route":"road"}}