{"228097":{"ref":"AH2","url":"http://wiki.openstreetmap.org/wiki/Asia/Asian_Highway_Network","name":"Asian Highway AH2","type":"route","route":"road","int_ref":"AH2","name:de":"Asiatische Fernstraße 2","name:en":"Asian Highway AH2","name:ms":"Lebuhraya Asia AH2","name:ru":"Азиатский маршрут AH2","name:th":"ทางหลวงเอเชียสาย 2","name:zh":"亚洲高速公路 AH2","network":"AsianHighway","wikidata":"Q727638","wikipedia":"en:AH2"},"1465935":{"ref":"SH90","name":"Uttar Pradesh State Highway 90","type":"route","route":"road","network":"IN:SH:UP"},"1654910":{"ref":"SH75","name":"Bihar State Highway 75","type":"route","route":"road","network":"IN:SH:BR"},"1661670":{"ref":"9","name":"A5-09p Priključek Gančani","type":"route","route":"road","network":"SI:AC"},"3224720":{"ref":"527D","name":"NH527D","note":"new number","type":"route","route":"road","network":"IN:NH","wikidata":"Q25212370","wikipedia":"en:National Highway 527D (India)","is_in:state":"BR"},"4655755":{"ref":"NH55","name":"राप्ती राजमार्ग","type":"route","route":"road","highway":"primary","name:en":"Rapti Highway","name:ne":"राप्ती राजमार्ग","network":"np:national","ref:old":"H11","distance":"196","wikidata":"Q25378146","wikipedia":"en:Rapti Highway"},"4659949":{"ref":"F2","name":"Damak — Gaurigunj","type":"route","route":"road","network":"NP:regional","distance":"21.96"},"4659974":{"ref":"F3","name":"Bhardaha — Hanumannagar — Rajbiraj","type":"route","route":"road","network":"NP:regional","distance":"17.75"},"4660015":{"ref":"F4","name":"Rupani — Rajbiraj","type":"route","route":"road","network":"NP:regional"},"4660502":{"ref":"F8","name":"Bardaghat — Pratappur — Surajpur","type":"route","route":"road","network":"NP:regional","distance":"23.05"},"4660510":{"ref":"F9","name":"Sunawal — Parasi","type":"route","route":"road","network":"NP:regional","distance":"8.95"},"4661660":{"ref":"F12","name":"Chanauta — Krishnanagar","type":"route","route":"road","network":"NP:regional","distance":"20.06"},"4661724":{"ref":"F16","name":"Bhurigaun — Dhodhari","type":"route","route":"road","network":"NP:regional"},"4661731":{"ref":"F17","name":"Junga — Rajapur","type":"route","route":"road","network":"NP:regional","distance":"28.12"},"4662072":{"ref":"F19","name":"Bhainse — Bhimphedi","type":"route","route":"road","network":"NP:regional","distance":"12"},"4662214":{"ref":"F22","name":"Balkhu — Dachhinkali","type":"route","route":"road","network":"NP:regional"},"4662229":{"ref":"F23","name":"Satdobato — Tikabhairab","type":"route","route":"road","network":"NP:regional","distance":"11.57"},"4662264":{"ref":"F24","name":"Satdobato — Phulchoki","type":"route","route":"road","network":"NP:regional","distance":"23.24"},"4662347":{"ref":"F25","name":"Maharajgunj — Budhanilkantha","type":"route","route":"road","network":"NP:regional","distance":"4.89"},"4662375":{"ref":"F26","name":"Chabahil — Sankhu","type":"route","route":"road","network":"NP:regional","distance":"12.78"},"4662781":{"ref":"F27","name":"Jorpati — Sundarijal","type":"route","route":"road","network":"NP:regional","distance":"7.13"},"4662790":{"ref":"F28","name":"Bhaktapur — Nagarkot","type":"route","route":"road","network":"NP:regional"},"4662804":{"ref":"F29","name":"Banepa — Panauti — Khopasi","type":"route","route":"road","network":"NP:regional","distance":"9.54"},"4662820":{"ref":"F30","name":"Panchkhal — Helambu","type":"route","route":"road","network":"NP:regional","distance":"63"},"4664221":{"ref":"F37","name":"Bharatpur bypass","type":"route","route":"road","network":"NP:regional","distance":"4.49"},"4664290":{"ref":"F38","name":"Fikkal — Pashupatinagar","type":"route","route":"road","network":"NP:regional","distance":"10.75"},"4664440":{"ref":"F43","name":"Bartung — Tansen — Ridi — Tamghas","type":"route","route":"road","network":"NP:regional","distance":"80.2"},"4664476":{"ref":"F45","name":"Lumbini — Taulihawa","type":"route","route":"road","network":"NP:regional","distance":"24.55"},"4673047":{"ref":"F186","name":"Mirdi - Chitre - Bhimad Road","type":"route","route":"road","network":"NP:regional"},"4673914":{"to":"Keladi","ref":"F197","from":"Aryabhanjyang","name":"Aryabhanjyang-Rampur-Keladi","type":"route","route":"road","name:ne":"आर्यभञ्ज्याङ-रामपुर-केलादी","network":"NP:regional"},"5011856":{"ref":"F20","name":"Palung — Kulekhani — Balaju bypass","type":"route","route":"road","network":"NP:regional","distance":"20.57"},"5778559":{"to":"Baindi","ref":"38DR008","from":"Bhimad","name":"Bhimad - Baidi Road","type":"route","route":"road","highway":"secondary","network":"np:regional","surface":"paved"},"7646765":{"ref":"42DR004","name":"Thinger Chhonhup Road","type":"route","route":"road"},"7664027":{"to":"Bakamalang","ref":"47DR038","from":"Bhalayatar","name":"Bhalayatar - Bakamalang Road","type":"route","route":"road","network":"np:regional"},"7672954":{"ref":"71DR018","name":"Community Local Road","type":"route","route":"road"},"11661188":{"to":"Nijgadh, Nepal","ref":"H20","from":"Kathmandu, Nepal","name":"काठमाण्डु - तराई एक्सप्रेसवे","type":"route","route":"road","name:en":"Fast Track","name:ne":"काठमाण्डु - तराई एक्सप्रेसवे","network":"np:national","wikidata":"Q106638840","wikipedia":"en:Kathmandu–Terai Expressway"},"12420794":{"to":"Sankhar","ref":"39DR038","from":"Darshing","name":"Darsing - Sankhar Road","type":"route","route":"road","network":"np:regional"},"12802711":{"ref":"H18","name":"Pushpa Lal Highway","type":"route","route":"road","network":"np:national"},"15085450":{"ref":"NH02","name":"Mechi Rajmarg","note":"new numbered NH","type":"route","route":"road","name:en":"Mechi Highway","network":"NP:national","wikidata":"Q13185002","wikipedia":"en:Mechi Highway"},"15086072":{"ref":"NH01","name":"Mahendra Rajmarg","note":"new numbered NH","type":"route","route":"road","name:en":"Mahendra Highway","name:ne":"महेन्द्र राज्मार्ग्","name:pl":"Mahendra","network":"NP:national","wikidata":"Q3595565","wikipedia":"en:Mahendra Highway"},"15086189":{"ref":"NH03","name":"Pushpalal Mid Hill Highway","note":"new numbered NH","type":"route","route":"road","name:en":"Pushpalal Mid Hill Highway","network":"NP:national"},"15091674":{"ref":"NH05","name":"Postal Highway","note":"new numbered NH, coincides greatly with old H17","type":"route","route":"road","name:en":"Postal Highway","network":"NP:national","alt_name":"Hulaki Rajmarg","wikidata":"Q25099986","wikipedia":"en:Postal Highway"},"15093074":{"ref":"NH08","name":"Koshi Rajmarg","note":"new numbered NH","type":"route","route":"road","name:en":"Koshi Rajmarg","network":"NP:national","wikidata":"Q21191132","wikipedia":"en:Koshi Highway"},"15093370":{"ref":"NH09","name":"Madan Bhandari Rajmarg","note":"new numbered NH","type":"route","route":"road","name:en":"Madan Bhandari Rajmarg","network":"NP:national"},"15094575":{"ref":"NH13","name":"B.P. Rajmarg","note":"new numbered NH","type":"route","route":"road","name:en":"B.P. Rajmarg","network":"NP:national","wikidata":"Q4833868","wikipedia":"en:BP Highway"},"15095636":{"ref":"NH17","name":"Prithvi Rajmarg","type":"route","route":"road","name:en":"Prithvi Highway","name:ne":"पृथिवी राजमार्ग","network":"NP:national","wikidata":"Q7245961","wikipedia":"en:Prithvi Highway"},"15099470":{"ref":"NH37","name":"Kanti Rajmarg","note":"new numbered NH","type":"route","route":"road","name:en":"Kanti Highway","network":"NP:national"},"15099646":{"ref":"NH39","name":"Kathmandu Ring Road","note":"new numbered NH","type":"route","route":"road","network":"NP:national","wikidata":"Q7334739","wikipedia":"en:Ring Road (Kathmandu)"},"15101026":{"ref":"NH41","name":"Tribhuvan Rajpath","type":"route","route":"road","name:en":"Tribhuvan Highway","name:ne":"त्रिभुवन राजपथ","network":"NP:national","wikidata":"Q13181836","wikipedia":"en:Tribhuvan Highway"},"15101789":{"ref":"NH47","name":"Siddhartha Rajmarg","type":"route","route":"road","name:en":"Siddhartha Highway","network":"NP:national","wikidata":"Q18358419","wikipedia":"en:Siddhartha Highway"},"15256175":{"ref":"NH58","name":"Karnali Rajmarg","type":"route","route":"road","name:en":"Karnali Highway","network":"NP:national"}}