{"2439177":{"to":"پشاور","ref":"N-55","from":"کراچی","name":"قومی شاہراہ 55","type":"route","route":"road","to:ar":"بيشاور","to:en":"Peshawar","to:ps":"پیښور","to:ur":"پشاور","ref:ar":"و 55","ref:ur":"این-55","from:ar":"كراتشي","from:en":"Karachi","from:ps":"کراچۍ","from:ur":"کراچی","name:ar":"الطريق الوطني رقم 55","name:en":"Indus Highway","name:sd":"قومي شاھراھ 55","name:ur":"قومی شاہراہ 55","network":"PK:national","distance":"1264","wikidata":"Q6027406","wikipedia":"ur:قومی شاہراہ 55","alt_name:ur":"انڈس ہائی وے","wikipedia:sd":"قومي شاھراھ 55","wikipedia:ur":"قومی شاہراہ 55"},"2442008":{"to":"گوادر","ref":"N-10","from":"لیاری","name":"مکران ساحلی شاہراہ","type":"route","route":"road","to:ar":"كوادر","to:en":"Gwadar","to:sd":"گوادار","to:ur":"گوادر","ref:ar":"و 10","ref:ur":"این-10","to:pnb":"گوادر","from:ar":"لياري","from:en":"Liari","from:ur":"لیاری","name:ar":"طريق مكران الساحلي السريع","name:en":"Makran Coastal Highway","name:fa":"شاهراه ساحلی مکران","name:ur":"مکران ساحلی شاہراہ","network":"PK:national","ref:pnb":"این-10","name:pnb":"مکران کوسٹل ہائی وے","wikidata":"Q6740063","wikipedia":"ur:قومی شاہراہ 10","wikipedia:ur":"قومی شاہراہ 10","wikipedia:pnb":"مکران کوسٹل ہائی وے"},"2443896":{"to":"Kohat","ref":"N-80","from":"Tarnol","name":"N-80 National Highway","type":"route","route":"road","network":"PK:national","distance":"146","operator":"National Highway Authority (Pakistan)","wikipedia":"en:National Highways of Pakistan"},"2445084":{"to":"Chitral","ref":"N-45","from":"Nowshera","name":"N-45 National Highway","type":"route","route":"road","network":"PK:national","operator":"National Highway Authority (Pakistan)","wikipedia":"en:National Highways of Pakistan"},"2447124":{"to":"Khuzdar","ref":"N-30","from":"Basima","name":"N-30 National Highway","type":"route","route":"road","network":"PK:national","distance":"110","operator":"National Highway Authority (Pakistan)","wikipedia":"en:National Highways of Pakistan"},"2447125":{"to":"Surab","ref":"N-85","from":"Hushab","name":"N-85 National Highway","type":"route","route":"road","network":"PK:national","operator":"National Highway Authority (Pakistan)","wikipedia":"en:National Highways of Pakistan"},"2448914":{"ref":"M-4","name":"ایم 4 موٹروے","type":"route","route":"road","name:en":"M4 Motorway","name:ur":"ایم 4 موٹروے","network":"PK:national","operator":"National Highway Authority (Pakistan)","wikidata":"Q84035","wikipedia":"en:M4 motorway (Pakistan)"},"2531304":{"ref":"N-90","name":"N-90 National Highway","type":"route","route":"road","network":"PK:national","operator":"National Highway Authority (Pakistan)"},"3157409":{"ref":"M-2","name":"ایم 2 موٹروے","toll":"yes","type":"route","route":"road","ref:ar":"م 2","ref:ur":"ایم 2","name:ar":"الطريق السريع م 2","name:en":"M2 Motorway","name:ur":"ایم 2 موٹروے","network":"PK:motorway","wikidata":"Q250697","wikipedia":"ur:ایم 2 موٹروے (پاکستان)","wikipedia:ur":"ایم 2 موٹروے (پاکستان)"},"3164575":{"to":"Chitral","ref":"N-45","from":"Nowshera","name":"N-45 National Highway","type":"route","route":"road","network":"PK:national","operator":"National Highway Authority (Pakistan)","wikipedia":"en:National Highways of Pakistan"},"7012784":{"ref":"M-5","name":"ایم 5 موٹروے","type":"route","route":"road","name:en":"M-5 Motorway","network":"PK:motorway","wikidata":"Q84033","wikipedia":"en:M-5 motorway (Pakistan)","alt_name:en":"Multan-Sukkur Motorway"},"10174337":{"ref":"M-3","name":"ایم 3 موٹروے","type":"route","route":"road","name:en":"M-3 Motorway","name:ur":"ایم 3 موٹروے","network":"PK:motorway","wikidata":"Q84025","wikipedia":"en:M-3 motorway (Pakistan)"},"10179383":{"ref":"M-10","name":"Karachi Northern Bypass","type":"route","route":"road","network":"PK:motorway","wikidata":"Q328654","wikipedia":"en:Karachi Northern Bypass (M10 motorway)"},"10185763":{"ref":"M-1","name":"ایم 1 موٹروے","type":"route","route":"road","ref:ar":"م 1","ref:ur":"ایم-1","name:ar":"الطريق السريع م 1","name:en":"Islamabad-Peshawar Motorway","name:ur":"ایم 1 موٹروے","network":"PK:motorway","website":"https://nha.gov.pk/roads/topic/15855","wikidata":"Q82227","wikipedia":"ur:ایم 1 موٹروے (پاکستان)","alt_name:en":"M-1 Motorway","wikipedia:ur":"ایم 1 موٹروے (پاکستان)"},"12246983":{"ref":"M-4","name":"فیصل آباد ملتان موٹروے","type":"route","route":"road","ref:ar":"م 4","ref:ur":"ایم-4","name:ar":"طريق فيصل آباد - ملتان السريع","name:ur":"فیصل آباد ملتان موٹروے","network":"PK:motorway","wikidata":"Q84035","wikipedia":"ur:ایم 4 موٹروے (پاکستان)","wikipedia:ur":"ایم 4 موٹروے (پاکستان)"},"12247015":{"to":"Niaz Biag","ref":"L-20","from":"Babu Sabu","name":"لاہور رنگ روڈ","type":"route","route":"road","ref:ar":"ل 20","ref:ur":"ل-20","name:ar":"طريق لاهور الدائري","name:ur":"لاہور رنگ روڈ","network":"PK:Punjab:LRR","alt_name":"لاہور مداری سڑک","distance":"85 km","wikidata":"Q6473409","roundtrip":"no","wikipedia":"ur:لاہور رنگ روڈ","start_date":"2009","alt_name:ur":"لاہور مداری سڑک","wikipedia:ur":"لاہور رنگ روڈ"},"12249138":{"to":"Keti Bunder","ref":"N-110","from":"Gharo","name":"Gharo - Keti Bunder","type":"route","route":"road","network":"PK:national","alt_name":"N-110 National Highway","wikidata":"Q25230357","wikipedia":"en:N-110 National Highway"},"13503158":{"ref":"M-14","name":"ایم 14 موٹروے","type":"route","route":"road","name:en":"M-14 Motorway","network":"PK:motorway","wikidata":"Q25037351","wikipedia":"en:M-14 motorway (Pakistan)","alt_name:en":"Islamabad–Dera Ismail Khan Motorway"},"13503290":{"ref":"M-15","name":"ایم 15 موٹروے","type":"route","route":"road","name:en":"M-15 Motorway","network":"PK:motorway","wikidata":"Q18619492","wikipedia":"en:M-15 motorway (Pakistan)","alt_name:en":"Hazara Motorway"},"13503327":{"ref":"M-16","name":"ایم 16 موٹروے","type":"route","route":"road","name:en":"M-16 Motorway","network":"PK:motorway","wikidata":"Q18393161","wikipedia":"en:Swat Expressway","alt_name:en":"Swat Motorway"},"14307572":{"ref":"AH1","url":"http://wiki.openstreetmap.org/wiki/Asia/Asian_Highway_Network","name":"ایشین ہائی وے نمبر 1","note":"Direction: from Torkham - Peshawar (Afghan border) to Islamabad (Indian border)","type":"route","route":"road","int_ref":"AH1","name:bn":"এশিয়ান হাইওয়ে ১","name:de":"Asien Fernstraße AH1","name:en":"Asian Highway AH1","name:fa":"بزرگراه آسیایی شماره ۱","name:fr":"Route asiatique AH1","name:hi":"एशियाई राजमार्ग १","name:id":"Jalan Asia AH1","name:ja":"アジアハイウェイ1号線","name:km":"ផ្លូវហាយវេអាស៊ី១","name:ko":"아시안 하이웨이 1호선","name:ms":"Lebuh Raya Asia AH1","name:my":"အာရှအဝေးပြေး ၁","name:pa":"د آسیا لویه لاره نمبر 1","name:ru":"Азиатский маршрут AH1","name:th":"ทางหลวงสายเอเชียAH1","name:tr":"Asya Yolu AH1","name:ur":"ایشین ہائی وے نمبر 1","name:vi":"Đường Xuyên Á AH1","name:zh":"亚洲公路1号线","network":"AH","section":"Turkey","int_name":"Asian Highway AH1","wikidata":"Q494205","wikipedia":"en:AH1"},"15728567":{"ref":"AH1","url":"http://wiki.openstreetmap.org/wiki/Asia/Asian_Highway_Network","name":"د آسیا لویه لاره نمبر 1","note":"From Torkham to Iran border","type":"route","route":"road","int_ref":"AH1","name:bn":"এশিয়ান হাইওয়ে ১","name:de":"Asien Fernstraße AH1","name:en":"Asian Highway AH1","name:fa":"بزرگراه آسیایی شماره ۱","name:fr":"Route asiatique AH1","name:hi":"एशियाई राजमार्ग १","name:id":"Jalan Asia AH1","name:ja":"アジアハイウェイ1号線","name:km":"ផ្លូវហាយវេអាស៊ី១","name:ko":"아시안 하이웨이 1호선","name:ms":"Lebuh Raya Asia AH1","name:my":"အာရှအဝေးပြေး ၁","name:pa":"د آسیا لویه لاره نمبر 1","name:ru":"Азиатский маршрут AH1","name:th":"ทางหลวงสายเอเชียAH1","name:tr":"Asya Yolu AH1","name:vi":"Đường Xuyên Á AH1","name:zh":"亚洲公路1号线","network":"AH","section":"Turkey","int_name":"Asian Highway AH1","wikidata":"Q494205","wikipedia":"en:AH1"},"15747053":{"ref":"M-9","name":"کراچی حیدرآباد موٹروے","type":"route","route":"road","name:en":"Karachi - Hyderabad Motorway"}}