{"26805":{"ref":"363","name":"Länsväg 363","type":"route","route":"road","network":"SE:LV","wikidata":"Q10572189"},"26808":{"ref":"364","name":"Länsväg 364","type":"route","route":"road","network":"SE:LV","wikidata":"Q10572191"},"26893":{"ref":"92","name":"Riksväg 92","type":"route","route":"road","network":"SE:RV"},"28016":{"ref":"E 4","name":"E 4 Gävleborgs län","type":"route","route":"road","int_ref":"E 04","network":"e-road","wikidata":"Q782249","wikipedia":"sv:E4"},"28017":{"ref":"E 4","name":"E 4 Uppsala län","type":"route","route":"road","int_ref":"E 04","network":"e-road","wikidata":"Q782249","wikipedia":"sv:E4"},"29690":{"name":"Inlandsvägen","type":"route","route":"road","reg_name":"Inlandsvägen"},"48170":{"name":"E 6.20 From south to north","type":"route","route":"road","int_ref":"E 06.20"},"51546":{"ref":"365","name":"Länsväg 365","type":"route","route":"road","network":"SE:LV","wikidata":"Q10572190"},"52454":{"ref":"90","name":"Riksväg 90","type":"route","route":"road","network":"SE:RV"},"52455":{"ref":"87","name":"Riksväg 87","type":"route","route":"road","network":"SE:RV"},"52456":{"ref":"335","name":"Länsväg 335","type":"route","route":"road","network":"SE:LV","wikidata":"Q10572177"},"52457":{"ref":"83","name":"Riksväg 83","type":"route","route":"road","network":"SE:RV"},"52830":{"ref":"86","name":"Riksväg 86","type":"route","route":"road","network":"SE:RV"},"52831":{"ref":"E 14","name":"European route E 14","note":"sorted","type":"route","route":"road","name:cs":"Evropská silnice E14","name:en":"European route E 14","name:fr":"Route européenne E 14","name:nl":"Europese route E14","name:sk":"Európska cesta E 14","name:sv":"Europaväg E 14","network":"e-road","wikidata":"Q1164832","wikipedia":"en:European route E14","description":"E 14 Norge - Sundsvall","e-road:class":"A-intermediate","description:fr":"E 14 Norvège - Sundsvall"},"56202":{"name":"Kolbäcksleden","type":"route","route":"road"},"56209":{"name":"Länsväg 500","type":"route","route":"road","network":"SE:AC","unsigned_ref":"500"},"56210":{"name":"Länsväg 501","type":"route","route":"road","network":"SE:AC","unsigned_ref":"501"},"56212":{"ref":"353","name":"Länsväg 353","type":"route","route":"road","network":"SE:LV","wikidata":"Q10572187","wikipedia":"sv:Länsväg 353"},"56213":{"name":"Länsväg 513","type":"route","route":"road","network":"SE:AC","unsigned_ref":"513"},"56216":{"name":"Länsväg 522","type":"route","route":"road","network":"SE:AC","unsigned_ref":"522"},"56217":{"name":"Länsväg 530","type":"route","route":"road","network":"SE:AC","unsigned_ref":"530"},"62112":{"ref":"125","name":"Länsväg 125","type":"route","route":"road","network":"SE:LV","wikidata":"Q10572028"},"62138":{"ref":"124","name":"Länsväg 124","type":"route","route":"road","network":"SE:LV","wikidata":"Q10572025"},"62139":{"ref":"23","name":"Riksväg 23","type":"route","route":"road","network":"SE:RV","wikidata":"Q10276545"},"63262":{"ref":"21","name":"Riksväg 21","type":"route","route":"road","network":"SE:RV"},"63314":{"ref":"9","name":"Riksväg 9","type":"route","route":"road","network":"SE:RV","wikidata":"Q3304276","wikipedia":"sv:Riksväg 9"},"63360":{"ref":"11","name":"Riksväg 11","type":"route","route":"road","network":"SE:RV","wikidata":"Q1161760","wikipedia":"sv:Riksväg 11"},"63445":{"ref":"13","name":"Riksväg 13","type":"route","route":"road","network":"SE:RV","wikidata":"Q9284262","wikipedia":"sv:Riksväg 13"},"63578":{"ref":"19","name":"Riksväg 19","type":"route","route":"road","network":"SE:RV","wikidata":"Q10655312","wikipedia":"sv:Riksväg 19"},"63672":{"ref":"34","name":"Riksväg 34","type":"route","route":"road","network":"SE:RV","wikidata":"Q4586302"},"63787":{"ref":"24","name":"Riksväg 24","type":"route","route":"road","network":"SE:RV"},"63870":{"ref":"25","name":"Riksväg 25","type":"route","route":"road","network":"SE:RV","wikidata":"Q10655322"},"64274":{"ref":"26","name":"Riksväg 26","type":"route","route":"road","network":"SE:RV","alt_name":"Inlandsvägen;Inlandsvägen Syd","old_name":"Nissastigen","wikidata":"Q10655321"},"64855":{"ref":"28","name":"Riksväg 28","type":"route","route":"road","network":"SE:RV","wikidata":"Q10655323"},"64938":{"ref":"31","name":"Riksväg 31","type":"route","route":"road","network":"SE:RV"},"65339":{"ref":"97","name":"Riksväg 97","type":"route","route":"road","network":"SE:RV","wikidata":"Q2236896","wikipedia":"sv:Riksväg 97"},"66200":{"ref":"95","name":"Riksväg 95","type":"route","route":"road","network":"SE:RV"},"66501":{"ref":"94","name":"Riksväg 94","type":"route","route":"road","network":"SE:RV"},"66511":{"ref":"98","name":"Riksväg 98","type":"route","route":"road","network":"SE:RV"},"66517":{"ref":"99","name":"Riksväg 99","type":"route","route":"road","network":"SE:RV","wikidata":"Q1827748"},"66623":{"ref":"30","name":"Riksväg 30","type":"route","route":"road","network":"SE:RV"},"66656":{"ref":"32","name":"Riksväg 32","type":"route","route":"road","network":"SE:RV"},"67087":{"ref":"27","name":"Riksväg 27","type":"route","route":"road","network":"SE:RV","wikidata":"Q10276546"},"67319":{"ref":"47","name":"Riksväg 47","type":"route","route":"road","network":"SE:RV"},"67482":{"ref":"35","name":"Riksväg 35","type":"route","route":"road","network":"SE:RV"},"67505":{"ref":"37","name":"Riksväg 37","type":"route","route":"road","network":"SE:RV"},"67509":{"ref":"40","name":"Riksväg 40","type":"route","route":"road","network":"SE:RV","wikidata":"Q645223"},"67531":{"ref":"41","name":"Riksväg 41","type":"route","route":"road","network":"SE:RV","wikidata":"Q10276549"},"70372":{"ref":"42","name":"Riksväg 42","type":"route","route":"road","network":"SE:RV"},"70373":{"ref":"44","name":"Riksväg 44","type":"route","route":"road","network":"SE:RV"},"70385":{"ref":"46","name":"Riksväg 46","type":"route","route":"road","network":"SE:RV","wikidata":"Q10655333"},"72030":{"ref":"49","name":"Riksväg 49","type":"route","route":"road","network":"SE:RV"},"72926":{"ref":"50","name":"Riksväg 50","type":"route","route":"road","network":"SE:RV","alt_name":"Bergslagsdiagonalen","wikidata":"Q820227","wikipedia":"sv:Riksväg 50"},"77281":{"ref":"100","name":"Länsväg 100","type":"route","route":"road","network":"SE:LV","wikidata":"Q10572001","wikipedia":"sv:Länsväg 100"},"77285":{"ref":"101","name":"Länsväg 101","type":"route","route":"road","network":"SE:LV","wikidata":"Q10572000","wikipedia":"sv:Länsväg 101"},"77290":{"ref":"102","name":"Länsväg 102","type":"route","route":"road","network":"SE:LV","wikidata":"Q10572002","wikipedia":"sv:Länsväg 102"},"77296":{"ref":"103","name":"Länsväg 103","type":"route","route":"road","network":"SE:LV","wikidata":"Q10572003","wikipedia":"sv:Länsväg 103"},"77301":{"ref":"104","name":"Länsväg 104","type":"route","route":"road","network":"SE:LV","wikidata":"Q10572004","wikipedia":"sv:Länsväg 104"},"77306":{"ref":"105","name":"Länsväg 105","type":"route","route":"road","network":"SE:LV","wikidata":"Q10572007"},"77313":{"ref":"106","name":"Länsväg 106","type":"route","route":"road","network":"SE:LV","wikidata":"Q10572008"},"77315":{"ref":"107","name":"Länsväg 107","type":"route","route":"road","network":"SE:LV","wikidata":"Q10572009"},"77935":{"ref":"108","name":"Länsväg 108","type":"route","route":"road","network":"SE:LV","wikidata":"Q10572010"},"77965":{"ref":"109","name":"Länsväg 109","type":"route","route":"road","network":"SE:LV","wikidata":"Q10572011","wikipedia":"sv:Länsväg 109"},"77968":{"ref":"110","name":"Länsväg 110","type":"route","route":"road","network":"SE:LV","wikidata":"Q10572012"},"78007":{"ref":"111","name":"Länsväg 111","type":"route","route":"road","network":"SE:LV","wikidata":"Q10572013"},"78018":{"ref":"112","name":"Länsväg 112","type":"route","route":"road","network":"SE:LV","wikidata":"Q10572014"},"78027":{"ref":"113","name":"Länsväg 113","type":"route","route":"road","network":"SE:LV","wikidata":"Q10572015"},"78033":{"ref":"114","name":"Länsväg 114","type":"route","route":"road","network":"SE:LV","wikidata":"Q10572016"},"78039":{"ref":"115","name":"Länsväg 115","type":"route","route":"road","network":"SE:LV","wikidata":"Q10572017"},"78044":{"ref":"116","name":"Länsväg 116","type":"route","route":"road","network":"SE:LV","wikidata":"Q10572018"},"78048":{"ref":"117","name":"Länsväg 117","type":"route","route":"road","network":"SE:LV","wikidata":"Q10572019"},"78063":{"ref":"118","name":"Länsväg 118","type":"route","route":"road","network":"SE:LV","wikidata":"Q10572020"},"78068":{"ref":"119","name":"Länsväg 119","type":"route","route":"road","network":"SE:LV","wikidata":"Q10572021"},"78200":{"ref":"51","name":"Riksväg 51","type":"route","route":"road","network":"SE:RV"},"78218":{"ref":"52","name":"Riksväg 52","type":"route","route":"road","network":"SE:RV"},"78264":{"ref":"70","name":"Riksväg 70","type":"route","route":"road","network":"SE:RV"},"89638":{"ref":"370","name":"Länsväg 370","type":"route","route":"road","network":"SE:LV","wikidata":"Q10572192"},"156666":{"name":"Kustvägen","type":"route","route":"road","symbol":"A sun with the text Kustvägen","distance":"75 km","description":"Tourist route following the coastline between Svartvik, Njurunda and Mellanfjärden, Jättendal"},"169822":{"name":"Jungfrukustvägen","type":"route","route":"road","distance":"200 km","description":"Tourist road from Skutskär to Årskogen that follows the coastline called Jungfrukusten"},"226273":{"ref":"200","name":"Länsväg 200","type":"route","route":"road","network":"SE:LV","wikidata":"Q10572087"},"226274":{"ref":"202","name":"Länsväg 202","type":"route","route":"road","network":"SE:LV","wikidata":"Q10572088"},"226275":{"ref":"201","name":"Länsväg 201","type":"route","route":"road","network":"SE:LV","wikidata":"Q10572089"},"281607":{"ref":"156","name":"Länsväg 156","type":"route","route":"road","network":"SE:LV","wikidata":"Q10572053"},"324846":{"ref":"126","name":"Länsväg 126","type":"route","route":"road","network":"SE:LV","wikidata":"Q10572027"},"324847":{"ref":"120","name":"Länsväg 120","type":"route","route":"road","network":"SE:LV","wikidata":"Q10572022"},"324848":{"ref":"121","name":"Länsväg 121","type":"route","route":"road","network":"SE:LV","wikidata":"Q10572023"},"356824":{"ref":"C","name":"C-ring","type":"route","route":"road","network":"SE:LS","alt_name":"Centrumring","description:en":"City centre ring road in Linköping","description:sv":"Centrumringleden i Linköping"},"356825":{"ref":"Y","name":"Y-ring","type":"route","route":"road","network":"SE:LS","alt_name":"Yttre ring","wikidata":"Q10562816","wikipedia":"sv:Linköpings yttre ringled","description:en":"Outer ring road in Linköping","description:sv":"Yttre ringleden i Linköping"},"373548":{"ref":"76","name":"Riksväg 76","type":"route","route":"road","network":"SE:RV"},"373553":{"ref":"77","name":"Riksväg 77","type":"route","route":"road","network":"SE:RV"},"386306":{"ref":"356","name":"Länsväg 356","type":"route","route":"road","network":"SE:LV","wikidata":"Q2411775","wikipedia":"sv:Länsväg 356"},"386308":{"ref":"374","name":"Länsväg 374","type":"route","route":"road","network":"SE:LV","wikidata":"Q10572195"},"386324":{"ref":"383","name":"Länsväg 383","type":"route","route":"road","network":"SE:LV","wikidata":"Q10572196","wikipedia":"sv:Länsväg 383"},"386325":{"ref":"392","name":"Länsväg 392","type":"route","route":"road","network":"SE:LV","wikidata":"Q2875940"},"386326":{"ref":"394","name":"Länsväg 394","type":"route","route":"road","network":"SE:LV","wikidata":"Q10572197"},"386327":{"ref":"395","name":"Länsväg 395","type":"route","route":"road","network":"SE:LV","wikidata":"Q10572198"},"386328":{"ref":"398","name":"Länsväg 398","type":"route","route":"road","network":"SE:LV","wikidata":"Q2331240"},"386329":{"ref":"402","name":"Länsväg 402","type":"route","route":"road","network":"SE:LV","wikidata":"Q3076287"},"386330":{"ref":"403","name":"Länsväg 403","type":"route","route":"road","network":"SE:LV","wikidata":"Q15559299"},"393940":{"ref":"283","name":"Länsväg 283","type":"route","route":"road","network":"SE:LV","wikidata":"Q10572151"},"413773":{"ref":"55","name":"Riksväg 55","type":"route","route":"road","network":"SE:RV","wikidata":"Q10655340","wikipedia":"sv:Riksväg 55"},"413774":{"ref":"56","name":"Riksväg 56","type":"route","route":"road","network":"SE:RV","wikidata":"Q10655341","wikipedia":"sv:Riksväg 56"},"445941":{"ref":"57","name":"Riksväg 57","type":"route","route":"road","network":"SE:RV"},"557946":{"name":"Husbyringen","type":"route","route":"road","distance":"60 km","roundtrip":"yes","description":"En natur och kulturled - Sveriges första ekomuseum"},"1071252":{"name":"Fiskeveien","type":"route","route":"road","name:sv":"Fiskevägen","website":"http://fiskeveien.com","wikidata":"Q10495794","wikipedia":"sv:Fiskevägen","description":"A way crossing countys famous for it's good sport fishing waters."},"1149351":{"ref":"E 20","name":"E 20 Västra Götalands län","type":"route","route":"road","network":"e-road","section":"Västra Götalands län"},"1153556":{"ref":"E 12","name":"E 12 Umeå kommun","type":"route","route":"road","name:en":"E 12 Umeå municipality","name:sv":"E 12 Umeå kommun","network":"e-road"},"1153558":{"ref":"E 12","name":"E 12 Vindelns kommun","type":"route","route":"road","name:en":"E 12 Vindeln municipality","name:sv":"E 12 Vindelns kommun","network":"e-road"},"1153559":{"ref":"E 12","name":"E 12 Lycksele kommun","type":"route","route":"road","name:en":"E 12 Lycksele municipality","name:sv":"E 12 Lycksele kommun","network":"e-road"},"1153560":{"ref":"E 12","name":"E 12 Vännäs kommun","type":"route","route":"road","name:en":"E 12 Vännäs municipality","name:sv":"E 12 Vännäs kommun","network":"e-road"},"1248451":{"ref":"E 4","name":"E 4 Västerbottens län","type":"route","route":"road","int_ref":"E 04","network":"e-road","wikidata":"Q782249","wikipedia":"sv:E4"},"1360432":{"ref":"315","name":"Länsväg 315","type":"route","route":"road","network":"SE:LV","description":"Hedeviken-Östavall"},"1360437":{"ref":"314","name":"Länsväg 314","type":"route","route":"road","network":"SE:LV","wikidata":"Q10572167","description":"Ytterhogdal-Kölsillre"},"1360476":{"ref":"305","name":"Länsväg 305","type":"route","route":"road","network":"SE:LV","wikidata":"Q10572162"},"1360516":{"ref":"320","name":"Länsväg 320","type":"route","route":"road","network":"SE:LV","wikidata":"Q10572168"},"1360519":{"ref":"330","name":"Länsväg 330","type":"route","route":"road","network":"SE:LV","wikidata":"Q10572172"},"1360520":{"ref":"331","name":"Länsväg 331","type":"route","route":"road","network":"SE:LV","wikidata":"Q10572173"},"1361195":{"ref":"332","name":"Länsväg 332","type":"route","route":"road","network":"SE:LV","wikidata":"Q10572174"},"1361230":{"ref":"E 4","name":"E 4 Västernorrlands län","type":"route","route":"road","int_ref":"E 04","network":"e-road","wikidata":"Q782249","wikipedia":"sv:E4"},"1361797":{"ref":"E 4","name":"E 4 Stockholms län","type":"route","route":"road","int_ref":"E 04","network":"e-road","wikidata":"Q782249","wikipedia":"sv:E4"},"1362083":{"ref":"348","name":"Länsväg 348","type":"route","route":"road","network":"SE:LV","wikidata":"Q10572186"},"1362088":{"ref":"352","name":"Länsväg 352","type":"route","route":"road","network":"SE:LV","wikidata":"Q10572185"},"1362161":{"ref":"346","name":"Länsväg 346","type":"route","route":"road","network":"SE:LV","wikidata":"Q10572183"},"1362178":{"ref":"345","name":"Länsväg 345","type":"route","route":"road","network":"SE:LV","wikidata":"Q10572184"},"1362179":{"ref":"334","name":"Länsväg 334","type":"route","route":"road","network":"SE:LV","wikidata":"Q10572176"},"1362187":{"ref":"333","name":"Länsväg 333","type":"route","route":"road","network":"SE:LV","wikidata":"Q10572175"},"1364407":{"ref":"72","name":"Riksväg 72","type":"route","route":"road","network":"SE:RV","wikidata":"Q10655350","wikipedia":"sv:Riksväg 72"},"1440188":{"name":"Länsväg 1045","type":"route","route":"road","network":"SE:Y","unsigned_ref":"1045"},"1441687":{"ref":"175","name":"Länsväg 175","type":"route","route":"road","network":"SE:LV","wikidata":"Q10572072"},"1457562":{"ref":"E 16","name":"E 16 Sweden","type":"route","route":"road","name:nl":"E16 Zweden","network":"e-road","website":"https://www.e16.se/"},"1531355":{"name":"Länsväg 932","type":"route","route":"road","network":"SE:S","unsigned_ref":"932"},"1531356":{"name":"Länsväg 924","type":"route","route":"road","network":"SE:S","unsigned_ref":"924"},"1531357":{"name":"Länsväg 931","type":"route","route":"road","network":"SE:S","unsigned_ref":"931"},"1531403":{"name":"Länsväg 926","type":"route","route":"road","network":"SE:S","unsigned_ref":"926"},"1531442":{"name":"Länsväg 843","type":"route","route":"road","network":"SE:S","unsigned_ref":"843"},"1531443":{"name":"Länsväg 842","type":"route","route":"road","network":"SE:S","unsigned_ref":"842"},"1658461":{"ref":"272","name":"Länsväg 272","type":"route","route":"road","network":"SE:LV","wikidata":"Q10572141"},"1658532":{"ref":"296","name":"Länsväg 296","type":"route","route":"road","network":"SE:LV","wikidata":"Q10572158"},"1658555":{"ref":"301","name":"Länsväg 301","type":"route","route":"road","network":"SE:LV","wikidata":"Q10572159"},"1658556":{"ref":"302","name":"Länsväg 302","type":"route","route":"road","network":"SE:LV","wikidata":"Q10572160"},"1658584":{"ref":"303","name":"Länsväg 303","type":"route","route":"road","network":"SE:LV","wikidata":"Q10572161"},"1658585":{"ref":"307","name":"Länsväg 307","type":"route","route":"road","network":"SE:LV","wikidata":"Q10572163"},"1658596":{"ref":"310","name":"Länsväg 310","type":"route","route":"road","network":"SE:LV","wikidata":"Q10572165"},"1663069":{"ref":"7","name":"H3-07p Priključek Ljubljana-Dravlje","type":"route","route":"road","network":"SI:AC"},"1766555":{"name":"Länsväg 687","type":"route","route":"road","network":"SE:E","unsigned_ref":"687"},"1834012":{"ref":"215","name":"Länsväg 215","type":"route","route":"road","network":"SE:LV","wikidata":"Q10572100"},"1834025":{"ref":"211","name":"Länsväg 211","type":"route","route":"road","network":"SE:LV","wikidata":"Q10572096"},"1834046":{"ref":"210","name":"Länsväg 210","type":"route","route":"road","network":"SE:LV","wikidata":"Q10572095"},"1843889":{"ref":"293","name":"Länsväg 293","type":"route","route":"road","network":"SE:LV","wikidata":"Q3378673"},"1844023":{"ref":"53","name":"Riksväg 53","type":"route","route":"road","network":"SE:RV"},"1946824":{"ref":"311","name":"Länsväg 311","type":"route","route":"road","network":"SE:LV","wikidata":"Q10572164"},"1960086":{"ref":"316","name":"Länsväg 316","type":"route","route":"road","network":"SE:LV","wikidata":"Q10572169"},"2093570":{"ref":"15","name":"Riksväg 15","type":"route","route":"road","network":"SE:RV","alt_name":"Tvärleden","loc_name":"Volvoleden","wikidata":"Q10655308","start_date":"2012-10-01"},"2147278":{"ref":"E 6","name":"E 6 Skåne län","type":"route","route":"road","int_ref":"E 06","network":"e-road","section":"Skåne län","wikidata":"Q921422","wikipedia":"sv:E6"},"2147279":{"ref":"E 6","name":"E 6 Hallands län","type":"route","route":"road","int_ref":"E 06","network":"e-road","section":"Hallands län","wikidata":"Q921422","wikipedia":"sv:E6"},"2163626":{"name":"KulTuren","type":"route","route":"road"},"2223701":{"ref":"66","name":"Riksväg 66","type":"route","route":"road","network":"SE:RV"},"2227780":{"ref":"63","name":"Riksväg 63","type":"route","route":"road","network":"SE:RV"},"2307312":{"ref":"R1","name":"Turistväg Riksettan","type":"route","route":"road","website":"https://www.vaggeryd.se/uppleva-och-gora/upplev-vaggeryds--kommun/gamla-riksettan-r1.html","short_name":"Riksettan","description:sv":"En njutbar resa längs en historisk väg genom ett levande landskap. Den här utritade vägen utgör en framkomlig bilväg som rätt nära, men inte överallt, ansluter till den historiska Riksettan."},"2334172":{"ref":"E 65","name":"European route E 65 (Sweden)","type":"route","route":"road","name:cs":"Evropská silnice E65 (Švédsko)","name:de":"Europastraße 65","name:el":"Ευρωπαϊκή Οδός 65","name:en":"European route E 65 (Sweden)","name:nl":"Europese route E65 (Zweden)","name:pl":"Trasa europejska 65","name:ru":"Европейский маршрут E 65","name:sk":"Európska cesta E 65 (Švédsko)","name:sr":"Европски пут Е65","network":"e-road","wikidata":"Q258638","wikipedia":"sv:E65 (Sverige)","description":"E65 - Sweden"},"2337530":{"ref":"68","name":"Riksväg 68","type":"route","route":"road","network":"SE:RV"},"2401267":{"name":"Sagavägen","type":"route","route":"road","website":"https://www.sagavegen.com/","description":"Sagavägen - Vägen från världsarv till världsarv","description:de":"Die Märchenstraße ‚Sagavägen' - die Straße von einem Weltkulturerbe zum anderen","description:en":"Sagavägen - The route linking two world heritage sites","description:sv":"Sagavägen - Vägen från världsarv till världsarv"},"2447516":{"ref":"164","name":"Länsväg 164","type":"route","route":"road","network":"SE:LV","wikidata":"Q10572060","description":"Strömstad - Åmål"},"2534312":{"ref":"69","name":"Riksväg 69","type":"route","route":"road","network":"SE:RV"},"2584405":{"ref":"E 4","name":"E 4 Jönköpings län","type":"route","route":"road","int_ref":"E 04","network":"e-road","section":"Jönköping","wikidata":"Q782249","wikipedia":"sv:E4"},"2584408":{"ref":"E 4","name":"E 4 Kronobergs län","type":"route","route":"road","int_ref":"E 04","network":"e-road","section":"Kronoberg","wikidata":"Q782249","wikipedia":"sv:E4"},"2584410":{"ref":"E 4","name":"E 4 Södermanlands län","type":"route","route":"road","int_ref":"E 04","network":"e-road","section":"Södermanland","wikidata":"Q782249","wikipedia":"sv:E4"},"2584411":{"ref":"E 4","name":"E 4 Östergötlands län","type":"route","route":"road","int_ref":"E 04","network":"e-road","section":"Östergötland","wikidata":"Q782249","wikipedia":"sv:E4"},"2986731":{"name":"Länsväg 844","type":"route","route":"road","network":"SE:BD","unsigned_ref":"844"},"3044614":{"name":"Länsväg 891","type":"route","route":"road","network":"SE:BD","unsigned_ref":"891"},"3044671":{"name":"Länsväg 886","type":"route","route":"road","network":"SE:BD","unsigned_ref":"886"},"3070763":{"ref":"BD 873","name":"BD 873","type":"route","route":"road","reg_ref":"873"},"3070784":{"ref":"BD 878","name":"BD 878","type":"route","route":"road","reg_ref":"878"},"3071453":{"ref":"BD 870","name":"Holmajärvivägen","type":"route","route":"road","reg_ref":"870"},"3125593":{"ref":"61","name":"Riksväg 61","type":"route","route":"road","network":"SE:RV"},"3125622":{"ref":"62","name":"Riksväg 62","type":"route","route":"road","network":"SE:RV"},"3125691":{"ref":"75","name":"Riksväg 75","type":"route","route":"road","network":"SE:RV","alt_name":"Södra länken"},"3146856":{"ref":"270","name":"Länsväg 270","type":"route","route":"road","network":"SE:LV","wikidata":"Q10572139"},"3146872":{"ref":"245","name":"Länsväg 245","type":"route","route":"road","network":"SE:LV","wikidata":"Q2701420"},"3146887":{"ref":"256","name":"Länsväg 256","type":"route","route":"road","network":"SE:LV","wikidata":"Q10572127"},"3146889":{"ref":"254","name":"Länsväg 254","type":"route","route":"road","network":"SE:LV","wikidata":"Q10572126"},"3147079":{"ref":"233","name":"Länsväg 233","type":"route","route":"road","network":"SE:LV","wikidata":"Q10572113"},"3147122":{"ref":"246","name":"Länsväg 246","type":"route","route":"road","network":"SE:LV","wikidata":"Q2182668"},"3150341":{"ref":"29","name":"Riksväg 29","type":"route","route":"road","network":"SE:RV","wikidata":"Q10655325"},"3179564":{"ref":"E 18","name":"E 18 Sweden","type":"route","route":"road","name:en":"European route E 18","name:nl":"E 18 Zweden","name:ru":"Европейский маршрут E 18","network":"e-road","section":"Sweden"},"3412790":{"name":"Kopparleden","type":"route","route":"road","website":"http://www.visitkopparleden.com","description":"Kopparledens huvudsträcka går mellan de båda kopparstäderna Falun i Sverige och Røros i Norge.","description:sv":"Kopparledens huvudsträcka går mellan de båda kopparstäderna Falun i Sverige och Röros i Norge."},"3423383":{"ref":"373","name":"Länsväg 373","type":"route","route":"road","network":"SE:LV","wikidata":"Q10572194"},"3891280":{"name":"Länsväg 865","type":"route","route":"road","network":"SE:BD","unsigned_ref":"865"},"3919564":{"name":"Länsväg 648","type":"route","route":"road","network":"SE:S","unsigned_ref":"648"},"3963571":{"ref":"122","name":"Länsväg 122","type":"route","route":"road","network":"SE:LV","wikidata":"Q10572024"},"3963583":{"ref":"127","name":"Länsväg 127","type":"route","route":"road","network":"SE:LV","wikidata":"Q10572029"},"4054714":{"ref":"137","name":"Länsväg 137","type":"route","route":"road","network":"SE:LV","wikidata":"Q1911681"},"4054833":{"ref":"136","name":"Länsväg 136","type":"route","route":"road","network":"SE:LV","wikidata":"Q3543331"},"4646219":{"name":"E 6.20 From north to south","type":"route","route":"road","int_ref":"E 06.20"},"4655110":{"name":"Arlandaleden","type":"route","route":"road","source":"NVDB"},"4751857":{"name":"Stocksundsron","type":"route","route":"road"},"5833018":{"name":"C-ring","type":"route","route":"road","alt_name":"Centrumringen"},"6040711":{"name":"E 4.05","type":"route","route":"road","network":"e-road","unsigned_ref":"E 4.05"},"6040838":{"name":"Länsväg 5006","type":"route","route":"road","network":"SE:E","unsigned_ref":"5006"},"6040839":{"name":"Länsväg 5008","type":"route","route":"road","network":"SE:E","unsigned_ref":"5008"},"6040840":{"name":"Länsväg 5014","type":"route","route":"road","network":"SE:E","unsigned_ref":"5014"},"6040841":{"name":"Länsväg 5034","type":"route","route":"road","network":"SE:E","unsigned_ref":"5034"},"6040842":{"name":"Länsväg 5037","type":"route","route":"road","network":"SE:E","unsigned_ref":"5037"},"6124177":{"name":"W 1022","type":"route","route":"road"},"6360286":{"ref":"131","name":"Länsväg 131","type":"route","route":"road","network":"SE:LV","wikidata":"Q10572033"},"6360287":{"ref":"134","name":"Länsväg 134","type":"route","route":"road","network":"SE:LV","wikidata":"Q10572036"},"6360288":{"ref":"135","name":"Länsväg 135","type":"route","route":"road","network":"SE:LV","wikidata":"Q10572037"},"6360289":{"ref":"206","name":"Länsväg 206","type":"route","route":"road","network":"SE:LV","wikidata":"Q10572093"},"6440072":{"name":"Tre sjöars väg","type":"route","route":"road","tourism":"attraction"},"6454065":{"name":"Vildmarksvägen","type":"route","route":"road","scenic":"yes"},"6474659":{"ref":"140","name":"Länsväg 140","type":"route","route":"road","network":"SE:LV","wikidata":"Q10572039"},"6474660":{"ref":"141","name":"Länsväg 141","type":"route","route":"road","network":"SE:LV","wikidata":"Q10572038"},"6474661":{"ref":"142","name":"Länsväg 142","type":"route","route":"road","network":"SE:LV","wikidata":"Q10572041"},"6474662":{"ref":"143","name":"Länsväg 143","type":"route","route":"road","network":"SE:LV","wikidata":"Q10572040"},"6474663":{"ref":"144","name":"Länsväg 144","type":"route","route":"road","network":"SE:LV","wikidata":"Q10572042"},"6474664":{"ref":"146","name":"Länsväg 146","type":"route","route":"road","network":"SE:LV","wikidata":"Q10572043"},"6474665":{"ref":"147","name":"Länsväg 147","type":"route","route":"road","network":"SE:LV","wikidata":"Q10572045"},"6474666":{"ref":"148","name":"Länsväg 148","type":"route","route":"road","network":"SE:LV","wikidata":"Q10572044"},"6474667":{"ref":"149","name":"Länsväg 149","type":"route","route":"road","network":"SE:LV","wikidata":"Q10572046"},"6481050":{"name":"Silvervägen","type":"route","route":"road","historic":"yes"},"6607238":{"ref":"128","name":"Länsväg 128","type":"route","route":"road","network":"SE:LV","wikidata":"Q10572030"},"6607239":{"ref":"129","name":"Länsväg 129","type":"route","route":"road","network":"SE:LV","wikidata":"Q10572031"},"6607240":{"ref":"130","name":"Länsväg 130","type":"route","route":"road","network":"SE:LV","wikidata":"Q10572032"},"6607241":{"ref":"132","name":"Länsväg 132","type":"route","route":"road","network":"SE:LV","wikidata":"Q10572034"},"6607242":{"ref":"133","name":"Länsväg 133","type":"route","route":"road","network":"SE:LV","wikidata":"Q10572035"},"6610234":{"ref":"150","name":"Länsväg 150","type":"route","route":"road","network":"SE:LV","wikidata":"Q10572047","wikipedia":"sv:Länsväg 150"},"6610235":{"ref":"151","name":"Länsväg 151","type":"route","route":"road","network":"SE:LV","wikidata":"Q10572048"},"6610236":{"ref":"152","name":"Länsväg 152","type":"route","route":"road","network":"SE:LV","wikidata":"Q10572049"},"6610237":{"ref":"153","name":"Länsväg 153","type":"route","route":"road","network":"SE:LV","wikidata":"Q10572050"},"6610238":{"ref":"154","name":"Länsväg 154","type":"route","route":"road","network":"SE:LV","wikidata":"Q10572051"},"6612167":{"ref":"157","name":"Länsväg 157","type":"route","route":"road","network":"SE:LV","wikidata":"Q10572054"},"6612168":{"ref":"158","name":"Länsväg 158","type":"route","route":"road","network":"SE:LV","wikidata":"Q10572055"},"6612170":{"ref":"161","name":"Länsväg 161","type":"route","route":"road","network":"SE:LV","wikidata":"Q10572056"},"6612171":{"ref":"162","name":"Länsväg 162","type":"route","route":"road","network":"SE:LV","wikidata":"Q10572059","description":"Gläborgsmotet - Lysekil"},"6612172":{"ref":"163","name":"Länsväg 163","type":"route","route":"road","network":"SE:LV","wikidata":"Q10572058"},"6612173":{"ref":"165","name":"Länsväg 165","type":"route","route":"road","network":"SE:LV","wikidata":"Q10572061","description":"Riksgränsen - Gläborgsmotet"},"6612174":{"ref":"166","name":"Länsväg 166","type":"route","route":"road","network":"SE:LV","wikidata":"Q10572063","description":"Riksgränsen - Mellerud"},"6612175":{"ref":"167","name":"Länsväg 167","type":"route","route":"road","network":"SE:LV","wikidata":"Q10572062"},"6614423":{"ref":"170","name":"Länsväg 170","type":"route","route":"road","network":"SE:LV","wikidata":"Q10572066"},"6614424":{"ref":"171","name":"Länsväg 171","type":"route","route":"road","network":"SE:LV","wikidata":"Q10572067","description":"Ödby - Hallinden"},"6614425":{"ref":"172","name":"Länsväg 172","type":"route","route":"road","network":"SE:LV","wikidata":"Q10572068","description":"Kurödsmotet - Bengtsfors (Strömgatan, Karlsbergsvägen)"},"6614426":{"ref":"173","name":"Länsväg 173","type":"route","route":"road","network":"SE:LV","wikidata":"Q10572069","description":"Färgelanda - Dykälla"},"6614428":{"ref":"176","name":"Länsväg 176","type":"route","route":"road","network":"SE:LV","wikidata":"Q10572071"},"6614429":{"ref":"177","name":"Länsväg 177","type":"route","route":"road","network":"SE:LV","wikidata":"Q10572074"},"6614430":{"ref":"178","name":"Länsväg 178","type":"route","route":"road","network":"SE:LV","wikidata":"Q10572073"},"6614431":{"ref":"180","name":"Länsväg 180","type":"route","route":"road","network":"SE:LV","wikidata":"Q10572075"},"6614432":{"ref":"181","name":"Länsväg 181","type":"route","route":"road","network":"SE:LV","wikidata":"Q10572076"},"6614433":{"ref":"182","name":"Länsväg 182","type":"route","route":"road","network":"SE:LV","wikidata":"Q10572077"},"6614434":{"ref":"183","name":"Länsväg 183","type":"route","route":"road","network":"SE:LV","wikidata":"Q10572078"},"6614435":{"ref":"184","name":"Länsväg 184","type":"route","route":"road","network":"SE:LV","wikidata":"Q10572079"},"6614436":{"ref":"185","name":"Länsväg 185","type":"route","route":"road","network":"SE:LV","wikidata":"Q10572080"},"6614437":{"ref":"186","name":"Länsväg 186","type":"route","route":"road","network":"SE:LV","wikidata":"Q10572082"},"6614438":{"ref":"187","name":"Länsväg 187","type":"route","route":"road","network":"SE:LV","wikidata":"Q10572081"},"6614439":{"ref":"190","name":"Länsväg 190","type":"route","route":"road","network":"SE:LV","wikidata":"Q10572083"},"6614441":{"ref":"193","name":"Länsväg 193","type":"route","route":"road","network":"SE:LV","wikidata":"Q10572084"},"6614442":{"ref":"194","name":"Länsväg 194","type":"route","route":"road","network":"SE:LV","wikidata":"Q10572085"},"6614443":{"ref":"195","name":"Länsväg 195","type":"route","route":"road","network":"SE:LV","wikidata":"Q10572086"},"6616029":{"ref":"204","name":"Länsväg 204","type":"route","route":"road","network":"SE:LV","wikidata":"Q10572090"},"6616030":{"ref":"205","name":"Länsväg 205","type":"route","route":"road","network":"SE:LV","wikidata":"Q10572091"},"6616031":{"ref":"207","name":"Länsväg 207","type":"route","route":"road","network":"SE:LV","wikidata":"Q10572092"},"6624036":{"ref":"213","name":"Länsväg 213","type":"route","route":"road","network":"SE:LV","wikidata":"Q10572098"},"6624037":{"ref":"214","name":"Länsväg 214","type":"route","route":"road","network":"SE:LV","wikidata":"Q10572099"},"6624038":{"ref":"216","name":"Länsväg 216","type":"route","route":"road","network":"SE:LV","wikidata":"Q10572101"},"6624039":{"ref":"218","name":"Länsväg 218","type":"route","route":"road","network":"SE:LV","wikidata":"Q10572102"},"6624040":{"ref":"219","name":"Länsväg 219","type":"route","route":"road","network":"SE:LV","wikidata":"Q10572103"},"6624041":{"ref":"221","name":"Länsväg 221","type":"route","route":"road","network":"SE:LV","wikidata":"Q10572104"},"6624042":{"ref":"222","name":"Länsväg 222","type":"route","route":"road","network":"SE:LV","wikidata":"Q10572106"},"6624043":{"ref":"223","name":"Länsväg 223","type":"route","route":"road","network":"SE:LV","wikidata":"Q10572105"},"6624045":{"ref":"224","name":"Länsväg 224","type":"route","route":"road","network":"SE:LV","wikidata":"Q10572107"},"6624046":{"ref":"225","name":"Länsväg 225","type":"route","route":"road","network":"SE:LV","wikidata":"Q10572108"},"6624047":{"ref":"226","name":"Länsväg 226","type":"route","route":"road","network":"SE:LV","wikidata":"Q10572109"},"6624048":{"ref":"227","name":"Länsväg 227","type":"route","route":"road","network":"SE:LV","wikidata":"Q10572111"},"6624049":{"ref":"229","name":"Länsväg 229","type":"route","route":"road","network":"SE:LV","wikidata":"Q7654923"},"6624050":{"ref":"230","name":"Länsväg 230","type":"route","route":"road","network":"SE:LV","wikidata":"Q10572110"},"6630271":{"ref":"236","name":"Länsväg 236","type":"route","route":"road","network":"SE:LV","wikidata":"Q10572112"},"6630272":{"ref":"237","name":"Länsväg 237","type":"route","route":"road","network":"SE:LV","wikidata":"Q10572114"},"6630273":{"ref":"238","name":"Länsväg 238","type":"route","route":"road","network":"SE:LV","wikidata":"Q10572115"},"6630274":{"ref":"239","name":"Länsväg 239","type":"route","route":"road","network":"SE:LV","wikidata":"Q10572117"},"6630275":{"ref":"240","name":"Länsväg 240","type":"route","route":"road","network":"SE:LV","wikidata":"Q10572116"},"6630276":{"ref":"241","name":"Länsväg 241","type":"route","route":"road","network":"SE:LV","wikidata":"Q10572119"},"6630277":{"ref":"243","name":"Länsväg 243","type":"route","route":"road","network":"SE:LV","wikidata":"Q10572118"},"6630278":{"ref":"244","name":"Länsväg 244","type":"route","route":"road","network":"SE:LV","wikidata":"Q10572120"},"6993393":{"ref":"W 640","name":"W 640","type":"route","route":"road","reg_ref":"640"},"7084218":{"ref":"E 20","name":"E 20 Hallands län","type":"route","route":"road","network":"e-road","section":"Hallands län"},"7084261":{"ref":"E 20","name":"E 20 Örebro län","type":"route","route":"road","network":"e-road","section":"Örebro län"},"7084270":{"ref":"E 20","name":"E 20 Västmanlands län","type":"route","route":"road","network":"e-road","section":"Västmanlands län"},"7084368":{"ref":"E 20","name":"E 20 Södermanlands län","type":"route","route":"road","network":"e-road","section":"Södermanlands län"},"7084391":{"ref":"E 20","name":"E 20 Stockholms län","type":"route","route":"road","network":"e-road","section":"Stockholms län"},"7098694":{"ref":"261","name":"Länsväg 261","type":"route","route":"road","network":"SE:LV","wikidata":"Q10572131"},"7098695":{"ref":"260","name":"Länsväg 260","type":"route","route":"road","network":"SE:LV","wikidata":"Q7654925"},"7098696":{"ref":"259","name":"Länsväg 259","type":"route","route":"road","network":"SE:LV","wikidata":"Q10572130"},"7098697":{"ref":"258","name":"Länsväg 258","type":"route","route":"road","network":"SE:LV","wikidata":"Q10572128"},"7098698":{"ref":"257","name":"Länsväg 257","type":"route","route":"road","network":"SE:LV","wikidata":"Q10572129"},"7098699":{"ref":"255","name":"Länsväg 255","type":"route","route":"road","network":"SE:LV","wikidata":"Q10572125"},"7098700":{"ref":"252","name":"Länsväg 252","type":"route","route":"road","network":"SE:LV","wikidata":"Q10572123"},"7098701":{"ref":"250","name":"Länsväg 250","type":"route","route":"road","network":"SE:LV","wikidata":"Q10572121"},"7098702":{"ref":"249","name":"Länsväg 249","type":"route","route":"road","network":"SE:LV","wikidata":"Q10572122"},"7101532":{"ref":"271","name":"Länsväg 271","type":"route","route":"road","network":"SE:LV","wikidata":"Q10572140"},"7101533":{"ref":"269","name":"Länsväg 269","type":"route","route":"road","network":"SE:LV","wikidata":"Q10572138"},"7101534":{"ref":"268","name":"Länsväg 268","type":"route","route":"road","network":"SE:LV","wikidata":"Q10572137"},"7101535":{"ref":"267","name":"Länsväg 267","type":"route","route":"road","network":"SE:LV","wikidata":"Q10572135"},"7101536":{"ref":"265","name":"Länsväg 265","type":"route","route":"road","network":"SE:LV","wikidata":"Q10572136"},"7101537":{"ref":"264","name":"Länsväg 264","type":"route","route":"road","network":"SE:LV","wikidata":"Q10572134"},"7101538":{"ref":"263","name":"Länsväg 263","type":"route","route":"road","network":"SE:LV","wikidata":"Q10572133"},"7101539":{"ref":"262","name":"Länsväg 262","type":"route","route":"road","network":"SE:LV","wikidata":"Q10572132"},"7105206":{"ref":"276","name":"Länsväg 276","type":"route","route":"road","network":"SE:LV","wikidata":"Q10572145"},"7105207":{"ref":"275","name":"Länsväg 275","type":"route","route":"road","network":"SE:LV","wikidata":"Q10572144"},"7105208":{"ref":"274","name":"Länsväg 274","type":"route","route":"road","network":"SE:LV","wikidata":"Q10572143"},"7105209":{"ref":"273","name":"Länsväg 273","type":"route","route":"road","network":"SE:LV","wikidata":"Q10572142"},"7105463":{"ref":"291","name":"Länsväg 291","type":"route","route":"road","network":"SE:LV","wikidata":"Q10572155"},"7105464":{"ref":"290","name":"Länsväg 290","type":"route","route":"road","network":"SE:LV","wikidata":"Q10572154"},"7105465":{"ref":"288","name":"Länsväg 288","type":"route","route":"road","network":"SE:LV","wikidata":"Q10572153"},"7105466":{"ref":"282","name":"Länsväg 282","type":"route","route":"road","network":"SE:LV","wikidata":"Q10572150"},"7105467":{"ref":"280","name":"Länsväg 280","type":"route","route":"road","network":"SE:LV","wikidata":"Q10572149"},"7105468":{"ref":"279","name":"Länsväg 279","type":"route","route":"road","network":"SE:LV","wikidata":"Q10572148"},"7106477":{"ref":"344","name":"Länsväg 344","type":"route","route":"road","network":"SE:LV","wikidata":"Q10572181"},"7106478":{"ref":"342","name":"Länsväg 342","type":"route","route":"road","network":"SE:LV","wikidata":"Q10572182"},"7106479":{"ref":"340","name":"Länsväg 340","type":"route","route":"road","network":"SE:LV","wikidata":"Q10572180"},"7106480":{"ref":"339","name":"Länsväg 339","type":"route","route":"road","network":"SE:LV","wikidata":"Q10572179"},"7106481":{"ref":"336","name":"Länsväg 336","type":"route","route":"road","network":"SE:LV","wikidata":"Q10572178"},"7106482":{"ref":"323","name":"Länsväg 323","type":"route","route":"road","network":"SE:LV","wikidata":"Q10572171"},"7106483":{"ref":"322","name":"Länsväg 322","type":"route","route":"road","network":"SE:LV","wikidata":"Q10572170"},"7106484":{"ref":"321","name":"Länsväg 321","type":"route","route":"road","network":"SE:LV","wikidata":"Q2192240"},"7106536":{"ref":"372","name":"Länsväg 372","type":"route","route":"road","network":"SE:LV","wikidata":"Q10572193"},"7422594":{"name":"Länsväg 699","type":"route","route":"road","network":"SE:AC","unsigned_ref":"699"},"7461620":{"name":"Cityringen","type":"route","route":"road"},"7752418":{"name":"Strandvägen","type":"route","route":"road","wikidata":"Q41507215"},"7753757":{"name":"Wismargränd","type":"route","route":"road","wikidata":"Q41411355"},"7753758":{"name":"Smedjegatan","type":"route","route":"road","wikidata":"Q41445652"},"7753759":{"name":"Skolgatan","type":"route","route":"road","wikidata":"Q41327814"},"7753760":{"name":"Hästgatan","type":"route","route":"road","wikidata":"Q41173188"},"7753761":{"name":"Uddens gränd","type":"route","route":"road","wikidata":"Q41423302"},"7753762":{"name":"Södra Murgatan","type":"route","route":"road","wikidata":"Q41531188"},"7753763":{"name":"Vårklockegatan","type":"route","route":"road","wikidata":"Q41409304"},"7753764":{"name":"Blekhagsbacken","type":"route","route":"road","wikidata":"Q41104728"},"7753765":{"name":"Visborgsgatan","type":"route","route":"road","wikidata":"Q41418684"},"7753766":{"name":"Skeppsbrogränd","type":"route","route":"road","wikidata":"Q41310205"},"7753767":{"name":"Hamngatan","type":"route","route":"road","wikidata":"Q41172716"},"7754192":{"name":"Tunnbindaregatan","type":"route","route":"road","wikidata":"Q41428676"},"7754193":{"name":"Odalgatan","type":"route","route":"road","wikidata":"Q41230436"},"7909852":{"name":"Strandgatan","type":"route","route":"road","wikidata":"Q38003631"},"7909855":{"name":"Trappgränd","type":"route","route":"road"},"8906688":{"name":"Riddargatan","type":"route","route":"road"},"9060425":{"name":"Länsväg 503","type":"route","route":"road","network":"SE:BD","unsigned_ref":"503"},"9060451":{"name":"Länsväg 501","type":"route","route":"road","network":"SE:BD","unsigned_ref":"501"},"9060459":{"name":"Länsväg 502","type":"route","route":"road","network":"SE:BD","unsigned_ref":"502"},"9176330":{"name":"Sångbäcksvägen","type":"route","route":"road"},"9176331":{"name":"Toppvägen","type":"route","route":"road"},"9176332":{"name":"Öringsvägen","type":"route","route":"road"},"9176333":{"name":"Harrströmsvägen","type":"route","route":"road"},"9176334":{"name":"Ekorrvägen","type":"route","route":"road"},"9984495":{"name":"Orrsjövägen","type":"route","route":"road"},"11351171":{"name":"Humleslingan","type":"route","route":"road","scenic":"yes"},"11516991":{"ref":"O 2890","name":"Nolhagavägen","type":"route","route":"road"},"11733695":{"name":"Ogviksvägen","type":"route","route":"road"},"13608305":{"ref":"B 31","name":"Bundesstraße 31 (TMC)","type":"route","route":"road","operator":"Bundesrepublik Deutschland","wikidata":"Q34520","wikipedia":"de:Bundesstraße 31","TMC:cid_58:tabcd_1:Class":"Road","TMC:cid_58:tabcd_1:LCLversion":"9.00"},"13872987":{"ref":"3","name":"Carretera Centroamericana 3","type":"route","route":"road","network":"sv:ca"},"14224341":{"name":"Länsväg 796","type":"route","route":"road","network":"SE:E","unsigned_ref":"796"},"14249523":{"name":"Länsväg 5000","type":"route","route":"road","network":"SE:E","unsigned_ref":"5000"},"14249524":{"name":"E 4.21","type":"route","route":"road","network":"e-road","unsigned_ref":"E 4.21"},"14249525":{"name":"E 4.04","type":"route","route":"road","network":"e-road","unsigned_ref":"E 4.04"},"14345148":{"to":"Länsväg 154","ref":"760","via":"Tvååker","from":"Varberg","name":"Länsväg N 760","type":"route","route":"road","wikidata":"Q10572306"},"14940413":{"to":"Öckerö","ref":"155","from":"Göteborg","name":"Länsväg 155","type":"route","route":"road","network":"SE:LV","wikidata":"Q10572052","description":"Hönö Rödsund - Göteborg Vädermotet"},"14955298":{"to":"Ullared","ref":"N 782","via":"Svartrå","from":"Köinge","name":"Länsväg N 782","type":"route","route":"road","network":"SE:LV","wikidata":"Q119576045"},"14965885":{"name":"I 840 (super)","type":"route","route":"road","network":"US:I"},"15984373":{"ref":"786","name":"Länsväg N 786","type":"route","route":"road","network":"SE:LV","wikidata":"Q119576097"}}