{"37872":{"ref":"D1","name":"D1 motorway (Slovakia)","type":"route","route":"road","name:cs":"Dálnice D1 (Slovensko)","name:de":"Autobahn D1 (Slowakei)","name:en":"D1 motorway (Slovakia)","name:hu":"D1-es autópálya (Szlovákia)","name:pl":"Autostrada D1 (Słowacja)","name:sk":"Diaľnica D1","network":"sk:national","wikidata":"Q763202","wikipedia":"sk:Diaľnica D1 (Slovensko)"},"38345":{"ref":"E 71","name":"European route E 71","type":"route","route":"road","name:en":"European route E 71","name:fr":"Route européenne E 71","name:hr":"Europski pravac 71","name:nl":"Europese route E71","name:sk":"Európska cesta E 71","network":"e-road","wikidata":"Q1375976","wikipedia":"en:European route E71","e-road:class":"A-intermediate","description:fr":"E 71 Košice - Split"},"38441":{"ref":"E 575","name":"European route E 575","type":"route","route":"road","name:en":"European route E 575","name:fr":"Route européenne E 575","name:nl":"Europese route E575","name:no":"Europavei 575","name:pl":"E575","name:sk":"Európska cesta E 575","name:sv":"E575","network":"e-road","wikidata":"Q2078433","wikipedia":"sk:Európska cesta 575","description:fr":"E 575 Bratislava - Győr"},"375187":{"ref":"D3","name":"D3 motorway (Slovakia)","type":"route","route":"road","name:cs":"Dálnice D3 (Slovensko)","name:de":"Autobahn D3 (Slowakei)","name:en":"D3 motorway (Slovakia)","name:hu":"D3-as autópálya (Szlovákia)","name:pl":"Autostrada D3 (Słowacja)","name:sk":"Diaľnica D3","network":"sk:national","wikidata":"Q1209281","wikipedia":"sk:Diaľnica D3 (Slovensko)"},"376256":{"ref":"R1","name":"R1 expressway (Slovakia)","type":"route","route":"road","name:cs":"Rychlostní silnice R1 (Slovensko)","name:de":"Schnellstraße R1 (Slowakei)","name:en":"R1 expressway (Slovakia)","name:hu":"R1-es autóút (Szlovákia)","name:pl":"Droga ekspresowa R1 (Słowacja)","name:sk":"Rýchlostná cesta R1","network":"sk:national","wikidata":"Q1478472","wikipedia":"sk:Rýchlostná cesta R1 (Slovensko)"},"376258":{"ref":"R2","name":"R2 expressway (Slovakia)","type":"route","route":"road","name:cs":"Rychlostní silnice R2 (Slovensko)","name:de":"Schnellstraße R2 (Slowakei)","name:en":"R2 expressway (Slovakia)","name:hu":"R2-es autóút (Szlovákia)","name:pl":"Droga ekspresowa R2 (Słowacja)","name:sk":"Rýchlostná cesta R2","network":"sk:national","wikidata":"Q137807","wikipedia":"sk:Rýchlostná cesta R2 (Slovensko)"},"2093768":{"ref":"E 75","name":"European route E 75 (Slovakia)","note":"Slovakia","type":"route","route":"road","name:bg":"Европейски път E75","name:bs":"Evropski put E75","name:cs":"Evropská silnice E75 (Slovensko)","name:da":"Europavej E75","name:de":"Europastraße 75","name:el":"Ευρωπαϊκή Οδός 75","name:en":"European route E 75 (Slovakia)","name:es":"Ruta europea E75","name:fi":"E75","name:fr":"route européenne 75","name:hr":"Autocesta E75","name:hu":"E75 (európai út)","name:it":"Strada europea E75","name:ja":"E75号線","name:mk":"Европски пат Е75","name:nl":"Europese route E75 (Slowakije)","name:nn":"Europaveg 75","name:no":"Europavei 75","name:pl":"Trasa europejska 75","name:ro":"Drumul european E75","name:ru":"Европейский маршрут E 75","name:sk":"Európska cesta E 75 (Slovensko)","name:sl":"Evropska pot E75","name:sr":"Европски пут Е75","name:sv":"E75","network":"e-road","wikidata":"Q638912","wikipedia":"en:European route E75"},"2121922":{"ref":"E 571","name":"European route E 571","type":"route","route":"road","name:en":"European route E 571","name:fr":"Route européenne E 571","name:nl":"Europese route E571","name:pl":"E571 Bratysława - Koszyce","name:ru":"Европейский маршрут E 571","name:sk":"Európska cesta E 571","network":"e-road","wikidata":"Q2438196","wikipedia":"en:European route E571","description:fr":"E 571 Bratislava - Košice"},"2122034":{"ref":"E 572","name":"European route E 572","type":"route","route":"road","name:en":"European route E 572","name:fr":"Route européenne E 572","name:nl":"Europese route E572","name:ru":"Европейский маршрут E 572","name:sk":"Európska cesta E 572","network":"e-road","wikidata":"Q2791074","wikipedia":"sk:Európska cesta 572","description:fr":"E 572 Trenčín - Žiar nad Hronom"},"2306513":{"ref":"E 50","name":"European route E 50 (Slovakia)","type":"route","route":"road","name:cs":"Evropská silnice E50 (Slovensko)","name:fr":"Route européenne E 50","name:nl":"Europese route E50 (Slowakije)","name:pl":"Trasa europejska E 50","name:ru":"Европейский маршрут E 50","name:sk":"Európska cesta E 50 (Slovensko)","name:uk":"Європейський автошлях E 50 (Словаччина)","network":"e-road","section":"Slovensko","wikidata":"Q687438","wikipedia":"en:European route E50"},"2306542":{"ref":"E 50","name":"European Road E50 (Czechia)","type":"route","route":"road","name:cs":"Evropská silnice E50 (Česko)","name:de":"Europastraße 50 (Tschechien)","name:nl":"Europese route E50 (Tsjechië)","name:pl":"Trasa europejska E50 (Czechy)","name:ru":"Европейский маршрут E 50","name:uk":"Європейський автошлях E 50 (Чехія)","network":"e-road","section":"Cesko","wikidata":"Q687438","wikipedia":"en:European route E50"},"2399354":{"ref":"E 58","name":"European route E 58 (Austria)","type":"route","route":"road","name:cs":"Evropská silnice E58 (Rakousko)","name:en":"European route E 58 (Austria)","name:nl":"Europese route E58 (Oostenrijk)","name:sk":"Európska cesta E 58 (Rakúsko)","network":"e-road","section":"Austria"},"2399356":{"ref":"E 58","name":"European route E 58 (Slovakia)","type":"route","route":"road","name:cs":"Evropská silnice E58 (Slovensko)","name:de":"Europastraße 58","name:en":"European route E 58 (Slovakia)","name:fr":"Route européenne E 58","name:nl":"Europese route E58 (Slowakije)","name:pl":"Trasa europejska E58","name:ru":"Европейский маршрут E 58","name:sk":"Európska cesta E 58 (Slovensko)","network":"e-road","section":"Slovakia","wikidata":"Q180384","wikipedia":"sk:Európska cesta 58"},"2730586":{"ref":"D4","name":"D4 motorway (Slovakia)","type":"route","route":"road","name:cs":"Dálnice D4 (Slovensko)","name:de":"Autobahn D4 (Slowakei)","name:en":"D4 motorway (Slovakia)","name:hu":"D4-es autópálya (Szlovákia)","name:pl":"Autostrada D4 (Słowacja)","name:sk":"Diaľnica D4","network":"sk:national","wikidata":"Q1209288","wikipedia":"sk:Diaľnica D4 (Slovensko)"},"3261811":{"ref":"49517","name":"Silnice III/49517","type":"route","route":"road","network":"cz:regional"},"3268646":{"ref":"05751","name":"Silnice III/05751","type":"route","route":"road","network":"cz:regional"},"5724057":{"name":"Masarykova cesta","note":"http://spravy.pravda.sk/ekonomika/clanok/376146-tisovec-a-brezno-opat-spaja-masarykova-cesta/","type":"route","route":"road"},"6303926":{"name":"Mestský okruh číslo 1","type":"route","route":"road"},"10384264":{"ref":"R6","name":"R6 expressway (Slovakia)","type":"route","route":"road","name:cs":"Rychlostní silnice R6 (Slovensko)","name:de":"Schnellstraße R6 (Slowakei)","name:en":"R6 expressway (Slovakia)","name:hu":"R6-es autóút (Szlovákia)","name:pl":"Droga ekspresowa R6 (Słowacja)","name:sk":"Rýchlostná cesta R6","network":"sk:national","wikidata":"Q944438","wikipedia":"sk:Rýchlostná cesta R6 (Slovensko)"},"11139890":{"ref":"R4","name":"R4 expressway (Slovakia)","type":"route","route":"road","name:cs":"Rychlostní silnice R4 (Slovensko)","name:de":"Schnellstraße R4 (Slowakei)","name:en":"R4 expressway (Slovakia)","name:hu":"R4-es autóút (Szlovákia)","name:pl":"Droga ekspresowa R4 (Słowacja)","name:sk":"Rýchlostná cesta R4","network":"sk:national","distance":"73.9 km","int_name":"Via Carpatia","wikidata":"Q900574","wikipedia":"sk:Rýchlostná cesta R4 (Slovensko)"},"11377522":{"ref":"2013","name":"Cesta III. triedy číslo 2013","type":"route","route":"road","distance":"9.054 km","wikidata":"Q46227969","wikipedia":"sk:Cesta III. triedy 2013 (Slovensko)"},"12106488":{"ref":"R3","name":"R3 expressway (Slovakia)","type":"route","route":"road","name:cs":"Rychlostní silnice R3 (Slovensko)","name:de":"Schnellstraße R3 (Slowakei)","name:en":"R3 expressway (Slovakia)","name:hu":"R3-es autóút (Szlovákia)","name:pl":"Droga ekspresowa R3 (Słowacja)","name:sk":"Rýchlostná cesta R3","network":"sk:national","wikidata":"Q1139911","wikipedia":"sk:Rýchlostná cesta R3 (Slovensko)"},"12106492":{"ref":"R7","name":"R7 expressway (Slovakia)","type":"route","route":"road","name:cs":"Rychlostní silnice R7 (Slovensko)","name:de":"Schnellstraße R7 (Slowakei)","name:en":"R7 expressway (Slovakia)","name:hu":"R7-es autóút (Szlovákia)","name:pl":"Droga ekspresowa R7 (Słowacja)","name:sk":"Rýchlostná cesta R7","network":"sk:national","wikidata":"Q1139900","wikipedia":"sk:Rýchlostná cesta R7 (Slovensko)"},"12109687":{"ref":"R1a","name":"R1a expressway (Slovakia)","type":"route","route":"road","name:cs":"Rychlostní silnice R1a (Slovensko)","name:de":"Schnellstraße R1a (Slowakei)","name:en":"R1a expressway (Slovakia)","name:hu":"R1a-es autóút (Szlovákia)","name:pl":"Droga ekspresowa R1a (Słowacja)","name:sk":"Rýchlostná cesta R1a","network":"sk:national"},"12125194":{"ref":"R7","name":"R7 expressway proposed (Slovakia)","type":"route","route":"road","name:en":"R7 expressway proposed (Slovakia)","name:sk":"Rýchlostná cesta R7 v príprave","network":"sk:national","wikidata":"Q1139900","wikipedia":"sk:Rýchlostná cesta R7 (Slovensko)"},"12125196":{"ref":"R6","name":"R6 expressway proposed (Slovakia)","type":"route","route":"road","name:en":"R6 expressway proposed (Slovakia)","name:sk":"Rýchlostná cesta R6 v príprave","network":"sk:national","wikidata":"Q944438","wikipedia":"sk:Rýchlostná cesta R6 (Slovensko)"},"12125198":{"ref":"R5","name":"R5 expressway proposed (Slovakia)","type":"route","route":"road","name:en":"R5 expressway proposed (Slovakia)","name:sk":"Rýchlostná cesta R5 v príprave","network":"sk:national","wikidata":"Q957482","wikipedia":"sk:Rýchlostná cesta R5 (Slovensko)"},"12125199":{"ref":"R4","name":"R4 expressway proposed (Slovakia)","type":"route","route":"road","name:en":"R4 expressway proposed (Slovakia)","name:sk":"Rýchlostná cesta R4 v príprave","network":"sk:national","wikidata":"Q900574","wikipedia":"sk:Rýchlostná cesta R4 (Slovensko)"},"12125200":{"ref":"R4","name":"R4 expressway in construction (Slovakia)","type":"route","route":"road","name:en":"R4 expressway in construction (Slovakia)","name:sk":"Rýchlostná cesta R4 vo výstavbe","network":"sk:national","wikidata":"Q900574","wikipedia":"sk:Rýchlostná cesta R4 (Slovensko)"},"12125201":{"ref":"R3","name":"R3 expressway proposed (Slovakia)","type":"route","route":"road","name:en":"R3 expressway proposed (Slovakia)","name:sk":"Rýchlostná cesta R3 v príprave","network":"sk:national","wikidata":"Q1139911","wikipedia":"sk:Rýchlostná cesta R3 (Slovensko)"},"12125202":{"ref":"R3","name":"R3 expressway in construction (Slovakia)","type":"route","route":"road","name:en":"R3 expressway in construction (Slovakia)","name:sk":"Rýchlostná cesta R3 vo výstavbe","network":"sk:national","wikidata":"Q1139911","wikipedia":"sk:Rýchlostná cesta R3 (Slovensko)"},"12125205":{"ref":"R2","name":"R2 expressway proposed (Slovakia)","type":"route","route":"road","name:en":"R2 expressway proposed (Slovakia)","name:sk":"Rýchlostná cesta R2 v príprave","network":"sk:national","wikidata":"Q137807","wikipedia":"sk:Rýchlostná cesta R2 (Slovensko)"},"12125206":{"ref":"R2","name":"R2 expressway in construction (Slovakia)","type":"route","route":"road","name:en":"R2 expressway in construction (Slovakia)","name:sk":"Rýchlostná cesta R2 vo výstavbe","network":"sk:national","wikidata":"Q137807","wikipedia":"sk:Rýchlostná cesta R2 (Slovensko)"},"12125207":{"ref":"R1","name":"R1 expressway proposed (Slovakia)","type":"route","route":"road","name:en":"R1 expressway proposed (Slovakia)","name:sk":"Rýchlostná cesta R1 v príprave","network":"sk:national","wikidata":"Q1478472","wikipedia":"sk:Rýchlostná cesta R1 (Slovensko)"},"12125208":{"ref":"D4","name":"D4 motorway proposed (Slovakia)","type":"route","route":"road","name:en":"D4 motorway proposed (Slovakia)","name:sk":"Diaľnica D4 v príprave","network":"sk:national","wikidata":"Q1209288","wikipedia":"sk:Diaľnica D4 (Slovensko)"},"12125210":{"ref":"D3","name":"D3 motorway proposed (Slovakia)","type":"route","route":"road","name:en":"D3 motorway proposed (Slovakia)","name:sk":"Diaľnica D3 v príprave","network":"sk:national","wikidata":"Q1209281","wikipedia":"sk:Diaľnica D3 (Slovensko)"},"12125211":{"ref":"D1","name":"D1 motorway proposed (Slovakia)","type":"route","route":"road","name:en":"D1 motorway proposed (Slovakia)","name:sk":"Diaľnica D1 v príprave","network":"sk:national","wikidata":"Q763202","wikipedia":"sk:Diaľnica D1 (Slovensko)"},"12125212":{"ref":"D1","name":"D1 motorway in construction (Slovakia)","type":"route","route":"road","name:en":"D1 motorway in construction (Slovakia)","name:sk":"Diaľnica D1 vo výstavbe","network":"sk:national","wikidata":"Q763202","wikipedia":"sk:Diaľnica D1 (Slovensko)"},"12899680":{"to":"Párnica","ref":"583","from":"Žilina","name":"Cesta II. triedy 583","type":"route","route":"road","wikidata":"Q13402755","wikipedia":"cs:Silnice II/583 (Slovensko)"},"12899718":{"to":"Turzovka","ref":"484","from":"Klokočov","name":"Cesta II. triedy 484","type":"route","route":"road","distance":"10,389 km","wikidata":"Q13402711","wikipedia":"sk:Cesta II. triedy 484 (Slovensko)"},"13764823":{"ref":"9","name":"Cesta I. triedy 9","type":"route","route":"road","network":"sk:primary","wikidata":"Q20851865"},"14069914":{"name":"82","type":"route","route":"road","network":"sk:primary"},"15069847":{"ref":"R1","name":"Via Pribina","type":"route","route":"road","website":"https://viapribina.sk/"},"15466461":{"name":"Vnútorný obchvat Bratislavy","type":"route","route":"road","name:cs":"Vnitřní obchvat Bratislavy","name:en":"Bratislava Inner Highway Ring"},"15466462":{"ref":"D4","name":"Vonkajší obchvat Bratislavy","type":"route","route":"road","name:cs":"Vnější obchvat Bratislavy","name:en":"Bratislava Outer Highway Ring"},"15762015":{"url":"https://blog.sme.sk/bizon/nezaradene/13-nestastnych-nikdy-nezrealizovanych-ciest-bratislavy","name":"Severná tangenta","type":"route","route":"road","name:en":"Northern tangent","website":"https://www.enviroportal.sk/sl/eia/detail/severna-tangenta-bratislava-prazska-jarosova","proposed":"yes"}}