{"228508":{"ref":"4","name":"ถนนเพชรเกษม","type":"route","route":"road","name:en":"Phetkasem Road","name:th":"ถนนเพชรเกษม","network":"TH-network","wikidata":"Q1553809","alt_name:en":"Thailand Route 4"},"229622":{"name":"ถนนมิตรภาพ","type":"route","route":"road","name:de":"Thanon Mittraphap","name:en":"Mittraphap Road","name:zh":"友誼路","network":"TH-network","wikidata":"Q929843","wikipedia":"th:ถนนมิตรภาพ"},"919713":{"ref":"AH19","url":"http://wiki.openstreetmap.org/wiki/Asia/Asian_Highway_Network","name":"Asian Highway AH19","note":"AH19 go from Bangkok to Nakhon Ratchasima with a detour to Laem Chabang","type":"route","route":"road","int_ref":"AH19","name:en":"Asian Highway AH19","name:ru":"Азиатский маршрут AH19","name:th":"ทางหลวงเอเชียสาย 19","network":"AsianHighway","wikidata":"Q12973944","wikipedia":"en:AH19","description":"Nakhon Ratchasima – Kabin Buri – Laem Chabang – Chonburi – Bangkok","wikipedia:th":"th:ทางหลวงเอเชียสาย 19"},"2097816":{"name":"ทางพิเศษศรีรัช","type":"route","route":"road","name:en":"Sirat Expressway","name:th":"ทางพิเศษศรีรัช","alt_name":"ทางด่วนขั้นที่ 2","alt_name:en":"2nd-stage expressway"},"2100526":{"name":"ทางพิเศษเฉลิมมหานคร","type":"route","route":"road","name:en":"Chaloem Mahanakhon Expressway","name:th":"ทางพิเศษเฉลิมมหานคร","alt_name:en":"1st-stage expressway","alt_name:th":"ทางด่วนขั้นที่ 1"},"2827877":{"name":"ทางพิเศษฉลองรัช","type":"route","route":"road","name:en":"Chalong Rat Expressway"},"5146594":{"ref":"AH1","url":"http://wiki.openstreetmap.org/wiki/Asia/Asian_Highway_Network","name":"Asian Highway AH1","type":"route","route":"road","int_ref":"AH1","name:bn":"এশিয়ান হাইওয়ে ১","name:de":"Asien Fernstraße AH1","name:en":"Asian Highway AH1","name:fa":"بزرگراه آسیایی شماره ۱","name:fr":"Route asiatique AH1","name:hi":"एशियाई राजमार्ग १","name:id":"Jalan Asia AH1","name:ja":"アジアハイウェイ1号線","name:km":"ផ្លូវហាយវេអាស៊ី១","name:ko":"아시안 하이웨이 1호선","name:ms":"Lebuh Raya Asia AH1","name:my":"အာရှအဝေးပြေး ၁","name:ru":"Азиатский маршрут AH1","name:th":"ทางหลวงเอเชียสาย 1","name:tr":"Asya Yolu AH1","name:vi":"Đường Xuyên Á AH1","name:zh":"亚洲公路1号线","network":"AsianHighway","section":"Thailand","int_name":"Asian Highway AH1","wikidata":"Q494205","wikipedia":"en:AH1"},"7133873":{"name":"North–South Expressway Northern Route","note":"part of: ref AH2 + E1","type":"route","route":"road","name:zh":"南北大道北段","network":"MY:E","wikidata":"Q7060524","wikipedia":"en:North–South Expressway Northern Route"},"7343981":{"name":"ทางหลวงแผ่นดินหมายเลข 1410","type":"route","route":"road","name:en":"National Road 1410","name:th":"ทางหลวงแผ่นดินหมายเลข 1410"},"7344035":{"name":"ถนนสมโภชเชียงใหม่ 700 ปี","type":"route","route":"road","name:en":"Chiang Mai 700th Anniversary Road","name:th":"ถนนสมโภชเชียงใหม่ 700 ปี"},"8887914":{"name":"ถนนเจริญกรุง","note":"Wikidata link relation for Charoen Krung Road","type":"route","route":"road","name:en":"Charoen Krung Road","name:th":"ถนนเจริญกรุง","wikidata":"Q983708"},"9301047":{"ref":"AH121","name":"Asian Highway AH121","type":"route","route":"road","int_ref":"AH121","name:th":"ทางหลวงสายเอเชียAH121","network":"AsianHighway","section":"Thailand","int_name":"Asian Highway AH121"},"9304691":{"name":"Bang Na - Chonburi Expressway","type":"route","route":"road"},"13145743":{"to":"สามแยกแขวงการทางเลยที่ 1 อำเภอเมืองเลย","from":"สี่แยกสามเหลี่ยม อำเภอเมืองขอนแก่น","name":"ถนนมลิวรรณ","type":"route","route":"road","name:en":"Maliwan Road","wikidata":"Q16305180","wikipedia":"th:ถนนมลิวรรณ"},"13149615":{"name":"ทางหลวงแผ่นดินหมายเลข 24","type":"route","route":"road","name:en":"Highway 24","name:th":"ถนนสีคิ้ว-เดชอุดม","wikidata":"Q16306008","wikipedia":"th:ทางหลวงแผ่นดินหมายเลข 24"},"13206881":{"name":"ถนนวงแหวนรอบเมืองนครราชสีมา","type":"route","route":"road","name:en":"Nakhon Ratchasima Ring Road","name:th":"ถนนวงแหวนรอบเมืองนครราชสีมา","network":"th-network","wikidata":"Q13015506","wikipedia":"th:ทางหลวงแผ่นดินหมายเลข 290"},"13843402":{"to":"Aranyaprathet (Thai/Cambodia Border)","ref":"33","from":"Suphan Buri","name":"ทางหลวงแผ่นดินหมายเลข 33","type":"route","route":"road","name:th":"ทางหลวงแผ่นดินหมายเลข 33","wikidata":"Q13015288","wikipedia":"th:ทางหลวงแผ่นดินหมายเลข 33"},"13891880":{"ref":"12","name":"ทางหลวงแผ่นดินหมายเลข 12","type":"route","route":"road"},"14029276":{"ref":"31","name":"Vibhavadi Rangsit Road","type":"route","route":"road","network":"th-network","wikidata":"Q1819080","wikipedia":"en:Vibhavadi Rangsit Road"},"14108654":{"ref":"332","name":"ทางหลวงแผ่นดินหมายเลข 332","type":"route","route":"road","network":"th-network","wikidata":"Q20570906","wikipedia":"th:ทางหลวงแผ่นดินหมายเลข 332"},"14108732":{"name":"ถนนพรานนก-พุทธมณฑลสาย 4","type":"route","route":"road","wikidata":"Q13015239","wikipedia":"th:ถนนพรานนก-พุทธมณฑล สาย 4"},"14109795":{"ref":"361","name":"ทางหลวงแผ่นดินหมายเลข 361","type":"route","route":"road","wikidata":"Q13015520","wikipedia":"th:ทางหลวงแผ่นดินหมายเลข 361"},"14110155":{"name":"ทางพิเศษกาญจนาภิเษก (บางพลี-สุขสวัสดิ์)","type":"route","route":"road","name:en":"Kanchanapisek Expressway","name:th":"ทางพิเศษกาญจนาภิเษก (บางพลี-สุขสวัสดิ์)","wikidata":"Q2041946","wikipedia":"th:ถนนกาญจนาภิเษก"},"14110180":{"ref":"3648","name":"ทางหลวงแผ่นดินหมายเลข 3648","type":"route","route":"road","name:th":"ทางหลวงแผ่นดินหมายเลข 3648","network":"th-network"},"14110197":{"name":"ทางพิเศษสาย S1","type":"route","route":"road","name:th":"ทางพิเศษสาย S1","wikidata":"Q13015453","wikipedia":"th:ทางพิเศษสาย S1"},"14110225":{"ref":"กท.1001","name":"ถนนกัลปพฤกษ์","type":"route","route":"road","name:en":"Kanlapaphruek Road","name:th":"ถนนกัลปพฤกษ์","wikidata":"Q13015205","wikipedia":"th:ถนนกัลปพฤกษ์"},"14110233":{"ref":"357","name":"ทางหลวงแผ่นดินหมายเลข 357","type":"route","route":"road","name:th":"ทางหลวงแผ่นดินหมายเลข 357","wikidata":"Q13015524","wikipedia":"th:ทางหลวงแผ่นดินหมายเลข 357"},"14110283":{"ref":"345","name":"ทางหลวงแผ่นดินหมายเลข 345","type":"route","route":"road","name:th":"ทางหลวงแผ่นดินหมายเลข 345","wikidata":"Q16306079","wikipedia":"th:ทางหลวงแผ่นดินหมายเลข 345"},"14111353":{"name":"ถนนข้าวหลาม","type":"route","route":"road","wikidata":"Q85936416","wikipedia":"th:ถนนข้าวหลาม (จังหวัดชลบุรี)"},"14111437":{"ref":"9","name":"ถนนกาญจนาภิเษก (ด้านตะวันออก)","type":"route","route":"road","name:en":"Kanchanaphisek Road (East)","name:th":"ถนนกาญจนาภิเษก (ด้านตะวันออก)","network":"th-motorway","alt_name":"ถนนวงแหวนรอบนอกด้านตะวันออก","wikidata":"Q2041946","wikipedia":"th:ถนนกาญจนาภิเษก","alt_name:en":"Eastern Outer Ring Road"},"14111543":{"ref":"376","name":"ทางหลวงแผ่นดินหมายเลข 376","type":"route","route":"road","network":"th-network","wikidata":"Q109568836","wikipedia":"th:ทางหลวงแผ่นดินหมายเลข 376"},"14117031":{"name":"ถนนศรีนครินทร์-ร่มเกล้า","type":"route","route":"road","name:en":"Srinagarindra-Rom Klao Road","name:th":"ถนนศรีนครินทร์-ร่มเกล้า","wikidata":"Q61368011","wikipedia":"th:ถนนศรีนครินทร์-ร่มเกล้า"},"14117432":{"ref":"9","name":"ถนนกาญจนาภิเษก (ด้านตะวันตก)","type":"route","route":"road","name:en":"Kanchanaphisek Road (West)","name:th":"ถนนกาญจนาภิเษก (ด้านตะวันตก)","alt_name":"ถนนวงแหวนรอบนอกด้านตะวันตก","wikidata":"Q2041946","wikipedia":"th:ถนนกาญจนาภิเษก","alt_name:en":"Western Outer Ring Road","alt_name:th":"ถนนวงแหวนรอบนอกด้านตะวันตก"},"14119737":{"ref":"7","name":"ทางหลวงพิเศษหมายเลข 7","type":"route","route":"road","name:en":"Motorway 7 (Thailand)","name:th":"ทางหลวงพิเศษหมายเลข 7","wikidata":"Q806479","wikipedia":"en:Motorway 7 (Thailand)"},"14119845":{"ref":"32","name":"ทางหลวงแผ่นดินหมายเลข 32","type":"route","route":"road","name:en":"Highway 32 (Thailand)","name:th":"ทางหลวงแผ่นดินหมายเลข 32","wikidata":"Q1498367","wikipedia":"th:ทางหลวงแผ่นดินหมายเลข 32"},"14119846":{"ref":"34","name":"ถนนเทพรัตน","type":"route","route":"road","name:en":"Debaratna Road","name:th":"ถนนเทพรัตน","wikidata":"Q1679840","wikipedia":"th:ถนนเทพรัตน"},"14119888":{"ref":"3263","name":"ทางหลวงแผ่นดินหมายเลข 3263","type":"route","route":"road","name:th":"ทางหลวงแผ่นดินหมายเลข 3263","wikidata":"Q61368191","wikipedia":"th:ทางหลวงแผ่นดินหมายเลข 3263"},"14119921":{"ref":"131","name":"ทางหลวงแผ่นดินหมายเลข 131","type":"route","route":"road","name:th":"ทางหลวงแผ่นดินหมายเลข 131","wikidata":"Q61361040","wikipedia":"th:ทางหลวงแผ่นดินหมายเลข 131"},"14120057":{"ref":"122","name":"ทางหลวงแผ่นดินหมายเลข 122","type":"route","route":"road","name:th":"ทางหลวงแผ่นดินหมายเลข 122","wikidata":"Q19241717","wikipedia":"th:ทางหลวงแผ่นดินหมายเลข 122"},"14221288":{"ref":"362","name":"ทางหลวงแผ่นดินหมายเลข 362","type":"route","route":"road","wikidata":"Q13015523","wikipedia":"th:ทางหลวงแผ่นดินหมายเลข 362"},"14221345":{"ref":"321","name":"ถนนมาลัยแมน","type":"route","route":"road","name:en":"Malaiman Road","name:th":"ถนนมาลัยแมน","wikidata":"Q13015253","wikipedia":"th:ถนนมาลัยแมน"},"14221687":{"ref":"347","name":"ทางหลวงแผ่นดินหมายเลข 347","type":"route","route":"road","wikidata":"Q13015518","wikipedia":"th:ทางหลวงแผ่นดินหมายเลข 347"},"14221747":{"ref":"309","name":"ทางหลวงแผ่นดินหมายเลข 309","type":"route","route":"road","wikidata":"Q16306032","wikipedia":"th:ทางหลวงแผ่นดินหมายเลข 309"},"14221784":{"ref":"375","name":"ทางหลวงแผ่นดินหมายเลข 375","type":"route","route":"road","wikidata":"Q19569974","wikipedia":"th:ทางหลวงแผ่นดินหมายเลข 375"},"14334809":{"name":"ถนนบรมราชชนนี (กรุงเทพมหานคร)","type":"route","route":"road","name:en":"Borommaratchachonnani Road (BMA)","name:th":"ถนนบรมราชชนนี (กรุงเทพมหานคร)","wikidata":"Q13015224","wikipedia":"th:ถนนบรมราชชนนี"},"14334810":{"ref":"338","name":"ทางหลวงแผ่นดินหมายเลข 338","type":"route","route":"road","name:th":"ทางหลวงแผ่นดินหมายเลข 338","wikidata":"Q13015224","wikipedia":"th:ถนนบรมราชชนนี"},"14334874":{"name":"ถนนราชพฤกษ์","type":"route","route":"road","name:en":"Ratchaphruek Road","name:th":"ถนนราชพฤกษ์","wikidata":"Q16353835","wikipedia":"th:ถนนราชพฤกษ์"},"14334992":{"ref":"344","name":"ทางหลวงแผ่นดินหมายเลข 344","type":"route","route":"road","wikidata":"Q16306074","wikipedia":"th:ทางหลวงแผ่นดินหมายเลข 344"},"14335038":{"ref":"204","name":"ทางหลวงแผ่นดินหมายเลข 204","type":"route","route":"road","wikidata":"Q19241701","wikipedia":"th:ทางหลวงแผ่นดินหมายเลข 204"},"15660983":{"to":"Su-Ngai Kolok - Thailand-Malaysia Border","ref":"AH18","url":"http://wiki.openstreetmap.org/wiki/Asia/Asian_Highway_Network","from":"Hat Yai","name":"Asian Highway AH18","note":"Thai part","type":"route","route":"road","int_ref":"AH18","name:de":"Asiatische Fernstraße 18","name:en":"Asian Highway AH18","name:ms":"Lebuhraya Asia AH18","name:ru":"Азиатский маршрут AH18","name:th":"ทางหลวงเอเชียสาย 18","name:zh":"亚洲高速公路 AH18","network":"AsianHighway","wikidata":"Q3524847","wikipedia":"en:AH18"},"15666700":{"ref":"AH12","url":"http://wiki.openstreetmap.org/wiki/Asia/Asian_Highway_Network","name":"Asian Highway AH12","note":"Northbound: from Hin Kong to Nong Khai","type":"route","route":"road","name:de":"Asien Fernstraße AH12","name:en":"Asian Highway AH12","name:ru":"Азиатский маршрут AH12","network":"AsianHighway","wikidata":"Q727626","wikipedia":"en:AH12","description":"Hin Kong - Nakhon Ratchasima- Khon Kaen - Udon Thani - Nong Khai"},"15685204":{"ref":"AH19","url":"http://wiki.openstreetmap.org/wiki/Asia/Asian_Highway_Network","name":"Asian Highway AH19","note":"AH19 go from Nakhon Ratchasima to Bangkok with a detour to Laem Chabang","type":"route","route":"road","int_ref":"AH19","name:en":"Asian Highway AH19","name:ru":"Азиатский маршрут AH19","name:th":"ทางหลวงเอเชียสาย 19","network":"AsianHighway","wikidata":"Q12973944","wikipedia":"en:AH19","description":"Nakhon Ratchasima – Kabin Buri – Laem Chabang – Chonburi – Bangkok","wikipedia:th":"th:ทางหลวงเอเชียสาย 19"},"15688819":{"ref":"จบ.ถ 1-0006","name":"ทางหลวงท้องถิ่น จบ.ถ 1-0006","type":"route","route":"road","name:en":"Thailand Local Road (Chanthaburi 1-0006)","name:th":"ทางหลวงท้องถิ่น จบ.ถ 1-0006","wikidata":"Q117250631"},"15689122":{"ref":"จบ.ถ 3-0002","name":"ถนนเลียบเนิน","type":"route","route":"road","name:en":"Lieab Noen Road","name:th":"ถนนเลียบเนิน","official_name":"ทางหลวงท้องถิ่น จบ.ถ 3-0002"},"15691557":{"ref":"ฉช.ถ 1-0005","name":"ทางหลวงท้องถิ่น ฉช.ถ 1-0005","type":"route","route":"road","name:en":"Thailand Local Road (Chachoengsao Local Road 1-0005)","name:th":"ทางหลวงท้องถิ่น ฉช.ถ 1-0005","wikidata":"Q119496395"},"15691898":{"ref":"3493","from":"แยกคลองทราย","name":"ถนนตากสิน","type":"route","route":"road","name:en":"Taksin Road","name:th":"ถนนตากสิน","wikidata":"Q117464141"},"15695979":{"ref":"3153","name":"ถนนพระยาตรัง","type":"route","route":"road","name:en":"Phraya Trang Road","name:th":"ถนนพระยาตรัง","wikidata":"Q117468336"},"15699724":{"name":"ถนนสีบุญเรือง","type":"route","route":"road","name:en":"Siboon Rueang Road","name:th":"ถนนสีบุญเรือง","wikidata":"Q117476418"},"15736220":{"ref":"AH1","name":"အာရှအဝေးပြေး ၁","note":"Direction: from Thai border to Indian border","type":"route","route":"road","int_ref":"AH1","name:bn":"এশিয়ান হাইওয়ে ১","name:de":"Asien Fernstraße AH1","name:en":"Asian Highway AH1","name:fa":"بزرگراه آسیایی شماره ۱","name:fr":"Route asiatique AH1","name:hi":"एशियाई राजमार्ग १","name:id":"Jalan Asia AH1","name:ja":"アジアハイウェイ1号線","name:km":"ផ្លូវហាយវេអាស៊ី១","name:ko":"아시안 하이웨이 1호선","name:ms":"Lebuh Raya Asia AH1","name:my":"အာရှအဝေးပြေး ၁","name:ru":"Азиатский маршрут AH1","name:th":"ทางหลวงสายเอเชียAH1","name:tr":"Asya Yolu AH1","name:vi":"Đường Xuyên Á AH1","name:zh":"亚洲公路1号线","network":"AsianHighway","section":"Myanmar","int_name":"Asian Highway AH1","maxspeed":"100"},"15869348":{"ref":"3111","name":"ทางหลวงแผ่นดินหมายเลข 3111","type":"route","route":"road","name:th":"ทางหลวงแผ่นดินหมายเลข 3111","network":"th","wikidata":"Q61367002","wikipedia":"th:ทางหลวงแผ่นดินหมายเลข 3111"},"15926643":{"name":"ทางหลวงแผ่นดินหมายเลข 3646","type":"route","route":"road","wikidata":"Q112631113"},"15971945":{"ref":"ฉช.3005","name":"ทางหลวงชนบท ฉช.3005","type":"route","route":"road","wikidata":"Q119219805"},"15971946":{"ref":"3304","name":"ทางหลวงแผ่นดินหมายเลข 3304","type":"route","route":"road","wikidata":"Q119408965"},"15975495":{"ref":"3481","name":"ทางหลวงแผ่นดินหมายเลข 3481","type":"route","route":"road","name:en":"Thailand Route 3481","network":"Thai highway network","wikidata":"Q116861353","wikipedia":"th:ทางหลวงแผ่นดินหมายเลข 3481"},"15989510":{"ref":"ฉช.ถ 2-0003","name":"ถนนเทพคุณากร","type":"route","route":"road","name:en":"Thepkhunakon Road","name:th":"ถนนเทพคุณากร","wikidata":"Q119702712"}}