{"241361":{"ref":"A 4","name":"الطريق السيارة تونس - بنزرت","type":"route","route":"road","name:ar":"الطريق السيارة تونس - بنزرت","name:fr":"Autoroute Tunis - Bizerte"},"241362":{"ref":"A 4","name":"الطريق السيارة بنزرت - تونس","type":"route","route":"road","name:ar":"الطريق السيارة بنزرت - تونس","name:fr":"Autoroute Bizerte - Tunis"},"1338693":{"to":"قرطاج","ref":"RN 10 ط و","from":"تونس","name":"الطريق الوطني تونس - قرطاج","type":"route","route":"road","ref:ar":"ط و 10","highway":"primary","name:ar":"الطريق الوطني تونس - قرطاج","name:fr":"Route Nationale Tunis - Carthage"},"1356559":{"ref":"R 23 ج","name":"R 23","type":"route","route":"road"},"1356560":{"ref":"R 23 ج","name":"طريق حلق الوادي - تونس","type":"route","route":"road","name:ar":"طريق حلق الوادي - تونس","name:es":"Ruta La Goleta - Túnez","name:fr":"Route La Goulette - Tunis"},"1364404":{"ref":"C 40","name":"C 40","type":"route","route":"road"},"1381308":{"ref":"RR 35 طج","name":"الطريق الجمهورية رقم 35","type":"route","route":"road","ref:ar":"ط ج 35","name:ar":"الطريق الجمهورية رقم 35"},"6889391":{"name":"شارع 18 يناير","type":"route","route":"road","name:ar":"شارع 18 يناير","name:fr":"Avenue du 18 Janvier","alt_name:ar":"شارع 18 جانفي"},"6901919":{"ref":"ط ج 82","name":"شارع 23 يناير","type":"route","route":"road","ref:ar":"ط ج 82","name:ar":"شارع 23 يناير","name:fr":"Rue du 23 Janvier"},"8228068":{"ref":"RR 209 ط ج","name":"الطريق الجهوية رقم 209","type":"route","route":"road","ref:ar":"ط ج 209","name:ar":"الطريق الجهوية رقم 209"},"8280797":{"ref":"RR 112 طج","name":"الطريق الجهوية رقم ١١٢","type":"route","route":"road","ref:ar":"ط ج ١١٢","int_ref":"RR 112","name:ar":"الطريق الجهوية رقم ١١٢","name:fr":"Route régionale 112","network":"Route régionale de Tunisie"},"8302971":{"ref":"RL 1007 طم","name":"الطريق المحلية رقم 1007","type":"route","route":"road","ref:ar":"ط م 1007","highway":"tertiary","int_ref":"RL 1007","name:ar":"الطريق المحلية رقم 1007","network":"TN:local"},"8799483":{"ref":"RR82","name":"الطريق الجهوية رقم 82","type":"route","route":"road","ref:ar":"ط ج 82","highway":"secondary","name:ar":"الطريق الجهوية رقم 82","name:fr":"Route Régionale 82","network":"TN:regional"}}