{"27960":{"ref":"O-20","via":"Yenimahalle;Etimesgut;Çankaya;Gölbaşı;Mamak;Altındağ;Pursaklar;Keçiören","name":"Ankara Çevre Otoyolu","type":"route","route":"road","name:de":"Ankara Ringautobahn","name:en":"Ankara Beltway","network":"TR:motorway","distance":"120 km","wikidata":"Q623132","wikipedia":"tr:Otoyol 20","start_date":"1999-05-01","description":"Ankara Çevre Otoyolu"},"27994":{"ref":"E 89","name":"European route E 89","type":"route","route":"road","name:en":"European route E 89","name:fr":"Route européenne E 89","name:nl":"Europese route E89","name:sk":"Európska cesta E 89","network":"e-road","wikidata":"Q2419632","wikipedia":"en:European route E89","e-road:class":"A-intermediate","description:fr":"E 89 Gerede - Ankara"},"150992":{"ref":"D 100","name":"D 100","type":"route","route":"road","name:de":"Schnellstraße D100","name:en":"State road D.100","name:ko":"국도 제D100호선","name:zh":"D100国道","network":"TR-roads","alt_name":"D.100","wikidata":"Q7603865","wikipedia":"tr:D 100","description":"Route from Bulgaria border via Edirne, Silivri, İstanbul, Kocaeli, Sakarya (Adapazarı), Bolu, Gerede, Ilgaz, Amasya, Niksar, Suşehri, Refahiye, Erzincan, Erzurum, Ağrı, Doğubayazıt to Iran border."},"153991":{"to":"Mersin","ref":"O-21","from":"Ankara","name":"Tarsus - Ankara Otoyolu","toll":"yes","type":"route","route":"road","network":"TR:motorway","distance":"432 km","wikidata":"Q623130","wikipedia":"tr:Otoyol 21"},"153995":{"ref":"O-51","name":"Adana-Mersin-Silifke Otoyolu","type":"route","route":"road","network":"TR:motorway","wikidata":"Q1472548","description":"Adana-Erdemlı Otoyolu"},"156091":{"ref":"D 350","name":"D 350","type":"route","route":"road","network":"TR-roads","wikidata":"Q6060739","wikipedia":"tr:D 350","description":"Route from Kemer (D 400) - Alınyayla - Korkuteli - Antalya (D 650) // Bozkır (D 340) - Karaman to Ereğli (D 330)"},"156514":{"ref":"E 88","name":"European route E 88","note":"see http://wiki.openstreetmap.org/wiki/WikiProject_Europe/E-road_network","type":"route","route":"road","name:en":"European route E 88","name:fr":"Route européenne E 88","name:nl":"Europese route E88","name:sk":"Európska cesta E 88","network":"e-road","wikidata":"Q607197","wikipedia":"en:European route E88","description":"Ankara - Yozgat - Sivas - Refahiye","e-road:class":"A-intermediate","description:fr":"E 88 Ankara - Refahiye"},"156515":{"ref":"D 200","name":"D 200","type":"route","route":"road","network":"TR-roads","surface":"asphalt","alt_name":"D200 Karayolu","maxspeed":"50","wikidata":"Q7603867","wikipedia":"tr:D 200","smoothness":"good","description":"Route from Çanakkale (D 210, D 550) via Bandırma - Bursa - Bozüyük - Eskişehir - Sivrihisar - Polatlı - Kırıkkale - Yozgat - Yıldızeli - Sivas - Zara to Refahiye (D 100)","maxspeed:hgv":"50","smoothness:date":"2020-06-15"},"157196":{"ref":"O-52","name":"Adana-Şanlıurfa Otoyolu","type":"route","route":"road","network":"TR:motorway","wikidata":"Q1419164","wikipedia":"de:Otoyol 52","description":"Adana – Şanlıurfa Otoyolu"},"158573":{"ref":"E 96","name":"European route E 96","note":"see http://wiki.openstreetmap.org/wiki/WikiProject_Europe/E-road_network","type":"route","route":"road","name:en":"European route E 96","name:fr":"Route européenne E 96","name:nl":"Europese route E96","name:sk":"Európska cesta E 96","network":"e-road","wikidata":"Q2373964","wikipedia":"en:European route E96","description":"İzmir - Uşak - Afyon - Sivrihisar","e-road:class":"A-intermediate","description:fr":"E 96 Izmir - Sivrihisar"},"158701":{"ref":"E 91","name":"European route E 91","note":"see http://wiki.openstreetmap.org/wiki/WikiProject_Europe/E-road_network","type":"route","route":"road","name:en":"European route E 91","name:fr":"Route européenne E 91","name:nl":"Europese route E91","name:sk":"Európska cesta E 91","network":"e-road","wikidata":"Q2163648","wikipedia":"en:European route E91","description":"Toprakkale - Iskenderun - Topboğazı - Antakya - Yayladağ","e-road:class":"A-intermediate","description:fr":"E 91 Toprakkale - Yayladaği"},"281674":{"ref":"E 99","name":"Avrupa E-yolu E99","note":"see http://wiki.openstreetmap.org/wiki/WikiProject_Europe/E-road_network","type":"route","route":"road","name:en":"European route E 99","name:fr":"Route européenne E 99","name:nl":"Europese route E99","name:ru":"Европейский маршрут 99","name:sk":"Európska cesta E 99","network":"e-road","wikidata":"Q548533","wikipedia":"en:European route E99","description":"Şanlıurfa - Diyarbakır - Bitlis - Doğubeyazit - Iğdır - Dilucu - Sadarak","description:fr":"E 99 Şanlıurfa - Sadarak"},"371024":{"ref":"D 010","name":"D 010","type":"route","route":"road","name:en":"State road D.010","network":"TR-roads","alt_name":"Karadeniz sahil yolu","wikidata":"Q7603863","wikipedia":"tr:D 010","description":"Route from Yassıören (D 020) - Tayakadın - İstanbul / Karasu (D 650) - Zonguldak - Bartın - İnebolu - Sinop - Samsun - Ordu - Giresun - Tirebolu - Trabzon - Of - Rize - Hopa - Ardahan - Ölçek - Akçakale (D 060)"},"395684":{"ref":"D 585","name":"D 585","type":"route","route":"road","network":"TR-roads","wikidata":"Q6051680","wikipedia":"tr:D 585","description":"Route from Aksaz (D 240) - Demirci - Salihli - Denizli - Serinhisar - Çavdır - Söğüt (D 350)"},"408362":{"ref":"D 400","name":"D 400","type":"route","route":"road","network":"TR-roads","wikidata":"Q1242528","wikipedia":"tr:D 400","description":"Iran-Adana-Antalya-Marmaris-Datça"},"411153":{"ref":"D 565","name":"D 565","type":"route","route":"road","network":"TR-roads","wikidata":"Q6072629","wikipedia":"tr:D 565","description":"Route from İğneada (39-01) - Pınarhisar (D 020) - Lüleburgaz - Tekirdağ (D 110) // Bandırma (D 200) - Balıkesir - Akhisar - Manisa to İzmir (D 300)"},"411228":{"to":"Eyüpsultan/Istanbul","ref":"O-3","from":"Edirne","name":"Avrupa Otoyolu","note":"see http://wiki.openstreetmap.org/wiki/WikiProject_Europe/E-road_network","type":"route","route":"road","source":"https://tr.wikipedia.org/wiki/Otoyol_3","name:de":"Autobahn Otoyol 3","name:en":"Motorway 3","network":"TR:motorway","wikidata":"Q623128","description":"Edirne - İstanbul yolu"},"411656":{"ref":"O-32","name":"İzmir-Çeşme Otoyolu","type":"route","route":"road","network":"TR:motorway","operator":"Karayolları Genel Müdürlüğü","wikidata":"Q380394","wikipedia":"tr:Otoyol 32"},"411693":{"ref":"O-30","name":"İzmir Çevre Otoyolu","type":"route","route":"road","network":"TR:motorway","operator":"Karayolları Genel Müdürlüğü","wikidata":"Q379322","wikipedia":"de:Otoyol 30"},"531465":{"ref":"D 925","name":"D 925","type":"route","route":"road","wikidata":"Q25474743","wikipedia":"tr:D 925","description":"Route from Iyidere via Ispir to west of Erzurum."},"532028":{"ref":"D-865","name":"D 865","type":"route","route":"road","network":"TR-roads","wikidata":"Q6013090","wikipedia":"tr:D 865","description":"Route from Giresun via Suşehri to Zara"},"532029":{"ref":"D 855","name":"D 855","type":"route","route":"road","network":"TR-roads","wikidata":"Q25474620","wikipedia":"tr:D 855","description":"Route from Ordu to Koyulhisar"},"532038":{"ref":"D 877","name":"D 877","type":"route","route":"road","network":"TR-roads","wikidata":"Q25474621","wikipedia":"tr:D 877","description":"Route from Tirebolu to Torul and from Refahiye to Arapgir"},"532046":{"ref":"D 885","name":"D 885","type":"route","route":"road","network":"TR-roads","wikidata":"Q25474766","wikipedia":"tr:D 885","description":"Route from Trabzon via Torul, Gümüşhane, Pirahmet, Kırıklı, Köse, Kelkit, Erzincan, Tanyeri, Tunceli, Elaziğ, Diyarbakır, Siverek, Şanlıurfa, Akçakale to Syrian border."},"544964":{"ref":"D 360","name":"D360","type":"route","route":"road","name:zh":"D360号国道","network":"TR-roads","wikidata":"Q6014585","wikipedia":"tr:D 360","description":"Route vıa Türkoğlu - Narlı - Gölbaşı - Adıyaman - Siverek - Diyarbakır to Ziyaret"},"1103065":{"ref":"D 380","name":"D 380","type":"route","route":"road","network":"TR-roads","wikidata":"Q6030939","wikipedia":"tr:D 380","description":"Route vıa Cizre (D400) - Midyat - Mardin"},"1140534":{"ref":"D 955","name":"D 955","type":"route","route":"road","network":"TR-roads","wikidata":"Q6048619","wikipedia":"tr:D 955","description":"Route from Armenia (Vale) to Hanak - Ölçek (D 010, D 965) - Ardahan - Göle - Köprüköy - Muş (D 300) // Yeniçağlar (D 360) - Batman - Midyat - Mardin - Alakuş (D 400)"},"1142028":{"ref":"D 950","name":"D 950","type":"route","route":"road","network":"TR-roads","wikidata":"Q7603875","wikipedia":"tr:D 950","description":"Route from Hamamlı (D 010) - Erzurum - Bingöl - Diyarbakır - Mardin - Kızıltepe - Şenyurt - Syria"},"1145289":{"ref":"D 965","name":"D 965","type":"route","route":"road","nat_ref":"D 965","network":"TR-roads","wikidata":"Q6062598","wikipedia":"tr:D 965","description":"Kars-Ardahan yolu"},"1145393":{"ref":"D 975","name":"D 975","type":"route","route":"road","network":"TR-roads","wikidata":"Q6044201","wikipedia":"tr:D 975","description":"Route from Iğdır (D 080) via Doğubeyazıt - Muradiye - Van to Bağıslı (D 400)"},"1176325":{"ref":"O-53","name":"Toprakkale – İskenderun Otoyolu","type":"route","route":"road","name:el":"Ότογιολ 53","name:en":"Otoyol 53","name:zh":"53号公路","network":"TR:motorway","wikidata":"Q1568378","description":"Toprakkale – İskenderun Otoyolu"},"1176500":{"ref":"D 515","name":"D 515","type":"route","route":"road","network":"TR-roads","wikidata":"Q6026983","wikipedia":"tr:D 515"},"1277694":{"to":"Söğütlüçeşme/Istanbul","ref":"O-1","from":"Osmaniye/Istanbul","name":"İstanbul 1. Çevre Yolu","type":"route","lanes":"4","route":"road","name:de":"Autobahn Otoyol 1","name:en":"Motorway 1","name:pl":"Autostrada O1","network":"TR:motorway","wikidata":"Q1548026","wikipedia":"tr:Otoyol 1","description":"Route from Osmaniye, Bakırköy to Kadıköy"},"1309568":{"ref":"D 410","name":"D 410","type":"route","route":"road","network":"TR-roads","wikidata":"Q6002898","wikipedia":"tr:D 410","description":"Route from Hassa (D 825) - Kilis (D 850)"},"1314033":{"ref":"D 957","name":"D 957","type":"route","route":"road","nat_ref":"D 957","network":"TR-roads","wikidata":"Q61072011","wikipedia":"tr:D 957","description":"Route from Kars (D 965) - Selim - Karakurt (D 080) // Köprüköy (D 955) - Yeniköy to Körsu (D 955)"},"1314388":{"ref":"D 685","name":"D 685","type":"route","route":"road","network":"TR-roads","wikidata":"Q6031174","wikipedia":"tr:D 685","description":"Route from Gümüşgün (D 650) - Isparta to Aksu (D 400)"},"1344789":{"ref":"O-54","name":"Gaziantep Çevre Otoyolu","type":"route","route":"road","network":"TR:motorway","wikidata":"Q1283859","description":"Gaziantep Çevre Yolu"},"1391525":{"ref":"D 655","name":"D 655","type":"route","route":"road","network":"TR-roads","wikidata":"Q25475182","wikipedia":"tr:D 655","description":"Route from Akçakoca (D 010) - Düzce (D 100) - Bolu - Nallıhan (D 140)"},"1392286":{"ref":"D 140","name":"D-140 Karayolu","type":"route","route":"road","network":"TR-roads","description":"Route from Bediltahirbey (D 100) - Mudurnu - Nallıhan - Beypazarı - Ayaş - Ankara - Akyurt - Kalecik (D 765)"},"1708755":{"ref":"D 605","name":"D 605","type":"route","route":"road","network":"TR-roads","wikidata":"Q6003154","wikipedia":"tr:D 605","description":"Route from Cebeci via Kandıra (D 010) to Kocaeli (D 100, D 130)"},"1999540":{"ref":"E 80","name":"Avrupa E-yolu E80","note":"see http://wiki.openstreetmap.org/wiki/WikiProject_Europe/E-road_network","type":"route","route":"road","name:bg":"Европейски път E 80, Турция","name:de":"Europastraße 80","name:en":"European Route 80","name:es":"Ruta Europea 80","name:fr":"Route européenne 80, Turquie","name:tr":"Avrupa E-yolu E80","network":"e-road","section":"Turkey","description":"European Route 80 - Turkey"},"2195409":{"ref":"E 70","name":"European route E 70 (Turkey)","type":"route","route":"road","name:en":"European route E 70 (Turkey)","name:nl":"Europese route E70 (Turkije)","name:sk":"Európska cesta E 70 (Turecko)","network":"e-road","wikidata":"Q741488","wikipedia":"en:European route E70","description":"E70 - Turkey"},"2314454":{"ref":"D 615","name":"D 615","type":"route","route":"road","network":"TR-roads","wikidata":"Q25474584","wikipedia":"tr:D 615","description":"Route from Altıntaş (D 650) to Dumlupınar(D 300)"},"2319369":{"ref":"D 635","name":"D 635","type":"route","route":"road","network":"TR-roads","wikidata":"Q6040540","wikipedia":"tr:D 635","description":"Route from Finike (D400) via Korkuteli (D350) to Kızılkaya (D650)"},"2382096":{"ref":"D 625","name":"D 625","type":"route","route":"road","network":"TR-roads","wikidata":"Q6040894","wikipedia":"tr:D 625","description":"Çivril (D 595) - Dinar - Keçiborlu (D 650)"},"2386352":{"ref":"D675","name":"D 675","type":"route","route":"road","network":"TR-roads","wikidata":"Q6023045","wikipedia":"tr:D 675","description":"Hamidiye (D 200) - Emirdağ - Bolvadin - Çay (D 300)"},"2393320":{"to":"Antalya","ref":"E 87","from":"Dereköy","name":"Avrupa E-yolu E87 (Türkiye)","type":"route","route":"road","source":"Q1376032","name:bg":"Европейски път Е 87, Турция","name:de":"Europastraße 87, Türkei","name:en":"European Route 87, Turkey","name:nl":"Europese route E87 (Turkije)","network":"e-road"},"2474663":{"ref":"11","name":"矢板IC","type":"junction","route":"road","name:en":"Yaita IC","junction":"ramp"},"2505199":{"ref":"D850","name":"D 850","type":"route","route":"road","network":"TR-roads","wikidata":"Q7603872","wikipedia":"tr:D 850","description":"Route from north to south: Ünye (D 010) - Niksar - Tokat - Yıldızeli - Sivas - Gürün - Malatya - Gölbaşı - Gaziantep - Kilis - Syria (N217)"},"3346319":{"ref":"E 97","name":"European route E 97","type":"route","route":"road","name:de":"Europastraße 97","name:en":"European route E 97","name:fr":"Route européenne E 97","name:nl":"Europese route E97","name:ru":"Европейский маршрут E 97","name:sk":"Európska cesta E 97","name:uk":"ЄвропейсЬкий маршрут E 97","network":"e-road","wikidata":"Q784392","wikipedia":"en:European route E97","description":"E 97 Херсон - Ашкале","e-road:class":"A-intermediate","description:fr":"E 97 Kherson - Aşkale"},"3357499":{"ref":"D 851","name":"D 851","type":"route","route":"road","network":"TR-roads","wikidata":"Q6055222","wikipedia":"tr:D 851","description":"Route from Mumcuçiftliği (D 200) - Hanlı - Şarkışla to Pınarbası (D 300)"},"3585257":{"ref":"01-75","name":"01-75","type":"route","route":"road","network":"TR-roads"},"4436479":{"ref":"34","name":"York Regional Road 34 (super)","type":"route","route":"road","symbol":"http://upload.wikimedia.org/wikipedia/commons/f/fc/York_Regional_Road_34.svg","network":"CA:ON:York"},"4676945":{"ref":"50-50","name":"50-50","type":"route","route":"road","network":"TR-roads"},"4677012":{"ref":"51-87","name":"51-87","type":"route","route":"road","network":"TR-roads"},"4677018":{"ref":"68-26","name":"68-26","type":"route","route":"road","network":"TR-roads"},"4677019":{"ref":"68-27","name":"68-27","type":"route","route":"road","network":"TR-roads"},"4677025":{"ref":"51-77","name":"51-77","type":"route","route":"road","network":"TR-roads"},"4710734":{"ref":"68-25","name":"68-25","type":"route","route":"road","network":"TR-roads"},"5258960":{"ref":"63-29","name":"Ceylanpınar - Akçakale yolu","type":"route","route":"road","oneway":"no","highway":"secondary"},"5944186":{"to":"Bornova/Izmir","ref":"O-5","from":"Gebze/Istanbul","name":"İstanbul – Bursa – İzmir Otoyolu","type":"route","route":"road","name:de":"Autobahn Otoyol 5","name:en":"Motorway 5","network":"TR:motorway","wikidata":"Q21596921","wikipedia":"tr:Otoyol 5"},"6282921":{"ref":"7111","name":"Καστανιές - Ρίζια - Φυλάκιο","type":"route","route":"road","network":"GR:provincial:71"},"6410380":{"to":"Silivri","ref":"E 84","from":"Keşan","name":"European route E 84","type":"route","route":"road","name:en":"European route E 84","name:fr":"Route européenne E 84","name:nl":"Europese route E84","name:sk":"Európska cesta E 84","network":"e-road","wikidata":"Q612223","wikipedia":"en:European route E84","e-road:class":"A-intermediate","description:fr":"E 84 Keşan - Silivri"},"6410526":{"ref":"E 881","name":"Avrupa E-yolu E881","type":"route","route":"road","name:de":"Europastraße 881","name:en":"European route E 881","name:fr":"Route européenne E 881","name:nl":"Europese route E881","name:tr":"Avrupa E-yolu E881","network":"e-road","wikidata":"Q2521873","description:fr":"E 881 Izmit - Çeşme"},"6897625":{"ref":"E 981","name":"Avrupa E-yolu E981","type":"route","route":"road","name:en":"European route E 981","name:fr":"Route européenne E 981","name:nl":"Europese route E981","name:tr":"Avrupa E-yolu E981","network":"e-road","wikidata":"Q10478786","alt_name:tr":"Avrupa E-yolu E981","e-road:class":"A-intermediate","description:fr":"E 981 Afyonkarahisar - Ereğli"},"6923596":{"ref":"AH1","url":"http://wiki.openstreetmap.org/wiki/Asia/Asian_Highway_Network","name":"Asya Yolu AH1","type":"route","route":"road","int_ref":"AH1","name:bn":"এশিয়ান হাইওয়ে ১","name:de":"Asien Fernstraße AH1","name:en":"Asian Highway AH1","name:fa":"بزرگراه آسیایی شماره ۱","name:fr":"Route asiatique AH1","name:hi":"एशियाई राजमार्ग १","name:id":"Jalan Asia AH1","name:ja":"アジアハイウェイ1号線","name:km":"ផ្លូវហាយវេអាស៊ី១","name:ko":"아시안 하이웨이 1호선","name:ms":"Lebuh Raya Asia AH1","name:my":"အာရှအဝေးပြေး ၁","name:ru":"Азиатский маршрут AH1","name:th":"ทางหลวงสายเอเชียAH1","name:tr":"Asya Yolu AH1","name:vi":"Đường Xuyên Á AH1","name:zh":"亚洲公路1号线","network":"AH","section":"Turkey","int_name":"Asian Highway AH1","wikidata":"Q494205","wikipedia":"en:AH1"},"6923666":{"ref":"E 982","name":"Avrupa E-yolu E982","type":"route","route":"road","name:en":"European route E 982","name:fr":"Route européenne E 982","name:nl":"Europese route E982","name:tr":"Avrupa E-yolu E982","network":"e-road","wikidata":"Q10478788","e-road:class":"A-intermediate","description:fr":"E 982 Mersin - Tarsus"},"7069616":{"ref":"kadirli.bel.tr","name":"Kamil Kara Bulvarı","type":"route","route":"road"},"7070376":{"ref":"kadirli.bel.tr","name":"Şehit Fatih Mehmet Zorlu Caddesi","type":"route","route":"road"},"7184302":{"ref":"http://www.kgm.gov.tr/SiteCollectionImages/KGMimages/Haritalar/b5.jpg","name":"D815-03","type":"route","route":"road"},"8061196":{"to":"Gebze","ref":"O-5","from":"İzmir","name":"İstanbul - Bursa - İzmir Otoyolu","type":"route","route":"road","name:de":"Autobahn Otoyol 5","name:en":"Motorway 5","name:tr":"İstanbul - Bursa - İzmir Otoyolu","network":"TR:motorway","wikidata":"Q21596921","wikipedia":"tr:Otoyol 5"},"9226418":{"ref":"O-7","name":"Otoyol 7","type":"route","route":"road","network":"Tr:motorway","operator":"İCA"},"9358692":{"ref":"60-04","name":"Niksar-Başçiftlik-Reşadiye ayrım Aybastı yolu","type":"route","route":"road"},"9390393":{"ref":"D 100","name":"D100 8-17 Izmit-Merzifon","type":"route","route":"road"},"9390394":{"ref":"D 100","name":"D100 25-33 Erzincan-Doğubayazıt (Iranian border)","type":"route","route":"road"},"9390395":{"ref":"D 100","name":"D100 18-24 Suluova-Refahiye","type":"route","route":"road"},"9394413":{"ref":"D 100","name":"D100 6 Harem-Main route","type":"route","route":"road"},"9402347":{"ref":"D 100","name":"D100 35 Pazarkule","type":"route","route":"road"},"9402348":{"ref":"D 100","name":"D100 6-7 Üsküdar-İzmit","type":"route","route":"road"},"10278082":{"ref":"35-80","name":"35-80 (Zeytindağ-Yuntdağ Karayolu)","type":"route","route":"road"},"10291939":{"to":"Çandarlı","ref":"O-33","from":"Çiğli","name":"Kuzey Ege Otoyolu","type":"route","route":"road","network":"TR:motorway","operator":"Türkiye Cumhuriyeti Karayolları Genel Müdürlüğü","wikidata":"Q623126"},"10293028":{"to":"Kozyatağı/Istanbul","ref":"O-2","from":"Mahmutbey/Istanbul","name":"Istanbul 2. Çevre Yolu","type":"route","route":"road","name:de":"Autobahn Otoyol 2","name:en":"Motorway 2","network":"TR:motorway","distance":"38","wikidata":"Q1419133","wikipedia":"tr:Otoyol 2","description":"Route from Mahmutbey, to Kozyatağı"},"10296984":{"to":"Bursa","ref":"O-22","from":"Yenişehir","name":"Bursa Çevre Yolu","type":"route","route":"road","name:de":"Autobahn Otoyol 22","name:en":"Motorway 22","network":"TR:motorway","wikidata":"Q21036900"},"10315919":{"to":"Bergama Kavşağı","ref":"35-81","from":"Aliağa Kavşağı","name":"35-81 (Bergama Kavşağı-Dikli-Çandarlı-Aliağa Kavşağı)","type":"route","route":"road"},"11014852":{"to":"Balıkesir","ref":"O-6","via":"Tekirdağ;Çanakkale","from":"Kınalı","name":"Kınalı-Tekirdağ-Çanakkale-Balıkesir Otoyolu","type":"route","route":"road","wikidata":"Q21682341","wikipedia":"tr:Kınalı-Tekirdağ-Çanakkale-Balıkesir Otoyolu","construction":"motorway"},"11722247":{"ref":"Տ-1-70","name":"Տ-1-70","type":"route","route":"road","ref:en":"T-1-70","name:en":"Highway T-1-70","network":"am:national"},"11726593":{"ref":"Տ-3-21","name":"Տ-3-21","type":"route","route":"road","ref:en":"T-3-21","name:en":"Highway T-3-21","network":"am:national"},"12231054":{"ref":"18-52","name":"Çankırı - Çubuk Karayolu","type":"route","route":"road","state":"proposed","operator":"KGM"},"13974631":{"to":"Denizli","ref":"O-31","from":"Aydın","name":"Aydın-Denizli Otoyolu","type":"route","route":"road","wikidata":"Q379308","wikipedia":"tr:Otoyol 31"},"14064137":{"to":"Lapseki","ref":"O-6","via":"Tekirdağ;Çanakkale","from":"Malkara","name":"Malkara-Lapseki Otoyolu (Açık Olan Kısım)","type":"route","route":"road","wikidata":"Q21682341","wikipedia":"tr:Kınalı-Tekirdağ-Çanakkale-Balıkesir Otoyolu"},"15097092":{"to":"Kapıdağ Yarımadası-Erdek","ref":"10-09","from":"Bandırma","name":"Bandırma-Erdek Yolu","type":"route","route":"road"},"15644012":{"ref":"D 400","name":"D 400","type":"route","route":"road","network":"TR-roads","wikidata":"Q1242528","wikipedia":"tr:D 400","description":"Iran-Adana-Antalya-Marmaris-Datça"},"15672708":{"ref":"D 390","name":"D 390","type":"route","route":"road","network":"TR-roads","wikidata":"Q6003390","wikipedia":"tr:D 390","description":"Route from Bozova to Hilvan"},"15677473":{"ref":"D505","name":"D 505","type":"route","route":"road","wikidata":"Q25474406","wikipedia":"tr:D 505"},"15678268":{"ref":"D 525","name":"D 525","type":"route","route":"road","network":"TR-roads","wikidata":"Q6041927","wikipedia":"tr:D 525"},"15682662":{"ref":"D 567","name":"D 567","type":"route","route":"road","network":"TR-roads","wikidata":"Q6044512","wikipedia":"tr:D 567","description:tr":"Saray, Tekirdağ ile Silivri, İstanbul arasındaki 54 km'lik kara yolu"},"15683504":{"ref":"D587","name":"D 587","type":"route","route":"road","wikidata":"Q25474575","wikipedia":"tr:D 587"},"15685183":{"ref":"D 665","name":"D 665","type":"route","route":"road","network":"TR-roads","wikidata":"Q6014722","wikipedia":"tr:D 665","description":"Route from Akçakoca (D 010) - Düzce (D 100) - Bolu - Nallıhan (D 140)"},"15698203":{"ref":"D875","name":"D 875","type":"route","route":"road","wikidata":"Q25474629","wikipedia":"tr:D 875"},"15699248":{"ref":"D 883","name":"D 883","type":"route","route":"road","wikidata":"Q25474645","wikipedia":"tr:D 883"},"15699272":{"ref":"D 887","name":"D 887","type":"route","route":"road","wikidata":"Q25474787","wikipedia":"tr:D 887"},"15699652":{"ref":"D905","name":"D 905","type":"route","route":"road","wikidata":"Q25474762","wikipedia":"tr:D 905"},"15703419":{"ref":"D959","name":"D 959","type":"route","route":"road","wikidata":"Q26781598","wikipedia":"tr:D 959"},"15703953":{"ref":"D977","name":"D 977","type":"route","route":"road","wikidata":"Q25474736","wikipedia":"tr:D 977"},"15721340":{"ref":"AH1","url":"http://wiki.openstreetmap.org/wiki/Asia/Asian_Highway_Network","name":"بزرگراه آسیایی شماره ۱","note":"From Bazargan (Turkey border) to Islam Qala (Afghanistan border)","type":"route","fixme":"official ESCAP route is incoherent with the routing for this Eastbound relation","route":"road","int_ref":"AH1","name:bn":"এশিয়ান হাইওয়ে ১","name:de":"Asien Fernstraße AH1","name:en":"Asian Highway AH1","name:fr":"Route asiatique AH1","name:hi":"एशियाई राजमार्ग १","name:id":"Jalan Asia AH1","name:ja":"アジアハイウェイ1号線","name:km":"ផ្លូវហាយវេអាស៊ី១","name:ko":"아시안 하이웨이 1호선","name:ms":"Lebuh Raya Asia AH1","name:ru":"Азиатский маршрут AH1","name:th":"ทางหลวงสายเอเชียAH1","name:tr":"Asya Yolu AH1","name:vi":"Đường Xuyên Á AH1","name:zh":"亚洲公路1号线","network":"AH","section":"Iran","int_name":"Asian Highway AH1","wikidata":"Q494205","wikipedia":"en:AH1"}}