{"8196938":{"ref":"M3","name":"Kampala-Entebbe Expressway","type":"route","route":"road","operator":"UNRA - Uganda National Roads Authority"},"8209361":{"ref":"A003","name":"Entebbe Road","type":"route","route":"road","alt_name":"Zana - Entebbe Airport","operator":"UNRA - Uganda National Roads Authority"},"8209362":{"name":"Southern Bypass","type":"route","route":"road","alt_name":"Munyonyo-Entebbe Expressway"},"8267468":{"name":"Jinja Road","type":"route","route":"road"},"8267469":{"name":"Southern Bypass","type":"route","route":"road"},"8276970":{"name":"Nakivubo Road","type":"route","route":"road"},"10517222":{"name":"Kigo road","type":"route","route":"road"},"10517223":{"ref":"C171","name":"Muchanga road","type":"route","route":"road","alt_name":"Access to Kajjansi Airstrip","operator":"UNRA - Uganda National Roads Authority"},"10525414":{"name":"Wankulukuku road","type":"route","route":"road","highway":"secondary"},"12001776":{"name":"Lugard Avenue","type":"route","route":"road","highway":"tertiary"},"12001777":{"ref":"A003","name":"Portal Road","type":"route","route":"road","alt_name":"Zana - Entebbe Airport","operator":"UNRA - Uganda National Roads Authority"},"12001778":{"ref":"A003","name":"Portal Road","type":"route","route":"road","alt_name":"Zana - Entebbe Airport","operator":"UNRA - Uganda National Roads Authority"},"12028216":{"name":"Uringi Crescent","type":"route","lanes":"2","route":"road","highway":"tertiary"},"12132490":{"name":"Nabweru Road","type":"route","route":"road"},"12153280":{"ref":"C177","name":"Tunnel Road","type":"route","route":"road","highway":"tertiary","alt_name":"Access to Kigungu","operator":"UNRA - Uganda National Roads Authority - Kampala station"},"12176499":{"ref":"14737","name":"Mackinon Road","type":"route","owner":"government","route":"road","alt_name":"Mackinnon Road","operator":"Nakasero I - KCCA - Kampala Capital City Authority"},"12176500":{"name":"Kiira Road","type":"route","route":"road","alt_name":"Kiira Road"},"12230021":{"ref":"A002","name":"Kampala - Masaka Road","type":"route","lanes":"2","route":"road","highway":"primary","surface":"asphalt","maxspeed":"100","operator":"UNRA - Uganda National Roads Authority"},"12256951":{"ref":"C880","name":"Mbale-Bufumbo","type":"route","route":"road","source":"UNRA - Uganda National Roads Authorithy","network":"Uganda National Roads","distance":"16.458","operator":"UNRA - Uganda National Roads Authority - Mbale station","source:date":"01-12-2017","destination:forward":"Bufumbo","destination:backward":"Mbale"},"12283456":{"ref":"A107-02","name":"Tororo - Magodes - Nabumali","type":"route","route":"road","source":"UNRA - Uganda National Roads Authorithy","network":"Uganda National Roads","operator":"UNRA - Uganda National Roads Authority - Tororo station"},"12283457":{"ref":"A107-03","name":"Nabumali - Mbale","type":"route","route":"road","network":"Uganda National Roads","operator":"UNRA - Uganda National Roads Authority - Mbale station"},"12293342":{"to":"Oluko Road Junction","from":"Post Bank - Arua","name":"Osu Road","type":"route","route":"road"},"12825785":{"ref":"C865","name":"Magodes-Busumbu","type":"route","route":"road","source":"UNRA - Uganda National Road Authority","alt_name":"Molo-Butiro","operator":"UNRA-Station Tororo"},"13181832":{"to":"Namutere","ref":"B308-01","from":"Busia","name":"Namutere - Busia","type":"route","route":"road","source":"UNRA - Uganda National Roads Authority","surface":"asphalt","alt_name":"Busia Road; Customs Street; Customs Road","operator":"UNRA station Tororo","destination:forward":"Namutere - A001","destination:backward":"Busia"},"13281974":{"ref":"C836-01","name":"Nyambogo - Iyolwa - Mulanda","type":"route","route":"road","source":"UNRA - Uganda National Road Authority","highway":"tertiary","operator":"UNRA station Tororo","source:date":"2017-12-01"},"13284781":{"ref":"C782-02","name":"Musita-Mayuge-Nankoma-Namayingo-Lumino","type":"route","route":"road","source":"UNRA - Uganda National Roads Authority","surface":"asphalt","operator":"UNRA station Tororo"},"13284782":{"ref":"C830-01","name":"Busia - Majanji","type":"route","route":"road","source":"UNRA - Uganda National Roads Authority","network":"Uganda National Roads","distance":"26.982","operator":"UNRA station Tororo"},"13305879":{"to":"Tororo","ref":"A001-10","from":"Namutere","name":"Namutere - Tororo junction","type":"route","route":"road","source":"UNRA - Uganda National Road Authority","network":"Uganda National Roads","distance":"28.29","operator":"UNRA station Tororo","source:date":"2017-12-01"},"13315968":{"ref":"C801-01","name":"Lwangosha - Lufudu","type":"route","lanes":"2","route":"road","width":"7.5","source":"UNRA - Uganda National Roads Authority","highway":"secondary","operator":"UNRA - Uganda National Roads Authority - Tororo station"},"13316323":{"to":"Namutere","ref":"A001-09","from":"Muwayo","name":"Bugiri - Namutere","type":"route","route":"road","source":"UNRA - Uganda National Road Authority","network":"Uganda National Roads","distance":"3.559","operator":"UNRA station Tororo","source:date":"2017-12-01"},"13316324":{"to":"Muwayo","ref":"A001-08","from":"Nakalama","name":"Nakalama - Bugiri","type":"route","route":"road","source":"UNRA - Uganda National Road Authority","network":"Uganda National Roads","distance":"51.314","operator":"UNRA station Tororo","source:date":"2017-12-01"}}