{"26621":{"ref":"E 40","name":"European route E 40","type":"superroute","route":"road","name:cs":"Evropská silnice E40","name:en":"European route E 40","name:fr":"Route européenne E 40","name:nl":"Europese route E40","name:pl":"Trasa europejska E 40","name:ru":"Европейский маршрут E 40","name:sk":"Európska cesta E 40","name:uk":"Європейський маршрут E40","network":"e-road","wikidata":"Q327162","wikipedia":"en:European route E40","description":"E 40 Calais - Ridder","e-road:class":"A-intermediate","description:fr":"E 40 Calais - Ridder"},"2574938":{"ref":"E 40","name":"European route E 40","road":"e-road","type":"route","route":"road","int_ref":"E 40","name:fr":"Route européenne E 40","network":"e-road","section":"Uzbekistan"},"3111099":{"ref":"4P55","name":"4P55","type":"route","route":"road","name:ru":"Митан-Кушработ-Нурота","network":"local","distance":"127"},"3111100":{"ref":"4P49","name":"Челак - Пайарык - \\\"Маржонбулок - Кушработ\\\" (45- км)","type":"route","route":"road","name:ru":"Челак - Пайарык - \\\"Маржонбулок - Кушработ\\\" (45- км)","network":"local","distance":"32"},"3111120":{"ref":"4P50","name":"Тайлак-Ургут","type":"route","route":"road","name:ru":"Тайлак-Ургут","network":"local","distance":"24"},"3111136":{"ref":"4P46","name":"Самарканд-Джума-Каттакурган","type":"route","route":"road","name:ru":"Самарканд-Джума-Каттакурган","network":"local","distance":"64"},"3122331":{"ref":"4P1","name":"Toshkent halqa avtomobil yo'li","type":"route","route":"road","name:en":"Tashkent ring road","name:ru":"Ташкентская кольцевая автодорога","name:uz":"Toshkent halqa avtomobil yo'li","network":"local","addr:street":"Toshkent halqa avtomobil yo'li"},"3225551":{"ref":"4P157","name":"Ургенч-Янгиарык","type":"route","route":"road","state":"connection","name:ru":"Ургенч-Янгиарык","network":"local"},"3605486":{"ref":"A379","name":"Навои-Учкудук","type":"route","route":"road","state":"connection","name:en":"Navoiy-Uchquduq"},"4774116":{"ref":"P97","name":"P97","type":"network","route":"road","network":"uz:regional"},"5864971":{"ref":"AH62","name":"Asian Highway AH62","type":"route","route":"road","int_ref":"AH62","network":"AsianHighway","wikidata":"Q12973954","wikipedia":"en:AH62"},"5864972":{"ref":"AH65","name":"Asian Highway AH65","type":"route","route":"road","int_ref":"AH65","network":"AsianHighway"},"5864974":{"ref":"E 005","name":"European route E 005","type":"route","route":"road","name:en":"European route E 005","name:fr":"Route européenne E 005","name:nl":"Europese route E005","network":"e-road","wikidata":"Q731942","description:fr":"E 005 Guza - Samarcande"},"5864975":{"ref":"E 006","name":"European route E 006","type":"route","route":"road","name:en":"European route E 006","name:fr":"Route européenne E 006","name:nl":"Europese route E006","network":"e-road","wikidata":"Q1900649","description:fr":"E 006 Aini - Kokand"},"5864976":{"ref":"E 007","name":"European route E 007","type":"route","route":"road","name:en":"European route E 007","name:fr":"Route européenne E 007","name:nl":"Europese route E007","network":"e-road","wikidata":"Q2129887","description:fr":"E 007 Tachkent - Irkeshtam"},"5864978":{"ref":"E 010","name":"European route E 010","type":"route","route":"road","name:en":"European route E 010","name:fr":"Route européenne E 010","name:nl":"Europese route E010","network":"e-road","wikidata":"Q1861681","description:fr":"E 010 Och - Bichkek"},"5864980":{"ref":"E 60","name":"European route E 60","type":"route","route":"road","network":"e-road","section":"Uzbekistan"},"5866045":{"ref":"E 003","name":"European route E 003","type":"route","route":"road","name:en":"European route E 003","name:fr":"Route européenne E 003","name:nl":"Europese route E003","network":"e-road","wikidata":"Q2295054","description:fr":"E 003 Uchkuduk - Gaudan"},"5944201":{"ref":"E 004","name":"European route E 004","type":"route","route":"road","name:en":"European route E 004","name:fr":"Route européenne E 004","name:nl":"Europese route E004","network":"e-road","wikidata":"Q2253476","description:fr":"E 004 Kyzylorda - Boukhara"},"7215270":{"ref":"E 123","name":"European route E 123","type":"route","route":"road","name:de":"Europastraße 123","name:en":"European route E 123","name:fr":"Route européenne E 123","name:nl":"Europese route E123","name:pl":"Trasa europejska E 123","name:ru":"Европейский маршрут E 123","name:sk":"Európska cesta E 123","network":"e-road","wikidata":"Q1821054","wikipedia":"en:European route E123","description":"Chelyabinsk - Kostanay - Zapadnoe (Toksan bi) - Buzuluk - Derzhavinsk - Arkalyk - Zhezkazgan - Kyzylorda - Shymkent - Tashkent - Aini - Dushanbe - Nizhny Pyanj - Sher Khan Bandar","description:fr":"E 123 Tcheliabinsk - Sher Khan Bandar"},"7970898":{"ref":"4P7","name":"Toshkent sh. - Niyozboshi q. - Qo'shyog'och - M-34 a/yo'li (41- km)","type":"route","route":"road","name:ru":"Ташкент-Ниязбаш-Куш Ёгач-M34(41 км.)","network":"national","distance":"37"},"8212690":{"ref":"4P63","name":"Kogon - Quymazor - Qiziltepa - Toshrabot - Arabsaroy - Yangiqo'rg'on","type":"route","route":"road","name:ru":"Каган - Янгикурган","network":"national","operator":"Uzavtoyul"},"8213831":{"ref":"4P77","name":"Qoraqum sh. - Yangibozor q.- Xo'jadavlat temir yo'l bekati","type":"route","route":"road","name:ru":"Коракум-Янгибазар-Ходжадавлет жд станция","nat_ref":"4R77","network":"national","distance":"37","operator":"Uzavtoyul"},"8218614":{"ref":"4P20","name":"Qorasuv q.-Bo'ka sh.-Bekobod sh.","type":"route","route":"road","name:ru":"Корасу-Бука-Бекабад","nat_ref":"4P20","network":"national","distance":"144"},"8241613":{"ref":"4R-176","name":"No'kis q. - Shimbay q. - Taxtako'pir","type":"route","route":"road","name:ru":"Нукус-Чимбай-Тахтакупыр","name:uz":"Nukus sh. -Chimboy sh.- Taxtako'pir shNukus sh. -Chimboy sh.- Taxtako'pir sh","network":"national","distance":"155","operator":"UzAvtoyul"},"8445739":{"ref":"A-381","name":"A381","type":"route","route":"road"},"11032225":{"ref":"93","name":"№93 Массив Куйлюук-1 - Юнысабад 9-й квартал","type":"route","route":"road","operator":"Toshshahartransxizmat"},"11131508":{"name":"Qorako'l sh - Mirzaqal`a q - Jig'achi q.","type":"route","route":"road","name:ru":"г. Каракул - с. Мирзакала - с. Джигачи","nat_ref":"4K198"},"12077374":{"ref":"4P69","name":"Buxoro shahar - Buxoro parranda - 41-temir yo'l raz`ezdi - To'dako'l dahasi - Navoiy shahri","type":"route","route":"road"},"12094637":{"name":"Shimbay aylanba joli","type":"route","route":"road","name:en":"Chimbay bypass road","name:ru":"Чимбайская объездная дорога"},"12098432":{"name":"Keyeyli - Shimbay avtotrassasi","type":"route","route":"road","name:ru":"Автотрасса Кегейли - Чимбай"},"13838477":{"ref":"3","name":"Nurafshon street","type":"route","route":"road"}}