{"152361":{"ref":"AH1","url":"http://wiki.openstreetmap.org/wiki/Asia/Asian_Highway_Network","name":"Đường Xuyên Á số 1","type":"route","route":"road","symbol":"https://en.wikipedia.org/wiki/AH1#/media/File:Tabliczka_AH1.svg","name:bn":"এশিয়ান হাইওয়ে ১","name:de":"Asiatische Fernstraße 1","name:en":"Asian Highway 1","name:fa":"بزرگراه آسیایی شماره ۱","name:fr":"Route asiatique 1","name:hi":"एशियाई राजमार्ग १","name:id":"Jalan Asia 1","name:ja":"アジアハイウェイ1号線","name:km":"ផ្លូវហាយវេអាស៊ី១","name:ko":"아시안 하이웨이 1호선","name:ms":"Lebuh Raya Asia 1","name:my":"အာရှအဝေးပြေး ၁","name:ru":"Азиатский маршрут 1","name:th":"ทางหลวงสายเอเชีย1","name:tr":"Asya Yolu 1","name:vi":"Đường xuyên Á số 1","name:zh":"亚洲公路1号线","network":"AsianHighway","section":"Vietnam","int_name":"Asian Highway 1","wikidata":"Q494205","wikipedia":"en:AH1"},"393937":{"to":"Đất Mũi","ref":"HCM","from":"Pác Bó","name":"Đường Hồ Chí Minh","type":"route","lanes":"2-6","route":"road","symbol":"https://vi.wikipedia.org/wiki/%C4%90%C6%B0%E1%BB%9Dng_H%E1%BB%93_Ch%C3%AD_Minh#/media/T%E1%BA%ADp_tin:DHCM,_VNM.svg","name:en":"Ho Chi Minh Highway","network":"vn:national","distance":"3.167 km","wikidata":"Q2178239","wikipedia":"vi:Đường Hồ Chí Minh"},"394237":{"ref":"QL.12","name":"Quốc lộ 12","type":"route","route":"road","network":"VI-roads"},"452677":{"ref":"1D","name":"Quốc lộ 1D","type":"route","route":"road","name:en":"National road 1D","name:vi":"Quốc lộ 1D","network":"VN-roads","wikidata":"Q10810948"},"453776":{"ref":"7","name":"Quốc lộ 7","type":"route","route":"road","name:en":"National road 7","name:vi":"Quốc lộ 7","network":"VN-roads"},"1079222":{"to":"QL.27, Đơn Dương, Lâm Đồng","ref":"QL.20","from":"QL.1 Dầu Giây, Đồng Nai","name":"Quốc lộ 20","type":"route","route":"road","symbol":"https://vi.wikipedia.org/wiki/Qu%E1%BB%91c_l%E1%BB%99_20#/media/T%E1%BA%ADp_tin:QL_20,_VNM.svg","name:en":"National Route 20","network":"vn:national","distance":"279","wikidata":"Q1904071","wikipedia":"vi:Quốc lộ 20"},"1079404":{"to":"QL.13 tại Hưng Long, Chơn Thành, Bình Phước","ref":"QL.14","from":"QL.9 tại Đakrông, Quảng Trị","name":"Quốc lộ 14","type":"route","lanes":"2","route":"road","oneway":"yes","symbol":"https://vi.wikipedia.org/wiki/Qu%E1%BB%91c_l%E1%BB%99_14#/media/T%E1%BA%ADp_tin:QL_14,_VNM.svg","name:en":"National Highway 14","name:vi":"Quốc lộ 14","network":"vn:national","distance":"980","wikidata":"Q2027241","wikipedia":"vi:Quốc lộ 14"},"1929646":{"ref":"ĐT.983","name":"Đường tỉnh 983","type":"route","route":"road"},"2162003":{"ref":"481","name":"Tỉnh lộ 481","type":"route","route":"road","highway":"secondary","network":"VN-TL","alt_name":"Đường Cà Mau"},"2163035":{"ref":"480B","name":"Tỉnh lộ 480B","type":"route","route":"road","highway":"secondary","network":"VN-TL"},"2163036":{"ref":"ĐT.480C","name":"Đường tỉnh 480C","type":"route","route":"road"},"2164925":{"ref":"481B","name":"Tỉnh lộ 481B","type":"route","route":"road","highway":"secondary","network":"VN-TL"},"2164926":{"ref":"481C","name":"Tỉnh lộ 481C","type":"route","route":"road","highway":"secondary","network":"VN-TL"},"2164927":{"ref":"ĐT.481D","name":"Đường tỉnh 481D","type":"route","route":"road","network":"VN-TL"},"3839665":{"ref":"AH1","name":"Asian Highway AH1","note":"Add individual roadways to the subrelation corresponding to the national route leg, not this international route superrelation.","type":"route","route":"road","name:bn":"এশিয়ান হাইওয়ে ১","name:de":"Asien Fernstraße AH1","name:en":"Asian Highway AH1","name:fa":"بزرگراه آسیایی شماره ۱","name:fr":"Route asiatique AH1","name:hi":"एशियाई राजमार्ग १","name:id":"Jalan Asia AH1","name:ja":"アジアハイウェイ1号線","name:km":"ផ្លូវហាយវេអាស៊ី១","name:ko":"아시안 하이웨이 1호선","name:ms":"Lebuh Raya Asia AH1","name:my":"အာရှအဝေးပြေး ၁","name:ru":"Азиатский маршрут AH1","name:th":"ทางหลวงสายเอเชียAH1","name:tr":"Asya Yolu AH1","name:vi":"Đường Xuyên Á AH1","name:zh":"亚洲公路1号线","network":"AsianHighway","wikidata":"Q494205","wikipedia":"en:AH1"},"6608102":{"to":"QL.14, Ea T'ling, Đắk Nông","ref":"QL.28","from":"QL.1, Phan Thiết, Bình Thuận","name":"Quốc lộ 28","type":"route","route":"road","name:en":"National Route 28","network":"vn:national","distance":"309"},"6722851":{"ref":"QL.18","name":"Quốc lộ 18","type":"route","route":"road"},"7100877":{"name":"võ nguyên giáp","type":"route","route":"road"},"7385001":{"name":"Đường Vành đai 1 TP. Hà Nội","type":"route","route":"road","name:en":"Ring Road 1","old_name":"Route circulaire"},"7385141":{"ref":"CT.37","name":"Đường vành đai 3 TP. Hà Nội","type":"route","route":"road","symbol":"https://en.wikipedia.org/wiki/Ringway_3_(Hanoi)#/media/File:CT_37,_VNM.svg","name:en":"Ring Road 3","network":"vn:expressway","distance":"65","wikidata":"Q10841036","wikipedia":"vi:Đường vành đai 3 (Hà Nội)"},"7388559":{"ref":"CT.04","name":"Đường cao tốc Hà Nội – Hải Phòng","toll":"yes","type":"route","route":"road","symbol":"https://en.wikipedia.org/wiki/Hanoi%E2%80%93Haiphong_Expressway#/media/File:CT_04,_VNM.svg","alt_ref":"QL.5B","name:en":"Hanoi – Haiphong Expressway","network":"vn:expressway","alt_name":"Quốc lộ 5B","wikidata":"Q10840990","wikipedia":"vi:Đường cao tốc Hà Nội – Hải Phòng","start_date":"2015","alt_name:en":"National Highway 5B"},"7389636":{"to":"Cửa khẩu quốc tế đường bộ số 1 Kim Thành.","ref":"CT.05","from":"nút giao thông quốc lộ 18A với quốc lộ 2 tại xã Thanh Xuân, huyện Sóc Sơn, thành phố Hà Nội","name":"Đường cao tốc Hà Nội - Lào Cai","type":"route","route":"road","symbol":"https://en.wikipedia.org/wiki/Hanoi%E2%80%93Lao_Cai_Expressway#/media/File:CT_05,_VNM.svg","name:en":"Hanoi - Lao Cai Expressway","network":"vn:expressway","alt_name":"Đường cao tốc Nội Bài - Lào Cai","distance":"265 km","maxspeed":"100","minspeed":"60","wikidata":"Q10840994","wikipedia":"vi:Đường cao tốc Nội Bài – Lào Cai"},"7433842":{"ref":"CT.03","name":"Đại lộ Thăng Long","type":"route","route":"road","name:en":"Thang Long Avenue","alt_name":"Đường cao tốc Láng - Hòa Lạc","distance":"30","wikidata":"Q10841248","wikipedia":"vi:Đại lộ Thăng Long","start_date":"2010-10-03"},"7433843":{"to":"Thạch Bàn, Long Biên, Hà Nội","ref":"CT.01","from":"Xóm Núm, Thành phố Bắc Giang, Bắc Giang","name":"Đường cao tốc Hà Nội – Bắc Giang","type":"route","route":"road","name:en":"Hanoi – Bac Giang Expressway","network":"vn:expressway","distance":"48.6","wikidata":"Q125019737","wikipedia":"vi:Đường cao tốc Hà Nội – Bắc Giang"},"7433845":{"to":"Dĩnh Trì, thành phố Bắc Giang, Bắc Giang","ref":"CT.01","from":"Cửa khẩu Hữu Nghị, Cao Lộc, Lạng Sơn","name":"Đường cao tốc Bắc Giang – Lạng Sơn","type":"route","route":"road","name:en":"Bac Giang – Lang Son Expressway","network":"vn:expressway","distance":"107","wikidata":"Q49088055","wikipedia":"vi:Đường cao tốc Bắc Giang – Lạng Sơn"},"7461973":{"to":"Yên Hồng, Ý Yên, Nam Định","ref":"CT.01","from":"Đại Xuyên, Phú Xuyên, Hà Nội","name":"Đường cao tốc Cầu Giẽ - Ninh Bình","type":"route","route":"road","name:en":"Cau Gie - Ninh Binh Expressway","distance":"50","wikidata":"Q16479979","wikipedia":"vi:Đường cao tốc Cầu Giẽ – Ninh Bình","start_date":"2012-06-30"},"7461974":{"to":"Đại Xuyên, Phú Xuyên, Hà Nội","ref":"CT.01","from":"Hoàng Liệt, Hoàng Mai, Hà Nội","name":"Đường cao tốc Pháp Vân - Cầu Giẽ","type":"route","route":"road","int_ref":"AH1","name:en":"Phap Van - Cau Gie Expressway","distance":"32.3","wikidata":"Q10840982","wikipedia":"vi:Đường cao tốc Pháp Vân – Cầu Giẽ","start_date":"2002-01-01"},"9803653":{"ref":"VĐ2","name":"Đường vành đai 2 TP. Hà Nội","type":"route","route":"road","name:en":"Ring Road 2","distance":"43.6"},"9959046":{"ref":"ĐT.132","name":"Đường tỉnh 132","type":"route","route":"road","name:en":"Provincial Road 132"},"10259345":{"name":"Quảng Trường Sáng Tạo","type":"route","route":"road","name:en":"Creative Square"},"10272890":{"name":"Xa lộ Hà Nội","type":"route","route":"road","name:en":"Ha Noi Highway"},"10710868":{"ref":"QL.6","name":"Quốc lộ 6","type":"route","route":"road","symbol":"https://vi.wikipedia.org/wiki/Qu%E1%BB%91c_l%E1%BB%99_6#/media/T%E1%BA%ADp_tin:QL_6,_VNM.svg","name:en":"National Highway 6","network":"vn:national","distance":"478"},"11740301":{"to":"QL.61B, Tân Long, thị xã Ngã Năm, Sóc Trăng","ref":"QL.60","from":"QL.1, thành phố Mỹ Tho, Tiền Giang","name":"Quốc lộ 60","type":"route","lanes":"2-6 lanes","route":"road","name:en":"National Route 60","name:ja":"ハイウェイ60 (ベトナム)","network":"vn:national"},"12340802":{"to":"Thống Nhất, Đồng Nai","ref":"CT.29","from":"Vành đai 3 Thành phố Hồ Chí Minh","name":"Đường cao tốc Thành phố Hồ Chí Minh – Long Thành – Dầu Giây","type":"route","lanes":"6-10","route":"road","symbol":"https://en.wikipedia.org/wiki/Ho_Chi_Minh_City%E2%80%93Long_Thanh%E2%80%93Dau_Giay_Expressway#/media/File:CT_29,_VNM.svg","name:en":"Ho Chi Minh City–Long Thanh–Dau Giay Expressway","network":"vn:expressway","distance":"55.7","wikidata":"Q16479982","wikipedia":"vi:Đường cao tốc Thành phố Hồ Chí Minh – Long Thành – Dầu Giây","start_date":"2015-02-08"},"12340803":{"to":"Tiền Giang","ref":"CT.01","from":"Thành phố Hồ Chí Minh","name":"Đường cao tốc Thành phố Hồ Chí Minh – Trung Lương","type":"route","route":"road","name:en":"Ho Chi Minh City – Trung Luong Expressway","distance":"61.9","wikidata":"Q10840995","wikipedia":"vi:Đường cao tốc Thành phố Hồ Chí Minh – Trung Lương","start_date":"2010-02-03"},"12825974":{"to":"Chân đèo Pren, Đức Trọng, Lâm Đồng","ref":"CT.27","from":"Đường cao tốc TP. Hồ Chí Minh - Long Thành - Dầu Giây, Đồng Nai","name":"Đường cao tốc Dầu Giây – Liên Khương","type":"route","route":"road","symbol":"https://en.wikipedia.org/wiki/Dau_Giay%E2%80%93Dalat_Expressway#/media/File:CT_27,_VNM.svg","name:en":"Dau Giay - Lien Khuong Expressway","name:vi":"Đường cao tốc Dầu Giây - Liên khương","network":"vn:expressway","distance":"220 km","wikidata":"Q24959146","wikipedia":"vi:Đường cao tốc Dầu Giây – Liên Khương"},"12830274":{"to":"Quốc lộ 56, thành phố Bà Rịa","ref":"CT.28","from":"Thành phố Biên Hòa","name":"Đường cao tốc Biên Hoà - Vũng Tàu","type":"route","lanes":"6-8","route":"road","symbol":"https://en.wikipedia.org/wiki/Bien_Hoa%E2%80%93Vung_Tau_Expressway#/media/File:CT_28,_VNM.svg","name:en":"Bien Hoa - Vung Tau Expressway","name:vi":"Đường cao tốc Biên Hòa - Vũng Tàu","network":"vn:expressway","distance":"54 km","wikidata":"Q24957174","opening_date":"2026","wikipedia:vi":"Đường cao tốc Biên Hòa – Vũng Tàu"},"13006619":{"to":"Đường Hồ Chí Minh nhánh Tây, Quảng Ninh, Quảng Bình","ref":"QL9E","from":"Quảng Trường Bảo Ninh","name":"Quốc Lộ 9E","type":"route","lanes":"2-4 lanes","route":"road","name:en":"National Highway 9E","name:ja":"ハイウェイ9E (ベトナム)","network":"vn:national","distance":"43km"},"13293777":{"name":"Cầu Ba Son","type":"route","route":"road","wikidata":"Q19705165","wikipedia":"vi:Cầu Ba Son"},"13472151":{"to":"Đường Hồ Chí Minh, Lâm Thủy, Lệ Thủy, Quảng Bình","ref":"QL.9C","from":"Ngư Thủy Trung, Lệ Thủy, Quảng Bình","name":"Quốc lộ 9C","type":"route","lanes":"2","route":"road","symbol":"https://vi.wikipedia.org/wiki/Qu%E1%BB%91c_l%E1%BB%99_9C#/media/T%E1%BA%ADp_tin:QL_9C,_VNM.svg","name:en":"National Highway 9C","network":"VN:national","distance":"44 km","wikipedia":"vi:Quốc lộ 9C"},"13472152":{"to":"Cửa khẩu Cha Lo","from":"Quốc lộ 1A","name":"Quốc lộ 12A","type":"route","route":"road"},"13478662":{"ref":"QL.12C","name":"Quốc lộ 12C","type":"route","route":"road"},"13479076":{"ref":"QL.49","name":"Quốc lộ 49","type":"route","route":"road"},"13479077":{"to":"Đường Hồ Chí Minh, Đông Giang, Quảng Nam","ref":"QL14G","from":"Túy Loan, Hòa Vang, thành phố Đà Nẵng","name":"Quốc lộ 14G","type":"route","route":"road","network":"vn:national","distance":"66 km"},"13481335":{"to":"Đường Hồ Chí Minh, Phước Sơn, Quảng Nam","ref":"QL.14E","from":"Ngã ba Bình Minh, Thăng Bình, Quảng Nam","name":"Quốc lộ 14E","type":"route","lanes":"2","route":"road","symbol":"https://vi.wikipedia.org/wiki/Qu%E1%BB%91c_l%E1%BB%99_14E#/media/T%E1%BA%ADp_tin:QL_14E,_VNM.svg","network":"vn:national","distance":"88 km"},"13481336":{"name":"Quốc lộ 40","type":"route","route":"road"},"13481337":{"name":"Quốc lộ 14C","type":"route","route":"road"},"13487255":{"to":"QL.14C, Sa Thầy, Kon Tum","ref":"QL.24","from":"QL.1, Mộ Đức, Quảng Ngãi","name":"Quốc lộ 24","type":"route","lanes":"2-4","route":"road","symbol":"https://vi.wikipedia.org/wiki/Qu%E1%BB%91c_l%E1%BB%99_24#/media/T%E1%BA%ADp_tin:QL_24,_VNM.svg","name:en":"National Highway 24","network":"vn:national","distance":"225 km"},"13488072":{"ref":"AH17","name":"Aisan Highway 17","type":"route","route":"road"},"13490968":{"name":"Vành đai 3","type":"route","route":"road"},"13501428":{"to":"Cửa khẩu quốc tế Mộc Bài","from":"Cầu vượt Trạm 2","name":"Xuyên Á","type":"route","route":"road"},"13501807":{"ref":"AH17","name":"Đường xuyên Á số 17","type":"route","route":"road","name:en":"Asian Highway 17"},"13517488":{"name":"Đường Vành đai 2 TP.HCM","type":"route","route":"road","name:en":"HCMC Ring Road 2","wikidata":"Q49081498","wikipedia":"vi:Đường vành đai 2 (Thành phố Hồ Chí Minh)"},"13535649":{"name":"Xuyên Á","type":"route","route":"road"},"13537812":{"name":"Xa lộ Đại Hàn","type":"route","route":"road"},"13543926":{"name":"Đại lộ Đông Tây","type":"route","route":"road"},"13584503":{"ref":"CT.41","name":"Đường vành đai 4 TP.HCM","type":"route","route":"road","symbol":"https://vi.wikipedia.org/wiki/%C4%90%C6%B0%E1%BB%9Dng_v%C3%A0nh_%C4%91ai_4_(Th%C3%A0nh_ph%E1%BB%91_H%E1%BB%93_Ch%C3%AD_Minh)#/media/T%E1%BA%ADp_tin:CT_41,_VNM.svg","name:en":"HCMC Ring Road 4","network":"vn:expressway","wikipedia":"vi:Đường vành đai 4 (Thành phố Hồ Chí Minh)"},"13644201":{"name":"Xuyên Á","type":"route","route":"road"},"13658954":{"name":"Hồ Chí Minh","type":"route","route":"road"},"13685076":{"to":"Đường vành đai tại TP Cà Mau (Cà Mau)","ref":"CT.01","from":"Cửa khẩu Hữu Nghị (Lạng Sơn)","name":"Đường cao tốc Bắc - Nam phía Đông","type":"route","route":"road","symbol":"https://en.wikipedia.org/wiki/North%E2%80%93South_expressway_(Vietnam)#/media/File:CT_01,_VNM.svg","name:de":"Nord-Süd-Schnellstraße Osten (Vietnam)","name:en":"North–South Expressway East (Vietnam)","name:fr":"Voie express Nord-Sud Est (Vietnam)","name:ja":"東部南北高速道路（ベトナム））","name:vi":"Đường cao tốc Bắc - Nam phía Đông","network":"vn:expressway","distance":"2063 km","maxspeed":"120","minspeed":"60","wikidata":"Q1140637","wikipedia":"vi:Đường cao tốc Bắc – Nam phía Đông"},"13697891":{"ref":"CT.07","from":"Ninh Hiệp","name":"Đường cao tốc Hà Nội – Thái Nguyên – Bắc Kạn – Cao Bằng","type":"route","route":"road","symbol":"https://en.wikipedia.org/wiki/Expressways_of_Vietnam#/media/File:CT_07,_VNM.svg","name:en":"Hanoi - Thai Nguyen - Bac Kan - Cao Bang Expressway","network":"vn:expressway","alt_name":"Quốc lộ 3 mới"},"13706703":{"to":"Đường tránh Thành phố Rạch Giá (Kiên Giang)","ref":"CT.02","from":"xã Lưỡng Vượng, TP.Tuyên Quang (Tuyên Quang)","name":"Đường cao tốc Bắc - Nam phía Tây","type":"route","route":"road","name:en":"North–South Expressway West","name:ja":"南北高速道路西区間（ベトナム）","network":"vn:expressway","distance":"1,205 km (748.7 mi)","maxspeed":"120","minspeed":"60","wikidata":"Q75787329","wikipedia":"vi:Đường cao tốc Bắc – Nam (Tây Việt Nam)"},"13764931":{"to":"Cửa khẩu Tây Trang, Điện Biên","ref":"QL.279","from":"Quốc lộ 18 tại Ngã tư Ao Cá, Thành phố Hạ Long","name":"Quốc lộ 279","type":"route","route":"road","name:en":"National Highway 279","network":"vn:national","distance":"835 km (518.8 mi)","wikidata":"Q10810964","wikipedia":"vi:Quốc lộ 279"},"13843716":{"to":"Thị xã Việt Quang, Hà Giang","ref":"CT.12","from":"Đường cao tốc Hà Nội - Lào Cai (IC14), thị trấn Mậu A, Yên Bá","name":"Tuyến nối đường cao tốc Hà Nội - Lào Cai với Hà Giang","type":"route","lanes":"2","layer":"1","route":"road","highway":"construction","name:en":"Expressway connecting Hanoi - Lao Cai Expressway with Ha Giang","network":"vn:expressway","distance":"81km (50.3mi)","maxspeed":"100","minspeed":"80","construction":"mototway"},"13843819":{"to":"Cửa khẩu Ma Lù Thàng, Lai Châu","ref":"CT.13","from":"Đường cao tốc Hà Nội - Lào Cai (IC.16), Lào Cai","name":"Đường cao tốc Bảo Hà (Lào Cai) - Lai Châu","type":"route","lanes":"2","layer":"1","route":"road","highway":"construction","name:en":"Bao Ha (Lao Cai ) - Lai Chau Expressway","network":"vn:expressway","distance":"204km (126.7mi)","maxspeed":"100","minspeed":"80","construction":"motorway"},"13844057":{"to":"QL.54, Tập Sơn, Trà Cú, Trà Vinh","ref":"QL.53","from":"Thành phố Vĩnh Long","name":"Quốc lộ 53","type":"route","route":"road","name:en":"National Route 53","network":"vn:nationalroute","distance":"177km (110mi)"},"13884477":{"to":"Đường cao tốc Hạ Long - Vân Đồn, thành phố Hạ Long, Quảng Ninh","ref":"CT.09","from":"Đầu tuyến đường cao cao tốc Hà Nội - Lào Cai, Sóc Sơn, Hà Nội","name":"Đường cao tốc Nội Bài - Bắc Ninh - Hạ Long","type":"route","lanes":"2","layer":"1","route":"road","name:en":"Noi Bai - Bac Ninh - Ha Long Expressway","name:ja":"ノイバイ-ハロン高速道路","name:vi":"Đường cao tốc Nội Bài - Bắc Ninh - Hạ Long","network":"vn:expressway","distance":"146 km","maxspeed":"100","minspeed":"80"},"13932745":{"to":"QL.20, Đức Trọng, Lâm Đồng","ref":"QL28B","from":"QL.1, Bắc Bình, Bình Thuận","name":"Quốc lộ 28B","type":"route","lanes":"2","route":"road","name:en":"National Route 28B","network":"vn:national","distance":"69 km","maxspeed":"80","minspeed":"40"},"13981934":{"to":"Ba Tri, Bến Tre","ref":"QL57B","from":"QL.57C, Châu Thành, Bến Tre","name":"Quốc lộ 57B","type":"route","lanes":"2-4 lanes","route":"road","name:en":"National Route 57B","name:ja":"ハイウェイ57B (ベトナム)","network":"vn:national","distance":"87km"},"14018648":{"name":"Đường Lê Thái Tổ","type":"route","route":"road"},"14018649":{"name":"Đường Lê Lai","type":"route","route":"road"},"14018650":{"name":"Đường Lê Thái Tông","type":"route","route":"road"},"14018652":{"name":"Phố Lê Ninh","type":"route","route":"road"},"14166302":{"to":"Km40+500 trên cao tốc CT.09 (Nội Bài - Hạ Long)","ref":"CT.38","from":"Km3+695 cao tốc CT.05 (Nội Bài - Lào Cai)","name":"Đường vành đai 4 (Hà Nội)","type":"route","route":"road","symbol":"https://vi.wikipedia.org/wiki/%C4%90%C6%B0%E1%BB%9Dng_v%C3%A0nh_%C4%91ai_4_(H%C3%A0_N%E1%BB%99i)#/media/T%E1%BA%ADp_tin:CT_38,_VNM.svg","name:en":"Ring Road 4 (Hanoi)","network":"vn:expressway","distance":"136.6 km (84.8 mi)"},"14177175":{"to":"QL.4G Thị trấn Sông Mã, Sơn La","ref":"QL.37","from":"Cảng Diêm Điền, Thái Bình","name":"Quốc lộ 37 (Vành đai 3)","type":"route","lanes":"2-4","route":"road","network":"vn:national","distance":"564 km (350.4 mi)","maxspeed":"80","minspeed":"40"},"14313453":{"ref":"CT.03","name":"Đường cao tốc Hòa Lạc – Hòa Bình","type":"route","route":"road","name:en":"Hoa Lac – Hoa Binh Expressway"},"14320206":{"to":"Đường cao tốc Bến Lức - Long Thành, Bến Lức, Long An","ref":"CT.40","from":"Đường cao tốc Bến Lức - Long Thành, Nhơn Trạch, Đồng Nai","lane":"8","name":"Đường vành đai 3 TP.HCM","type":"route","route":"road","symbol":"https://vi.wikipedia.org/wiki/%C4%90%C6%B0%E1%BB%9Dng_v%C3%A0nh_%C4%91ai_3_(Th%C3%A0nh_ph%E1%BB%91_H%E1%BB%93_Ch%C3%AD_Minh)#/media/T%E1%BA%ADp_tin:CT_40,_VNM.svg","name:en":"HCMC Ring Road 3","network":"vn:expressway","distance":"92 km","maxspeed":"100","minspeed":"80","wikidata":"Q61131797","wikipedia":"vi:Đường vành đai 3 (Thành phố Hồ Chí Minh)"},"14381704":{"ref":"1","name":"Hai bà Trưng","type":"route","route":"road","network":"lộ","distance":"ngả 3  2 đuing72 giao nguy hiểm"},"14388426":{"to":"- Đường Đồng Khởi","ref":"1","from":"Trần Quốc Tuấn","name":"Trần Quốc Tuấn","type":"route","route":"road","distance":"5m"},"14388431":{"to":"Trần Quốc Tuấn","ref":"1","from":"Đồng Khởi","name":"Đồng Khởi","type":"route","route":"road","distance":"5m"},"14404807":{"name":"Đường tránh TP.Kon Tum","type":"route","route":"road"},"14404808":{"ref":"CT.02","name":"Đường tránh TP.Pleiku","type":"route","route":"road"},"14456938":{"to":"Đường Hồ Chí Minh, thành phố Buôn Ma Thuột, Đắk Lắk","ref":"QL.26","from":"QL.1, thị xã Ninh Hòa, Khánh Hòa","name":"Quốc lộ 26","type":"route","route":"road","symbol":"https://vi.wikipedia.org/wiki/Qu%E1%BB%91c_l%E1%BB%99_26#/media/T%E1%BA%ADp_tin:QL_26,_VNM.svg","name:en":"National Route 26","network":"vn:national","distance":"154","wikidata":"Q10810960","wikipedia":"vi:Quốc lộ 26"},"14456939":{"to":"QL.26, thành phố Buôn Ma Thuột, Đắk Lắk","ref":"QL.27","from":"QL.1, thành phố Phan Giang - Tháp Chàm, Ninh Thuận","name":"Quốc lộ 27","type":"route","route":"road","symbol":"https://vi.wikipedia.org/wiki/Qu%E1%BB%91c_l%E1%BB%99_27#/media/T%E1%BA%ADp_tin:QL_27,_VNM.svg","name:en":"National Route 27","network":"vn:national","distance":"282","wikidata":"Q10810962","wikipedia":"vi:Quốc lộ 27"},"14460282":{"to":"Cửa khẩu Chàng Riệc, Tây Ninh","ref":"QL.22B","from":"QL.22, Gò Dầu, Tây Ninh","name":"Quốc lộ 22B","type":"route","route":"road","source":"GFS","network":"VN:national","distance":"104km"},"14460366":{"to":"Cửa khẩu Mộc Bài, Tây Ninh","ref":"QL.22","from":"QL.1, quận 12, Thành phố Hồ Chí Minh","name":"Quốc lộ 22","type":"route","route":"road","source":"GPS","int_ref":"AH1","name:en":"National Route 22"},"14484089":{"to":"Cầu Bắc Luân, Quảng Ninh","ref":"QL.18","from":"Đại Phúc, thành phố Bắc Ninh","lane":"2-4","name":"Quốc lộ 18","type":"route","route":"road","name:en":"National Route 18","name:ja":"国道18号","name:vi":"Quốc lộ 18","name:zh":"18号公路","network":"VN:national","distance":"325km","maxspeed":"80","minspeed":"60"},"14541769":{"ref":"AH17","url":"http://wiki.openstreetmap.org/wiki/Asia/Asian_Highway_Network","name":"Đường Xuyên Á số 17","type":"route","route":"road","symbol":"https://en.wikipedia.org/wiki/AH17#/media/File:Tabliczka_AH17.svg","name:de":"Asiatische Fernstraße 17","name:en":"Asian Highway 17","name:fr":"Route asiatique 17","name:id":"Jalan Asia 17","name:ja":"アジアハイウェイ17号線","name:ko":"아시안 하이웨이 17호선","name:ms":"Lebuh Raya Asia 17","name:ru":"Азиатский маршрут 17","name:th":"ทางหลวงสายเอเชีย17","name:tr":"Asya Yolu 17","name:vi":"Đường xuyên Á số 17","name:zh":"亚洲公路17号线","network":"AsianHighway","section":"Vietnam","int_name":"Asian Highway 17","wikidata":"Q95984296","wikipedia":"en:AH17"},"14548977":{"to":"Cửa khẩu Thanh Thủy, Hà Giang","ref":"QL.2","from":"Giao đường Bắc Thăng Long - Nội Bài, Hà Nội","name":"Quốc lộ 2","type":"route","lanes":"2-6","route":"road","symbol":"https://vi.wikipedia.org/wiki/Qu%E1%BB%91c_l%E1%BB%99_2#/media/T%E1%BA%ADp_tin:QL_2,_VNM.svg","name:en":"National Highway 2","network":"vn:national","distance":"321 km","maxspeed":"80"},"14549056":{"to":"QL.279, tại Cửa khẩu Tây Trang, Điện Biên","ref":"CT.03","from":"CT 37 tại nút giao Trung Hòa, Cầu Giấy, Hà Nội","name":"Đường cao tốc Hà Nội – Hòa Bình – Sơn La – Điện Biên","type":"route","lanes":"4-6","route":"road","name:en":"Hanoi - Hoa Binh - Son La - Dien Bien Expressway","network":"vn:expressway","distance":"444 km","maxspeed":"120","wikidata":"Q30920511","wikipedia":"vi:Đường cao tốc Hà Nội – Hòa Bình – Sơn La – Điện Biên"},"14562663":{"to":"Đường Hồ Chí Minh, thị trấn Đắk Tô, Kon Tum","ref":"QL.40B","from":"Đường ven biển, Tam Thanh, thành phố Tam Kỳ, Quảng Nam","name":"Quốc lộ 40B","type":"route","route":"road","symbol":"https://vi.wikipedia.org/wiki/Qu%E1%BB%91c_l%E1%BB%99_40B#/media/T%E1%BA%ADp_tin:QL_40B,_VNM.svg","name:en":"National Highway 40B","network":"vn:national","distance":"209 km"},"14566936":{"to":"Khu kinh tế Nghi Sơn","ref":"QL.47B;ĐT.506","from":"Cảng hàng không Thọ Xuân","name":"Đường Nghi Sơn – Thọ Xuân","type":"route","route":"road","name:en":"Route Nghi Son – Tho Xuan"},"14567255":{"to":"Cửa khẩu Bình Hiệp, Long An","ref":"QL.62","from":"QL.50, Gò Công, Tiền Giang","name":"Quốc lộ 62","type":"route","route":"road","network":"VN:national","distance":"114 km"},"14571666":{"to":"QL.38, thị xã Duy Tiên, Hà Nam","ref":"QL.37B","from":"QL.37, Thái Thụy, Thái Bình","name":"Quốc lộ 37B","type":"route","lanes":"2-4","route":"road","symbol":"https://vi.wikipedia.org/wiki/Qu%E1%BB%91c_l%E1%BB%99_37B#/media/T%E1%BA%ADp_tin:QL_37B,_VNM.svg","name:en":"National Route 37B","network":"vn:national","distance":"138 km"},"14574866":{"to":"Cửa khẩu Chút Mút, Quảng Bình","ref":"QL.9B","from":"Đường ven biển Hải Ninh, Quảng Ninh, Quảng Bình","name":"Quốc lộ 9B","type":"route","route":"road","symbol":"https://vi.wikipedia.org/wiki/Qu%E1%BB%91c_l%E1%BB%99_9B#/media/T%E1%BA%ADp_tin:QL_9B,_VNM.svg","name:en":"National Route 9B","network":"VN:national","distance":"80 km","wikidata":"Q3119866","wikipedia":"vi:Quốc lộ 9B"},"14574867":{"to":"QL.279, Than Uyên, Lai Châu","ref":"QL.279D","from":"QL.6, thành phố Sơn La","name":"Quốc lộ 279D","type":"route","lanes":"2","route":"road","name:en":"National Route 279D","network":"VN:national","distance":"140 km"},"14645897":{"to":"Mai Sơn, Yên Mô, Ninh Bình","ref":"CT.01","from":"Yên Hồng, Ý Yên, Nam Định","name":"Đường cao tốc Cao Bồ - Mai Sơn","type":"route","lanes":"2","route":"road","name:en":"Cao Bo - Mai Son Expressway","distance":"15.2","maxspeed":"80","minspeed":"60","wikidata":"Q124880907","wikipedia":"vi:Đường cao tốc Cao Bồ – Mai Sơn"},"14696801":{"name":"Vành đai 2 - TP Hải Phòng","type":"route","route":"road","wikipedia":"vi:Đường vành đai 2 (Hải Phòng)"},"14698334":{"name":"Đường Nam Lý - Trung Trương","type":"route","route":"road","name:en":"Nam Ly - Trung Truong road"},"14711186":{"name":"Đường Tránh Ea Hleo","type":"route","route":"road"},"14711242":{"name":"Đường Tránh Buôn Hồ","type":"route","route":"road","name:en":"Bypass Buon Ho"},"14751316":{"to":"QL.27, Ninh Sơn, Ninh Thuận","ref":"QL.27B","from":"QL.1, thành phố Canh Ranh, Khánh Hòa","name":"Quốc lộ 27B","type":"route","lanes":"2-4","route":"road","highway":"primary","name:en":"National Route 27B","network":"VN:National","distance":"53 km","maxspeed":"80"},"14760292":{"to":"Km1790+445 - QL14, xã Hòa Phú, TP Buôn Ma Thuột.","from":"Km0+00 tại Km1758+900 - QL14, xã Cuôr Đăng, huyện Cư M’gar;điểm cuối Km39+606,7","name":"Đường tránh Buôn Ma Thuột","type":"route","lanes":"2","route":"road","highway":"construction","name:en":"Buon Ma Thuot Bypass","distance":"39 km","maxspeed":"80","construction":"trunk"},"14862136":{"to":"Nhà máy DAP, Hải An, Hải Phòng","ref":"QL.5","from":"Nút Cầu Chui, Hà Nội","name":"Quốc lộ 5","type":"route","lanes":"4","route":"road","symbol":"https://vi.wikipedia.org/wiki/Qu%E1%BB%91c_l%E1%BB%99_5#/media/T%E1%BA%ADp_tin:QL_5,_VNM.svg","name:en":"National Highway 5","network":"VN:national","distance":"113 km","wikidata":"Q10811000","wikipedia":"vi:Quốc lộ 5"},"14899406":{"name":"Đường Nguyễn Văn Nguyễn","type":"route","route":"road"},"14925050":{"name":"Đường vành đai 3.5 TP. Hà Nội","type":"route","route":"road"},"14972523":{"to":"Tại đường Nguyễn Trãi, phường 9, thành phố Cà Mau, tỉnh Cà Mau","ref":"QL.63","from":"Ngã ba Tắc Cậu, giao với Quốc lộ 61, thị trấn Minh Lương, huyện Châu Thành, Kiên Giang","name":"Quốc lộ 63","type":"route","lanes":"2-4","route":"road","name:en":"National Route 63","network":"VN:National","distance":"113 km","wikidata":"Q10811007","wikipedia":"vi:Quốc lộ 63","construction":"trunk"},"14972524":{"to":"Quốc lộ 80 tại Ngã ba Rạch Sỏi, Rạch Sỏi, Rạch Giá, Kiên Giang","ref":"QL.61","from":"Quốc lộ 1 tại ngã ba Cái Tắc, Cái Tắc, Châu Thành A, Hậu Giang","name":"Quốc lộ 61","type":"route","lanes":"2","route":"road","source":"GPS;Vietbando","highway":"primary","network":"VN:national","distance":"96","maxspeed":"80","wikidata":"Q10811003","wikipedia":"vi:Quốc lộ 61"},"15409242":{"ref":"AH14","name":"Đường Xuyên Á số 14","note":"This superroute is a relation containing the single ways, single countries AH14 relations (work still in progress for AH14)","type":"superroute","route":"road","name:en":"Asian Highway AH14","name:my":"အမှတ် (၁၄) အာရှအဝေးပြေးလမ်းမ","name:vi":"Đường xuyên Á số 14","name:zh":"亚洲公路14号线","network":"AsianHighway","wikidata":"Q10730354","wikipedia":"vi:AH14","name:zh-Hans":"亚洲公路14号线","name:zh-Hant":"亞洲公路14號線"},"15444685":{"ref":"AH16","url":"http://wiki.openstreetmap.org/wiki/Asia/Asian_Highway_Network","name":"Đường Xuyên Á số 16","note":"Vietnamese part, Eastbound: from Lao Bao to Dong Ha","type":"route","route":"road","int_ref":"16","name:de":"Asien Fernstraße AH16","name:en":"Asian Highway AH16","network":"AsianHighway","wikidata":"Q12973941","wikipedia":"en:AH16","description":"Thị trấn Lao Bảo - Xã Tân Hợp, h. Hướng Hoá - Xã Đakrông, h. Đakrông - Thị trấn Cam Lộ - Thành phố Đông Hà","description:en":"Dong Ha - Lao Bao"},"15508486":{"to":"Cửa khẩu Tà Rùng, Quảng Trị","ref":"QL.9D","from":"Cảng Cửa Việt, Quảng Trị","name":"Quốc lộ 9D","type":"route","route":"road","source":"mapbox","highway":"primary","name:en":"National Route 9D","network":"VN:national","distance":"106km","maxspeed":"80","minspeed":"40"},"15508487":{"to":"Cửa khẩu Lao Bảo, Quảng Trị","ref":"QL.9","from":"Cảng Cửa Việt, Quảng Trị","name":"Quốc lộ 9","type":"route","lanes":"2-4","route":"road","symbol":"https://en.wikipedia.org/wiki/National_Route_9_(Vietnam)#/media/File:QL_9,_VNM.svg","name:en":"National Highway 9","network":"vn:national","distance":"118 km","wikidata":"Q936462","wikipedia":"vi:Quốc lộ 9"},"15511007":{"to":"QL.46, Thanh Chương, Nghệ An","ref":"QL.8C","from":"Thiên Cầm, Cẩm Xuyên, Hà Tĩnh","name":"Quốc lộ 8C","type":"route","lanes":"2-4","route":"road","highway":"primary","name:en":"National Route 8C","network":"VN:national","distance":"101 km"},"15655350":{"ref":"AH21","url":"http://wiki.openstreetmap.org/wiki/Asia/Asian_Highway_Network","name":"Asian Highway AH21","note":"Cambodian part, from Banlung to Serei Sophoan","type":"route","route":"road","source":"https://www.unescap.org/our-work/transport/asian-highway/database","int_ref":"AH21","name:de":"Asien Fernstraße AH21","name:en":"Asian Highway AH21","network":"AsianHighway","description":"Vietnam border - Banlung - O Paonmoan - Upper Mekong Br. - Thalabariwat - Cheb - Preah Vihear - Damdek - Siem Reap - Kralanh - Serei Sophoan - connection to the AH1"},"15657431":{"ref":"AH16","url":"http://wiki.openstreetmap.org/wiki/Asia/Asian_Highway_Network","name":"Asian Highway AH16","note":"Laotian part: from Densavanh to Savannakhet","type":"route","route":"road","int_ref":"AH16","name:de":"Asien Fernstraße AH16","name:en":"Asian Highway AH16","network":"AsianHighway","wikidata":"Q12973941","wikipedia":"en:AH16","description":"Densavanh (Border of Viet Nam) - Muang Phin - Seno - Border of Thailand (Savannakhet)"},"15660424":{"to":"Lương Sơn","ref":"ĐT.530D","via":"Giao Thiện","from":"Trí Nang","name":"Trí Nang – Giao Thiện – Lương Sơn","type":"route","route":"road"},"15660492":{"to":"Hóa Quỳ","ref":"ĐT.520E","via":"Thanh Lâm","from":"Thanh Xuân","name":"Thanh Xuân – Thanh Lâm – Hoá Quỳ","type":"route","route":"road"},"15660504":{"to":"Cát Vân","ref":"ĐT.520G","from":"Hóa Quỳ","name":"Hóa Quỳ – Cát Vân","type":"route","route":"road"},"15667249":{"ref":"AH16","url":"http://wiki.openstreetmap.org/wiki/Asia/Asian_Highway_Network","name":"Asian Highway AH16","note":"Vietnam part, Westbound: from Dong Ha to Lao Bao","type":"route","route":"road","int_ref":"AH16","name:de":"Asien Fernstraße AH16","name:en":"Asian Highway AH16","network":"AsianHighway","wikidata":"Q12973941","wikipedia":"en:AH16","description":"Dong Ha – Cam Lộ - Xã Đakrông - Lao Bao"},"15683339":{"to":"Đất Mũi, Cà Mau","ref":"QL.1","from":"Cửa Khẩu Hữu Nghị, Lạng Sơn","name":"Quốc lộ 1","type":"route","lanes":"2-10","route":"road","source":"Vietbando;GPS","symbol":"https://vi.wikipedia.org/wiki/AH1#/media/T%E1%BA%ADp_tin:Tabliczka_AH1.svg","name:en":"National Route 1","name:fr":"Route nationale 1","name:ja":"国道1号線","name:ko":"국도 제1호선","name:zh":"國道1號","network":"vn:national","note:vi":"Quốc lộ 1 là tên chính thức của con đường này, theo Quyết định số 1454/QĐ-TTg ngày 1 tháng 9 năm 2021 của Thủ tướng Chính phủ Việt Nam. Đề nghị không sửa tên thành \\\"Quốc lộ 1A\\\".","distance":"2482 km","maxspeed":"120","minspeed":"60","wikidata":"Q1372266","wikipedia":"vi:Quốc lộ 1"},"15685647":{"ref":"AH21","url":"http://wiki.openstreetmap.org/wiki/Asia/Asian_Highway_Network","name":"Đường Xuyên Á số 21","note":"Viet part, Eastbound: from Quy NhonL to e Thanh/O Yadav (Viet Nam-Cambodia border)","type":"route","route":"road","source":"https://www.unescap.org/our-work/transport/asian-highway/database","int_ref":"AH21","name:de":"Asien Fernstraße AH21","name:en":"Asian Highway AH21","network":"AsianHighway","description":"Quy Nhon port – Pleiku – Le Thanh/O Yadav (Viet Nam-Cambodia border)"},"15685648":{"url":"http://wiki.openstreetmap.org/wiki/Asia/Asian_Highway_Network","name":"Đường Xuyên Á số 21","note":"Viet part, Eastbound: from Le Thanh/O Yadav (Viet Nam-Cambodia border) to Quy Nhon","type":"route","route":"road","source":"https://www.unescap.org/our-work/transport/asian-highway/database","int_ref":"AH21","name:de":"Asien Fernstraße 21","name:en":"Asian Highway 21","network":"AsianHighway","description":"Vietnam border - Banlung - O Paonmoan - Upper Mekong Br. - Thalabariwat - Cheb - Preah Vihear - Damdek - Siem Reap - Kralanh - Serei Sophoan - connection to the AH1"},"15686597":{"to":"Trung Hạ","ref":"ĐT.530B","from":"Thị trấn Lang Chánh","name":"Thị trấn Lang Chánh – Trung Hạ","type":"route","route":"road"},"15686598":{"to":"Quang Trung","ref":"ĐT.518D","from":"Cao Thịnh","name":"Cao Thịnh – Quang Trung","type":"route","route":"road"},"15698472":{"ref":"QL.4H","name":"Quốc lộ 4H","type":"route","route":"road","network":"VN:National"},"15899800":{"to":"Đường tránh TP. Buôn Ma Thuột","ref":"CT.24","from":"KKT Nam Vân Phong, Khánh Hòa","name":"Đường cao tốc Khánh Hòa - Buôn Ma Thuột","type":"route","route":"road","symbol":"https://vi.wikipedia.org/wiki/%C4%90%C6%B0%E1%BB%9Dng_cao_t%E1%BB%91c_Kh%C3%A1nh_H%C3%B2a_%E2%80%93_Bu%C3%B4n_Ma_Thu%E1%BB%99t#/media/T%E1%BA%ADp_tin:CT_24,_VNM.svg","name:en":"Khanh Hoa - Buon Ma Thuot Expressway","network":"vn:expressway","distance":"130 km (80.78 mi)","maxspeed":"100","minspeed":"60"},"15907968":{"to":"Đường Nam Sông Hậu, Trần Đề, Sóc Trăng","ref":"CT.34","from":"QL.91, Châu Đốc, An Giang","name":"Đường cao tốc Châu Đốc - Cần Thơ - Sóc Trăng","type":"route","route":"road","name:en":"Chau Doc - Can Tho - Soc Trang Expressway","network":"VN:expressway","distance":"191 km (118.7 mi)","maxspeed":"80","minspeed":"60"},"15965597":{"to":"Đường cao tốc Hà Nội - Hải Phòng","ref":"CT.08","from":"Nút giao Mai Sơn (CT.01)","name":"Đường cao tốc Ninh Bình - Hải Phòng","type":"route","lanes":"4","route":"road","oneway":"yes","symbol":"https://vi.wikipedia.org/wiki/%C4%90%C6%B0%E1%BB%9Dng_cao_t%E1%BB%91c_Ninh_B%C3%ACnh_%E2%80%93_H%E1%BA%A3i_Ph%C3%B2ng#/media/T%E1%BA%ADp_tin:CT_08,_VNM.svg","highway":"construction","name:en":"Ninh Binh - Hai Phong Expressway","network":"vn:expressway","distance":"109 km","maxspeed":"120","minspeed":"60","construction":"motorway"},"15982512":{"ref":"ĐT.984","name":"Đường tỉnh 984","type":"route","lanes":"2","route":"road","source":"track","highway":"secondary","name:en":"Provincial Road 984","name:vi":"Đường tỉnh 984","surface":"asphalt"},"15982513":{"ref":"ĐT.983B","name":"Đường tỉnh 983B","type":"route","lanes":"2","route":"road","source":"track","highway":"secondary","name:en":"Provincial Road 983B","name:vi":"Đường tỉnh 983B","surface":"asphalt"},"15982514":{"ref":"ĐT.983C","name":"Đường tỉnh 983C","type":"route","lanes":"2","route":"road","source":"track","highway":"secondary","name:en":"Provincial Road 983C","name:vi":"Đường tỉnh 983C","surface":"asphalt"},"15997999":{"ref":"ĐT.833D","name":"Đường tỉnh 833D","type":"route","route":"road","highway":"construction","name:en":"Provincial Road 833D","name:vi":"Đường tỉnh 833D","construction":"secondary"},"16002146":{"name":"Đại lộ Vinh - Cửa Lò","type":"route","route":"road","oneway":"yes","highway":"construction","name:en":"Vinh - Cua Lo Avenue","name:vi":"Đại lộ Vinh - Cửa Lò","distance":"10.8 km","construction":"primary"},"16023019":{"ref":"CT.36","name":"Đường cao tốc Cao Lãnh - An Hữu","type":"route","lanes":"2","route":"road","oneway":"yes","highway":"construction","name:en":"Cao Lanh - An Huu Expressway","name:vi":"Đường cao tốc Cao Lãnh - An Hữu","network":"VN:Expressway","distance":"27 km","maxspeed":"80","construction":"motorway"},"16023020":{"ref":"CT.36","name":"Đường cao tốc Hồng Ngự - Trà Vinh","type":"route","route":"road","oneway":"yes","symbol":"https://vi.wikipedia.org/wiki/%C4%90%C6%B0%E1%BB%9Dng_cao_t%E1%BB%91c_H%E1%BB%93ng_Ng%E1%BB%B1_%E2%80%93_Tr%C3%A0_Vinh#/media/T%E1%BA%ADp_tin:CT_36,_VNM.svg","name:en":"Hong Ngu - Tra Vinh Expressway","name:vi":"Đường cao tốc Hồng Ngự - Trà Vinh","network":"vn:expressway","distance":"188 km","wikipedia":"vi:Đường cao tốc Hồng Ngự – Trà Vinh"},"16034405":{"ref":"ĐT.542","name":"Đường tỉnh 542","type":"route","route":"road","highway":"secondary","name:en":"Provincial Road 542","name:vi":"Đường tỉnh 542"},"16034406":{"ref":"ĐT.535","name":"Đường tỉnh 535","type":"route","route":"road","highway":"secondary","name:en":"Provincial Road 535","name:vi":"Đường tỉnh 535"},"16034407":{"ref":"ĐT.546","name":"Đường tỉnh 546","type":"route","route":"road","highway":"secondary","name:en":"Provincial Road 546","name:vi":"Đường tỉnh 546"},"16034408":{"ref":"ĐT.537A","name":"Đường tỉnh 537A","type":"route","route":"road","highway":"secondary","name:en":"Provincial Road 537A","name:vi":"Đường tỉnh 537A"},"16034409":{"ref":"ĐT.537B","name":"Đường tỉnh 537B","type":"route","route":"road","highway":"secondary","name:en":"Provincial Road 537B","name:vi":"Đường tỉnh 537B"},"16034410":{"ref":"ĐT.536","name":"Đường tỉnh 536","type":"route","route":"road","source":"GPS","highway":"secondary","name:en":"Provincial Road 536","name:vi":"Đường tỉnh 536"},"16036560":{"to":"QL.1, Quảng Xương, Thanh Hóa","ref":"QL.10","from":"QL.18, thành phố Uông Bí, Quảng Ninh","name":"Quốc lộ 10","type":"route","lanes":"2-4","route":"road","symbol":"https://vi.wikipedia.org/wiki/Qu%E1%BB%91c_l%E1%BB%99_10#/media/T%E1%BA%ADp_tin:QL_10,_VNM.svg","name:en":"National Highway 10","name:vi":"Quốc lộ 10","network":"vn:national","distance":"268 km"},"16036561":{"ref":"ĐT.510","name":"Đường tỉnh 510","type":"route","route":"road","name:en":"Provincial Road 510","name:vi":"Đường tỉnh 510"},"16054080":{"to":"Km53+850 quốc lộ 22","ref":"CT.31","from":"Vành đai 3 Thành phố Hồ Chí Minh","name":"Đường cao tốc Thành phố Hồ Chí Minh - Mộc Bài","type":"route","lanes":"6-8","route":"road","name:en":"HCMC - Moc Bai Expressway","name:vi":"Đường cao tốc Thành phố Hồ Chí Minh - Mộc Bài","network":"VN:expressway","distance":"50 km","maxspeed":"100","opening_date":"2025"},"16054081":{"to":"Cửa khẩu Xa Mát, Tây Ninh","ref":"CT.32","from":"Đường cao tốc TP. Hồ Chí Minh - Mộc Bài, Tây Ninh","name":"Đường cao tốc Gò Dầu - Xa Mát","type":"route","lanes":"4","route":"road","oneway":"yes","name:en":"Go Dau - Xa Mat Expressway","name:vi":"Đường cao tốc Gò Dầu - Xa Mát","network":"VN:expressway","distance":"65 km","maxspeed":"100"},"16078818":{"to":"Cửa khẩu Thanh Thủy, Hà Giang","ref":"CT.15","from":"Đường Hồ Chí Minh, Tuyên Quang","name":"Đường cao tốc Tuyên Quang - Hà Giang","type":"route","lanes":"2","route":"road","oneway":"no","symbol":"https://vi.wikipedia.org/wiki/%C4%90%C6%B0%E1%BB%9Dng_cao_t%E1%BB%91c_Tuy%C3%AAn_Quang_%E2%80%93_H%C3%A0_Giang#/media/T%E1%BA%ADp_tin:CT_15,_VNM.svg","highway":"construction","name:en":"Tuyen Quang - Ha Giang Expressway","name:vi":"Đường cao tốc Tuyên Quang - Hà Giang","network":"vn:expressway","distance":"165 km","maxspeed":"80","minspeed":"60","construction":"motorway"},"16088635":{"ref":"4C","name":"Quốc lộ 4C","type":"route","route":"road"},"16092486":{"ref":"QL.91C","name":"Quốc lộ 91C","type":"route","route":"road","name:en":"National Highway 91C","network":"VN"},"16092615":{"to":"Cửa khẩu Lệ Thanh, Gia Lai","ref":"QL.19","from":"Cảng Quy Nhơn, Bình Định","name":"Quốc lộ 19","type":"route","route":"road","name:en":"National Route 19","network":"vn:national","distance":"243"},"16093829":{"ref":"QL.100","name":"Quốc lộ 100","type":"route","route":"road","name:en":"National Road 100","network":"VN"},"16093915":{"ref":"QL.15D","name":"Quốc lộ 15D","type":"route","route":"road","network":"VN","wikipedia":"vi:Quốc lộ 15D"},"16093944":{"ref":"QL.49C","name":"Quốc lộ 49C","type":"route","route":"road","network":"vn:national","wikipedia":"vi:Quốc lộ 49C"},"16422171":{"ref":"CT.39","name":"Đường cao tốc vành đai 5 Hà Nội","type":"route","route":"road","symbol":"https://vi.wikipedia.org/wiki/%C4%90%C6%B0%E1%BB%9Dng_v%C3%A0nh_%C4%91ai_5_(H%C3%A0_N%E1%BB%99i)#/media/T%E1%BA%ADp_tin:CT_39,_VNM.svg","name:en":"Ring Road 5 Expressway Hanoi","network":"vn:expressway"},"16452538":{"name":"Đường Vành đai 1 Vĩnh Phúc","type":"route","route":"road"},"16452539":{"name":"Đường vành đai 2 Vĩnh Phúc","type":"route","route":"road"},"16452540":{"name":"Đường vành đai 3 Vĩnh Phúc","type":"route","route":"road"},"16452541":{"name":"Đường vành đai 4 Vĩnh Phúc","type":"route","route":"road"},"16452542":{"name":"Đường vành đai 5 Vĩnh Phúc","type":"route","route":"road"},"16623487":{"name":"Đường liên vùng HCM, QL70B, QL32C","type":"route","lanes":"2","route":"road","maxspeed":"60"},"16623925":{"to":"Thành phố Đà Lạt, Lâm Đồng","ref":"TSĐ","from":"Đường Hồ Chí Minh, Thạch Mỹ, Nam Giang, Quảng Nam","name":"Đường Trường Sơn Đông","type":"route","route":"road","name:en":"Truong Son Dong Road Highway","network":"vn:national","distance":"672 km"},"16666779":{"to":"Vĩnh Lộc","ref":"ĐT.507","from":"Triệu Sơn","name":"Triệu Sơn – Vĩnh Lộc","type":"route","route":"road"},"16666780":{"to":"Thạch Quảng","ref":"ĐT.516","via":"Kim Tân","from":"Vĩnh Hùng","name":"Vĩnh Hùng – Kim Tân – Thạch Quảng","type":"route","route":"road"},"16666781":{"to":"Phố Châu","ref":"ĐT.516B","via":"Thống Nhất","from":"Quán Lào","name":"Thị trấn Quán Lào – Nông trường Thống Nhất – Phố Châu","type":"route","route":"road"},"16763312":{"to":"Đường Hồ Chí Minh, Nam Giang, Quảng Nam","ref":"QL.14H","from":"Cảng Cửa Đại, Quảng Nam","name":"Quốc lộ 14H","type":"route","lanes":"2","route":"road","name:en":"National Highway 14H","network":"vn:national","distance":"76 km"},"16915548":{"to":"Cửa khẩu Trà Lĩnh, Cao Bằng","ref":"CT.10","from":"Đường cao tốc Vân Đồn - Móng Cái, Tiên Yên, Quảng Ninh","name":"Đường cao tốc Tiên Yên - Lạng Sơn - Cao Bằng","type":"route","lanes":"2-4","route":"road","oneway":"yes","symbol":"https://vi.wikipedia.org/wiki/%C4%90%C6%B0%E1%BB%9Dng_cao_t%E1%BB%91c_Ti%C3%AAn_Y%C3%AAn_%E2%80%93_L%E1%BA%A1ng_S%C6%A1n_%E2%80%93_Cao_B%E1%BA%B1ng#/media/T%E1%BA%ADp_tin:CT_10,_VNM.svg","highway":"construction","name:en":"Tien Yen - Lang Son - Cao Bang Expressway","network":"vn:expressway","distance":"215km","maxspeed":"80","construction":"motorway"},"16926978":{"to":"Cửa khẩu Cầu Treo","ref":"AH15","from":"Quốc lộ 1A","name":"Đường Xuyên Á số 15","type":"route","lanes":"2-4","route":"road","name:de":"Asiatische Fernstraße 15","name:en":"Asian Highway 15","name:fr":"Route asiatique 15","name:id":"Jalan Asia 15","name:ja":"アジアハイウェイ15号線","name:ko":"아시안 하이웨이 15호선","name:ms":"Lebuh Raya Asia 15","name:my":"အာရှအဝေးပြေး ၁","name:ru":"Азиатский маршрут 15","name:th":"ทางหลวงสายเอเชีย15","name:tr":"Asya Yolu 15","name:vi":"Đường xuyên Á số 15","name:zh":"亚洲公路15号线","network":"AsianHighway","section":"Vietnam","int_name":"Asian Highway 15"},"16926979":{"to":"Cửa khẩu Cầu Treo, Hà Tĩnh","ref":"QL.8A","from":"Đường ven biển, Nghi Xuân, Hà Tĩnh","name":"Quốc lộ 8","type":"route","lanes":"2-4","route":"road","symbol":"https://vi.wikipedia.org/wiki/Qu%E1%BB%91c_l%E1%BB%99_8#/media/T%E1%BA%ADp_tin:QL_8,_VNM.svg","name:en":"National Highway 8","network":"vn:national","distance":"115 km"},"17220763":{"ref":"CT.16","name":"Đường cao tốc Hưng Yên - Thái Bình","type":"route","route":"road","network":"vn:expressway"},"17347621":{"to":"Tân Phúc, Nông Cống, Thanh Hóa","ref":"CT.01","from":"Mai Sơn, Yên Mô, Ninh Bình","name":"Đường cao tốc Mai Sơn – Quốc lộ 45","type":"route","route":"road","name:en":"Mai Son – National Route 45 Expressway","distance":"63.37","wikidata":"Q20025663","wikipedia":"vi:Đường cao tốc Mai Sơn – Quốc lộ 45","start_date":"2023-04-29"},"17348488":{"to":"Cửa khẩu Đắk Ruê, Đắk Lắk","ref":"QL.29","from":"Cảng Vũng Rô, Đông Hòa, Phú Yên","name":"Quốc lộ 29","type":"route","route":"road","symbol":"https://vi.wikipedia.org/wiki/Qu%E1%BB%91c_l%E1%BB%99_29#/media/T%E1%BA%ADp_tin:QL_29,_VNM.svg","name:en":"National Route 29","network":"VN:national","distance":"293","wikidata":"Q10810967","wikipedia":"vi:Quốc lộ 29"},"17348489":{"to":"Đường Hồ Chí Minh, Chư Sê, Gia Lai","ref":"QL.25","from":"QL.1, thành phố Tuy Hòa, Phú Yên","name":"Quốc lộ 25","type":"route","route":"road","source":"bing aerial","name:en":"National Route 25","network":"vn:national","distance":"182","wikidata":"Q10810959","wikipedia":"vi:Quốc lộ 25"},"17352640":{"to":"Lộ 25, Thống Nhất, Đồng Nai","ref":"CT.01","from":"Hàm Kiệm, Hàm Thuận Nam, Bình Thuận","name":"Đường cao tốc Phan Thiết – Dầu Giây","type":"route","route":"road","name:en":"Phan Thiet – Dau Giay Expressway","network":"vn:expressway","distance":"99","wikidata":"Q20025664","wikipedia":"vi:Đường cao tốc Phan Thiết – Dầu Giây","start_date":"2023-04-29"},"17352641":{"to":"Hàm Kiệm, Hàm Thuận Nam, Bình Thuận","ref":"CT.01","from":"Vĩnh Hảo, Tuy Phong, Bình Thuận","name":"Đường cao tốc Vĩnh Hảo – Phan Thiết","type":"route","route":"road","name:en":"Vinh Hao – Phan Thiet Expressway","network":"vn:expressway","distance":"100.8","wikidata":"Q124891915","wikipedia":"vi:Đường cao tốc Vĩnh Hảo – Phan Thiết","start_date":"2023-05-19"},"17352776":{"to":"Tân Trường, Nghi Sơn, Thanh Hóa","ref":"CT.01","from":"Tân Phúc, Nông Cống, Thanh Hóa","name":"Đường cao tốc Quốc lộ 45 – Nghi Sơn","type":"route","route":"road","name:en":"National Route 45 – Nghi Son Expressway","network":"vn:expressway","distance":"43.28","wikidata":"Q124893382","wikipedia":"vi:Đường cao tốc Quốc lộ 45 – Nghi Sơn","start_date":"2023-09-01"},"17352777":{"to":"Diễn Cát, Diễn Châu, Nghệ An","ref":"CT.01","from":"Tân Trường, Nghi Sơn, Thanh Hóa","name":"Đường cao tốc Nghi Sơn – Diễn Châu","type":"route","route":"road","name:en":"Nghi Son – Dien Chau Expressway","network":"vn:expressway","distance":"50","wikidata":"Q24959076","wikipedia":"vi:Đường cao tốc Nghi Sơn – Diễn Châu","start_date":"2023-09-01"},"17352778":{"to":"An Thái Trung, Cái Bè, Tiền Giang","ref":"CT.01","from":"Thân Cửu Nghĩa, Châu Thành, Tiền Giang","name":"Đường cao tốc Trung Lương – Mỹ Thuận","type":"route","route":"road","name:en":"Trung Luong – My Thuan Expressway","network":"vn:expressway","distance":"51.5","wikidata":"Q24959073","wikipedia":"vi:Đường cao tốc Trung Lương – Mỹ Thuận","start_date":"2022-04-27"},"17354079":{"to":"Cam Thịnh Tây, Cam Ranh, Khánh Hòa","ref":"CT.01","from":"Diên Thọ, Diên Khánh, Khánh Hòa","name":"Đường cao tốc Nha Trang – Cam Lâm","type":"route","route":"road","name:en":"Nha Trang – Cam Lam Expressway","network":"vn:expressway","distance":"49.11","wikidata":"Q124934951","wikipedia":"vi:Đường cao tốc Nha Trang – Cam Lâm","start_date":"2023-05-19"},"17354096":{"to":"Nút giao Chà Và, thị xã Bình Minh, Vĩnh Long","ref":"CT.01","from":"Thành phố Vĩnh Long, Vĩnh Long","name":"Đường cao tốc Mỹ Thuận – Cần Thơ","type":"route","route":"road","name:en":"My Thuan – Can Tho Expressway","network":"vn:expressway","distance":"23","wikidata":"Q124935020","wikipedia":"vi:Đường cao tốc Mỹ Thuận – Cần Thơ","start_date":"2023-12-24"},"17358640":{"to":"Cửa khẩu Hoa Lư, Bình Phước","ref":"QL.13","from":"QL.1, quận Thủ Đức, Thành phố Hồ Chí Minh","name":"Quốc lộ 13","type":"route","route":"road","symbol":"https://vi.wikipedia.org/wiki/Qu%E1%BB%91c_l%E1%BB%99_13#/media/T%E1%BA%ADp_tin:QL_13,_VNM.svg","name:en":"National Route 13","network":"vn:national","distance":"149"},"17365586":{"to":"Thành phố Quảng Ngãi, Nghĩa Kỳ, Tư Nghĩa, Quảng Ngãi","ref":"CT.01","from":"Túy Loan, Hòa Vang, Đà Nẵng","name":"Đường cao tốc Đà Nẵng – Quảng Ngãi","type":"route","route":"road","name:en":"Da Nang – Quang Ngai Expressway","network":"vn:expressway","distance":"139.2","wikidata":"Q24958940","wikipedia":"vi:Đường cao tốc Đà Nẵng – Quảng Ngãi","start_date":"2018-09-02"},"17365645":{"to":"La Sơn, Phú Lộc, Thừa Thiên Huế","ref":"CT.01;CT.02","from":"Cam Lộ, Quảng Trị","name":"Đường cao tốc Cam Lộ – La Sơn","type":"route","route":"road","name:en":"Cam Lo – La Son Expressway","network":"vn:expressway","distance":"98.35","wikidata":"Q32214269","wikipedia":"vi:Đường cao tốc Cam Lộ – La Sơn","start_date":"2022-12-31"},"17365957":{"to":"Vĩnh Hảo, Tuy Phong, Bình Thuận","ref":"CT.01","from":"Cam Thịnh Tây, Cam Ranh, Khánh Hòa","name":"Đường cao tốc Cam Lâm – Vĩnh Hảo","type":"route","route":"road","name:en":"Cam Lam – Vinh Hao Expressway","network":"vn:expressway","distance":"78.5","wikidata":"Q30920476","wikipedia":"vi:Đường cao tốc Cam Lâm – Vĩnh Hảo","start_date":"2024-04-26"},"17365958":{"to":"Thanh Bình Thịnh, Đức Thọ, Hà Tĩnh","ref":"CT.01","from":"Diễn Cát, Diễn Châu, Nghệ An","name":"Đường cao tốc Diễn Châu – Bãi Vọt","type":"route","route":"road","name:en":"Dien Chau – Bai Vot Expressway","network":"vn:expressway","distance":"49","wikidata":"Q125018690","wikipedia":"vi:Đường cao tốc Diễn Châu – Bãi Vọt","start_date":"2024-04-28"},"17366022":{"to":"Thị xã Phú Thọ, Phú Thọ","ref":"CT.02","from":"Thành phố Tuyên Quang, Tuyên Quang","name":"Đường cao tốc Tuyên Quang – Phú Thọ","type":"route","route":"road","name:en":"Tuyen Quang – Phu Tho Expressway","network":"vn:expressway","distance":"40.2","wikidata":"Q109430340","wikipedia":"vi:Đường cao tốc Tuyên Quang – Phú Thọ","start_date":"2023-12-24"},"17366183":{"to":"Túy Loan, Hòa Vang, Đà Nẵng","ref":"CT.01;CT.02","from":"La Sơn, Phú Lộc, Thừa Thiên Huế","name":"Đường cao tốc La Sơn – Túy Loan","type":"route","route":"road","name:en":"La Son – Tuy Loan Expressway","network":"vn:expressway","distance":"77.5","wikidata":"Q30920474","wikipedia":"vi:Đường cao tốc La Sơn – Túy Loan","start_date":"2022-04-16"},"17366184":{"to":"Mỹ Yên, Bến Lức, Long An","ref":"CT.01","from":"Long Thành, Đồng Nai","name":"Đường cao tốc Bến Lức – Long Thành","type":"route","route":"road","name:en":"Ben Luc – Long Thanh Expressway","network":"vn:expressway","distance":"57.09","wikidata":"Q20025662","wikipedia":"vi:Đường cao tốc Bến Lức – Long Thành"},"17366337":{"to":"Thạch Bàn, Long Biên, Hà Nội","ref":"CT.01","from":"Xóm Núm, Thành phố Bắc Giang, Bắc Giang","name":"Đường cao tốc Hà Nội – Bắc Giang","type":"route","route":"road","name:en":"Hanoi – Bac Giang Expressway","network":"vn:expressway","distance":"48.6","wikidata":"Q125019737","wikipedia":"vi:Đường cao tốc Hà Nội – Bắc Giang"},"17376880":{"to":"Vạn Ninh, Khánh Hòa","ref":"CT.01","from":"Thị xã Đông Hòa, Phú Yên","name":"Hầm đường bộ Đèo Cả","type":"route","route":"road","name:en":"Deo Ca Tunnel","network":"vn:expressway","distance":"13.5","wikidata":"Q10771767","wikipedia":"vi:Hầm đường bộ Đèo Cả","start_date":"2017-08-21"},"17412421":{"to":"Thạch Xuân, Thạch Hà, Hà Tĩnh","ref":"CT.01;CT.02","from":"Thanh Bình Thịnh, Đức Thọ, Hà Tĩnh","name":"Đường cao tốc Bãi Vọt – Hàm Nghi","type":"route","route":"road","name:en":"Bai Vot – Ham Nghi Expressway","network":"vn:expressway","distance":"35.28","wikidata":"Q125252721","wikipedia":"vi:Đường cao tốc Bãi Vọt – Hàm Nghi"},"17576164":{"to":"Phường Bồng Sơn, thị xã Hoài Nhơn, Bình Định","ref":"CT.01","from":"Thành phố Quảng Ngãi, Nghĩa Kỳ, Tư Nghĩa, Quảng Ngãi","name":"Đường cao tốc Quảng Ngãi – Hoài Nhơn","type":"route","route":"road","name:en":"Quang Ngai – Hoai Nhon Expressway","network":"vn:expressway","distance":"88","wikidata":"Q125855734","wikipedia":"vi:Đường cao tốc Quảng Ngãi – Hoài Nhơn"},"17576179":{"to":"Nhơn Hòa, An Nhơn, Bình Định","ref":"CT.01","from":"Bồng Sơn, Hoài Nhơn, Bình Định","name":"Đường cao tốc Hoài Nhơn – Quy Nhơn","type":"route","route":"road","name:en":"Hoai Nhon – Quy Nhon Expressway","network":"vn:expressway","distance":"69","wikidata":"Q125855834","wikipedia":"vi:Đường cao tốc Hoài Nhơn – Quy Nhơn"},"17639727":{"to":"Cửa khẩu La Lay, Quảng Trị","ref":"QL.15D","from":"Cảng Mỹ Thủy, Quảng Trị","name":"Quốc lộ 15D","note":"Quốc lộ chính yêu ở Miền Trung, vui lòng không thay đổi sang thứ yếu","type":"route","lanes":"2","route":"road","name:en":"National Highway 15D","network":"vn:national","distance":"78km","maxspeed":"60","wikipedia":"vi:Quốc lộ 15D"},"17654799":{"to":"Diên Thọ, Diên Khánh, Khánh Hòa","ref":"CT.01","from":"Đường dẫn phía Nam hầm Cổ Mã, Vạn Thọ, Vạn Ninh, Khánh Hòa","name":"Đường cao tốc Vân Phong – Nha Trang","type":"route","route":"road","name:en":"Van Phong – Nha Trang Expressway","network":"vn:expressway","distance":"83","wikidata":"Q125252733","wikipedia":"vi:Đường cao tốc Vân Phong – Nha Trang"}}